{"type":"FeatureCollection","name":"Laguna","crs":{"type":"name","properties":{"name":"urn:ogc:def:crs:OGC:1.3:CRS84"}},"features":[{"type":"Feature","id":1,"geometry":{"type":"Polygon","coordinates":[[[-74.919,5.5352],[-74.919,5.53521],[-74.91874,5.5353],[-74.9184,5.5353],[-74.91792,5.53534],[-74.91749,5.53552],[-74.91717,5.53571],[-74.91675,5.53608],[-74.91638,5.53641],[-74.91614,5.53663],[-74.91598,5.53663],[-74.91585,5.53663],[-74.91562,5.53644],[-74.91544,5.53626],[-74.91533,5.53625],[-74.91521,5.53629],[-74.91517,5.53637],[-74.91517,5.53678],[-74.91512,5.5373],[-74.91493,5.53763],[-74.91478,5.53798],[-74.91475,5.53831],[-74.91483,5.53864],[-74.91483,5.53902],[-74.91462,5.53961],[-74.91443,5.53978],[-74.91421,5.53982],[-74.91389,5.53997],[-74.91373,5.54006],[-74.91365,5.54021],[-74.9137,5.54051],[-74.91376,5.54091],[-74.91379,5.54131],[-74.91376,5.54152],[-74.91364,5.54169],[-74.91342,5.5418],[-74.91313,5.54192],[-74.91283,5.54217],[-74.91247,5.54261],[-74.9121,5.54311],[-74.91176,5.54359],[-74.91142,5.54411],[-74.9112,5.5444],[-74.91108,5.54453],[-74.9109,5.54453],[-74.91081,5.54452],[-74.91042,5.54432],[-74.91014,5.54418],[-74.90997,5.54414],[-74.90975,5.54424],[-74.90969,5.54459],[-74.9098,5.54507],[-74.90993,5.54563],[-74.91002,5.54612],[-74.90998,5.5463],[-74.90985,5.54639],[-74.90942,5.54639],[-74.90908,5.54653],[-74.90908,5.54661],[-74.90908,5.54671],[-74.9093,5.54687],[-74.90949,5.54712],[-74.90972,5.54739],[-74.9099,5.54756],[-74.90996,5.54775],[-74.90996,5.54792],[-74.90988,5.5481],[-74.90973,5.54838],[-74.90973,5.54853],[-74.9098,5.54855],[-74.9099,5.54853],[-74.9101,5.54855],[-74.91037,5.54873],[-74.91042,5.54904],[-74.91049,5.5496],[-74.91039,5.5503],[-74.91021,5.5509],[-74.91012,5.55134],[-74.91012,5.55156],[-74.91024,5.55183],[-74.91049,5.55216],[-74.91061,5.55273],[-74.91068,5.55322],[-74.9105,5.55374],[-74.90995,5.5544],[-74.90937,5.55502],[-74.90856,5.5555],[-74.90763,5.55621],[-74.90673,5.55699],[-74.90604,5.55767],[-74.90583,5.55786],[-74.90577,5.55796],[-74.90567,5.55799],[-74.90551,5.5579],[-74.90544,5.55775],[-74.90534,5.55775],[-74.9053,5.55784],[-74.9053,5.55804],[-74.90526,5.55852],[-74.90489,5.55922],[-74.90454,5.56004],[-74.90424,5.56047],[-74.90397,5.56075],[-74.90376,5.56088],[-74.90372,5.56095],[-74.90372,5.56108],[-74.90379,5.56113],[-74.90389,5.56124],[-74.904,5.56142],[-74.904,5.56172],[-74.90385,5.56217],[-74.90333,5.56287],[-74.90295,5.56332],[-74.90272,5.56381],[-74.90264,5.56393],[-74.90241,5.56407],[-74.90197,5.56417],[-74.90176,5.56433],[-74.90151,5.56441],[-74.90122,5.56441],[-74.90089,5.56424],[-74.90058,5.56379],[-74.90033,5.56322],[-74.90002,5.56282],[-74.89979,5.56262],[-74.89932,5.56237],[-74.89913,5.56237],[-74.89876,5.56244],[-74.89856,5.56244],[-74.89816,5.56229],[-74.8979,5.56215],[-74.89771,5.56193],[-74.8977,5.56174],[-74.89774,5.56114],[-74.89782,5.56048],[-74.8978,5.55987],[-74.89757,5.55913],[-74.89738,5.55874],[-74.89702,5.55828],[-74.89667,5.55767],[-74.89663,5.55744],[-74.89667,5.55731],[-74.89676,5.55714],[-74.89675,5.55697],[-74.8966,5.55688],[-74.89634,5.55677],[-74.89611,5.55662],[-74.89596,5.55617],[-74.89596,5.55589],[-74.89604,5.55572],[-74.89607,5.55558],[-74.89603,5.55557],[-74.89584,5.55557],[-74.89562,5.55565],[-74.89529,5.55569],[-74.89491,5.55595],[-74.89465,5.55617],[-74.89431,5.55658],[-74.89363,5.55721],[-74.89278,5.5577],[-74.89224,5.55803],[-74.89203,5.55806],[-74.8918,5.55802],[-74.89164,5.55798],[-74.89154,5.55777],[-74.89158,5.55751],[-74.89179,5.55697],[-74.89216,5.55656],[-74.89273,5.55617],[-74.89318,5.55575],[-74.89368,5.55537],[-74.89412,5.55483],[-74.89458,5.55422],[-74.89504,5.55374],[-74.89542,5.55334],[-74.89559,5.55324],[-74.89568,5.5532],[-74.89576,5.55315],[-74.8958,5.55307],[-74.89574,5.55289],[-74.89554,5.55279],[-74.8953,5.55259],[-74.895,5.55219],[-74.89496,5.5512],[-74.89511,5.55029],[-74.89532,5.54984],[-74.89549,5.54982],[-74.89565,5.54975],[-74.89572,5.54968],[-74.89576,5.54958],[-74.89564,5.5495],[-74.89536,5.54935],[-74.89524,5.54919],[-74.89517,5.54877],[-74.89529,5.548],[-74.89545,5.54673],[-74.89592,5.54573],[-74.89623,5.54506],[-74.8965,5.54466],[-74.89672,5.54419],[-74.89684,5.54375],[-74.89713,5.54309],[-74.89747,5.54229],[-74.89807,5.54153],[-74.89832,5.54081],[-74.89877,5.53988],[-74.89936,5.53924],[-74.9,5.53872],[-74.90038,5.53828],[-74.90079,5.53783],[-74.90137,5.53742],[-74.90199,5.53694],[-74.90239,5.53647],[-74.90294,5.53583],[-74.90302,5.5356],[-74.90301,5.53538],[-74.9028,5.53538],[-74.90268,5.53531],[-74.90257,5.53515],[-74.90266,5.53481],[-74.90271,5.53459],[-74.90271,5.53449],[-74.90256,5.53446],[-74.90241,5.53449],[-74.90223,5.53451],[-74.90212,5.53449],[-74.90208,5.5342],[-74.90219,5.53367],[-74.90242,5.53292],[-74.90269,5.53189],[-74.90297,5.53128],[-74.90296,5.53066],[-74.90286,5.52982],[-74.90277,5.52926],[-74.90286,5.52884],[-74.90305,5.52853],[-74.90327,5.52826],[-74.90327,5.52818],[-74.90317,5.52814],[-74.90289,5.5281],[-74.90278,5.52799],[-74.90265,5.52762],[-74.90253,5.52687],[-74.90234,5.52639],[-74.90226,5.5259],[-74.90231,5.52556],[-74.90247,5.52512],[-74.9025,5.52497],[-74.90253,5.52464],[-74.90258,5.52449],[-74.90279,5.52431],[-74.90283,5.52415],[-74.90272,5.524],[-74.9026,5.52397],[-74.90255,5.52393],[-74.9026,5.52382],[-74.9028,5.52351],[-74.90303,5.52303],[-74.90313,5.52259],[-74.9031,5.52221],[-74.90315,5.52178],[-74.90327,5.52169],[-74.90348,5.52156],[-74.90355,5.52152],[-74.90363,5.52142],[-74.90363,5.52125],[-74.90349,5.52111],[-74.90322,5.52084],[-74.90303,5.52023],[-74.90307,5.51991],[-74.90318,5.51958],[-74.90335,5.51932],[-74.90357,5.51917],[-74.90371,5.51909],[-74.90378,5.51905],[-74.90384,5.51898],[-74.90387,5.51893],[-74.90384,5.51886],[-74.90362,5.51872],[-74.90343,5.5186],[-74.90326,5.51837],[-74.90317,5.51808],[-74.90327,5.51762],[-74.90374,5.5164],[-74.90418,5.51615],[-74.90473,5.51592],[-74.90498,5.51572],[-74.90509,5.51528],[-74.90535,5.51485],[-74.90566,5.51458],[-74.90592,5.51454],[-74.90607,5.51455],[-74.90613,5.51462],[-74.90613,5.51476],[-74.9062,5.51478],[-74.90637,5.51483],[-74.90663,5.51465],[-74.90684,5.51447],[-74.90701,5.51439],[-74.9071,5.51436],[-74.90714,5.51431],[-74.9072,5.51422],[-74.9071,5.5141],[-74.90696,5.51395],[-74.90694,5.51383],[-74.90701,5.5137],[-74.90707,5.51354],[-74.90701,5.51349],[-74.90692,5.51349],[-74.90677,5.51353],[-74.90652,5.51362],[-74.90609,5.51347],[-74.90539,5.513],[-74.9049,5.51264],[-74.9043,5.51211],[-74.90407,5.51197],[-74.90394,5.51197],[-74.90378,5.51189],[-74.90374,5.51165],[-74.90385,5.51124],[-74.90412,5.51103],[-74.90425,5.51103],[-74.90439,5.51114],[-74.90453,5.51122],[-74.90475,5.51123],[-74.90502,5.51118],[-74.90529,5.51104],[-74.90551,5.51073],[-74.90552,5.51063],[-74.90537,5.51058],[-74.90509,5.51061],[-74.90496,5.51048],[-74.90484,5.5102],[-74.90483,5.50974],[-74.90483,5.50954],[-74.90476,5.50951],[-74.90468,5.50951],[-74.90448,5.50973],[-74.90431,5.50983],[-74.90408,5.50984],[-74.90378,5.50973],[-74.90357,5.50946],[-74.90337,5.50924],[-74.90332,5.50917],[-74.90324,5.50917],[-74.90305,5.50928],[-74.90286,5.50928],[-74.90245,5.5092],[-74.90198,5.50905],[-74.90166,5.509],[-74.9015,5.509],[-74.90136,5.50897],[-74.90114,5.50873],[-74.90054,5.50799],[-74.89983,5.50717],[-74.89961,5.50694],[-74.89956,5.50676],[-74.89964,5.50652],[-74.89964,5.50635],[-74.89953,5.50619],[-74.89924,5.50586],[-74.89909,5.50567],[-74.89909,5.50541],[-74.89928,5.50519],[-74.89941,5.50501],[-74.89958,5.50486],[-74.8999,5.50478],[-74.90022,5.50478],[-74.90032,5.50482],[-74.90047,5.50489],[-74.90073,5.50489],[-74.901,5.50466],[-74.9014,5.50405],[-74.90172,5.50325],[-74.90223,5.50258],[-74.90276,5.50211],[-74.90292,5.50207],[-74.90312,5.50202],[-74.90319,5.50193],[-74.90321,5.50178],[-74.90312,5.50162],[-74.90311,5.50148],[-74.90319,5.50118],[-74.90336,5.5011],[-74.90364,5.50106],[-74.90385,5.50117],[-74.90398,5.50125],[-74.90415,5.50129],[-74.90425,5.50129],[-74.9045,5.50117],[-74.90473,5.50092],[-74.90498,5.50065],[-74.90506,5.50036],[-74.90573,5.5],[-74.90603,5.49983],[-74.90637,5.49976],[-74.90654,5.49972],[-74.90664,5.49974],[-74.90669,5.49976],[-74.90672,5.49984],[-74.90679,5.49984],[-74.90688,5.4998],[-74.90694,5.49944],[-74.90703,5.49891],[-74.90706,5.49857],[-74.90707,5.4984],[-74.90711,5.49836],[-74.90726,5.49825],[-74.90751,5.49807],[-74.90765,5.49792],[-74.90769,5.4978],[-74.90777,5.4976],[-74.90775,5.49736],[-74.90785,5.49721],[-74.90786,5.49709],[-74.90786,5.49698],[-74.9079,5.49687],[-74.90798,5.49679],[-74.90805,5.49679],[-74.90818,5.49679],[-74.90842,5.49687],[-74.90876,5.49713],[-74.90887,5.49724],[-74.90894,5.49725],[-74.90902,5.49729],[-74.9091,5.49729],[-74.90924,5.49699],[-74.90959,5.49649],[-74.90991,5.49624],[-74.91045,5.49599],[-74.91091,5.49583],[-74.91128,5.49562],[-74.91136,5.49555],[-74.91141,5.49547],[-74.91141,5.49543],[-74.9113,5.49543],[-74.91102,5.49542],[-74.91081,5.49542],[-74.91074,5.4953],[-74.91056,5.49511],[-74.91044,5.49493],[-74.91029,5.49472],[-74.91004,5.49455],[-74.90993,5.49457],[-74.90977,5.49456],[-74.90973,5.49456],[-74.90969,5.49451],[-74.90964,5.49446],[-74.90959,5.49415],[-74.90959,5.49359],[-74.90967,5.49322],[-74.9099,5.49285],[-74.90992,5.49261],[-74.91001,5.49229],[-74.90998,5.49201],[-74.90993,5.49165],[-74.90994,5.49098],[-74.90997,5.49058],[-74.91008,5.49011],[-74.91033,5.48994],[-74.91062,5.48976],[-74.91091,5.48957],[-74.91099,5.48953],[-74.91099,5.48945],[-74.91099,5.48942],[-74.91095,5.48935],[-74.91082,5.48926],[-74.91067,5.48922],[-74.91051,5.48904],[-74.9105,5.4889],[-74.91037,5.48863],[-74.9103,5.48792],[-74.91025,5.48776],[-74.91019,5.48767],[-74.9101,5.48754],[-74.91014,5.48736],[-74.91018,5.48716],[-74.91038,5.48695],[-74.91052,5.48677],[-74.91075,5.48668],[-74.91079,5.48662],[-74.91087,5.48654],[-74.91081,5.48647],[-74.91071,5.48643],[-74.91056,5.48643],[-74.91023,5.48635],[-74.91017,5.48627],[-74.91017,5.48614],[-74.91021,5.48584],[-74.91048,5.48532],[-74.91089,5.48502],[-74.9111,5.48489],[-74.91131,5.48476],[-74.91151,5.48461],[-74.91173,5.48438],[-74.91187,5.48417],[-74.91193,5.484],[-74.91196,5.48385],[-74.91196,5.48379],[-74.91187,5.48375],[-74.91172,5.48376],[-74.91151,5.48385],[-74.91121,5.48396],[-74.91093,5.484],[-74.91069,5.48396],[-74.91057,5.4839],[-74.91049,5.48383],[-74.91049,5.48375],[-74.91053,5.48356],[-74.91053,5.48343],[-74.91057,5.48318],[-74.91054,5.48301],[-74.91051,5.48282],[-74.91046,5.48267],[-74.91039,5.48265],[-74.91023,5.48267],[-74.91009,5.4827],[-74.90992,5.48271],[-74.90981,5.48265],[-74.90972,5.48251],[-74.90971,5.4824],[-74.90975,5.48233],[-74.9098,5.48225],[-74.90985,5.48218],[-74.90985,5.48211],[-74.9098,5.48205],[-74.90972,5.48202],[-74.90964,5.48202],[-74.9094,5.48199],[-74.90915,5.48202],[-74.90896,5.48198],[-74.90882,5.48191],[-74.90867,5.4818],[-74.90859,5.48179],[-74.90851,5.48176],[-74.90826,5.48187],[-74.90795,5.48193],[-74.90777,5.48193],[-74.9077,5.48193],[-74.90757,5.48188],[-74.90746,5.48184],[-74.90734,5.48175],[-74.90725,5.48167],[-74.9072,5.48153],[-74.9072,5.4813],[-74.90721,5.48092],[-74.90721,5.4806],[-74.9072,5.48029],[-74.9071,5.48004],[-74.90714,5.47981],[-74.90721,5.47971],[-74.90735,5.47963],[-74.90758,5.47952],[-74.9078,5.47936],[-74.90799,5.47919],[-74.90808,5.47888],[-74.90819,5.4785],[-74.90823,5.47825],[-74.90823,5.47798],[-74.90824,5.47768],[-74.90823,5.47752],[-74.90827,5.47746],[-74.90845,5.47723],[-74.90901,5.47675],[-74.90959,5.47639],[-74.91035,5.47572],[-74.91113,5.47499],[-74.91157,5.47465],[-74.91177,5.47453],[-74.91198,5.47449],[-74.91214,5.47449],[-74.91234,5.4745],[-74.91259,5.47439],[-74.91281,5.47427],[-74.91298,5.47413],[-74.91317,5.47395],[-74.91328,5.47373],[-74.91332,5.47353],[-74.91343,5.47335],[-74.91354,5.47324],[-74.91386,5.47312],[-74.91413,5.47301],[-74.91443,5.47295],[-74.91452,5.47289],[-74.91467,5.47289],[-74.91474,5.47279],[-74.91482,5.47268],[-74.91488,5.4726],[-74.91492,5.4726],[-74.915,5.47261],[-74.91505,5.47261],[-74.91514,5.47254],[-74.91519,5.47241],[-74.91527,5.47227],[-74.91541,5.47211],[-74.91572,5.47183],[-74.91617,5.47165],[-74.91648,5.47142],[-74.91673,5.47127],[-74.91703,5.47111],[-74.91722,5.47074],[-74.91748,5.47035],[-74.9177,5.46994],[-74.91786,5.46966],[-74.918,5.46959],[-74.91806,5.46953],[-74.91814,5.46942],[-74.91821,5.46915],[-74.91832,5.46878],[-74.91842,5.46818],[-74.91858,5.46773],[-74.91869,5.46732],[-74.91888,5.46715],[-74.91906,5.467],[-74.91925,5.46685],[-74.91945,5.46674],[-74.9196,5.46664],[-74.91968,5.46654],[-74.91968,5.46639],[-74.91963,5.46622],[-74.91959,5.46609],[-74.91961,5.46591],[-74.91959,5.46583],[-74.91967,5.46568],[-74.91973,5.46562],[-74.91926,5.46214],[-74.91921,5.46213],[-74.91908,5.46194],[-74.91884,5.46155],[-74.91877,5.46132],[-74.91872,5.46097],[-74.91868,5.46053],[-74.91872,5.46004],[-74.91885,5.45959],[-74.919,5.45907],[-74.91892,5.45848],[-74.91901,5.45752],[-74.91907,5.45683],[-74.9192,5.45636],[-74.91931,5.4562],[-74.91935,5.45607],[-74.91929,5.45602],[-74.91922,5.45602],[-74.91901,5.45606],[-74.9189,5.45606],[-74.91886,5.45602],[-74.91877,5.45594],[-74.91873,5.45583],[-74.91873,5.45562],[-74.91873,5.45553],[-74.91877,5.45536],[-74.91898,5.45508],[-74.91902,5.45501],[-74.91898,5.45491],[-74.91882,5.45487],[-74.91859,5.45485],[-74.91847,5.45483],[-74.91829,5.45481],[-74.91817,5.45466],[-74.91806,5.45445],[-74.918,5.45423],[-74.91807,5.45411],[-74.9182,5.45355],[-74.91819,5.45347],[-74.91814,5.45345],[-74.91792,5.45337],[-74.91769,5.45333],[-74.9176,5.45322],[-74.91752,5.45317],[-74.91744,5.45274],[-74.91722,5.45191],[-74.91699,5.45117],[-74.91674,5.45075],[-74.91665,5.45039],[-74.91656,5.44978],[-74.91656,5.44915],[-74.91649,5.44861],[-74.91647,5.44802],[-74.91642,5.44748],[-74.91645,5.44739],[-74.9167,5.44724],[-74.9169,5.44699],[-74.91695,5.4468],[-74.91702,5.44676],[-74.917,5.44672],[-74.91691,5.44664],[-74.91682,5.44666],[-74.9167,5.44662],[-74.91659,5.4466],[-74.9165,5.44662],[-74.91637,5.44664],[-74.91629,5.44658],[-74.91627,5.44647],[-74.9162,5.44634],[-74.91618,5.44609],[-74.91624,5.44568],[-74.91642,5.44516],[-74.91654,5.44489],[-74.91656,5.44438],[-74.91664,5.44403],[-74.91684,5.44347],[-74.91703,5.44308],[-74.9171,5.44261],[-74.91715,5.44213],[-74.91721,5.44135],[-74.9171,5.44087],[-74.9171,5.44057],[-74.91714,5.44031],[-74.91749,5.4396],[-74.9179,5.43899],[-74.91816,5.43816],[-74.91841,5.43745],[-74.91875,5.43683],[-74.91908,5.43622],[-74.91917,5.43608],[-74.91904,5.43258],[-74.91902,5.43258],[-74.91891,5.43249],[-74.91882,5.43237],[-74.91871,5.43181],[-74.91861,5.43128],[-74.91858,5.43057],[-74.9185,5.42989],[-74.91843,5.42896],[-74.91839,5.4285],[-74.91824,5.42781],[-74.91802,5.42729],[-74.91776,5.42684],[-74.91754,5.42639],[-74.91724,5.42575],[-74.9169,5.42524],[-74.91675,5.42485],[-74.91671,5.42437],[-74.91668,5.42423],[-74.91661,5.42415],[-74.91654,5.42418],[-74.91643,5.42427],[-74.91626,5.42445],[-74.91612,5.4246],[-74.91593,5.42467],[-74.91578,5.42467],[-74.91553,5.42462],[-74.91534,5.4244],[-74.91512,5.4241],[-74.91478,5.42362],[-74.91428,5.42313],[-74.91387,5.42268],[-74.91328,5.4221],[-74.91294,5.42161],[-74.91267,5.42119],[-74.91249,5.4209],[-74.9123,5.42043],[-74.91234,5.41998],[-74.9124,5.41966],[-74.91239,5.41941],[-74.91239,5.41921],[-74.9123,5.41889],[-74.91225,5.41865],[-74.91232,5.41835],[-74.91242,5.41812],[-74.91254,5.41764],[-74.91259,5.41698],[-74.91265,5.41657],[-74.91258,5.4162],[-74.91264,5.41581],[-74.91267,5.41551],[-74.91267,5.41519],[-74.9126,5.41488],[-74.91262,5.41433],[-74.91268,5.41361],[-74.91287,5.41291],[-74.91305,5.41228],[-74.91331,5.41153],[-74.91365,5.41085],[-74.91393,5.41007],[-74.91411,5.40971],[-74.91575,5.40699],[-74.9156,5.40668],[-74.91532,5.40619],[-74.91524,5.40582],[-74.91538,5.40541],[-74.91551,5.40516],[-74.91547,5.40505],[-74.91522,5.40497],[-74.91489,5.40475],[-74.91477,5.40451],[-74.91478,5.40354],[-74.91475,5.40281],[-74.91478,5.40203],[-74.91475,5.4015],[-74.91496,5.4011],[-74.91516,5.40086],[-74.91546,5.40071],[-74.91617,5.4006],[-74.91674,5.40036],[-74.91769,5.40014],[-74.91804,5.40018],[-74.91832,5.40042],[-74.91842,5.40102],[-74.91846,5.40109],[-74.91857,5.40106],[-74.91861,5.401],[-74.91875,5.40077],[-74.91909,5.40044],[-74.91958,5.40003],[-74.92027,5.39985],[-74.92097,5.39985],[-74.92155,5.40004],[-74.92176,5.40004],[-74.92187,5.39997],[-74.92196,5.39984],[-74.92202,5.39952],[-74.92218,5.39909],[-74.92244,5.39824],[-74.92268,5.3977],[-74.92359,5.39643],[-74.92438,5.39502],[-74.92543,5.39382],[-74.92584,5.39355],[-74.92656,5.3933],[-74.927,5.39326],[-74.92747,5.39301],[-74.92841,5.39229],[-74.9287,5.39185],[-74.92879,5.39151],[-74.92912,5.39123],[-74.93002,5.39086],[-74.93082,5.3903],[-74.93122,5.38981],[-74.93126,5.38965],[-74.93077,5.38962],[-74.93043,5.38981],[-74.92962,5.39067],[-74.92938,5.39067],[-74.92936,5.3905],[-74.93029,5.38932],[-74.93086,5.38879],[-74.93184,5.3882],[-74.93236,5.38776],[-74.93258,5.38734],[-74.93262,5.3869],[-74.93243,5.38671],[-74.93218,5.38661],[-74.9321,5.38663],[-74.9315,5.38794],[-74.93079,5.38855],[-74.92944,5.38935],[-74.92919,5.38969],[-74.92864,5.39074],[-74.92826,5.39126],[-74.92796,5.39164],[-74.92712,5.39227],[-74.92615,5.39236],[-74.92581,5.39248],[-74.92513,5.39323],[-74.9243,5.39378],[-74.92383,5.39423],[-74.9234,5.39432],[-74.92304,5.39456],[-74.92285,5.39497],[-74.92253,5.3962],[-74.92227,5.39661],[-74.92208,5.3968],[-74.92147,5.39753],[-74.92076,5.39775],[-74.92031,5.39798],[-74.91983,5.39819],[-74.91907,5.39828],[-74.91816,5.39835],[-74.91761,5.39827],[-74.9169,5.39805],[-74.91644,5.39806],[-74.91589,5.39826],[-74.91535,5.39862],[-74.91491,5.3988],[-74.91456,5.39886],[-74.91424,5.39886],[-74.91409,5.39891],[-74.914,5.3991],[-74.91389,5.39932],[-74.91358,5.39949],[-74.91326,5.39966],[-74.91325,5.39975],[-74.91326,5.39979],[-74.91332,5.39986],[-74.91332,5.40004],[-74.91325,5.40016],[-74.91307,5.40024],[-74.91283,5.40037],[-74.91277,5.40049],[-74.91277,5.40059],[-74.91277,5.40096],[-74.91273,5.40113],[-74.91244,5.40165],[-74.91218,5.40202],[-74.91215,5.40215],[-74.91223,5.40238],[-74.91225,5.4028],[-74.91221,5.40316],[-74.91207,5.40344],[-74.9118,5.40376],[-74.91178,5.40384],[-74.9118,5.40409],[-74.91176,5.40446],[-74.91161,5.40487],[-74.91169,5.40497],[-74.91173,5.40497],[-74.91184,5.40488],[-74.91195,5.40484],[-74.91213,5.40484],[-74.91222,5.40499],[-74.91232,5.40523],[-74.91236,5.40596],[-74.91259,5.40661],[-74.91267,5.40726],[-74.91234,5.40985],[-74.91206,5.41023],[-74.91167,5.41051],[-74.9114,5.41069],[-74.91126,5.41081],[-74.91119,5.41088],[-74.91119,5.41093],[-74.91126,5.41101],[-74.91128,5.41112],[-74.9113,5.41122],[-74.91129,5.41133],[-74.9113,5.41146],[-74.91122,5.41194],[-74.91106,5.41254],[-74.91106,5.41295],[-74.91103,5.41345],[-74.91103,5.41444],[-74.91106,5.41518],[-74.91097,5.41601],[-74.91086,5.41681],[-74.91081,5.41742],[-74.91064,5.41802],[-74.91063,5.41857],[-74.91059,5.41925],[-74.91055,5.41973],[-74.91055,5.41995],[-74.91055,5.42022],[-74.91044,5.42065],[-74.91039,5.42088],[-74.91043,5.42107],[-74.91059,5.4214],[-74.9108,5.42186],[-74.91084,5.42218],[-74.91084,5.42231],[-74.91077,5.42249],[-74.91083,5.42259],[-74.91087,5.42263],[-74.91094,5.42263],[-74.911,5.42259],[-74.9111,5.42259],[-74.91118,5.42267],[-74.91124,5.42283],[-74.91128,5.42283],[-74.91135,5.42283],[-74.91144,5.42283],[-74.91159,5.4228],[-74.91169,5.42287],[-74.91185,5.42295],[-74.91214,5.42327],[-74.9124,5.42358],[-74.91252,5.42384],[-74.91253,5.424],[-74.91256,5.42411],[-74.91256,5.42424],[-74.91257,5.42432],[-74.91262,5.42437],[-74.91288,5.42455],[-74.91305,5.42463],[-74.91326,5.42474],[-74.91353,5.42488],[-74.91387,5.42516],[-74.91421,5.42553],[-74.91442,5.42582],[-74.91455,5.42601],[-74.91499,5.42642],[-74.9154,5.42682],[-74.91576,5.42705],[-74.91623,5.42733],[-74.91648,5.42758],[-74.9166,5.42787],[-74.91668,5.42811],[-74.9167,5.42832],[-74.9167,5.42859],[-74.91673,5.4289],[-74.91652,5.4293],[-74.91632,5.42972],[-74.91614,5.43012],[-74.91595,5.43057],[-74.91579,5.43089],[-74.91561,5.43126],[-74.91549,5.43139],[-74.91546,5.43146],[-74.91546,5.43156],[-74.91556,5.43171],[-74.91573,5.43199],[-74.91587,5.43216],[-74.91605,5.43232],[-74.91631,5.43251],[-74.9165,5.43265],[-74.91658,5.43277],[-74.91666,5.43289],[-74.91664,5.43318],[-74.91658,5.43366],[-74.91654,5.43412],[-74.9165,5.43446],[-74.9165,5.43496],[-74.91649,5.43537],[-74.91646,5.43563],[-74.91646,5.43598],[-74.91634,5.43654],[-74.91623,5.43705],[-74.9161,5.43757],[-74.91589,5.43799],[-74.91563,5.43836],[-74.91547,5.43858],[-74.91528,5.43919],[-74.91506,5.4396],[-74.91498,5.43971],[-74.9149,5.4398],[-74.91485,5.43984],[-74.91481,5.43995],[-74.91482,5.44007],[-74.91487,5.44025],[-74.91489,5.4404],[-74.91489,5.4407],[-74.91485,5.44116],[-74.9147,5.44174],[-74.91464,5.44223],[-74.91458,5.44295],[-74.91444,5.44348],[-74.91427,5.44451],[-74.91423,5.44533],[-74.91424,5.44593],[-74.9143,5.44687],[-74.91426,5.44813],[-74.91423,5.44906],[-74.91426,5.44982],[-74.91433,5.45075],[-74.91438,5.45149],[-74.91441,5.45194],[-74.91455,5.45211],[-74.91459,5.45226],[-74.91462,5.45239],[-74.91469,5.45242],[-74.91486,5.45245],[-74.91494,5.45251],[-74.91511,5.45268],[-74.9153,5.45288],[-74.91544,5.45317],[-74.91561,5.45354],[-74.91582,5.45395],[-74.91602,5.45438],[-74.91619,5.45488],[-74.9163,5.45561],[-74.9164,5.45647],[-74.91651,5.45769],[-74.91658,5.45856],[-74.91658,5.45926],[-74.91654,5.45984],[-74.9165,5.46035],[-74.91657,5.4609],[-74.91661,5.46139],[-74.91672,5.46188],[-74.91699,5.46231],[-74.91722,5.46272],[-74.91743,5.46321],[-74.91747,5.46345],[-74.9175,5.46386],[-74.91752,5.46423],[-74.91746,5.46459],[-74.91729,5.46503],[-74.91713,5.46546],[-74.91691,5.46616],[-74.91671,5.46677],[-74.91642,5.46724],[-74.91622,5.46773],[-74.91587,5.46848],[-74.91549,5.46918],[-74.91528,5.46966],[-74.91512,5.46986],[-74.91489,5.47002],[-74.91452,5.47021],[-74.91415,5.47044],[-74.91384,5.47075],[-74.91348,5.47112],[-74.91318,5.47127],[-74.91308,5.4713],[-74.91305,5.4713],[-74.91298,5.4713],[-74.91287,5.47117],[-74.9128,5.47106],[-74.9128,5.47103],[-74.91276,5.47102],[-74.91253,5.47106],[-74.91238,5.47119],[-74.91222,5.4713],[-74.91209,5.47129],[-74.91193,5.47133],[-74.91166,5.47137],[-74.91159,5.4714],[-74.91141,5.47152],[-74.91102,5.47196],[-74.91065,5.47236],[-74.91026,5.47275],[-74.90992,5.47289],[-74.90979,5.47297],[-74.90967,5.47303],[-74.9094,5.47307],[-74.90926,5.47315],[-74.9091,5.47323],[-74.90898,5.47351],[-74.90893,5.47371],[-74.90885,5.47396],[-74.9087,5.47415],[-74.90853,5.47431],[-74.90817,5.47459],[-74.90749,5.47509],[-74.90722,5.47522],[-74.9071,5.47526],[-74.90692,5.47526],[-74.90674,5.47529],[-74.90658,5.4754],[-74.9064,5.47553],[-74.90629,5.47577],[-74.90614,5.47609],[-74.90606,5.47638],[-74.90593,5.47667],[-74.90565,5.47708],[-74.90548,5.47731],[-74.9054,5.47743],[-74.90531,5.47746],[-74.90527,5.47745],[-74.90523,5.47749],[-74.90515,5.47757],[-74.90508,5.4778],[-74.90499,5.47829],[-74.90474,5.47881],[-74.90455,5.47926],[-74.90431,5.47974],[-74.90413,5.48002],[-74.90401,5.48029],[-74.90386,5.48056],[-74.90379,5.48076],[-74.90382,5.48088],[-74.904,5.48115],[-74.90426,5.48163],[-74.90453,5.48216],[-74.90477,5.48257],[-74.90501,5.48304],[-74.90532,5.48336],[-74.90553,5.48366],[-74.90572,5.48381],[-74.90583,5.48389],[-74.90614,5.48411],[-74.90635,5.48424],[-74.90662,5.48432],[-74.90684,5.48436],[-74.90712,5.48445],[-74.90741,5.48449],[-74.90756,5.48454],[-74.90772,5.48463],[-74.9078,5.48477],[-74.9078,5.48488],[-74.9078,5.48501],[-74.90778,5.48518],[-74.90767,5.48535],[-74.90753,5.48555],[-74.90725,5.48598],[-74.90711,5.48635],[-74.90711,5.48664],[-74.90711,5.48687],[-74.90718,5.4871],[-74.90734,5.48734],[-74.90755,5.48754],[-74.90764,5.48766],[-74.90771,5.48785],[-74.9077,5.48794],[-74.9077,5.48814],[-74.90761,5.48844],[-74.9075,5.48867],[-74.90739,5.48878],[-74.90729,5.48891],[-74.90725,5.4891],[-74.90721,5.48928],[-74.90714,5.48944],[-74.90706,5.4896],[-74.90686,5.48975],[-74.90672,5.48992],[-74.90657,5.49012],[-74.90653,5.4904],[-74.90646,5.49073],[-74.9064,5.49109],[-74.90626,5.49145],[-74.90612,5.49172],[-74.90593,5.49202],[-74.9057,5.49215],[-74.90546,5.49235],[-74.9051,5.49268],[-74.90476,5.49291],[-74.90441,5.49315],[-74.9042,5.49327],[-74.90409,5.49339],[-74.90408,5.4935],[-74.90409,5.49357],[-74.9042,5.49375],[-74.90426,5.49405],[-74.90433,5.49431],[-74.90438,5.49461],[-74.90438,5.49495],[-74.90437,5.49548],[-74.90429,5.49587],[-74.90415,5.49648],[-74.90408,5.49663],[-74.90403,5.4967],[-74.90395,5.49675],[-74.90383,5.49677],[-74.90368,5.49674],[-74.90362,5.49673],[-74.90342,5.49674],[-74.90313,5.49681],[-74.90265,5.49693],[-74.90233,5.49699],[-74.90222,5.49702],[-74.90216,5.49706],[-74.90212,5.49713],[-74.90212,5.49723],[-74.90222,5.49732],[-74.9024,5.49738],[-74.90253,5.49744],[-74.90263,5.49753],[-74.90267,5.49758],[-74.90274,5.49771],[-74.90271,5.49782],[-74.90268,5.49796],[-74.90256,5.49816],[-74.90229,5.49846],[-74.90192,5.49868],[-74.90159,5.49901],[-74.90127,5.49937],[-74.90102,5.4997],[-74.90089,5.50001],[-74.90007,5.50054],[-74.8997,5.50105],[-74.89939,5.50132],[-74.89903,5.50139],[-74.89872,5.50141],[-74.89834,5.50123],[-74.8982,5.50123],[-74.89804,5.50137],[-74.89798,5.50171],[-74.89783,5.50191],[-74.89747,5.50223],[-74.89695,5.50265],[-74.89672,5.50294],[-74.89666,5.50325],[-74.89664,5.50361],[-74.89656,5.5039],[-74.89636,5.5041],[-74.89609,5.50427],[-74.8959,5.50431],[-74.89581,5.50438],[-74.89581,5.5045],[-74.8959,5.50469],[-74.896,5.50503],[-74.89586,5.50539],[-74.8956,5.50615],[-74.89543,5.50692],[-74.89541,5.5073],[-74.89555,5.50753],[-74.89601,5.50772],[-74.89633,5.50805],[-74.8966,5.50835],[-74.89685,5.50858],[-74.89709,5.50876],[-74.89716,5.50894],[-74.89709,5.50918],[-74.89704,5.50937],[-74.89704,5.50947],[-74.89712,5.50959],[-74.89731,5.50967],[-74.89759,5.50984],[-74.89806,5.51033],[-74.89835,5.5107],[-74.89846,5.51118],[-74.89841,5.51164],[-74.89828,5.51208],[-74.89841,5.51232],[-74.89864,5.51242],[-74.89887,5.51249],[-74.89905,5.51265],[-74.89925,5.5131],[-74.89942,5.51331],[-74.89968,5.51355],[-74.89987,5.51354],[-74.90037,5.51345],[-74.90084,5.51336],[-74.90096,5.51347],[-74.90096,5.5136],[-74.90092,5.51375],[-74.90069,5.51399],[-74.90017,5.51434],[-74.90001,5.51467],[-74.8998,5.51515],[-74.89949,5.5157],[-74.8993,5.51578],[-74.89916,5.51612],[-74.89893,5.51668],[-74.89831,5.51749],[-74.89795,5.51817],[-74.89783,5.51887],[-74.89791,5.51928],[-74.89808,5.51981],[-74.89813,5.52018],[-74.89781,5.5207],[-74.89764,5.52101],[-74.89771,5.52119],[-74.89801,5.52159],[-74.89819,5.52205],[-74.89824,5.52272],[-74.89825,5.52329],[-74.8982,5.52379],[-74.89797,5.52436],[-74.89784,5.52491],[-74.89789,5.52551],[-74.89785,5.52584],[-74.89768,5.52627],[-74.89755,5.52644],[-74.89736,5.52652],[-74.89721,5.52663],[-74.89719,5.52677],[-74.89735,5.527],[-74.89791,5.52756],[-74.89825,5.52829],[-74.89844,5.52961],[-74.89856,5.53079],[-74.89843,5.53191],[-74.89838,5.53249],[-74.89822,5.53301],[-74.89805,5.53325],[-74.89781,5.53342],[-74.89745,5.53349],[-74.89715,5.53353],[-74.89703,5.53371],[-74.8971,5.53401],[-74.89747,5.53446],[-74.89759,5.53502],[-74.89772,5.53565],[-74.89777,5.53629],[-74.89775,5.53661],[-74.8976,5.53683],[-74.89723,5.53697],[-74.89687,5.53716],[-74.8967,5.53753],[-74.89638,5.53768],[-74.89576,5.53816],[-74.89548,5.53857],[-74.8954,5.5389],[-74.89531,5.53915],[-74.89505,5.53942],[-74.89497,5.53972],[-74.89495,5.54006],[-74.89496,5.54044],[-74.89483,5.54096],[-74.89462,5.54141],[-74.89417,5.54234],[-74.89381,5.54286],[-74.89351,5.54329],[-74.89304,5.54381],[-74.89279,5.54414],[-74.89263,5.54461],[-74.89249,5.54507],[-74.8923,5.5453],[-74.89192,5.54567],[-74.8918,5.54587],[-74.89166,5.54601],[-74.89157,5.54612],[-74.89153,5.54624],[-74.89157,5.54658],[-74.89173,5.54679],[-74.89175,5.54699],[-74.89172,5.54735],[-74.89152,5.54777],[-74.89119,5.54802],[-74.89098,5.54814],[-74.89082,5.54832],[-74.89073,5.54858],[-74.89077,5.54903],[-74.8908,5.54949],[-74.89069,5.54981],[-74.89048,5.55011],[-74.89013,5.55049],[-74.89005,5.55063],[-74.88999,5.55083],[-74.89009,5.55111],[-74.89028,5.55167],[-74.89057,5.55228],[-74.89064,5.55262],[-74.89057,5.55299],[-74.89006,5.5535],[-74.88975,5.55364],[-74.88938,5.55383],[-74.88885,5.55447],[-74.8882,5.55537],[-74.88815,5.55584],[-74.88808,5.55634],[-74.88749,5.55752],[-74.88693,5.55824],[-74.88654,5.55875],[-74.88593,5.55911],[-74.88512,5.55936],[-74.88668,5.56196],[-74.88683,5.56191],[-74.88798,5.56147],[-74.88875,5.56119],[-74.88916,5.56084],[-74.88917,5.56079],[-74.89029,5.56047],[-74.89103,5.56025],[-74.89198,5.56009],[-74.89258,5.56005],[-74.89286,5.56023],[-74.89321,5.56056],[-74.89348,5.56067],[-74.89362,5.56067],[-74.89378,5.5606],[-74.89393,5.56046],[-74.89407,5.56046],[-74.89434,5.5605],[-74.89446,5.5606],[-74.89474,5.56092],[-74.89478,5.56155],[-74.89492,5.56262],[-74.89518,5.56329],[-74.8954,5.56367],[-74.89597,5.56417],[-74.89673,5.56454],[-74.89721,5.56468],[-74.89793,5.56488],[-74.89868,5.56528],[-74.8992,5.56585],[-74.89983,5.56646],[-74.9003,5.56675],[-74.90053,5.56685],[-74.90065,5.5673],[-74.90058,5.56831],[-74.90054,5.56887],[-74.90063,5.56899],[-74.90075,5.56899],[-74.90086,5.56887],[-74.90103,5.56866],[-74.90157,5.5681],[-74.90192,5.56766],[-74.90271,5.56709],[-74.90381,5.56636],[-74.90445,5.56603],[-74.90516,5.56576],[-74.90556,5.56568],[-74.90565,5.56564],[-74.90565,5.56554],[-74.90557,5.56546],[-74.90545,5.56527],[-74.90545,5.56512],[-74.90552,5.56487],[-74.90577,5.56449],[-74.90625,5.56426],[-74.9068,5.56423],[-74.90742,5.56435],[-74.90823,5.56468],[-74.90933,5.565],[-74.91026,5.56527],[-74.91141,5.56523],[-74.91233,5.56492],[-74.91308,5.56456],[-74.91393,5.56411],[-74.91442,5.56367],[-74.91464,5.56329],[-74.91484,5.56307],[-74.91504,5.56303],[-74.91518,5.56304],[-74.91544,5.56331],[-74.91559,5.56342],[-74.91567,5.56342],[-74.91573,5.56337],[-74.91571,5.56329],[-74.9157,5.56312],[-74.91562,5.56286],[-74.91571,5.56259],[-74.91578,5.5624],[-74.91605,5.56215],[-74.91642,5.56182],[-74.91684,5.56156],[-74.91755,5.56149],[-74.91808,5.56171],[-74.91868,5.56197],[-74.91909,5.56224],[-74.91935,5.56231],[-74.91968,5.56227],[-74.92005,5.56224],[-74.92027,5.5622],[-74.9205,5.56223],[-74.92059,5.56223],[-74.9207,5.5621],[-74.92076,5.56199],[-74.92107,5.56179],[-74.92163,5.56157],[-74.92211,5.56121],[-74.92261,5.56065],[-74.92289,5.56026],[-74.92324,5.55998],[-74.92359,5.55991],[-74.92392,5.55986],[-74.92416,5.55979],[-74.9243,5.55973],[-74.92442,5.55984],[-74.92452,5.55997],[-74.92464,5.56019],[-74.92528,5.56074],[-74.92577,5.56132],[-74.92627,5.56208],[-74.92691,5.56278],[-74.92744,5.56354],[-74.92807,5.56455],[-74.92855,5.56488],[-74.92885,5.56515],[-74.92907,5.56536],[-74.92913,5.56556],[-74.92916,5.56572],[-74.9292,5.56577],[-74.92932,5.56585],[-74.92963,5.56585],[-74.92991,5.56589],[-74.93043,5.56602],[-74.93092,5.56602],[-74.9317,5.5659],[-74.93267,5.56609],[-74.93342,5.56644],[-74.93443,5.5671],[-74.93538,5.56759],[-74.936,5.56768],[-74.93625,5.56761],[-74.93664,5.56746],[-74.93696,5.56737],[-74.93724,5.56741],[-74.93729,5.56746],[-74.93737,5.56778],[-74.93741,5.56831],[-74.93791,5.56876],[-74.93837,5.56931],[-74.93864,5.56947],[-74.93877,5.56952],[-74.93882,5.56951],[-74.93886,5.56944],[-74.93886,5.56936],[-74.93878,5.56914],[-74.93859,5.56881],[-74.93826,5.56855],[-74.93812,5.56828],[-74.93804,5.568],[-74.93804,5.5676],[-74.93785,5.56717],[-74.93752,5.56685],[-74.93721,5.56685],[-74.93688,5.56681],[-74.93643,5.56694],[-74.93616,5.56703],[-74.93567,5.56696],[-74.93516,5.56669],[-74.93475,5.5664],[-74.93432,5.56606],[-74.93376,5.56562],[-74.9331,5.56531],[-74.93194,5.56504],[-74.93133,5.56483],[-74.93081,5.56449],[-74.93041,5.56387],[-74.93,5.56318],[-74.92983,5.56271],[-74.92941,5.56209],[-74.92866,5.56134],[-74.92802,5.56116],[-74.92738,5.56047],[-74.9266,5.55965],[-74.92604,5.55894],[-74.92584,5.55853],[-74.92554,5.55816],[-74.92526,5.55804],[-74.92483,5.55795],[-74.92419,5.55764],[-74.92389,5.55745],[-74.92385,5.55732],[-74.92389,5.55711],[-74.92414,5.55659],[-74.92454,5.55611],[-74.92512,5.55578],[-74.92549,5.55565],[-74.92581,5.5557],[-74.92637,5.5557],[-74.92679,5.55569],[-74.92714,5.55556],[-74.92755,5.55528],[-74.92782,5.55483],[-74.92795,5.55461],[-74.92795,5.55444],[-74.92785,5.55437],[-74.92777,5.55442],[-74.92759,5.55457],[-74.92726,5.55487],[-74.92701,5.55502],[-74.92675,5.55507],[-74.92643,5.55506],[-74.92616,5.55494],[-74.92583,5.55472],[-74.92545,5.55471],[-74.92478,5.55469],[-74.92421,5.5548],[-74.92338,5.55524],[-74.92252,5.55591],[-74.92203,5.55671],[-74.9219,5.55765],[-74.92183,5.5585],[-74.92173,5.55899],[-74.92157,5.55927],[-74.9213,5.55952],[-74.92101,5.55966],[-74.92063,5.55989],[-74.92026,5.56019],[-74.91975,5.5604],[-74.91938,5.5604],[-74.91917,5.56036],[-74.91894,5.56012],[-74.91852,5.55972],[-74.91804,5.55938],[-74.91768,5.55923],[-74.91685,5.5593],[-74.91588,5.5596],[-74.91549,5.55972],[-74.91507,5.56014],[-74.91476,5.56083],[-74.91433,5.56116],[-74.91328,5.56147],[-74.91264,5.56186],[-74.9123,5.56242],[-74.91193,5.56269],[-74.91153,5.56272],[-74.91098,5.56275],[-74.91039,5.56261],[-74.90967,5.56248],[-74.90907,5.56253],[-74.90829,5.56276],[-74.90749,5.56279],[-74.90708,5.56271],[-74.90689,5.56248],[-74.90681,5.56234],[-74.90683,5.56215],[-74.90698,5.56193],[-74.90731,5.56153],[-74.90772,5.56117],[-74.90803,5.56089],[-74.90826,5.56037],[-74.90843,5.55948],[-74.90858,5.55906],[-74.90902,5.55849],[-74.91001,5.55769],[-74.91092,5.55708],[-74.91174,5.55661],[-74.91229,5.55621],[-74.91254,5.55593],[-74.91263,5.5555],[-74.91277,5.55505],[-74.91291,5.55464],[-74.91333,5.554],[-74.91376,5.55344],[-74.91387,5.55295],[-74.91388,5.55224],[-74.91373,5.55159],[-74.91354,5.55069],[-74.9135,5.55008],[-74.91357,5.54916],[-74.91342,5.54853],[-74.91326,5.548],[-74.91287,5.54724],[-74.91279,5.54669],[-74.91285,5.54601],[-74.9131,5.54561],[-74.91372,5.54506],[-74.91426,5.54457],[-74.91492,5.5441],[-74.91549,5.54382],[-74.91596,5.54352],[-74.91628,5.54296],[-74.91682,5.5424],[-74.91731,5.54198],[-74.91739,5.54182],[-74.91739,5.54159],[-74.91739,5.54142],[-74.91745,5.54115],[-74.91756,5.54073],[-74.91798,5.54011],[-74.91828,5.5395],[-74.91832,5.53899],[-74.91849,5.53857],[-74.91881,5.53816],[-74.91917,5.5379],[-74.91982,5.53768],[-74.92078,5.53744],[-74.92165,5.53725],[-74.92238,5.53692],[-74.92302,5.53661],[-74.92339,5.53657],[-74.92354,5.5365],[-74.92375,5.53656],[-74.92438,5.53701],[-74.92509,5.53779],[-74.92537,5.53843],[-74.92574,5.53872],[-74.92597,5.5389],[-74.9264,5.53905],[-74.92672,5.53913],[-74.92698,5.53935],[-74.9272,5.5395],[-74.92732,5.53948],[-74.92739,5.5394],[-74.92739,5.53929],[-74.92734,5.5391],[-74.92724,5.5386],[-74.92724,5.53832],[-74.92753,5.53797],[-74.92795,5.53747],[-74.92875,5.53671],[-74.92931,5.53654],[-74.92973,5.5365],[-74.93005,5.53653],[-74.93047,5.53688],[-74.931,5.53732],[-74.93137,5.5374],[-74.93193,5.53729],[-74.93217,5.53715],[-74.93217,5.53707],[-74.93204,5.53694],[-74.93175,5.53658],[-74.93131,5.53631],[-74.93111,5.53589],[-74.93105,5.53539],[-74.93107,5.53463],[-74.93119,5.53304],[-74.93136,5.53184],[-74.93152,5.5313],[-74.9315,5.53019],[-74.93146,5.53016],[-74.9314,5.53004],[-74.93143,5.52987],[-74.93148,5.52953],[-74.93171,5.52879],[-74.93166,5.52801],[-74.93159,5.52733],[-74.9314,5.52663],[-74.93135,5.52629],[-74.9314,5.52619],[-74.93156,5.52601],[-74.93159,5.5259],[-74.93155,5.52586],[-74.9314,5.52577],[-74.93126,5.52562],[-74.93119,5.52554],[-74.93115,5.52541],[-74.93107,5.52504],[-74.93089,5.52464],[-74.93048,5.52414],[-74.9299,5.52339],[-74.92986,5.523],[-74.92986,5.52268],[-74.92999,5.5224],[-74.93018,5.52213],[-74.93026,5.52201],[-74.93026,5.52184],[-74.93008,5.52175],[-74.92981,5.52173],[-74.92968,5.52146],[-74.9296,5.52121],[-74.92957,5.52085],[-74.92962,5.52064],[-74.9299,5.52039],[-74.93023,5.52012],[-74.93043,5.51979],[-74.93045,5.51964],[-74.93039,5.51955],[-74.9302,5.51952],[-74.93001,5.51951],[-74.92994,5.5194],[-74.92997,5.51926],[-74.93017,5.51895],[-74.93048,5.5183],[-74.93061,5.5177],[-74.93061,5.51717],[-74.93071,5.51681],[-74.9307,5.51636],[-74.93058,5.51556],[-74.93059,5.51489],[-74.93057,5.51349],[-74.93042,5.51277],[-74.93031,5.51201],[-74.93043,5.51129],[-74.93068,5.51053],[-74.93079,5.51028],[-74.93107,5.51013],[-74.93152,5.51002],[-74.93287,5.50982],[-74.93415,5.50972],[-74.93508,5.50966],[-74.93589,5.50978],[-74.93638,5.51011],[-74.93647,5.51029],[-74.93573,5.5069],[-74.93562,5.5069],[-74.93536,5.50681],[-74.9351,5.50685],[-74.93478,5.50701],[-74.93433,5.50705],[-74.93351,5.50722],[-74.93326,5.50722],[-74.93303,5.50722],[-74.9326,5.50704],[-74.93232,5.50696],[-74.93198,5.50697],[-74.93167,5.50713],[-74.93137,5.50714],[-74.931,5.50705],[-74.93066,5.50699],[-74.93033,5.50703],[-74.92979,5.50716],[-74.92955,5.50718],[-74.9293,5.50718],[-74.92882,5.50713],[-74.92853,5.50708],[-74.92833,5.50709],[-74.92804,5.5072],[-74.92767,5.50728],[-74.92751,5.50738],[-74.92748,5.50742],[-74.92748,5.50751],[-74.92763,5.50768],[-74.92773,5.50788],[-74.92773,5.50817],[-74.92772,5.50844],[-74.92773,5.50873],[-74.92781,5.50903],[-74.92788,5.50937],[-74.92787,5.50963],[-74.9278,5.5099],[-74.92779,5.51003],[-74.92795,5.51031],[-74.92809,5.51057],[-74.92817,5.51109],[-74.92816,5.51182],[-74.92832,5.51264],[-74.92842,5.51381],[-74.9285,5.5154],[-74.92857,5.51623],[-74.92861,5.51691],[-74.92857,5.51704],[-74.92851,5.51705],[-74.92833,5.51706],[-74.92815,5.51706],[-74.92804,5.5172],[-74.92804,5.51742],[-74.92808,5.51787],[-74.9281,5.51823],[-74.92793,5.51846],[-74.9278,5.51846],[-74.92768,5.51846],[-74.92759,5.51825],[-74.92735,5.51801],[-74.92714,5.51799],[-74.92703,5.51799],[-74.92691,5.51817],[-74.92689,5.51855],[-74.92691,5.51896],[-74.92706,5.5195],[-74.92711,5.52021],[-74.92697,5.52097],[-74.92679,5.52165],[-74.92679,5.52228],[-74.92681,5.52278],[-74.92678,5.52305],[-74.92677,5.52319],[-74.92681,5.52327],[-74.92689,5.52329],[-74.92706,5.52329],[-74.92729,5.52347],[-74.92745,5.52395],[-74.92743,5.52414],[-74.92726,5.52437],[-74.92717,5.52452],[-74.92717,5.52465],[-74.92721,5.52477],[-74.9274,5.52478],[-74.92771,5.52495],[-74.92799,5.52536],[-74.92819,5.52574],[-74.92848,5.52616],[-74.92848,5.52634],[-74.92844,5.52674],[-74.92851,5.52674],[-74.92864,5.52673],[-74.92875,5.52675],[-74.9289,5.52694],[-74.92894,5.52731],[-74.92894,5.52784],[-74.92871,5.52844],[-74.9285,5.529],[-74.9285,5.52919],[-74.92858,5.52952],[-74.92877,5.53015],[-74.92885,5.53109],[-74.929,5.53161],[-74.9291,5.53182],[-74.92913,5.53195],[-74.92904,5.53199],[-74.92877,5.53216],[-74.92877,5.5323],[-74.9288,5.5325],[-74.92894,5.53276],[-74.92902,5.53306],[-74.92902,5.53332],[-74.92883,5.53368],[-74.92853,5.53426],[-74.92839,5.53445],[-74.92811,5.53459],[-74.92786,5.53482],[-74.92745,5.53515],[-74.92725,5.53529],[-74.927,5.53536],[-74.92683,5.53536],[-74.92655,5.53518],[-74.92628,5.53479],[-74.92613,5.53462],[-74.92597,5.53442],[-74.92572,5.53434],[-74.92518,5.53417],[-74.92413,5.53423],[-74.92354,5.53431],[-74.92299,5.53445],[-74.92244,5.53472],[-74.922,5.53486],[-74.9215,5.53504],[-74.92106,5.53527],[-74.92077,5.5353],[-74.92061,5.53526],[-74.9206,5.53524],[-74.919,5.5352]]]},"properties":{"fue_codigo":"0","lag_nombre":"Area de Embalse Proyecto Miel I","lag_tipo":"Embalse","lag_area":1189.4,"lag_perime":null,"lag_codigo":"1","ESRI_OID":1}},{"type":"Feature","id":2,"geometry":{"type":"Polygon","coordinates":[[[-74.95921,5.65469],[-74.95921,5.65469],[-74.95921,5.65469],[-74.95921,5.65469],[-74.95921,5.65469],[-74.95921,5.65469],[-74.95921,5.65469],[-74.95921,5.65469],[-74.95921,5.65469],[-74.95921,5.65469],[-74.95921,5.65469],[-74.95921,5.65469],[-74.95921,5.65469],[-74.95921,5.65469],[-74.9592,5.65469],[-74.9592,5.65469],[-74.9592,5.65469],[-74.9592,5.65469],[-74.9592,5.65469],[-74.9592,5.65469],[-74.9592,5.65469],[-74.9592,5.65469],[-74.9592,5.65469],[-74.9592,5.65469],[-74.9592,5.65469],[-74.9592,5.65469],[-74.9592,5.65469],[-74.9592,5.65469],[-74.9592,5.65469],[-74.9592,5.65469],[-74.9592,5.65469],[-74.9592,5.65469],[-74.95919,5.65469],[-74.95919,5.65469],[-74.95919,5.65469],[-74.95919,5.65469],[-74.95919,5.65469],[-74.95919,5.65469],[-74.95919,5.65469],[-74.95919,5.65469],[-74.95919,5.65469],[-74.95919,5.65469],[-74.95919,5.65469],[-74.95919,5.65469],[-74.95919,5.65469],[-74.95919,5.65469],[-74.95919,5.65469],[-74.95919,5.65469],[-74.95919,5.65469],[-74.95919,5.65469],[-74.95919,5.65468],[-74.95919,5.65468],[-74.95918,5.65468],[-74.95918,5.65468],[-74.95918,5.65468],[-74.95918,5.65468],[-74.95918,5.65468],[-74.95918,5.65468],[-74.95918,5.65468],[-74.95918,5.65468],[-74.95918,5.65468],[-74.95918,5.65468],[-74.95918,5.65468],[-74.95918,5.65468],[-74.95918,5.65468],[-74.95918,5.65468],[-74.95918,5.65468],[-74.95918,5.65468],[-74.95918,5.65468],[-74.95918,5.65468],[-74.95918,5.65468],[-74.95918,5.65468],[-74.95918,5.65468],[-74.95918,5.65467],[-74.95918,5.65467],[-74.95918,5.65467],[-74.95918,5.65467],[-74.95918,5.65467],[-74.95918,5.65467],[-74.95918,5.65467],[-74.95918,5.65467],[-74.95918,5.65467],[-74.95918,5.65467],[-74.95918,5.65467],[-74.95918,5.65467],[-74.95918,5.65467],[-74.95918,5.65467],[-74.95917,5.65467],[-74.95917,5.65467],[-74.95917,5.65467],[-74.95917,5.65467],[-74.95917,5.65466],[-74.95917,5.65466],[-74.95917,5.65466],[-74.95917,5.65466],[-74.95917,5.65466],[-74.95917,5.65466],[-74.95917,5.65466],[-74.95917,5.65466],[-74.95917,5.65466],[-74.95917,5.65466],[-74.95917,5.65466],[-74.95917,5.65466],[-74.95917,5.65466],[-74.95917,5.65466],[-74.95917,5.65466],[-74.95917,5.65466],[-74.95917,5.65466],[-74.95917,5.65465],[-74.95917,5.65465],[-74.95917,5.65465],[-74.95918,5.65465],[-74.95918,5.65465],[-74.95918,5.65465],[-74.95918,5.65465],[-74.95918,5.65465],[-74.95918,5.65465],[-74.95918,5.65465],[-74.95918,5.65465],[-74.95918,5.65465],[-74.95918,5.65465],[-74.95918,5.65465],[-74.95918,5.65465],[-74.95918,5.65465],[-74.95918,5.65465],[-74.95918,5.65464],[-74.95918,5.65464],[-74.95918,5.65464],[-74.95918,5.65464],[-74.95918,5.65464],[-74.95918,5.65464],[-74.95918,5.65464],[-74.95918,5.65464],[-74.95918,5.65464],[-74.95918,5.65464],[-74.95918,5.65464],[-74.95918,5.65464],[-74.95918,5.65464],[-74.95918,5.65464],[-74.95918,5.65464],[-74.95918,5.65464],[-74.95918,5.65464],[-74.95918,5.65464],[-74.95918,5.65464],[-74.95918,5.65464],[-74.95918,5.65463],[-74.95918,5.65463],[-74.95919,5.65463],[-74.95919,5.65463],[-74.95919,5.65463],[-74.95919,5.65463],[-74.95919,5.65463],[-74.95919,5.65463],[-74.95919,5.65463],[-74.95919,5.65463],[-74.95919,5.65463],[-74.95919,5.65463],[-74.95919,5.65463],[-74.95919,5.65463],[-74.95919,5.65463],[-74.95919,5.65463],[-74.95919,5.65463],[-74.95919,5.65463],[-74.95919,5.65463],[-74.95919,5.65463],[-74.95919,5.65463],[-74.95919,5.65463],[-74.9592,5.65463],[-74.9592,5.65463],[-74.9592,5.65463],[-74.9592,5.65463],[-74.9592,5.65463],[-74.9592,5.65463],[-74.9592,5.65463],[-74.9592,5.65463],[-74.9592,5.65463],[-74.9592,5.65463],[-74.9592,5.65463],[-74.9592,5.65462],[-74.9592,5.65462],[-74.9592,5.65462],[-74.9592,5.65462],[-74.9592,5.65462],[-74.9592,5.65462],[-74.9592,5.65462],[-74.95921,5.65462],[-74.95921,5.65462],[-74.95921,5.65462],[-74.95921,5.65462],[-74.95921,5.65462],[-74.95921,5.65462],[-74.95921,5.65462],[-74.95921,5.65462],[-74.95921,5.65462],[-74.95921,5.65462],[-74.95921,5.65462],[-74.95921,5.65462],[-74.95921,5.65462],[-74.95921,5.65462],[-74.95921,5.65462],[-74.95921,5.65462],[-74.95921,5.65462],[-74.95922,5.65462],[-74.95922,5.65462],[-74.95922,5.65462],[-74.95922,5.65462],[-74.95922,5.65462],[-74.95922,5.65462],[-74.95922,5.65462],[-74.95922,5.65463],[-74.95922,5.65463],[-74.95922,5.65463],[-74.95922,5.65463],[-74.95922,5.65463],[-74.95922,5.65463],[-74.95922,5.65463],[-74.95922,5.65463],[-74.95922,5.65463],[-74.95922,5.65463],[-74.95922,5.65463],[-74.95922,5.65463],[-74.95923,5.65463],[-74.95923,5.65463],[-74.95923,5.65463],[-74.95923,5.65463],[-74.95923,5.65463],[-74.95923,5.65463],[-74.95923,5.65463],[-74.95923,5.65463],[-74.95923,5.65463],[-74.95923,5.65463],[-74.95923,5.65463],[-74.95923,5.65463],[-74.95923,5.65463],[-74.95923,5.65463],[-74.95923,5.65463],[-74.95923,5.65463],[-74.95923,5.65463],[-74.95923,5.65463],[-74.95923,5.65463],[-74.95923,5.65463],[-74.95923,5.65464],[-74.95923,5.65464],[-74.95923,5.65464],[-74.95923,5.65464],[-74.95924,5.65464],[-74.95924,5.65464],[-74.95924,5.65464],[-74.95924,5.65464],[-74.95924,5.65464],[-74.95924,5.65464],[-74.95924,5.65464],[-74.95924,5.65464],[-74.95924,5.65464],[-74.95924,5.65464],[-74.95924,5.65464],[-74.95924,5.65464],[-74.95924,5.65464],[-74.95924,5.65464],[-74.95924,5.65464],[-74.95924,5.65464],[-74.95924,5.65465],[-74.95924,5.65465],[-74.95924,5.65465],[-74.95924,5.65465],[-74.95924,5.65465],[-74.95924,5.65465],[-74.95924,5.65465],[-74.95924,5.65465],[-74.95924,5.65465],[-74.95924,5.65465],[-74.95924,5.65465],[-74.95924,5.65465],[-74.95924,5.65465],[-74.95924,5.65465],[-74.95924,5.65465],[-74.95924,5.65465],[-74.95924,5.65465],[-74.95924,5.65465],[-74.95924,5.65466],[-74.95924,5.65466],[-74.95924,5.65466],[-74.95924,5.65466],[-74.95924,5.65466],[-74.95924,5.65466],[-74.95924,5.65466],[-74.95924,5.65466],[-74.95924,5.65466],[-74.95924,5.65466],[-74.95924,5.65466],[-74.95924,5.65466],[-74.95924,5.65466],[-74.95924,5.65466],[-74.95924,5.65466],[-74.95924,5.65466],[-74.95924,5.65466],[-74.95924,5.65467],[-74.95924,5.65467],[-74.95924,5.65467],[-74.95924,5.65467],[-74.95924,5.65467],[-74.95924,5.65467],[-74.95924,5.65467],[-74.95924,5.65467],[-74.95924,5.65467],[-74.95924,5.65467],[-74.95924,5.65467],[-74.95924,5.65467],[-74.95924,5.65467],[-74.95924,5.65467],[-74.95924,5.65467],[-74.95924,5.65467],[-74.95924,5.65467],[-74.95924,5.65467],[-74.95923,5.65468],[-74.95923,5.65468],[-74.95923,5.65468],[-74.95923,5.65468],[-74.95923,5.65468],[-74.95923,5.65468],[-74.95923,5.65468],[-74.95923,5.65468],[-74.95923,5.65468],[-74.95923,5.65468],[-74.95923,5.65468],[-74.95923,5.65468],[-74.95923,5.65468],[-74.95923,5.65468],[-74.95923,5.65468],[-74.95923,5.65468],[-74.95923,5.65468],[-74.95923,5.65468],[-74.95923,5.65468],[-74.95923,5.65468],[-74.95923,5.65468],[-74.95923,5.65468],[-74.95923,5.65468],[-74.95923,5.65469],[-74.95922,5.65469],[-74.95922,5.65469],[-74.95922,5.65469],[-74.95922,5.65469],[-74.95923,5.65468],[-74.95926,5.65466],[-74.95928,5.65464],[-74.95929,5.65461],[-74.9593,5.65458],[-74.95932,5.65455],[-74.95934,5.65453],[-74.95936,5.65451],[-74.95939,5.65449],[-74.95941,5.65451],[-74.95944,5.65451],[-74.95947,5.65451],[-74.9595,5.65451],[-74.95953,5.6545],[-74.95953,5.65448],[-74.95953,5.65445],[-74.95955,5.65443],[-74.95956,5.6544],[-74.95955,5.65438],[-74.95955,5.65435],[-74.95956,5.65432],[-74.95959,5.6543],[-74.95962,5.6543],[-74.95965,5.65429],[-74.95967,5.65426],[-74.95969,5.65424],[-74.95971,5.65427],[-74.95973,5.65428],[-74.95976,5.65428],[-74.95978,5.65426],[-74.95981,5.65423],[-74.95983,5.65421],[-74.95986,5.65421],[-74.95989,5.65422],[-74.95991,5.65421],[-74.95994,5.65421],[-74.95997,5.65422],[-74.95998,5.65425],[-74.95999,5.65424],[-74.96,5.65423],[-74.96002,5.65421],[-74.96006,5.6542],[-74.96008,5.65417],[-74.96008,5.65415],[-74.9601,5.65414],[-74.96016,5.65414],[-74.96019,5.65415],[-74.9602,5.65416],[-74.96021,5.65417],[-74.96022,5.65414],[-74.96025,5.65413],[-74.96026,5.65416],[-74.96027,5.65419],[-74.9603,5.65419],[-74.96033,5.65419],[-74.96036,5.65418],[-74.96039,5.65419],[-74.96039,5.65422],[-74.96038,5.65425],[-74.96038,5.65427],[-74.96041,5.65428],[-74.96043,5.65427],[-74.96046,5.65425],[-74.96049,5.65427],[-74.96046,5.65429],[-74.96049,5.65431],[-74.96052,5.6543],[-74.96052,5.65427],[-74.96053,5.65424],[-74.96056,5.65423],[-74.96057,5.65426],[-74.96057,5.6543],[-74.96057,5.65432],[-74.96058,5.65435],[-74.9606,5.65436],[-74.96063,5.65437],[-74.96065,5.65439],[-74.96065,5.6544],[-74.96066,5.65439],[-74.96067,5.6544],[-74.96069,5.65442],[-74.96072,5.65444],[-74.96074,5.65445],[-74.96078,5.6545],[-74.9608,5.65453],[-74.96084,5.65456],[-74.96084,5.65458],[-74.96083,5.65464],[-74.96082,5.65468],[-74.96082,5.65471],[-74.96088,5.65469],[-74.96089,5.65467],[-74.96091,5.65465],[-74.96093,5.65464],[-74.96098,5.65467],[-74.96098,5.65472],[-74.96096,5.65478],[-74.96099,5.6548],[-74.96101,5.65483],[-74.96101,5.65488],[-74.96101,5.65491],[-74.96102,5.65492],[-74.96103,5.65492],[-74.96104,5.65486],[-74.96104,5.65485],[-74.96104,5.6548],[-74.96102,5.65476],[-74.961,5.65473],[-74.96101,5.65468],[-74.96102,5.65466],[-74.96107,5.65466],[-74.96107,5.65461],[-74.96107,5.65459],[-74.9611,5.65464],[-74.96111,5.6546],[-74.96115,5.65463],[-74.96116,5.65465],[-74.96118,5.65466],[-74.9612,5.65464],[-74.96119,5.65462],[-74.96121,5.65459],[-74.96124,5.6546],[-74.96124,5.65459],[-74.96127,5.65458],[-74.96128,5.65456],[-74.96127,5.65454],[-74.96129,5.65453],[-74.96129,5.65452],[-74.96135,5.65452],[-74.96136,5.65451],[-74.96137,5.65448],[-74.96139,5.65447],[-74.96142,5.65447],[-74.96144,5.65448],[-74.96146,5.65446],[-74.96148,5.65445],[-74.96151,5.65445],[-74.96156,5.65445],[-74.96158,5.65446],[-74.96163,5.65447],[-74.96165,5.65449],[-74.96167,5.65449],[-74.9617,5.65447],[-74.96171,5.65451],[-74.96172,5.65454],[-74.96172,5.6545],[-74.96173,5.6545],[-74.96174,5.65452],[-74.96176,5.65455],[-74.96176,5.65451],[-74.96179,5.65448],[-74.96181,5.65446],[-74.96184,5.65444],[-74.96189,5.65443],[-74.96191,5.65446],[-74.96193,5.65443],[-74.96191,5.65441],[-74.96193,5.65439],[-74.96192,5.65437],[-74.96192,5.65435],[-74.96198,5.65432],[-74.962,5.65431],[-74.96197,5.65429],[-74.962,5.65428],[-74.96205,5.65427],[-74.96207,5.65426],[-74.9621,5.65422],[-74.96209,5.65419],[-74.96209,5.65418],[-74.96211,5.65415],[-74.96209,5.65413],[-74.96209,5.6541],[-74.96211,5.65409],[-74.96212,5.65411],[-74.96213,5.65414],[-74.96215,5.65411],[-74.96217,5.65409],[-74.96217,5.65406],[-74.96219,5.65403],[-74.96222,5.65405],[-74.96223,5.65403],[-74.96225,5.65401],[-74.96226,5.65399],[-74.96227,5.654],[-74.96232,5.654],[-74.96232,5.65396],[-74.96231,5.65395],[-74.96233,5.65393],[-74.96235,5.65392],[-74.9624,5.65391],[-74.9624,5.65386],[-74.96239,5.65384],[-74.96237,5.65382],[-74.96241,5.6538],[-74.96238,5.65377],[-74.96238,5.65375],[-74.96241,5.65371],[-74.96243,5.65372],[-74.96247,5.65375],[-74.96246,5.65371],[-74.96249,5.6537],[-74.96252,5.65371],[-74.96253,5.65369],[-74.96256,5.65367],[-74.96256,5.65365],[-74.96256,5.65361],[-74.96267,5.65352],[-74.96273,5.65344],[-74.96276,5.65338],[-74.96276,5.65329],[-74.96274,5.6532],[-74.96279,5.65315],[-74.96288,5.65317],[-74.96294,5.65319],[-74.96292,5.65311],[-74.96299,5.65307],[-74.963,5.65304],[-74.96302,5.65298],[-74.96303,5.65292],[-74.96312,5.6529],[-74.96317,5.65287],[-74.96323,5.65282],[-74.96327,5.65276],[-74.9633,5.65272],[-74.96338,5.6527],[-74.9634,5.65259],[-74.96337,5.65251],[-74.96333,5.65243],[-74.9633,5.65239],[-74.96338,5.65234],[-74.96336,5.65227],[-74.9634,5.65219],[-74.96351,5.6521],[-74.96348,5.65205],[-74.96342,5.65208],[-74.96337,5.65203],[-74.9634,5.65194],[-74.9634,5.65187],[-74.96344,5.65179],[-74.96346,5.65175],[-74.96346,5.65168],[-74.96352,5.6516],[-74.96359,5.6515],[-74.96364,5.65142],[-74.96375,5.6513],[-74.96378,5.65123],[-74.96371,5.65122],[-74.96377,5.65109],[-74.96377,5.65102],[-74.96384,5.651],[-74.96393,5.65099],[-74.96392,5.65093],[-74.96398,5.65088],[-74.96402,5.65085],[-74.96408,5.6509],[-74.96412,5.65087],[-74.96416,5.65083],[-74.96413,5.65074],[-74.96417,5.65064],[-74.96423,5.65059],[-74.96417,5.65055],[-74.96418,5.65049],[-74.96417,5.65047],[-74.96415,5.65044],[-74.9641,5.6504],[-74.96412,5.6503],[-74.96412,5.65028],[-74.96416,5.65019],[-74.96416,5.65008],[-74.96415,5.64998],[-74.96415,5.64993],[-74.96409,5.64996],[-74.96401,5.64999],[-74.96403,5.64994],[-74.96409,5.64989],[-74.96417,5.64981],[-74.9642,5.64976],[-74.9642,5.64971],[-74.96414,5.64971],[-74.96416,5.64965],[-74.96421,5.64962],[-74.96419,5.64958],[-74.96418,5.64953],[-74.9642,5.6495],[-74.96422,5.64945],[-74.96412,5.64947],[-74.96421,5.64939],[-74.96422,5.64932],[-74.96429,5.6493],[-74.96428,5.6492],[-74.96428,5.6492],[-74.96432,5.64916],[-74.96434,5.64916],[-74.96439,5.64905],[-74.96442,5.64895],[-74.96445,5.64889],[-74.96449,5.64883],[-74.96448,5.64876],[-74.96451,5.64871],[-74.96447,5.6487],[-74.96446,5.64871],[-74.96444,5.64863],[-74.96442,5.64861],[-74.96441,5.6486],[-74.96441,5.64853],[-74.96441,5.64843],[-74.96439,5.64832],[-74.96445,5.64828],[-74.9645,5.64817],[-74.96447,5.64809],[-74.96447,5.64809],[-74.96447,5.64801],[-74.96448,5.6479],[-74.96448,5.6478],[-74.96447,5.64775],[-74.96443,5.64768],[-74.96446,5.64762],[-74.96443,5.64755],[-74.96447,5.64757],[-74.96453,5.64755],[-74.9646,5.6475],[-74.96472,5.64728],[-74.96473,5.64723],[-74.96467,5.64712],[-74.9647,5.64708],[-74.96468,5.64701],[-74.96465,5.64699],[-74.96463,5.64692],[-74.96464,5.64684],[-74.96465,5.64678],[-74.96465,5.64671],[-74.96464,5.64665],[-74.9646,5.64654],[-74.96455,5.6464],[-74.96452,5.64632],[-74.96448,5.64626],[-74.96446,5.64622],[-74.96438,5.64611],[-74.96437,5.64609],[-74.96439,5.64605],[-74.96436,5.64601],[-74.96439,5.64598],[-74.96445,5.64597],[-74.96446,5.6459],[-74.96445,5.64581],[-74.96441,5.64576],[-74.96435,5.64573],[-74.96431,5.64568],[-74.96427,5.64566],[-74.96422,5.64566],[-74.96421,5.6456],[-74.96421,5.64555],[-74.96418,5.6455],[-74.96416,5.64547],[-74.96413,5.64544],[-74.96409,5.64541],[-74.96404,5.64537],[-74.96399,5.64534],[-74.96394,5.64527],[-74.96386,5.64518],[-74.96382,5.64515],[-74.9638,5.64509],[-74.96378,5.64503],[-74.96378,5.64502],[-74.96378,5.64497],[-74.96378,5.64491],[-74.96377,5.64487],[-74.96379,5.64483],[-74.96379,5.64479],[-74.96384,5.64476],[-74.96384,5.64476],[-74.96386,5.64473],[-74.96386,5.64468],[-74.96388,5.64464],[-74.96389,5.64459],[-74.96388,5.64459],[-74.96384,5.6446],[-74.9638,5.64455],[-74.96376,5.64451],[-74.96373,5.64449],[-74.96372,5.64448],[-74.96366,5.64448],[-74.96361,5.6445],[-74.96359,5.64444],[-74.96359,5.6444],[-74.96355,5.64435],[-74.96351,5.64434],[-74.96349,5.64429],[-74.96347,5.6442],[-74.96345,5.64412],[-74.96342,5.6441],[-74.96341,5.64407],[-74.96339,5.64408],[-74.96338,5.64402],[-74.96338,5.64397],[-74.96337,5.64392],[-74.96337,5.6439],[-74.9633,5.64385],[-74.96325,5.6438],[-74.96322,5.64376],[-74.9632,5.64369],[-74.96317,5.64364],[-74.96311,5.64361],[-74.96308,5.6436],[-74.96309,5.6436],[-74.96309,5.64359],[-74.96309,5.64359],[-74.96308,5.64359],[-74.96308,5.64356],[-74.96305,5.64357],[-74.96303,5.64355],[-74.96303,5.64352],[-74.96302,5.6435],[-74.96303,5.64347],[-74.96304,5.64344],[-74.96301,5.64345],[-74.96298,5.64347],[-74.96299,5.64349],[-74.96298,5.64352],[-74.96296,5.64354],[-74.96293,5.64354],[-74.96291,5.64352],[-74.96289,5.64351],[-74.96287,5.6435],[-74.96288,5.64347],[-74.96285,5.64346],[-74.96284,5.64349],[-74.96281,5.64349],[-74.96279,5.64349],[-74.96276,5.64348],[-74.96278,5.64345],[-74.96278,5.64344],[-74.96278,5.64344],[-74.96276,5.64343],[-74.96241,5.6433],[-74.9624,5.6433],[-74.96231,5.64322],[-74.96224,5.64321],[-74.96223,5.64321],[-74.96219,5.64317],[-74.96217,5.64321],[-74.96216,5.64321],[-74.96215,5.6432],[-74.96211,5.64317],[-74.96209,5.64311],[-74.96208,5.64307],[-74.96206,5.64307],[-74.96203,5.64311],[-74.96201,5.64309],[-74.96198,5.64306],[-74.96198,5.64302],[-74.96198,5.64301],[-74.96195,5.64301],[-74.96193,5.64298],[-74.96193,5.64294],[-74.96187,5.64291],[-74.96184,5.64291],[-74.96181,5.64291],[-74.96175,5.6429],[-74.96173,5.64292],[-74.96171,5.64295],[-74.96162,5.64291],[-74.96157,5.6428],[-74.96155,5.64278],[-74.96153,5.64276],[-74.9615,5.64276],[-74.96145,5.64273],[-74.96146,5.64271],[-74.96149,5.64266],[-74.96146,5.64264],[-74.96143,5.64264],[-74.96143,5.6426],[-74.9614,5.64261],[-74.96135,5.6426],[-74.96134,5.64255],[-74.96131,5.64257],[-74.96128,5.64263],[-74.96122,5.64261],[-74.96121,5.64258],[-74.96123,5.64252],[-74.9612,5.64256],[-74.96118,5.64253],[-74.96116,5.64253],[-74.96112,5.6425],[-74.96109,5.64251],[-74.96101,5.64248],[-74.96097,5.64245],[-74.96095,5.64241],[-74.96096,5.64239],[-74.96095,5.64234],[-74.96091,5.64233],[-74.96089,5.6424],[-74.96086,5.6424],[-74.96085,5.64234],[-74.96082,5.64237],[-74.96078,5.64238],[-74.96075,5.6424],[-74.96068,5.64244],[-74.96064,5.64242],[-74.96067,5.64239],[-74.96067,5.64233],[-74.96064,5.6423],[-74.96062,5.6424],[-74.96059,5.64244],[-74.96057,5.64239],[-74.96056,5.64239],[-74.96053,5.64238],[-74.96042,5.64236],[-74.96037,5.64234],[-74.96036,5.6423],[-74.96033,5.64228],[-74.96029,5.64228],[-74.96028,5.64224],[-74.96026,5.64222],[-74.96021,5.64218],[-74.96014,5.64217],[-74.9601,5.64222],[-74.96006,5.64218],[-74.96003,5.6422],[-74.95998,5.64219],[-74.95993,5.64217],[-74.9599,5.64216],[-74.95986,5.64216],[-74.95986,5.64218],[-74.95987,5.64223],[-74.9598,5.64223],[-74.95979,5.64219],[-74.95976,5.64218],[-74.95973,5.64224],[-74.95965,5.64222],[-74.95965,5.64225],[-74.9596,5.64226],[-74.95946,5.6422],[-74.95941,5.64228],[-74.95935,5.64236],[-74.95933,5.64235],[-74.95936,5.64232],[-74.95936,5.64229],[-74.95937,5.64223],[-74.95934,5.64224],[-74.95932,5.64228],[-74.95928,5.64229],[-74.95932,5.64231],[-74.95927,5.64231],[-74.95926,5.64229],[-74.95924,5.64229],[-74.95922,5.64234],[-74.95921,5.64233],[-74.95924,5.64228],[-74.95925,5.64224],[-74.95926,5.64222],[-74.95928,5.64218],[-74.95928,5.64214],[-74.95923,5.64212],[-74.95924,5.64216],[-74.95923,5.64221],[-74.95922,5.64226],[-74.9592,5.64229],[-74.95921,5.64223],[-74.95922,5.6422],[-74.95922,5.64219],[-74.95918,5.64225],[-74.95916,5.64225],[-74.95916,5.64227],[-74.95913,5.64233],[-74.95908,5.64235],[-74.95905,5.64234],[-74.95901,5.64233],[-74.95899,5.64234],[-74.959,5.6423],[-74.959,5.64226],[-74.95897,5.64224],[-74.95894,5.64227],[-74.95897,5.64228],[-74.95893,5.64232],[-74.95892,5.64231],[-74.95889,5.64233],[-74.95885,5.64233],[-74.95881,5.64235],[-74.9588,5.64233],[-74.95876,5.64231],[-74.95874,5.64231],[-74.95871,5.64233],[-74.95871,5.6423],[-74.95868,5.64232],[-74.95867,5.6423],[-74.95868,5.64226],[-74.95868,5.64223],[-74.95867,5.64221],[-74.95866,5.64219],[-74.95866,5.64216],[-74.9587,5.64213],[-74.95868,5.64211],[-74.95869,5.64208],[-74.95869,5.64205],[-74.95869,5.64202],[-74.9587,5.64201],[-74.95875,5.64203],[-74.95879,5.64203],[-74.95878,5.64198],[-74.95875,5.64198],[-74.95871,5.64198],[-74.95868,5.64197],[-74.95868,5.64195],[-74.95868,5.64188],[-74.95866,5.64188],[-74.95844,5.64183],[-74.95834,5.64179],[-74.95829,5.64176],[-74.95821,5.64176],[-74.95813,5.64179],[-74.95806,5.64178],[-74.95801,5.6418],[-74.95796,5.64182],[-74.958,5.64185],[-74.95802,5.64189],[-74.95796,5.64189],[-74.95795,5.64194],[-74.95793,5.642],[-74.95788,5.64192],[-74.95784,5.64195],[-74.95778,5.64196],[-74.95775,5.64198],[-74.95777,5.64203],[-74.95769,5.64201],[-74.95764,5.64202],[-74.95763,5.64206],[-74.95767,5.64209],[-74.95767,5.64213],[-74.95762,5.64208],[-74.95754,5.64206],[-74.95743,5.64216],[-74.95727,5.64225],[-74.95724,5.64232],[-74.95717,5.64233],[-74.95715,5.64229],[-74.95708,5.64233],[-74.95697,5.64241],[-74.95692,5.64247],[-74.95685,5.64248],[-74.95677,5.64252],[-74.95675,5.64248],[-74.95667,5.64246],[-74.95659,5.64252],[-74.95652,5.64262],[-74.95652,5.64267],[-74.95651,5.64272],[-74.95649,5.64278],[-74.95637,5.64289],[-74.95636,5.64293],[-74.95639,5.64297],[-74.95642,5.64301],[-74.95635,5.64305],[-74.9563,5.64309],[-74.95624,5.64317],[-74.95621,5.64321],[-74.9562,5.64323],[-74.95615,5.64328],[-74.95614,5.64335],[-74.95615,5.64338],[-74.9562,5.64335],[-74.95623,5.64341],[-74.95619,5.64345],[-74.95614,5.64351],[-74.95609,5.64361],[-74.95609,5.64368],[-74.95609,5.64373],[-74.95608,5.64378],[-74.95602,5.64388],[-74.956,5.64398],[-74.95602,5.64403],[-74.956,5.64408],[-74.95588,5.64402],[-74.9556,5.64404],[-74.95536,5.64418],[-74.95521,5.64425],[-74.95521,5.64437],[-74.9552,5.64445],[-74.9552,5.6445],[-74.9552,5.64457],[-74.95518,5.64465],[-74.95511,5.64472],[-74.9551,5.64476],[-74.95505,5.64482],[-74.95498,5.6449],[-74.95499,5.64498],[-74.95501,5.64506],[-74.95502,5.64517],[-74.95506,5.64529],[-74.95511,5.64534],[-74.95516,5.64538],[-74.95516,5.64542],[-74.95511,5.64552],[-74.95515,5.64562],[-74.95521,5.64566],[-74.95525,5.64572],[-74.95528,5.64578],[-74.95534,5.64585],[-74.95539,5.64591],[-74.95542,5.64596],[-74.95548,5.64607],[-74.95548,5.64608],[-74.95548,5.64608],[-74.95549,5.64612],[-74.95549,5.64614],[-74.95549,5.64616],[-74.9555,5.64619],[-74.9555,5.6462],[-74.9555,5.64621],[-74.9555,5.64621],[-74.95552,5.64632],[-74.95552,5.64632],[-74.95552,5.64634],[-74.95556,5.64641],[-74.95556,5.64646],[-74.95555,5.64651],[-74.95559,5.64656],[-74.95562,5.64665],[-74.95562,5.64684],[-74.95562,5.64686],[-74.95561,5.64695],[-74.95561,5.64705],[-74.95563,5.64711],[-74.95561,5.64714],[-74.95564,5.64731],[-74.9557,5.64735],[-74.95571,5.64739],[-74.95573,5.64747],[-74.95575,5.64749],[-74.95578,5.64752],[-74.9558,5.64754],[-74.95582,5.64756],[-74.95581,5.64759],[-74.95579,5.64761],[-74.9558,5.64763],[-74.95579,5.64766],[-74.95576,5.64767],[-74.95576,5.64769],[-74.95573,5.6477],[-74.95574,5.64771],[-74.95578,5.64771],[-74.9558,5.64773],[-74.9558,5.64777],[-74.95577,5.64781],[-74.95575,5.64784],[-74.95573,5.64787],[-74.95572,5.6479],[-74.95571,5.64794],[-74.95569,5.64797],[-74.95567,5.64802],[-74.95569,5.64809],[-74.95571,5.64815],[-74.95572,5.6482],[-74.95574,5.64821],[-74.95575,5.64821],[-74.9558,5.64823],[-74.95582,5.64826],[-74.95586,5.64831],[-74.95589,5.64835],[-74.9559,5.64836],[-74.95591,5.64839],[-74.9559,5.64845],[-74.95587,5.64848],[-74.95578,5.64836],[-74.95573,5.64828],[-74.95571,5.64825],[-74.95563,5.64815],[-74.95545,5.64798],[-74.95537,5.64788],[-74.95532,5.64793],[-74.95548,5.64809],[-74.9556,5.6482],[-74.95563,5.64825],[-74.95563,5.64829],[-74.9556,5.64832],[-74.95552,5.6483],[-74.95545,5.64829],[-74.95542,5.64829],[-74.95539,5.64819],[-74.95538,5.64813],[-74.95536,5.64812],[-74.95536,5.64808],[-74.95533,5.64805],[-74.95531,5.64806],[-74.95532,5.64813],[-74.95533,5.64815],[-74.95536,5.64823],[-74.95534,5.64829],[-74.95534,5.64835],[-74.95539,5.64841],[-74.95541,5.64843],[-74.95545,5.64845],[-74.95544,5.64857],[-74.95542,5.64859],[-74.9554,5.64866],[-74.9554,5.64873],[-74.95542,5.64882],[-74.95542,5.64885],[-74.95541,5.64888],[-74.95539,5.64884],[-74.95538,5.64885],[-74.95537,5.64887],[-74.95538,5.6489],[-74.95541,5.64898],[-74.95541,5.64906],[-74.95543,5.64908],[-74.95543,5.64905],[-74.95544,5.64903],[-74.95544,5.64902],[-74.95545,5.649],[-74.95546,5.64899],[-74.95546,5.649],[-74.95547,5.64901],[-74.95548,5.64906],[-74.95551,5.64908],[-74.95551,5.64914],[-74.95551,5.64916],[-74.95548,5.64917],[-74.95547,5.64917],[-74.95543,5.64915],[-74.95543,5.64919],[-74.95548,5.64922],[-74.95553,5.64922],[-74.95554,5.64925],[-74.95553,5.64926],[-74.95553,5.64927],[-74.95552,5.64928],[-74.95553,5.6493],[-74.95554,5.64933],[-74.95554,5.64934],[-74.95554,5.64934],[-74.95557,5.64939],[-74.95556,5.64948],[-74.95556,5.64959],[-74.95556,5.64961],[-74.95557,5.64965],[-74.95559,5.6497],[-74.95558,5.64972],[-74.95553,5.64973],[-74.95553,5.64973],[-74.95551,5.64977],[-74.95551,5.64984],[-74.95555,5.64989],[-74.95559,5.64994],[-74.9556,5.64995],[-74.9556,5.64997],[-74.9556,5.64999],[-74.95561,5.65004],[-74.95563,5.65009],[-74.95565,5.65014],[-74.95567,5.65021],[-74.95566,5.65024],[-74.95559,5.65022],[-74.95561,5.65028],[-74.95561,5.65033],[-74.95559,5.65033],[-74.95558,5.65035],[-74.95558,5.65036],[-74.95558,5.65038],[-74.95558,5.65039],[-74.95558,5.65039],[-74.95561,5.65044],[-74.95564,5.65048],[-74.95564,5.65054],[-74.95561,5.6506],[-74.95558,5.65064],[-74.95558,5.65067],[-74.9556,5.65074],[-74.95558,5.6508],[-74.95557,5.65084],[-74.95559,5.65089],[-74.95559,5.65094],[-74.95561,5.65098],[-74.95563,5.65101],[-74.95563,5.65101],[-74.95565,5.65108],[-74.95565,5.65108],[-74.95565,5.6511],[-74.95563,5.65117],[-74.95562,5.65125],[-74.95562,5.65136],[-74.95562,5.65137],[-74.95563,5.65139],[-74.95563,5.65141],[-74.95564,5.65147],[-74.95564,5.65149],[-74.95567,5.65154],[-74.95571,5.65152],[-74.95574,5.65155],[-74.9558,5.65158],[-74.95583,5.65152],[-74.95588,5.65156],[-74.95592,5.65161],[-74.9559,5.65165],[-74.95589,5.65167],[-74.95582,5.6517],[-74.95579,5.6517],[-74.95575,5.65176],[-74.95572,5.65176],[-74.95568,5.65181],[-74.95564,5.65182],[-74.9556,5.65183],[-74.95559,5.65184],[-74.95555,5.65186],[-74.95552,5.6519],[-74.95548,5.65197],[-74.95546,5.65204],[-74.95545,5.65209],[-74.95543,5.65211],[-74.95541,5.65214],[-74.95543,5.65219],[-74.95543,5.65225],[-74.95545,5.65228],[-74.95545,5.65233],[-74.95541,5.65236],[-74.95542,5.65243],[-74.95541,5.65244],[-74.95538,5.65247],[-74.95537,5.65251],[-74.95539,5.65257],[-74.95537,5.65266],[-74.95534,5.65273],[-74.95529,5.65279],[-74.95526,5.65282],[-74.95519,5.65282],[-74.95519,5.65274],[-74.95515,5.65279],[-74.95513,5.65286],[-74.95513,5.65292],[-74.95513,5.65299],[-74.95515,5.65304],[-74.95513,5.6531],[-74.95509,5.65322],[-74.95509,5.65323],[-74.95509,5.6533],[-74.95512,5.6534],[-74.95516,5.65345],[-74.95519,5.65352],[-74.95524,5.65353],[-74.95526,5.65355],[-74.95522,5.65359],[-74.95519,5.65359],[-74.95509,5.65355],[-74.95495,5.65348],[-74.95489,5.65338],[-74.95487,5.65326],[-74.9549,5.6532],[-74.95488,5.65315],[-74.95483,5.65314],[-74.95483,5.65318],[-74.95482,5.65326],[-74.95485,5.65336],[-74.95488,5.65345],[-74.9549,5.65348],[-74.95492,5.65351],[-74.95503,5.65358],[-74.95512,5.65362],[-74.95519,5.65363],[-74.95525,5.65369],[-74.95521,5.65373],[-74.95517,5.65374],[-74.95512,5.6537],[-74.9551,5.6537],[-74.95504,5.65367],[-74.955,5.65366],[-74.95495,5.65367],[-74.9549,5.65371],[-74.95488,5.65376],[-74.95481,5.65383],[-74.95478,5.65382],[-74.95477,5.65382],[-74.95473,5.65382],[-74.95471,5.65385],[-74.9547,5.65387],[-74.95469,5.65393],[-74.95466,5.65392],[-74.95463,5.65387],[-74.9546,5.65388],[-74.95459,5.65395],[-74.95459,5.65396],[-74.95458,5.65402],[-74.95456,5.6541],[-74.95451,5.65413],[-74.95445,5.65416],[-74.95442,5.65417],[-74.95439,5.65419],[-74.9544,5.65426],[-74.95442,5.65432],[-74.9544,5.65436],[-74.95442,5.65442],[-74.95441,5.65451],[-74.95436,5.65463],[-74.95437,5.65475],[-74.95438,5.65486],[-74.95438,5.65487],[-74.95439,5.65492],[-74.95443,5.65498],[-74.95446,5.65504],[-74.95448,5.65517],[-74.95446,5.65528],[-74.95445,5.65536],[-74.95444,5.65541],[-74.9544,5.65544],[-74.95434,5.65545],[-74.9543,5.65544],[-74.95424,5.65547],[-74.95418,5.65549],[-74.95418,5.65553],[-74.95409,5.65561],[-74.95407,5.65563],[-74.95396,5.65571],[-74.9539,5.6557],[-74.95381,5.65574],[-74.95374,5.65575],[-74.95369,5.65579],[-74.9536,5.65582],[-74.95363,5.6559],[-74.95361,5.65595],[-74.9535,5.65599],[-74.95348,5.65605],[-74.95351,5.6561],[-74.95357,5.65606],[-74.95363,5.65606],[-74.95366,5.656],[-74.95373,5.6559],[-74.95382,5.65593],[-74.95385,5.6559],[-74.95393,5.65593],[-74.95399,5.65587],[-74.95404,5.65587],[-74.95412,5.65588],[-74.95417,5.6559],[-74.95422,5.65586],[-74.95428,5.65591],[-74.95432,5.65595],[-74.9544,5.65595],[-74.95445,5.65595],[-74.95452,5.65595],[-74.9546,5.65586],[-74.95467,5.65593],[-74.95473,5.65595],[-74.95478,5.65601],[-74.95485,5.65599],[-74.95488,5.65596],[-74.95493,5.65597],[-74.95502,5.65602],[-74.95508,5.65599],[-74.95513,5.65599],[-74.95519,5.65601],[-74.95524,5.65602],[-74.95534,5.65602],[-74.95539,5.65603],[-74.95543,5.65599],[-74.9555,5.65597],[-74.95559,5.65596],[-74.95565,5.65595],[-74.95569,5.65593],[-74.95575,5.65594],[-74.95582,5.65594],[-74.95586,5.6559],[-74.95593,5.65589],[-74.95603,5.6559],[-74.95605,5.65595],[-74.95608,5.656],[-74.95612,5.65604],[-74.95622,5.65608],[-74.95628,5.65612],[-74.95632,5.65605],[-74.95638,5.65602],[-74.95644,5.65606],[-74.95646,5.65606],[-74.95648,5.65601],[-74.95653,5.65597],[-74.95659,5.65599],[-74.9566,5.656],[-74.95661,5.656],[-74.95663,5.65598],[-74.95666,5.65597],[-74.9567,5.65597],[-74.95672,5.65597],[-74.95675,5.65598],[-74.95678,5.65595],[-74.95681,5.65595],[-74.95683,5.65594],[-74.95686,5.65596],[-74.95689,5.65595],[-74.95692,5.65595],[-74.95695,5.65595],[-74.95698,5.65594],[-74.95698,5.65594],[-74.95701,5.65593],[-74.95703,5.65591],[-74.95704,5.65591],[-74.95705,5.65588],[-74.95705,5.65585],[-74.95706,5.65582],[-74.95708,5.6558],[-74.95708,5.65577],[-74.9571,5.65574],[-74.95712,5.65572],[-74.95713,5.65569],[-74.95715,5.65567],[-74.95718,5.65567],[-74.95721,5.65568],[-74.95722,5.6557],[-74.95724,5.65568],[-74.95725,5.65565],[-74.95727,5.65562],[-74.9573,5.65562],[-74.95733,5.65562],[-74.95736,5.65561],[-74.95738,5.6556],[-74.95741,5.65558],[-74.95743,5.65556],[-74.95746,5.65556],[-74.95748,5.65558],[-74.95751,5.65559],[-74.95752,5.65557],[-74.95753,5.65554],[-74.95756,5.65552],[-74.95756,5.65549],[-74.95758,5.65547],[-74.9576,5.65545],[-74.95763,5.65544],[-74.95766,5.65543],[-74.95769,5.65543],[-74.95772,5.65543],[-74.95774,5.65544],[-74.95774,5.65544],[-74.95776,5.65546],[-74.95777,5.65547],[-74.95778,5.65546],[-74.95788,5.65544],[-74.95789,5.6554],[-74.95793,5.65539],[-74.95793,5.65535],[-74.95794,5.65533],[-74.95795,5.65532],[-74.95794,5.65528],[-74.95793,5.65523],[-74.95797,5.65521],[-74.95803,5.6552],[-74.95812,5.65519],[-74.95813,5.65515],[-74.9582,5.65512],[-74.95824,5.65513],[-74.9583,5.65514],[-74.95829,5.65518],[-74.95833,5.65518],[-74.95838,5.65519],[-74.9584,5.65523],[-74.95841,5.65523],[-74.95844,5.65522],[-74.9585,5.65518],[-74.95854,5.6552],[-74.95858,5.65518],[-74.95861,5.65515],[-74.95864,5.65518],[-74.95868,5.65515],[-74.95865,5.65512],[-74.95868,5.65508],[-74.95871,5.65511],[-74.95871,5.65506],[-74.95871,5.65504],[-74.95879,5.65497],[-74.95886,5.65497],[-74.95887,5.65493],[-74.95895,5.65488],[-74.95898,5.65487],[-74.95899,5.65484],[-74.959,5.65481],[-74.95902,5.65481],[-74.95905,5.65481],[-74.95908,5.65479],[-74.9591,5.65477],[-74.95913,5.65475],[-74.95916,5.65473],[-74.95918,5.65471],[-74.9592,5.65469],[-74.95921,5.65469]]]},"properties":{"fue_codigo":"0","lag_nombre":"San Diego","lag_tipo":"Laguna","lag_area":129.72,"lag_perime":null,"lag_codigo":"3","ESRI_OID":2}},{"type":"Feature","id":3,"geometry":{"type":"Polygon","coordinates":[[[-74.73235,5.33517],[-74.73217,5.3351],[-74.73197,5.3349],[-74.7318,5.33478],[-74.73147,5.33459],[-74.7311,5.33444],[-74.73072,5.33424],[-74.73012,5.33385],[-74.72952,5.33358],[-74.7291,5.33349],[-74.7285,5.33313],[-74.72824,5.3331],[-74.72778,5.33309],[-74.72735,5.33304],[-74.72696,5.33288],[-74.72622,5.33272],[-74.72585,5.33267],[-74.72566,5.33267],[-74.72496,5.33273],[-74.7239,5.33255],[-74.72338,5.33252],[-74.72315,5.33256],[-74.72274,5.33269],[-74.72231,5.33279],[-74.72211,5.33275],[-74.72064,5.33277],[-74.72021,5.33266],[-74.71966,5.33257],[-74.71899,5.33255],[-74.71847,5.3325],[-74.71786,5.33249],[-74.71744,5.33263],[-74.71708,5.33291],[-74.71683,5.33314],[-74.71655,5.3335],[-74.71649,5.33369],[-74.7165,5.33396],[-74.71661,5.33425],[-74.71675,5.3344],[-74.71717,5.33466],[-74.71766,5.33481],[-74.71827,5.33486],[-74.71877,5.33487],[-74.71939,5.33483],[-74.72019,5.33487],[-74.7208,5.33483],[-74.72133,5.33485],[-74.72169,5.33483],[-74.72219,5.3349],[-74.72324,5.33482],[-74.72344,5.33485],[-74.72386,5.33486],[-74.72485,5.33496],[-74.72602,5.33506],[-74.72655,5.33507],[-74.72718,5.3352],[-74.72761,5.33525],[-74.72872,5.33551],[-74.72921,5.33571],[-74.72946,5.33577],[-74.73015,5.33612],[-74.73044,5.33633],[-74.7308,5.3365],[-74.73113,5.33674],[-74.73143,5.33702],[-74.73161,5.33714],[-74.73191,5.33747],[-74.73232,5.33797],[-74.73264,5.33847],[-74.73274,5.3387],[-74.73282,5.33899],[-74.73294,5.33971],[-74.73298,5.34039],[-74.73297,5.34093],[-74.73289,5.34114],[-74.73259,5.34164],[-74.73241,5.34207],[-74.732,5.3428],[-74.73191,5.3429],[-74.73145,5.34325],[-74.73097,5.34366],[-74.73068,5.34395],[-74.73059,5.34407],[-74.73053,5.3443],[-74.73052,5.34451],[-74.73054,5.34468],[-74.73059,5.34474],[-74.73064,5.34475],[-74.73168,5.34441],[-74.7318,5.34434],[-74.73195,5.34428],[-74.7331,5.34403],[-74.73341,5.3439],[-74.73355,5.3438],[-74.7338,5.34368],[-74.73438,5.34344],[-74.73463,5.34332],[-74.7347,5.34323],[-74.73486,5.34294],[-74.73492,5.34267],[-74.73495,5.34228],[-74.7349,5.3416],[-74.73482,5.34124],[-74.73476,5.34042],[-74.7348,5.34001],[-74.73483,5.33901],[-74.73461,5.33854],[-74.73457,5.33829],[-74.73446,5.338],[-74.73416,5.3374],[-74.734,5.33696],[-74.73385,5.33673],[-74.73345,5.33624],[-74.73312,5.33595],[-74.73282,5.33556],[-74.73235,5.33517]]]},"properties":{"fue_codigo":"0","lag_nombre":"DMI Charca de Guarinocito","lag_tipo":"Charca","lag_area":653421.7,"lag_perime":6160.667,"lag_codigo":"0","ESRI_OID":3}},{"type":"Feature","id":4,"geometry":{"type":"Polygon","coordinates":[[[-75.62109,4.99629],[-75.62065,4.99636],[-75.62024,4.99636],[-75.62004,4.99615],[-75.61997,4.99588],[-75.62005,4.99541],[-75.62035,4.9952],[-75.62035,4.99493],[-75.62018,4.99487],[-75.61987,4.9949],[-75.61968,4.99452],[-75.61978,4.99433],[-75.61978,4.99415],[-75.61971,4.99392],[-75.61982,4.99338],[-75.61974,4.99317],[-75.61961,4.99314],[-75.61934,4.99328],[-75.61917,4.99334],[-75.61887,4.99328],[-75.61887,4.99273],[-75.61853,4.99181],[-75.61847,4.99117],[-75.61836,4.99086],[-75.6182,4.9907],[-75.61789,4.9907],[-75.61786,4.9909],[-75.61793,4.9913],[-75.61785,4.99151],[-75.61762,4.99151],[-75.61748,4.99144],[-75.61725,4.99113],[-75.61685,4.99079],[-75.61641,4.99058],[-75.6161,4.99066],[-75.61546,4.99103],[-75.61512,4.99096],[-75.61471,4.99099],[-75.6143,4.99116],[-75.61397,4.99106],[-75.61376,4.99109],[-75.61366,4.99119],[-75.61374,4.99139],[-75.61387,4.99147],[-75.61447,4.99147],[-75.61546,4.99137],[-75.61593,4.9912],[-75.6163,4.9912],[-75.61654,4.99126],[-75.61684,4.9914],[-75.61721,4.99178],[-75.61795,4.99188],[-75.61847,4.99205],[-75.61856,4.99222],[-75.6186,4.99252],[-75.61856,4.99324],[-75.61829,4.99337],[-75.61795,4.99344],[-75.61725,4.99343],[-75.61707,4.99361],[-75.61697,4.99395],[-75.617,4.99422],[-75.61697,4.99446],[-75.61677,4.99463],[-75.61663,4.99483],[-75.61653,4.99544],[-75.61653,4.99608],[-75.61645,4.99676],[-75.61653,4.99713],[-75.61662,4.99723],[-75.6178,4.99832],[-75.61824,4.99856],[-75.61865,4.99859],[-75.61886,4.99856],[-75.61919,4.99805],[-75.61926,4.99799],[-75.6194,4.99683],[-75.61967,4.99677],[-75.62055,4.9967],[-75.62105,4.99677],[-75.62119,4.9966],[-75.62119,4.99643],[-75.62099,4.9964],[-75.62099,4.99636],[-75.62109,4.99629]]]},"properties":{"fue_codigo":"0","lag_nombre":"Represa Cameguadua","lag_tipo":"Represa","lag_area":223421,"lag_perime":3689.018,"lag_codigo":"2","ESRI_OID":4}}]}