{"type":"FeatureCollection","name":"Puntos Agua Acuifero Risaralda","crs":{"type":"name","properties":{"name":"urn:ogc:def:crs:OGC:1.3:CRS84"}},"features":[{"type":"Feature","id":1,"geometry":{"type":"Point","coordinates":[-75.8495,5.00272]},"properties":{"OBJECTID":1,"ID":1,"MUNICIPIO":"Belalcázar","PREDIO":"Piscícola  río  Nilo","N":1045080.537,"E":1136205.088,"Registro_d":"Inventario 1994","Tipo_punto":"Aljibe","CONDICION":"Reserva","X":803457.242398,"Y":1045218.39843}},{"type":"Feature","id":2,"geometry":{"type":"Point","coordinates":[-75.84747,5.00186]},"properties":{"OBJECTID":2,"ID":2,"MUNICIPIO":"Belalcázar","PREDIO":"Piscícola  río  Nilo","N":1044985.713,"E":1136430.196,"Registro_d":"Inventario 1994","Tipo_punto":"Aljibe","CONDICION":"Abandonado","X":803681.970408,"Y":1045122.52308}},{"type":"Feature","id":3,"geometry":{"type":"Point","coordinates":[-75.85872,4.98806]},"properties":{"OBJECTID":3,"ID":3,"MUNICIPIO":"Belalcázar","PREDIO":"Puente Negro","N":1043456.381,"E":1135185.143,"Registro_d":"Inventario 1994","Tipo_punto":"Aljibe","CONDICION":"Productivo","X":802429.637512,"Y":1043598.50424}},{"type":"Feature","id":4,"geometry":{"type":"Point","coordinates":[-75.85831,4.98844]},"properties":{"OBJECTID":4,"ID":4,"MUNICIPIO":"Belalcázar","PREDIO":"Finca La Magnolia","N":1043499.481,"E":1135231.283,"Registro_d":"Inventario 2014","Tipo_punto":"Pozo","CONDICION":"Productivo","X":802475.985395,"Y":1043641.40454}},{"type":"Feature","id":5,"geometry":{"type":"Point","coordinates":[-75.85867,4.98792]},"properties":{"OBJECTID":5,"ID":5,"MUNICIPIO":"Belalcázar","PREDIO":"Finca Villa Karen","N":1043441.03,"E":1135191.335,"Registro_d":"Inventario 2014","Tipo_punto":"Aljibe","CONDICION":"Productivo","X":802435.761065,"Y":1043583.12129}},{"type":"Feature","id":6,"geometry":{"type":"Point","coordinates":[-75.85839,4.98822]},"properties":{"OBJECTID":6,"ID":6,"MUNICIPIO":"Belalcázar","PREDIO":"Finca La Felisa","N":1043474.884,"E":1135222.084,"Registro_d":"Inventario 2014","Tipo_punto":"Aljibe","CONDICION":"Productivo","X":802466.67201,"Y":1043616.84348}},{"type":"Feature","id":7,"geometry":{"type":"Point","coordinates":[-75.84594,5.03875]},"properties":{"OBJECTID":7,"ID":7,"MUNICIPIO":"San José","PREDIO":"Finca Villa Aurita","N":1049066.244,"E":1136591.961,"Registro_d":"Inventario 2014","Tipo_punto":"Aljibe","CONDICION":"Productivo","X":803862.490122,"Y":1049203.27218}},{"type":"Feature","id":8,"geometry":{"type":"Point","coordinates":[-75.85653,5.007]},"properties":{"OBJECTID":8,"ID":8,"MUNICIPIO":"San José","PREDIO":"Condominio Seis y Punto","N":1045834.478,"E":1135199.207,"Registro_d":"Inventario 1994","Tipo_punto":"Aljibe","CONDICION":"Productivo","X":802678.784122,"Y":1045693.77757}},{"type":"Feature","id":9,"geometry":{"type":"Point","coordinates":[-75.84959,5.07356]},"properties":{"OBJECTID":9,"ID":9,"MUNICIPIO":"San José","PREDIO":"Finca Villa Ofelia","N":1053123.728,"E":1135940.342,"Registro_d":"Inventario 1994","Tipo_punto":"Aljibe","CONDICION":"Productivo","X":803468.336027,"Y":1053055.09567}},{"type":"Feature","id":10,"geometry":{"type":"Point","coordinates":[-75.85786,5.03636]},"properties":{"OBJECTID":10,"ID":10,"MUNICIPIO":"San José","PREDIO":"Hacienda San Sebastián","N":1048799.523,"E":1135270.691,"Registro_d":"Inventario 2014","Tipo_punto":"Aljibe","CONDICION":"Productivo","X":802539.67546,"Y":1048942.56837}},{"type":"Feature","id":11,"geometry":{"type":"Point","coordinates":[-75.85725,5.03431]},"properties":{"OBJECTID":11,"ID":11,"MUNICIPIO":"San José","PREDIO":"Finca La Valenciana","N":1048572.289,"E":1135338.901,"Registro_d":"Inventario 1994","Tipo_punto":"Aljibe","CONDICION":"Reserva","X":802606.856763,"Y":1048714.96491}},{"type":"Feature","id":12,"geometry":{"type":"Point","coordinates":[-75.85568,5.00594]},"properties":{"OBJECTID":12,"ID":12,"MUNICIPIO":"San José","PREDIO":"Condominio Valle de Acapulco","N":1045760.619,"E":1135134.64,"Registro_d":"Inventario 2014","Tipo_punto":"Aljibe","CONDICION":"Abandonado","X":802773.08188,"Y":1045575.81748}},{"type":"Feature","id":13,"geometry":{"type":"Point","coordinates":[-75.85711,5.02192]},"properties":{"OBJECTID":13,"ID":13,"MUNICIPIO":"San José","PREDIO":"Finca  río  de Janeiro","N":1047202.011,"E":1135356.873,"Registro_d":"Inventario 1994","Tipo_punto":"Aljibe","CONDICION":"Inactivo","X":802618.538198,"Y":1047344.2689}},{"type":"Feature","id":14,"geometry":{"type":"Point","coordinates":[-75.85016,5.06682]},"properties":{"OBJECTID":14,"ID":14,"MUNICIPIO":"San José","PREDIO":"Estadero Asia","N":1052496.604,"E":1135759.76,"Registro_d":"Inventario 1994","Tipo_punto":"Aljibe","CONDICION":"Abandonado","X":803403.434316,"Y":1052309.70728}},{"type":"Feature","id":15,"geometry":{"type":"Point","coordinates":[-75.86217,5.01244]},"properties":{"OBJECTID":15,"ID":15,"MUNICIPIO":"San José","PREDIO":"Hacienda La Cruz","N":1046153.265,"E":1134798.062,"Registro_d":"Inventario 1994","Tipo_punto":"Aljibe","CONDICION":"Productivo","X":802054.781637,"Y":1046297.82529}},{"type":"Feature","id":16,"geometry":{"type":"Point","coordinates":[-75.84256,5.06447]},"properties":{"OBJECTID":16,"ID":16,"MUNICIPIO":"San José","PREDIO":"Finca Potosí","N":1051912.051,"E":1136962.43,"Registro_d":"Inventario 1994","Tipo_punto":"Aljibe","CONDICION":"Reserva","X":804246.179608,"Y":1052048.03205}},{"type":"Feature","id":17,"geometry":{"type":"Point","coordinates":[-75.83925,5.0695]},"properties":{"OBJECTID":17,"ID":17,"MUNICIPIO":"San José","PREDIO":"Finca La Helenita","N":1052468.868,"E":1137327.996,"Registro_d":"Inventario 2014","Tipo_punto":"Aljibe","CONDICION":"Inactivo","X":804614.407275,"Y":1052603.28475}},{"type":"Feature","id":18,"geometry":{"type":"Point","coordinates":[-75.84427,5.08353]},"properties":{"OBJECTID":18,"ID":18,"MUNICIPIO":"San José","PREDIO":"Finca La Pili","N":1054465.311,"E":1136982.191,"Registro_d":"Inventario 2014","Tipo_punto":"Aljibe","CONDICION":"Reserva","X":804062.270186,"Y":1054157.28934}},{"type":"Feature","id":19,"geometry":{"type":"Point","coordinates":[-75.849,5.06569]},"properties":{"OBJECTID":19,"ID":19,"MUNICIPIO":"San José","PREDIO":"Subestación Viterbo","N":1052045.878,"E":1136247.399,"Registro_d":"Inventario 1994","Tipo_punto":"Aljibe","CONDICION":"Reserva","X":803531.600398,"Y":1052185.19927}},{"type":"Feature","id":20,"geometry":{"type":"Point","coordinates":[-75.85594,5.03778]},"properties":{"OBJECTID":20,"ID":20,"MUNICIPIO":"San José","PREDIO":"Finca La Montana","N":1048956.616,"E":1135482.989,"Registro_d":"Inventario 2014","Tipo_punto":"Aljibe","CONDICION":"Productivo","X":802752.748374,"Y":1049098.72274}},{"type":"Feature","id":21,"geometry":{"type":"Point","coordinates":[-75.86153,4.97094]},"properties":{"OBJECTID":21,"ID":21,"MUNICIPIO":"Viterbo","PREDIO":"Finca El Pinar","N":1041563.188,"E":1134877.434,"Registro_d":"Invetario 2014","Tipo_punto":"Aljibe","CONDICION":"Seco","X":802113.238883,"Y":1041706.2422}},{"type":"Feature","id":22,"geometry":{"type":"Point","coordinates":[-75.84948,5.07425]},"properties":{"OBJECTID":22,"ID":22,"MUNICIPIO":"Viterbo","PREDIO":"Finca Normandía","N":1053292.52,"E":1135838.353,"Registro_d":"Inventario 1994","Tipo_punto":"Aljibe","CONDICION":"Reserva","X":803481.181509,"Y":1053132.19862}},{"type":"Feature","id":23,"geometry":{"type":"Point","coordinates":[-75.85065,5.06978]},"properties":{"OBJECTID":23,"ID":23,"MUNICIPIO":"Viterbo","PREDIO":"Finca Fadimades","N":1052806.752,"E":1135669.826,"Registro_d":"Inventario 1994","Tipo_punto":"Aljibe","CONDICION":"Productivo","X":803349.476119,"Y":1052637.76837}},{"type":"Feature","id":24,"geometry":{"type":"Point","coordinates":[-75.85114,5.06912]},"properties":{"OBJECTID":24,"ID":24,"MUNICIPIO":"Viterbo","PREDIO":"Finca Molinares","N":1052766.723,"E":1135623.689,"Registro_d":"Inventario 1994","Tipo_punto":"Aljibe","CONDICION":"Reserva","X":803295.656327,"Y":1052565.07974}},{"type":"Feature","id":25,"geometry":{"type":"Point","coordinates":[-75.85123,5.06925]},"properties":{"OBJECTID":25,"ID":25,"MUNICIPIO":"Viterbo","PREDIO":"Finca Molinares","N":1052775.934,"E":1135620.59,"Registro_d":"Inventario 1994","Tipo_punto":"Aljibe","CONDICION":"Inactivo","X":803285.216413,"Y":1052578.93781}},{"type":"Feature","id":26,"geometry":{"type":"Point","coordinates":[-75.84257,5.09834]},"properties":{"OBJECTID":26,"ID":26,"MUNICIPIO":"Viterbo","PREDIO":"La Playa","N":1055645.189,"E":1137007.652,"Registro_d":"Inventario 1994","Tipo_punto":"Aljibe","CONDICION":"Reserva","X":804254.86371,"Y":1055795.29215}},{"type":"Feature","id":27,"geometry":{"type":"Point","coordinates":[-75.83536,5.10767]},"properties":{"OBJECTID":27,"ID":27,"MUNICIPIO":"Viterbo","PREDIO":"Piscícola Cabo Verde","N":1056691.266,"E":1137751.177,"Registro_d":"Inventario 1994","Tipo_punto":"Aljibe","CONDICION":"Productivo","X":805057.313738,"Y":1056824.67116}},{"type":"Feature","id":28,"geometry":{"type":"Point","coordinates":[-75.83656,5.10772]},"properties":{"OBJECTID":28,"ID":28,"MUNICIPIO":"Viterbo","PREDIO":"Piscícola Cabo Verde","N":1056697.154,"E":1137618.694,"Registro_d":"Inventario 1994","Tipo_punto":"Aljibe","CONDICION":"Inactivo","X":804924.828423,"Y":1056831.17868}},{"type":"Feature","id":29,"geometry":{"type":"Point","coordinates":[-75.83922,5.10825]},"properties":{"OBJECTID":29,"ID":29,"MUNICIPIO":"Viterbo","PREDIO":"Finca La Palmera","N":1056754.959,"E":1137322.831,"Registro_d":"Inventario 1994","Tipo_punto":"Aljibe","CONDICION":"Productivo","X":804629.168106,"Y":1056890.37746}},{"type":"Feature","id":30,"geometry":{"type":"Point","coordinates":[-75.85906,5.04169]},"properties":{"OBJECTID":30,"ID":30,"MUNICIPIO":"Viterbo","PREDIO":"Finca Las Antillas","N":1049389.182,"E":1135137.101,"Registro_d":"Inventario 2014","Tipo_punto":"Aljibe","CONDICION":"Productivo","X":802408.767395,"Y":1049532.98742}},{"type":"Feature","id":31,"geometry":{"type":"Point","coordinates":[-75.85892,5.04181]},"properties":{"OBJECTID":31,"ID":31,"MUNICIPIO":"Viterbo","PREDIO":"Finca Las Antillas","N":1049401.501,"E":1135152.483,"Registro_d":"Inventario 2014","Tipo_punto":"Aljibe","CONDICION":"Reserva","X":802424.209861,"Y":1049545.23856}},{"type":"Feature","id":32,"geometry":{"type":"Point","coordinates":[-75.85332,5.05179]},"properties":{"OBJECTID":32,"ID":32,"MUNICIPIO":"Viterbo","PREDIO":"Condominio La Esmeralda","N":1051110.385,"E":1135472.773,"Registro_d":"Inventario 1994","Tipo_punto":"Aljibe","CONDICION":"Reserva","X":803048.201395,"Y":1050648.36506}},{"type":"Feature","id":33,"geometry":{"type":"Point","coordinates":[-75.85653,5.05478]},"properties":{"OBJECTID":33,"ID":33,"MUNICIPIO":"Viterbo","PREDIO":"Condominio Los Alpes","N":1050836.827,"E":1135414.75,"Registro_d":"Inventario 1994","Tipo_punto":"Aljibe","CONDICION":"Productivo","X":802693.161425,"Y":1050979.70693}},{"type":"Feature","id":34,"geometry":{"type":"Point","coordinates":[-75.85268,5.05535]},"properties":{"OBJECTID":34,"ID":34,"MUNICIPIO":"Viterbo","PREDIO":"Finca Junín","N":1051165.549,"E":1135398.726,"Registro_d":"Inventario 1994","Tipo_punto":"Aljibe","CONDICION":"Reserva","X":803120.771953,"Y":1051042.15572}},{"type":"Feature","id":35,"geometry":{"type":"Point","coordinates":[-75.84386,5.03867]},"properties":{"OBJECTID":35,"ID":35,"MUNICIPIO":"Viterbo","PREDIO":"Finca Villa Aurita","N":1049057.465,"E":1136823.057,"Registro_d":"Inventario 2014","Tipo_punto":"Aljibe","CONDICION":"Productivo","X":804093.599602,"Y":1049193.4273}},{"type":"Feature","id":36,"geometry":{"type":"Point","coordinates":[-75.86095,5.05622]},"properties":{"OBJECTID":36,"ID":36,"MUNICIPIO":"Viterbo","PREDIO":"Condominio Villa del  río  Etapa III","N":1051180.152,"E":1134995.094,"Registro_d":"Inventario 2014","Tipo_punto":"Aljibe","CONDICION":"Reserva","X":802202.67885,"Y":1051140.85808}},{"type":"Feature","id":37,"geometry":{"type":"Point","coordinates":[-75.85817,5.05577]},"properties":{"OBJECTID":37,"ID":37,"MUNICIPIO":"Viterbo","PREDIO":"Condominio Villa del  río  Etapa II","N":1050824.079,"E":1135171.378,"Registro_d":"Inventario 1994","Tipo_punto":"Aljibe","CONDICION":"Reserva","X":802511.024274,"Y":1051090.22718}},{"type":"Feature","id":38,"geometry":{"type":"Point","coordinates":[-75.85686,5.05564]},"properties":{"OBJECTID":38,"ID":38,"MUNICIPIO":"Viterbo","PREDIO":"Finca San Antonio","N":1050932.003,"E":1135377.599,"Registro_d":"Inventario 1994","Tipo_punto":"Aljibe","CONDICION":"Productivo","X":802656.440951,"Y":1051075.07773}},{"type":"Feature","id":39,"geometry":{"type":"Point","coordinates":[-75.87258,5.05461]},"properties":{"OBJECTID":39,"ID":39,"MUNICIPIO":"Viterbo","PREDIO":"Hacienda La Samaria","N":1050815.06,"E":1133633.996,"Registro_d":"Inventario 1994","Tipo_punto":"Aljibe","CONDICION":"Reserva","X":800911.859183,"Y":1050966.15835}},{"type":"Feature","id":40,"geometry":{"type":"Point","coordinates":[-75.85365,5.05536]},"properties":{"OBJECTID":40,"ID":40,"MUNICIPIO":"Viterbo","PREDIO":"Condominio Villa del  río  Etapa I","N":1050775.931,"E":1135707.557,"Registro_d":"Inventario 2014","Tipo_punto":"Aljibe","CONDICION":"Reserva","X":803012.295949,"Y":1051042.759}},{"type":"Feature","id":41,"geometry":{"type":"Point","coordinates":[-75.85469,5.04581]},"properties":{"OBJECTID":41,"ID":41,"MUNICIPIO":"Viterbo","PREDIO":"Finca Limaría","N":1049844.812,"E":1135619.964,"Registro_d":"Inventario 1994","Tipo_punto":"Aljibe","CONDICION":"Productivo","X":802893.848018,"Y":1049986.50366}},{"type":"Feature","id":42,"geometry":{"type":"Point","coordinates":[-75.85683,5.04011]},"properties":{"OBJECTID":42,"ID":42,"MUNICIPIO":"Viterbo","PREDIO":"Finca San Felipe","N":1049214.516,"E":1135383.911,"Registro_d":"Inventario 1994","Tipo_punto":"Aljibe","CONDICION":"Productivo","X":802654.833443,"Y":1049357.14188}},{"type":"Feature","id":43,"geometry":{"type":"Point","coordinates":[-75.86692,5.06669]},"properties":{"OBJECTID":43,"ID":43,"MUNICIPIO":"Viterbo","PREDIO":"Parqueadero La 13","N":1052152.738,"E":1134260.009,"Registro_d":"Inventario 2014","Tipo_punto":"Aljibe","CONDICION":"Inactivo","X":801544.217514,"Y":1052301.28444}},{"type":"Feature","id":44,"geometry":{"type":"Point","coordinates":[-75.88656,5.08278]},"properties":{"OBJECTID":44,"ID":44,"MUNICIPIO":"Viterbo","PREDIO":"Finca Nueva Inglaterra","N":1053927.616,"E":1132078.546,"Registro_d":"Inventario 2014","Tipo_punto":"Aljibe","CONDICION":"Productivo","X":799370.411326,"Y":1054086.74261}},{"type":"Feature","id":45,"geometry":{"type":"Point","coordinates":[-75.88658,5.08147]},"properties":{"OBJECTID":45,"ID":45,"MUNICIPIO":"Viterbo","PREDIO":"Finca La Angelita","N":1053783.207,"E":1132075.732,"Registro_d":"Inventario 1994","Tipo_punto":"Aljibe","CONDICION":"Reserva","X":799366.926044,"Y":1053942.30753}},{"type":"Feature","id":46,"geometry":{"type":"Point","coordinates":[-75.87411,4.99169]},"properties":{"OBJECTID":46,"ID":46,"MUNICIPIO":"Viterbo","PREDIO":"Finca San Diego","N":1043855.719,"E":1133477.388,"Registro_d":"Inventario 1994","Tipo_punto":"Aljibe","CONDICION":"Productivo","X":800723.270386,"Y":1044005.7294}},{"type":"Feature","id":47,"geometry":{"type":"Point","coordinates":[-75.87506,4.98919]},"properties":{"OBJECTID":47,"ID":47,"MUNICIPIO":"Viterbo","PREDIO":"Granja San Diego","N":1043579.01,"E":1133373.132,"Registro_d":"Inventario 2014","Tipo_punto":"Aljibe","CONDICION":"Productivo","X":800617.725521,"Y":1043729.42363}},{"type":"Feature","id":48,"geometry":{"type":"Point","coordinates":[-75.87469,4.99433]},"properties":{"OBJECTID":48,"ID":48,"MUNICIPIO":"Viterbo","PREDIO":"Finca El Danubio","N":1044147.48,"E":1133412.147,"Registro_d":"Inventario 1994","Tipo_punto":"Pozo","CONDICION":"Productivo","X":800659.343465,"Y":1044297.86416}},{"type":"Feature","id":49,"geometry":{"type":"Point","coordinates":[-75.87647,4.99306]},"properties":{"OBJECTID":49,"ID":49,"MUNICIPIO":"Viterbo","PREDIO":"El Danubio 2","N":1044005.787,"E":1133215.207,"Registro_d":"Inventario 2014","Tipo_punto":"Aljibe","CONDICION":"Productivo","X":800461.705433,"Y":1044157.03257}},{"type":"Feature","id":50,"geometry":{"type":"Point","coordinates":[-75.88568,4.96637]},"properties":{"OBJECTID":50,"ID":50,"MUNICIPIO":"Viterbo","PREDIO":"Porcicola Los Cedros","N":1041407.075,"E":1131827.19,"Registro_d":"Inventario 1994","Tipo_punto":"Aljibe","CONDICION":"Productivo","X":799431.613622,"Y":1041207.65714}},{"type":"Feature","id":51,"geometry":{"type":"Point","coordinates":[-75.8862,4.9657]},"properties":{"OBJECTID":51,"ID":51,"MUNICIPIO":"Viterbo","PREDIO":"Porcicola Los Cedros","N":1041327.209,"E":1131836.578,"Registro_d":"Inventario 2014","Tipo_punto":"Aljibe","CONDICION":"Productivo","X":799373.774217,"Y":1041133.74899}},{"type":"Feature","id":52,"geometry":{"type":"Point","coordinates":[-75.88611,5.00989]},"properties":{"OBJECTID":52,"ID":52,"MUNICIPIO":"Viterbo","PREDIO":"Hacienda Bélgica","N":1045865.713,"E":1132142.637,"Registro_d":"Inventario 1994","Tipo_punto":"Aljibe","CONDICION":"Reserva","X":799397.348538,"Y":1046022.35658}},{"type":"Feature","id":53,"geometry":{"type":"Point","coordinates":[-75.88611,5.00989]},"properties":{"OBJECTID":53,"ID":53,"MUNICIPIO":"Viterbo","PREDIO":"Hacienda El Cortijo","N":1045865.713,"E":1132142.637,"Registro_d":"Inventario 1994","Tipo_punto":"Aljibe","CONDICION":"Reserva","X":799397.348538,"Y":1046022.35658}},{"type":"Feature","id":54,"geometry":{"type":"Point","coordinates":[-75.83483,5.11122]},"properties":{"OBJECTID":54,"ID":54,"MUNICIPIO":"Viterbo","PREDIO":"Finca Cabo Verde - La Guerrerita","N":1057084.655,"E":1137808.949,"Registro_d":"Inventario 1994","Tipo_punto":"Aljibe","CONDICION":"Reserva","X":805116.934971,"Y":1057217.87872}},{"type":"Feature","id":55,"geometry":{"type":"Point","coordinates":[-75.88039,5.03631]},"properties":{"OBJECTID":55,"ID":55,"MUNICIPIO":"Viterbo","PREDIO":"Finca La Sajonia","N":1048788.735,"E":1132771.987,"Registro_d":"Inventario 2014","Tipo_punto":"Aljibe","CONDICION":"Productivo","X":800040.282946,"Y":1048943.27546}},{"type":"Feature","id":56,"geometry":{"type":"Point","coordinates":[-75.84053,5.10972]},"properties":{"OBJECTID":56,"ID":56,"MUNICIPIO":"Viterbo","PREDIO":"Hacienda La Argelia","N":1056917.521,"E":1137177.723,"Registro_d":"Inventario 1994","Tipo_punto":"Aljibe","CONDICION":"Reserva","X":804484.78567,"Y":1057053.65389}},{"type":"Feature","id":57,"geometry":{"type":"Point","coordinates":[-75.83479,5.13007]},"properties":{"OBJECTID":57,"ID":57,"MUNICIPIO":"Anserma","PREDIO":"Condominio Valle del Risaralda","N":1059169.316,"E":1137810.26,"Registro_d":"Inventario 2014","Tipo_punto":"Aljibe","CONDICION":"Reserva","X":805127.998645,"Y":1059303.00034}},{"type":"Feature","id":58,"geometry":{"type":"Point","coordinates":[-75.83333,5.13081]},"properties":{"OBJECTID":58,"ID":58,"MUNICIPIO":"Anserma","PREDIO":"Condominio Valle del Risaralda","N":1059251.072,"E":1137971.092,"Registro_d":"Inventario 2014","Tipo_punto":"Aljibe","CONDICION":"Productivo","X":805289.249723,"Y":1059384.0208}},{"type":"Feature","id":59,"geometry":{"type":"Point","coordinates":[-75.8335,5.1307]},"properties":{"OBJECTID":59,"ID":59,"MUNICIPIO":"Anserma","PREDIO":"Condominio Valle del Risaralda","N":1059238.97,"E":1137952.9,"Registro_d":"Inventario 2014","Tipo_punto":"Aljibe","CONDICION":"Reserva","X":805270.996966,"Y":1059372.00132}},{"type":"Feature","id":60,"geometry":{"type":"Point","coordinates":[-75.83412,5.13076]},"properties":{"OBJECTID":60,"ID":60,"MUNICIPIO":"Anserma","PREDIO":"Condominio Valle del Risaralda","N":1059246.4,"E":1137883.89,"Registro_d":"Inventario 2014","Tipo_punto":"Aljibe","CONDICION":"Productivo","X":805202.006316,"Y":1059379.75649}},{"type":"Feature","id":61,"geometry":{"type":"Point","coordinates":[-75.83204,5.13022]},"properties":{"OBJECTID":61,"ID":61,"MUNICIPIO":"Anserma","PREDIO":"Condominio Valle del Risaralda","N":1059186.73,"E":1138114.11,"Registro_d":"Inventario 1994","Tipo_punto":"Aljibe","CONDICION":"Sellado","X":805431.997908,"Y":1059318.99417}}]}