{"type":"FeatureCollection","name":"Vulnerabilidad Contaminación Risaralda","crs":{"type":"name","properties":{"name":"urn:ogc:def:crs:OGC:1.3:CRS84"}},"features":[{"type":"Feature","id":1,"geometry":{"type":"Polygon","coordinates":[[[-75.85738,4.93215],[-75.85728,4.93173],[-75.85596,4.93126],[-75.85537,4.93108],[-75.85492,4.93054],[-75.85481,4.93072],[-75.8547,4.93089],[-75.85451,4.93117],[-75.85439,4.93135],[-75.85426,4.93131],[-75.85413,4.93121],[-75.85409,4.9311],[-75.85353,4.93094],[-75.85339,4.93114],[-75.85336,4.9313],[-75.85334,4.93145],[-75.8533,4.93161],[-75.85327,4.93164],[-75.8532,4.9317],[-75.85309,4.93168],[-75.85289,4.93162],[-75.85279,4.93151],[-75.85266,4.93133],[-75.85261,4.93122],[-75.8526,4.93118],[-75.85262,4.93104],[-75.85246,4.93098],[-75.85245,4.9309],[-75.85238,4.93097],[-75.85236,4.93099],[-75.85234,4.93102],[-75.85229,4.93111],[-75.85224,4.93119],[-75.85224,4.93127],[-75.85222,4.93133],[-75.85219,4.9314],[-75.8521,4.93142],[-75.85204,4.93143],[-75.85202,4.93143],[-75.85201,4.93143],[-75.85193,4.9314],[-75.85193,4.9314],[-75.85184,4.93134],[-75.85177,4.93131],[-75.85177,4.93131],[-75.85168,4.93128],[-75.85168,4.93128],[-75.85163,4.93124],[-75.85159,4.93121],[-75.85159,4.9312],[-75.85141,4.93113],[-75.85134,4.93098],[-75.85128,4.93079],[-75.8513,4.9306],[-75.85125,4.93047],[-75.85124,4.93043],[-75.85116,4.93031],[-75.85107,4.93026],[-75.85107,4.93026],[-75.85093,4.93022],[-75.84994,4.93032],[-75.84839,4.92985],[-75.84823,4.9294],[-75.84821,4.9294],[-75.84803,4.92916],[-75.848,4.92897],[-75.84787,4.92877],[-75.84759,4.92886],[-75.84736,4.92905],[-75.84722,4.92905],[-75.84722,4.92905],[-75.84713,4.92904],[-75.84697,4.92889],[-75.84697,4.92889],[-75.8468,4.92879],[-75.84662,4.92871],[-75.84661,4.92871],[-75.84646,4.92874],[-75.84645,4.92874],[-75.84634,4.92874],[-75.84634,4.92874],[-75.84619,4.92868],[-75.84602,4.92859],[-75.84592,4.92852],[-75.84591,4.92851],[-75.84591,4.92851],[-75.84576,4.92854],[-75.84496,4.92858],[-75.84468,4.92872],[-75.84467,4.92872],[-75.84442,4.92872],[-75.84442,4.92872],[-75.84402,4.92868],[-75.84402,4.92868],[-75.84391,4.92863],[-75.84314,4.92866],[-75.84225,4.92893],[-75.84224,4.92894],[-75.84216,4.92897],[-75.84215,4.92897],[-75.84201,4.929],[-75.84028,4.92951],[-75.83861,4.92927],[-75.83842,4.92889],[-75.83841,4.92889],[-75.83841,4.92888],[-75.838,4.9286],[-75.83791,4.92833],[-75.83786,4.92817],[-75.83781,4.92792],[-75.83663,4.92696],[-75.83646,4.92696],[-75.83624,4.92701],[-75.83616,4.92702],[-75.83647,4.92952],[-75.83969,4.93262],[-75.84053,4.93441],[-75.84066,4.9368],[-75.84031,4.94003],[-75.84091,4.94182],[-75.84437,4.94349],[-75.84605,4.94564],[-75.84617,4.94671],[-75.84688,4.94719],[-75.84478,4.9613],[-75.84288,4.9649],[-75.84228,4.96824],[-75.84146,4.97287],[-75.84112,4.97482],[-75.83922,4.97842],[-75.8366,4.9795],[-75.83527,4.97997],[-75.83457,4.98022],[-75.83314,4.98106],[-75.83309,4.98117],[-75.83184,4.9837],[-75.83054,4.9886],[-75.83079,4.99279],[-75.83047,4.99324],[-75.82875,4.9957],[-75.8281,4.99663],[-75.83149,4.99635],[-75.83759,4.99435],[-75.84507,4.99433],[-75.84866,4.99638],[-75.84966,4.9996],[-75.84982,5.00281],[-75.84876,5.00534],[-75.84472,5.00803],[-75.84138,5.0114],[-75.83849,5.01509],[-75.83895,5.01845],[-75.84003,5.02205],[-75.84301,5.02517],[-75.84706,5.02669],[-75.85409,5.02905],[-75.85806,5.02996],[-75.86028,5.03163],[-75.86166,5.03438],[-75.86068,5.03714],[-75.8558,5.03987],[-75.85321,5.04072],[-75.85161,5.04226],[-75.84451,5.04327],[-75.8391,5.04436],[-75.83575,5.04635],[-75.834,5.0495],[-75.83546,5.05454],[-75.83677,5.05737],[-75.84036,5.06019],[-75.84159,5.06325],[-75.84145,5.0657],[-75.83771,5.06609],[-75.83275,5.06902],[-75.82872,5.07186],[-75.82658,5.07263],[-75.82613,5.07447],[-75.82873,5.07813],[-75.82898,5.0841],[-75.82891,5.08846],[-75.8309,5.09083],[-75.83152,5.09335],[-75.83092,5.0955],[-75.83047,5.10063],[-75.83514,5.10532],[-75.83675,5.10822],[-75.83493,5.11282],[-75.83412,5.11557],[-75.8343,5.11901],[-75.8347,5.12211],[-75.8353,5.12445],[-75.83535,5.12716],[-75.83517,5.13024],[-75.83532,5.13009],[-75.83583,5.12984],[-75.83653,5.12977],[-75.83733,5.1297],[-75.83761,5.12956],[-75.83782,5.12935],[-75.83819,5.1288],[-75.83847,5.12831],[-75.83849,5.1279],[-75.83853,5.12722],[-75.83841,5.12673],[-75.83828,5.12669],[-75.83775,5.12633],[-75.83769,5.12621],[-75.83749,5.12616],[-75.83719,5.126],[-75.83679,5.12544],[-75.8365,5.12456],[-75.83636,5.12359],[-75.83637,5.12292],[-75.83618,5.12236],[-75.83617,5.12208],[-75.83616,5.12197],[-75.83628,5.12181],[-75.83646,5.12158],[-75.83699,5.12109],[-75.83727,5.12068],[-75.83722,5.12038],[-75.8369,5.11991],[-75.83632,5.11942],[-75.83575,5.11868],[-75.83563,5.1182],[-75.83575,5.11769],[-75.83603,5.11704],[-75.83633,5.11635],[-75.83647,5.11581],[-75.83663,5.11507],[-75.83666,5.11494],[-75.83673,5.11459],[-75.83698,5.11394],[-75.83715,5.11357],[-75.83756,5.11311],[-75.83791,5.11288],[-75.83846,5.11288],[-75.83904,5.1129],[-75.83962,5.11291],[-75.83998,5.11281],[-75.84049,5.11254],[-75.84109,5.11205],[-75.84195,5.11115],[-75.84266,5.11016],[-75.84382,5.10884],[-75.84406,5.10865],[-75.84433,5.1082],[-75.84447,5.10775],[-75.84447,5.10735],[-75.84407,5.10677],[-75.84354,5.10623],[-75.84358,5.10617],[-75.84326,5.10589],[-75.84248,5.10521],[-75.8421,5.1047],[-75.84206,5.10428],[-75.84221,5.10356],[-75.84266,5.10308],[-75.84382,5.10287],[-75.84474,5.10293],[-75.84522,5.10296],[-75.84597,5.1029],[-75.84662,5.10278],[-75.84704,5.10292],[-75.84734,5.1037],[-75.84672,5.10442],[-75.84663,5.10511],[-75.84702,5.10642],[-75.84743,5.10677],[-75.84748,5.10679],[-75.84753,5.10683],[-75.84758,5.10686],[-75.84768,5.10699],[-75.84818,5.10749],[-75.84822,5.10782],[-75.84835,5.10824],[-75.84854,5.10828],[-75.84856,5.10828],[-75.84864,5.10828],[-75.84867,5.10828],[-75.84886,5.10828],[-75.849,5.10828],[-75.84904,5.10828],[-75.8492,5.10828],[-75.84925,5.1083],[-75.84937,5.10836],[-75.84944,5.10848],[-75.84956,5.10862],[-75.84958,5.10868],[-75.84964,5.1088],[-75.84968,5.10881],[-75.84998,5.10892],[-75.85034,5.10958],[-75.8506,5.10978],[-75.85065,5.10986],[-75.85123,5.11006],[-75.85168,5.11078],[-75.85184,5.11079],[-75.85196,5.11079],[-75.85203,5.11079],[-75.8521,5.11079],[-75.85214,5.11079],[-75.85215,5.11078],[-75.85224,5.11078],[-75.85247,5.11074],[-75.85275,5.11071],[-75.85285,5.11071],[-75.85299,5.11071],[-75.85306,5.1107],[-75.85314,5.11067],[-75.85331,5.1107],[-75.85344,5.11071],[-75.85349,5.11075],[-75.8536,5.11083],[-75.85369,5.1109],[-75.85366,5.11098],[-75.854,5.11095],[-75.85411,5.11131],[-75.85402,5.11156],[-75.85411,5.11156],[-75.85418,5.11158],[-75.85426,5.1116],[-75.85437,5.11165],[-75.85443,5.11168],[-75.85451,5.11178],[-75.85453,5.11181],[-75.85458,5.1119],[-75.85468,5.11196],[-75.85487,5.11204],[-75.85491,5.11211],[-75.85491,5.11211],[-75.85497,5.11213],[-75.8554,5.11245],[-75.85555,5.11295],[-75.85562,5.11345],[-75.85571,5.11359],[-75.85577,5.11357],[-75.85585,5.11354],[-75.85588,5.11353],[-75.85599,5.11347],[-75.85601,5.11347],[-75.8561,5.11346],[-75.85614,5.11343],[-75.8562,5.11342],[-75.85635,5.11337],[-75.8564,5.11338],[-75.85651,5.1134],[-75.85665,5.11347],[-75.85677,5.11358],[-75.85681,5.11361],[-75.85683,5.11366],[-75.85691,5.11385],[-75.85697,5.11393],[-75.85702,5.11407],[-75.85727,5.11413],[-75.85738,5.1142],[-75.85746,5.11422],[-75.85753,5.11421],[-75.85763,5.1142],[-75.85777,5.11424],[-75.85805,5.11447],[-75.85811,5.11466],[-75.85842,5.11485],[-75.85943,5.11247],[-75.86027,5.11048],[-75.86011,5.10681],[-75.8601,5.10375],[-75.85978,5.09954],[-75.85981,5.08339],[-75.86047,5.08119],[-75.86127,5.07889],[-75.86375,5.07712],[-75.86761,5.07572],[-75.87137,5.07456],[-75.87604,5.07302],[-75.88053,5.073],[-75.88439,5.07295],[-75.88754,5.07404],[-75.8894,5.07523],[-75.89227,5.07737],[-75.89395,5.08009],[-75.89529,5.08223],[-75.89588,5.07721],[-75.89645,5.07419],[-75.89589,5.07223],[-75.89529,5.07056],[-75.89446,5.06996],[-75.89314,5.06758],[-75.89313,5.06614],[-75.89408,5.06447],[-75.89563,5.0635],[-75.89527,5.06099],[-75.89467,5.0604],[-75.89276,5.05981],[-75.89228,5.05861],[-75.89239,5.05586],[-75.89238,5.05371],[-75.89154,5.05012],[-75.89128,5.04901],[-75.89041,5.04526],[-75.89009,5.04391],[-75.88971,5.03566],[-75.88804,5.03555],[-75.88637,5.03471],[-75.89183,5.03232],[-75.8915,5.03097],[-75.89217,5.0311],[-75.89261,5.03062],[-75.89296,5.03124],[-75.89345,5.03202],[-75.89418,5.03154],[-75.89431,5.0307],[-75.89527,5.03048],[-75.89523,5.03012],[-75.89452,5.02956],[-75.89361,5.02776],[-75.89363,5.02735],[-75.89372,5.02735],[-75.89208,5.02563],[-75.88894,5.02357],[-75.88577,5.02258],[-75.88173,5.02118],[-75.8789,5.01969],[-75.87683,5.01798],[-75.87542,5.0158],[-75.87526,5.01316],[-75.87769,5.01128],[-75.88021,5.01032],[-75.88253,5.00851],[-75.88398,5.00713],[-75.88512,5.00586],[-75.88741,5.00509],[-75.89023,5.00497],[-75.89263,5.00558],[-75.89344,5.0067],[-75.89401,5.00668],[-75.89435,5.00644],[-75.89441,5.00633],[-75.89435,5.00595],[-75.89417,5.00562],[-75.89415,5.00507],[-75.89428,5.00453],[-75.89456,5.00416],[-75.89473,5.00421],[-75.89483,5.00412],[-75.89472,5.00379],[-75.89438,5.00328],[-75.89423,5.00279],[-75.89421,5.00272],[-75.89429,5.0021],[-75.89442,5.00206],[-75.89496,5.00203],[-75.89509,5.00195],[-75.89547,5.0013],[-75.89554,5.00122],[-75.89573,5.001],[-75.8957,5.00085],[-75.89517,5.00016],[-75.89514,4.99969],[-75.89542,4.99926],[-75.89561,4.99911],[-75.89591,4.999],[-75.89608,4.99881],[-75.89615,4.99853],[-75.896,4.99803],[-75.89561,4.99741],[-75.8961,4.99732],[-75.89642,4.99747],[-75.89668,4.99775],[-75.89692,4.99829],[-75.89718,4.99939],[-75.89755,5.00007],[-75.89787,5.00022],[-75.89849,5.00037],[-75.89853,5.0005],[-75.89864,5.00061],[-75.89879,5.00063],[-75.89892,5.00054],[-75.89898,5.00033],[-75.89909,5.00033],[-75.89935,5.0005],[-75.89958,5.00056],[-75.90002,5.00065],[-75.90035,5.00116],[-75.90116,5.00191],[-75.9019,5.00213],[-75.90293,5.00236],[-75.90432,5.00244],[-75.90441,5.00096],[-75.90423,5.00088],[-75.90397,5.00023],[-75.90369,4.99969],[-75.90359,4.99918],[-75.90339,4.99833],[-75.90342,4.99754],[-75.90353,4.99703],[-75.90359,4.99692],[-75.90381,4.99647],[-75.90418,4.99624],[-75.90424,4.9962],[-75.90425,4.99619],[-75.90446,4.99602],[-75.90455,4.99571],[-75.90441,4.99537],[-75.90423,4.99435],[-75.90411,4.99345],[-75.90381,4.99257],[-75.90372,4.99167],[-75.90367,4.99157],[-75.90194,4.98977],[-75.90167,4.98957],[-75.90159,4.98942],[-75.90152,4.98934],[-75.90149,4.98921],[-75.901,4.98824],[-75.90072,4.98765],[-75.90063,4.98734],[-75.90072,4.98697],[-75.90092,4.98643],[-75.90097,4.98602],[-75.90094,4.986],[-75.90008,4.98514],[-75.90006,4.98494],[-75.89953,4.98462],[-75.89882,4.98391],[-75.89816,4.98354],[-75.89798,4.98352],[-75.89791,4.98334],[-75.89753,4.98295],[-75.89738,4.98253],[-75.89731,4.98196],[-75.8975,4.98061],[-75.89747,4.97993],[-75.89728,4.97925],[-75.8975,4.97801],[-75.89773,4.97767],[-75.89782,4.97722],[-75.8977,4.97664],[-75.89748,4.97635],[-75.89605,4.97759],[-75.89473,4.98181],[-75.89433,4.97664],[-75.89452,4.97425],[-75.89413,4.97253],[-75.89346,4.97205],[-75.89279,4.97205],[-75.89165,4.97129],[-75.89136,4.97005],[-75.89021,4.9689],[-75.88992,4.96795],[-75.89155,4.96976],[-75.89241,4.97081],[-75.89432,4.97167],[-75.89327,4.97062],[-75.89241,4.96947],[-75.89234,4.96887],[-75.89187,4.96831],[-75.89171,4.96785],[-75.89171,4.96746],[-75.89194,4.96712],[-75.89261,4.96712],[-75.89287,4.96695],[-75.89281,4.96656],[-75.89278,4.96649],[-75.89274,4.9664],[-75.89222,4.96554],[-75.89215,4.96523],[-75.89246,4.96477],[-75.89265,4.96463],[-75.89206,4.96452],[-75.89176,4.96423],[-75.89198,4.96401],[-75.89187,4.96398],[-75.89156,4.96379],[-75.89154,4.9636],[-75.89161,4.96342],[-75.89181,4.96329],[-75.89247,4.96325],[-75.89199,4.96315],[-75.89211,4.96279],[-75.89224,4.96266],[-75.89187,4.9626],[-75.89172,4.96244],[-75.89185,4.96217],[-75.89216,4.96189],[-75.89226,4.96167],[-75.89225,4.96165],[-75.89211,4.96147],[-75.89085,4.9604],[-75.88954,4.96011],[-75.88889,4.96029],[-75.88865,4.95986],[-75.88833,4.95995],[-75.88783,4.95994],[-75.88756,4.95981],[-75.88746,4.95954],[-75.88742,4.9589],[-75.88735,4.95873],[-75.88715,4.95868],[-75.88519,4.95934],[-75.88501,4.95898],[-75.88477,4.95856],[-75.88459,4.95886],[-75.88286,4.95953],[-75.88245,4.95911],[-75.88203,4.95881],[-75.88101,4.95822],[-75.88099,4.95773],[-75.88042,4.95762],[-75.8801,4.95751],[-75.87998,4.95731],[-75.87994,4.95716],[-75.87999,4.9569],[-75.88088,4.95577],[-75.88087,4.95552],[-75.88087,4.95473],[-75.88061,4.95302],[-75.88041,4.95171],[-75.88034,4.95152],[-75.87962,4.95152],[-75.87867,4.95159],[-75.87807,4.9513],[-75.87789,4.95127],[-75.87712,4.95139],[-75.87596,4.95081],[-75.87538,4.95028],[-75.87495,4.95017],[-75.87449,4.9504],[-75.87408,4.95046],[-75.87336,4.95017],[-75.873,4.94923],[-75.87271,4.94907],[-75.87216,4.94903],[-75.87211,4.94883],[-75.8718,4.94875],[-75.87175,4.94866],[-75.87175,4.94865],[-75.87171,4.94857],[-75.87165,4.94817],[-75.87158,4.94784],[-75.87149,4.94741],[-75.87141,4.94712],[-75.87133,4.94693],[-75.87103,4.94688],[-75.87031,4.94718],[-75.86978,4.94754],[-75.86969,4.9471],[-75.86954,4.94722],[-75.8695,4.94721],[-75.86945,4.94721],[-75.86945,4.94721],[-75.86934,4.94717],[-75.86924,4.94701],[-75.8692,4.94674],[-75.86917,4.94666],[-75.86912,4.9465],[-75.86885,4.94611],[-75.86869,4.94602],[-75.86851,4.94595],[-75.86843,4.94583],[-75.8684,4.94571],[-75.86845,4.94546],[-75.86847,4.9454],[-75.86846,4.9454],[-75.86733,4.94552],[-75.86691,4.94534],[-75.86689,4.94516],[-75.86675,4.94509],[-75.86659,4.94492],[-75.86647,4.94477],[-75.86644,4.9446],[-75.86647,4.94442],[-75.86663,4.94424],[-75.86678,4.94415],[-75.86683,4.94413],[-75.86688,4.94408],[-75.86571,4.94409],[-75.86571,4.94391],[-75.86488,4.94379],[-75.86481,4.94355],[-75.8648,4.94355],[-75.86453,4.94341],[-75.86432,4.94322],[-75.86423,4.94314],[-75.8642,4.94305],[-75.86421,4.94284],[-75.86423,4.94265],[-75.86421,4.94235],[-75.8642,4.9422],[-75.8641,4.94218],[-75.86279,4.94236],[-75.8616,4.94237],[-75.86106,4.94237],[-75.86097,4.94217],[-75.86088,4.94197],[-75.86084,4.94196],[-75.86078,4.94194],[-75.86048,4.94188],[-75.86038,4.94181],[-75.85992,4.9414],[-75.86048,4.94059],[-75.86071,4.94031],[-75.86171,4.94018],[-75.86295,4.93971],[-75.86308,4.93955],[-75.8636,4.93948],[-75.86544,4.93894],[-75.86566,4.93808],[-75.86549,4.93763],[-75.86522,4.93751],[-75.86444,4.93728],[-75.86441,4.93679],[-75.86428,4.93671],[-75.86418,4.93611],[-75.86521,4.93533],[-75.86639,4.93429],[-75.8665,4.93404],[-75.86462,4.93482],[-75.86396,4.93465],[-75.86384,4.93477],[-75.86348,4.93495],[-75.86289,4.93465],[-75.86247,4.93489],[-75.86175,4.93489],[-75.86157,4.93457],[-75.86146,4.9346],[-75.8612,4.93466],[-75.86095,4.93468],[-75.86078,4.93469],[-75.86046,4.93469],[-75.86032,4.93461],[-75.86027,4.93453],[-75.86022,4.93447],[-75.86016,4.93425],[-75.86007,4.9341],[-75.85999,4.93392],[-75.85989,4.93376],[-75.85992,4.93353],[-75.85991,4.93344],[-75.85989,4.93337],[-75.85913,4.93304],[-75.85867,4.93248],[-75.85867,4.93248],[-75.85867,4.93247],[-75.8584,4.93228],[-75.85825,4.93202],[-75.85821,4.93197],[-75.85703,4.9309],[-75.85608,4.93072],[-75.85537,4.93096],[-75.85728,4.93167],[-75.85738,4.93215],[-75.85774,4.93354],[-75.85823,4.93365],[-75.85776,4.93359],[-75.85774,4.93354],[-75.8577,4.93353],[-75.85738,4.93215]],[[-75.87837,4.96844],[-75.881,4.96958],[-75.88193,4.97325],[-75.88183,4.97785],[-75.88046,4.98083],[-75.87818,4.98268],[-75.87417,4.98292],[-75.86936,4.98098],[-75.86535,4.97846],[-75.86282,4.97686],[-75.85916,4.97745],[-75.8563,4.97803],[-75.85344,4.97723],[-75.85171,4.97402],[-75.85084,4.97393],[-75.85094,4.97099],[-75.85166,4.96886],[-75.8533,4.96897],[-75.85777,4.9685],[-75.86121,4.97067],[-75.86361,4.97135],[-75.86682,4.97123],[-75.87082,4.96984],[-75.87448,4.96868],[-75.87837,4.96844]],[[-75.86298,4.98772],[-75.86613,4.98771],[-75.86882,4.98834],[-75.87037,4.98908],[-75.87192,4.99143],[-75.87107,4.99464],[-75.86999,4.99689],[-75.86833,4.99861],[-75.86736,4.99976],[-75.86593,4.99977],[-75.86381,4.99857],[-75.86243,4.99708],[-75.86066,4.99513],[-75.85928,4.9933],[-75.85836,4.99106],[-75.85829,4.98992],[-75.85824,4.9899],[-75.85746,4.98774],[-75.8576,4.98779],[-75.86298,4.98772]],[[-75.87443,4.99942],[-75.87221,4.99805],[-75.87215,4.99562],[-75.87281,4.99356],[-75.87371,4.99217],[-75.87572,4.99231],[-75.87687,4.9935],[-75.87868,4.99493],[-75.88051,4.99625],[-75.87991,4.99865],[-75.87824,4.99995],[-75.87657,5.00003],[-75.87443,4.99942]],[[-75.86142,5.01361],[-75.85837,5.01161],[-75.85732,5.00887],[-75.85841,5.00662],[-75.85845,5.00663],[-75.86083,5.00663],[-75.86417,5.00671],[-75.86561,5.00795],[-75.8659,5.01044],[-75.86534,5.01389],[-75.86362,5.01437],[-75.86142,5.01361]],[[-75.85906,5.05914],[-75.85988,5.05555],[-75.85987,5.05232],[-75.85843,5.04945],[-75.8577,5.04479],[-75.86247,5.04275],[-75.87128,5.03926],[-75.87367,5.03901],[-75.87737,5.04163],[-75.87854,5.04489],[-75.87647,5.04905],[-75.87644,5.04905],[-75.87037,5.05504],[-75.86728,5.05888],[-75.86323,5.06008],[-75.85906,5.05914]]]},"properties":{"OBJECTID_1":1,"OBJECTID":1,"FID_Acuife":0,"Shape_Leng":91698.7289572,"CLAS_VULNE":"Vulnerabilidad media","Shape_Length":110407.96113581222,"Shape_Area":84867148.4764365}},{"type":"Feature","id":2,"geometry":{"type":"Polygon","coordinates":[[[-75.89476,5.08467],[-75.89268,5.08694],[-75.88342,5.10135],[-75.87969,5.10633],[-75.87716,5.11155],[-75.87658,5.11749],[-75.87792,5.12331],[-75.8795,5.12706],[-75.88141,5.1312],[-75.88147,5.13117],[-75.8816,5.13094],[-75.88179,5.13068],[-75.88179,5.13045],[-75.88173,5.12992],[-75.88201,5.13001],[-75.88241,5.13014],[-75.88295,5.13039],[-75.88332,5.13055],[-75.88336,5.13056],[-75.88334,5.12953],[-75.88296,5.12933],[-75.88334,5.12952],[-75.88334,5.12953],[-75.8835,5.12961],[-75.88472,5.12982],[-75.88622,5.12963],[-75.88345,5.12416],[-75.8835,5.11997],[-75.88412,5.1179],[-75.88526,5.11595],[-75.88577,5.11365],[-75.88513,5.10981],[-75.88534,5.1043],[-75.88945,5.09975],[-75.89018,5.09625],[-75.89362,5.09532],[-75.8943,5.09452],[-75.8943,5.09371],[-75.89478,5.09334],[-75.89476,5.09331],[-75.8943,5.0936],[-75.89321,5.09326],[-75.89315,5.09285],[-75.89218,5.0928],[-75.89195,5.09223],[-75.89235,5.09194],[-75.89298,5.09199],[-75.89355,5.09211],[-75.89372,5.09165],[-75.894,5.09073],[-75.89417,5.08723],[-75.89434,5.08625],[-75.89476,5.08467]]]},"properties":{"OBJECTID_1":2,"OBJECTID":1,"FID_Acuife":0,"Shape_Leng":91698.7289572,"CLAS_VULNE":"Vulnerabilidad media","Shape_Length":12847.429408732001,"Shape_Area":2980753.2493665377}},{"type":"Feature","id":3,"geometry":{"type":"Polygon","coordinates":[[[-75.85842,5.11485],[-75.85852,5.11492],[-75.85895,5.11599],[-75.85896,5.11685],[-75.85907,5.11739],[-75.85915,5.11747],[-75.85924,5.11755],[-75.85925,5.11755],[-75.85932,5.11763],[-75.85939,5.11766],[-75.85963,5.11788],[-75.85963,5.1179],[-75.85976,5.11799],[-75.85986,5.11807],[-75.85986,5.11807],[-75.85996,5.11823],[-75.86007,5.11832],[-75.8605,5.11882],[-75.86065,5.11954],[-75.86061,5.12004],[-75.86079,5.1214],[-75.86101,5.12234],[-75.86098,5.12309],[-75.86134,5.1233],[-75.86144,5.12373],[-75.86116,5.12395],[-75.8612,5.12402],[-75.86163,5.12424],[-75.86164,5.12443],[-75.86175,5.12442],[-75.862,5.12469],[-75.8625,5.12479],[-75.86278,5.1253],[-75.86334,5.12567],[-75.86366,5.12586],[-75.86374,5.1267],[-75.86411,5.12714],[-75.86422,5.12748],[-75.86428,5.12758],[-75.86432,5.12777],[-75.86438,5.12897],[-75.86465,5.12964],[-75.86503,5.13054],[-75.86511,5.13069],[-75.86548,5.13097],[-75.8657,5.13111],[-75.86603,5.13141],[-75.86635,5.13178],[-75.86666,5.13216],[-75.86779,5.13253],[-75.86819,5.13271],[-75.86841,5.1328],[-75.86878,5.133],[-75.86919,5.13323],[-75.86975,5.13344],[-75.87001,5.13358],[-75.8702,5.13382],[-75.87031,5.13386],[-75.87059,5.13383],[-75.87103,5.13376],[-75.87121,5.13377],[-75.87191,5.13404],[-75.87191,5.13404],[-75.87242,5.13411],[-75.87322,5.13423],[-75.87376,5.13432],[-75.87405,5.13466],[-75.87426,5.13541],[-75.87455,5.13575],[-75.87489,5.13562],[-75.87559,5.13392],[-75.87666,5.13344],[-75.87712,5.13296],[-75.87781,5.13252],[-75.87808,5.13221],[-75.87848,5.13185],[-75.8794,5.13154],[-75.88012,5.13152],[-75.88105,5.13135],[-75.88141,5.1312],[-75.8795,5.12706],[-75.87792,5.12331],[-75.87658,5.11749],[-75.87716,5.11155],[-75.87969,5.10633],[-75.88342,5.10135],[-75.89268,5.08694],[-75.89476,5.08467],[-75.89518,5.08309],[-75.89529,5.08223],[-75.89395,5.08009],[-75.89227,5.07737],[-75.8894,5.07523],[-75.88754,5.07404],[-75.88439,5.07295],[-75.88053,5.073],[-75.87604,5.07302],[-75.87137,5.07456],[-75.86761,5.07572],[-75.86375,5.07712],[-75.86127,5.07889],[-75.86047,5.08119],[-75.85981,5.08339],[-75.85978,5.09954],[-75.8601,5.10375],[-75.86011,5.10681],[-75.86027,5.11048],[-75.85943,5.11247],[-75.85842,5.11485]]]},"properties":{"OBJECTID_1":3,"OBJECTID":1,"FID_Acuife":0,"Shape_Leng":91698.7289572,"CLAS_VULNE":"Vulnerabilidad Alta","Shape_Length":18842.90316673982,"Shape_Area":16874773.798093714}},{"type":"Feature","id":4,"geometry":{"type":"Polygon","coordinates":[[[-75.89399,5.02751],[-75.89484,5.02798],[-75.89492,5.02795],[-75.89501,5.02786],[-75.89522,5.02728],[-75.89552,5.027],[-75.89584,5.02694],[-75.89653,5.02719],[-75.89654,5.02682],[-75.89648,5.02653],[-75.89603,5.02631],[-75.8959,5.02591],[-75.89594,5.02496],[-75.89564,5.02496],[-75.89547,5.0246],[-75.89526,5.02462],[-75.89498,5.02503],[-75.89476,5.02514],[-75.89464,5.02507],[-75.89444,5.02484],[-75.89435,5.02398],[-75.89427,5.02376],[-75.89418,5.0237],[-75.89377,5.02385],[-75.89311,5.02372],[-75.89287,5.02353],[-75.89283,5.02338],[-75.89313,5.02325],[-75.89332,5.02293],[-75.89339,5.02237],[-75.89413,5.02153],[-75.89426,5.02127],[-75.89443,5.02123],[-75.89445,5.02107],[-75.89402,5.0208],[-75.89334,5.02058],[-75.89329,5.02041],[-75.89334,5.02022],[-75.89346,5.0199],[-75.8934,5.01979],[-75.89318,5.01979],[-75.89316,5.01949],[-75.89284,5.0191],[-75.89292,5.01855],[-75.89312,5.01796],[-75.89311,5.01773],[-75.89297,5.01771],[-75.89277,5.01775],[-75.89264,5.01773],[-75.89264,5.01743],[-75.89311,5.01657],[-75.89365,5.01616],[-75.8938,5.01592],[-75.89382,5.01551],[-75.89377,5.01534],[-75.89362,5.0151],[-75.89321,5.01476],[-75.89266,5.01444],[-75.89268,5.01416],[-75.89289,5.01399],[-75.8934,5.01394],[-75.89364,5.01373],[-75.89366,5.01351],[-75.89308,5.01324],[-75.89269,5.01309],[-75.89246,5.01294],[-75.89239,5.01272],[-75.89246,5.01251],[-75.89289,5.0121],[-75.89293,5.01184],[-75.89267,5.01175],[-75.89211,5.01143],[-75.89192,5.01126],[-75.89183,5.01103],[-75.89185,5.0106],[-75.89202,5.01001],[-75.89243,5.00924],[-75.89258,5.00905],[-75.89277,5.00892],[-75.89298,5.00894],[-75.89365,5.00874],[-75.89367,5.00861],[-75.89285,5.00819],[-75.89266,5.00797],[-75.89272,5.0075],[-75.89317,5.0067],[-75.89332,5.00671],[-75.89344,5.0067],[-75.89263,5.00558],[-75.89023,5.00497],[-75.88741,5.00509],[-75.88512,5.00586],[-75.88398,5.00713],[-75.88253,5.00851],[-75.88021,5.01032],[-75.87769,5.01128],[-75.87526,5.01316],[-75.87542,5.0158],[-75.87683,5.01798],[-75.8789,5.01969],[-75.88173,5.02118],[-75.88577,5.02258],[-75.88894,5.02357],[-75.89208,5.02563],[-75.89372,5.02735],[-75.89381,5.02735],[-75.89399,5.02751]]]},"properties":{"OBJECTID_1":4,"OBJECTID":1,"FID_Acuife":0,"Shape_Leng":91698.7289572,"CLAS_VULNE":"Vulnerabilidad baja","Shape_Length":9047.072288787575,"Shape_Area":3147936.349945956}},{"type":"Feature","id":5,"geometry":{"type":"Polygon","coordinates":[[[-75.85084,4.97393],[-75.85171,4.97402],[-75.85344,4.97723],[-75.8563,4.97803],[-75.85916,4.97745],[-75.86282,4.97686],[-75.86535,4.97846],[-75.86936,4.98098],[-75.87417,4.98292],[-75.87818,4.98268],[-75.88046,4.98083],[-75.88183,4.97785],[-75.88193,4.97325],[-75.881,4.96958],[-75.87837,4.96844],[-75.87448,4.96868],[-75.87082,4.96984],[-75.86682,4.97123],[-75.86361,4.97135],[-75.86121,4.97067],[-75.85777,4.9685],[-75.8533,4.96897],[-75.85166,4.96886],[-75.85094,4.97099],[-75.85084,4.97393]]]},"properties":{"OBJECTID_1":5,"OBJECTID":1,"FID_Acuife":0,"Shape_Leng":91698.7289572,"CLAS_VULNE":"Vulnerabilidad baja","Shape_Length":9043.83018675404,"Shape_Area":3685179.5640506097}},{"type":"Feature","id":6,"geometry":{"type":"Polygon","coordinates":[[[-75.85824,4.9899],[-75.85829,4.98992],[-75.85836,4.99106],[-75.85928,4.9933],[-75.86066,4.99513],[-75.86243,4.99708],[-75.86381,4.99857],[-75.86593,4.99977],[-75.86736,4.99976],[-75.86833,4.99861],[-75.86999,4.99689],[-75.87107,4.99464],[-75.87192,4.99143],[-75.87037,4.98908],[-75.86882,4.98834],[-75.86613,4.98771],[-75.86298,4.98772],[-75.8576,4.98779],[-75.85746,4.98774],[-75.85824,4.9899]]]},"properties":{"OBJECTID_1":6,"OBJECTID":1,"FID_Acuife":0,"Shape_Leng":91698.7289572,"CLAS_VULNE":"Vulnerabilidad Alta","Shape_Length":4701.792237970703,"Shape_Area":1461044.33403998}},{"type":"Feature","id":7,"geometry":{"type":"Polygon","coordinates":[[[-75.88051,4.99625],[-75.87868,4.99493],[-75.87687,4.9935],[-75.87572,4.99231],[-75.87371,4.99217],[-75.87281,4.99356],[-75.87215,4.99562],[-75.87221,4.99805],[-75.87443,4.99942],[-75.87657,5.00003],[-75.87824,4.99995],[-75.87991,4.99865],[-75.88051,4.99625]]]},"properties":{"OBJECTID_1":7,"OBJECTID":1,"FID_Acuife":0,"Shape_Leng":91698.7289572,"CLAS_VULNE":"Vulnerabilidad baja","Shape_Length":2832.812803710655,"Shape_Area":564033.9394533797}},{"type":"Feature","id":8,"geometry":{"type":"Polygon","coordinates":[[[-75.85732,5.00887],[-75.85837,5.01161],[-75.86142,5.01361],[-75.86362,5.01437],[-75.86534,5.01389],[-75.8659,5.01044],[-75.86561,5.00795],[-75.86417,5.00671],[-75.86083,5.00663],[-75.85845,5.00663],[-75.85841,5.00662],[-75.85732,5.00887]]]},"properties":{"OBJECTID_1":8,"OBJECTID":1,"FID_Acuife":0,"Shape_Leng":91698.7289572,"CLAS_VULNE":"Vulnerabilidad Alta","Shape_Length":2974.693362950641,"Shape_Area":626909.9150466617}},{"type":"Feature","id":9,"geometry":{"type":"MultiPolygon","coordinates":[[[[-75.89443,5.02787],[-75.89475,5.02802],[-75.89484,5.02798],[-75.89399,5.02751],[-75.89443,5.02787]]],[[[-75.89478,5.09334],[-75.89499,5.09365],[-75.89481,5.09331],[-75.89478,5.09334]]],[[[-75.83037,5.14688],[-75.83061,5.14729],[-75.83064,5.14801],[-75.83049,5.14861],[-75.82996,5.14885],[-75.82936,5.14888],[-75.82865,5.14891],[-75.82838,5.14915],[-75.8282,5.14975],[-75.8282,5.15014],[-75.82871,5.15077],[-75.82928,5.15142],[-75.83,5.15208],[-75.83014,5.15238],[-75.83016,5.15236],[-75.83102,5.15195],[-75.83229,5.15135],[-75.83312,5.151],[-75.83375,5.15049],[-75.83393,5.14996],[-75.83393,5.14934],[-75.83352,5.14844],[-75.83285,5.14795],[-75.83205,5.14714],[-75.83113,5.14646],[-75.83078,5.146],[-75.8309,5.14535],[-75.83157,5.14484],[-75.83229,5.1445],[-75.83276,5.14401],[-75.83293,5.14339],[-75.83289,5.14235],[-75.83257,5.14098],[-75.83254,5.1405],[-75.83275,5.13962],[-75.83299,5.13902],[-75.83299,5.13835],[-75.83285,5.138],[-75.83276,5.13758],[-75.83271,5.13716],[-75.83267,5.1367],[-75.83287,5.13629],[-75.83318,5.13615],[-75.83399,5.13576],[-75.83435,5.13557],[-75.83479,5.13393],[-75.83483,5.13344],[-75.83479,5.13327],[-75.83476,5.13314],[-75.83435,5.13279],[-75.83409,5.13222],[-75.83435,5.13115],[-75.83472,5.13073],[-75.83502,5.13039],[-75.83517,5.13024],[-75.83535,5.12716],[-75.8353,5.12445],[-75.8347,5.12211],[-75.8343,5.11901],[-75.83412,5.11557],[-75.83493,5.11282],[-75.83675,5.10822],[-75.83514,5.10532],[-75.83047,5.10063],[-75.83092,5.0955],[-75.83152,5.09335],[-75.8309,5.09083],[-75.82891,5.08846],[-75.82898,5.0841],[-75.82873,5.07813],[-75.82613,5.07447],[-75.82658,5.07263],[-75.82872,5.07186],[-75.83275,5.06902],[-75.83771,5.06609],[-75.84145,5.0657],[-75.84159,5.06325],[-75.84036,5.06019],[-75.83677,5.05737],[-75.83546,5.05454],[-75.834,5.0495],[-75.83575,5.04635],[-75.8391,5.04436],[-75.84451,5.04327],[-75.85161,5.04226],[-75.85321,5.04072],[-75.8558,5.03987],[-75.86068,5.03714],[-75.86166,5.03438],[-75.86028,5.03163],[-75.85806,5.02996],[-75.85409,5.02905],[-75.84706,5.02669],[-75.84301,5.02517],[-75.84003,5.02205],[-75.83895,5.01845],[-75.83849,5.01509],[-75.84138,5.0114],[-75.84472,5.00803],[-75.84876,5.00534],[-75.84982,5.00281],[-75.84966,4.9996],[-75.84866,4.99638],[-75.84507,4.99433],[-75.83759,4.99435],[-75.83149,4.99635],[-75.8281,4.99663],[-75.82568,5.0001],[-75.82558,5.00524],[-75.82607,5.01122],[-75.82417,5.01553],[-75.82514,5.02114],[-75.8298,5.02269],[-75.82872,5.02305],[-75.82753,5.02413],[-75.82742,5.02556],[-75.82766,5.0264],[-75.8273,5.02688],[-75.82647,5.02903],[-75.82707,5.03011],[-75.82877,5.03],[-75.82898,5.02998],[-75.83112,5.02866],[-75.83422,5.02805],[-75.83518,5.02853],[-75.83191,5.03661],[-75.8315,5.03847],[-75.83151,5.04151],[-75.83158,5.04582],[-75.83111,5.05036],[-75.82957,5.05372],[-75.82924,5.06173],[-75.82799,5.06365],[-75.82657,5.0652],[-75.82591,5.06503],[-75.8249,5.06658],[-75.82467,5.06772],[-75.82401,5.06868],[-75.82287,5.07074],[-75.81997,5.06931],[-75.8189,5.06939],[-75.81833,5.06975],[-75.81847,5.07086],[-75.81937,5.07222],[-75.82066,5.0729],[-75.82113,5.07333],[-75.8217,5.07379],[-75.82181,5.07411],[-75.82153,5.0767],[-75.82104,5.08046],[-75.82042,5.09033],[-75.81996,5.09062],[-75.81924,5.09109],[-75.81846,5.09148],[-75.81735,5.09231],[-75.81617,5.09346],[-75.8156,5.09433],[-75.81428,5.09458],[-75.81407,5.09623],[-75.81447,5.09792],[-75.81486,5.0987],[-75.81512,5.09931],[-75.81544,5.1006],[-75.81548,5.10172],[-75.81373,5.10373],[-75.81402,5.10398],[-75.81323,5.1042],[-75.81223,5.10431],[-75.81151,5.10402],[-75.81094,5.10627],[-75.80996,5.11013],[-75.80938,5.11034],[-75.80799,5.11088],[-75.80624,5.11125],[-75.8056,5.11182],[-75.80506,5.11294],[-75.80499,5.11362],[-75.805,5.11552],[-75.80572,5.11681],[-75.80575,5.1172],[-75.8059,5.11781],[-75.80594,5.11875],[-75.80565,5.11979],[-75.80526,5.12104],[-75.8053,5.1223],[-75.80616,5.12251],[-75.80716,5.12258],[-75.80721,5.12254],[-75.80802,5.12172],[-75.80852,5.12175],[-75.80949,5.12186],[-75.8102,5.12221],[-75.81076,5.12305],[-75.81112,5.12387],[-75.81166,5.12505],[-75.81166,5.12534],[-75.81174,5.1267],[-75.81167,5.12828],[-75.81091,5.13025],[-75.81095,5.13097],[-75.81128,5.13168],[-75.81131,5.13267],[-75.81116,5.13342],[-75.81105,5.13467],[-75.81105,5.13596],[-75.81102,5.13775],[-75.81085,5.13928],[-75.81288,5.13885],[-75.81562,5.1395],[-75.81649,5.13977],[-75.81819,5.1398],[-75.81941,5.13955],[-75.82138,5.13955],[-75.82266,5.13999],[-75.82329,5.14119],[-75.82291,5.14367],[-75.82237,5.14361],[-75.82156,5.14355],[-75.8207,5.1435],[-75.81996,5.14371],[-75.81975,5.1444],[-75.81987,5.1449],[-75.82056,5.14553],[-75.8205,5.14598],[-75.82038,5.14628],[-75.81978,5.1464],[-75.81937,5.14616],[-75.81927,5.14568],[-75.81898,5.14535],[-75.81856,5.14509],[-75.81805,5.14509],[-75.81766,5.14524],[-75.81766,5.14575],[-75.81728,5.14634],[-75.81719,5.14658],[-75.81731,5.14703],[-75.8174,5.14748],[-75.81776,5.14784],[-75.81809,5.14802],[-75.81833,5.14817],[-75.81889,5.14828],[-75.81967,5.1484],[-75.82027,5.14843],[-75.82122,5.14834],[-75.82253,5.14789],[-75.8236,5.14764],[-75.82456,5.14743],[-75.82518,5.14743],[-75.82673,5.14746],[-75.8279,5.14751],[-75.82849,5.14739],[-75.82894,5.14703],[-75.82986,5.14676],[-75.83037,5.14688]]]]},"properties":{"OBJECTID_1":9,"OBJECTID":1,"FID_Acuife":0,"Shape_Leng":91698.7289572,"CLAS_VULNE":"Vulnerabilidad Alta","Shape_Length":52886.074589898926,"Shape_Area":31780322.531736586}},{"type":"Feature","id":10,"geometry":{"type":"Polygon","coordinates":[[[-75.87854,5.04489],[-75.87737,5.04163],[-75.87367,5.03901],[-75.87128,5.03926],[-75.86247,5.04275],[-75.8577,5.04479],[-75.85843,5.04945],[-75.85987,5.05232],[-75.85988,5.05555],[-75.85906,5.05914],[-75.86323,5.06008],[-75.86728,5.05888],[-75.87037,5.05504],[-75.87644,5.04905],[-75.87647,5.04905],[-75.87854,5.04489]]]},"properties":{"OBJECTID_1":10,"OBJECTID":1,"FID_Acuife":0,"Shape_Leng":91698.7289572,"CLAS_VULNE":"Vulnerabilidad Alta","Shape_Length":7371.848326146164,"Shape_Area":3411407.772190221}}]}