{"type":"FeatureCollection","name":"Distrito_Manejo_Integrado","crs":{"type":"name","properties":{"name":"urn:ogc:def:crs:OGC:1.3:CRS84"}},"features":[{"type":"Feature","id":0,"geometry":{"type":"Polygon","coordinates":[[[-74.73186,5.30104],[-74.73128,5.30213],[-74.73106,5.30238],[-74.73044,5.30339],[-74.72997,5.30402],[-74.72951,5.30496],[-74.72913,5.30556],[-74.72809,5.30628],[-74.72787,5.30654],[-74.72746,5.30692],[-74.72721,5.3073],[-74.72669,5.30783],[-74.72619,5.30822],[-74.72514,5.30888],[-74.72459,5.30916],[-74.72295,5.31029],[-74.72269,5.3105],[-74.72233,5.3107],[-74.72196,5.31095],[-74.72143,5.31149],[-74.72085,5.31201],[-74.71893,5.31304],[-74.7181,5.31337],[-74.71759,5.31363],[-74.71728,5.31384],[-74.71666,5.31443],[-74.71613,5.31509],[-74.7159,5.31546],[-74.71561,5.31586],[-74.71552,5.31603],[-74.71513,5.3169],[-74.71499,5.31715],[-74.71458,5.31829],[-74.71447,5.31871],[-74.71428,5.31976],[-74.71429,5.32045],[-74.7142,5.32104],[-74.71407,5.32256],[-74.71401,5.32277],[-74.71362,5.32356],[-74.71336,5.32422],[-74.71327,5.32467],[-74.71305,5.32522],[-74.71293,5.32554],[-74.71293,5.32569],[-74.71272,5.32651],[-74.71263,5.32755],[-74.7126,5.32798],[-74.71255,5.3288],[-74.7126,5.32922],[-74.71267,5.32961],[-74.71282,5.33011],[-74.71291,5.33061],[-74.71284,5.33116],[-74.71272,5.33169],[-74.71256,5.33221],[-74.71244,5.33298],[-74.71227,5.33383],[-74.71223,5.33452],[-74.71219,5.33481],[-74.71225,5.33521],[-74.7122,5.33565],[-74.71216,5.33615],[-74.71223,5.33651],[-74.71218,5.33696],[-74.71182,5.33773],[-74.71189,5.3379],[-74.71207,5.33808],[-74.71235,5.33824],[-74.71262,5.33844],[-74.71295,5.3388],[-74.71347,5.33937],[-74.71364,5.33951],[-74.71398,5.33968],[-74.71418,5.33975],[-74.7144,5.33976],[-74.71453,5.33973],[-74.71472,5.33964],[-74.71552,5.33907],[-74.7157,5.33897],[-74.71592,5.33895],[-74.71645,5.33897],[-74.71674,5.339],[-74.71698,5.33906],[-74.71734,5.33923],[-74.71803,5.33942],[-74.71911,5.33984],[-74.71938,5.33997],[-74.71973,5.3402],[-74.71994,5.34039],[-74.72021,5.34072],[-74.72061,5.3415],[-74.72071,5.34181],[-74.72086,5.34201],[-74.72099,5.34214],[-74.72113,5.34223],[-74.72134,5.34234],[-74.72155,5.3424],[-74.72229,5.34247],[-74.72282,5.34248],[-74.72302,5.34253],[-74.72311,5.34259],[-74.72356,5.34324],[-74.72409,5.3439],[-74.72417,5.34398],[-74.72474,5.34477],[-74.72499,5.34509],[-74.72559,5.34566],[-74.72661,5.34631],[-74.72682,5.34641],[-74.72747,5.34655],[-74.7278,5.34658],[-74.72814,5.34659],[-74.72845,5.34657],[-74.72912,5.34644],[-74.72974,5.34637],[-74.73014,5.34631],[-74.73058,5.34618],[-74.73231,5.34556],[-74.73261,5.34548],[-74.73289,5.34546],[-74.73345,5.34555],[-74.73401,5.34568],[-74.7359,5.34626],[-74.7365,5.34637],[-74.73699,5.3464],[-74.73724,5.34639],[-74.73749,5.34634],[-74.73766,5.34629],[-74.73789,5.34615],[-74.73827,5.34581],[-74.73853,5.34549],[-74.73892,5.34486],[-74.73903,5.34471],[-74.73965,5.34338],[-74.74018,5.34194],[-74.74035,5.34129],[-74.74046,5.34068],[-74.74049,5.34035],[-74.74079,5.33912],[-74.74093,5.3381],[-74.74098,5.33745],[-74.74107,5.33681],[-74.74131,5.33542],[-74.74138,5.3348],[-74.74168,5.33359],[-74.74189,5.33265],[-74.74197,5.33186],[-74.74199,5.33056],[-74.74174,5.32807],[-74.74174,5.32779],[-74.74176,5.32746],[-74.74209,5.32628],[-74.74242,5.32453],[-74.74248,5.32393],[-74.74256,5.32281],[-74.74261,5.3225],[-74.74266,5.32186],[-74.74253,5.32047],[-74.74272,5.31943],[-74.74304,5.31904],[-74.74412,5.31835],[-74.74493,5.318],[-74.74534,5.31775],[-74.7457,5.31758],[-74.74636,5.31716],[-74.74704,5.31691],[-74.74785,5.31667],[-74.74819,5.31659],[-74.74881,5.31658],[-74.74929,5.31661],[-74.74975,5.31673],[-74.74998,5.31681],[-74.75018,5.31691],[-74.75103,5.31747],[-74.75124,5.31757],[-74.75163,5.31769],[-74.7519,5.31768],[-74.75278,5.31744],[-74.75305,5.31733],[-74.75345,5.31712],[-74.75399,5.31703],[-74.75478,5.3172],[-74.75542,5.31726],[-74.75605,5.31714],[-74.75635,5.31706],[-74.75674,5.31683],[-74.7571,5.31666],[-74.75781,5.31642],[-74.75832,5.31615],[-74.7588,5.31595],[-74.75921,5.31587],[-74.75992,5.31564],[-74.76025,5.31552],[-74.7607,5.31543],[-74.7615,5.31519],[-74.76193,5.31502],[-74.76246,5.31485],[-74.76327,5.31476],[-74.76457,5.31444],[-74.765,5.31438],[-74.76502,5.3144],[-74.76563,5.3143],[-74.76628,5.31433],[-74.76659,5.31433],[-74.76709,5.31412],[-74.76742,5.31388],[-74.76753,5.31373],[-74.76756,5.31366],[-74.76756,5.31341],[-74.7676,5.31323],[-74.76771,5.31299],[-74.76773,5.31282],[-74.7676,5.31263],[-74.76747,5.31254],[-74.76719,5.31246],[-74.76645,5.31241],[-74.76622,5.31243],[-74.7661,5.31239],[-74.76581,5.31217],[-74.76568,5.31205],[-74.76562,5.3119],[-74.7656,5.31177],[-74.76552,5.31169],[-74.76521,5.31154],[-74.76514,5.31147],[-74.76502,5.31124],[-74.76485,5.31102],[-74.76441,5.31055],[-74.76401,5.3103],[-74.76385,5.31025],[-74.76357,5.31025],[-74.76348,5.3102],[-74.76341,5.31011],[-74.76343,5.30979],[-74.7635,5.30958],[-74.76353,5.30903],[-74.76351,5.30883],[-74.76336,5.3086],[-74.76294,5.30825],[-74.76268,5.30812],[-74.76206,5.30763],[-74.76162,5.30737],[-74.76068,5.30687],[-74.76032,5.30663],[-74.76,5.3065],[-74.75965,5.30629],[-74.75946,5.30611],[-74.75901,5.30554],[-74.75879,5.30536],[-74.75857,5.30528],[-74.75845,5.30527],[-74.75786,5.30553],[-74.75739,5.3056],[-74.7572,5.30555],[-74.75695,5.30544],[-74.75685,5.30536],[-74.75665,5.30513],[-74.75651,5.30489],[-74.75631,5.30457],[-74.75605,5.30437],[-74.75581,5.30427],[-74.75533,5.30414],[-74.75513,5.30402],[-74.75484,5.30376],[-74.75447,5.3036],[-74.75358,5.30352],[-74.7533,5.30336],[-74.7527,5.30316],[-74.75247,5.30316],[-74.75202,5.30322],[-74.75154,5.30338],[-74.75076,5.3038],[-74.75022,5.30403],[-74.74931,5.30452],[-74.74906,5.3046],[-74.74879,5.30463],[-74.74794,5.30453],[-74.74747,5.30434],[-74.7472,5.30415],[-74.74686,5.30387],[-74.74654,5.30353],[-74.74614,5.30306],[-74.74543,5.30241],[-74.74523,5.30231],[-74.74504,5.30225],[-74.74463,5.30228],[-74.74431,5.30241],[-74.74404,5.3026],[-74.74345,5.30313],[-74.74276,5.30369],[-74.7424,5.30394],[-74.74205,5.30414],[-74.74168,5.30431],[-74.74142,5.3044],[-74.74122,5.3044],[-74.74077,5.30433],[-74.74057,5.30424],[-74.74019,5.30405],[-74.73978,5.30391],[-74.73908,5.30378],[-74.73888,5.30378],[-74.73789,5.30388],[-74.73723,5.30399],[-74.73679,5.304],[-74.73582,5.30392],[-74.73553,5.30383],[-74.73511,5.30358],[-74.73438,5.30308],[-74.73345,5.30233],[-74.73297,5.30184],[-74.73235,5.30132],[-74.73215,5.30121],[-74.73192,5.30114],[-74.73186,5.30104]],[[-74.71785,5.33255],[-74.71828,5.33255],[-74.71846,5.33255],[-74.71898,5.3326],[-74.71964,5.33262],[-74.72019,5.33271],[-74.72063,5.33283],[-74.7221,5.3328],[-74.7223,5.33284],[-74.72273,5.33274],[-74.72314,5.33261],[-74.72337,5.33258],[-74.72389,5.3326],[-74.72438,5.33269],[-74.72495,5.33279],[-74.72565,5.33272],[-74.72584,5.33273],[-74.72621,5.33277],[-74.72694,5.33294],[-74.72734,5.33309],[-74.72777,5.33315],[-74.72823,5.33315],[-74.72849,5.33318],[-74.72908,5.33354],[-74.72951,5.33363],[-74.72963,5.33369],[-74.73011,5.33391],[-74.73064,5.33425],[-74.73071,5.3343],[-74.73109,5.33449],[-74.73116,5.33452],[-74.73146,5.33464],[-74.73179,5.33483],[-74.73196,5.33496],[-74.73216,5.33515],[-74.73234,5.33522],[-74.7328,5.33561],[-74.733,5.33586],[-74.73311,5.33601],[-74.73344,5.33629],[-74.73384,5.33678],[-74.73399,5.33701],[-74.73415,5.33745],[-74.73445,5.33806],[-74.73456,5.33835],[-74.7346,5.33859],[-74.73466,5.33872],[-74.73482,5.33906],[-74.73481,5.33921],[-74.73481,5.33943],[-74.73479,5.34006],[-74.73475,5.34047],[-74.73481,5.34129],[-74.73488,5.34165],[-74.73494,5.34233],[-74.73491,5.34272],[-74.73485,5.34299],[-74.73469,5.34328],[-74.73462,5.34337],[-74.73437,5.3435],[-74.73379,5.34373],[-74.73354,5.34386],[-74.7334,5.34395],[-74.73308,5.34408],[-74.73194,5.34433],[-74.73179,5.34439],[-74.73167,5.34447],[-74.73062,5.3448],[-74.73058,5.34479],[-74.73053,5.34474],[-74.73051,5.34456],[-74.73052,5.34435],[-74.73058,5.34412],[-74.73067,5.344],[-74.73096,5.34371],[-74.73144,5.3433],[-74.7319,5.34295],[-74.73199,5.34285],[-74.73216,5.34254],[-74.7324,5.34212],[-74.73258,5.3417],[-74.73277,5.34138],[-74.73288,5.3412],[-74.73296,5.34098],[-74.73296,5.34044],[-74.73293,5.33976],[-74.73281,5.33904],[-74.73273,5.33875],[-74.73263,5.33853],[-74.7323,5.33802],[-74.7319,5.33752],[-74.7316,5.3372],[-74.73142,5.33707],[-74.73112,5.3368],[-74.73079,5.33655],[-74.73043,5.33638],[-74.73014,5.33617],[-74.72945,5.33582],[-74.7292,5.33577],[-74.72871,5.33556],[-74.7276,5.3353],[-74.72717,5.33525],[-74.72653,5.33512],[-74.72601,5.33511],[-74.72484,5.33502],[-74.72385,5.33491],[-74.72354,5.3349],[-74.72343,5.3349],[-74.72323,5.33487],[-74.72218,5.33495],[-74.72168,5.33488],[-74.72132,5.33491],[-74.72079,5.33489],[-74.72018,5.33492],[-74.71938,5.33489],[-74.71876,5.33492],[-74.71826,5.33491],[-74.71765,5.33486],[-74.71716,5.33471],[-74.71674,5.33445],[-74.7166,5.3343],[-74.71649,5.33402],[-74.71648,5.33388],[-74.71648,5.33375],[-74.71653,5.33358],[-74.71654,5.33356],[-74.71682,5.33319],[-74.71707,5.33297],[-74.71743,5.33269],[-74.71785,5.33255]],[[-74.71702,5.33753],[-74.71753,5.33759],[-74.71847,5.33781],[-74.7192,5.33784],[-74.72012,5.33782],[-74.72074,5.33793],[-74.72077,5.33794],[-74.72163,5.33817],[-74.72282,5.33861],[-74.72388,5.33923],[-74.72392,5.33923],[-74.72437,5.33933],[-74.72464,5.33955],[-74.72504,5.33971],[-74.72539,5.34009],[-74.72538,5.34033],[-74.72499,5.34056],[-74.72413,5.34081],[-74.72333,5.34074],[-74.7226,5.34057],[-74.72256,5.34056],[-74.72158,5.34016],[-74.72041,5.33968],[-74.71977,5.33941],[-74.71944,5.33924],[-74.71845,5.33889],[-74.71779,5.33854],[-74.71722,5.33819],[-74.71694,5.33797],[-74.71687,5.33777],[-74.71702,5.33753]]]},"properties":{"FID":0,"OBJECTID":1,"ID_ANP":1,"CODDEP":"17","CODANP":1,"NOMBRE":"Distrito de Manejo Integrado Madrevieja - Guarinocito","CATEGORIA":"Distrito de Manejo Integrado","ACTO_ADMON":" ","AREA_DECLA":0,"AREA":15092548.8008,"PERIMETER":27567.8999525,"Shape_Leng":27567.8999525,"Shape_Area":15092548.8008}},{"type":"Feature","id":1,"geometry":{"type":"Polygon","coordinates":[[[-74.71785,5.33255],[-74.71743,5.33269],[-74.71707,5.33297],[-74.71682,5.33319],[-74.71654,5.33356],[-74.71653,5.33358],[-74.71648,5.33375],[-74.71648,5.33388],[-74.71649,5.33402],[-74.7166,5.3343],[-74.71674,5.33445],[-74.71716,5.33471],[-74.71765,5.33486],[-74.71826,5.33491],[-74.71876,5.33492],[-74.71938,5.33489],[-74.72018,5.33492],[-74.72079,5.33489],[-74.72132,5.33491],[-74.72168,5.33488],[-74.72218,5.33495],[-74.72323,5.33487],[-74.72343,5.3349],[-74.72354,5.3349],[-74.72385,5.33491],[-74.72484,5.33502],[-74.72601,5.33511],[-74.72653,5.33512],[-74.72717,5.33525],[-74.7276,5.3353],[-74.72871,5.33556],[-74.7292,5.33577],[-74.72945,5.33582],[-74.73014,5.33617],[-74.73043,5.33638],[-74.73079,5.33655],[-74.73112,5.3368],[-74.73142,5.33707],[-74.7316,5.3372],[-74.7319,5.33752],[-74.7323,5.33802],[-74.73263,5.33853],[-74.73273,5.33875],[-74.73281,5.33904],[-74.73293,5.33976],[-74.73296,5.34044],[-74.73296,5.34098],[-74.73288,5.3412],[-74.73277,5.34138],[-74.73258,5.3417],[-74.7324,5.34212],[-74.73216,5.34254],[-74.73199,5.34285],[-74.7319,5.34295],[-74.73144,5.3433],[-74.73096,5.34371],[-74.73067,5.344],[-74.73058,5.34412],[-74.73052,5.34435],[-74.73051,5.34456],[-74.73053,5.34474],[-74.73058,5.34479],[-74.73062,5.3448],[-74.73167,5.34447],[-74.73179,5.34439],[-74.73194,5.34433],[-74.73308,5.34408],[-74.7334,5.34395],[-74.73354,5.34386],[-74.73379,5.34373],[-74.73437,5.3435],[-74.73462,5.34337],[-74.73469,5.34328],[-74.73485,5.34299],[-74.73491,5.34272],[-74.73494,5.34233],[-74.73488,5.34165],[-74.73481,5.34129],[-74.73475,5.34047],[-74.73479,5.34006],[-74.73481,5.33943],[-74.73481,5.33921],[-74.73482,5.33906],[-74.73466,5.33872],[-74.7346,5.33859],[-74.73456,5.33835],[-74.73445,5.33806],[-74.73415,5.33745],[-74.73399,5.33701],[-74.73384,5.33678],[-74.73344,5.33629],[-74.73311,5.33601],[-74.733,5.33586],[-74.7328,5.33561],[-74.73234,5.33522],[-74.73216,5.33515],[-74.73196,5.33496],[-74.73179,5.33483],[-74.73146,5.33464],[-74.73116,5.33452],[-74.73109,5.33449],[-74.73071,5.3343],[-74.73064,5.33425],[-74.73011,5.33391],[-74.72963,5.33369],[-74.72951,5.33363],[-74.72908,5.33354],[-74.72849,5.33318],[-74.72823,5.33315],[-74.72777,5.33315],[-74.72734,5.33309],[-74.72694,5.33294],[-74.72621,5.33277],[-74.72584,5.33273],[-74.72565,5.33272],[-74.72495,5.33279],[-74.72438,5.33269],[-74.72389,5.3326],[-74.72337,5.33258],[-74.72314,5.33261],[-74.72273,5.33274],[-74.7223,5.33284],[-74.7221,5.3328],[-74.72063,5.33283],[-74.72019,5.33271],[-74.71964,5.33262],[-74.71898,5.3326],[-74.71846,5.33255],[-74.71828,5.33255],[-74.71785,5.33255]]]},"properties":{"FID":1,"OBJECTID":2,"ID_ANP":2,"CODDEP":"17","CODANP":2,"NOMBRE":"Distrito de Manejo Integrado Charca de Guarinocito","CATEGORIA":"Distrito de Manejo Integrado","ACTO_ADMON":"Acuerdo 086 - 04 de Octubre de 1988","AREA_DECLA":65,"AREA":653421.296875,"PERIMETER":6160.66686307,"Shape_Leng":6160.66686307,"Shape_Area":653421.296875}}]}