{"type":"FeatureCollection","name":"SIASAR_CRITICOS_ON","crs":{"type":"name","properties":{"name":"urn:ogc:def:crs:OGC:1.3:CRS84"}},"features":[{"type":"Feature","id":0,"geometry":{"type":"Point","coordinates":[-75.41544,5.0449]},"properties":{"FID":0,"FID_1":0,"fecha_encu":1508976000000,"fecha_vali":" ","nombre":"ACUEDUCTO JUANCHITO MALTERIA","ID":130282,"pais":"Colombia","divisiones":"Maltería,Manizales,CALDAS","latitud":5.044904,"longitud":-75.41544,"altitud":2575,"codigo":"17001000","otras_divi":" ","año":1971,"n_comunida":1,"n_PSE":1,"comunidade":"VEREDA MALTERIA","PSE":"ASUJUM. ASOCIACIÓN ACUEDUCTO JUANCHITO MALTERIA","pob_servid":875,"viv_servid":175,"financiami":"Otros","monto_fina":" ","monto_reha":" ","tipo_grave":"SI","tipo_bombe":"NO","tipo_pozo_":"NO","tipo_agua_":"NO","agua_epoca":"SI","agua_epo_1":"NO","capt_n":1,"capt_tipo_":"Quebrada","capt_cauda":0,"capt_cau_1":" ","capt_estad":1,"capt_abcd":"A","cond_n":1,"cond_estad":1,"cond_abcd":"A","trat_n":1,"trat_tipos":"Desinfección con cloro","trat_estad":1,"trat_abcd":"A","almc_n":5,"almc_volum":124700,"almc_vol_1":"LITROS","almc_limpi":2,"almc_lim_1":"MESES","almc_estad":0.879999995,"almc_abcd":"B","dist_n":1,"dist_horas":24,"dist_conex":175,"dist_micro":175,"dist_mic_1":175,"dist_dista":"Mayor de 100 m","dist_estad":1,"dist_abcd":"A","caudal":3,"caudal_ud":"LITROS POR SEGUNDO","cloro":"Sí, y funciona","filtracion":"No","cloro_resi":0,"cloro_re_1":"MILIGRAMOS POR LITRO","cloro_fech":null,"pasa_colif":"No pasa","fecha_coli":1509062400000,"pasa_fisic":"No pasa","fecha_fisi":1509062400000,"eiaaut":1,"eiainf":0.968500018,"eiazpa":0.400000006,"eiastr":1,"eia":0.842100024,"fuente_nom":"QUEBRADA CIMITARRA","fuente_tip":"Quebrada","IVH_cat_hi":"Muy alto","IVH_cat_cc":"Muy alto","IVH_szh":"Río Chinchiná","IVH_microc":"Quebrada Manizales","IVH_critic":1,"IVH_crit_1":1}},{"type":"Feature","id":1,"geometry":{"type":"Point","coordinates":[-75.5045,5.11513]},"properties":{"FID":1,"FID_1":1,"fecha_encu":1508976000000,"fecha_vali":" ","nombre":"ACUEDUCTO ALTO BONITO","ID":130731,"pais":"Colombia","divisiones":"Alto Bonito,Manizales,CALDAS","latitud":5.11513,"longitud":-75.5045,"altitud":1889,"codigo":" ","otras_divi":" ","año":1960,"n_comunida":1,"n_PSE":1,"comunidade":"ALTO BONITO","PSE":"ASOCIACIÓN DE USUARIOS VEREDA ALTO BONITO","pob_servid":240,"viv_servid":60,"financiami":" ","monto_fina":" ","monto_reha":" ","tipo_grave":"SI","tipo_bombe":"NO","tipo_pozo_":"NO","tipo_agua_":"NO","agua_epoca":"SI","agua_epo_1":"SI","capt_n":1,"capt_tipo_":"Quebrada","capt_cauda":2,"capt_cau_1":"LITROS POR SEGUNDO","capt_estad":0.699999988,"capt_abcd":"C","cond_n":1,"cond_estad":0.699999988,"cond_abcd":"C","trat_n":1,"trat_tipos":"Filtración rápida","trat_estad":0.850000024,"trat_abcd":"B","almc_n":1,"almc_volum":65000,"almc_vol_1":"LITROS","almc_limpi":12.37,"almc_lim_1":"MESES","almc_estad":0.5,"almc_abcd":"C","dist_n":1,"dist_horas":24,"dist_conex":60,"dist_micro":60,"dist_mic_1":60,"dist_dista":" ","dist_estad":1,"dist_abcd":"A","caudal":1.5,"caudal_ud":"LITROS POR SEGUNDO","cloro":"Sí, y funciona","filtracion":"No","cloro_resi":0,"cloro_re_1":"MILIGRAMOS POR LITRO","cloro_fech":null,"pasa_colif":"No pasa","fecha_coli":null,"pasa_fisic":"No pasa","fecha_fisi":null,"eiaaut":1,"eiainf":0.703499973,"eiazpa":0.800000012,"eiastr":0.925000012,"eia":0.85710001,"fuente_nom":"Guacimo","fuente_tip":"Quebrada","IVH_cat_hi":"Muy alto","IVH_cat_cc":"Muy alto","IVH_szh":"Río Guacaica","IVH_microc":"Río Guacaica","IVH_critic":1,"IVH_crit_1":1}},{"type":"Feature","id":2,"geometry":{"type":"Point","coordinates":[-75.56636,4.9856]},"properties":{"FID":2,"FID_1":9,"fecha_encu":1510272000000,"fecha_vali":" ","nombre":"ACUEDUCTO NUEVA PRIMAVERA","ID":131051,"pais":"Colombia","divisiones":"Nueva Primavera,Villamaría,CALDAS","latitud":4.9856,"longitud":-75.56636,"altitud":1568,"codigo":" ","otras_divi":" ","año":1985,"n_comunida":1,"n_PSE":1,"comunidade":"VEREDA NUEVA PRIMAVERA","PSE":"ASOCIACIÓN DE USUARIOS COLECTIVOS - NUEVA PRIMAVERA","pob_servid":1032.20338983,"viv_servid":174,"financiami":"Otros","monto_fina":" ","monto_reha":" ","tipo_grave":"SI","tipo_bombe":"NO","tipo_pozo_":"NO","tipo_agua_":"NO","agua_epoca":"NO","agua_epo_1":"SI","capt_n":2,"capt_tipo_":"Quebrada","capt_cauda":4,"capt_cau_1":"LITROS POR SEGUNDO","capt_estad":0.699999988,"capt_abcd":"C","cond_n":1,"cond_estad":0.699999988,"cond_abcd":"C","trat_n":0,"trat_tipos":" ","trat_estad":0.699999988,"trat_abcd":"C","almc_n":2,"almc_volum":25000,"almc_vol_1":"LITROS","almc_limpi":0.51,"almc_lim_1":"MESES","almc_estad":0.850000024,"almc_abcd":"B","dist_n":1,"dist_horas":24,"dist_conex":174,"dist_micro":0,"dist_mic_1":0,"dist_dista":" ","dist_estad":0.400000006,"dist_abcd":"C","caudal":2,"caudal_ud":"LITROS POR SEGUNDO","cloro":"Sí, y funciona","filtracion":"Sí, pero no de maner mayoritaria","cloro_resi":0.25,"cloro_re_1":"MILIGRAMOS POR LITRO","cloro_fech":1496620800000,"pasa_colif":"No pasa","fecha_coli":1496620800000,"pasa_fisic":"No pasa","fecha_fisi":1496534400000,"eiaaut":0.605499983,"eiainf":0.638899982,"eiazpa":0.600000024,"eiastr":0.850000024,"eia":0.673600018,"fuente_nom":"La Cidrera","fuente_tip":"Quebrada","IVH_cat_hi":"Muy alto","IVH_cat_cc":"Muy alto","IVH_szh":"Río Chinchiná","IVH_microc":"Río Chinchiná","IVH_critic":1,"IVH_crit_1":1}},{"type":"Feature","id":3,"geometry":{"type":"Point","coordinates":[-75.53344,4.98978]},"properties":{"FID":3,"FID_1":13,"fecha_encu":1510617600000,"fecha_vali":" ","nombre":"ACUEDUCTO VEREDA LLANITOS","ID":131191,"pais":"Colombia","divisiones":"Llanitos,Villamaría,CALDAS","latitud":4.989776,"longitud":-75.533437,"altitud":1873,"codigo":" ","otras_divi":" ","año":1970,"n_comunida":2,"n_PSE":2,"comunidade":"EL AVION, VEREDA LLANITOS","PSE":"ASOCIACIÓN GRUPO OPERATIVO DE ACUEDUCTO LLANITOS, GESTION COMUNITARIA VEREDA DANUBIO.","pob_servid":798.858921162,"viv_servid":195,"financiami":"Programa Rural","monto_fina":" ","monto_reha":" ","tipo_grave":"SI","tipo_bombe":"NO","tipo_pozo_":"NO","tipo_agua_":"NO","agua_epoca":"SI","agua_epo_1":"NO","capt_n":1,"capt_tipo_":"Quebrada","capt_cauda":4,"capt_cau_1":"LITROS POR SEGUNDO","capt_estad":1,"capt_abcd":"A","cond_n":1,"cond_estad":1,"cond_abcd":"A","trat_n":0,"trat_tipos":" ","trat_estad":0.699999988,"trat_abcd":"C","almc_n":2,"almc_volum":38000,"almc_vol_1":"LITROS","almc_limpi":2,"almc_lim_1":"MESES","almc_estad":1,"almc_abcd":"A","dist_n":1,"dist_horas":24,"dist_conex":120,"dist_micro":0,"dist_mic_1":0,"dist_dista":" ","dist_estad":1,"dist_abcd":"A","caudal":3,"caudal_ud":"LITROS POR SEGUNDO","cloro":"Sí, y funciona","filtracion":"No","cloro_resi":0.25,"cloro_re_1":"MILIGRAMOS POR LITRO","cloro_fech":1496707200000,"pasa_colif":"No pasa","fecha_coli":1496707200000,"pasa_fisic":"No pasa","fecha_fisi":1496707200000,"eiaaut":1,"eiainf":1,"eiazpa":1,"eiastr":0.850000024,"eia":0.962499976,"fuente_nom":"Quebrada Juanchito y Abraham","fuente_tip":"Quebrada","IVH_cat_hi":"Muy alto","IVH_cat_cc":"Muy alto","IVH_szh":"Río Chinchiná","IVH_microc":"Río Chinchiná","IVH_critic":1,"IVH_crit_1":1}},{"type":"Feature","id":4,"geometry":{"type":"Point","coordinates":[-75.50849,5.03094]},"properties":{"FID":4,"FID_1":14,"fecha_encu":1510358400000,"fecha_vali":" ","nombre":"ACUEDUCTO VEREDA TEJARES PARTE BAJA (EL ROBLE)","ID":0,"pais":"Colombia","divisiones":"Tejares,Villamaría,CALDAS","latitud":5.030938,"longitud":-75.508494,"altitud":1860,"codigo":" ","otras_divi":" ","año":2002,"n_comunida":0,"n_PSE":0,"comunidade":" ","PSE":" ","pob_servid":0,"viv_servid":0,"financiami":"Otros","monto_fina":" ","monto_reha":" ","tipo_grave":"SI","tipo_bombe":"NO","tipo_pozo_":"NO","tipo_agua_":"NO","agua_epoca":"NO","agua_epo_1":"NO","capt_n":1,"capt_tipo_":"Quebrada","capt_cauda":2,"capt_cau_1":"LITROS POR SEGUNDO","capt_estad":0.400000006,"capt_abcd":"C","cond_n":1,"cond_estad":0.400000006,"cond_abcd":"C","trat_n":0,"trat_tipos":" ","trat_estad":0.550000012,"trat_abcd":"C","almc_n":1,"almc_volum":5000,"almc_vol_1":"LITROS","almc_limpi":1,"almc_lim_1":"MESES","almc_estad":0.850000024,"almc_abcd":"B","dist_n":1,"dist_horas":24,"dist_conex":21,"dist_micro":0,"dist_mic_1":0,"dist_dista":" ","dist_estad":0.699999988,"dist_abcd":"C","caudal":1,"caudal_ud":"LITROS POR SEGUNDO","cloro":"Sí, y funciona","filtracion":"Sí, de maner mayoritaria","cloro_resi":0.25,"cloro_re_1":"MILIGRAMOS POR LITRO","cloro_fech":1498608000000,"pasa_colif":"No pasa","fecha_coli":1498608000000,"pasa_fisic":"No pasa","fecha_fisi":1498608000000,"eiaaut":0,"eiainf":0.555499971,"eiazpa":0.400000006,"eiastr":1,"eia":0.488900006,"fuente_nom":" ","fuente_tip":" ","IVH_cat_hi":"Muy alto","IVH_cat_cc":"Muy alto","IVH_szh":"Río Chinchiná","IVH_microc":"Río Chinchiná","IVH_critic":1,"IVH_crit_1":1}},{"type":"Feature","id":5,"geometry":{"type":"Point","coordinates":[-75.49289,5.20859]},"properties":{"FID":5,"FID_1":17,"fecha_encu":1513555200000,"fecha_vali":" ","nombre":"FUNDACIÓN ECOLÓGICA CAFETERA FEC - COMITÉ DEPARTAMENTAL DE CAFETEROS DE CALDA","ID":132010,"pais":"Colombia","divisiones":"Vereda Pan De Azucar,Neira,CALDAS","latitud":5.20859,"longitud":-75.49289,"altitud":1945,"codigo":" ","otras_divi":" ","año":1972,"n_comunida":16,"n_PSE":16,"comunidade":"LA ISLA, EL DESCANSO, EL ZANJON, PAN DE AZÚCAR, EL YUNQUE, EL COROZO, LA ESPERANZA, EL RÍO, EL LAUREL, TAREAS, TROCADEROS, COMUNIDAD ARMENIA, EL CHOLO, LOS ZAINOS, AGUACATAL, LLANO GRANDE","PSE":"FUNDACIÓN ECOLÓGICA CAFETERA (FEC) - COMITÉ DEPARTAMENTAL DE CAFETEROS DE CALDAS. OFICINA NEIRA, FUNDACIÓN ECOLÓGICA CAFETERA (FEC) - COMITÉ DEPARTAMENTAL DE CAFETEROS DE CALDAS. OFICINA NEIRA, FUNDACIÓN ECOLÓGICA CAFETERA (FEC) - COMITÉ DEPARTA","pob_servid":3299.08667453,"viv_servid":807,"financiami":"Programa Rural","monto_fina":" ","monto_reha":" ","tipo_grave":"SI","tipo_bombe":"NO","tipo_pozo_":"NO","tipo_agua_":"NO","agua_epoca":"SI","agua_epo_1":"SI","capt_n":1,"capt_tipo_":"Quebrada","capt_cauda":180,"capt_cau_1":"LITROS POR SEGUNDO","capt_estad":0.699999988,"capt_abcd":"C","cond_n":3,"cond_estad":1,"cond_abcd":"A","trat_n":0,"trat_tipos":" ","trat_estad":0.75,"trat_abcd":"B","almc_n":9,"almc_volum":610000,"almc_vol_1":"LITROS","almc_limpi":1,"almc_lim_1":"MESES","almc_estad":1,"almc_abcd":"A","dist_n":1,"dist_horas":24,"dist_conex":900,"dist_micro":200,"dist_mic_1":200,"dist_dista":" ","dist_estad":0.699999988,"dist_abcd":"C","caudal":180,"caudal_ud":"LITROS POR SEGUNDO","cloro":"No se realiza","filtracion":"No","cloro_resi":0,"cloro_re_1":"MILIGRAMOS POR LITRO","cloro_fech":1514246400000,"pasa_colif":"No pasa","fecha_coli":1514246400000,"pasa_fisic":"No pasa","fecha_fisi":1514246400000,"eiaaut":1,"eiainf":0.836700022,"eiazpa":0.600000024,"eiastr":0.375,"eia":0.702899992,"fuente_nom":"Quebrada Cestillal","fuente_tip":"Quebrada","IVH_cat_hi":"Alto","IVH_cat_cc":"Alto","IVH_szh":"Río Tapias - Tareas","IVH_microc":"Río Tareas","IVH_critic":1,"IVH_crit_1":1}},{"type":"Feature","id":6,"geometry":{"type":"Point","coordinates":[-75.50218,5.2243]},"properties":{"FID":6,"FID_1":18,"fecha_encu":1513555200000,"fecha_vali":" ","nombre":"CARDAL - FELICIA (FUNDACIÓN ECOLÓGICA CAFETERA) FEC - COMITÉ DEPARTAMENTAL DE CAFETEROS DE CALDAS","ID":132012,"pais":"Colombia","divisiones":"Vereda Las Peñas,Neira,CALDAS","latitud":5.2243,"longitud":-75.50218,"altitud":2070,"codigo":" ","otras_divi":" ","año":1987,"n_comunida":3,"n_PSE":2,"comunidade":"EL CARDAL, TAREAS, LA FELICIA","PSE":"FUNDACIÓN ECOLÓGICA CAFETERA (FEC) - COMITÉ DEPARTAMENTAL DE CAFETEROS DE CALDAS. OFICINA NEIRA, FUNDACIÓN ECOLÓGICA CAFETERA (FEC) - COMITÉ DEPARTAMENTAL DE CAFETEROS DE CALDAS. OFICINA NEIRA","pob_servid":460,"viv_servid":116,"financiami":"Otros","monto_fina":" ","monto_reha":" ","tipo_grave":"SI","tipo_bombe":"NO","tipo_pozo_":"NO","tipo_agua_":"NO","agua_epoca":"SI","agua_epo_1":"SI","capt_n":1,"capt_tipo_":"Quebrada","capt_cauda":90,"capt_cau_1":"LITROS POR SEGUNDO","capt_estad":0.699999988,"capt_abcd":"C","cond_n":2,"cond_estad":0.850000024,"cond_abcd":"B","trat_n":0,"trat_tipos":" ","trat_estad":0.699999988,"trat_abcd":"C","almc_n":2,"almc_volum":92000,"almc_vol_1":"LITROS","almc_limpi":6.685,"almc_lim_1":"MESES","almc_estad":0.75,"almc_abcd":"B","dist_n":1,"dist_horas":24,"dist_conex":87,"dist_micro":87,"dist_mic_1":87,"dist_dista":" ","dist_estad":1,"dist_abcd":"A","caudal":80,"caudal_ud":"LITROS POR SEGUNDO","cloro":"No se realiza","filtracion":"Sí, de maner mayoritaria","cloro_resi":0.25,"cloro_re_1":"MILIGRAMOS POR LITRO","cloro_fech":1504656000000,"pasa_colif":"No pasa","fecha_coli":1504656000000,"pasa_fisic":"No pasa","fecha_fisi":1504656000000,"eiaaut":1,"eiainf":0.817300022,"eiazpa":0.800000012,"eiastr":0.5,"eia":0.779299974,"fuente_nom":"Cascada Los Chorros","fuente_tip":"Quebrada","IVH_cat_hi":"Alto","IVH_cat_cc":"Alto","IVH_szh":"Río Tapias - Tareas","IVH_microc":"Río Tareas","IVH_critic":1,"IVH_crit_1":1}},{"type":"Feature","id":7,"geometry":{"type":"Point","coordinates":[-75.67367,5.26205]},"properties":{"FID":7,"FID_1":19,"fecha_encu":1512172800000,"fecha_vali":" ","nombre":"ABASTO PORTOBELLO","ID":132056,"pais":"Colombia","divisiones":"Vereda Tapias,Neira,CALDAS","latitud":5.26205,"longitud":-75.673668,"altitud":764,"codigo":" ","otras_divi":" ","año":1950,"n_comunida":1,"n_PSE":1,"comunidade":"TAPIAS","PSE":"ASOTAPIAS","pob_servid":155,"viv_servid":33,"financiami":" ","monto_fina":" ","monto_reha":" ","tipo_grave":"SI","tipo_bombe":"NO","tipo_pozo_":"NO","tipo_agua_":"NO","agua_epoca":"NO","agua_epo_1":"SI","capt_n":1,"capt_tipo_":"Quebrada","capt_cauda":0,"capt_cau_1":" ","capt_estad":1,"capt_abcd":"A","cond_n":1,"cond_estad":1,"cond_abcd":"A","trat_n":0,"trat_tipos":" ","trat_estad":0.5,"trat_abcd":"C","almc_n":1,"almc_volum":69000,"almc_vol_1":"LITROS","almc_limpi":12.37,"almc_lim_1":"MESES","almc_estad":0.5,"almc_abcd":"C","dist_n":1,"dist_horas":24,"dist_conex":33,"dist_micro":33,"dist_mic_1":0,"dist_dista":"Menor de 100 m","dist_estad":1,"dist_abcd":"A","caudal":0.16,"caudal_ud":"LITROS POR SEGUNDO","cloro":"No se realiza","filtracion":"No","cloro_resi":0,"cloro_re_1":"MILIGRAMOS POR LITRO","cloro_fech":1514246400000,"pasa_colif":"No pasa","fecha_coli":1514246400000,"pasa_fisic":"No pasa","fecha_fisi":1514246400000,"eiaaut":1,"eiainf":0.840900004,"eiazpa":1,"eiastr":0.25,"eia":0.772700012,"fuente_nom":"Portobello","fuente_tip":"Quebrada","IVH_cat_hi":"Alto","IVH_cat_cc":"Alto","IVH_szh":"Río Tapias - Tareas","IVH_microc":"Quebrada Tintina","IVH_critic":1,"IVH_crit_1":1}},{"type":"Feature","id":8,"geometry":{"type":"Point","coordinates":[-75.68997,4.94679]},"properties":{"FID":8,"FID_1":20,"fecha_encu":1511827200000,"fecha_vali":" ","nombre":"ABASTO DE AGUA  GRANIZALES","ID":132090,"pais":"Colombia","divisiones":"Las Crucetas,Chinchiná ,CALDAS","latitud":4.94679,"longitud":-75.68997,"altitud":1515,"codigo":" ","otras_divi":" ","año":1954,"n_comunida":1,"n_PSE":1,"comunidade":"LA CRUCETA","PSE":"JUNTA ADMINISTRATIVA CRUCETAS","pob_servid":180,"viv_servid":37,"financiami":"Otros","monto_fina":" ","monto_reha":" ","tipo_grave":"NO","tipo_bombe":"NO","tipo_pozo_":"NO","tipo_agua_":"NO","agua_epoca":"NO","agua_epo_1":"NO","capt_n":1,"capt_tipo_":" ","capt_cauda":2.5,"capt_cau_1":"LITROS POR SEGUNDO","capt_estad":0.699999988,"capt_abcd":"C","cond_n":1,"cond_estad":0.699999988,"cond_abcd":"C","trat_n":0,"trat_tipos":" ","trat_estad":0.850000024,"trat_abcd":"B","almc_n":1,"almc_volum":24999999.999999996,"almc_vol_1":"LITROS","almc_limpi":12.37,"almc_lim_1":"MESES","almc_estad":0.349999994,"almc_abcd":"D","dist_n":1,"dist_horas":24,"dist_conex":31,"dist_micro":0,"dist_mic_1":0,"dist_dista":"Mayor de 100 m","dist_estad":0.699999988,"dist_abcd":"C","caudal":2,"caudal_ud":"LITROS POR SEGUNDO","cloro":"No se realiza","filtracion":"Sí, de maner mayoritaria","cloro_resi":0,"cloro_re_1":"MILIGRAMOS POR LITRO","cloro_fech":1514332800000,"pasa_colif":"No pasa","fecha_coli":1514332800000,"pasa_fisic":"No pasa","fecha_fisi":1514332800000,"eiaaut":1,"eiainf":0.58859998,"eiazpa":0.600000024,"eiastr":0.5,"eia":0.672200024,"fuente_nom":"Quebrada Granizales","fuente_tip":"Quebrada","IVH_cat_hi":"Muy alto","IVH_cat_cc":"Muy alto","IVH_szh":"Río Campoalegre","IVH_microc":"Quebrada La Estrella","IVH_critic":1,"IVH_crit_1":1}},{"type":"Feature","id":9,"geometry":{"type":"Point","coordinates":[-75.69941,4.95371]},"properties":{"FID":9,"FID_1":28,"fecha_encu":1511913600000,"fecha_vali":" ","nombre":"ABASTO DE AGUA  EL TRÉBOL","ID":132202,"pais":"Colombia","divisiones":"La Cachucha,Chinchiná ,CALDAS","latitud":4.95371,"longitud":-75.69941,"altitud":1470,"codigo":" ","otras_divi":" ","año":1993,"n_comunida":2,"n_PSE":2,"comunidade":"VEREDA BUENAVISTA, VEREDA LA CACHUCHA","PSE":"FUNDACIÓN ECOLÓGICA CAFETERA (FEC) - COMITÉ DEPARTAMENTAL DE CAFETEROS DE CALDAS. OFICINA PALESTINA, FUNDACIÓN ECOLÓGICA CAFETERA (FEC) - COMITÉ DEPARTAMENTAL DE CAFETEROS DE CALDAS. OFICINA PALESTINA","pob_servid":399.224193548,"viv_servid":116,"financiami":"Otros","monto_fina":" ","monto_reha":" ","tipo_grave":"SI","tipo_bombe":"NO","tipo_pozo_":"NO","tipo_agua_":"NO","agua_epoca":"SI","agua_epo_1":"SI","capt_n":1,"capt_tipo_":"Quebrada","capt_cauda":0,"capt_cau_1":" ","capt_estad":0.699999988,"capt_abcd":"C","cond_n":1,"cond_estad":0.699999988,"cond_abcd":"C","trat_n":1,"trat_tipos":"Filtración rápida","trat_estad":0.850000024,"trat_abcd":"B","almc_n":1,"almc_volum":250000,"almc_vol_1":"LITROS","almc_limpi":2,"almc_lim_1":"MESES","almc_estad":0.850000024,"almc_abcd":"B","dist_n":1,"dist_horas":24,"dist_conex":169,"dist_micro":120,"dist_mic_1":120,"dist_dista":" ","dist_estad":0.699999988,"dist_abcd":"C","caudal":0.01,"caudal_ud":"LITROS POR SEGUNDO","cloro":"No se realiza","filtracion":"Sí, pero no de maner mayoritaria","cloro_resi":0,"cloro_re_1":"MILIGRAMOS POR LITRO","cloro_fech":null,"pasa_colif":"No pasa","fecha_coli":null,"pasa_fisic":"No pasa","fecha_fisi":null,"eiaaut":1,"eiainf":0.734799981,"eiazpa":0.800000012,"eiastr":0.425000012,"eia":0.739899993,"fuente_nom":"Quebrada Granizales","fuente_tip":"Quebrada","IVH_cat_hi":"Muy alto","IVH_cat_cc":"Muy alto","IVH_szh":"Río Campoalegre","IVH_microc":"Quebrada La Estrella","IVH_critic":1,"IVH_crit_1":1}},{"type":"Feature","id":10,"geometry":{"type":"Point","coordinates":[-75.6914,4.97167]},"properties":{"FID":10,"FID_1":32,"fecha_encu":1511481600000,"fecha_vali":" ","nombre":"BOCATOMA ACUEDUCTO LA ESTRELLA","ID":132246,"pais":"Colombia","divisiones":"La Estrella,Chinchiná ,CALDAS","latitud":4.97167,"longitud":-75.6914,"altitud":1298,"codigo":" ","otras_divi":" ","año":2004,"n_comunida":1,"n_PSE":1,"comunidade":"VEREDA LA ESTRELLA","PSE":"ASOCIACIÓN DE USUARIOS DEL ACUEDUCTO LA ESTRELLA","pob_servid":110.923076923,"viv_servid":35,"financiami":"Programas del departamento","monto_fina":" ","monto_reha":" ","tipo_grave":"SI","tipo_bombe":"NO","tipo_pozo_":"NO","tipo_agua_":"NO","agua_epoca":"NO","agua_epo_1":"NO","capt_n":1,"capt_tipo_":"Quebrada","capt_cauda":0,"capt_cau_1":" ","capt_estad":0.699999988,"capt_abcd":"C","cond_n":2,"cond_estad":0.699999988,"cond_abcd":"C","trat_n":0,"trat_tipos":" ","trat_estad":0.550000012,"trat_abcd":"C","almc_n":2,"almc_volum":87000,"almc_vol_1":"LITROS","almc_limpi":1,"almc_lim_1":"MESES","almc_estad":0.850000024,"almc_abcd":"B","dist_n":1,"dist_horas":24,"dist_conex":36,"dist_micro":36,"dist_mic_1":0,"dist_dista":" ","dist_estad":0.699999988,"dist_abcd":"C","caudal":0,"caudal_ud":"LITROS POR SEGUNDO","cloro":"No se realiza","filtracion":"Sí, pero no de maner mayoritaria","cloro_resi":0,"cloro_re_1":"MILIGRAMOS POR LITRO","cloro_fech":null,"pasa_colif":"No pasa","fecha_coli":null,"pasa_fisic":"No pasa","fecha_fisi":null,"eiaaut":1,"eiainf":0.734799981,"eiazpa":0.600000024,"eiastr":0.275000006,"eia":0.652400017,"fuente_nom":"Quebrada Santa Maria","fuente_tip":"Quebrada","IVH_cat_hi":"Muy alto","IVH_cat_cc":"Muy alto","IVH_szh":"Río Campoalegre","IVH_microc":"Quebrada La Estrella","IVH_critic":1,"IVH_crit_1":1}},{"type":"Feature","id":11,"geometry":{"type":"Point","coordinates":[-75.60402,5.23135]},"properties":{"FID":11,"FID_1":35,"fecha_encu":1513209600000,"fecha_vali":" ","nombre":"ACUEDUCTO","ID":132252,"pais":"Colombia","divisiones":"Vereda Juntas,Neira,CALDAS","latitud":5.231346,"longitud":-75.604018,"altitud":1008,"codigo":" ","otras_divi":" ","año":1973,"n_comunida":1,"n_PSE":1,"comunidade":"JUNTAS","PSE":"ACUEDUCTO JUNTAS","pob_servid":68,"viv_servid":22,"financiami":" ","monto_fina":" ","monto_reha":" ","tipo_grave":"SI","tipo_bombe":"NO","tipo_pozo_":"NO","tipo_agua_":"NO","agua_epoca":"SI","agua_epo_1":"SI","capt_n":1,"capt_tipo_":" ","capt_cauda":0,"capt_cau_1":" ","capt_estad":1,"capt_abcd":"A","cond_n":1,"cond_estad":1,"cond_abcd":"A","trat_n":0,"trat_tipos":" ","trat_estad":1,"trat_abcd":"A","almc_n":1,"almc_volum":3000,"almc_vol_1":"LITROS","almc_limpi":49.47,"almc_lim_1":"MESES","almc_estad":0.5,"almc_abcd":"C","dist_n":1,"dist_horas":24,"dist_conex":22,"dist_micro":0,"dist_mic_1":0,"dist_dista":"Mayor de 100 m","dist_estad":1,"dist_abcd":"A","caudal":0.16,"caudal_ud":"LITROS POR SEGUNDO","cloro":"No se realiza","filtracion":"No","cloro_resi":0.25,"cloro_re_1":"MILIGRAMOS POR LITRO","cloro_fech":1508889600000,"pasa_colif":"No pasa","fecha_coli":1508889600000,"pasa_fisic":"No pasa","fecha_fisi":1508889600000,"eiaaut":1,"eiainf":0.840900004,"eiazpa":0.800000012,"eiastr":0.5,"eia":0.7852,"fuente_nom":"Quebrada la separada","fuente_tip":"Quebrada","IVH_cat_hi":"Alto","IVH_cat_cc":"Alto","IVH_szh":"Río Tapias - Tareas","IVH_microc":"Río Tareas","IVH_critic":1,"IVH_crit_1":1}},{"type":"Feature","id":12,"geometry":{"type":"Point","coordinates":[-75.7528,5.14413]},"properties":{"FID":12,"FID_1":36,"fecha_encu":1512086400000,"fecha_vali":" ","nombre":"SISTEMA DE ACUEDUCTO ARAUCA EMPOCALDAS","ID":132259,"pais":"Colombia","divisiones":"Palestina,CALDAS","latitud":5.14413,"longitud":-75.7528,"altitud":1186,"codigo":" ","otras_divi":" ","año":0,"n_comunida":3,"n_PSE":3,"comunidade":"VEREDA VILLA VICTORIA, SAN JOSÉ, ARAUCA","PSE":"EMPOCALDAS S.A ESP SECCIONAL ARAUCA, EMPOCALDAS S.A E.S.P SECCIONAL KM. 41 MANIZALES, EMPOCALDAS S.A E.S.P SECCIONAL KM. 41 NEIRA","pob_servid":11265.047619,"viv_servid":1812,"financiami":" ","monto_fina":" ","monto_reha":" ","tipo_grave":"SI","tipo_bombe":"NO","tipo_pozo_":"NO","tipo_agua_":"NO","agua_epoca":"SI","agua_epo_1":"SI","capt_n":1,"capt_tipo_":"Quebrada","capt_cauda":61,"capt_cau_1":"LITROS POR SEGUNDO","capt_estad":1,"capt_abcd":"A","cond_n":2,"cond_estad":1,"cond_abcd":"A","trat_n":0,"trat_tipos":" ","trat_estad":1,"trat_abcd":"A","almc_n":3,"almc_volum":860000,"almc_vol_1":"LITROS","almc_limpi":24.74,"almc_lim_1":"MESES","almc_estad":0.5,"almc_abcd":"C","dist_n":1,"dist_horas":24,"dist_conex":1481,"dist_micro":1474,"dist_mic_1":1440,"dist_dista":" ","dist_estad":1,"dist_abcd":"A","caudal":20,"caudal_ud":"LITROS POR SEGUNDO","cloro":"Sí, y funciona","filtracion":"No","cloro_resi":1.3,"cloro_re_1":"MILIGRAMOS POR LITRO","cloro_fech":1511654400000,"pasa_colif":"Sí pasa","fecha_coli":1511654400000,"pasa_fisic":"Sí pasa","fecha_fisi":1511654400000,"eiaaut":1,"eiainf":0.840900004,"eiazpa":0.800000012,"eiastr":1,"eia":0.9102,"fuente_nom":"Quebrada Betania","fuente_tip":"Quebrada","IVH_cat_hi":"Muy alto","IVH_cat_cc":"Medio","IVH_szh":"Aferentes Directos al Cauca Sur","IVH_microc":"Quebrada Colgota","IVH_critic":1,"IVH_crit_1":0}},{"type":"Feature","id":13,"geometry":{"type":"Point","coordinates":[-75.56798,4.9822]},"properties":{"FID":13,"FID_1":40,"fecha_encu":1510272000000,"fecha_vali":" ","nombre":"ABASTO DE AGUA DE SAN JULIAN","ID":132298,"pais":"Colombia","divisiones":"San Julian,Villamaría,CALDAS","latitud":4.9822,"longitud":-75.56798,"altitud":1765,"codigo":" ","otras_divi":" ","año":1948,"n_comunida":1,"n_PSE":1,"comunidade":"SAN JULIAN","PSE":"ASOCIACION DE USUARIOS DE SERVICIOS COLECTIVOS DE SAN JULIAN","pob_servid":617.568965517,"viv_servid":147,"financiami":"Programa Rural","monto_fina":" ","monto_reha":" ","tipo_grave":"SI","tipo_bombe":"NO","tipo_pozo_":"NO","tipo_agua_":"NO","agua_epoca":"NO","agua_epo_1":"SI","capt_n":1,"capt_tipo_":"Quebrada","capt_cauda":5,"capt_cau_1":"LITROS POR SEGUNDO","capt_estad":0,"capt_abcd":"D","cond_n":1,"cond_estad":0.699999988,"cond_abcd":"C","trat_n":0,"trat_tipos":" ","trat_estad":0.200000003,"trat_abcd":"D","almc_n":2,"almc_volum":45000,"almc_vol_1":"LITROS","almc_limpi":12.37,"almc_lim_1":"MESES","almc_estad":0.275000006,"almc_abcd":"D","dist_n":1,"dist_horas":24,"dist_conex":147,"dist_micro":0,"dist_mic_1":0,"dist_dista":" ","dist_estad":1,"dist_abcd":"A","caudal":4,"caudal_ud":"LITROS POR SEGUNDO","cloro":"No se realiza","filtracion":"Sí, de maner mayoritaria","cloro_resi":0.25,"cloro_re_1":"MILIGRAMOS POR LITRO","cloro_fech":1496620800000,"pasa_colif":"No pasa","fecha_coli":1496620800000,"pasa_fisic":"Sí pasa","fecha_fisi":1496620800000,"eiaaut":1,"eiainf":0,"eiazpa":0.600000024,"eiastr":0.5,"eia":0.524999976,"fuente_nom":"Quebrada Cantamonos","fuente_tip":"Quebrada","IVH_cat_hi":"Muy alto","IVH_cat_cc":"Muy alto","IVH_szh":"Río Chinchiná","IVH_microc":"Río Chinchiná","IVH_critic":1,"IVH_crit_1":1}},{"type":"Feature","id":14,"geometry":{"type":"Point","coordinates":[-75.47318,4.99944]},"properties":{"FID":14,"FID_1":41,"fecha_encu":1510963200000,"fecha_vali":" ","nombre":"ACUEDUCTO AQUAMANA.","ID":132334,"pais":"Colombia","divisiones":"La Floresta,Villamaría,CALDAS","latitud":4.99944,"longitud":-75.47318,"altitud":2149,"codigo":" ","otras_divi":" ","año":1986,"n_comunida":1,"n_PSE":1,"comunidade":"LA FLORESTA","PSE":"AQUAMANA E.S.P.","pob_servid":1078.64963504,"viv_servid":257,"financiami":"Otros","monto_fina":" ","monto_reha":" ","tipo_grave":"SI","tipo_bombe":"NO","tipo_pozo_":"NO","tipo_agua_":"NO","agua_epoca":"SI","agua_epo_1":"SI","capt_n":2,"capt_tipo_":"Quebrada","capt_cauda":330,"capt_cau_1":"LITROS POR SEGUNDO","capt_estad":1,"capt_abcd":"A","cond_n":2,"cond_estad":1,"cond_abcd":"A","trat_n":1,"trat_tipos":"Desinfección con cloro","trat_estad":1,"trat_abcd":"A","almc_n":2,"almc_volum":180000,"almc_vol_1":"LITROS","almc_limpi":6,"almc_lim_1":"MESES","almc_estad":0.850000024,"almc_abcd":"B","dist_n":1,"dist_horas":24,"dist_conex":14022,"dist_micro":14022,"dist_mic_1":14022,"dist_dista":" ","dist_estad":1,"dist_abcd":"A","caudal":135,"caudal_ud":"LITROS POR SEGUNDO","cloro":"Sí, y funciona","filtracion":"No","cloro_resi":1.24,"cloro_re_1":"MILIGRAMOS POR LITRO","cloro_fech":1510963200000,"pasa_colif":"Sí pasa","fecha_coli":1510963200000,"pasa_fisic":"Sí pasa","fecha_fisi":1510963200000,"eiaaut":1,"eiainf":0.960200012,"eiazpa":0.600000024,"eiastr":1,"eia":0.890100002,"fuente_nom":"Quebrada La Albania (Chupader)","fuente_tip":"Quebrada","IVH_cat_hi":"Muy alto","IVH_cat_cc":"Muy alto","IVH_szh":"Río Chinchiná","IVH_microc":"Quebrada Chupaderos","IVH_critic":1,"IVH_crit_1":1}},{"type":"Feature","id":15,"geometry":{"type":"Point","coordinates":[-75.56013,5.08989]},"properties":{"FID":15,"FID_1":42,"fecha_encu":1513382400000,"fecha_vali":" ","nombre":"ASOCIACIÓN DE USUARIOS DEL SERVICIO DE AGUA DE LA VEREDA SANTA CLARA","ID":132343,"pais":"Colombia","divisiones":"Santa Clara,Manizales,CALDAS","latitud":5.08989,"longitud":-75.56013,"altitud":1680,"codigo":" ","otras_divi":" ","año":2000,"n_comunida":1,"n_PSE":1,"comunidade":"SANTA CLARA","PSE":"ASOCIACIÓN DE USUARIOS DEL SERVICIO DE AGUA DE LA VEREDA SANTA CLARA","pob_servid":251.076923077,"viv_servid":60,"financiami":"Programa Rural","monto_fina":" ","monto_reha":" ","tipo_grave":"SI","tipo_bombe":"NO","tipo_pozo_":"NO","tipo_agua_":"NO","agua_epoca":"NO","agua_epo_1":"NO","capt_n":2,"capt_tipo_":" ","capt_cauda":18,"capt_cau_1":"LITROS POR SEGUNDO","capt_estad":0.850000024,"capt_abcd":"B","cond_n":2,"cond_estad":0.850000024,"cond_abcd":"B","trat_n":1,"trat_tipos":"Filtración lenta","trat_estad":0.75,"trat_abcd":"B","almc_n":2,"almc_volum":54000,"almc_vol_1":"LITROS","almc_limpi":0,"almc_lim_1":"MESES","almc_estad":0.349999994,"almc_abcd":"D","dist_n":1,"dist_horas":24,"dist_conex":43,"dist_micro":0,"dist_mic_1":0,"dist_dista":" ","dist_estad":1,"dist_abcd":"A","caudal":18,"caudal_ud":"LITROS POR SEGUNDO","cloro":"No se realiza","filtracion":"Sí, de maner mayoritaria","cloro_resi":0,"cloro_re_1":"MILIGRAMOS POR LITRO","cloro_fech":null,"pasa_colif":"No pasa","fecha_coli":1503878400000,"pasa_fisic":"No pasa","fecha_fisi":1503878400000,"eiaaut":1,"eiainf":0.709100008,"eiazpa":0.800000012,"eiastr":0.5,"eia":0.752300024,"fuente_nom":" ","fuente_tip":" ","IVH_cat_hi":"Muy alto","IVH_cat_cc":"Muy alto","IVH_szh":"Río Chinchiná","IVH_microc":"Quebrada Manzanares","IVH_critic":1,"IVH_crit_1":1}},{"type":"Feature","id":16,"geometry":{"type":"Point","coordinates":[-75.49546,5.1321]},"properties":{"FID":16,"FID_1":43,"fecha_encu":1514332800000,"fecha_vali":" ","nombre":"ACUEDUCTO VEREDAL MARACAS","ID":132347,"pais":"Colombia","divisiones":"Maracas,Manizales,CALDAS","latitud":5.1321,"longitud":-75.49546,"altitud":1791,"codigo":" ","otras_divi":" ","año":2013,"n_comunida":1,"n_PSE":1,"comunidade":"VEREDA MARACAS","PSE":"ASOCIACIÓN JUNTA ADMINISTRADORA ACUEDUCTO VEREDAL MARACAS","pob_servid":56,"viv_servid":14,"financiami":"Programa Rural","monto_fina":" ","monto_reha":" ","tipo_grave":"SI","tipo_bombe":"NO","tipo_pozo_":"NO","tipo_agua_":"NO","agua_epoca":"NO","agua_epo_1":"NO","capt_n":1,"capt_tipo_":"Quebrada","capt_cauda":2,"capt_cau_1":"LITROS POR SEGUNDO","capt_estad":0.400000006,"capt_abcd":"C","cond_n":1,"cond_estad":0.400000006,"cond_abcd":"C","trat_n":2,"trat_tipos":"Filtración lenta, Filtración rápida","trat_estad":0.400000006,"trat_abcd":"C","almc_n":2,"almc_volum":40000,"almc_vol_1":"LITROS","almc_limpi":0.51,"almc_lim_1":"MESES","almc_estad":0.425000012,"almc_abcd":"C","dist_n":1,"dist_horas":24,"dist_conex":14,"dist_micro":0,"dist_mic_1":0,"dist_dista":" ","dist_estad":0.699999988,"dist_abcd":"C","caudal":1.5,"caudal_ud":"LITROS POR SEGUNDO","cloro":"No se realiza","filtracion":"Sí, de maner mayoritaria","cloro_resi":0,"cloro_re_1":"MILIGRAMOS POR LITRO","cloro_fech":null,"pasa_colif":"No pasa","fecha_coli":1503878400000,"pasa_fisic":"No pasa","fecha_fisi":1503878400000,"eiaaut":1,"eiainf":0.467099994,"eiazpa":0.600000024,"eiastr":0.5,"eia":0.641799986,"fuente_nom":"Quebrada La Garsa","fuente_tip":"Quebrada","IVH_cat_hi":"Muy alto","IVH_cat_cc":"Muy alto","IVH_szh":"Río Guacaica","IVH_microc":"Río Guacaica","IVH_critic":1,"IVH_crit_1":1}},{"type":"Feature","id":17,"geometry":{"type":"Point","coordinates":[-75.48528,5.12725]},"properties":{"FID":17,"FID_1":44,"fecha_encu":1513382400000,"fecha_vali":" ","nombre":"ABASTO PUEBLO HONDO","ID":132351,"pais":"Colombia","divisiones":"Pueblo Hondo,Manizales,CALDAS","latitud":5.12725,"longitud":-75.48528,"altitud":2040,"codigo":" ","otras_divi":" ","año":1975,"n_comunida":1,"n_PSE":1,"comunidade":"PUEBLO HONDO","PSE":"ASOCIACIÓN  ACUEDUCTO DE LA VEREDA PUEBLO HONDO","pob_servid":209.657894737,"viv_servid":62,"financiami":"Programa Rural","monto_fina":" ","monto_reha":" ","tipo_grave":"SI","tipo_bombe":"NO","tipo_pozo_":"NO","tipo_agua_":"NO","agua_epoca":"NO","agua_epo_1":"SI","capt_n":2,"capt_tipo_":"Quebrada","capt_cauda":45,"capt_cau_1":"LITROS POR SEGUNDO","capt_estad":0.699999988,"capt_abcd":"C","cond_n":2,"cond_estad":0.349999994,"cond_abcd":"D","trat_n":0,"trat_tipos":" ","trat_estad":0.550000012,"trat_abcd":"C","almc_n":2,"almc_volum":50000,"almc_vol_1":"LITROS","almc_limpi":0.755,"almc_lim_1":"MESES","almc_estad":1,"almc_abcd":"A","dist_n":1,"dist_horas":24,"dist_conex":14,"dist_micro":0,"dist_mic_1":0,"dist_dista":" ","dist_estad":1,"dist_abcd":"A","caudal":10,"caudal_ud":"LITROS POR SEGUNDO","cloro":"No se realiza","filtracion":"Sí, de maner mayoritaria","cloro_resi":0,"cloro_re_1":"MILIGRAMOS POR LITRO","cloro_fech":null,"pasa_colif":"No pasa","fecha_coli":1503878400000,"pasa_fisic":"No pasa","fecha_fisi":1503878400000,"eiaaut":1,"eiainf":0.703499973,"eiazpa":0.600000024,"eiastr":0.5,"eia":0.700900018,"fuente_nom":"Quebrada las Animas","fuente_tip":"Quebrada","IVH_cat_hi":"Muy alto","IVH_cat_cc":"Muy alto","IVH_szh":"Río Guacaica","IVH_microc":"Río Guacaica","IVH_critic":1,"IVH_crit_1":1}},{"type":"Feature","id":18,"geometry":{"type":"Point","coordinates":[-75.46502,5.09646]},"properties":{"FID":18,"FID_1":46,"fecha_encu":1513814400000,"fecha_vali":" ","nombre":"ACUEDUCTO ALTO DEL GUAMO","ID":132368,"pais":"Colombia","divisiones":"Alto Del Guamo,Manizales,CALDAS","latitud":5.09646,"longitud":-75.46502,"altitud":2476,"codigo":" ","otras_divi":" ","año":1998,"n_comunida":1,"n_PSE":1,"comunidade":"VEREDA ALTO DEL GUAMO","PSE":"ASOCIACIÓN DE USUARIOS DEL ACUEDUCTO DE LA VEREDA ALTO DEL GUAMO, MANANTIAL","pob_servid":217.894736842,"viv_servid":45,"financiami":"Otros","monto_fina":" ","monto_reha":" ","tipo_grave":"SI","tipo_bombe":"NO","tipo_pozo_":"NO","tipo_agua_":"NO","agua_epoca":"NO","agua_epo_1":"SI","capt_n":2,"capt_tipo_":"Quebrada","capt_cauda":6,"capt_cau_1":"LITROS POR SEGUNDO","capt_estad":0.699999988,"capt_abcd":"C","cond_n":2,"cond_estad":0.200000003,"cond_abcd":"D","trat_n":1,"trat_tipos":"Desinfección con cloro","trat_estad":0.633333325,"trat_abcd":"C","almc_n":2,"almc_volum":60000,"almc_vol_1":"LITROS","almc_limpi":24.74,"almc_lim_1":"MESES","almc_estad":0.5,"almc_abcd":"C","dist_n":1,"dist_horas":24,"dist_conex":45,"dist_micro":1,"dist_mic_1":0,"dist_dista":" ","dist_estad":1,"dist_abcd":"A","caudal":2,"caudal_ud":"LITROS POR SEGUNDO","cloro":"Sí, y funciona","filtracion":"Sí, de maner mayoritaria","cloro_resi":0,"cloro_re_1":"MILIGRAMOS POR LITRO","cloro_fech":null,"pasa_colif":"Sí pasa","fecha_coli":null,"pasa_fisic":"Sí pasa","fecha_fisi":1502755200000,"eiaaut":1,"eiainf":0.514400005,"eiazpa":0.600000024,"eiastr":1,"eia":0.778599977,"fuente_nom":"Quebrada Milancito","fuente_tip":"Quebrada","IVH_cat_hi":"Muy alto","IVH_cat_cc":"Muy alto","IVH_szh":"Río Guacaica","IVH_microc":"Río Guacaica","IVH_critic":1,"IVH_crit_1":1}},{"type":"Feature","id":19,"geometry":{"type":"Point","coordinates":[-75.77254,5.14068]},"properties":{"FID":19,"FID_1":47,"fecha_encu":1516752000000,"fecha_vali":" ","nombre":"ABASTO DE AGUA DE LA VEREDA SANTA ANA","ID":132665,"pais":"Colombia","divisiones":"Santa Ana,Risaralda,CALDAS","latitud":5.14068,"longitud":-75.77254,"altitud":1795,"codigo":"10","otras_divi":" ","año":1978,"n_comunida":1,"n_PSE":1,"comunidade":"SANTA ANA","PSE":"ASOCIACIÓN DE USU. DEL ABASTO SANTA ANA","pob_servid":117,"viv_servid":32,"financiami":"Otros","monto_fina":" ","monto_reha":" ","tipo_grave":"NO","tipo_bombe":"SI","tipo_pozo_":"NO","tipo_agua_":"NO","agua_epoca":"NO","agua_epo_1":"SI","capt_n":1,"capt_tipo_":"Pozo Perforado","capt_cauda":2,"capt_cau_1":"LITROS POR SEGUNDO","capt_estad":0,"capt_abcd":"D","cond_n":2,"cond_estad":0.550000012,"cond_abcd":"C","trat_n":0,"trat_tipos":" ","trat_estad":0.200000003,"trat_abcd":"D","almc_n":2,"almc_volum":84000,"almc_vol_1":"LITROS","almc_limpi":74.21,"almc_lim_1":"MESES","almc_estad":0.5,"almc_abcd":"C","dist_n":1,"dist_horas":1,"dist_conex":32,"dist_micro":32,"dist_mic_1":32,"dist_dista":" ","dist_estad":1,"dist_abcd":"A","caudal":1,"caudal_ud":"LITROS POR SEGUNDO","cloro":"No se realiza","filtracion":"No","cloro_resi":0.25,"cloro_re_1":"MILIGRAMOS POR LITRO","cloro_fech":1510704000000,"pasa_colif":"No pasa","fecha_coli":null,"pasa_fisic":"No pasa","fecha_fisi":null,"eiaaut":1,"eiainf":0,"eiazpa":0.800000012,"eiastr":0.100000001,"eia":0.474999994,"fuente_nom":"Nacimiento santa ana","fuente_tip":"Pozo Perforado","IVH_cat_hi":"Muy alto","IVH_cat_cc":"Medio","IVH_szh":"Aferentes Directos al Cauca Sur","IVH_microc":"Quebrada Colgota","IVH_critic":1,"IVH_crit_1":0}},{"type":"Feature","id":20,"geometry":{"type":"Point","coordinates":[-75.76531,5.13313]},"properties":{"FID":20,"FID_1":48,"fecha_encu":1516665600000,"fecha_vali":" ","nombre":"ABASTO DE AGUA VEREDA BANDERAS","ID":132668,"pais":"Colombia","divisiones":"Banderas,Risaralda,CALDAS","latitud":5.13313,"longitud":-75.76531,"altitud":1762,"codigo":"5","otras_divi":" ","año":1957,"n_comunida":1,"n_PSE":1,"comunidade":"BANDERAS","PSE":"ASOCIACIÓN DEL AGUA VEREDA BANDERAS","pob_servid":217.1875,"viv_servid":50,"financiami":"Otros","monto_fina":" ","monto_reha":" ","tipo_grave":"SI","tipo_bombe":"NO","tipo_pozo_":"NO","tipo_agua_":"NO","agua_epoca":"NO","agua_epo_1":"SI","capt_n":1,"capt_tipo_":"Quebrada","capt_cauda":3,"capt_cau_1":"LITROS POR SEGUNDO","capt_estad":0.699999988,"capt_abcd":"C","cond_n":1,"cond_estad":0.699999988,"cond_abcd":"C","trat_n":0,"trat_tipos":" ","trat_estad":0.550000012,"trat_abcd":"C","almc_n":2,"almc_volum":75000,"almc_vol_1":"LITROS","almc_limpi":148.42,"almc_lim_1":"MESES","almc_estad":0.5,"almc_abcd":"C","dist_n":1,"dist_horas":4,"dist_conex":50,"dist_micro":0,"dist_mic_1":0,"dist_dista":" ","dist_estad":0.699999988,"dist_abcd":"C","caudal":2,"caudal_ud":"LITROS POR SEGUNDO","cloro":"No se realiza","filtracion":"No","cloro_resi":0.25,"cloro_re_1":"MILIGRAMOS POR LITRO","cloro_fech":1516924800000,"pasa_colif":"No pasa","fecha_coli":1516924800000,"pasa_fisic":"No pasa","fecha_fisi":1516924800000,"eiaaut":1,"eiainf":0.64349997,"eiazpa":0.600000024,"eiastr":0.275000006,"eia":0.629599988,"fuente_nom":"Quebrada Bandera","fuente_tip":"Quebrada","IVH_cat_hi":"Muy alto","IVH_cat_cc":"Medio","IVH_szh":"Aferentes Directos al Cauca Sur","IVH_microc":"Quebrada Colgota","IVH_critic":1,"IVH_crit_1":0}},{"type":"Feature","id":21,"geometry":{"type":"Point","coordinates":[-75.7672,5.13432]},"properties":{"FID":21,"FID_1":50,"fecha_encu":1516665600000,"fecha_vali":" ","nombre":"ABASTO DE AGUA DE LA VEREDA EL BRILLANTE","ID":132691,"pais":"Colombia","divisiones":"El Brillante,Risaralda,CALDAS","latitud":5.13432,"longitud":-75.7672,"altitud":1762,"codigo":"1","otras_divi":" ","año":1975,"n_comunida":1,"n_PSE":1,"comunidade":"EL BRILLANTE","PSE":"ASOC. DE USU. DEL ACUEDUC. EL BRILLANTE","pob_servid":195,"viv_servid":40,"financiami":"Otros","monto_fina":" ","monto_reha":" ","tipo_grave":"SI","tipo_bombe":"NO","tipo_pozo_":"NO","tipo_agua_":"NO","agua_epoca":"NO","agua_epo_1":"SI","capt_n":1,"capt_tipo_":"Quebrada","capt_cauda":5,"capt_cau_1":"LITROS POR SEGUNDO","capt_estad":0.699999988,"capt_abcd":"C","cond_n":1,"cond_estad":0.699999988,"cond_abcd":"C","trat_n":0,"trat_tipos":" ","trat_estad":0.699999988,"trat_abcd":"C","almc_n":1,"almc_volum":35000,"almc_vol_1":"LITROS","almc_limpi":49.47,"almc_lim_1":"MESES","almc_estad":0.5,"almc_abcd":"C","dist_n":1,"dist_horas":24,"dist_conex":40,"dist_micro":0,"dist_mic_1":0,"dist_dista":" ","dist_estad":0.699999988,"dist_abcd":"C","caudal":3.5,"caudal_ud":"LITROS POR SEGUNDO","cloro":"No se realiza","filtracion":"No","cloro_resi":0.25,"cloro_re_1":"MILIGRAMOS POR LITRO","cloro_fech":1510617600000,"pasa_colif":"No pasa","fecha_coli":1517184000000,"pasa_fisic":"No pasa","fecha_fisi":1517184000000,"eiaaut":1,"eiainf":0.64349997,"eiazpa":0.800000012,"eiastr":0.349999994,"eia":0.698400021,"fuente_nom":"Quebrada Banderas","fuente_tip":"Quebrada","IVH_cat_hi":"Muy alto","IVH_cat_cc":"Medio","IVH_szh":"Aferentes Directos al Cauca Sur","IVH_microc":"Quebrada Colgota","IVH_critic":1,"IVH_crit_1":0}},{"type":"Feature","id":22,"geometry":{"type":"Point","coordinates":[-75.67515,5.12967]},"properties":{"FID":22,"FID_1":53,"fecha_encu":1518480000000,"fecha_vali":" ","nombre":"ABASTO DE AGUA LA MIRANDA","ID":132884,"pais":"Colombia","divisiones":"La Miranda,Risaralda,CALDAS","latitud":5.12967,"longitud":-75.67515,"altitud":1650,"codigo":"1","otras_divi":" ","año":1990,"n_comunida":1,"n_PSE":1,"comunidade":"LA MIRANDA","PSE":"ASOCIACIÓN DE USUARIOS ACUEDUCTO LA MIRANDA","pob_servid":320,"viv_servid":54,"financiami":"Otros","monto_fina":" ","monto_reha":" ","tipo_grave":"NO","tipo_bombe":"SI","tipo_pozo_":"NO","tipo_agua_":"NO","agua_epoca":"NO","agua_epo_1":"SI","capt_n":1,"capt_tipo_":" ","capt_cauda":5,"capt_cau_1":"LITROS POR SEGUNDO","capt_estad":0.699999988,"capt_abcd":"C","cond_n":1,"cond_estad":1,"cond_abcd":"A","trat_n":0,"trat_tipos":" ","trat_estad":0.200000003,"trat_abcd":"D","almc_n":2,"almc_volum":142000,"almc_vol_1":"LITROS","almc_limpi":296.84,"almc_lim_1":"MESES","almc_estad":0.425000012,"almc_abcd":"C","dist_n":1,"dist_horas":24,"dist_conex":54,"dist_micro":54,"dist_mic_1":0,"dist_dista":" ","dist_estad":1,"dist_abcd":"A","caudal":3,"caudal_ud":"LITROS POR SEGUNDO","cloro":"No se realiza","filtracion":"No","cloro_resi":0.25,"cloro_re_1":"MILIGRAMOS POR LITRO","cloro_fech":1508112000000,"pasa_colif":"No pasa","fecha_coli":1518998400000,"pasa_fisic":"No pasa","fecha_fisi":1518998400000,"eiaaut":1,"eiainf":0.738499999,"eiazpa":0.400000006,"eiastr":0.100000001,"eia":0.559599996,"fuente_nom":"Quebrada La Alacena","fuente_tip":"Quebrada","IVH_cat_hi":"Muy alto","IVH_cat_cc":"Muy alto","IVH_szh":"Río Chinchiná","IVH_microc":"Río Chinchiná","IVH_critic":1,"IVH_crit_1":1}},{"type":"Feature","id":23,"geometry":{"type":"Point","coordinates":[-75.50373,5.22987]},"properties":{"FID":23,"FID_1":54,"fecha_encu":1518652800000,"fecha_vali":" ","nombre":"PUNTO DE SUMINISTRO VEREDA LA CAMELIA ALTA","ID":132890,"pais":"Colombia","divisiones":"Camelia (Alta O Baja),Aranzazu,CALDAS","latitud":5.22987,"longitud":-75.50373,"altitud":1938,"codigo":" ","otras_divi":" ","año":1970,"n_comunida":1,"n_PSE":0,"comunidade":"VEREDA LA CAMELIA ALTA","PSE":" ","pob_servid":86,"viv_servid":35,"financiami":"Otros","monto_fina":" ","monto_reha":" ","tipo_grave":"SI","tipo_bombe":"NO","tipo_pozo_":"NO","tipo_agua_":"NO","agua_epoca":"SI","agua_epo_1":"SI","capt_n":1,"capt_tipo_":"Quebrada","capt_cauda":4,"capt_cau_1":"LITROS POR SEGUNDO","capt_estad":1,"capt_abcd":"A","cond_n":1,"cond_estad":0.699999988,"cond_abcd":"C","trat_n":0,"trat_tipos":" ","trat_estad":1,"trat_abcd":"A","almc_n":1,"almc_volum":54000,"almc_vol_1":"LITROS","almc_limpi":148.42,"almc_lim_1":"MESES","almc_estad":0.349999994,"almc_abcd":"D","dist_n":1,"dist_horas":24,"dist_conex":35,"dist_micro":0,"dist_mic_1":0,"dist_dista":" ","dist_estad":1,"dist_abcd":"A","caudal":2,"caudal_ud":"LITROS POR SEGUNDO","cloro":"No se realiza","filtracion":"Sí, de maner mayoritaria","cloro_resi":0,"cloro_re_1":"MILIGRAMOS POR LITRO","cloro_fech":null,"pasa_colif":"No pasa","fecha_coli":null,"pasa_fisic":"No pasa","fecha_fisi":null,"eiaaut":1,"eiainf":0.703499973,"eiazpa":0.400000006,"eiastr":0.5,"eia":0.650900006,"fuente_nom":"El cardal","fuente_tip":"Quebrada","IVH_cat_hi":"Alto","IVH_cat_cc":"Alto","IVH_szh":"Río Tapias - Tareas","IVH_microc":"Quebrada Sardinas","IVH_critic":1,"IVH_crit_1":1}},{"type":"Feature","id":24,"geometry":{"type":"Point","coordinates":[-75.50277,5.22826]},"properties":{"FID":24,"FID_1":55,"fecha_encu":1518566400000,"fecha_vali":" ","nombre":"PUNTO DE SUMINISTRO VEREDA CAMELIA BAJA","ID":132894,"pais":"Colombia","divisiones":"Camelia (Alta O Baja),Aranzazu,CALDAS","latitud":5.22826,"longitud":-75.50277,"altitud":2045,"codigo":"19","otras_divi":" ","año":1990,"n_comunida":1,"n_PSE":0,"comunidade":"LA CAMELIA BAJA","PSE":" ","pob_servid":137,"viv_servid":30,"financiami":"Programa Rural","monto_fina":" ","monto_reha":" ","tipo_grave":"SI","tipo_bombe":"NO","tipo_pozo_":"NO","tipo_agua_":"NO","agua_epoca":"SI","agua_epo_1":"SI","capt_n":1,"capt_tipo_":" ","capt_cauda":4,"capt_cau_1":"LITROS POR SEGUNDO","capt_estad":1,"capt_abcd":"A","cond_n":1,"cond_estad":1,"cond_abcd":"A","trat_n":0,"trat_tipos":" ","trat_estad":1,"trat_abcd":"A","almc_n":1,"almc_volum":10000,"almc_vol_1":"LITROS","almc_limpi":148.42,"almc_lim_1":"MESES","almc_estad":0.200000003,"almc_abcd":"D","dist_n":1,"dist_horas":24,"dist_conex":30,"dist_micro":0,"dist_mic_1":0,"dist_dista":" ","dist_estad":1,"dist_abcd":"A","caudal":2,"caudal_ud":"LITROS POR SEGUNDO","cloro":"No se realiza","filtracion":"Sí, de maner mayoritaria","cloro_resi":0,"cloro_re_1":"MILIGRAMOS POR LITRO","cloro_fech":null,"pasa_colif":"No pasa","fecha_coli":null,"pasa_fisic":"No pasa","fecha_fisi":null,"eiaaut":1,"eiainf":0.66869998,"eiazpa":0.600000024,"eiastr":0.5,"eia":0.692200005,"fuente_nom":"Nacimiento La Chillona","fuente_tip":"Ojo de Agua o Manantial","IVH_cat_hi":"Alto","IVH_cat_cc":"Alto","IVH_szh":"Río Tapias - Tareas","IVH_microc":"Quebrada Sardinas","IVH_critic":1,"IVH_crit_1":1}},{"type":"Feature","id":25,"geometry":{"type":"Point","coordinates":[-75.57391,5.30997]},"properties":{"FID":25,"FID_1":65,"fecha_encu":1519862400000,"fecha_vali":" ","nombre":"PUNTO DE SUMINISTRO LA CEIBA","ID":133276,"pais":"Colombia","divisiones":"La Ceiba,Filadelfia,CALDAS","latitud":5.30997,"longitud":-75.57391,"altitud":1311,"codigo":" ","otras_divi":" ","año":1975,"n_comunida":1,"n_PSE":0,"comunidade":"LA CEIBA","PSE":" ","pob_servid":26.1333333333,"viv_servid":8,"financiami":"Otros","monto_fina":" ","monto_reha":" ","tipo_grave":"SI","tipo_bombe":"NO","tipo_pozo_":"NO","tipo_agua_":"NO","agua_epoca":"NO","agua_epo_1":"SI","capt_n":1,"capt_tipo_":"Quebrada","capt_cauda":4,"capt_cau_1":"LITROS POR SEGUNDO","capt_estad":0.699999988,"capt_abcd":"C","cond_n":1,"cond_estad":1,"cond_abcd":"A","trat_n":0,"trat_tipos":" ","trat_estad":0.200000003,"trat_abcd":"D","almc_n":1,"almc_volum":24000,"almc_vol_1":"LITROS","almc_limpi":12.37,"almc_lim_1":"MESES","almc_estad":0.349999994,"almc_abcd":"D","dist_n":1,"dist_horas":24,"dist_conex":10,"dist_micro":0,"dist_mic_1":0,"dist_dista":" ","dist_estad":1,"dist_abcd":"A","caudal":2,"caudal_ud":"LITROS POR SEGUNDO","cloro":"No se realiza","filtracion":"No","cloro_resi":0,"cloro_re_1":"MILIGRAMOS POR LITRO","cloro_fech":null,"pasa_colif":"No pasa","fecha_coli":null,"pasa_fisic":"No pasa","fecha_fisi":null,"eiaaut":1,"eiainf":0.703499973,"eiazpa":0.400000006,"eiastr":0.100000001,"eia":0.550899982,"fuente_nom":"La Ceiba","fuente_tip":"Quebrada","IVH_cat_hi":"Alto","IVH_cat_cc":"Alto","IVH_szh":"Río Maiba","IVH_microc":"Quebrada Santa Rosa","IVH_critic":1,"IVH_crit_1":1}},{"type":"Feature","id":26,"geometry":{"type":"Point","coordinates":[-75.57767,5.29386]},"properties":{"FID":26,"FID_1":66,"fecha_encu":1519171200000,"fecha_vali":" ","nombre":"ABASTO DE AGUA DE LA VEREDA LA PALMA","ID":133340,"pais":"Colombia","divisiones":"La Palma,Filadelfia,CALDAS","latitud":5.29386,"longitud":-75.57767,"altitud":1340,"codigo":" ","otras_divi":" ","año":1960,"n_comunida":2,"n_PSE":2,"comunidade":"LA SOLEDAD, LA PALMA","PSE":"ASOCIACIÓN DE USUARIOS ACUEDUCTO LA PALMA, ASOCIACIÓN DE USUARIOS ACUEDUCTO LA PALMA","pob_servid":131,"viv_servid":46,"financiami":"Otros","monto_fina":" ","monto_reha":" ","tipo_grave":"SI","tipo_bombe":"NO","tipo_pozo_":"NO","tipo_agua_":"NO","agua_epoca":"NO","agua_epo_1":"SI","capt_n":1,"capt_tipo_":"Quebrada","capt_cauda":3.5,"capt_cau_1":"LITROS POR SEGUNDO","capt_estad":0.400000006,"capt_abcd":"C","cond_n":1,"cond_estad":1,"cond_abcd":"A","trat_n":0,"trat_tipos":" ","trat_estad":1,"trat_abcd":"A","almc_n":2,"almc_volum":252000,"almc_vol_1":"LITROS","almc_limpi":18.555,"almc_lim_1":"MESES","almc_estad":0.5,"almc_abcd":"C","dist_n":1,"dist_horas":12,"dist_conex":27,"dist_micro":0,"dist_mic_1":0,"dist_dista":" ","dist_estad":1,"dist_abcd":"A","caudal":2,"caudal_ud":"LITROS POR SEGUNDO","cloro":"No se realiza","filtracion":"No","cloro_resi":0,"cloro_re_1":"MILIGRAMOS POR LITRO","cloro_fech":1520380800000,"pasa_colif":"No pasa","fecha_coli":1520380800000,"pasa_fisic":"No pasa","fecha_fisi":1520380800000,"eiaaut":1,"eiainf":0.66869998,"eiazpa":0.600000024,"eiastr":0.5,"eia":0.692200005,"fuente_nom":"Nacimiento El Clavel","fuente_tip":"Quebrada","IVH_cat_hi":"Alto","IVH_cat_cc":"Alto","IVH_szh":"Río Maiba","IVH_microc":"Quebrada Santa Rosa","IVH_critic":1,"IVH_crit_1":1}},{"type":"Feature","id":27,"geometry":{"type":"Point","coordinates":[-75.5435,5.23743]},"properties":{"FID":27,"FID_1":68,"fecha_encu":1519344000000,"fecha_vali":" ","nombre":"PUNTO DE SUMINISTRO DE LA VEREDA SARDINAS","ID":133343,"pais":"Colombia","divisiones":"Sardinas,Filadelfia,CALDAS","latitud":5.237428,"longitud":-75.543498,"altitud":1372,"codigo":" ","otras_divi":" ","año":2017,"n_comunida":1,"n_PSE":0,"comunidade":"SARDINAS","PSE":" ","pob_servid":45,"viv_servid":14,"financiami":"Programa Rural","monto_fina":" ","monto_reha":" ","tipo_grave":"SI","tipo_bombe":"NO","tipo_pozo_":"NO","tipo_agua_":"NO","agua_epoca":"NO","agua_epo_1":"NO","capt_n":1,"capt_tipo_":"Quebrada","capt_cauda":2,"capt_cau_1":"LITROS POR SEGUNDO","capt_estad":0.400000006,"capt_abcd":"C","cond_n":1,"cond_estad":1,"cond_abcd":"A","trat_n":0,"trat_tipos":" ","trat_estad":0.550000012,"trat_abcd":"C","almc_n":1,"almc_volum":6000,"almc_vol_1":"LITROS","almc_limpi":0.17,"almc_lim_1":"MESES","almc_estad":0.699999988,"almc_abcd":"C","dist_n":1,"dist_horas":12,"dist_conex":14,"dist_micro":0,"dist_mic_1":0,"dist_dista":" ","dist_estad":0.400000006,"dist_abcd":"C","caudal":1,"caudal_ud":"LITROS POR SEGUNDO","cloro":"No se realiza","filtracion":"No","cloro_resi":0,"cloro_re_1":"MILIGRAMOS POR LITRO","cloro_fech":1520380800000,"pasa_colif":"No pasa","fecha_coli":1520380800000,"pasa_fisic":"No pasa","fecha_fisi":1520380800000,"eiaaut":1,"eiainf":0.578499973,"eiazpa":0.800000012,"eiastr":0.275000006,"eia":0.663399994,"fuente_nom":"NACIMIENTO PUERTO SAMARIA","fuente_tip":"Quebrada","IVH_cat_hi":"Alto","IVH_cat_cc":"Alto","IVH_szh":"Río Tapias - Tareas","IVH_microc":"Quebrada Sardinas","IVH_critic":1,"IVH_crit_1":1}},{"type":"Feature","id":28,"geometry":{"type":"Point","coordinates":[-75.45928,5.11051]},"properties":{"FID":28,"FID_1":89,"fecha_encu":1520985600000,"fecha_vali":" ","nombre":"ABASTO DE AGUA CHAVARQUÍA ALTA","ID":133714,"pais":"Colombia","divisiones":"Chavarquia,Anserma,CALDAS","latitud":5.11051,"longitud":-75.45928,"altitud":1873,"codigo":" ","otras_divi":" ","año":1993,"n_comunida":1,"n_PSE":1,"comunidade":"VEREDA CHAVARQUIA ALTA","PSE":"ASOCIACIÓN DE USUARIOS COLEC. DEL ABASTO DE AGUA  CHAVARQUIA","pob_servid":55.4814814815,"viv_servid":14,"financiami":"Otros","monto_fina":" ","monto_reha":" ","tipo_grave":"SI","tipo_bombe":"NO","tipo_pozo_":"NO","tipo_agua_":"NO","agua_epoca":"SI","agua_epo_1":"SI","capt_n":1,"capt_tipo_":" ","capt_cauda":8,"capt_cau_1":"LITROS POR SEGUNDO","capt_estad":0.699999988,"capt_abcd":"C","cond_n":1,"cond_estad":1,"cond_abcd":"A","trat_n":0,"trat_tipos":" ","trat_estad":0.850000024,"trat_abcd":"B","almc_n":2,"almc_volum":20000,"almc_vol_1":"LITROS","almc_limpi":74.21,"almc_lim_1":"MESES","almc_estad":0.5,"almc_abcd":"C","dist_n":1,"dist_horas":24,"dist_conex":14,"dist_micro":0,"dist_mic_1":0,"dist_dista":" ","dist_estad":1,"dist_abcd":"A","caudal":7,"caudal_ud":"LITROS POR SEGUNDO","cloro":"No se realiza","filtracion":"No","cloro_resi":0,"cloro_re_1":"MILIGRAMOS POR LITRO","cloro_fech":1521504000000,"pasa_colif":"No pasa","fecha_coli":1521504000000,"pasa_fisic":"No pasa","fecha_fisi":1521504000000,"eiaaut":1,"eiainf":0.769200027,"eiazpa":0.600000024,"eiastr":0.425000012,"eia":0.698599994,"fuente_nom":"Nacimiento Cahavrquía Alta","fuente_tip":"Canal","IVH_cat_hi":"Muy alto","IVH_cat_cc":"Muy alto","IVH_szh":"Río Guacaica","IVH_microc":"Río Guacaica","IVH_critic":1,"IVH_crit_1":1}},{"type":"Feature","id":29,"geometry":{"type":"Point","coordinates":[-75.05487,5.56311]},"properties":{"FID":29,"FID_1":118,"fecha_encu":1523923200000,"fecha_vali":" ","nombre":"PU PUNTO DE SUMINISTRO VILLA HERMOSA","ID":0,"pais":"Colombia","divisiones":"Villa Hermosa,Samaná ,CALDAS","latitud":5.56311,"longitud":-75.05487,"altitud":1543,"codigo":" ","otras_divi":" ","año":1989,"n_comunida":0,"n_PSE":0,"comunidade":" ","PSE":" ","pob_servid":0,"viv_servid":0,"financiami":" ","monto_fina":" ","monto_reha":" ","tipo_grave":"SI","tipo_bombe":"NO","tipo_pozo_":"NO","tipo_agua_":"NO","agua_epoca":"NO","agua_epo_1":"SI","capt_n":1,"capt_tipo_":"Quebrada","capt_cauda":0.9,"capt_cau_1":"LITROS POR SEGUNDO","capt_estad":0,"capt_abcd":"D","cond_n":1,"cond_estad":1,"cond_abcd":"A","trat_n":0,"trat_tipos":" ","trat_estad":0,"trat_abcd":"D","almc_n":1,"almc_volum":15000,"almc_vol_1":"LITROS","almc_limpi":2,"almc_lim_1":"MESES","almc_estad":0.850000024,"almc_abcd":"B","dist_n":1,"dist_horas":24,"dist_conex":10,"dist_micro":0,"dist_mic_1":0,"dist_dista":"Mayor de 100 m","dist_estad":1,"dist_abcd":"A","caudal":1,"caudal_ud":"LITROS POR SEGUNDO","cloro":"No se realiza","filtracion":"No","cloro_resi":0,"cloro_re_1":"MILIGRAMOS POR LITRO","cloro_fech":1525132800000,"pasa_colif":"No pasa","fecha_coli":1525132800000,"pasa_fisic":"No pasa","fecha_fisi":1525132800000,"eiaaut":0,"eiainf":0,"eiazpa":0.600000024,"eiastr":0,"eia":0.150000006,"fuente_nom":" ","fuente_tip":" ","IVH_cat_hi":"Muy alto","IVH_cat_cc":"Muy alto","IVH_szh":"Río Samana Sur","IVH_microc":"Río Claro","IVH_critic":1,"IVH_crit_1":1}},{"type":"Feature","id":30,"geometry":{"type":"Point","coordinates":[-75.76848,5.21739]},"properties":{"FID":30,"FID_1":134,"fecha_encu":1521849600000,"fecha_vali":" ","nombre":"ABASTO DE AGUA LA  ALSACIA","ID":166250,"pais":"Colombia","divisiones":"Alsacia,Anserma,CALDAS","latitud":5.21739,"longitud":-75.76848,"altitud":1870,"codigo":" ","otras_divi":" ","año":1988,"n_comunida":1,"n_PSE":1,"comunidade":"ALSACIA","PSE":"ASOCIACIÓN DE USUARIOS DE SERVICIOS COLECTIVOS ACUEDUCTO LA ALSACIA","pob_servid":315.362903226,"viv_servid":79,"financiami":"Otros","monto_fina":" ","monto_reha":" ","tipo_grave":"SI","tipo_bombe":"NO","tipo_pozo_":"NO","tipo_agua_":"NO","agua_epoca":"NO","agua_epo_1":"SI","capt_n":2,"capt_tipo_":"Quebrada","capt_cauda":7,"capt_cau_1":"LITROS POR SEGUNDO","capt_estad":0.850000024,"capt_abcd":"B","cond_n":2,"cond_estad":1,"cond_abcd":"A","trat_n":0,"trat_tipos":" ","trat_estad":0.850000024,"trat_abcd":"B","almc_n":1,"almc_volum":200000,"almc_vol_1":"LITROS","almc_limpi":111.32,"almc_lim_1":"MESES","almc_estad":0.349999994,"almc_abcd":"D","dist_n":1,"dist_horas":24,"dist_conex":79,"dist_micro":79,"dist_mic_1":79,"dist_dista":" ","dist_estad":1,"dist_abcd":"A","caudal":5,"caudal_ud":"LITROS POR SEGUNDO","cloro":"No se realiza","filtracion":"Sí, pero no de maner mayoritaria","cloro_resi":0,"cloro_re_1":"MILIGRAMOS POR LITRO","cloro_fech":1531180800000,"pasa_colif":"No pasa","fecha_coli":1531180800000,"pasa_fisic":"No pasa","fecha_fisi":1531180800000,"eiaaut":1,"eiainf":0.738499999,"eiazpa":0.800000012,"eiastr":0.425000012,"eia":0.74089998,"fuente_nom":"QUEBRADA LA MAGDALENA","fuente_tip":"Quebrada","IVH_cat_hi":"Muy alto","IVH_cat_cc":"Muy alto","IVH_szh":"Río Risaralda","IVH_microc":"Quebrada Cauya","IVH_critic":1,"IVH_crit_1":1}},{"type":"Feature","id":31,"geometry":{"type":"Point","coordinates":[-75.75678,5.14157]},"properties":{"FID":31,"FID_1":152,"fecha_encu":1517356800000,"fecha_vali":" ","nombre":"ABASTO DE AGUA VEREDA ALTO BONITO EL PALO - RIS","ID":166623,"pais":"Colombia","divisiones":"Media Cuesta,Risaralda,CALDAS","latitud":5.14157,"longitud":-75.75678,"altitud":1271,"codigo":"2","otras_divi":" ","año":1977,"n_comunida":3,"n_PSE":2,"comunidade":"MEDIA CUESTA, ALTO BONITO EL PALO, BETANIA","PSE":"ASOC. DE USU. DEL ABAS ALTO BONITO - EL PALO, ASOCIACIÓN DE USUARIOS DEL ABASTO  MEDIA CUESTA","pob_servid":2077,"viv_servid":720,"financiami":"Programa Rural","monto_fina":" ","monto_reha":" ","tipo_grave":"SI","tipo_bombe":"NO","tipo_pozo_":"NO","tipo_agua_":"NO","agua_epoca":"NO","agua_epo_1":"SI","capt_n":1,"capt_tipo_":" ","capt_cauda":20,"capt_cau_1":"LITROS POR SEGUNDO","capt_estad":1,"capt_abcd":"A","cond_n":2,"cond_estad":1,"cond_abcd":"A","trat_n":0,"trat_tipos":" ","trat_estad":1,"trat_abcd":"A","almc_n":4,"almc_volum":524000,"almc_vol_1":"LITROS","almc_limpi":74.21,"almc_lim_1":"MESES","almc_estad":0.5,"almc_abcd":"C","dist_n":1,"dist_horas":24,"dist_conex":360,"dist_micro":360,"dist_mic_1":0,"dist_dista":" ","dist_estad":1,"dist_abcd":"A","caudal":16,"caudal_ud":"LITROS POR SEGUNDO","cloro":"No se realiza","filtracion":"No","cloro_resi":0.25,"cloro_re_1":"MILIGRAMOS POR LITRO","cloro_fech":1508025600000,"pasa_colif":"No pasa","fecha_coli":1531958400000,"pasa_fisic":"No pasa","fecha_fisi":1531958400000,"eiaaut":1,"eiainf":0.840900004,"eiazpa":0.800000012,"eiastr":0.5,"eia":0.7852,"fuente_nom":"Nacimiento Media Cuesta","fuente_tip":"Quebrada","IVH_cat_hi":"Muy alto","IVH_cat_cc":"Medio","IVH_szh":"Aferentes Directos al Cauca Sur","IVH_microc":"Quebrada Colgota","IVH_critic":1,"IVH_crit_1":0}},{"type":"Feature","id":32,"geometry":{"type":"Point","coordinates":[-75.0939,5.40438]},"properties":{"FID":32,"FID_1":156,"fecha_encu":1528329600000,"fecha_vali":" ","nombre":"ABASTO DE AGUA AGUABONITA","ID":166743,"pais":"Colombia","divisiones":"Aguabonita,Pensilvania,CALDAS","latitud":5.40438,"longitud":-75.0939,"altitud":2022,"codigo":" ","otras_divi":" ","año":1970,"n_comunida":1,"n_PSE":1,"comunidade":"AGUABONITA","PSE":"ASOCIACION DE USUAROS COLETIVOS DEL ABASTO AGUABONITA","pob_servid":210.381578947,"viv_servid":59,"financiami":" ","monto_fina":" ","monto_reha":" ","tipo_grave":"SI","tipo_bombe":"NO","tipo_pozo_":"NO","tipo_agua_":"NO","agua_epoca":"SI","agua_epo_1":"SI","capt_n":1,"capt_tipo_":"Quebrada","capt_cauda":19,"capt_cau_1":"LITROS POR SEGUNDO","capt_estad":1,"capt_abcd":"A","cond_n":1,"cond_estad":1,"cond_abcd":"A","trat_n":0,"trat_tipos":" ","trat_estad":1,"trat_abcd":"A","almc_n":1,"almc_volum":22000,"almc_vol_1":"LITROS","almc_limpi":148.42,"almc_lim_1":"MESES","almc_estad":0.349999994,"almc_abcd":"D","dist_n":1,"dist_horas":24,"dist_conex":59,"dist_micro":0,"dist_mic_1":0,"dist_dista":" ","dist_estad":1,"dist_abcd":"A","caudal":12,"caudal_ud":"LITROS POR SEGUNDO","cloro":"No se realiza","filtracion":"No","cloro_resi":0,"cloro_re_1":"MILIGRAMOS POR LITRO","cloro_fech":1532304000000,"pasa_colif":"No pasa","fecha_coli":1532304000000,"pasa_fisic":"No pasa","fecha_fisi":1532304000000,"eiaaut":1,"eiainf":0.769200027,"eiazpa":1,"eiastr":0.5,"eia":0.817300022,"fuente_nom":"QUEBRADA LAS MINAS","fuente_tip":"Quebrada","IVH_cat_hi":"Muy alto","IVH_cat_cc":"Muy alto","IVH_szh":"Río La Miel","IVH_microc":"Río Tenerife","IVH_critic":1,"IVH_crit_1":1}},{"type":"Feature","id":33,"geometry":{"type":"Point","coordinates":[-75.11364,5.37323]},"properties":{"FID":33,"FID_1":166,"fecha_encu":1528761600000,"fecha_vali":" ","nombre":"PUNTO DE SUMINISTRO ARMENIA","ID":0,"pais":"Colombia","divisiones":"Armenia,Pensilvania,CALDAS","latitud":5.37323,"longitud":-75.11364,"altitud":1738,"codigo":" ","otras_divi":" ","año":2002,"n_comunida":0,"n_PSE":0,"comunidade":" ","PSE":" ","pob_servid":0,"viv_servid":0,"financiami":" ","monto_fina":" ","monto_reha":" ","tipo_grave":"SI","tipo_bombe":"NO","tipo_pozo_":"NO","tipo_agua_":"NO","agua_epoca":"SI","agua_epo_1":"SI","capt_n":1,"capt_tipo_":"Quebrada","capt_cauda":0,"capt_cau_1":" ","capt_estad":1,"capt_abcd":"A","cond_n":2,"cond_estad":1,"cond_abcd":"A","trat_n":0,"trat_tipos":" ","trat_estad":0.699999988,"trat_abcd":"C","almc_n":1,"almc_volum":20000,"almc_vol_1":"LITROS","almc_limpi":0.24,"almc_lim_1":"MESES","almc_estad":1,"almc_abcd":"A","dist_n":1,"dist_horas":8,"dist_conex":27,"dist_micro":0,"dist_mic_1":0,"dist_dista":" ","dist_estad":1,"dist_abcd":"A","caudal":1,"caudal_ud":"LITROS POR SEGUNDO","cloro":"No se realiza","filtracion":"No","cloro_resi":0,"cloro_re_1":"MILIGRAMOS POR LITRO","cloro_fech":1533772800000,"pasa_colif":"No pasa","fecha_coli":1533772800000,"pasa_fisic":"No pasa","fecha_fisi":1533772800000,"eiaaut":0,"eiainf":1,"eiazpa":0.600000024,"eiastr":0.349999994,"eia":0.487500012,"fuente_nom":" ","fuente_tip":" ","IVH_cat_hi":"Alto","IVH_cat_cc":"Alto","IVH_szh":"Río La Miel","IVH_microc":"Río Pensilvania","IVH_critic":1,"IVH_crit_1":1}},{"type":"Feature","id":34,"geometry":{"type":"Point","coordinates":[-75.0696,5.37892]},"properties":{"FID":34,"FID_1":168,"fecha_encu":1528329600000,"fecha_vali":" ","nombre":"ABASTO RURAL CAFETERO - SEBASTEPOL BRISAS","ID":0,"pais":"Colombia","divisiones":"Sebastopol,Pensilvania,CALDAS","latitud":5.37892,"longitud":-75.0696,"altitud":1622,"codigo":" ","otras_divi":" ","año":1968,"n_comunida":0,"n_PSE":0,"comunidade":" ","PSE":" ","pob_servid":0,"viv_servid":0,"financiami":"Programa Rural","monto_fina":" ","monto_reha":" ","tipo_grave":"SI","tipo_bombe":"NO","tipo_pozo_":"NO","tipo_agua_":"NO","agua_epoca":"NO","agua_epo_1":"SI","capt_n":1,"capt_tipo_":"Quebrada","capt_cauda":10,"capt_cau_1":"LITROS POR SEGUNDO","capt_estad":1,"capt_abcd":"A","cond_n":1,"cond_estad":1,"cond_abcd":"A","trat_n":0,"trat_tipos":" ","trat_estad":1,"trat_abcd":"A","almc_n":2,"almc_volum":75000,"almc_vol_1":"LITROS","almc_limpi":3,"almc_lim_1":"MESES","almc_estad":0.600000024,"almc_abcd":"C","dist_n":1,"dist_horas":24,"dist_conex":40,"dist_micro":0,"dist_mic_1":0,"dist_dista":" ","dist_estad":1,"dist_abcd":"A","caudal":8,"caudal_ud":"LITROS POR SEGUNDO","cloro":"No se realiza","filtracion":"Sí, pero no de maner mayoritaria","cloro_resi":0,"cloro_re_1":"MILIGRAMOS POR LITRO","cloro_fech":1533772800000,"pasa_colif":"No pasa","fecha_coli":1533772800000,"pasa_fisic":"No pasa","fecha_fisi":1533772800000,"eiaaut":0,"eiainf":0.880100012,"eiazpa":0.600000024,"eiastr":0.5,"eia":0.495000005,"fuente_nom":" ","fuente_tip":" ","IVH_cat_hi":"Muy alto","IVH_cat_cc":"Muy alto","IVH_szh":"Río La Miel","IVH_microc":"Río Tenerife","IVH_critic":1,"IVH_crit_1":1}},{"type":"Feature","id":35,"geometry":{"type":"Point","coordinates":[-75.12396,5.3543]},"properties":{"FID":35,"FID_1":169,"fecha_encu":1528848000000,"fecha_vali":" ","nombre":"PU PUNTO DE SUMINISTRO LA RIOJA, LA ESPERANZA","ID":0,"pais":"Colombia","divisiones":"La Rioja,Pensilvania,CALDAS","latitud":5.3543,"longitud":-75.12396,"altitud":2071,"codigo":" ","otras_divi":" ","año":1962,"n_comunida":0,"n_PSE":0,"comunidade":" ","PSE":" ","pob_servid":0,"viv_servid":0,"financiami":" ","monto_fina":" ","monto_reha":" ","tipo_grave":"SI","tipo_bombe":"NO","tipo_pozo_":"NO","tipo_agua_":"NO","agua_epoca":"SI","agua_epo_1":"SI","capt_n":1,"capt_tipo_":"Quebrada","capt_cauda":9,"capt_cau_1":"LITROS POR SEGUNDO","capt_estad":1,"capt_abcd":"A","cond_n":3,"cond_estad":1,"cond_abcd":"A","trat_n":0,"trat_tipos":" ","trat_estad":1,"trat_abcd":"A","almc_n":2,"almc_volum":244000,"almc_vol_1":"LITROS","almc_limpi":1,"almc_lim_1":"MESES","almc_estad":1,"almc_abcd":"A","dist_n":1,"dist_horas":24,"dist_conex":70,"dist_micro":70,"dist_mic_1":70,"dist_dista":" ","dist_estad":1,"dist_abcd":"A","caudal":3,"caudal_ud":"LITROS POR SEGUNDO","cloro":"No se realiza","filtracion":"No","cloro_resi":0,"cloro_re_1":"MILIGRAMOS POR LITRO","cloro_fech":1533859200000,"pasa_colif":"No pasa","fecha_coli":1533859200000,"pasa_fisic":"No pasa","fecha_fisi":1533859200000,"eiaaut":0,"eiainf":1,"eiazpa":1,"eiastr":0.5,"eia":0.625,"fuente_nom":" ","fuente_tip":" ","IVH_cat_hi":"Alto","IVH_cat_cc":"Alto","IVH_szh":"Río La Miel","IVH_microc":"Río Pensilvania","IVH_critic":1,"IVH_crit_1":1}},{"type":"Feature","id":36,"geometry":{"type":"Point","coordinates":[-75.08767,5.35557]},"properties":{"FID":36,"FID_1":173,"fecha_encu":1528934400000,"fecha_vali":" ","nombre":"PU PUNTO DE SUMINISTRO LA ASUNCIÓN","ID":0,"pais":"Colombia","divisiones":"La Asuncion,Pensilvania,CALDAS","latitud":5.35557,"longitud":-75.08767,"altitud":1778,"codigo":" ","otras_divi":" ","año":1993,"n_comunida":0,"n_PSE":0,"comunidade":" ","PSE":" ","pob_servid":0,"viv_servid":0,"financiami":"Otros","monto_fina":" ","monto_reha":" ","tipo_grave":"SI","tipo_bombe":"NO","tipo_pozo_":"NO","tipo_agua_":"NO","agua_epoca":"NO","agua_epo_1":"SI","capt_n":1,"capt_tipo_":"Quebrada","capt_cauda":3,"capt_cau_1":"LITROS POR SEGUNDO","capt_estad":0.699999988,"capt_abcd":"C","cond_n":1,"cond_estad":0.699999988,"cond_abcd":"C","trat_n":0,"trat_tipos":" ","trat_estad":1,"trat_abcd":"A","almc_n":1,"almc_volum":15000,"almc_vol_1":"LITROS","almc_limpi":2,"almc_lim_1":"MESES","almc_estad":1,"almc_abcd":"A","dist_n":1,"dist_horas":24,"dist_conex":13,"dist_micro":0,"dist_mic_1":0,"dist_dista":" ","dist_estad":1,"dist_abcd":"A","caudal":2,"caudal_ud":"LITROS POR SEGUNDO","cloro":"No se realiza","filtracion":"No","cloro_resi":0,"cloro_re_1":"MILIGRAMOS POR LITRO","cloro_fech":1533859200000,"pasa_colif":"No pasa","fecha_coli":1533859200000,"pasa_fisic":"No pasa","fecha_fisi":1533859200000,"eiaaut":0,"eiainf":0.836700022,"eiazpa":0.800000012,"eiastr":0.5,"eia":0.534200013,"fuente_nom":" ","fuente_tip":" ","IVH_cat_hi":"Alto","IVH_cat_cc":"Alto","IVH_szh":"Río La Miel","IVH_microc":"Río Pensilvania","IVH_critic":1,"IVH_crit_1":1}},{"type":"Feature","id":37,"geometry":{"type":"Point","coordinates":[-75.35169,5.28934]},"properties":{"FID":37,"FID_1":185,"fecha_encu":1534982400000,"fecha_vali":" ","nombre":"ABASTO DE AGUA EL PÁRAMO","ID":0,"pais":"Colombia","divisiones":"Vereda El Paramo,Marulanda,CALDAS","latitud":5.28934,"longitud":-75.35169,"altitud":3080,"codigo":" ","otras_divi":" ","año":1965,"n_comunida":0,"n_PSE":0,"comunidade":" ","PSE":" ","pob_servid":0,"viv_servid":0,"financiami":"Otros","monto_fina":" ","monto_reha":" ","tipo_grave":"SI","tipo_bombe":"NO","tipo_pozo_":"NO","tipo_agua_":"NO","agua_epoca":"SI","agua_epo_1":"SI","capt_n":1,"capt_tipo_":"Quebrada","capt_cauda":2,"capt_cau_1":"LITROS POR SEGUNDO","capt_estad":0,"capt_abcd":"D","cond_n":1,"cond_estad":0.699999988,"cond_abcd":"C","trat_n":0,"trat_tipos":" ","trat_estad":0.850000024,"trat_abcd":"B","almc_n":1,"almc_volum":30000,"almc_vol_1":"LITROS","almc_limpi":148.42,"almc_lim_1":"MESES","almc_estad":0.5,"almc_abcd":"C","dist_n":1,"dist_horas":24,"dist_conex":13,"dist_micro":0,"dist_mic_1":0,"dist_dista":" ","dist_estad":0.699999988,"dist_abcd":"C","caudal":1,"caudal_ud":"LITROS POR SEGUNDO","cloro":"No se realiza","filtracion":"No","cloro_resi":0,"cloro_re_1":"MILIGRAMOS POR LITRO","cloro_fech":1534982400000,"pasa_colif":"No pasa","fecha_coli":1534982400000,"pasa_fisic":"No pasa","fecha_fisi":1534982400000,"eiaaut":0,"eiainf":0,"eiazpa":1,"eiastr":0.425000012,"eia":0.356299996,"fuente_nom":" ","fuente_tip":" ","IVH_cat_hi":"Muy alto","IVH_cat_cc":"Muy alto","IVH_szh":"Río Guarinó","IVH_microc":"Río Guarino","IVH_critic":1,"IVH_crit_1":1}},{"type":"Feature","id":38,"geometry":{"type":"Point","coordinates":[-75.44398,5.6355]},"properties":{"FID":38,"FID_1":193,"fecha_encu":1532563200000,"fecha_vali":" ","nombre":"ABASTO DE AGUA GUACO ALTO","ID":168807,"pais":"Colombia","divisiones":"Vereda Guaco,Aguadas,CALDAS","latitud":5.6355,"longitud":-75.44398,"altitud":2099,"codigo":" ","otras_divi":" ","año":1980,"n_comunida":1,"n_PSE":1,"comunidade":"GUACO","PSE":"ASOCIACIÓN DE USUARIOS DE SERVICIOS COLECTIVOS DEL ACUEDUCTO VEREDA GUACO PARTE ALTA","pob_servid":62,"viv_servid":20,"financiami":" ","monto_fina":" ","monto_reha":" ","tipo_grave":"SI","tipo_bombe":"NO","tipo_pozo_":"NO","tipo_agua_":"NO","agua_epoca":"NO","agua_epo_1":"SI","capt_n":2,"capt_tipo_":"Quebrada","capt_cauda":4,"capt_cau_1":"LITROS POR SEGUNDO","capt_estad":0.850000024,"capt_abcd":"B","cond_n":2,"cond_estad":1,"cond_abcd":"A","trat_n":0,"trat_tipos":" ","trat_estad":0.200000003,"trat_abcd":"D","almc_n":1,"almc_volum":30000,"almc_vol_1":"LITROS","almc_limpi":49.47,"almc_lim_1":"MESES","almc_estad":0.5,"almc_abcd":"C","dist_n":1,"dist_horas":24,"dist_conex":20,"dist_micro":0,"dist_mic_1":0,"dist_dista":" ","dist_estad":1,"dist_abcd":"A","caudal":3,"caudal_ud":"LITROS POR SEGUNDO","cloro":"No se realiza","filtracion":"No","cloro_resi":0,"cloro_re_1":"MILIGRAMOS POR LITRO","cloro_fech":1535760000000,"pasa_colif":"No pasa","fecha_coli":1535760000000,"pasa_fisic":"No pasa","fecha_fisi":1535760000000,"eiaaut":1,"eiainf":0.807399988,"eiazpa":0.800000012,"eiastr":0.100000001,"eia":0.676900029,"fuente_nom":"LAS AGUITAS","fuente_tip":"Ojo de Agua o Manantial","IVH_cat_hi":"Muy alto","IVH_cat_cc":"Muy alto","IVH_szh":"Río Arma","IVH_microc":"Quebrada Pore","IVH_critic":1,"IVH_crit_1":1}},{"type":"Feature","id":39,"geometry":{"type":"Point","coordinates":[-75.12084,5.1882]},"properties":{"FID":39,"FID_1":201,"fecha_encu":1535414400000,"fecha_vali":" ","nombre":"PUNTO DE SUMINISTRO DE LA VEREDA EL PASTAL","ID":0,"pais":"Colombia","divisiones":"El Pastal,Manzanares,CALDAS","latitud":5.1882,"longitud":-75.12084,"altitud":1777,"codigo":" ","otras_divi":" ","año":1983,"n_comunida":0,"n_PSE":0,"comunidade":" ","PSE":" ","pob_servid":0,"viv_servid":0,"financiami":" ","monto_fina":" ","monto_reha":" ","tipo_grave":"SI","tipo_bombe":"NO","tipo_pozo_":"NO","tipo_agua_":"NO","agua_epoca":"NO","agua_epo_1":"SI","capt_n":1,"capt_tipo_":"Quebrada","capt_cauda":0,"capt_cau_1":" ","capt_estad":1,"capt_abcd":"A","cond_n":1,"cond_estad":1,"cond_abcd":"A","trat_n":0,"trat_tipos":" ","trat_estad":1,"trat_abcd":"A","almc_n":1,"almc_volum":20000,"almc_vol_1":"LITROS","almc_limpi":1,"almc_lim_1":"MESES","almc_estad":0.850000024,"almc_abcd":"B","dist_n":1,"dist_horas":24,"dist_conex":22,"dist_micro":0,"dist_mic_1":0,"dist_dista":" ","dist_estad":1,"dist_abcd":"A","caudal":0.5,"caudal_ud":"LITROS POR SEGUNDO","cloro":"No se realiza","filtracion":"Sí, de maner mayoritaria","cloro_resi":0,"cloro_re_1":"MILIGRAMOS POR LITRO","cloro_fech":1536364800000,"pasa_colif":"No pasa","fecha_coli":1536364800000,"pasa_fisic":"No pasa","fecha_fisi":1536364800000,"eiaaut":0,"eiainf":0.960200012,"eiazpa":0.400000006,"eiastr":0.5,"eia":0.46509999,"fuente_nom":" ","fuente_tip":" ","IVH_cat_hi":"Muy alto","IVH_cat_cc":"Muy alto","IVH_szh":"Río Guarinó","IVH_microc":"Río Guarino","IVH_critic":1,"IVH_crit_1":1}},{"type":"Feature","id":40,"geometry":{"type":"Point","coordinates":[-75.12503,5.17563]},"properties":{"FID":40,"FID_1":202,"fecha_encu":1536278400000,"fecha_vali":" ","nombre":"ABA ASOCIACIÓN DE USUARIOS ACUEDUCTO VEREDA EL CRUCERO","ID":169411,"pais":"Colombia","divisiones":"El Crucero,Manzanares,CALDAS","latitud":5.17563,"longitud":-75.12503,"altitud":1626,"codigo":" ","otras_divi":" ","año":1998,"n_comunida":1,"n_PSE":1,"comunidade":"EL CRUCERO","PSE":"ASOCIACIÓN DE USUARIOS DEL ACUEDUCTO VEREDA EL CRUCERO","pob_servid":95.2857142857,"viv_servid":29,"financiami":" ","monto_fina":" ","monto_reha":" ","tipo_grave":"SI","tipo_bombe":"NO","tipo_pozo_":"NO","tipo_agua_":"NO","agua_epoca":"NO","agua_epo_1":"SI","capt_n":1,"capt_tipo_":"Quebrada","capt_cauda":3,"capt_cau_1":"LITROS POR SEGUNDO","capt_estad":0.699999988,"capt_abcd":"C","cond_n":1,"cond_estad":0.400000006,"cond_abcd":"C","trat_n":0,"trat_tipos":" ","trat_estad":0,"trat_abcd":"D","almc_n":1,"almc_volum":100000,"almc_vol_1":"LITROS","almc_limpi":2,"almc_lim_1":"MESES","almc_estad":0.850000024,"almc_abcd":"B","dist_n":1,"dist_horas":24,"dist_conex":29,"dist_micro":0,"dist_mic_1":0,"dist_dista":" ","dist_estad":0.699999988,"dist_abcd":"C","caudal":3,"caudal_ud":"LITROS POR SEGUNDO","cloro":"No se realiza","filtracion":"Sí, pero no de maner mayoritaria","cloro_resi":0,"cloro_re_1":"MILIGRAMOS POR LITRO","cloro_fech":1536451200000,"pasa_colif":"No pasa","fecha_coli":1536451200000,"pasa_fisic":"No pasa","fecha_fisi":1536451200000,"eiaaut":1,"eiainf":0.638899982,"eiazpa":0.400000006,"eiastr":0.200000003,"eia":0.559700012,"fuente_nom":"Quebrada El Porse","fuente_tip":"Quebrada","IVH_cat_hi":"Muy alto","IVH_cat_cc":"Muy alto","IVH_szh":"Río Guarinó","IVH_microc":"Río Guarino","IVH_critic":1,"IVH_crit_1":1}},{"type":"Feature","id":41,"geometry":{"type":"Point","coordinates":[-75.13066,5.1809]},"properties":{"FID":41,"FID_1":203,"fecha_encu":1535500800000,"fecha_vali":" ","nombre":"ABASTO DE LA VEREDA AGUABONITA","ID":169504,"pais":"Colombia","divisiones":"Agua bonita,Manzanares,CALDAS","latitud":5.1809,"longitud":-75.13066,"altitud":1976,"codigo":" ","otras_divi":" ","año":1963,"n_comunida":2,"n_PSE":1,"comunidade":"AGUA BONITA, AGUABONITA","PSE":"ASOCIACIÓN DE USUARIOS DEL ACUEDUCTO COMUNITARIO DEL CORREGIMIENTO DE AGUA BONITA","pob_servid":288.260869565,"viv_servid":85,"financiami":" ","monto_fina":" ","monto_reha":" ","tipo_grave":"SI","tipo_bombe":"NO","tipo_pozo_":"NO","tipo_agua_":"NO","agua_epoca":"SI","agua_epo_1":"SI","capt_n":1,"capt_tipo_":"Quebrada","capt_cauda":0,"capt_cau_1":" ","capt_estad":1,"capt_abcd":"A","cond_n":4,"cond_estad":1,"cond_abcd":"A","trat_n":0,"trat_tipos":" ","trat_estad":1,"trat_abcd":"A","almc_n":1,"almc_volum":30000,"almc_vol_1":"LITROS","almc_limpi":0.24,"almc_lim_1":"MESES","almc_estad":1,"almc_abcd":"A","dist_n":1,"dist_horas":24,"dist_conex":85,"dist_micro":0,"dist_mic_1":0,"dist_dista":" ","dist_estad":1,"dist_abcd":"A","caudal":2.5,"caudal_ud":"LITROS POR SEGUNDO","cloro":"No se realiza","filtracion":"Sí, de maner mayoritaria","cloro_resi":0,"cloro_re_1":"MILIGRAMOS POR LITRO","cloro_fech":1536537600000,"pasa_colif":"No pasa","fecha_coli":1536537600000,"pasa_fisic":"No pasa","fecha_fisi":1536537600000,"eiaaut":1,"eiainf":1,"eiazpa":0.800000012,"eiastr":0.5,"eia":0.824999988,"fuente_nom":"La Palma","fuente_tip":"Quebrada","IVH_cat_hi":"Muy alto","IVH_cat_cc":"Muy alto","IVH_szh":"Río Guarinó","IVH_microc":"Río Guarino","IVH_critic":1,"IVH_crit_1":1}},{"type":"Feature","id":42,"geometry":{"type":"Point","coordinates":[-75.05104,5.28861]},"properties":{"FID":42,"FID_1":219,"fecha_encu":1537488000000,"fecha_vali":" ","nombre":"ABASTO DE LA VEREDA ALEGRÍAS - MARQUETALIA","ID":170728,"pais":"Colombia","divisiones":"Alegrias,Marquetalia,CALDAS","latitud":5.28861,"longitud":-75.05104,"altitud":1527,"codigo":" ","otras_divi":" ","año":2003,"n_comunida":1,"n_PSE":1,"comunidade":"ALEGRIAS","PSE":"JUNTA ADMINISTRADORA DEL ABASTO DE AGUA ALEGRIAS - MARQUETALIA","pob_servid":74.2682926829,"viv_servid":21,"financiami":"Otros","monto_fina":" ","monto_reha":" ","tipo_grave":"SI","tipo_bombe":"NO","tipo_pozo_":"NO","tipo_agua_":"NO","agua_epoca":"SI","agua_epo_1":"SI","capt_n":1,"capt_tipo_":" ","capt_cauda":7,"capt_cau_1":"LITROS POR SEGUNDO","capt_estad":1,"capt_abcd":"A","cond_n":1,"cond_estad":1,"cond_abcd":"A","trat_n":0,"trat_tipos":" ","trat_estad":0.200000003,"trat_abcd":"D","almc_n":1,"almc_volum":5000,"almc_vol_1":"LITROS","almc_limpi":0.47,"almc_lim_1":"MESES","almc_estad":1,"almc_abcd":"A","dist_n":1,"dist_horas":24,"dist_conex":21,"dist_micro":0,"dist_mic_1":0,"dist_dista":" ","dist_estad":1,"dist_abcd":"A","caudal":1,"caudal_ud":"LITROS POR SEGUNDO","cloro":"No se realiza","filtracion":"Sí, de maner mayoritaria","cloro_resi":0,"cloro_re_1":"MILIGRAMOS POR LITRO","cloro_fech":1538352000000,"pasa_colif":"No pasa","fecha_coli":1538352000000,"pasa_fisic":"No pasa","fecha_fisi":1538352000000,"eiaaut":1,"eiainf":1,"eiazpa":0.800000012,"eiastr":0.5,"eia":0.824999988,"fuente_nom":"Alegrías","fuente_tip":"Quebrada","IVH_cat_hi":"Muy alto","IVH_cat_cc":"Muy alto","IVH_szh":"Río Guarinó","IVH_microc":"Río Guarino","IVH_critic":1,"IVH_crit_1":1}},{"type":"Feature","id":43,"geometry":{"type":"Point","coordinates":[-75.0489,5.28858]},"properties":{"FID":43,"FID_1":220,"fecha_encu":1537401600000,"fecha_vali":" ","nombre":"ABASTO DE LA VEREDA CAMPO ALEGRE","ID":0,"pais":"Colombia","divisiones":"Campo Alegre,Marquetalia,CALDAS","latitud":5.28858,"longitud":-75.0489,"altitud":1515,"codigo":" ","otras_divi":" ","año":1998,"n_comunida":0,"n_PSE":0,"comunidade":" ","PSE":" ","pob_servid":0,"viv_servid":0,"financiami":" ","monto_fina":" ","monto_reha":" ","tipo_grave":"SI","tipo_bombe":"NO","tipo_pozo_":"NO","tipo_agua_":"NO","agua_epoca":"SI","agua_epo_1":"SI","capt_n":1,"capt_tipo_":"Quebrada","capt_cauda":0,"capt_cau_1":" ","capt_estad":1,"capt_abcd":"A","cond_n":1,"cond_estad":1,"cond_abcd":"A","trat_n":0,"trat_tipos":" ","trat_estad":1,"trat_abcd":"A","almc_n":1,"almc_volum":50000,"almc_vol_1":"LITROS","almc_limpi":1,"almc_lim_1":"MESES","almc_estad":1,"almc_abcd":"A","dist_n":1,"dist_horas":24,"dist_conex":18,"dist_micro":0,"dist_mic_1":0,"dist_dista":" ","dist_estad":1,"dist_abcd":"A","caudal":1,"caudal_ud":"LITROS POR SEGUNDO","cloro":"No se realiza","filtracion":"Sí, de maner mayoritaria","cloro_resi":0,"cloro_re_1":"MILIGRAMOS POR LITRO","cloro_fech":1538352000000,"pasa_colif":"No pasa","fecha_coli":1538352000000,"pasa_fisic":"No pasa","fecha_fisi":1538352000000,"eiaaut":0,"eiainf":1,"eiazpa":0.400000006,"eiastr":0.5,"eia":0.474999994,"fuente_nom":" ","fuente_tip":" ","IVH_cat_hi":"Muy alto","IVH_cat_cc":"Muy alto","IVH_szh":"Río Guarinó","IVH_microc":"Río Guarino","IVH_critic":1,"IVH_crit_1":1}},{"type":"Feature","id":44,"geometry":{"type":"Point","coordinates":[-75.04607,5.28583]},"properties":{"FID":44,"FID_1":221,"fecha_encu":1537401600000,"fecha_vali":" ","nombre":"ABASTO DE AGUA  CAMPO ALEGRE","ID":0,"pais":"Colombia","divisiones":"Campo Alegre,Marquetalia,CALDAS","latitud":5.28583,"longitud":-75.04607,"altitud":1419,"codigo":" ","otras_divi":" ","año":1938,"n_comunida":0,"n_PSE":0,"comunidade":" ","PSE":" ","pob_servid":0,"viv_servid":0,"financiami":" ","monto_fina":" ","monto_reha":" ","tipo_grave":"SI","tipo_bombe":"NO","tipo_pozo_":"NO","tipo_agua_":"NO","agua_epoca":"SI","agua_epo_1":"SI","capt_n":1,"capt_tipo_":"Quebrada","capt_cauda":0,"capt_cau_1":" ","capt_estad":1,"capt_abcd":"A","cond_n":1,"cond_estad":1,"cond_abcd":"A","trat_n":0,"trat_tipos":" ","trat_estad":1,"trat_abcd":"A","almc_n":1,"almc_volum":20000,"almc_vol_1":"LITROS","almc_limpi":1,"almc_lim_1":"MESES","almc_estad":1,"almc_abcd":"A","dist_n":1,"dist_horas":24,"dist_conex":8,"dist_micro":0,"dist_mic_1":0,"dist_dista":" ","dist_estad":1,"dist_abcd":"A","caudal":1,"caudal_ud":"LITROS POR SEGUNDO","cloro":"No se realiza","filtracion":"Sí, de maner mayoritaria","cloro_resi":0,"cloro_re_1":"MILIGRAMOS POR LITRO","cloro_fech":1538352000000,"pasa_colif":"No pasa","fecha_coli":1538352000000,"pasa_fisic":"No pasa","fecha_fisi":1538352000000,"eiaaut":0,"eiainf":1,"eiazpa":0.800000012,"eiastr":0.5,"eia":0.574999988,"fuente_nom":" ","fuente_tip":" ","IVH_cat_hi":"Muy alto","IVH_cat_cc":"Muy alto","IVH_szh":"Río Guarinó","IVH_microc":"Río Guarino","IVH_critic":1,"IVH_crit_1":1}},{"type":"Feature","id":45,"geometry":{"type":"Point","coordinates":[-75.50219,5.60229]},"properties":{"FID":45,"FID_1":245,"fecha_encu":1533772800000,"fecha_vali":" ","nombre":"ABASTO DE CACIQUILLO","ID":171604,"pais":"Colombia","divisiones":"Vereda Caciquillo,Aguadas,CALDAS","latitud":5.602294,"longitud":-75.50219,"altitud":1470,"codigo":" ","otras_divi":" ","año":1943,"n_comunida":1,"n_PSE":1,"comunidade":"CACIQUILLO","PSE":"ASOCIACION DE USUARIOS COLECTIVOS DEL ABASTO DE AGUA EL CACIQUILLO","pob_servid":95,"viv_servid":26,"financiami":"Programa Rural","monto_fina":" ","monto_reha":" ","tipo_grave":"SI","tipo_bombe":"NO","tipo_pozo_":"NO","tipo_agua_":"NO","agua_epoca":"SI","agua_epo_1":"SI","capt_n":1,"capt_tipo_":" ","capt_cauda":3,"capt_cau_1":"LITROS POR SEGUNDO","capt_estad":0.699999988,"capt_abcd":"C","cond_n":1,"cond_estad":1,"cond_abcd":"A","trat_n":0,"trat_tipos":" ","trat_estad":1,"trat_abcd":"A","almc_n":1,"almc_volum":25000,"almc_vol_1":"LITROS","almc_limpi":148.42,"almc_lim_1":"MESES","almc_estad":0.5,"almc_abcd":"C","dist_n":1,"dist_horas":24,"dist_conex":26,"dist_micro":0,"dist_mic_1":0,"dist_dista":" ","dist_estad":0.400000006,"dist_abcd":"C","caudal":2,"caudal_ud":"LITROS POR SEGUNDO","cloro":"No se realiza","filtracion":"No","cloro_resi":0,"cloro_re_1":"MILIGRAMOS POR LITRO","cloro_fech":1539302400000,"pasa_colif":"No pasa","fecha_coli":1539302400000,"pasa_fisic":"No pasa","fecha_fisi":1539302400000,"eiaaut":1,"eiainf":0.611699998,"eiazpa":0.800000012,"eiastr":0.5,"eia":0.727900028,"fuente_nom":"Toma Caciquillo","fuente_tip":"Quebrada","IVH_cat_hi":"Alto","IVH_cat_cc":"Alto","IVH_szh":"Río Pacora","IVH_microc":" ","IVH_critic":1,"IVH_crit_1":1}},{"type":"Feature","id":46,"geometry":{"type":"Point","coordinates":[-75.18131,5.17089]},"properties":{"FID":46,"FID_1":246,"fecha_encu":1534982400000,"fecha_vali":" ","nombre":"ABASTO DE AGUA SANTA CLARA","ID":171616,"pais":"Colombia","divisiones":"Vereda Santa Clara,Marulanda,CALDAS","latitud":5.17089,"longitud":-75.181312,"altitud":2121,"codigo":" ","otras_divi":" ","año":2000,"n_comunida":1,"n_PSE":1,"comunidade":"SANTA CLARA","PSE":"GESTION COMUNITARIA VEREDA EL SANTA CLARA","pob_servid":97,"viv_servid":34,"financiami":" ","monto_fina":" ","monto_reha":" ","tipo_grave":"SI","tipo_bombe":"NO","tipo_pozo_":"NO","tipo_agua_":"NO","agua_epoca":"SI","agua_epo_1":"SI","capt_n":1,"capt_tipo_":" ","capt_cauda":2,"capt_cau_1":"LITROS POR SEGUNDO","capt_estad":1,"capt_abcd":"A","cond_n":1,"cond_estad":1,"cond_abcd":"A","trat_n":0,"trat_tipos":" ","trat_estad":0.200000003,"trat_abcd":"D","almc_n":2,"almc_volum":30000,"almc_vol_1":"LITROS","almc_limpi":296.84,"almc_lim_1":"MESES","almc_estad":0.425000012,"almc_abcd":"C","dist_n":1,"dist_horas":24,"dist_conex":34,"dist_micro":0,"dist_mic_1":0,"dist_dista":" ","dist_estad":1,"dist_abcd":"A","caudal":1,"caudal_ud":"LITROS POR SEGUNDO","cloro":"No se realiza","filtracion":"No","cloro_resi":0,"cloro_re_1":"MILIGRAMOS POR LITRO","cloro_fech":1539302400000,"pasa_colif":"No pasa","fecha_coli":1539302400000,"pasa_fisic":"No pasa","fecha_fisi":1539302400000,"eiaaut":1,"eiainf":0.807399988,"eiazpa":1,"eiastr":0.100000001,"eia":0.726800025,"fuente_nom":"QUEBRADA SANTA CLARA","fuente_tip":"Quebrada","IVH_cat_hi":"Muy alto","IVH_cat_cc":"Muy alto","IVH_szh":"Río Guarinó","IVH_microc":"Río Guarino","IVH_critic":1,"IVH_crit_1":1}},{"type":"Feature","id":47,"geometry":{"type":"Point","coordinates":[-75.55956,5.50536]},"properties":{"FID":47,"FID_1":253,"fecha_encu":1527897600000,"fecha_vali":" ","nombre":"ABASTO DE AGUA LA LOMA - MARMATO","ID":171822,"pais":"Colombia","divisiones":"La Loma,Marmato,CALDAS","latitud":5.50536,"longitud":-75.55956,"altitud":1469,"codigo":" ","otras_divi":" ","año":1988,"n_comunida":1,"n_PSE":0,"comunidade":"LA LOMA","PSE":" ","pob_servid":173,"viv_servid":52,"financiami":"Otros","monto_fina":" ","monto_reha":" ","tipo_grave":"SI","tipo_bombe":"NO","tipo_pozo_":"NO","tipo_agua_":"NO","agua_epoca":"SI","agua_epo_1":"SI","capt_n":2,"capt_tipo_":"Quebrada","capt_cauda":5,"capt_cau_1":"LITROS POR SEGUNDO","capt_estad":0.699999988,"capt_abcd":"C","cond_n":2,"cond_estad":0.699999988,"cond_abcd":"C","trat_n":0,"trat_tipos":" ","trat_estad":0.200000003,"trat_abcd":"D","almc_n":1,"almc_volum":27000,"almc_vol_1":"LITROS","almc_limpi":0.51,"almc_lim_1":"MESES","almc_estad":1,"almc_abcd":"A","dist_n":1,"dist_horas":24,"dist_conex":52,"dist_micro":0,"dist_mic_1":0,"dist_dista":" ","dist_estad":0.699999988,"dist_abcd":"C","caudal":5,"caudal_ud":"LITROS POR SEGUNDO","cloro":"No se realiza","filtracion":"Sí, de maner mayoritaria","cloro_resi":0,"cloro_re_1":"MILIGRAMOS POR LITRO","cloro_fech":1539734400000,"pasa_colif":"No pasa","fecha_coli":1539734400000,"pasa_fisic":"No pasa","fecha_fisi":1539734400000,"eiaaut":1,"eiainf":0.765299976,"eiazpa":0.600000024,"eiastr":0.5,"eia":0.716300011,"fuente_nom":"Los Chorros","fuente_tip":"Quebrada","IVH_cat_hi":"Alto","IVH_cat_cc":"Alto","IVH_szh":"Río Pacora","IVH_microc":"Quebrada Papayal","IVH_critic":1,"IVH_crit_1":1}},{"type":"Feature","id":48,"geometry":{"type":"Point","coordinates":[-74.71123,5.33947]},"properties":{"FID":48,"FID_1":260,"fecha_encu":1538611200000,"fecha_vali":" ","nombre":"PUNTO DE SUMINISTRO VEREDA LA BOCANA","ID":0,"pais":"Colombia","divisiones":"La Bocana,La Dorada,CALDAS","latitud":5.33947,"longitud":-74.71123,"altitud":195,"codigo":" ","otras_divi":" ","año":1988,"n_comunida":0,"n_PSE":0,"comunidade":" ","PSE":" ","pob_servid":0,"viv_servid":0,"financiami":" ","monto_fina":" ","monto_reha":" ","tipo_grave":"NO","tipo_bombe":"SI","tipo_pozo_":"NO","tipo_agua_":"NO","agua_epoca":"SI","agua_epo_1":"SI","capt_n":1,"capt_tipo_":"Pozo Perforado","capt_cauda":0,"capt_cau_1":" ","capt_estad":1,"capt_abcd":"A","cond_n":1,"cond_estad":1,"cond_abcd":"A","trat_n":0,"trat_tipos":" ","trat_estad":0,"trat_abcd":"D","almc_n":1,"almc_volum":2000,"almc_vol_1":"LITROS","almc_limpi":0,"almc_lim_1":"MESES","almc_estad":0.200000003,"almc_abcd":"D","dist_n":1,"dist_horas":24,"dist_conex":4,"dist_micro":0,"dist_mic_1":0,"dist_dista":" ","dist_estad":0.699999988,"dist_abcd":"C","caudal":1,"caudal_ud":"LITROS POR SEGUNDO","cloro":"No se realiza","filtracion":"Sí, de maner mayoritaria","cloro_resi":0,"cloro_re_1":"MILIGRAMOS POR LITRO","cloro_fech":1539734400000,"pasa_colif":"No pasa","fecha_coli":1539734400000,"pasa_fisic":"No pasa","fecha_fisi":1539734400000,"eiaaut":0,"eiainf":0.611699998,"eiazpa":0.600000024,"eiastr":0.5,"eia":0.427899987,"fuente_nom":" ","fuente_tip":" ","IVH_cat_hi":"Alto","IVH_cat_cc":"Alto","IVH_szh":"Aferentes Directos al Magdalena Sur","IVH_microc":"Quebrada Guaduales","IVH_critic":1,"IVH_crit_1":1}},{"type":"Feature","id":49,"geometry":{"type":"Point","coordinates":[-75.06128,5.52231]},"properties":{"FID":49,"FID_1":261,"fecha_encu":1524009600000,"fecha_vali":" ","nombre":"ABASTO DE AGUA CORREGIMIENTO DE FLORENCIA","ID":171927,"pais":"Colombia","divisiones":"Florencia (Corregimiento),Samaná ,CALDAS","latitud":5.52231,"longitud":-75.06128,"altitud":1764,"codigo":" ","otras_divi":" ","año":1954,"n_comunida":1,"n_PSE":1,"comunidade":"CORREGIMIENTO FLORENCIA","PSE":"ASOCIACIÓN DE USUARIOS DEL  ACUEDUCTO CORREGIMIENTO DE FLORENCIA","pob_servid":1015,"viv_servid":408,"financiami":" ","monto_fina":" ","monto_reha":" ","tipo_grave":"SI","tipo_bombe":"NO","tipo_pozo_":"NO","tipo_agua_":"NO","agua_epoca":"SI","agua_epo_1":"SI","capt_n":2,"capt_tipo_":" ","capt_cauda":10,"capt_cau_1":"LITROS POR SEGUNDO","capt_estad":1,"capt_abcd":"A","cond_n":1,"cond_estad":1,"cond_abcd":"A","trat_n":1,"trat_tipos":"Filtración lenta","trat_estad":1,"trat_abcd":"A","almc_n":3,"almc_volum":235000,"almc_vol_1":"LITROS","almc_limpi":148.42,"almc_lim_1":"MESES","almc_estad":0.5,"almc_abcd":"C","dist_n":1,"dist_horas":24,"dist_conex":408,"dist_micro":408,"dist_mic_1":408,"dist_dista":" ","dist_estad":1,"dist_abcd":"A","caudal":8,"caudal_ud":"LITROS POR SEGUNDO","cloro":"No se realiza","filtracion":"No","cloro_resi":0,"cloro_re_1":"MILIGRAMOS POR LITRO","cloro_fech":1539820800000,"pasa_colif":"No pasa","fecha_coli":1539820800000,"pasa_fisic":"No pasa","fecha_fisi":1539820800000,"eiaaut":1,"eiainf":0.840900004,"eiazpa":1,"eiastr":0.5,"eia":0.835200012,"fuente_nom":"Nacimiento Selva de Florencia","fuente_tip":"Fuente","IVH_cat_hi":"Muy alto","IVH_cat_cc":"Muy alto","IVH_szh":"Río Samana Sur","IVH_microc":"Río Claro","IVH_critic":1,"IVH_crit_1":1}},{"type":"Feature","id":50,"geometry":{"type":"Point","coordinates":[-75.09804,5.39103]},"properties":{"FID":50,"FID_1":275,"fecha_encu":1528416000000,"fecha_vali":" ","nombre":"ABASTO LA LINDA, LA QUIEBRA, SAN DANIEL","ID":173010,"pais":"Colombia","divisiones":"San Daniel (Corregimiento),Pensilvania,CALDAS","latitud":5.39103,"longitud":-75.09804,"altitud":1951,"codigo":" ","otras_divi":" ","año":1975,"n_comunida":3,"n_PSE":3,"comunidade":"CENTRO POBLADO SAN DANIEL, LA LINDA, VILLARAZ ALTO","PSE":"AUSC ASOCIACIÓN DE USUARIOS COLECTIVOS DE LA LINDA LA QUIEBRA SAN DANIEL, AUSC ASOCIACIÓN DE USUARIOS COLECTIVOS DE LA LINDA LA QUIEBRA SAN DANIEL, AUSC ASOCIACIÓN DE USUARIOS COLECTIVOS DE LA LINDA LA QUIEBRA SAN DANIEL","pob_servid":580.436619718,"viv_servid":192,"financiami":" ","monto_fina":" ","monto_reha":" ","tipo_grave":"SI","tipo_bombe":"NO","tipo_pozo_":"NO","tipo_agua_":"NO","agua_epoca":"SI","agua_epo_1":"SI","capt_n":1,"capt_tipo_":" ","capt_cauda":22,"capt_cau_1":"LITROS POR SEGUNDO","capt_estad":1,"capt_abcd":"A","cond_n":1,"cond_estad":1,"cond_abcd":"A","trat_n":0,"trat_tipos":" ","trat_estad":1,"trat_abcd":"A","almc_n":3,"almc_volum":224000,"almc_vol_1":"LITROS","almc_limpi":148.42,"almc_lim_1":"MESES","almc_estad":0.449999988,"almc_abcd":"C","dist_n":1,"dist_horas":24,"dist_conex":330,"dist_micro":280,"dist_mic_1":0,"dist_dista":" ","dist_estad":1,"dist_abcd":"A","caudal":21,"caudal_ud":"LITROS POR SEGUNDO","cloro":"No se realiza","filtracion":"No","cloro_resi":0,"cloro_re_1":"MILIGRAMOS POR LITRO","cloro_fech":1543190400000,"pasa_colif":"No pasa","fecha_coli":1543190400000,"pasa_fisic":"No pasa","fecha_fisi":1543190400000,"eiaaut":1,"eiainf":0.819000006,"eiazpa":1,"eiastr":0.5,"eia":0.829699993,"fuente_nom":"QUEBRADA LA LINDA","fuente_tip":"Quebrada","IVH_cat_hi":"Muy alto","IVH_cat_cc":"Muy alto","IVH_szh":"Río La Miel","IVH_microc":"Río Tenerife","IVH_critic":1,"IVH_crit_1":1}},{"type":"Feature","id":51,"geometry":{"type":"Point","coordinates":[-75.0683,5.41807]},"properties":{"FID":51,"FID_1":276,"fecha_encu":1539993600000,"fecha_vali":" ","nombre":"PUNTO DE SUMINISTRO LA ARGELIA","ID":173023,"pais":"Colombia","divisiones":"La Argelia,Samaná ,CALDAS","latitud":5.41807,"longitud":-75.0683,"altitud":1695,"codigo":" ","otras_divi":" ","año":2008,"n_comunida":1,"n_PSE":1,"comunidade":"LA ARGELIA","PSE":"AUSC LA ARGELIA","pob_servid":84,"viv_servid":24,"financiami":" ","monto_fina":" ","monto_reha":" ","tipo_grave":"SI","tipo_bombe":"NO","tipo_pozo_":"NO","tipo_agua_":"NO","agua_epoca":"SI","agua_epo_1":"SI","capt_n":1,"capt_tipo_":"Quebrada","capt_cauda":1.8,"capt_cau_1":"LITROS POR SEGUNDO","capt_estad":1,"capt_abcd":"A","cond_n":1,"cond_estad":1,"cond_abcd":"A","trat_n":0,"trat_tipos":" ","trat_estad":0,"trat_abcd":"D","almc_n":1,"almc_volum":20000,"almc_vol_1":"LITROS","almc_limpi":12,"almc_lim_1":"MESES","almc_estad":0.699999988,"almc_abcd":"C","dist_n":1,"dist_horas":24,"dist_conex":18,"dist_micro":0,"dist_mic_1":0,"dist_dista":" ","dist_estad":1,"dist_abcd":"A","caudal":0.5,"caudal_ud":"LITROS POR SEGUNDO","cloro":"No se realiza","filtracion":"No","cloro_resi":0,"cloro_re_1":"MILIGRAMOS POR LITRO","cloro_fech":1543276800000,"pasa_colif":"No pasa","fecha_coli":1543276800000,"pasa_fisic":"No pasa","fecha_fisi":1543276800000,"eiaaut":1,"eiainf":0.914699972,"eiazpa":0.800000012,"eiastr":0,"eia":0.67869997,"fuente_nom":"TOMA LA ARGELIA","fuente_tip":"Quebrada","IVH_cat_hi":"Muy alto","IVH_cat_cc":"Muy alto","IVH_szh":"Río La Miel","IVH_microc":"Río Tenerife","IVH_critic":1,"IVH_crit_1":1}},{"type":"Feature","id":52,"geometry":{"type":"Point","coordinates":[-75.21732,5.20781]},"properties":{"FID":52,"FID_1":282,"fecha_encu":1533772800000,"fecha_vali":" ","nombre":"ABASTO DE AGUA DEL CENTRO POBLADO SAN FELIX","ID":173114,"pais":"Colombia","divisiones":"Centro Poblado San Felix,Salamina,CALDAS","latitud":5.20781,"longitud":-75.21732,"altitud":2914,"codigo":" ","otras_divi":" ","año":1970,"n_comunida":1,"n_PSE":1,"comunidade":"SAN FELIX","PSE":"A.U.S.C. AGUAS EL PARAISO ( SAN FELIX)","pob_servid":1800,"viv_servid":489,"financiami":"Programas del departamento","monto_fina":" ","monto_reha":" ","tipo_grave":"SI","tipo_bombe":"NO","tipo_pozo_":"NO","tipo_agua_":"NO","agua_epoca":"SI","agua_epo_1":"SI","capt_n":1,"capt_tipo_":" ","capt_cauda":18,"capt_cau_1":"LITROS POR SEGUNDO","capt_estad":1,"capt_abcd":"A","cond_n":1,"cond_estad":1,"cond_abcd":"A","trat_n":1,"trat_tipos":"Filtración lenta","trat_estad":1,"trat_abcd":"A","almc_n":3,"almc_volum":114000,"almc_vol_1":"LITROS","almc_limpi":148.42,"almc_lim_1":"MESES","almc_estad":0.5,"almc_abcd":"C","dist_n":1,"dist_horas":24,"dist_conex":489,"dist_micro":0,"dist_mic_1":0,"dist_dista":" ","dist_estad":1,"dist_abcd":"A","caudal":12,"caudal_ud":"LITROS POR SEGUNDO","cloro":"No se realiza","filtracion":"No","cloro_resi":0,"cloro_re_1":"MILIGRAMOS POR LITRO","cloro_fech":1543449600000,"pasa_colif":"No pasa","fecha_coli":1543449600000,"pasa_fisic":"No pasa","fecha_fisi":1543449600000,"eiaaut":1,"eiainf":0.840900004,"eiazpa":0.600000024,"eiastr":0.5,"eia":0.735199988,"fuente_nom":"Quebrada Cañadahonda","fuente_tip":"Quebrada","IVH_cat_hi":"Muy alto","IVH_cat_cc":"Muy alto","IVH_szh":"Río Guarinó","IVH_microc":"Río Guarino","IVH_critic":1,"IVH_crit_1":1}},{"type":"Feature","id":53,"geometry":{"type":"Point","coordinates":[-75.37218,5.28323]},"properties":{"FID":53,"FID_1":296,"fecha_encu":1527897600000,"fecha_vali":" ","nombre":"ABASTO REGIONAL SAN JUAN","ID":173728,"pais":"Colombia","divisiones":"San Juan,Marmato,CALDAS","latitud":5.28323,"longitud":-75.37218,"altitud":1775,"codigo":" ","otras_divi":" ","año":2012,"n_comunida":1,"n_PSE":1,"comunidade":"SAN JUAN","PSE":"ASOCIACIÓN DE USUARIOS DE SERVICIOS COLECTIVOS SAN JUAN","pob_servid":1116.73766816,"viv_servid":305,"financiami":"Otros","monto_fina":" ","monto_reha":" ","tipo_grave":"SI","tipo_bombe":"NO","tipo_pozo_":"NO","tipo_agua_":"NO","agua_epoca":"NO","agua_epo_1":"SI","capt_n":1,"capt_tipo_":"Quebrada","capt_cauda":8,"capt_cau_1":"LITROS POR SEGUNDO","capt_estad":0.699999988,"capt_abcd":"C","cond_n":2,"cond_estad":1,"cond_abcd":"A","trat_n":4,"trat_tipos":"Sedimentación, Sedimentación, Sedimentación, Sedimentación","trat_estad":1,"trat_abcd":"A","almc_n":1,"almc_volum":56000,"almc_vol_1":"LITROS","almc_limpi":0.47,"almc_lim_1":"MESES","almc_estad":1,"almc_abcd":"A","dist_n":1,"dist_horas":24,"dist_conex":305,"dist_micro":100,"dist_mic_1":0,"dist_dista":" ","dist_estad":1,"dist_abcd":"A","caudal":5,"caudal_ud":"LITROS POR SEGUNDO","cloro":"No se realiza","filtracion":"Sí, de maner mayoritaria","cloro_resi":0,"cloro_re_1":"MILIGRAMOS POR LITRO","cloro_fech":1544572800000,"pasa_colif":"No pasa","fecha_coli":1544572800000,"pasa_fisic":"No pasa","fecha_fisi":1544572800000,"eiaaut":1,"eiainf":0.914699972,"eiazpa":1,"eiastr":0.5,"eia":0.853699982,"fuente_nom":"El Obispo","fuente_tip":"Quebrada","IVH_cat_hi":"Alto","IVH_cat_cc":"Alto","IVH_szh":"Río Pozo","IVH_microc":"Río Pocito","IVH_critic":1,"IVH_crit_1":1}}]}