{"type":"FeatureCollection","name":"EEP_FAJA_PROTECTORA_ARAUCA","crs":{"type":"name","properties":{"name":"urn:ogc:def:crs:OGC:1.3:CRS84"}},"features":[{"type":"Feature","id":2,"geometry":{"type":"Polygon","coordinates":[[[-75.70404,5.11452],[-75.70411,5.11433],[-75.70406,5.11416],[-75.70402,5.11398],[-75.70402,5.11384],[-75.704,5.11364],[-75.70399,5.11345],[-75.70397,5.1133],[-75.70396,5.11323],[-75.70395,5.11318],[-75.70395,5.11315],[-75.70395,5.11313],[-75.70392,5.11291],[-75.70391,5.11287],[-75.70391,5.11272],[-75.70389,5.11263],[-75.70389,5.11254],[-75.70389,5.11251],[-75.70389,5.11249],[-75.70388,5.11234],[-75.70386,5.11221],[-75.70385,5.11212],[-75.70381,5.11201],[-75.7038,5.11193],[-75.70382,5.11187],[-75.70381,5.11183],[-75.7038,5.11177],[-75.7038,5.11175],[-75.70379,5.11164],[-75.70378,5.1115],[-75.70376,5.11128],[-75.70375,5.111],[-75.70376,5.11084],[-75.70375,5.11057],[-75.70377,5.11049],[-75.70377,5.11049],[-75.70375,5.11036],[-75.70374,5.11029],[-75.70373,5.11026],[-75.70371,5.11017],[-75.70371,5.11017],[-75.70365,5.11003],[-75.70362,5.10993],[-75.70358,5.10988],[-75.70355,5.10979],[-75.70352,5.10964],[-75.70352,5.10957],[-75.70352,5.10951],[-75.70352,5.10948],[-75.70351,5.10946],[-75.70351,5.10944],[-75.70351,5.10943],[-75.70351,5.10943],[-75.7035,5.10937],[-75.7035,5.10935],[-75.7035,5.10935],[-75.7035,5.10935],[-75.7035,5.10935],[-75.70348,5.10931],[-75.70347,5.1093],[-75.70347,5.1093],[-75.70345,5.10924],[-75.70344,5.10921],[-75.70344,5.10921],[-75.70344,5.1092],[-75.70344,5.10916],[-75.70344,5.10912],[-75.70344,5.10907],[-75.70344,5.10902],[-75.70344,5.10898],[-75.70344,5.10891],[-75.70345,5.10886],[-75.70346,5.10881],[-75.70346,5.1088],[-75.70347,5.10878],[-75.70347,5.10877],[-75.70347,5.10877],[-75.70347,5.10877],[-75.70347,5.10876],[-75.70347,5.10876],[-75.70348,5.10875],[-75.70348,5.10874],[-75.70348,5.10873],[-75.70349,5.1087],[-75.70349,5.1087],[-75.70348,5.10858],[-75.70349,5.10847],[-75.70349,5.10846],[-75.70353,5.10838],[-75.70353,5.10836],[-75.70353,5.10828],[-75.70348,5.10818],[-75.70348,5.10818],[-75.70348,5.10816],[-75.70348,5.10816],[-75.70348,5.10815],[-75.70348,5.10815],[-75.70348,5.10809],[-75.70348,5.10809],[-75.70349,5.10798],[-75.7035,5.10789],[-75.70352,5.10743],[-75.70352,5.10731],[-75.70352,5.10712],[-75.70352,5.10712],[-75.7035,5.10706],[-75.70348,5.10702],[-75.70348,5.10692],[-75.70346,5.10682],[-75.70344,5.10672],[-75.70339,5.10659],[-75.70338,5.10655],[-75.70327,5.10634],[-75.70323,5.10627],[-75.70323,5.10627],[-75.70323,5.10626],[-75.70296,5.10593],[-75.70296,5.10592],[-75.70296,5.10592],[-75.70296,5.10591],[-75.70261,5.10567],[-75.70258,5.1057],[-75.70258,5.1057],[-75.70259,5.10571],[-75.7026,5.10572],[-75.7026,5.10572],[-75.7026,5.10573],[-75.70262,5.10575],[-75.70266,5.10577],[-75.70267,5.10578],[-75.7027,5.10578],[-75.70271,5.10579],[-75.70273,5.1058],[-75.70274,5.10582],[-75.70274,5.10583],[-75.70275,5.10585],[-75.70276,5.10589],[-75.70278,5.10592],[-75.7028,5.10594],[-75.70281,5.10595],[-75.70283,5.10597],[-75.70284,5.10601],[-75.70284,5.10601],[-75.70285,5.10606],[-75.70285,5.1061],[-75.70286,5.10612],[-75.70286,5.10613],[-75.70287,5.10614],[-75.70287,5.10615],[-75.70288,5.10616],[-75.70288,5.10616],[-75.70289,5.10617],[-75.7029,5.10621],[-75.70291,5.10621],[-75.70291,5.10622],[-75.70291,5.10622],[-75.70293,5.10626],[-75.70293,5.10627],[-75.70294,5.10628],[-75.70296,5.10631],[-75.70296,5.10632],[-75.70297,5.10633],[-75.70297,5.10633],[-75.70297,5.10634],[-75.70297,5.10634],[-75.70299,5.10639],[-75.70299,5.1064],[-75.70299,5.10641],[-75.70301,5.10645],[-75.70302,5.10647],[-75.70302,5.10647],[-75.70302,5.10647],[-75.70302,5.10649],[-75.70302,5.1065],[-75.70303,5.10651],[-75.70303,5.10651],[-75.70304,5.10651],[-75.70306,5.10652],[-75.70306,5.10652],[-75.70307,5.10654],[-75.70308,5.10655],[-75.70309,5.10656],[-75.70309,5.10657],[-75.70309,5.10657],[-75.7031,5.10658],[-75.7031,5.10659],[-75.70314,5.1066],[-75.70317,5.10662],[-75.70319,5.10665],[-75.7032,5.10666],[-75.70323,5.1067],[-75.70323,5.10671],[-75.70323,5.10671],[-75.70323,5.10671],[-75.70329,5.10686],[-75.70333,5.10697],[-75.70333,5.10698],[-75.70333,5.10704],[-75.70333,5.10704],[-75.70333,5.10704],[-75.70333,5.10704],[-75.70333,5.10705],[-75.70333,5.10706],[-75.70333,5.10709],[-75.70333,5.1071],[-75.70333,5.1072],[-75.70332,5.10722],[-75.70332,5.10722],[-75.7033,5.10729],[-75.7033,5.1073],[-75.70329,5.10732],[-75.70328,5.10735],[-75.70326,5.10743],[-75.70326,5.10744],[-75.70326,5.10744],[-75.70325,5.10746],[-75.70324,5.10749],[-75.70323,5.10753],[-75.70323,5.10755],[-75.70322,5.1076],[-75.70322,5.10766],[-75.70322,5.10769],[-75.70322,5.1077],[-75.70322,5.1077],[-75.70323,5.10772],[-75.70323,5.10774],[-75.70323,5.10775],[-75.70324,5.10778],[-75.70324,5.10778],[-75.70326,5.10783],[-75.70327,5.10786],[-75.70327,5.10787],[-75.70327,5.10789],[-75.70328,5.10794],[-75.70328,5.10795],[-75.70328,5.10796],[-75.70328,5.10797],[-75.70328,5.10797],[-75.70328,5.10799],[-75.70329,5.10805],[-75.70329,5.10807],[-75.7033,5.1081],[-75.7033,5.10811],[-75.7033,5.10812],[-75.7033,5.10814],[-75.7033,5.10815],[-75.7033,5.10815],[-75.7033,5.10816],[-75.7033,5.10816],[-75.7033,5.10818],[-75.7033,5.10819],[-75.7033,5.10825],[-75.7033,5.1083],[-75.7033,5.10838],[-75.7033,5.10839],[-75.7033,5.10847],[-75.7033,5.1085],[-75.7033,5.10856],[-75.7033,5.1086],[-75.7033,5.10861],[-75.7033,5.10861],[-75.70329,5.10862],[-75.70328,5.10864],[-75.70327,5.10866],[-75.70327,5.10868],[-75.70326,5.10869],[-75.70326,5.10869],[-75.70324,5.10873],[-75.70321,5.10877],[-75.70321,5.10878],[-75.70319,5.10881],[-75.70318,5.10883],[-75.70319,5.10885],[-75.70322,5.10892],[-75.70324,5.10898],[-75.70328,5.10902],[-75.7033,5.10904],[-75.7033,5.10904],[-75.70332,5.10907],[-75.70334,5.10909],[-75.70334,5.1091],[-75.70335,5.10911],[-75.70336,5.10912],[-75.70335,5.10915],[-75.70335,5.10918],[-75.70335,5.1092],[-75.70335,5.1092],[-75.70334,5.10922],[-75.70334,5.10922],[-75.70334,5.10923],[-75.70334,5.10929],[-75.70334,5.10932],[-75.70334,5.10934],[-75.70334,5.10934],[-75.70334,5.10934],[-75.70333,5.10939],[-75.70333,5.1094],[-75.70333,5.1094],[-75.70333,5.10942],[-75.70333,5.10942],[-75.7033,5.10946],[-75.70327,5.10947],[-75.70327,5.10947],[-75.70326,5.10948],[-75.70326,5.10948],[-75.70326,5.10948],[-75.70325,5.10949],[-75.70324,5.1095],[-75.70324,5.1095],[-75.70318,5.10951],[-75.70318,5.10951],[-75.70316,5.10953],[-75.70313,5.10954],[-75.70312,5.10956],[-75.70312,5.10957],[-75.70307,5.10963],[-75.70307,5.10963],[-75.70307,5.10963],[-75.70308,5.10964],[-75.7031,5.10965],[-75.7031,5.10966],[-75.70311,5.10966],[-75.70311,5.10966],[-75.70315,5.10967],[-75.70316,5.10967],[-75.70318,5.10969],[-75.70318,5.10969],[-75.70319,5.1097],[-75.70319,5.1097],[-75.7032,5.10971],[-75.70321,5.10973],[-75.70321,5.10975],[-75.70321,5.10975],[-75.70321,5.10976],[-75.70321,5.10976],[-75.7032,5.10981],[-75.7032,5.10988],[-75.7032,5.10988],[-75.7032,5.10989],[-75.7032,5.10991],[-75.7032,5.10993],[-75.7032,5.10994],[-75.70321,5.10995],[-75.70323,5.10999],[-75.70324,5.10999],[-75.70324,5.11],[-75.70327,5.11002],[-75.70328,5.11002],[-75.7033,5.11004],[-75.7033,5.11004],[-75.7033,5.11004],[-75.70333,5.11008],[-75.70335,5.11011],[-75.70337,5.11015],[-75.70338,5.11016],[-75.70341,5.1102],[-75.70344,5.11025],[-75.70345,5.11025],[-75.70346,5.11027],[-75.70347,5.11028],[-75.70349,5.11029],[-75.70349,5.1103],[-75.70352,5.11033],[-75.70353,5.11036],[-75.70353,5.11036],[-75.70353,5.11045],[-75.70353,5.11047],[-75.70352,5.11051],[-75.70352,5.11051],[-75.70352,5.11052],[-75.70351,5.11052],[-75.70351,5.11053],[-75.70346,5.1106],[-75.70345,5.11062],[-75.70345,5.11062],[-75.70345,5.11064],[-75.70344,5.11067],[-75.70344,5.11071],[-75.70344,5.11071],[-75.70344,5.11071],[-75.70344,5.11072],[-75.70344,5.11073],[-75.70344,5.11074],[-75.70345,5.11077],[-75.70346,5.11082],[-75.70346,5.11083],[-75.70346,5.11084],[-75.70348,5.11088],[-75.70351,5.11095],[-75.70351,5.11096],[-75.70352,5.11101],[-75.70352,5.11101],[-75.70351,5.11101],[-75.70351,5.11109],[-75.7035,5.1111],[-75.70349,5.11112],[-75.70346,5.11113],[-75.70341,5.11112],[-75.7034,5.11113],[-75.70339,5.11115],[-75.70339,5.11116],[-75.70339,5.11116],[-75.70339,5.11117],[-75.70339,5.11117],[-75.7034,5.11119],[-75.7034,5.11119],[-75.7034,5.1112],[-75.7034,5.11121],[-75.7034,5.11122],[-75.70339,5.11123],[-75.7034,5.11127],[-75.7034,5.11129],[-75.7034,5.11132],[-75.7034,5.11133],[-75.70338,5.11135],[-75.70336,5.11135],[-75.70334,5.11135],[-75.70334,5.11135],[-75.70332,5.11135],[-75.7033,5.11135],[-75.70328,5.11135],[-75.70328,5.11135],[-75.70328,5.1117],[-75.70328,5.11172],[-75.70328,5.11174],[-75.70328,5.11174],[-75.70328,5.11177],[-75.70328,5.11177],[-75.70329,5.1118],[-75.7033,5.1118],[-75.7033,5.1118],[-75.70331,5.1118],[-75.70334,5.1118],[-75.70334,5.1118],[-75.70337,5.11179],[-75.70339,5.11179],[-75.70339,5.11179],[-75.70339,5.11179],[-75.7034,5.11181],[-75.7034,5.11187],[-75.7034,5.11193],[-75.7034,5.11201],[-75.7034,5.11202],[-75.7034,5.11205],[-75.7034,5.11206],[-75.7034,5.11207],[-75.7034,5.11209],[-75.7034,5.11217],[-75.7034,5.1122],[-75.7034,5.11221],[-75.7034,5.11222],[-75.70341,5.11224],[-75.70341,5.11224],[-75.70344,5.11226],[-75.70344,5.11226],[-75.70345,5.11228],[-75.70346,5.1123],[-75.70346,5.1123],[-75.70346,5.11231],[-75.70347,5.11232],[-75.70347,5.11232],[-75.70348,5.11232],[-75.70348,5.11232],[-75.70349,5.11234],[-75.70349,5.11234],[-75.7035,5.11235],[-75.7035,5.11236],[-75.7035,5.11237],[-75.7035,5.11237],[-75.7035,5.11239],[-75.7035,5.1124],[-75.7035,5.11246],[-75.70351,5.11247],[-75.70351,5.11248],[-75.70351,5.11248],[-75.70351,5.11248],[-75.70351,5.11248],[-75.70351,5.11249],[-75.70351,5.11249],[-75.70351,5.11249],[-75.70351,5.1125],[-75.70351,5.11251],[-75.70351,5.11252],[-75.70351,5.11252],[-75.70351,5.11256],[-75.70351,5.11256],[-75.70352,5.11258],[-75.70352,5.11259],[-75.70356,5.1126],[-75.70356,5.1126],[-75.70359,5.1126],[-75.7036,5.1126],[-75.70362,5.11261],[-75.70362,5.11262],[-75.70363,5.11263],[-75.70363,5.11263],[-75.70363,5.11264],[-75.70363,5.11264],[-75.70363,5.11264],[-75.70363,5.11267],[-75.70363,5.11267],[-75.70363,5.11269],[-75.70363,5.11269],[-75.70363,5.11269],[-75.70369,5.1127],[-75.7037,5.11271],[-75.7037,5.11271],[-75.7037,5.11273],[-75.7037,5.11273],[-75.70369,5.11274],[-75.70369,5.11276],[-75.70368,5.11281],[-75.70368,5.11282],[-75.70368,5.11282],[-75.70367,5.11285],[-75.70368,5.11286],[-75.70368,5.11286],[-75.70365,5.11287],[-75.70364,5.11288],[-75.70362,5.11289],[-75.70362,5.11289],[-75.70361,5.11289],[-75.70359,5.11292],[-75.70358,5.11293],[-75.70356,5.11297],[-75.70354,5.11299],[-75.70354,5.113],[-75.70354,5.113],[-75.70352,5.11302],[-75.70352,5.11303],[-75.70351,5.11304],[-75.70351,5.11307],[-75.70351,5.11307],[-75.70353,5.11318],[-75.70355,5.11328],[-75.70355,5.11331],[-75.70356,5.1134],[-75.70357,5.11342],[-75.70358,5.11342],[-75.70359,5.11345],[-75.7036,5.11346],[-75.7036,5.11346],[-75.70361,5.11352],[-75.70362,5.11354],[-75.70367,5.11374],[-75.70367,5.11374],[-75.70367,5.11374],[-75.70367,5.11374],[-75.70367,5.11375],[-75.70367,5.11375],[-75.70367,5.11376],[-75.70367,5.11376],[-75.70367,5.11376],[-75.70368,5.11379],[-75.70368,5.11379],[-75.70368,5.1138],[-75.70368,5.11381],[-75.70368,5.11381],[-75.70369,5.11382],[-75.70369,5.11384],[-75.70369,5.11385],[-75.7037,5.11386],[-75.7037,5.11387],[-75.7037,5.11388],[-75.7037,5.11388],[-75.70371,5.11391],[-75.70372,5.11394],[-75.70372,5.11396],[-75.70373,5.11398],[-75.70373,5.114],[-75.70373,5.114],[-75.70374,5.11402],[-75.70375,5.11406],[-75.70378,5.11416],[-75.7038,5.11425],[-75.70383,5.11434],[-75.70383,5.11436],[-75.70386,5.11444],[-75.70386,5.11444],[-75.70387,5.11448],[-75.70388,5.11452],[-75.70388,5.11454],[-75.70389,5.11455],[-75.70389,5.11458],[-75.7039,5.1146],[-75.7039,5.11461],[-75.70392,5.11469],[-75.70396,5.11482],[-75.70399,5.11468],[-75.70404,5.11452]]]},"properties":{"OBJECTID_1":2,"Nombre":"Río Cauca","Shape_Length":2233.6028411370926,"Shape_Area":31787.26852705583,"AREA":3.1787268527055828}}]}