{"type":"FeatureCollection","name":"Bosque_Seco_Tropical","crs":{"type":"name","properties":{"name":"urn:ogc:def:crs:OGC:1.3:CRS84"}},"features":[{"type":"Feature","id":14,"geometry":{"type":"Polygon","coordinates":[[[-75.70399,5.11465],[-75.704,5.11466],[-75.70408,5.11442],[-75.70408,5.11438],[-75.70407,5.11439],[-75.70406,5.11439],[-75.70405,5.1144],[-75.70404,5.1144],[-75.70401,5.11439],[-75.70399,5.11438],[-75.70395,5.11437],[-75.70392,5.11439],[-75.70393,5.11442],[-75.70394,5.11446],[-75.70395,5.11447],[-75.70396,5.11447],[-75.70396,5.1145],[-75.70397,5.11455],[-75.70399,5.11465]]]},"properties":{"OBJECTID_12":14,"FID_Distri":2040,"Id":11448,"Clase":"No_bosque","FID_MunCal":25,"DPTO_CCDGO":"17","MPIO_CCDGO":"524","MPIO_CDPMP":"17524","DPTO_CNMBR":"CALDAS","MPIO_CNMBR":"PALESTINA","MPIO_CRSLC":"Ordenanza 19 de 15 de Abril de 1913","MPIO_NAREA":112.230143,"MPIO_CSMBL":"4","MPIO_VGNC":2020,"MPIO_TIPO":"MUNICIPIO","Temp":23.2922634218,"Acuprom":2156.78466107,"Suelostext":3,"SuelosPh":53.8646510093,"SuelosCoAq":27,"SuelosCald":3,"SuelosAren":34.1353489907,"SueloCarb":4,"Suelcapcar":118.123231725,"SuelosArci":39.1042081242,"pmesmin":100.71871314,"pano":2183.76115643,"Etpmesmax":136.459974384,"Etp":1488.65431147,"Escmesmin":7.52165239977,"escmed":22.0212647614,"brillosol":2043.91687741,"Prob_DisPo":"0.929343301057816","Prob_DisAc":"0.683830492198467","POTEN_DESC":"ALTA","TIPO_BST":"B","Shape_Length":84.13499912651251,"Shape_Area":274.2155104532999}},{"type":"Feature","id":15,"geometry":{"type":"Polygon","coordinates":[[[-75.70302,5.11428],[-75.703,5.1143],[-75.70297,5.11431],[-75.70294,5.1143],[-75.70285,5.11432],[-75.70284,5.11427],[-75.70284,5.11425],[-75.70288,5.11423],[-75.70291,5.11421],[-75.70296,5.11421],[-75.703,5.11422],[-75.70303,5.11421],[-75.70309,5.11417],[-75.7031,5.11414],[-75.70304,5.1141],[-75.703,5.11412],[-75.70296,5.11413],[-75.70289,5.1142],[-75.70287,5.11418],[-75.70285,5.11415],[-75.70283,5.11413],[-75.70281,5.11409],[-75.70284,5.11406],[-75.70289,5.11407],[-75.703,5.11405],[-75.70299,5.11403],[-75.70295,5.11399],[-75.70296,5.11395],[-75.703,5.11392],[-75.70305,5.11393],[-75.70306,5.11394],[-75.70311,5.11392],[-75.70315,5.11394],[-75.70319,5.11398],[-75.70319,5.114],[-75.70313,5.11405],[-75.70317,5.1141],[-75.70319,5.11411],[-75.70323,5.11409],[-75.70328,5.11405],[-75.70333,5.11406],[-75.70336,5.11406],[-75.7034,5.11413],[-75.70341,5.1142],[-75.70341,5.11422],[-75.70345,5.11426],[-75.70353,5.11426],[-75.70352,5.11414],[-75.70349,5.11407],[-75.70352,5.11398],[-75.70349,5.1139],[-75.70342,5.11371],[-75.70335,5.11351],[-75.70335,5.11329],[-75.70334,5.11306],[-75.70346,5.11306],[-75.70352,5.11332],[-75.70363,5.11371],[-75.70374,5.11411],[-75.70377,5.11415],[-75.70382,5.11425],[-75.70382,5.11426],[-75.70383,5.1143],[-75.70384,5.11432],[-75.70386,5.11434],[-75.70388,5.11432],[-75.70387,5.11428],[-75.70387,5.11423],[-75.70388,5.1142],[-75.70391,5.11419],[-75.70391,5.11418],[-75.70394,5.11417],[-75.70397,5.11417],[-75.70399,5.11416],[-75.704,5.11414],[-75.70401,5.1141],[-75.70404,5.11408],[-75.70405,5.11411],[-75.70405,5.11414],[-75.70407,5.11416],[-75.70411,5.11418],[-75.70411,5.11416],[-75.70403,5.11388],[-75.70393,5.11337],[-75.70384,5.11322],[-75.70387,5.11243],[-75.70384,5.11226],[-75.70385,5.11179],[-75.70381,5.11164],[-75.70383,5.11141],[-75.70379,5.1111],[-75.70381,5.11101],[-75.70381,5.11098],[-75.70381,5.11072],[-75.70381,5.11064],[-75.70377,5.11052],[-75.70374,5.11029],[-75.70368,5.11005],[-75.70361,5.10981],[-75.70361,5.1097],[-75.70356,5.10953],[-75.70356,5.10945],[-75.70347,5.1093],[-75.70347,5.10906],[-75.70351,5.10892],[-75.7035,5.1088],[-75.70348,5.10858],[-75.70349,5.10847],[-75.70353,5.10838],[-75.70353,5.10834],[-75.70357,5.10822],[-75.70363,5.10807],[-75.70362,5.1081],[-75.70358,5.10815],[-75.70354,5.10819],[-75.70352,5.10821],[-75.7035,5.10822],[-75.70348,5.10824],[-75.70347,5.10825],[-75.70345,5.10825],[-75.70343,5.10824],[-75.70341,5.10823],[-75.7034,5.10821],[-75.70337,5.10817],[-75.70334,5.10811],[-75.70322,5.10787],[-75.70318,5.10778],[-75.70316,5.10772],[-75.70316,5.1077],[-75.70315,5.10764],[-75.70314,5.10759],[-75.70315,5.10751],[-75.70316,5.10742],[-75.70322,5.10718],[-75.70323,5.10712],[-75.70324,5.10706],[-75.70324,5.107],[-75.70324,5.10691],[-75.7032,5.10647],[-75.70319,5.10635],[-75.7032,5.1063],[-75.7032,5.10628],[-75.7032,5.10626],[-75.70321,5.10626],[-75.70322,5.10625],[-75.70307,5.10606],[-75.70305,5.10607],[-75.70299,5.10607],[-75.70281,5.10605],[-75.70272,5.10605],[-75.7027,5.10605],[-75.70267,5.10606],[-75.70264,5.10607],[-75.70262,5.10608],[-75.7026,5.1061],[-75.70256,5.10614],[-75.70252,5.10618],[-75.70246,5.10625],[-75.70239,5.10635],[-75.70235,5.1064],[-75.70234,5.10641],[-75.70237,5.10648],[-75.70237,5.10659],[-75.70233,5.10664],[-75.7023,5.10667],[-75.70218,5.10671],[-75.70218,5.1067],[-75.70217,5.10671],[-75.7021,5.10678],[-75.70201,5.10687],[-75.70192,5.10695],[-75.70191,5.10698],[-75.70192,5.10698],[-75.70191,5.10701],[-75.70187,5.107],[-75.70175,5.1071],[-75.70175,5.10717],[-75.70175,5.10718],[-75.70174,5.10719],[-75.70174,5.10719],[-75.70173,5.10719],[-75.70166,5.10719],[-75.70158,5.10742],[-75.70146,5.10806],[-75.70109,5.10816],[-75.70093,5.10819],[-75.70096,5.1082],[-75.70101,5.10824],[-75.70103,5.10825],[-75.70104,5.10828],[-75.70105,5.1083],[-75.70105,5.10832],[-75.70105,5.10838],[-75.70105,5.10844],[-75.70104,5.1085],[-75.70101,5.10864],[-75.70099,5.10873],[-75.70098,5.10875],[-75.70097,5.10878],[-75.70095,5.1088],[-75.70094,5.10882],[-75.70091,5.10884],[-75.70087,5.10887],[-75.70077,5.10892],[-75.70072,5.10896],[-75.7007,5.10897],[-75.70069,5.109],[-75.70067,5.10902],[-75.70066,5.10905],[-75.70064,5.10911],[-75.70062,5.1092],[-75.70051,5.10972],[-75.70048,5.10981],[-75.70046,5.10986],[-75.70045,5.10989],[-75.70043,5.10991],[-75.70041,5.10993],[-75.70041,5.10993],[-75.70047,5.10995],[-75.70046,5.10998],[-75.70038,5.10996],[-75.7004,5.11016],[-75.70044,5.11017],[-75.70044,5.1102],[-75.70037,5.11018],[-75.70039,5.11057],[-75.70041,5.11062],[-75.70042,5.11067],[-75.70042,5.11068],[-75.70044,5.1107],[-75.70044,5.11074],[-75.70044,5.11076],[-75.70044,5.11079],[-75.70044,5.11081],[-75.70044,5.11084],[-75.70044,5.11085],[-75.70043,5.11089],[-75.70046,5.11089],[-75.70046,5.11092],[-75.70046,5.1111],[-75.70046,5.1111],[-75.70046,5.11113],[-75.70037,5.11113],[-75.70034,5.11132],[-75.70033,5.11136],[-75.70034,5.1115],[-75.70036,5.11155],[-75.70043,5.11179],[-75.70046,5.11187],[-75.70048,5.11192],[-75.7005,5.11195],[-75.70052,5.11197],[-75.70065,5.11197],[-75.70065,5.112],[-75.7007,5.11209],[-75.70073,5.11213],[-75.70078,5.11222],[-75.70085,5.11233],[-75.70101,5.11253],[-75.7011,5.11261],[-75.70121,5.11271],[-75.70133,5.11285],[-75.70143,5.1129],[-75.70152,5.11295],[-75.70162,5.113],[-75.70173,5.11306],[-75.70184,5.11317],[-75.7019,5.11328],[-75.70198,5.1134],[-75.70211,5.11356],[-75.70222,5.11374],[-75.70234,5.11386],[-75.70245,5.114],[-75.70257,5.11414],[-75.70261,5.11419],[-75.70261,5.1142],[-75.70262,5.11421],[-75.70263,5.11423],[-75.70264,5.11425],[-75.70266,5.11427],[-75.70267,5.11428],[-75.70267,5.11428],[-75.70268,5.1143],[-75.70268,5.11431],[-75.70269,5.11431],[-75.7027,5.11434],[-75.70272,5.11444],[-75.70273,5.11447],[-75.70275,5.11453],[-75.70302,5.11428]]]},"properties":{"OBJECTID_12":15,"FID_Distri":2108,"Id":11633,"Clase":"No_bosque","FID_MunCal":25,"DPTO_CCDGO":"17","MPIO_CCDGO":"524","MPIO_CDPMP":"17524","DPTO_CNMBR":"CALDAS","MPIO_CNMBR":"PALESTINA","MPIO_CRSLC":"Ordenanza 19 de 15 de Abril de 1913","MPIO_NAREA":112.230143,"MPIO_CSMBL":"4","MPIO_VGNC":2020,"MPIO_TIPO":"MUNICIPIO","Temp":24.1148840281,"Acuprom":0.166510492474,"Suelostext":4,"SuelosPh":54.7911866253,"SuelosCoAq":24.2160963038,"SuelosCald":1,"SuelosAren":37,"SueloCarb":3,"Suelcapcar":112.033702238,"SuelosArci":38,"pmesmin":102.585933365,"pano":2211.12386467,"Etpmesmax":135.890424502,"Etp":1482.44100577,"Escmesmin":7.66110075506,"escmed":23.0967824148,"brillosol":2040.23564547,"Prob_DisPo":"0.858590913270122","Prob_DisAc":"0.304971164766676","POTEN_DESC":"MEDIA","TIPO_BST":"B","Shape_Length":2903.7049327373325,"Shape_Area":238467.54369550772}},{"type":"Feature","id":16,"geometry":{"type":"Polygon","coordinates":[[[-75.70155,5.1191],[-75.70155,5.11901],[-75.70153,5.11891],[-75.70154,5.11882],[-75.70154,5.11871],[-75.70165,5.11874],[-75.70171,5.11876],[-75.70174,5.11883],[-75.70173,5.1189],[-75.70174,5.11899],[-75.70173,5.11907],[-75.70174,5.1191],[-75.70177,5.1191],[-75.7018,5.11905],[-75.70182,5.11899],[-75.70183,5.11893],[-75.70184,5.11888],[-75.70188,5.11886],[-75.70192,5.11888],[-75.70197,5.11886],[-75.70204,5.11886],[-75.7021,5.11886],[-75.70215,5.11888],[-75.70219,5.1189],[-75.70222,5.11892],[-75.70228,5.1189],[-75.70233,5.11888],[-75.70236,5.11886],[-75.70236,5.11885],[-75.70234,5.11884],[-75.70233,5.11883],[-75.70231,5.11883],[-75.70228,5.11882],[-75.70222,5.11882],[-75.70206,5.11883],[-75.702,5.11883],[-75.70194,5.11882],[-75.70191,5.11881],[-75.70189,5.1188],[-75.70186,5.11879],[-75.70184,5.11877],[-75.70182,5.11875],[-75.7018,5.11873],[-75.70177,5.11868],[-75.7017,5.11856],[-75.70167,5.11852],[-75.70166,5.1185],[-75.70164,5.11849],[-75.70162,5.11848],[-75.70159,5.11848],[-75.70157,5.11848],[-75.70151,5.11849],[-75.7014,5.11853],[-75.70127,5.11858],[-75.70131,5.1186],[-75.70135,5.11862],[-75.70138,5.1187],[-75.70141,5.11876],[-75.7014,5.11879],[-75.70136,5.11885],[-75.7014,5.11889],[-75.70146,5.11896],[-75.70153,5.11907],[-75.70155,5.1191]]]},"properties":{"OBJECTID_12":16,"FID_Distri":6056,"Id":11332,"Clase":"Bosque","FID_MunCal":25,"DPTO_CCDGO":"17","MPIO_CCDGO":"524","MPIO_CDPMP":"17524","DPTO_CNMBR":"CALDAS","MPIO_CNMBR":"PALESTINA","MPIO_CRSLC":"Ordenanza 19 de 15 de Abril de 1913","MPIO_NAREA":112.230143,"MPIO_CSMBL":"4","MPIO_VGNC":2020,"MPIO_TIPO":"MUNICIPIO","Temp":23.9896136136,"Acuprom":0.0170793150039,"Suelostext":1,"SuelosPh":56.0578669519,"SuelosCoAq":25.6334469209,"SuelosCald":3,"SuelosAren":33,"SueloCarb":4,"Suelcapcar":114.366553079,"SuelosArci":41.3665530791,"pmesmin":100.167890447,"pano":2182.23797757,"Etpmesmax":132.343335633,"Etp":1443.74538655,"Escmesmin":7.48053757157,"escmed":23.3970807842,"brillosol":2022.32142404,"Prob_DisPo":"0.770961942798213","Prob_DisAc":"0.78026532009244","POTEN_DESC":"BAJA","TIPO_BST":"B","Shape_Length":408.227998370082,"Shape_Area":2334.029576718129}},{"type":"Feature","id":17,"geometry":{"type":"Polygon","coordinates":[[[-75.70004,5.11842],[-75.69994,5.11849],[-75.69993,5.1185],[-75.69993,5.11851],[-75.69993,5.11852],[-75.69994,5.11853],[-75.70004,5.1186],[-75.70004,5.11842]]]},"properties":{"OBJECTID_12":17,"FID_Distri":6057,"Id":11333,"Clase":"Bosque","FID_MunCal":25,"DPTO_CCDGO":"17","MPIO_CCDGO":"524","MPIO_CDPMP":"17524","DPTO_CNMBR":"CALDAS","MPIO_CNMBR":"PALESTINA","MPIO_CRSLC":"Ordenanza 19 de 15 de Abril de 1913","MPIO_NAREA":112.230143,"MPIO_CSMBL":"4","MPIO_VGNC":2020,"MPIO_TIPO":"MUNICIPIO","Temp":23.9816998221,"Acuprom":0.137502727258,"Suelostext":2.74395884125,"SuelosPh":56,"SuelosCoAq":25,"SuelosCald":1,"SuelosAren":34,"SueloCarb":4,"Suelcapcar":117.743958841,"SuelosArci":40.2560411587,"pmesmin":99.5334843596,"pano":2176.82801057,"Etpmesmax":132.064302857,"Etp":1440.70144737,"Escmesmin":7.4331166716,"escmed":23.3226624444,"brillosol":2020.16299482,"Prob_DisPo":"0.751715317368507","Prob_DisAc":"0.693997099995613","POTEN_DESC":"BAJA","TIPO_BST":"A","Shape_Length":52.60016131945896,"Shape_Area":138.36665732134634}},{"type":"Feature","id":18,"geometry":{"type":"Polygon","coordinates":[[[-75.6995,5.11671],[-75.69965,5.11671],[-75.69967,5.11671],[-75.69967,5.11671],[-75.69968,5.11671],[-75.69968,5.11669],[-75.69968,5.11662],[-75.69954,5.11662],[-75.69952,5.11662],[-75.69951,5.11663],[-75.6995,5.11663],[-75.6995,5.11664],[-75.6995,5.11671]]]},"properties":{"OBJECTID_12":18,"FID_Distri":6071,"Id":11386,"Clase":"Bosque","FID_MunCal":25,"DPTO_CCDGO":"17","MPIO_CCDGO":"524","MPIO_CDPMP":"17524","DPTO_CNMBR":"CALDAS","MPIO_CNMBR":"PALESTINA","MPIO_CRSLC":"Ordenanza 19 de 15 de Abril de 1913","MPIO_NAREA":112.230143,"MPIO_CSMBL":"4","MPIO_VGNC":2020,"MPIO_TIPO":"MUNICIPIO","Temp":23.9560648051,"Acuprom":0,"Suelostext":3,"SuelosPh":56,"SuelosCoAq":24,"SuelosCald":1,"SuelosAren":35,"SueloCarb":4,"Suelcapcar":114,"SuelosArci":40,"pmesmin":98.9313009729,"pano":2170.80718444,"Etpmesmax":131.861404007,"Etp":1438.48799116,"Escmesmin":7.38814439665,"escmed":23.2016146092,"brillosol":2017.77102306,"Prob_DisPo":"0.746848165988922","Prob_DisAc":"0.742547929286957","POTEN_DESC":"BAJA","TIPO_BST":"B","Shape_Length":57.98397013471824,"Shape_Area":198.0150006471336}},{"type":"Feature","id":19,"geometry":{"type":"MultiPolygon","coordinates":[[[[-75.70046,5.11637],[-75.70051,5.11638],[-75.70054,5.11638],[-75.70056,5.11638],[-75.70059,5.11637],[-75.7006,5.11637],[-75.70045,5.11635],[-75.70037,5.11634],[-75.70046,5.11637]]],[[[-75.69968,5.11631],[-75.69968,5.11662],[-75.69996,5.11644],[-75.70006,5.11637],[-75.70013,5.11633],[-75.70015,5.11632],[-75.69992,5.1163],[-75.69968,5.11631]]]]},"properties":{"OBJECTID_12":19,"FID_Distri":6079,"Id":11420,"Clase":"Bosque","FID_MunCal":25,"DPTO_CCDGO":"17","MPIO_CCDGO":"524","MPIO_CDPMP":"17524","DPTO_CNMBR":"CALDAS","MPIO_CNMBR":"PALESTINA","MPIO_CRSLC":"Ordenanza 19 de 15 de Abril de 1913","MPIO_NAREA":112.230143,"MPIO_CSMBL":"4","MPIO_VGNC":2020,"MPIO_TIPO":"MUNICIPIO","Temp":23.9500036341,"Acuprom":0.0561421237869,"Suelostext":2,"SuelosPh":56,"SuelosCoAq":24.7730181022,"SuelosCald":3,"SuelosAren":33,"SueloCarb":4,"Suelcapcar":116,"SuelosArci":41.7730181022,"pmesmin":98.996905685,"pano":2171.11575956,"Etpmesmax":131.879351765,"Etp":1438.68384053,"Escmesmin":7.39300974068,"escmed":23.205162344,"brillosol":2017.47819422,"Prob_DisPo":"0.705267489839483","Prob_DisAc":"0.798440296907683","POTEN_DESC":"BAJA","TIPO_BST":"B","Shape_Length":199.18126173401978,"Shape_Area":951.6108023261512}},{"type":"Feature","id":20,"geometry":{"type":"MultiPolygon","coordinates":[[[[-75.70088,5.1082],[-75.70061,5.10899],[-75.70045,5.10951],[-75.70046,5.10955],[-75.70042,5.10971],[-75.70039,5.10974],[-75.70037,5.10978],[-75.70038,5.10992],[-75.70041,5.10993],[-75.70041,5.10993],[-75.70043,5.10991],[-75.70045,5.10989],[-75.70046,5.10986],[-75.70048,5.10981],[-75.70051,5.10972],[-75.70062,5.1092],[-75.70064,5.10911],[-75.70066,5.10905],[-75.70067,5.10902],[-75.70069,5.109],[-75.7007,5.10897],[-75.70072,5.10896],[-75.70077,5.10892],[-75.70087,5.10887],[-75.70091,5.10884],[-75.70094,5.10882],[-75.70095,5.1088],[-75.70097,5.10878],[-75.70098,5.10875],[-75.70099,5.10873],[-75.70101,5.10864],[-75.70104,5.1085],[-75.70105,5.10844],[-75.70105,5.10838],[-75.70105,5.10832],[-75.70105,5.1083],[-75.70104,5.10828],[-75.70103,5.10825],[-75.70101,5.10824],[-75.70096,5.1082],[-75.70093,5.10819],[-75.70088,5.1082]]],[[[-75.70039,5.11063],[-75.70039,5.11063],[-75.70042,5.11068],[-75.70042,5.11067],[-75.70041,5.11062],[-75.70039,5.11057],[-75.70039,5.11063]]],[[[-75.70044,5.11085],[-75.70044,5.11084],[-75.70044,5.11081],[-75.70044,5.11079],[-75.70044,5.11076],[-75.70044,5.11074],[-75.70044,5.11085]]],[[[-75.70035,5.11154],[-75.70035,5.11158],[-75.70037,5.11176],[-75.70037,5.1118],[-75.70039,5.11198],[-75.70052,5.11197],[-75.7005,5.11195],[-75.70048,5.11192],[-75.70046,5.11187],[-75.70043,5.11179],[-75.70036,5.11155],[-75.70034,5.1115],[-75.70035,5.11154]]]]},"properties":{"OBJECTID_12":20,"FID_Distri":6107,"Id":11570,"Clase":"Bosque","FID_MunCal":25,"DPTO_CCDGO":"17","MPIO_CCDGO":"524","MPIO_CDPMP":"17524","DPTO_CNMBR":"CALDAS","MPIO_CNMBR":"PALESTINA","MPIO_CRSLC":"Ordenanza 19 de 15 de Abril de 1913","MPIO_NAREA":112.230143,"MPIO_CSMBL":"4","MPIO_VGNC":2020,"MPIO_TIPO":"MUNICIPIO","Temp":23.9365996461,"Acuprom":0.99547904942,"Suelostext":1,"SuelosPh":54,"SuelosCoAq":25.195940044,"SuelosCald":3,"SuelosAren":32.5576218209,"SueloCarb":3,"Suelcapcar":119.557621821,"SuelosArci":41.5576218209,"pmesmin":99.2026093933,"pano":2172.79555107,"Etpmesmax":133.977813782,"Etp":1461.57611014,"Escmesmin":7.40843545858,"escmed":22.5313422272,"brillosol":2027.43903511,"Prob_DisPo":"0.789781098090889","Prob_DisAc":"0.867536906929726","POTEN_DESC":"BAJA","TIPO_BST":"A","Shape_Length":605.9032788335812,"Shape_Area":3534.271178913577}},{"type":"Feature","id":21,"geometry":{"type":"Polygon","coordinates":[[[-75.70322,5.10625],[-75.70321,5.10626],[-75.7032,5.10626],[-75.7032,5.10628],[-75.7032,5.1063],[-75.70319,5.10635],[-75.7032,5.10647],[-75.70324,5.10691],[-75.70324,5.107],[-75.70324,5.10706],[-75.70323,5.10712],[-75.70322,5.10718],[-75.70316,5.10742],[-75.70315,5.10751],[-75.70314,5.10759],[-75.70315,5.10764],[-75.70316,5.1077],[-75.70316,5.10772],[-75.70318,5.10778],[-75.70322,5.10787],[-75.70334,5.10811],[-75.70337,5.10817],[-75.7034,5.10821],[-75.70341,5.10823],[-75.70343,5.10824],[-75.70345,5.10825],[-75.70347,5.10825],[-75.70348,5.10824],[-75.7035,5.10822],[-75.70352,5.10821],[-75.70354,5.10819],[-75.70358,5.10815],[-75.70362,5.1081],[-75.70363,5.10807],[-75.70365,5.10802],[-75.70365,5.10769],[-75.70364,5.10746],[-75.70359,5.10739],[-75.70352,5.10726],[-75.70352,5.10683],[-75.70351,5.10675],[-75.70334,5.10644],[-75.70333,5.10643],[-75.7033,5.10635],[-75.70322,5.10625]]]},"properties":{"OBJECTID_12":21,"FID_Distri":6112,"Id":11582,"Clase":"Bosque","FID_MunCal":25,"DPTO_CCDGO":"17","MPIO_CCDGO":"524","MPIO_CDPMP":"17524","DPTO_CNMBR":"CALDAS","MPIO_CNMBR":"PALESTINA","MPIO_CRSLC":"Ordenanza 19 de 15 de Abril de 1913","MPIO_NAREA":112.230143,"MPIO_CSMBL":"4","MPIO_VGNC":2020,"MPIO_TIPO":"MUNICIPIO","Temp":23.5495847365,"Acuprom":1245.65412521,"Suelostext":4,"SuelosPh":55,"SuelosCoAq":27,"SuelosCald":3,"SuelosAren":36,"SueloCarb":3,"Suelcapcar":122,"SuelosArci":39,"pmesmin":101.861904755,"pano":2197.70439658,"Etpmesmax":136.955025588,"Etp":1494.05483281,"Escmesmin":7.60701604104,"escmed":22.2934510849,"brillosol":2040.69773216,"Prob_DisPo":"0.877671820538066","Prob_DisAc":"0.817613822873682","POTEN_DESC":"MEDIA","TIPO_BST":"A","Shape_Length":476.0059633009632,"Shape_Area":7630.732960400041}},{"type":"Feature","id":22,"geometry":{"type":"Polygon","coordinates":[[[-75.70287,5.11418],[-75.70289,5.1142],[-75.70296,5.11413],[-75.703,5.11412],[-75.70304,5.1141],[-75.7031,5.11414],[-75.70309,5.11417],[-75.70303,5.11421],[-75.703,5.11422],[-75.70296,5.11421],[-75.70291,5.11421],[-75.70288,5.11423],[-75.70284,5.11425],[-75.70284,5.11427],[-75.70285,5.11432],[-75.70294,5.1143],[-75.70297,5.11431],[-75.703,5.1143],[-75.70311,5.11423],[-75.70317,5.11423],[-75.70323,5.1143],[-75.7032,5.11437],[-75.70314,5.11443],[-75.70314,5.11452],[-75.70311,5.11457],[-75.70314,5.11466],[-75.70315,5.11471],[-75.70318,5.11482],[-75.70322,5.11486],[-75.70326,5.11491],[-75.70322,5.11495],[-75.70322,5.115],[-75.70323,5.1151],[-75.70323,5.11517],[-75.70319,5.11524],[-75.70316,5.11527],[-75.70305,5.11537],[-75.70301,5.11544],[-75.70303,5.11557],[-75.70307,5.11565],[-75.70313,5.1157],[-75.70323,5.11581],[-75.70327,5.1159],[-75.70327,5.11598],[-75.70329,5.11607],[-75.70319,5.11618],[-75.70313,5.11634],[-75.70314,5.11644],[-75.70317,5.11659],[-75.70323,5.11678],[-75.70326,5.11688],[-75.70327,5.11699],[-75.70322,5.11705],[-75.70318,5.11712],[-75.70318,5.11724],[-75.70318,5.11726],[-75.70359,5.11711],[-75.70433,5.11684],[-75.70432,5.11679],[-75.70414,5.11619],[-75.70402,5.11575],[-75.7039,5.11528],[-75.7039,5.11528],[-75.70387,5.11516],[-75.70392,5.11496],[-75.70391,5.11495],[-75.70392,5.11494],[-75.70399,5.11468],[-75.704,5.11467],[-75.70399,5.11465],[-75.70397,5.11455],[-75.70396,5.1145],[-75.70396,5.11447],[-75.70395,5.11447],[-75.70394,5.11446],[-75.70393,5.11442],[-75.70392,5.11439],[-75.70395,5.11437],[-75.70399,5.11438],[-75.70401,5.11439],[-75.70404,5.1144],[-75.70405,5.1144],[-75.70406,5.11439],[-75.70407,5.11439],[-75.70408,5.11438],[-75.70408,5.11435],[-75.70408,5.1143],[-75.7041,5.11426],[-75.70411,5.11422],[-75.70411,5.11418],[-75.70407,5.11416],[-75.70405,5.11414],[-75.70405,5.11411],[-75.70404,5.11408],[-75.70401,5.1141],[-75.704,5.11414],[-75.70399,5.11416],[-75.70397,5.11417],[-75.70394,5.11417],[-75.70391,5.11418],[-75.70391,5.11419],[-75.70388,5.1142],[-75.70387,5.11423],[-75.70387,5.11428],[-75.70388,5.11432],[-75.70386,5.11434],[-75.70384,5.11432],[-75.70383,5.1143],[-75.70382,5.11426],[-75.70382,5.11425],[-75.70377,5.11415],[-75.70374,5.11411],[-75.70363,5.11371],[-75.70352,5.11332],[-75.70346,5.11306],[-75.70334,5.11306],[-75.70335,5.11329],[-75.70335,5.11351],[-75.70342,5.11371],[-75.70349,5.1139],[-75.70352,5.11398],[-75.70349,5.11407],[-75.70352,5.11414],[-75.70353,5.11426],[-75.70345,5.11426],[-75.70341,5.11422],[-75.70341,5.1142],[-75.7034,5.11413],[-75.70336,5.11406],[-75.70333,5.11406],[-75.70328,5.11405],[-75.70323,5.11409],[-75.70319,5.11411],[-75.70317,5.1141],[-75.70313,5.11405],[-75.70319,5.114],[-75.70319,5.11398],[-75.70315,5.11394],[-75.70311,5.11392],[-75.70306,5.11394],[-75.70305,5.11393],[-75.703,5.11392],[-75.70296,5.11395],[-75.70295,5.11399],[-75.70299,5.11403],[-75.703,5.11405],[-75.70289,5.11407],[-75.70284,5.11406],[-75.70281,5.11409],[-75.70283,5.11413],[-75.70285,5.11415],[-75.70287,5.11418]]]},"properties":{"OBJECTID_12":22,"FID_Distri":6117,"Id":11602,"Clase":"Bosque","FID_MunCal":25,"DPTO_CCDGO":"17","MPIO_CCDGO":"524","MPIO_CDPMP":"17524","DPTO_CNMBR":"CALDAS","MPIO_CNMBR":"PALESTINA","MPIO_CRSLC":"Ordenanza 19 de 15 de Abril de 1913","MPIO_NAREA":112.230143,"MPIO_CSMBL":"4","MPIO_VGNC":2020,"MPIO_TIPO":"MUNICIPIO","Temp":23.686672924,"Acuprom":0.433135210412,"Suelostext":3,"SuelosPh":56,"SuelosCoAq":26,"SuelosCald":3,"SuelosAren":35,"SueloCarb":4,"Suelcapcar":112,"SuelosArci":39,"pmesmin":101.118523711,"pano":2189.69962585,"Etpmesmax":135.272939144,"Etp":1475.70479085,"Escmesmin":7.55152121856,"escmed":22.6214742337,"brillosol":2040.47662412,"Prob_DisPo":"0.870788922235024","Prob_DisAc":"0.874120646838677","POTEN_DESC":"MEDIA","TIPO_BST":"A","Shape_Length":1459.6975740063476,"Shape_Area":35163.585990842315}},{"type":"Feature","id":23,"geometry":{"type":"MultiPolygon","coordinates":[[[[-75.70232,5.10608],[-75.70232,5.10623],[-75.70233,5.10628],[-75.70233,5.10638],[-75.70234,5.10641],[-75.70235,5.1064],[-75.70239,5.10635],[-75.70246,5.10625],[-75.70252,5.10618],[-75.70256,5.10614],[-75.7026,5.1061],[-75.70262,5.10608],[-75.70264,5.10607],[-75.70267,5.10606],[-75.7027,5.10605],[-75.70272,5.10605],[-75.70281,5.10605],[-75.70299,5.10607],[-75.70305,5.10607],[-75.70307,5.10606],[-75.70296,5.10593],[-75.70296,5.10592],[-75.70296,5.10592],[-75.70296,5.10591],[-75.70281,5.10581],[-75.7028,5.10582],[-75.70275,5.10583],[-75.70274,5.10585],[-75.7027,5.10586],[-75.7027,5.10589],[-75.70268,5.10596],[-75.70262,5.10593],[-75.70257,5.10586],[-75.70253,5.10582],[-75.70251,5.10578],[-75.70251,5.10575],[-75.70245,5.10581],[-75.70244,5.10586],[-75.7024,5.10589],[-75.70239,5.10594],[-75.70235,5.10598],[-75.70232,5.10608]]],[[[-75.70192,5.10695],[-75.70201,5.10687],[-75.7021,5.10678],[-75.70217,5.10671],[-75.70218,5.1067],[-75.70216,5.10658],[-75.70211,5.10657],[-75.70208,5.10675],[-75.70205,5.10681],[-75.70196,5.10679],[-75.70192,5.10695]]],[[[-75.70175,5.1071],[-75.70187,5.107],[-75.70178,5.10698],[-75.70175,5.1071]]]]},"properties":{"OBJECTID_12":23,"FID_Distri":6120,"Id":11614,"Clase":"Bosque","FID_MunCal":25,"DPTO_CCDGO":"17","MPIO_CCDGO":"524","MPIO_CDPMP":"17524","DPTO_CNMBR":"CALDAS","MPIO_CNMBR":"PALESTINA","MPIO_CRSLC":"Ordenanza 19 de 15 de Abril de 1913","MPIO_NAREA":112.230143,"MPIO_CSMBL":"4","MPIO_VGNC":2020,"MPIO_TIPO":"MUNICIPIO","Temp":23.5650849743,"Acuprom":1306.27738491,"Suelostext":1,"SuelosPh":54,"SuelosCoAq":26,"SuelosCald":3,"SuelosAren":34.5797222502,"SueloCarb":4,"Suelcapcar":120,"SuelosArci":41,"pmesmin":102.525769663,"pano":2206.04341394,"Etpmesmax":135.844013452,"Etp":1481.93471192,"Escmesmin":7.65660383116,"escmed":22.9415589273,"brillosol":2032.57521074,"Prob_DisPo":"0.822407901287079","Prob_DisAc":"0.819737015813589","POTEN_DESC":"MEDIA","TIPO_BST":"A","Shape_Length":435.6460524332741,"Shape_Area":2579.3139729869704}},{"type":"Feature","id":24,"geometry":{"type":"Polygon","coordinates":[[[-75.70101,5.11903],[-75.70102,5.11903],[-75.70103,5.11904],[-75.70104,5.11904],[-75.70105,5.11905],[-75.70106,5.11906],[-75.70107,5.11906],[-75.70108,5.11907],[-75.70109,5.11907],[-75.7011,5.11908],[-75.70111,5.11909],[-75.70112,5.11909],[-75.70112,5.1191],[-75.70114,5.11908],[-75.70116,5.11905],[-75.70119,5.119],[-75.70123,5.11889],[-75.70118,5.11888],[-75.70115,5.11886],[-75.70112,5.11878],[-75.70111,5.11882],[-75.70108,5.11888],[-75.70101,5.11903]]]},"properties":{"OBJECTID_12":24,"FID_Distri":6056,"Id":11332,"Clase":"Bosque","FID_MunCal":25,"DPTO_CCDGO":"17","MPIO_CCDGO":"524","MPIO_CDPMP":"17524","DPTO_CNMBR":"CALDAS","MPIO_CNMBR":"PALESTINA","MPIO_CRSLC":"Ordenanza 19 de 15 de Abril de 1913","MPIO_NAREA":112.230143,"MPIO_CSMBL":"4","MPIO_VGNC":2020,"MPIO_TIPO":"MUNICIPIO","Temp":23.9896136136,"Acuprom":0.0170793150039,"Suelostext":1,"SuelosPh":56.0578669519,"SuelosCoAq":25.6334469209,"SuelosCald":3,"SuelosAren":33,"SueloCarb":4,"Suelcapcar":114.366553079,"SuelosArci":41.3665530791,"pmesmin":100.167890447,"pano":2182.23797757,"Etpmesmax":132.343335633,"Etp":1443.74538655,"Escmesmin":7.48053757157,"escmed":23.3970807842,"brillosol":2022.32142404,"Prob_DisPo":"0.770961942798213","Prob_DisAc":"0.78026532009244","POTEN_DESC":"BAJA","TIPO_BST":"B","Shape_Length":89.09592662537155,"Shape_Area":400.0429873032325}},{"type":"Feature","id":25,"geometry":{"type":"Polygon","coordinates":[[[-75.70112,5.11878],[-75.70115,5.11886],[-75.70118,5.11888],[-75.70123,5.11889],[-75.70124,5.11886],[-75.70126,5.11882],[-75.70128,5.1188],[-75.70129,5.11879],[-75.7013,5.1188],[-75.70132,5.1188],[-75.70133,5.11881],[-75.70136,5.11885],[-75.7014,5.11879],[-75.70141,5.11876],[-75.70138,5.1187],[-75.70135,5.11862],[-75.70131,5.1186],[-75.70127,5.11858],[-75.70121,5.1186],[-75.70112,5.11878]]]},"properties":{"OBJECTID_12":25,"FID_Distri":6056,"Id":11332,"Clase":"Bosque","FID_MunCal":25,"DPTO_CCDGO":"17","MPIO_CCDGO":"524","MPIO_CDPMP":"17524","DPTO_CNMBR":"CALDAS","MPIO_CNMBR":"PALESTINA","MPIO_CRSLC":"Ordenanza 19 de 15 de Abril de 1913","MPIO_NAREA":112.230143,"MPIO_CSMBL":"4","MPIO_VGNC":2020,"MPIO_TIPO":"MUNICIPIO","Temp":23.9896136136,"Acuprom":0.0170793150039,"Suelostext":1,"SuelosPh":56.0578669519,"SuelosCoAq":25.6334469209,"SuelosCald":3,"SuelosAren":33,"SueloCarb":4,"Suelcapcar":114.366553079,"SuelosArci":41.3665530791,"pmesmin":100.167890447,"pano":2182.23797757,"Etpmesmax":132.343335633,"Etp":1443.74538655,"Escmesmin":7.48053757157,"escmed":23.3970807842,"brillosol":2022.32142404,"Prob_DisPo":"0.770961942798213","Prob_DisAc":"0.78026532009244","POTEN_DESC":"BAJA","TIPO_BST":"A","Shape_Length":109.42276877672826,"Shape_Area":678.8383557620795}},{"type":"Feature","id":26,"geometry":{"type":"Polygon","coordinates":[[[-75.70163,5.11923],[-75.70165,5.11927],[-75.70169,5.11927],[-75.70174,5.11925],[-75.70179,5.11923],[-75.70183,5.1192],[-75.70188,5.11916],[-75.70191,5.11912],[-75.70194,5.11908],[-75.70197,5.11903],[-75.70199,5.11898],[-75.70199,5.11898],[-75.70206,5.11901],[-75.70214,5.11904],[-75.70216,5.11904],[-75.70209,5.11896],[-75.7021,5.11893],[-75.70207,5.1189],[-75.70202,5.11889],[-75.70196,5.11889],[-75.70192,5.11891],[-75.70189,5.11893],[-75.70186,5.11897],[-75.70186,5.11899],[-75.70185,5.11904],[-75.70184,5.11909],[-75.70183,5.11912],[-75.70182,5.11915],[-75.7018,5.11917],[-75.70176,5.11919],[-75.70174,5.1192],[-75.70168,5.11922],[-75.70165,5.11923],[-75.70163,5.11923]]]},"properties":{"OBJECTID_12":26,"FID_Distri":6056,"Id":11332,"Clase":"Bosque","FID_MunCal":25,"DPTO_CCDGO":"17","MPIO_CCDGO":"524","MPIO_CDPMP":"17524","DPTO_CNMBR":"CALDAS","MPIO_CNMBR":"PALESTINA","MPIO_CRSLC":"Ordenanza 19 de 15 de Abril de 1913","MPIO_NAREA":112.230143,"MPIO_CSMBL":"4","MPIO_VGNC":2020,"MPIO_TIPO":"MUNICIPIO","Temp":23.9896136136,"Acuprom":0.0170793150039,"Suelostext":1,"SuelosPh":56.0578669519,"SuelosCoAq":25.6334469209,"SuelosCald":3,"SuelosAren":33,"SueloCarb":4,"Suelcapcar":114.366553079,"SuelosArci":41.3665530791,"pmesmin":100.167890447,"pano":2182.23797757,"Etpmesmax":132.343335633,"Etp":1443.74538655,"Escmesmin":7.48053757157,"escmed":23.3970807842,"brillosol":2022.32142404,"Prob_DisPo":"0.770961942798213","Prob_DisAc":"0.78026532009244","POTEN_DESC":"BAJA","TIPO_BST":"B","Shape_Length":169.28903922224382,"Shape_Area":613.6668595448831}},{"type":"Feature","id":27,"geometry":{"type":"Polygon","coordinates":[[[-75.70155,5.1191],[-75.70158,5.11915],[-75.70162,5.1192],[-75.70163,5.11923],[-75.70165,5.11923],[-75.70168,5.11922],[-75.70174,5.1192],[-75.70176,5.11919],[-75.7018,5.11917],[-75.70182,5.11915],[-75.70183,5.11912],[-75.70184,5.11909],[-75.70185,5.11904],[-75.70186,5.11899],[-75.70186,5.11897],[-75.70189,5.11893],[-75.70192,5.11891],[-75.70196,5.11889],[-75.70202,5.11889],[-75.70207,5.1189],[-75.7021,5.11893],[-75.70209,5.11896],[-75.70216,5.11904],[-75.70217,5.11904],[-75.7023,5.11894],[-75.70234,5.11891],[-75.70235,5.11889],[-75.70236,5.11888],[-75.70236,5.11886],[-75.70233,5.11888],[-75.70228,5.1189],[-75.70222,5.11892],[-75.70219,5.1189],[-75.70215,5.11888],[-75.7021,5.11886],[-75.70204,5.11886],[-75.70197,5.11886],[-75.70192,5.11888],[-75.70188,5.11886],[-75.70184,5.11888],[-75.70183,5.11893],[-75.70182,5.11899],[-75.7018,5.11905],[-75.70177,5.1191],[-75.70174,5.1191],[-75.70173,5.11907],[-75.70174,5.11899],[-75.70173,5.1189],[-75.70174,5.11883],[-75.70171,5.11876],[-75.70165,5.11874],[-75.70154,5.11871],[-75.70154,5.11882],[-75.70153,5.11891],[-75.70155,5.11901],[-75.70155,5.1191]]]},"properties":{"OBJECTID_12":27,"FID_Distri":6056,"Id":11332,"Clase":"Bosque","FID_MunCal":25,"DPTO_CCDGO":"17","MPIO_CCDGO":"524","MPIO_CDPMP":"17524","DPTO_CNMBR":"CALDAS","MPIO_CNMBR":"PALESTINA","MPIO_CRSLC":"Ordenanza 19 de 15 de Abril de 1913","MPIO_NAREA":112.230143,"MPIO_CSMBL":"4","MPIO_VGNC":2020,"MPIO_TIPO":"MUNICIPIO","Temp":23.9896136136,"Acuprom":0.0170793150039,"Suelostext":1,"SuelosPh":56.0578669519,"SuelosCoAq":25.6334469209,"SuelosCald":3,"SuelosAren":33,"SueloCarb":4,"Suelcapcar":114.366553079,"SuelosArci":41.3665530791,"pmesmin":100.167890447,"pano":2182.23797757,"Etpmesmax":132.343335633,"Etp":1443.74538655,"Escmesmin":7.48053757157,"escmed":23.3970807842,"brillosol":2022.32142404,"Prob_DisPo":"0.770961942798213","Prob_DisAc":"0.78026532009244","POTEN_DESC":"BAJA","TIPO_BST":"A","Shape_Length":331.40420190345054,"Shape_Area":1666.31662142565}},{"type":"Feature","id":28,"geometry":{"type":"Polygon","coordinates":[[[-75.69887,5.11716],[-75.69873,5.11716],[-75.69867,5.11716],[-75.69869,5.11743],[-75.69869,5.11743],[-75.69869,5.11743],[-75.69869,5.11744],[-75.69869,5.11744],[-75.69869,5.11744],[-75.69869,5.11744],[-75.69869,5.11744],[-75.69869,5.11744],[-75.69869,5.11744],[-75.69869,5.11745],[-75.69869,5.11745],[-75.69869,5.11745],[-75.69869,5.11745],[-75.69869,5.11745],[-75.69869,5.11745],[-75.69869,5.11745],[-75.69869,5.11745],[-75.69869,5.11746],[-75.69869,5.11746],[-75.69869,5.11746],[-75.69869,5.11746],[-75.69869,5.11746],[-75.69869,5.11746],[-75.69869,5.11746],[-75.69869,5.11746],[-75.69869,5.11746],[-75.69869,5.11747],[-75.69869,5.11747],[-75.69869,5.11747],[-75.69869,5.11747],[-75.69869,5.11747],[-75.69869,5.11747],[-75.69869,5.11747],[-75.69869,5.11747],[-75.69869,5.11747],[-75.69869,5.11747],[-75.69869,5.11747],[-75.69869,5.11747],[-75.69869,5.11747],[-75.69869,5.11748],[-75.69869,5.11748],[-75.69869,5.11748],[-75.69869,5.11748],[-75.69869,5.11748],[-75.69869,5.11748],[-75.69869,5.11748],[-75.69869,5.11748],[-75.69869,5.11748],[-75.69869,5.11749],[-75.69869,5.11749],[-75.69869,5.11749],[-75.69869,5.11749],[-75.69869,5.11749],[-75.69869,5.11749],[-75.69869,5.11749],[-75.69869,5.11749],[-75.6987,5.1175],[-75.6987,5.1175],[-75.6987,5.1175],[-75.6987,5.1175],[-75.6987,5.1175],[-75.6987,5.1175],[-75.6987,5.1175],[-75.6987,5.11751],[-75.6987,5.11751],[-75.6987,5.11751],[-75.6987,5.11751],[-75.6987,5.11751],[-75.6987,5.11751],[-75.6987,5.11751],[-75.6987,5.11751],[-75.6987,5.11751],[-75.6987,5.11752],[-75.6987,5.11752],[-75.6987,5.11752],[-75.6987,5.11752],[-75.6987,5.11752],[-75.6987,5.11752],[-75.6987,5.11752],[-75.69871,5.11752],[-75.69871,5.11753],[-75.69871,5.11753],[-75.69871,5.11753],[-75.69871,5.11753],[-75.69871,5.11753],[-75.69871,5.11753],[-75.69871,5.11753],[-75.69871,5.11753],[-75.69871,5.11753],[-75.69871,5.11754],[-75.69871,5.11754],[-75.69871,5.11754],[-75.69871,5.11754],[-75.69872,5.11751],[-75.69872,5.11746],[-75.69873,5.11744],[-75.69874,5.11741],[-75.69875,5.11738],[-75.69878,5.11731],[-75.69882,5.11725],[-75.69887,5.11716]]]},"properties":{"OBJECTID_12":28,"FID_Distri":6067,"Id":11367,"Clase":"Bosque","FID_MunCal":25,"DPTO_CCDGO":"17","MPIO_CCDGO":"524","MPIO_CDPMP":"17524","DPTO_CNMBR":"CALDAS","MPIO_CNMBR":"PALESTINA","MPIO_CRSLC":"Ordenanza 19 de 15 de Abril de 1913","MPIO_NAREA":112.230143,"MPIO_CSMBL":"4","MPIO_VGNC":2020,"MPIO_TIPO":"MUNICIPIO","Temp":23.9649949298,"Acuprom":0.0440671177797,"Suelostext":4,"SuelosPh":57,"SuelosCoAq":24,"SuelosCald":1,"SuelosAren":36,"SueloCarb":4,"Suelcapcar":114.809829181,"SuelosArci":40,"pmesmin":98.9184880769,"pano":2171.04176522,"Etpmesmax":132.18354846,"Etp":1442.00237671,"Escmesmin":7.38722452784,"escmed":23.0990370704,"brillosol":2020.04555244,"Prob_DisPo":"0.766217993967461","Prob_DisAc":"0.788966506719589","POTEN_DESC":"BAJA","TIPO_BST":"A","Shape_Length":110.2931296153658,"Shape_Area":394.1441120903512}},{"type":"Feature","id":29,"geometry":{"type":"Polygon","coordinates":[[[-75.70251,5.10575],[-75.70251,5.10578],[-75.70253,5.10582],[-75.70257,5.10586],[-75.70262,5.10593],[-75.70268,5.10596],[-75.7027,5.10589],[-75.7027,5.10586],[-75.70274,5.10585],[-75.70275,5.10583],[-75.7028,5.10582],[-75.70281,5.10581],[-75.70261,5.10567],[-75.70257,5.10571],[-75.70252,5.10574],[-75.70251,5.10575]]]},"properties":{"OBJECTID_12":29,"FID_Distri":6120,"Id":11614,"Clase":"Bosque","FID_MunCal":25,"DPTO_CCDGO":"17","MPIO_CCDGO":"524","MPIO_CDPMP":"17524","DPTO_CNMBR":"CALDAS","MPIO_CNMBR":"PALESTINA","MPIO_CRSLC":"Ordenanza 19 de 15 de Abril de 1913","MPIO_NAREA":112.230143,"MPIO_CSMBL":"4","MPIO_VGNC":2020,"MPIO_TIPO":"MUNICIPIO","Temp":23.5650849743,"Acuprom":1306.27738491,"Suelostext":1,"SuelosPh":54,"SuelosCoAq":26,"SuelosCald":3,"SuelosAren":34.5797222502,"SueloCarb":4,"Suelcapcar":120,"SuelosArci":41,"pmesmin":102.525769663,"pano":2206.04341394,"Etpmesmax":135.844013452,"Etp":1481.93471192,"Escmesmin":7.65660383116,"escmed":22.9415589273,"brillosol":2032.57521074,"Prob_DisPo":"0.822407901287079","Prob_DisAc":"0.819737015813589","POTEN_DESC":"MEDIA","TIPO_BST":"B","Shape_Length":96.48208755708157,"Shape_Area":512.5385037463298}},{"type":"Feature","id":30,"geometry":{"type":"MultiPolygon","coordinates":[[[[-75.70352,5.10683],[-75.70353,5.10677],[-75.70351,5.10675],[-75.70352,5.10683]]],[[[-75.69765,5.11702],[-75.69765,5.11704],[-75.69764,5.11723],[-75.69765,5.11735],[-75.69765,5.11735],[-75.69765,5.11735],[-75.69766,5.11734],[-75.69767,5.11734],[-75.69767,5.11734],[-75.69768,5.11733],[-75.69768,5.11733],[-75.69769,5.11732],[-75.6977,5.11732],[-75.6977,5.11732],[-75.69771,5.11731],[-75.69771,5.11731],[-75.69772,5.11731],[-75.69773,5.1173],[-75.69773,5.1173],[-75.69774,5.1173],[-75.69774,5.1173],[-75.69775,5.11729],[-75.69776,5.11729],[-75.69776,5.11728],[-75.69777,5.11728],[-75.69777,5.11728],[-75.69778,5.11727],[-75.69779,5.11727],[-75.69779,5.11727],[-75.6978,5.11726],[-75.6978,5.11726],[-75.69781,5.11725],[-75.69782,5.11725],[-75.69783,5.11725],[-75.69783,5.11725],[-75.69784,5.11724],[-75.69785,5.11724],[-75.69785,5.11724],[-75.69786,5.11723],[-75.69786,5.11723],[-75.69787,5.11722],[-75.69787,5.11722],[-75.69788,5.11722],[-75.69789,5.11721],[-75.69789,5.11721],[-75.6979,5.11721],[-75.6979,5.1172],[-75.69791,5.1172],[-75.69792,5.11719],[-75.69792,5.11719],[-75.69793,5.11719],[-75.69793,5.11718],[-75.69794,5.11718],[-75.69795,5.11717],[-75.69795,5.11717],[-75.69796,5.11717],[-75.69796,5.11716],[-75.69797,5.11716],[-75.69798,5.11716],[-75.69798,5.11715],[-75.69799,5.11715],[-75.69799,5.11715],[-75.698,5.11714],[-75.69801,5.11714],[-75.69801,5.11713],[-75.69802,5.11713],[-75.69802,5.11713],[-75.69803,5.11712],[-75.69803,5.11712],[-75.69804,5.11711],[-75.69805,5.11711],[-75.69805,5.11711],[-75.69806,5.1171],[-75.69806,5.1171],[-75.69807,5.11709],[-75.69808,5.11709],[-75.69808,5.11709],[-75.69809,5.11708],[-75.69809,5.11708],[-75.6981,5.11707],[-75.69811,5.11707],[-75.69811,5.11707],[-75.69812,5.11706],[-75.69812,5.11706],[-75.69813,5.11705],[-75.69813,5.11705],[-75.69814,5.11704],[-75.69815,5.11704],[-75.69815,5.11704],[-75.69816,5.11703],[-75.69816,5.11703],[-75.69817,5.11702],[-75.69818,5.11702],[-75.69818,5.11702],[-75.69819,5.11701],[-75.69819,5.11701],[-75.6982,5.117],[-75.6982,5.117],[-75.69821,5.117],[-75.69821,5.11699],[-75.69821,5.11699],[-75.69821,5.11699],[-75.69821,5.11699],[-75.69821,5.11699],[-75.69821,5.11698],[-75.69821,5.11698],[-75.69821,5.11698],[-75.69821,5.11698],[-75.69821,5.11698],[-75.69821,5.11698],[-75.69821,5.11697],[-75.69822,5.11697],[-75.69822,5.11697],[-75.69822,5.11697],[-75.69822,5.11697],[-75.69822,5.11697],[-75.69822,5.11696],[-75.69822,5.11696],[-75.69822,5.11696],[-75.69822,5.11696],[-75.69822,5.11696],[-75.69822,5.11696],[-75.69822,5.11696],[-75.69822,5.11695],[-75.69822,5.11695],[-75.69822,5.11695],[-75.69823,5.11695],[-75.69823,5.11695],[-75.69823,5.11695],[-75.69823,5.11694],[-75.69823,5.11694],[-75.69823,5.11694],[-75.69823,5.11694],[-75.69823,5.11694],[-75.69823,5.11694],[-75.69823,5.11693],[-75.69823,5.11693],[-75.69823,5.11693],[-75.69824,5.11693],[-75.69824,5.11693],[-75.69824,5.11693],[-75.69824,5.11693],[-75.69824,5.11692],[-75.69824,5.11692],[-75.69824,5.11692],[-75.69824,5.11692],[-75.69824,5.11692],[-75.69824,5.11692],[-75.69824,5.11692],[-75.69825,5.11691],[-75.69825,5.11691],[-75.69825,5.11691],[-75.69825,5.11691],[-75.69825,5.11691],[-75.69825,5.11691],[-75.69825,5.11691],[-75.69825,5.1169],[-75.69825,5.1169],[-75.69825,5.1169],[-75.69826,5.1169],[-75.69826,5.1169],[-75.69826,5.1169],[-75.69826,5.1169],[-75.69826,5.11689],[-75.69826,5.11689],[-75.69826,5.11689],[-75.69826,5.11689],[-75.69827,5.11689],[-75.69827,5.11689],[-75.69827,5.11689],[-75.69827,5.11689],[-75.69827,5.11688],[-75.69827,5.11688],[-75.69827,5.11688],[-75.69827,5.11688],[-75.69827,5.11688],[-75.69828,5.11688],[-75.69828,5.11688],[-75.69828,5.11688],[-75.69828,5.11687],[-75.69828,5.11687],[-75.69828,5.11687],[-75.69828,5.11687],[-75.69829,5.11687],[-75.69829,5.11687],[-75.69829,5.11687],[-75.69829,5.11687],[-75.69829,5.11687],[-75.69829,5.11686],[-75.69829,5.11686],[-75.69829,5.11686],[-75.6983,5.11686],[-75.6983,5.11686],[-75.6983,5.11686],[-75.6983,5.11686],[-75.6983,5.11686],[-75.6983,5.11685],[-75.6983,5.11685],[-75.69831,5.11685],[-75.69831,5.11685],[-75.69831,5.11685],[-75.69831,5.11685],[-75.69831,5.11685],[-75.69831,5.11685],[-75.69832,5.11685],[-75.69832,5.11685],[-75.69832,5.11684],[-75.69832,5.11684],[-75.69832,5.11684],[-75.69832,5.11684],[-75.69832,5.11684],[-75.69833,5.11684],[-75.69833,5.11684],[-75.69833,5.11684],[-75.69833,5.11684],[-75.69833,5.11684],[-75.69833,5.11684],[-75.69834,5.11683],[-75.69834,5.11683],[-75.69834,5.11683],[-75.69834,5.11683],[-75.69834,5.11683],[-75.69834,5.11683],[-75.69834,5.11683],[-75.69835,5.11683],[-75.69835,5.11683],[-75.69835,5.11683],[-75.69835,5.11683],[-75.69835,5.11683],[-75.69835,5.11683],[-75.69836,5.11683],[-75.69836,5.11682],[-75.69836,5.11682],[-75.69836,5.11682],[-75.69836,5.11682],[-75.69836,5.11682],[-75.69837,5.11682],[-75.69837,5.11682],[-75.69837,5.11682],[-75.69837,5.11682],[-75.69837,5.11682],[-75.69837,5.11682],[-75.69838,5.11682],[-75.69838,5.11682],[-75.69838,5.11682],[-75.69838,5.11682],[-75.69838,5.11682],[-75.69838,5.11682],[-75.69839,5.11681],[-75.69839,5.11681],[-75.69839,5.11681],[-75.69839,5.11681],[-75.69839,5.11681],[-75.6984,5.11681],[-75.6984,5.11681],[-75.6984,5.11681],[-75.6984,5.11681],[-75.6984,5.11681],[-75.6984,5.11681],[-75.6984,5.11681],[-75.69841,5.11681],[-75.69841,5.11681],[-75.69841,5.11681],[-75.69841,5.11681],[-75.69841,5.11681],[-75.69842,5.11681],[-75.69842,5.11681],[-75.69842,5.11681],[-75.69842,5.11681],[-75.69842,5.11681],[-75.69842,5.11681],[-75.69842,5.11674],[-75.69842,5.11617],[-75.69803,5.11607],[-75.69771,5.11599],[-75.69765,5.11702]]],[[[-75.69924,5.11739],[-75.69924,5.11739],[-75.69924,5.11739],[-75.69924,5.11739],[-75.69924,5.11739],[-75.69924,5.11739],[-75.69924,5.1174],[-75.69924,5.1174],[-75.69924,5.1174],[-75.69924,5.1174],[-75.69924,5.1174],[-75.69924,5.1174],[-75.69924,5.1174],[-75.69925,5.1174],[-75.69925,5.1174],[-75.69925,5.1174],[-75.69925,5.1174],[-75.69925,5.11741],[-75.69925,5.11741],[-75.69925,5.11741],[-75.69925,5.11741],[-75.69925,5.11741],[-75.69925,5.11741],[-75.69925,5.11741],[-75.69925,5.11741],[-75.69925,5.11741],[-75.69925,5.11742],[-75.69925,5.11742],[-75.69925,5.11742],[-75.69924,5.11742],[-75.69924,5.11742],[-75.69924,5.11742],[-75.69924,5.11742],[-75.69924,5.11742],[-75.69924,5.11742],[-75.69924,5.11742],[-75.69924,5.11742],[-75.69924,5.11743],[-75.69924,5.11743],[-75.69924,5.11743],[-75.69924,5.11743],[-75.69924,5.11743],[-75.69924,5.11743],[-75.69924,5.11743],[-75.69924,5.11743],[-75.69924,5.11743],[-75.69924,5.11744],[-75.69924,5.11744],[-75.69924,5.11744],[-75.69924,5.11744],[-75.69924,5.11744],[-75.69924,5.11744],[-75.69924,5.11744],[-75.69924,5.11744],[-75.69924,5.11744],[-75.69924,5.11744],[-75.69924,5.11744],[-75.69924,5.11745],[-75.69924,5.11745],[-75.69924,5.11745],[-75.69924,5.11745],[-75.69924,5.11745],[-75.69924,5.11745],[-75.69924,5.11745],[-75.69923,5.11745],[-75.69923,5.11745],[-75.69923,5.11745],[-75.69923,5.11745],[-75.69923,5.11746],[-75.69923,5.11746],[-75.69923,5.11746],[-75.69923,5.11746],[-75.69923,5.11746],[-75.69923,5.11746],[-75.69923,5.11746],[-75.69923,5.11746],[-75.69923,5.11746],[-75.69923,5.11746],[-75.69923,5.11747],[-75.69923,5.11747],[-75.69922,5.11748],[-75.69922,5.11748],[-75.69922,5.11749],[-75.69922,5.11749],[-75.69922,5.1175],[-75.69922,5.1175],[-75.69922,5.11751],[-75.69921,5.11751],[-75.69921,5.11752],[-75.69921,5.11752],[-75.69921,5.11753],[-75.69921,5.11753],[-75.69921,5.11754],[-75.69921,5.11754],[-75.69921,5.11755],[-75.69921,5.11755],[-75.6992,5.11756],[-75.6992,5.11756],[-75.6992,5.11756],[-75.6992,5.11757],[-75.6992,5.11757],[-75.6992,5.11758],[-75.6992,5.11759],[-75.6992,5.11759],[-75.6992,5.1176],[-75.6992,5.1176],[-75.69919,5.11761],[-75.69919,5.11761],[-75.69919,5.11762],[-75.69919,5.11762],[-75.69919,5.11762],[-75.69919,5.11763],[-75.69919,5.11764],[-75.69919,5.11764],[-75.69919,5.11765],[-75.69919,5.11765],[-75.69918,5.11766],[-75.69918,5.11766],[-75.69918,5.11767],[-75.69918,5.11767],[-75.69918,5.11767],[-75.69918,5.11768],[-75.69918,5.11768],[-75.69918,5.11769],[-75.69918,5.1177],[-75.69918,5.1177],[-75.69918,5.11771],[-75.69918,5.11771],[-75.69917,5.11772],[-75.69917,5.11772],[-75.69917,5.11773],[-75.69917,5.11773],[-75.69917,5.11774],[-75.69917,5.11774],[-75.69917,5.11774],[-75.69917,5.11775],[-75.69917,5.11776],[-75.69917,5.11776],[-75.69917,5.11777],[-75.69917,5.11777],[-75.69917,5.11778],[-75.69917,5.11778],[-75.69917,5.11779],[-75.69916,5.11779],[-75.69916,5.11779],[-75.69916,5.1178],[-75.69916,5.11781],[-75.69916,5.11781],[-75.69916,5.11782],[-75.69916,5.11782],[-75.69916,5.11783],[-75.69916,5.11783],[-75.69916,5.11784],[-75.69916,5.11784],[-75.69916,5.11784],[-75.69916,5.11785],[-75.69916,5.11785],[-75.69916,5.11786],[-75.69916,5.11787],[-75.69916,5.11787],[-75.69916,5.11788],[-75.69916,5.11788],[-75.69916,5.11788],[-75.69916,5.11789],[-75.69916,5.11789],[-75.69916,5.11789],[-75.69916,5.1179],[-75.69916,5.1179],[-75.69916,5.11791],[-75.69916,5.11792],[-75.69916,5.11792],[-75.69915,5.11793],[-75.69915,5.11793],[-75.69915,5.11794],[-75.69915,5.11794],[-75.69915,5.11794],[-75.69915,5.11794],[-75.69915,5.11795],[-75.69915,5.11795],[-75.69915,5.11795],[-75.69915,5.11796],[-75.69915,5.11796],[-75.69915,5.11797],[-75.69915,5.11797],[-75.69915,5.11798],[-75.69915,5.11798],[-75.69915,5.11799],[-75.69915,5.11799],[-75.69915,5.118],[-75.69915,5.118],[-75.69915,5.118],[-75.69915,5.11801],[-75.69915,5.11801],[-75.69915,5.11802],[-75.69915,5.11803],[-75.69915,5.11803],[-75.69915,5.11804],[-75.69915,5.11804],[-75.69915,5.11805],[-75.69915,5.11805],[-75.69915,5.11805],[-75.69915,5.11806],[-75.69915,5.11806],[-75.69915,5.11806],[-75.69915,5.11806],[-75.69915,5.11807],[-75.69915,5.11807],[-75.69915,5.11808],[-75.69915,5.11808],[-75.69915,5.11808],[-75.69915,5.11809],[-75.69915,5.11809],[-75.69915,5.1181],[-75.69915,5.1181],[-75.69915,5.11811],[-75.69915,5.11811],[-75.69915,5.11811],[-75.69916,5.11812],[-75.69916,5.11812],[-75.69916,5.11812],[-75.69916,5.11813],[-75.69916,5.11814],[-75.69916,5.11814],[-75.69916,5.11815],[-75.69916,5.11815],[-75.69916,5.11816],[-75.69916,5.11816],[-75.69916,5.11817],[-75.69916,5.11817],[-75.69916,5.11817],[-75.69916,5.11818],[-75.69916,5.11819],[-75.69916,5.11819],[-75.69916,5.11819],[-75.69916,5.1182],[-75.69916,5.1182],[-75.69916,5.1182],[-75.69916,5.1182],[-75.69916,5.11821],[-75.69916,5.11821],[-75.69916,5.11821],[-75.69916,5.11822],[-75.69916,5.11822],[-75.69916,5.11822],[-75.69916,5.11823],[-75.69916,5.11823],[-75.69916,5.11824],[-75.69916,5.11824],[-75.69917,5.11825],[-75.69917,5.11825],[-75.69917,5.11825],[-75.69917,5.11826],[-75.69917,5.11826],[-75.69917,5.11827],[-75.69917,5.11827],[-75.69917,5.11828],[-75.69917,5.11828],[-75.69917,5.11829],[-75.69917,5.1183],[-75.69917,5.1183],[-75.69917,5.11831],[-75.69917,5.11831],[-75.69917,5.11831],[-75.69917,5.11832],[-75.69918,5.11832],[-75.69918,5.11833],[-75.69918,5.11833],[-75.69918,5.11834],[-75.69918,5.11834],[-75.69918,5.11835],[-75.69918,5.11836],[-75.69918,5.11836],[-75.69918,5.11837],[-75.69918,5.11837],[-75.69918,5.11837],[-75.69918,5.11838],[-75.69918,5.11838],[-75.69919,5.11839],[-75.69919,5.11839],[-75.69919,5.1184],[-75.69919,5.11841],[-75.69919,5.11841],[-75.69919,5.11842],[-75.69919,5.11842],[-75.69919,5.11843],[-75.69919,5.11843],[-75.69919,5.11843],[-75.6992,5.11844],[-75.6992,5.11844],[-75.6992,5.11845],[-75.6992,5.11845],[-75.6992,5.11846],[-75.6992,5.11847],[-75.6992,5.11847],[-75.6992,5.11848],[-75.6992,5.11848],[-75.69921,5.11848],[-75.69921,5.11849],[-75.69921,5.11849],[-75.69921,5.1185],[-75.69921,5.1185],[-75.69921,5.11851],[-75.69921,5.11851],[-75.69921,5.11852],[-75.69922,5.11853],[-75.69922,5.11853],[-75.69922,5.11853],[-75.69922,5.11853],[-75.69922,5.11854],[-75.69922,5.11854],[-75.69922,5.11854],[-75.69922,5.11854],[-75.69922,5.11854],[-75.69922,5.11855],[-75.69922,5.11855],[-75.69922,5.11855],[-75.69922,5.11855],[-75.69922,5.11856],[-75.69922,5.11856],[-75.69922,5.11856],[-75.69923,5.11856],[-75.69923,5.11857],[-75.69923,5.11857],[-75.69923,5.11857],[-75.69923,5.11857],[-75.69923,5.11858],[-75.69923,5.11858],[-75.69923,5.11858],[-75.69923,5.11858],[-75.69923,5.11859],[-75.69923,5.11859],[-75.69923,5.11859],[-75.69924,5.11859],[-75.69924,5.1186],[-75.69924,5.1186],[-75.69924,5.1186],[-75.69924,5.1186],[-75.69924,5.11861],[-75.69924,5.11861],[-75.69924,5.11861],[-75.69924,5.11861],[-75.69924,5.11861],[-75.69925,5.11862],[-75.69925,5.11862],[-75.69925,5.11862],[-75.69925,5.11862],[-75.69925,5.11863],[-75.69925,5.11863],[-75.69925,5.11863],[-75.69925,5.11863],[-75.69925,5.11864],[-75.69925,5.11864],[-75.69926,5.11864],[-75.69926,5.11864],[-75.69926,5.11865],[-75.69926,5.11865],[-75.69926,5.11865],[-75.69926,5.11865],[-75.69926,5.11865],[-75.69926,5.11866],[-75.69926,5.11866],[-75.69927,5.11866],[-75.69927,5.11866],[-75.69927,5.11867],[-75.69927,5.11867],[-75.69927,5.11867],[-75.69927,5.11867],[-75.69927,5.11867],[-75.69927,5.11868],[-75.69928,5.11868],[-75.69928,5.11868],[-75.69928,5.11868],[-75.69928,5.11869],[-75.69928,5.11869],[-75.69928,5.11869],[-75.69928,5.11869],[-75.69929,5.1187],[-75.69929,5.1187],[-75.69929,5.1187],[-75.69929,5.1187],[-75.69929,5.1187],[-75.69929,5.11871],[-75.69929,5.11871],[-75.6993,5.11871],[-75.6993,5.11871],[-75.6993,5.11871],[-75.6993,5.11872],[-75.6993,5.11872],[-75.6993,5.11872],[-75.6993,5.11872],[-75.69931,5.11872],[-75.69931,5.11873],[-75.69931,5.11873],[-75.69931,5.11873],[-75.69931,5.11873],[-75.69931,5.11874],[-75.69931,5.11874],[-75.69932,5.11874],[-75.69932,5.11874],[-75.69932,5.11874],[-75.69932,5.11875],[-75.69932,5.11875],[-75.69932,5.11875],[-75.69933,5.11875],[-75.69933,5.11875],[-75.69933,5.11876],[-75.69933,5.11876],[-75.69933,5.11876],[-75.69933,5.11876],[-75.69934,5.11876],[-75.69934,5.11877],[-75.69934,5.11877],[-75.69934,5.11877],[-75.69934,5.11877],[-75.69934,5.11877],[-75.69935,5.11877],[-75.69935,5.11878],[-75.69935,5.11878],[-75.69935,5.11878],[-75.69935,5.11878],[-75.69936,5.11878],[-75.69936,5.11878],[-75.69936,5.11879],[-75.69936,5.11879],[-75.69936,5.11879],[-75.69936,5.11879],[-75.69937,5.11879],[-75.69937,5.1188],[-75.69937,5.1188],[-75.69937,5.1188],[-75.69937,5.1188],[-75.69938,5.1188],[-75.69938,5.11881],[-75.69938,5.11881],[-75.69938,5.11881],[-75.69938,5.11881],[-75.69939,5.11881],[-75.69939,5.11881],[-75.69939,5.11881],[-75.69939,5.11882],[-75.69939,5.11882],[-75.6994,5.11882],[-75.6994,5.11882],[-75.6994,5.11882],[-75.6994,5.11883],[-75.6994,5.11883],[-75.69941,5.11883],[-75.69941,5.11883],[-75.69941,5.11883],[-75.69941,5.11883],[-75.69941,5.11883],[-75.69942,5.11884],[-75.69942,5.11884],[-75.69942,5.11884],[-75.69942,5.11884],[-75.69942,5.11884],[-75.69943,5.11884],[-75.69943,5.11884],[-75.69943,5.11885],[-75.69943,5.11885],[-75.69943,5.11885],[-75.69944,5.11885],[-75.69944,5.11885],[-75.69944,5.11885],[-75.69944,5.11885],[-75.69945,5.11886],[-75.69945,5.11886],[-75.69945,5.11886],[-75.69945,5.11886],[-75.69945,5.11886],[-75.69945,5.11886],[-75.69946,5.11886],[-75.69946,5.11886],[-75.69946,5.11887],[-75.69946,5.11887],[-75.69946,5.11887],[-75.69947,5.11887],[-75.69947,5.11887],[-75.69947,5.11887],[-75.69947,5.11887],[-75.69947,5.11887],[-75.69948,5.11888],[-75.69948,5.11888],[-75.69948,5.11888],[-75.69948,5.11888],[-75.69949,5.11888],[-75.69949,5.11888],[-75.69949,5.11888],[-75.69949,5.11889],[-75.6995,5.11889],[-75.6995,5.11889],[-75.6995,5.11889],[-75.6995,5.11889],[-75.69951,5.11889],[-75.69951,5.11889],[-75.69951,5.11889],[-75.69951,5.11889],[-75.69951,5.11889],[-75.69952,5.1189],[-75.69952,5.1189],[-75.69952,5.1189],[-75.69952,5.1189],[-75.69953,5.1189],[-75.69953,5.1189],[-75.69953,5.1189],[-75.69953,5.1189],[-75.69954,5.1189],[-75.69954,5.11891],[-75.69954,5.11891],[-75.69954,5.11891],[-75.69955,5.11891],[-75.69955,5.11891],[-75.69955,5.11891],[-75.69955,5.11891],[-75.69955,5.11891],[-75.69956,5.11891],[-75.69956,5.11891],[-75.69956,5.11891],[-75.69956,5.11891],[-75.69957,5.11892],[-75.69957,5.11892],[-75.69957,5.11892],[-75.69958,5.11892],[-75.69958,5.11892],[-75.69958,5.11892],[-75.69958,5.11892],[-75.69958,5.11892],[-75.69959,5.11892],[-75.69959,5.11892],[-75.69959,5.11892],[-75.69959,5.11892],[-75.6996,5.11892],[-75.6996,5.11893],[-75.6996,5.11893],[-75.6996,5.11893],[-75.69961,5.11893],[-75.69961,5.11893],[-75.69961,5.11893],[-75.69961,5.11893],[-75.69962,5.11893],[-75.69962,5.11893],[-75.69962,5.11893],[-75.69962,5.11893],[-75.69963,5.11893],[-75.69963,5.11893],[-75.69963,5.11893],[-75.69963,5.11893],[-75.69964,5.11893],[-75.69964,5.11893],[-75.69964,5.11894],[-75.69964,5.11894],[-75.69965,5.11894],[-75.69965,5.11894],[-75.69965,5.11894],[-75.69965,5.11894],[-75.69966,5.11894],[-75.69966,5.11894],[-75.69966,5.11894],[-75.69966,5.11894],[-75.69967,5.11894],[-75.69967,5.11894],[-75.69967,5.11894],[-75.69967,5.11894],[-75.69968,5.11894],[-75.69968,5.11894],[-75.69968,5.11894],[-75.69969,5.11894],[-75.69969,5.11894],[-75.69969,5.11894],[-75.69969,5.11894],[-75.6997,5.11894],[-75.6997,5.11894],[-75.6997,5.11894],[-75.6997,5.11894],[-75.6997,5.11894],[-75.69971,5.11894],[-75.69971,5.11894],[-75.69971,5.11894],[-75.69972,5.11894],[-75.69972,5.11894],[-75.69972,5.11894],[-75.69972,5.11894],[-75.69973,5.11894],[-75.69973,5.11894],[-75.69973,5.11894],[-75.69973,5.11894],[-75.69974,5.11894],[-75.69974,5.11894],[-75.69974,5.11894],[-75.69974,5.11894],[-75.69975,5.11894],[-75.69975,5.11894],[-75.69975,5.11894],[-75.69975,5.11894],[-75.69976,5.11894],[-75.69976,5.11894],[-75.69976,5.11894],[-75.69977,5.11894],[-75.69977,5.11894],[-75.69977,5.11894],[-75.69977,5.11894],[-75.69977,5.11894],[-75.69978,5.11894],[-75.69978,5.11894],[-75.69978,5.11894],[-75.69978,5.11894],[-75.69979,5.11894],[-75.69979,5.11894],[-75.69979,5.11894],[-75.6998,5.11894],[-75.6998,5.11894],[-75.6998,5.11894],[-75.6998,5.11894],[-75.6998,5.11894],[-75.69981,5.11894],[-75.69981,5.11894],[-75.69981,5.11894],[-75.69982,5.11894],[-75.69982,5.11894],[-75.69982,5.11894],[-75.69982,5.11894],[-75.69983,5.11894],[-75.69983,5.11894],[-75.69983,5.11894],[-75.69983,5.11893],[-75.69983,5.11893],[-75.69984,5.11893],[-75.69984,5.11893],[-75.69984,5.11893],[-75.69985,5.11893],[-75.69985,5.11893],[-75.69985,5.11893],[-75.69985,5.11893],[-75.69986,5.11893],[-75.69986,5.11893],[-75.69986,5.11893],[-75.69986,5.11893],[-75.69986,5.11893],[-75.69987,5.11893],[-75.69987,5.11893],[-75.69987,5.11893],[-75.69988,5.11892],[-75.69988,5.11892],[-75.69988,5.11892],[-75.69988,5.11892],[-75.69989,5.11892],[-75.69989,5.11892],[-75.69989,5.11892],[-75.69989,5.11892],[-75.6999,5.11892],[-75.6999,5.11892],[-75.6999,5.11892],[-75.6999,5.11892],[-75.69991,5.11892],[-75.69991,5.11892],[-75.69991,5.11892],[-75.69991,5.11892],[-75.69992,5.11892],[-75.69992,5.11891],[-75.69992,5.11891],[-75.69992,5.11891],[-75.69993,5.11891],[-75.69993,5.11891],[-75.69993,5.11891],[-75.69994,5.11891],[-75.69994,5.11891],[-75.69994,5.11891],[-75.69994,5.11891],[-75.69995,5.11891],[-75.69995,5.11891],[-75.69995,5.11891],[-75.69996,5.1189],[-75.69996,5.1189],[-75.69996,5.1189],[-75.69996,5.1189],[-75.69997,5.1189],[-75.69997,5.1189],[-75.69997,5.1189],[-75.69998,5.1189],[-75.69998,5.1189],[-75.69998,5.1189],[-75.69998,5.11889],[-75.69998,5.11889],[-75.69999,5.11889],[-75.69999,5.11889],[-75.69999,5.11889],[-75.7,5.11889],[-75.7,5.11889],[-75.7,5.11889],[-75.7,5.11889],[-75.70001,5.11889],[-75.70001,5.11888],[-75.70001,5.11888],[-75.70002,5.11888],[-75.70002,5.11888],[-75.70002,5.11888],[-75.70002,5.11888],[-75.70003,5.11888],[-75.70003,5.11888],[-75.70003,5.11888],[-75.70003,5.11887],[-75.70004,5.11887],[-75.70004,5.11887],[-75.70004,5.11887],[-75.70004,5.11887],[-75.70005,5.11887],[-75.70005,5.11887],[-75.70005,5.11887],[-75.70005,5.11886],[-75.70006,5.11886],[-75.70006,5.11886],[-75.70006,5.11886],[-75.70006,5.11886],[-75.70007,5.11886],[-75.70007,5.11886],[-75.70007,5.11885],[-75.70007,5.11885],[-75.70008,5.11885],[-75.70008,5.11885],[-75.70008,5.11885],[-75.70008,5.11885],[-75.70009,5.11885],[-75.70009,5.11884],[-75.70009,5.11884],[-75.70009,5.11884],[-75.7001,5.11884],[-75.7001,5.11884],[-75.7001,5.11884],[-75.7001,5.11884],[-75.70011,5.11883],[-75.70011,5.11883],[-75.70011,5.11883],[-75.70011,5.11883],[-75.70012,5.11883],[-75.70012,5.11883],[-75.70012,5.11883],[-75.70012,5.11882],[-75.70013,5.11882],[-75.70013,5.11882],[-75.70013,5.11882],[-75.70013,5.11882],[-75.70014,5.11881],[-75.70014,5.11881],[-75.70014,5.11881],[-75.70014,5.11881],[-75.70014,5.11881],[-75.70015,5.11881],[-75.70015,5.11881],[-75.70015,5.1188],[-75.70015,5.1188],[-75.70015,5.1188],[-75.70016,5.1188],[-75.70016,5.1188],[-75.70016,5.11879],[-75.70016,5.11879],[-75.70017,5.11879],[-75.70017,5.11879],[-75.70017,5.11879],[-75.70017,5.11879],[-75.70018,5.11878],[-75.70018,5.11878],[-75.70018,5.11878],[-75.70018,5.11878],[-75.70019,5.11878],[-75.70019,5.11878],[-75.70019,5.11877],[-75.70019,5.11877],[-75.70019,5.11877],[-75.7002,5.11877],[-75.7002,5.11877],[-75.7002,5.11876],[-75.7002,5.11876],[-75.7002,5.11876],[-75.70021,5.11876],[-75.70021,5.11876],[-75.70021,5.11875],[-75.70021,5.11875],[-75.70021,5.11875],[-75.70022,5.11875],[-75.70019,5.11873],[-75.70012,5.11867],[-75.70008,5.11864],[-75.70005,5.11861],[-75.70004,5.1186],[-75.69994,5.11853],[-75.69993,5.11852],[-75.69993,5.11851],[-75.69993,5.1185],[-75.69994,5.11849],[-75.70004,5.11842],[-75.70006,5.11798],[-75.70007,5.11757],[-75.70007,5.11749],[-75.70008,5.11746],[-75.70009,5.11743],[-75.7001,5.11741],[-75.70011,5.1174],[-75.70013,5.11739],[-75.70015,5.11739],[-75.70017,5.11738],[-75.70023,5.11739],[-75.70031,5.1174],[-75.70037,5.11741],[-75.7004,5.11741],[-75.70046,5.1174],[-75.70055,5.11739],[-75.70064,5.11736],[-75.70069,5.11734],[-75.70074,5.11732],[-75.70077,5.1173],[-75.70079,5.11728],[-75.7008,5.11726],[-75.70082,5.11724],[-75.70085,5.11718],[-75.70089,5.1171],[-75.70097,5.11691],[-75.70101,5.11682],[-75.70103,5.11677],[-75.70104,5.11671],[-75.70104,5.11668],[-75.70104,5.11665],[-75.70103,5.11659],[-75.701,5.11644],[-75.701,5.1164],[-75.70084,5.11639],[-75.7006,5.11637],[-75.70059,5.11637],[-75.70056,5.11638],[-75.70054,5.11638],[-75.70051,5.11638],[-75.70046,5.11637],[-75.70037,5.11634],[-75.70034,5.11634],[-75.70015,5.11632],[-75.70013,5.11633],[-75.70006,5.11637],[-75.69996,5.11644],[-75.69968,5.11662],[-75.69968,5.11669],[-75.69968,5.11671],[-75.69967,5.11671],[-75.69967,5.11671],[-75.69965,5.11671],[-75.6995,5.11671],[-75.69951,5.11684],[-75.6995,5.11691],[-75.6995,5.11695],[-75.69949,5.11698],[-75.69947,5.11701],[-75.69944,5.11705],[-75.69939,5.1171],[-75.69935,5.11713],[-75.69932,5.11715],[-75.6993,5.11716],[-75.69925,5.11716],[-75.69917,5.11717],[-75.69887,5.11716],[-75.69882,5.11725],[-75.69878,5.11731],[-75.69875,5.11738],[-75.69874,5.11741],[-75.69873,5.11744],[-75.69872,5.11746],[-75.69872,5.11751],[-75.69871,5.11754],[-75.69871,5.11754],[-75.69871,5.11754],[-75.69872,5.11754],[-75.69872,5.11754],[-75.69872,5.11754],[-75.69872,5.11755],[-75.69872,5.11755],[-75.69872,5.11755],[-75.69872,5.11755],[-75.69872,5.11755],[-75.69872,5.11755],[-75.69872,5.11755],[-75.69872,5.11755],[-75.69872,5.11755],[-75.69872,5.11755],[-75.69872,5.11755],[-75.69872,5.11755],[-75.69872,5.11755],[-75.69873,5.11756],[-75.69873,5.11756],[-75.69873,5.11756],[-75.69873,5.11756],[-75.69873,5.11756],[-75.69873,5.11756],[-75.69873,5.11756],[-75.69873,5.11756],[-75.69873,5.11756],[-75.69873,5.11756],[-75.69873,5.11757],[-75.69873,5.11757],[-75.69873,5.11757],[-75.69873,5.11757],[-75.69873,5.11757],[-75.69873,5.11757],[-75.69874,5.11757],[-75.69874,5.11757],[-75.69874,5.11757],[-75.69874,5.11757],[-75.69874,5.11757],[-75.69874,5.11757],[-75.69874,5.11757],[-75.69874,5.11757],[-75.69874,5.11757],[-75.69874,5.11757],[-75.69874,5.11757],[-75.69874,5.11757],[-75.69874,5.11757],[-75.69874,5.11757],[-75.69874,5.11757],[-75.69874,5.11757],[-75.69874,5.11757],[-75.69874,5.11757],[-75.69874,5.11758],[-75.69874,5.11758],[-75.69875,5.11758],[-75.69875,5.11758],[-75.69875,5.11758],[-75.69875,5.11758],[-75.69875,5.11758],[-75.69875,5.11758],[-75.69875,5.11758],[-75.69875,5.11758],[-75.69875,5.11758],[-75.69875,5.11758],[-75.69876,5.11758],[-75.69876,5.11758],[-75.69876,5.11759],[-75.69876,5.11759],[-75.69876,5.11759],[-75.69876,5.11759],[-75.69876,5.11759],[-75.69876,5.11759],[-75.69876,5.11759],[-75.69877,5.11759],[-75.69877,5.11759],[-75.69877,5.11759],[-75.69877,5.11759],[-75.69877,5.11759],[-75.69877,5.11759],[-75.69877,5.11759],[-75.69877,5.1176],[-75.69878,5.1176],[-75.69878,5.1176],[-75.69878,5.1176],[-75.69878,5.1176],[-75.69878,5.1176],[-75.69878,5.1176],[-75.69878,5.1176],[-75.69878,5.1176],[-75.69879,5.1176],[-75.69879,5.1176],[-75.69879,5.1176],[-75.69879,5.1176],[-75.69879,5.1176],[-75.69879,5.1176],[-75.69879,5.1176],[-75.6988,5.11761],[-75.6988,5.11761],[-75.6988,5.11761],[-75.6988,5.11761],[-75.6988,5.11761],[-75.6988,5.11761],[-75.6988,5.11761],[-75.69881,5.11761],[-75.69881,5.11761],[-75.69881,5.11761],[-75.69881,5.11761],[-75.69881,5.11761],[-75.69881,5.11761],[-75.69881,5.11761],[-75.69881,5.11761],[-75.69882,5.11761],[-75.69882,5.11761],[-75.69882,5.11761],[-75.69882,5.11761],[-75.69882,5.11761],[-75.69882,5.11761],[-75.69882,5.11761],[-75.69883,5.11761],[-75.69883,5.11761],[-75.69883,5.11761],[-75.69883,5.11761],[-75.69883,5.11761],[-75.69883,5.11761],[-75.69883,5.11761],[-75.69884,5.11761],[-75.69884,5.11761],[-75.69884,5.11761],[-75.69884,5.11761],[-75.69884,5.11761],[-75.69884,5.11761],[-75.69884,5.11761],[-75.69884,5.11761],[-75.69885,5.11761],[-75.69885,5.11761],[-75.69885,5.11761],[-75.69885,5.11761],[-75.69885,5.11761],[-75.69885,5.11761],[-75.69885,5.11761],[-75.69886,5.11761],[-75.69886,5.11761],[-75.69886,5.11761],[-75.69886,5.11761],[-75.69886,5.11761],[-75.69886,5.11761],[-75.69886,5.11761],[-75.69887,5.11761],[-75.69887,5.11761],[-75.69887,5.11761],[-75.69887,5.11761],[-75.69887,5.11761],[-75.69887,5.11761],[-75.69887,5.11761],[-75.69888,5.11761],[-75.69888,5.11761],[-75.69888,5.11761],[-75.69888,5.11761],[-75.69888,5.11761],[-75.69888,5.11761],[-75.69888,5.11761],[-75.69888,5.11761],[-75.69889,5.11761],[-75.69889,5.11761],[-75.69889,5.11761],[-75.69889,5.11761],[-75.69889,5.11761],[-75.69889,5.11761],[-75.69889,5.11761],[-75.6989,5.11761],[-75.6989,5.1176],[-75.6989,5.1176],[-75.6989,5.1176],[-75.6989,5.1176],[-75.6989,5.1176],[-75.6989,5.1176],[-75.6989,5.1176],[-75.69891,5.1176],[-75.69891,5.1176],[-75.69891,5.1176],[-75.69891,5.1176],[-75.69891,5.1176],[-75.69891,5.1176],[-75.69891,5.1176],[-75.69891,5.1176],[-75.69892,5.1176],[-75.69892,5.1176],[-75.69892,5.1176],[-75.69892,5.11759],[-75.69892,5.11759],[-75.69892,5.11759],[-75.69892,5.11759],[-75.69892,5.11759],[-75.69893,5.11759],[-75.69893,5.11759],[-75.69893,5.11759],[-75.69893,5.11759],[-75.69893,5.11759],[-75.69893,5.11759],[-75.69893,5.11759],[-75.69893,5.11759],[-75.69894,5.11758],[-75.69894,5.11758],[-75.69894,5.11758],[-75.69894,5.11758],[-75.69894,5.11758],[-75.69894,5.11758],[-75.69894,5.11758],[-75.69894,5.11758],[-75.69895,5.11758],[-75.69895,5.11758],[-75.69895,5.11758],[-75.69895,5.11758],[-75.69895,5.11757],[-75.69895,5.11757],[-75.69895,5.11757],[-75.69895,5.11757],[-75.69895,5.11757],[-75.69895,5.11757],[-75.69896,5.11757],[-75.69896,5.11757],[-75.69896,5.11757],[-75.69896,5.11757],[-75.69896,5.11756],[-75.69896,5.11756],[-75.69896,5.11756],[-75.69896,5.11756],[-75.69896,5.11756],[-75.69896,5.11756],[-75.69896,5.11756],[-75.69897,5.11756],[-75.69897,5.11756],[-75.69897,5.11756],[-75.69897,5.11755],[-75.69897,5.11755],[-75.69897,5.11755],[-75.69897,5.11755],[-75.69897,5.11755],[-75.69897,5.11755],[-75.69897,5.11755],[-75.69897,5.11755],[-75.69897,5.11754],[-75.69898,5.11754],[-75.69908,5.11737],[-75.69908,5.11737],[-75.69908,5.11737],[-75.69908,5.11737],[-75.69908,5.11737],[-75.69908,5.11737],[-75.69908,5.11737],[-75.69908,5.11736],[-75.69908,5.11736],[-75.69908,5.11736],[-75.69908,5.11736],[-75.69908,5.11736],[-75.69908,5.11736],[-75.69908,5.11736],[-75.69908,5.11736],[-75.69908,5.11736],[-75.69909,5.11736],[-75.69909,5.11736],[-75.69909,5.11736],[-75.69909,5.11735],[-75.69909,5.11735],[-75.69909,5.11735],[-75.69909,5.11735],[-75.69909,5.11735],[-75.69909,5.11735],[-75.69909,5.11735],[-75.69909,5.11735],[-75.69909,5.11735],[-75.69909,5.11735],[-75.6991,5.11735],[-75.6991,5.11734],[-75.6991,5.11734],[-75.6991,5.11734],[-75.6991,5.11734],[-75.6991,5.11734],[-75.6991,5.11734],[-75.6991,5.11734],[-75.6991,5.11734],[-75.6991,5.11734],[-75.6991,5.11734],[-75.6991,5.11734],[-75.69911,5.11734],[-75.69911,5.11734],[-75.69911,5.11734],[-75.69911,5.11734],[-75.69911,5.11733],[-75.69911,5.11733],[-75.69911,5.11733],[-75.69911,5.11733],[-75.69911,5.11733],[-75.69911,5.11733],[-75.69912,5.11733],[-75.69912,5.11733],[-75.69912,5.11733],[-75.69912,5.11733],[-75.69912,5.11733],[-75.69912,5.11733],[-75.69912,5.11733],[-75.69912,5.11733],[-75.69912,5.11733],[-75.69912,5.11733],[-75.69913,5.11733],[-75.69913,5.11733],[-75.69913,5.11733],[-75.69913,5.11733],[-75.69913,5.11733],[-75.69913,5.11733],[-75.69913,5.11732],[-75.69913,5.11732],[-75.69913,5.11732],[-75.69914,5.11732],[-75.69914,5.11732],[-75.69914,5.11732],[-75.69914,5.11732],[-75.69914,5.11732],[-75.69914,5.11732],[-75.69914,5.11732],[-75.69914,5.11732],[-75.69914,5.11732],[-75.69914,5.11732],[-75.69915,5.11732],[-75.69915,5.11732],[-75.69915,5.11732],[-75.69915,5.11732],[-75.69915,5.11732],[-75.69915,5.11732],[-75.69915,5.11732],[-75.69915,5.11732],[-75.69915,5.11732],[-75.69916,5.11732],[-75.69916,5.11732],[-75.69916,5.11732],[-75.69916,5.11732],[-75.69916,5.11732],[-75.69916,5.11732],[-75.69916,5.11732],[-75.69916,5.11732],[-75.69916,5.11732],[-75.69917,5.11732],[-75.69917,5.11732],[-75.69917,5.11732],[-75.69917,5.11732],[-75.69917,5.11732],[-75.69917,5.11732],[-75.69917,5.11732],[-75.69917,5.11732],[-75.69917,5.11732],[-75.69918,5.11732],[-75.69918,5.11732],[-75.69918,5.11732],[-75.69918,5.11732],[-75.69918,5.11732],[-75.69918,5.11732],[-75.69918,5.11732],[-75.69918,5.11733],[-75.69918,5.11733],[-75.69919,5.11733],[-75.69919,5.11733],[-75.69919,5.11733],[-75.69919,5.11733],[-75.69919,5.11733],[-75.69919,5.11733],[-75.69919,5.11733],[-75.69919,5.11733],[-75.69919,5.11733],[-75.69919,5.11733],[-75.6992,5.11733],[-75.6992,5.11733],[-75.6992,5.11733],[-75.6992,5.11733],[-75.6992,5.11733],[-75.6992,5.11733],[-75.6992,5.11733],[-75.6992,5.11733],[-75.6992,5.11733],[-75.6992,5.11734],[-75.6992,5.11734],[-75.69921,5.11734],[-75.69921,5.11734],[-75.69921,5.11734],[-75.69921,5.11734],[-75.69921,5.11734],[-75.69921,5.11734],[-75.69921,5.11734],[-75.69921,5.11734],[-75.69921,5.11734],[-75.69921,5.11734],[-75.69921,5.11734],[-75.69921,5.11734],[-75.69921,5.11734],[-75.69921,5.11734],[-75.69921,5.11734],[-75.69922,5.11734],[-75.69922,5.11734],[-75.69922,5.11735],[-75.69922,5.11735],[-75.69922,5.11735],[-75.69922,5.11735],[-75.69922,5.11735],[-75.69922,5.11735],[-75.69922,5.11735],[-75.69922,5.11735],[-75.69922,5.11735],[-75.69922,5.11735],[-75.69922,5.11735],[-75.69922,5.11735],[-75.69922,5.11735],[-75.69922,5.11735],[-75.69922,5.11735],[-75.69922,5.11735],[-75.69922,5.11735],[-75.69922,5.11735],[-75.69922,5.11735],[-75.69922,5.11735],[-75.69923,5.11735],[-75.69923,5.11735],[-75.69923,5.11735],[-75.69923,5.11736],[-75.69923,5.11736],[-75.69923,5.11736],[-75.69923,5.11736],[-75.69923,5.11736],[-75.69923,5.11736],[-75.69923,5.11736],[-75.69923,5.11736],[-75.69923,5.11736],[-75.69923,5.11736],[-75.69923,5.11736],[-75.69923,5.11737],[-75.69923,5.11737],[-75.69923,5.11737],[-75.69924,5.11737],[-75.69924,5.11737],[-75.69924,5.11737],[-75.69924,5.11737],[-75.69924,5.11737],[-75.69924,5.11737],[-75.69924,5.11737],[-75.69924,5.11737],[-75.69924,5.11737],[-75.69924,5.11738],[-75.69924,5.11738],[-75.69924,5.11738],[-75.69924,5.11738],[-75.69924,5.11738],[-75.69924,5.11738],[-75.69924,5.11738],[-75.69924,5.11738],[-75.69924,5.11738],[-75.69924,5.11738],[-75.69924,5.11738],[-75.69924,5.11738],[-75.69924,5.11739],[-75.69924,5.11739],[-75.69924,5.11739],[-75.69924,5.11739],[-75.69924,5.11739]]],[[[-75.70106,5.1188],[-75.70101,5.11882],[-75.70095,5.11884],[-75.70087,5.11886],[-75.70078,5.11888],[-75.70079,5.11888],[-75.70079,5.11888],[-75.70081,5.11889],[-75.70081,5.1189],[-75.70083,5.11891],[-75.70084,5.11891],[-75.70084,5.11892],[-75.70086,5.11893],[-75.70086,5.11893],[-75.70088,5.11894],[-75.70089,5.11895],[-75.7009,5.11895],[-75.70091,5.11896],[-75.70091,5.11896],[-75.70092,5.11897],[-75.70093,5.11897],[-75.70093,5.11897],[-75.70094,5.11898],[-75.70095,5.11899],[-75.70096,5.11899],[-75.70096,5.119],[-75.70098,5.11901],[-75.70099,5.11901],[-75.701,5.11902],[-75.70101,5.11903],[-75.70101,5.11903],[-75.70108,5.11888],[-75.70111,5.11882],[-75.70112,5.11878],[-75.70106,5.1188]]],[[[-75.70228,5.11882],[-75.70231,5.11883],[-75.70233,5.11883],[-75.70234,5.11884],[-75.70236,5.11885],[-75.70236,5.11886],[-75.70236,5.11888],[-75.70235,5.11889],[-75.70234,5.11891],[-75.7023,5.11894],[-75.70217,5.11904],[-75.70271,5.119],[-75.70276,5.119],[-75.70289,5.11883],[-75.70291,5.11881],[-75.70287,5.1187],[-75.70286,5.1187],[-75.70287,5.11861],[-75.70288,5.11859],[-75.70299,5.11836],[-75.70314,5.11807],[-75.70321,5.1179],[-75.70327,5.11773],[-75.70327,5.11765],[-75.70325,5.11757],[-75.70318,5.11751],[-75.70318,5.11751],[-75.70311,5.11748],[-75.70306,5.1174],[-75.70306,5.11738],[-75.70304,5.11732],[-75.70304,5.11732],[-75.70312,5.11729],[-75.70313,5.11728],[-75.70318,5.11727],[-75.70318,5.11727],[-75.70318,5.11726],[-75.70318,5.11724],[-75.70318,5.11712],[-75.70322,5.11705],[-75.70327,5.11699],[-75.70326,5.11688],[-75.70323,5.11678],[-75.70317,5.11659],[-75.70316,5.11653],[-75.70314,5.11644],[-75.70313,5.11634],[-75.70319,5.11618],[-75.70329,5.11607],[-75.70327,5.11598],[-75.70327,5.1159],[-75.70323,5.11581],[-75.70313,5.1157],[-75.70307,5.11565],[-75.70303,5.11557],[-75.70301,5.11544],[-75.70304,5.11538],[-75.70305,5.11537],[-75.70316,5.11527],[-75.70319,5.11524],[-75.70323,5.11517],[-75.70323,5.1151],[-75.70322,5.115],[-75.70322,5.11495],[-75.70326,5.11491],[-75.70322,5.11486],[-75.70318,5.11482],[-75.70315,5.11471],[-75.70314,5.11466],[-75.70312,5.11459],[-75.70311,5.11457],[-75.70313,5.11454],[-75.70314,5.11452],[-75.70314,5.11443],[-75.7032,5.11437],[-75.70323,5.1143],[-75.70317,5.11423],[-75.70311,5.11423],[-75.70302,5.11428],[-75.70275,5.11453],[-75.7028,5.11464],[-75.70282,5.11467],[-75.70267,5.11488],[-75.70262,5.11495],[-75.70247,5.11516],[-75.70237,5.11562],[-75.70225,5.11643],[-75.70225,5.11642],[-75.70224,5.11649],[-75.70201,5.11648],[-75.70201,5.11647],[-75.70156,5.11644],[-75.70157,5.11647],[-75.70158,5.11653],[-75.70159,5.11656],[-75.70159,5.11665],[-75.70158,5.11678],[-75.70152,5.11744],[-75.70151,5.11753],[-75.7015,5.11759],[-75.70148,5.11768],[-75.70146,5.11777],[-75.70121,5.1186],[-75.70127,5.11858],[-75.7014,5.11853],[-75.70151,5.11849],[-75.70157,5.11848],[-75.70159,5.11848],[-75.70162,5.11848],[-75.70164,5.11849],[-75.70166,5.1185],[-75.70167,5.11852],[-75.7017,5.11856],[-75.70177,5.11868],[-75.7018,5.11873],[-75.70182,5.11875],[-75.70184,5.11877],[-75.70186,5.11879],[-75.70189,5.1188],[-75.70191,5.11881],[-75.70194,5.11882],[-75.702,5.11883],[-75.70206,5.11883],[-75.70222,5.11882],[-75.70228,5.11882]]],[[[-75.70128,5.1188],[-75.70126,5.11882],[-75.70124,5.11886],[-75.70123,5.11889],[-75.70119,5.119],[-75.70116,5.11905],[-75.70114,5.11908],[-75.70112,5.1191],[-75.70114,5.1191],[-75.70114,5.11911],[-75.70115,5.11911],[-75.70133,5.11922],[-75.70152,5.11927],[-75.70154,5.11928],[-75.70156,5.11928],[-75.70158,5.11928],[-75.70163,5.11928],[-75.70165,5.11927],[-75.70163,5.11923],[-75.70162,5.1192],[-75.70158,5.11915],[-75.70155,5.1191],[-75.70153,5.11907],[-75.70146,5.11896],[-75.7014,5.11889],[-75.70136,5.11885],[-75.70133,5.11881],[-75.70132,5.1188],[-75.7013,5.1188],[-75.70129,5.11879],[-75.70128,5.1188]]]]},"properties":{"OBJECTID_12":30,"FID_Distri":2108,"Id":11633,"Clase":"No_bosque","FID_MunCal":25,"DPTO_CCDGO":"17","MPIO_CCDGO":"524","MPIO_CDPMP":"17524","DPTO_CNMBR":"CALDAS","MPIO_CNMBR":"PALESTINA","MPIO_CRSLC":"Ordenanza 19 de 15 de Abril de 1913","MPIO_NAREA":112.230143,"MPIO_CSMBL":"4","MPIO_VGNC":2020,"MPIO_TIPO":"MUNICIPIO","Temp":24.1148840281,"Acuprom":0.166510492474,"Suelostext":4,"SuelosPh":54.7911866253,"SuelosCoAq":24.2160963038,"SuelosCald":1,"SuelosAren":37,"SueloCarb":3,"Suelcapcar":112.033702238,"SuelosArci":38,"pmesmin":102.585933365,"pano":2211.12386467,"Etpmesmax":135.890424502,"Etp":1482.44100577,"Escmesmin":7.66110075506,"escmed":23.0967824148,"brillosol":2040.23564547,"Prob_DisPo":"0.858590913270122","Prob_DisAc":"0.304971164766676","POTEN_DESC":"MEDIA","TIPO_BST":"B","Shape_Length":3207.8131117265207,"Shape_Area":112325.2896405294}}]}