{"type":"FeatureCollection","name":"Bocatomas_Buf","crs":{"type":"name","properties":{"name":"urn:ogc:def:crs:OGC:1.3:CRS84"}},"features":[{"type":"Feature","id":1,"geometry":{"type":"Polygon","coordinates":[[[-75.77558,5.13649],[-75.7756,5.13649],[-75.77562,5.13648],[-75.77564,5.13647],[-75.77566,5.13646],[-75.77568,5.13644],[-75.77569,5.13643],[-75.7757,5.1364],[-75.77571,5.13638],[-75.77571,5.13636],[-75.77571,5.13633],[-75.7757,5.13631],[-75.77569,5.13629],[-75.77568,5.13627],[-75.77566,5.13625],[-75.77564,5.13624],[-75.77562,5.13623],[-75.7756,5.13622],[-75.77558,5.13622],[-75.77555,5.13622],[-75.77553,5.13623],[-75.77551,5.13624],[-75.77549,5.13625],[-75.77547,5.13627],[-75.77546,5.13629],[-75.77545,5.13631],[-75.77544,5.13633],[-75.77544,5.13636],[-75.77544,5.13638],[-75.77545,5.1364],[-75.77546,5.13643],[-75.77547,5.13645],[-75.77549,5.13646],[-75.77551,5.13648],[-75.77553,5.13649],[-75.77555,5.13649],[-75.77558,5.13649]]]},"properties":{"NAME":"Bocatoma La Miranda Gravedad","LAYER":"Waypoint","ELEVATION":1848,"time":"2017-07-13T14:20:11Z","sym":"Golf Course","X":811696.899311,"Y":1059974.85071,"BUFF_DIST":15,"ORIG_FID":1,"OBJECTID":1,"Shape_Length":94.12823310979849,"Shape_Area":703.2755818898329}},{"type":"Feature","id":2,"geometry":{"type":"Polygon","coordinates":[[[-75.7812,5.13409],[-75.78122,5.13409],[-75.78124,5.13408],[-75.78126,5.13407],[-75.78128,5.13406],[-75.7813,5.13404],[-75.78131,5.13402],[-75.78132,5.134],[-75.78133,5.13398],[-75.78133,5.13396],[-75.78133,5.13393],[-75.78132,5.13391],[-75.78131,5.13389],[-75.7813,5.13387],[-75.78128,5.13385],[-75.78126,5.13384],[-75.78124,5.13383],[-75.78122,5.13382],[-75.7812,5.13382],[-75.78117,5.13382],[-75.78115,5.13383],[-75.78113,5.13384],[-75.78111,5.13385],[-75.78109,5.13387],[-75.78108,5.13389],[-75.78107,5.13391],[-75.78106,5.13393],[-75.78106,5.13396],[-75.78106,5.13398],[-75.78107,5.134],[-75.78108,5.13402],[-75.78109,5.13404],[-75.78111,5.13406],[-75.78113,5.13407],[-75.78115,5.13408],[-75.78117,5.13409],[-75.7812,5.13409]]]},"properties":{"NAME":"Bocatoma Surrumbi Gravedad","LAYER":"Waypoint","ELEVATION":1525,"time":"2017-07-13T17:53:23Z","sym":"Golf Course","X":811072.800646,"Y":1059710.8789,"BUFF_DIST":15,"ORIG_FID":2,"OBJECTID":2,"Shape_Length":94.12823311119558,"Shape_Area":703.2755819107107}},{"type":"Feature","id":3,"geometry":{"type":"Polygon","coordinates":[[[-75.78556,5.13314],[-75.78558,5.13314],[-75.7856,5.13314],[-75.78563,5.13313],[-75.78565,5.13311],[-75.78566,5.1331],[-75.78568,5.13308],[-75.78569,5.13305],[-75.78569,5.13303],[-75.78569,5.13301],[-75.78569,5.13298],[-75.78569,5.13296],[-75.78568,5.13294],[-75.78566,5.13292],[-75.78564,5.1329],[-75.78563,5.13289],[-75.7856,5.13288],[-75.78558,5.13288],[-75.78556,5.13287],[-75.78553,5.13288],[-75.78551,5.13288],[-75.78549,5.13289],[-75.78547,5.13291],[-75.78545,5.13292],[-75.78544,5.13294],[-75.78543,5.13296],[-75.78543,5.13299],[-75.78542,5.13301],[-75.78543,5.13303],[-75.78543,5.13306],[-75.78544,5.13308],[-75.78545,5.1331],[-75.78547,5.13311],[-75.78549,5.13313],[-75.78551,5.13314],[-75.78554,5.13314],[-75.78556,5.13314]]]},"properties":{"NAME":"Bocatoma Surrumbi Riego","LAYER":"Waypoint","ELEVATION":1734,"time":"2017-07-13T20:42:46Z","sym":"Golf Course","X":810547.74069,"Y":1059650.54326,"BUFF_DIST":15,"ORIG_FID":3,"OBJECTID":3,"Shape_Length":94.12823310979851,"Shape_Area":703.2755818898329}},{"type":"Feature","id":4,"geometry":{"type":"Polygon","coordinates":[[[-75.78789,5.14106],[-75.78791,5.14106],[-75.78794,5.14105],[-75.78796,5.14104],[-75.78798,5.14103],[-75.78799,5.14101],[-75.78801,5.14099],[-75.78802,5.14097],[-75.78802,5.14095],[-75.78803,5.14092],[-75.78802,5.1409],[-75.78802,5.14088],[-75.78801,5.14086],[-75.78799,5.14084],[-75.78798,5.14082],[-75.78796,5.14081],[-75.78794,5.1408],[-75.78791,5.14079],[-75.78789,5.14079],[-75.78787,5.14079],[-75.78784,5.1408],[-75.78782,5.14081],[-75.7878,5.14082],[-75.78779,5.14084],[-75.78777,5.14086],[-75.78776,5.14088],[-75.78776,5.1409],[-75.78775,5.14093],[-75.78776,5.14095],[-75.78776,5.14097],[-75.78777,5.14099],[-75.78779,5.14101],[-75.7878,5.14103],[-75.78782,5.14104],[-75.78784,5.14105],[-75.78787,5.14106],[-75.78789,5.14106]]]},"properties":{"NAME":"Bocatoma La Bohemia Gravedad","LAYER":"Waypoint","ELEVATION":1479,"time":"2017-07-13T22:17:59Z","sym":"Golf Course","X":810332.328948,"Y":1060483.74046,"BUFF_DIST":15,"ORIG_FID":4,"OBJECTID":4,"Shape_Length":94.12823311055618,"Shape_Area":703.2755819011547}},{"type":"Feature","id":5,"geometry":{"type":"Polygon","coordinates":[[[-75.7811,5.14092],[-75.78112,5.14091],[-75.78114,5.14091],[-75.78116,5.1409],[-75.78118,5.14088],[-75.7812,5.14087],[-75.78121,5.14085],[-75.78122,5.14083],[-75.78123,5.1408],[-75.78123,5.14078],[-75.78123,5.14076],[-75.78122,5.14073],[-75.78121,5.14071],[-75.7812,5.14069],[-75.78118,5.14068],[-75.78116,5.14066],[-75.78114,5.14065],[-75.78112,5.14065],[-75.7811,5.14064],[-75.78107,5.14065],[-75.78105,5.14065],[-75.78103,5.14066],[-75.78101,5.14068],[-75.78099,5.14069],[-75.78098,5.14071],[-75.78097,5.14073],[-75.78096,5.14076],[-75.78096,5.14078],[-75.78096,5.1408],[-75.78097,5.14083],[-75.78098,5.14085],[-75.78099,5.14087],[-75.78101,5.14088],[-75.78103,5.1409],[-75.78105,5.14091],[-75.78107,5.14091],[-75.7811,5.14092]]]},"properties":{"NAME":"Bocatoma Piel Roja Alta","LAYER":"Waypoint","ELEVATION":1733,"time":"2017-07-14T13:02:41Z","sym":"Golf Course","X":811085.900479,"Y":1060465.68935,"BUFF_DIST":15,"ORIG_FID":5,"OBJECTID":5,"Shape_Length":94.1282331109706,"Shape_Area":703.2755819073476}},{"type":"Feature","id":6,"geometry":{"type":"Polygon","coordinates":[[[-75.78294,5.14149],[-75.78296,5.14149],[-75.78299,5.14148],[-75.78301,5.14147],[-75.78303,5.14146],[-75.78304,5.14144],[-75.78306,5.14142],[-75.78307,5.1414],[-75.78307,5.14138],[-75.78308,5.14136],[-75.78307,5.14133],[-75.78307,5.14131],[-75.78306,5.14129],[-75.78304,5.14127],[-75.78303,5.14125],[-75.78301,5.14124],[-75.78299,5.14123],[-75.78296,5.14122],[-75.78294,5.14122],[-75.78292,5.14122],[-75.78289,5.14123],[-75.78287,5.14124],[-75.78285,5.14125],[-75.78284,5.14127],[-75.78282,5.14129],[-75.78281,5.14131],[-75.78281,5.14133],[-75.78281,5.14136],[-75.78281,5.14138],[-75.78281,5.1414],[-75.78282,5.14142],[-75.78284,5.14144],[-75.78285,5.14146],[-75.78287,5.14147],[-75.78289,5.14148],[-75.78292,5.14149],[-75.78294,5.14149]]]},"properties":{"NAME":"Bocatoma Piel Roja Baja","LAYER":"Waypoint","ELEVATION":1693,"time":"2017-07-14T14:13:32Z","sym":"Golf Course","X":810881.416616,"Y":1060529.95817,"BUFF_DIST":15,"ORIG_FID":6,"OBJECTID":6,"Shape_Length":94.12823310979851,"Shape_Area":703.2755818898329}},{"type":"Feature","id":7,"geometry":{"type":"Polygon","coordinates":[[[-75.77938,5.14475],[-75.7794,5.14475],[-75.77942,5.14474],[-75.77944,5.14473],[-75.77946,5.14472],[-75.77948,5.1447],[-75.77949,5.14468],[-75.7795,5.14466],[-75.77951,5.14464],[-75.77951,5.14461],[-75.77951,5.14459],[-75.7795,5.14457],[-75.77949,5.14455],[-75.77948,5.14453],[-75.77946,5.14451],[-75.77944,5.1445],[-75.77942,5.14449],[-75.7794,5.14448],[-75.77938,5.14448],[-75.77935,5.14448],[-75.77933,5.14449],[-75.77931,5.1445],[-75.77929,5.14451],[-75.77927,5.14453],[-75.77926,5.14455],[-75.77925,5.14457],[-75.77924,5.14459],[-75.77924,5.14461],[-75.77924,5.14464],[-75.77925,5.14466],[-75.77926,5.14468],[-75.77927,5.1447],[-75.77929,5.14472],[-75.77931,5.14473],[-75.77933,5.14474],[-75.77935,5.14475],[-75.77938,5.14475]]]},"properties":{"NAME":"Bocatoma Piel Roja Alta","LAYER":"Waypoint","ELEVATION":1709,"time":"2017-07-14T15:39:54Z","sym":"Golf Course","X":811277.70561,"Y":1060889.34373,"BUFF_DIST":15,"ORIG_FID":7,"OBJECTID":7,"Shape_Length":94.12823311119563,"Shape_Area":703.2755819107107}},{"type":"Feature","id":8,"geometry":{"type":"Polygon","coordinates":[[[-75.776,5.14497],[-75.77603,5.14496],[-75.77605,5.14496],[-75.77607,5.14495],[-75.77609,5.14493],[-75.77611,5.14492],[-75.77612,5.1449],[-75.77613,5.14488],[-75.77614,5.14485],[-75.77614,5.14483],[-75.77614,5.14481],[-75.77613,5.14478],[-75.77612,5.14476],[-75.77611,5.14474],[-75.77609,5.14473],[-75.77607,5.14471],[-75.77605,5.1447],[-75.77603,5.1447],[-75.776,5.14469],[-75.77598,5.1447],[-75.77596,5.1447],[-75.77593,5.14471],[-75.77592,5.14473],[-75.7759,5.14474],[-75.77589,5.14476],[-75.77588,5.14478],[-75.77587,5.14481],[-75.77587,5.14483],[-75.77587,5.14485],[-75.77588,5.14488],[-75.77589,5.1449],[-75.7759,5.14492],[-75.77592,5.14493],[-75.77594,5.14495],[-75.77596,5.14496],[-75.77598,5.14496],[-75.776,5.14497]]]},"properties":{"NAME":"Bocatoma varillas Qda.la vieja","LAYER":"Waypoint","ELEVATION":1740,"time":"2017-07-14T16:32:59Z","sym":"Golf Course","X":811652.021462,"Y":1060912.24545,"BUFF_DIST":15,"ORIG_FID":8,"OBJECTID":8,"Shape_Length":94.12823310979849,"Shape_Area":703.2755818898329}},{"type":"Feature","id":9,"geometry":{"type":"Polygon","coordinates":[[[-75.77308,5.1629],[-75.7731,5.1629],[-75.77312,5.16289],[-75.77314,5.16288],[-75.77316,5.16287],[-75.77318,5.16285],[-75.77319,5.16284],[-75.7732,5.16281],[-75.77321,5.16279],[-75.77321,5.16277],[-75.77321,5.16274],[-75.7732,5.16272],[-75.77319,5.1627],[-75.77318,5.16268],[-75.77316,5.16266],[-75.77314,5.16265],[-75.77312,5.16264],[-75.7731,5.16263],[-75.77307,5.16263],[-75.77305,5.16263],[-75.77303,5.16264],[-75.77301,5.16265],[-75.77299,5.16266],[-75.77297,5.16268],[-75.77296,5.1627],[-75.77295,5.16272],[-75.77294,5.16274],[-75.77294,5.16277],[-75.77294,5.16279],[-75.77295,5.16281],[-75.77296,5.16284],[-75.77297,5.16286],[-75.77299,5.16287],[-75.77301,5.16289],[-75.77303,5.1629],[-75.77305,5.1629],[-75.77308,5.1629]]]},"properties":{"NAME":"Bocatoma El descanso","LAYER":"Waypoint","ELEVATION":1613,"time":"2017-07-14T18:02:22Z","sym":"Golf Course","X":811982.071132,"Y":1062895.8876,"BUFF_DIST":15,"ORIG_FID":9,"OBJECTID":9,"Shape_Length":94.12823311119558,"Shape_Area":703.2755819107107}},{"type":"Feature","id":10,"geometry":{"type":"Polygon","coordinates":[[[-75.7774,5.15722],[-75.77743,5.15721],[-75.77745,5.15721],[-75.77747,5.1572],[-75.77749,5.15718],[-75.77751,5.15717],[-75.77752,5.15715],[-75.77753,5.15713],[-75.77754,5.1571],[-75.77754,5.15708],[-75.77754,5.15706],[-75.77753,5.15703],[-75.77752,5.15701],[-75.77751,5.15699],[-75.77749,5.15698],[-75.77747,5.15696],[-75.77745,5.15695],[-75.77743,5.15695],[-75.7774,5.15694],[-75.77738,5.15695],[-75.77736,5.15695],[-75.77734,5.15696],[-75.77732,5.15698],[-75.7773,5.15699],[-75.77729,5.15701],[-75.77728,5.15703],[-75.77727,5.15706],[-75.77727,5.15708],[-75.77727,5.1571],[-75.77728,5.15713],[-75.77729,5.15715],[-75.7773,5.15717],[-75.77732,5.15718],[-75.77734,5.1572],[-75.77736,5.15721],[-75.77738,5.15721],[-75.7774,5.15722]]]},"properties":{"NAME":"Bocatoma La Esperanza Alta","LAYER":"Waypoint","ELEVATION":1638,"time":"2017-07-14T19:43:27Z","sym":"Golf Course","X":811500.224911,"Y":1062267.89423,"BUFF_DIST":15,"ORIG_FID":10,"OBJECTID":10,"Shape_Length":94.12823311119558,"Shape_Area":703.2755819107107}},{"type":"Feature","id":11,"geometry":{"type":"Polygon","coordinates":[[[-75.77854,5.1578],[-75.77856,5.1578],[-75.77859,5.15779],[-75.77861,5.15778],[-75.77863,5.15777],[-75.77864,5.15775],[-75.77866,5.15774],[-75.77867,5.15771],[-75.77867,5.15769],[-75.77868,5.15767],[-75.77867,5.15764],[-75.77867,5.15762],[-75.77866,5.1576],[-75.77864,5.15758],[-75.77863,5.15756],[-75.77861,5.15755],[-75.77859,5.15754],[-75.77856,5.15753],[-75.77854,5.15753],[-75.77852,5.15753],[-75.77849,5.15754],[-75.77847,5.15755],[-75.77845,5.15756],[-75.77844,5.15758],[-75.77842,5.1576],[-75.77841,5.15762],[-75.77841,5.15764],[-75.77841,5.15767],[-75.77841,5.15769],[-75.77841,5.15771],[-75.77842,5.15774],[-75.77844,5.15776],[-75.77845,5.15777],[-75.77847,5.15779],[-75.77849,5.1578],[-75.77852,5.1578],[-75.77854,5.1578]]]},"properties":{"NAME":"Bocatoma La Esperanza Alta 1","LAYER":"Waypoint","ELEVATION":1579,"time":"2017-07-14T20:35:00Z","sym":"Golf Course","X":811374.281915,"Y":1062333.28166,"BUFF_DIST":15,"ORIG_FID":11,"OBJECTID":11,"Shape_Length":94.12823310947878,"Shape_Area":703.2755818850549}},{"type":"Feature","id":12,"geometry":{"type":"Polygon","coordinates":[[[-75.77244,5.14073],[-75.77247,5.14073],[-75.77249,5.14072],[-75.77251,5.14071],[-75.77253,5.1407],[-75.77255,5.14068],[-75.77256,5.14066],[-75.77257,5.14064],[-75.77258,5.14062],[-75.77258,5.14059],[-75.77258,5.14057],[-75.77257,5.14055],[-75.77256,5.14052],[-75.77255,5.14051],[-75.77253,5.14049],[-75.77251,5.14048],[-75.77249,5.14047],[-75.77247,5.14046],[-75.77244,5.14046],[-75.77242,5.14046],[-75.7724,5.14047],[-75.77238,5.14048],[-75.77236,5.14049],[-75.77234,5.14051],[-75.77233,5.14053],[-75.77232,5.14055],[-75.77231,5.14057],[-75.77231,5.14059],[-75.77231,5.14062],[-75.77232,5.14064],[-75.77233,5.14066],[-75.77234,5.14068],[-75.77236,5.1407],[-75.77238,5.14071],[-75.7724,5.14072],[-75.77242,5.14073],[-75.77244,5.14073]]]},"properties":{"NAME":"Bocatoma Santana","LAYER":"Waypoint","ELEVATION":1791,"time":"2017-07-18T14:24:56Z","sym":"Golf Course","X":812045.552196,"Y":1060442.45394,"BUFF_DIST":15,"ORIG_FID":12,"OBJECTID":12,"Shape_Length":94.12823310979849,"Shape_Area":703.2755818898329}},{"type":"Feature","id":13,"geometry":{"type":"Polygon","coordinates":[[[-75.77748,5.15256],[-75.7775,5.15256],[-75.77753,5.15255],[-75.77755,5.15254],[-75.77757,5.15253],[-75.77758,5.15251],[-75.7776,5.1525],[-75.77761,5.15247],[-75.77761,5.15245],[-75.77762,5.15243],[-75.77761,5.1524],[-75.77761,5.15238],[-75.7776,5.15236],[-75.77758,5.15234],[-75.77757,5.15232],[-75.77755,5.15231],[-75.77753,5.1523],[-75.7775,5.15229],[-75.77748,5.15229],[-75.77746,5.15229],[-75.77743,5.1523],[-75.77741,5.15231],[-75.77739,5.15232],[-75.77738,5.15234],[-75.77736,5.15236],[-75.77735,5.15238],[-75.77735,5.1524],[-75.77735,5.15243],[-75.77735,5.15245],[-75.77735,5.15247],[-75.77736,5.1525],[-75.77738,5.15252],[-75.77739,5.15253],[-75.77741,5.15255],[-75.77743,5.15256],[-75.77746,5.15256],[-75.77748,5.15256]]]},"properties":{"NAME":"Bocatoma Soria","LAYER":"Waypoint","ELEVATION":1555,"time":"2017-07-18T16:56:56Z","sym":"Golf Course","X":811490.313699,"Y":1061753.25913,"BUFF_DIST":15,"ORIG_FID":13,"OBJECTID":13,"Shape_Length":94.12823311045854,"Shape_Area":703.2755818996955}},{"type":"Feature","id":14,"geometry":{"type":"Polygon","coordinates":[[[-75.77966,5.16146],[-75.77969,5.16146],[-75.77971,5.16145],[-75.77973,5.16144],[-75.77975,5.16143],[-75.77977,5.16141],[-75.77978,5.16139],[-75.77979,5.16137],[-75.7798,5.16135],[-75.7798,5.16133],[-75.7798,5.1613],[-75.77979,5.16128],[-75.77978,5.16126],[-75.77977,5.16124],[-75.77975,5.16122],[-75.77973,5.16121],[-75.77971,5.1612],[-75.77969,5.16119],[-75.77966,5.16119],[-75.77964,5.16119],[-75.77962,5.1612],[-75.7796,5.16121],[-75.77958,5.16122],[-75.77956,5.16124],[-75.77955,5.16126],[-75.77954,5.16128],[-75.77953,5.1613],[-75.77953,5.16133],[-75.77953,5.16135],[-75.77954,5.16137],[-75.77955,5.1614],[-75.77956,5.16141],[-75.77958,5.16143],[-75.7796,5.16144],[-75.77962,5.16145],[-75.77964,5.16146],[-75.77966,5.16146]]]},"properties":{"NAME":"Bocatoma La Esperanza Baja","LAYER":"Waypoint","ELEVATION":1581,"time":"2017-07-18T19:37:39Z","sym":"Golf Course","X":811249.170305,"Y":1062751.69533,"BUFF_DIST":15,"ORIG_FID":14,"OBJECTID":14,"Shape_Length":94.12823310979849,"Shape_Area":703.2755818898329}},{"type":"Feature","id":15,"geometry":{"type":"Polygon","coordinates":[[[-75.78086,5.16185],[-75.78089,5.16185],[-75.78091,5.16184],[-75.78093,5.16183],[-75.78095,5.16182],[-75.78097,5.1618],[-75.78098,5.16178],[-75.78099,5.16176],[-75.781,5.16174],[-75.781,5.16171],[-75.781,5.16169],[-75.78099,5.16167],[-75.78098,5.16165],[-75.78097,5.16163],[-75.78095,5.16161],[-75.78093,5.1616],[-75.78091,5.16159],[-75.78089,5.16158],[-75.78086,5.16158],[-75.78084,5.16158],[-75.78082,5.16159],[-75.7808,5.1616],[-75.78078,5.16161],[-75.78076,5.16163],[-75.78075,5.16165],[-75.78074,5.16167],[-75.78073,5.16169],[-75.78073,5.16172],[-75.78073,5.16174],[-75.78074,5.16176],[-75.78075,5.16178],[-75.78076,5.1618],[-75.78078,5.16182],[-75.7808,5.16183],[-75.78082,5.16184],[-75.78084,5.16185],[-75.78086,5.16185]]]},"properties":{"NAME":"Bocatoma La Esperanza Baja1","LAYER":"Waypoint","ELEVATION":1542,"time":"2017-07-18T20:16:23Z","sym":"Golf Course","X":811140.051835,"Y":1062803.43083,"BUFF_DIST":15,"ORIG_FID":15,"OBJECTID":15,"Shape_Length":94.12823311077828,"Shape_Area":703.2755819044735}},{"type":"Feature","id":16,"geometry":{"type":"Polygon","coordinates":[[[-75.784,5.15703],[-75.78402,5.15703],[-75.78405,5.15702],[-75.78407,5.15701],[-75.78409,5.157],[-75.7841,5.15698],[-75.78412,5.15696],[-75.78413,5.15694],[-75.78413,5.15692],[-75.78413,5.15689],[-75.78413,5.15687],[-75.78413,5.15685],[-75.78412,5.15683],[-75.7841,5.15681],[-75.78409,5.15679],[-75.78407,5.15678],[-75.78405,5.15677],[-75.78402,5.15676],[-75.784,5.15676],[-75.78398,5.15676],[-75.78395,5.15677],[-75.78393,5.15678],[-75.78391,5.15679],[-75.7839,5.15681],[-75.78388,5.15683],[-75.78387,5.15685],[-75.78387,5.15687],[-75.78386,5.1569],[-75.78387,5.15692],[-75.78387,5.15694],[-75.78388,5.15696],[-75.7839,5.15698],[-75.78391,5.157],[-75.78393,5.15701],[-75.78395,5.15702],[-75.78398,5.15703],[-75.784,5.15703]]]},"properties":{"NAME":"Bocatoma La Esperanza Baja2","LAYER":"Waypoint","ELEVATION":1486,"time":"2017-07-18T21:39:04Z","sym":"Golf Course","X":810768.538746,"Y":1062249.37998,"BUFF_DIST":15,"ORIG_FID":16,"OBJECTID":16,"Shape_Length":94.12823311119558,"Shape_Area":703.2755819107107}},{"type":"Feature","id":17,"geometry":{"type":"Polygon","coordinates":[[[-75.75525,5.08261],[-75.75527,5.08261],[-75.7553,5.0826],[-75.75532,5.08259],[-75.75534,5.08258],[-75.75535,5.08256],[-75.75537,5.08254],[-75.75538,5.08252],[-75.75538,5.0825],[-75.75538,5.08247],[-75.75538,5.08245],[-75.75538,5.08243],[-75.75537,5.08241],[-75.75535,5.08239],[-75.75534,5.08237],[-75.75532,5.08236],[-75.75529,5.08235],[-75.75527,5.08234],[-75.75525,5.08234],[-75.75523,5.08234],[-75.7552,5.08235],[-75.75518,5.08236],[-75.75516,5.08237],[-75.75515,5.08239],[-75.75513,5.08241],[-75.75512,5.08243],[-75.75512,5.08245],[-75.75511,5.08247],[-75.75512,5.0825],[-75.75512,5.08252],[-75.75513,5.08254],[-75.75515,5.08256],[-75.75516,5.08258],[-75.75518,5.08259],[-75.7552,5.0826],[-75.75523,5.08261],[-75.75525,5.08261]]]},"properties":{"NAME":"Bocatoma La Patria","LAYER":"Waypoint","ELEVATION":1453,"time":"2017-07-19T15:40:36Z","sym":"Golf Course","X":813936.108206,"Y":1054007.7169,"BUFF_DIST":15,"ORIG_FID":17,"OBJECTID":17,"Shape_Length":94.12823311021589,"Shape_Area":703.2755818960701}},{"type":"Feature","id":18,"geometry":{"type":"Polygon","coordinates":[[[-75.76612,5.08107],[-75.76614,5.08107],[-75.76617,5.08106],[-75.76619,5.08105],[-75.76621,5.08104],[-75.76622,5.08102],[-75.76624,5.081],[-75.76625,5.08098],[-75.76625,5.08096],[-75.76626,5.08094],[-75.76625,5.08091],[-75.76625,5.08089],[-75.76624,5.08087],[-75.76622,5.08085],[-75.76621,5.08083],[-75.76619,5.08082],[-75.76617,5.08081],[-75.76614,5.0808],[-75.76612,5.0808],[-75.7661,5.0808],[-75.76607,5.08081],[-75.76605,5.08082],[-75.76603,5.08083],[-75.76602,5.08085],[-75.766,5.08087],[-75.76599,5.08089],[-75.76599,5.08091],[-75.76598,5.08094],[-75.76599,5.08096],[-75.76599,5.08098],[-75.766,5.081],[-75.76602,5.08102],[-75.76603,5.08104],[-75.76605,5.08105],[-75.76607,5.08106],[-75.7661,5.08107],[-75.76612,5.08107]]]},"properties":{"NAME":"Bocatoma Quiebra Sta.Barbara","LAYER":"Waypoint","ELEVATION":1397,"time":"2017-07-19T16:38:44Z","sym":"Golf Course","X":812729.720338,"Y":1053840.7017,"BUFF_DIST":15,"ORIG_FID":18,"OBJECTID":18,"Shape_Length":94.12823310947876,"Shape_Area":703.2755818850549}},{"type":"Feature","id":19,"geometry":{"type":"Polygon","coordinates":[[[-75.78862,5.08143],[-75.78865,5.08143],[-75.78867,5.08142],[-75.78869,5.08141],[-75.78871,5.0814],[-75.78873,5.08138],[-75.78874,5.08136],[-75.78875,5.08134],[-75.78876,5.08132],[-75.78876,5.0813],[-75.78876,5.08127],[-75.78875,5.08125],[-75.78874,5.08123],[-75.78873,5.08121],[-75.78871,5.08119],[-75.78869,5.08118],[-75.78867,5.08117],[-75.78865,5.08116],[-75.78862,5.08116],[-75.7886,5.08116],[-75.78858,5.08117],[-75.78856,5.08118],[-75.78854,5.08119],[-75.78852,5.08121],[-75.78851,5.08123],[-75.7885,5.08125],[-75.78849,5.08127],[-75.78849,5.0813],[-75.78849,5.08132],[-75.7885,5.08134],[-75.78851,5.08136],[-75.78852,5.08138],[-75.78854,5.0814],[-75.78856,5.08141],[-75.78858,5.08142],[-75.7886,5.08143],[-75.78862,5.08143]]]},"properties":{"NAME":"Bocatoma Quiebra Sta Barbara","LAYER":"Waypoint","ELEVATION":1668,"time":"2017-07-19T18:36:48Z","sym":"Golf Course","X":810233.379893,"Y":1053887.19165,"BUFF_DIST":15,"ORIG_FID":19,"OBJECTID":19,"Shape_Length":94.12823310979851,"Shape_Area":703.2755818898329}},{"type":"Feature","id":20,"geometry":{"type":"Polygon","coordinates":[[[-75.78479,5.08658],[-75.78481,5.08658],[-75.78484,5.08657],[-75.78486,5.08656],[-75.78488,5.08655],[-75.78489,5.08653],[-75.78491,5.08652],[-75.78492,5.08649],[-75.78492,5.08647],[-75.78492,5.08645],[-75.78492,5.08642],[-75.78492,5.0864],[-75.78491,5.08638],[-75.78489,5.08636],[-75.78488,5.08634],[-75.78486,5.08633],[-75.78483,5.08632],[-75.78481,5.08631],[-75.78479,5.08631],[-75.78477,5.08631],[-75.78474,5.08632],[-75.78472,5.08633],[-75.7847,5.08634],[-75.78469,5.08636],[-75.78467,5.08638],[-75.78466,5.0864],[-75.78466,5.08642],[-75.78465,5.08645],[-75.78466,5.08647],[-75.78466,5.08649],[-75.78467,5.08652],[-75.78469,5.08653],[-75.7847,5.08655],[-75.78472,5.08657],[-75.78474,5.08658],[-75.78477,5.08658],[-75.78479,5.08658]]]},"properties":{"NAME":"Bocatoma La Cusumbera laPaz","LAYER":"Waypoint","ELEVATION":1639,"time":"2017-07-19T20:49:46Z","sym":"Golf Course","X":810660.314402,"Y":1054455.93291,"BUFF_DIST":15,"ORIG_FID":20,"OBJECTID":20,"Shape_Length":94.12823311046462,"Shape_Area":703.2755818997867}},{"type":"Feature","id":21,"geometry":{"type":"Polygon","coordinates":[[[-75.78462,5.08622],[-75.78465,5.08622],[-75.78467,5.08621],[-75.78469,5.0862],[-75.78471,5.08619],[-75.78473,5.08617],[-75.78474,5.08615],[-75.78475,5.08613],[-75.78476,5.08611],[-75.78476,5.08608],[-75.78476,5.08606],[-75.78475,5.08604],[-75.78474,5.08602],[-75.78473,5.086],[-75.78471,5.08598],[-75.78469,5.08597],[-75.78467,5.08596],[-75.78465,5.08595],[-75.78462,5.08595],[-75.7846,5.08595],[-75.78458,5.08596],[-75.78456,5.08597],[-75.78454,5.08598],[-75.78452,5.086],[-75.78451,5.08602],[-75.7845,5.08604],[-75.78449,5.08606],[-75.78449,5.08608],[-75.78449,5.08611],[-75.7845,5.08613],[-75.78451,5.08615],[-75.78452,5.08617],[-75.78454,5.08619],[-75.78456,5.0862],[-75.78458,5.08621],[-75.7846,5.08622],[-75.78462,5.08622]]]},"properties":{"NAME":"BocatomaCusumbera 2 la paz","LAYER":"Waypoint","ELEVATION":1622,"time":"2017-07-19T21:10:56Z","sym":"Golf Course","X":810678.623014,"Y":1054415.61437,"BUFF_DIST":15,"ORIG_FID":21,"OBJECTID":21,"Shape_Length":94.12823311077825,"Shape_Area":703.2755819044735}},{"type":"Feature","id":22,"geometry":{"type":"Polygon","coordinates":[[[-75.803,5.10647],[-75.80302,5.10647],[-75.80305,5.10647],[-75.80307,5.10646],[-75.80309,5.10644],[-75.8031,5.10643],[-75.80312,5.10641],[-75.80313,5.10638],[-75.80313,5.10636],[-75.80313,5.10634],[-75.80313,5.10631],[-75.80313,5.10629],[-75.80312,5.10627],[-75.8031,5.10625],[-75.80309,5.10623],[-75.80307,5.10622],[-75.80304,5.10621],[-75.80302,5.10621],[-75.803,5.1062],[-75.80298,5.10621],[-75.80295,5.10621],[-75.80293,5.10622],[-75.80291,5.10624],[-75.8029,5.10625],[-75.80288,5.10627],[-75.80287,5.10629],[-75.80287,5.10632],[-75.80286,5.10634],[-75.80287,5.10636],[-75.80287,5.10639],[-75.80288,5.10641],[-75.8029,5.10643],[-75.80291,5.10644],[-75.80293,5.10646],[-75.80295,5.10647],[-75.80298,5.10647],[-75.803,5.10647]]]},"properties":{"NAME":"Bocatoma La Albania CAR","LAYER":"Waypoint","ELEVATION":1322,"time":"2017-07-20T19:25:43Z","sym":"Golf Course","X":808646.097105,"Y":1056661.88913,"BUFF_DIST":15,"ORIG_FID":22,"OBJECTID":22,"Shape_Length":94.12823310979853,"Shape_Area":703.2755818898329}},{"type":"Feature","id":23,"geometry":{"type":"Polygon","coordinates":[[[-75.8105,5.10662],[-75.81052,5.10662],[-75.81055,5.10661],[-75.81057,5.1066],[-75.81059,5.10659],[-75.8106,5.10657],[-75.81062,5.10655],[-75.81063,5.10653],[-75.81063,5.10651],[-75.81064,5.10648],[-75.81063,5.10646],[-75.81063,5.10644],[-75.81062,5.10642],[-75.8106,5.1064],[-75.81059,5.10638],[-75.81057,5.10637],[-75.81055,5.10636],[-75.81052,5.10635],[-75.8105,5.10635],[-75.81048,5.10635],[-75.81045,5.10636],[-75.81043,5.10637],[-75.81041,5.10638],[-75.8104,5.1064],[-75.81038,5.10642],[-75.81037,5.10644],[-75.81037,5.10646],[-75.81037,5.10649],[-75.81037,5.10651],[-75.81037,5.10653],[-75.81038,5.10655],[-75.8104,5.10657],[-75.81041,5.10659],[-75.81043,5.1066],[-75.81046,5.10661],[-75.81048,5.10662],[-75.8105,5.10662]]]},"properties":{"NAME":"Bocatoma La Albania1 Resguardo","LAYER":"Waypoint","ELEVATION":1217,"time":"2017-07-20T20:54:50Z","sym":"Golf Course","X":807813.938052,"Y":1056680.27459,"BUFF_DIST":15,"ORIG_FID":23,"OBJECTID":23,"Shape_Length":94.12823311119563,"Shape_Area":703.2755819107107}},{"type":"Feature","id":24,"geometry":{"type":"Polygon","coordinates":[[[-75.7556,5.18688],[-75.75562,5.18688],[-75.75564,5.18687],[-75.75566,5.18686],[-75.75568,5.18685],[-75.7557,5.18683],[-75.75571,5.18681],[-75.75572,5.18679],[-75.75573,5.18677],[-75.75573,5.18675],[-75.75573,5.18672],[-75.75572,5.1867],[-75.75571,5.18668],[-75.7557,5.18666],[-75.75568,5.18664],[-75.75566,5.18663],[-75.75564,5.18662],[-75.75562,5.18661],[-75.7556,5.18661],[-75.75557,5.18661],[-75.75555,5.18662],[-75.75553,5.18663],[-75.75551,5.18664],[-75.75549,5.18666],[-75.75548,5.18668],[-75.75547,5.1867],[-75.75546,5.18672],[-75.75546,5.18675],[-75.75546,5.18677],[-75.75547,5.18679],[-75.75548,5.18681],[-75.75549,5.18683],[-75.75551,5.18685],[-75.75553,5.18686],[-75.75555,5.18687],[-75.75557,5.18688],[-75.7556,5.18688]]]},"properties":{"NAME":"Bocatoma Chavarquia","LAYER":"Waypoint","ELEVATION":1537,"time":"2017-07-27T20:04:21Z","sym":"Golf Course","X":813927.81555,"Y":1065543.45216,"BUFF_DIST":15,"ORIG_FID":24,"OBJECTID":24,"Shape_Length":94.1282331114443,"Shape_Area":703.2755819144273}},{"type":"Feature","id":25,"geometry":{"type":"Polygon","coordinates":[[[-75.76889,5.12738],[-75.76892,5.12737],[-75.76894,5.12737],[-75.76896,5.12736],[-75.76898,5.12734],[-75.769,5.12733],[-75.76901,5.12731],[-75.76902,5.12729],[-75.76903,5.12726],[-75.76903,5.12724],[-75.76903,5.12722],[-75.76902,5.12719],[-75.76901,5.12717],[-75.769,5.12715],[-75.76898,5.12714],[-75.76896,5.12712],[-75.76894,5.12711],[-75.76892,5.12711],[-75.76889,5.1271],[-75.76887,5.12711],[-75.76885,5.12711],[-75.76883,5.12712],[-75.76881,5.12714],[-75.76879,5.12715],[-75.76878,5.12717],[-75.76877,5.12719],[-75.76876,5.12722],[-75.76876,5.12724],[-75.76876,5.12726],[-75.76877,5.12729],[-75.76878,5.12731],[-75.76879,5.12733],[-75.76881,5.12734],[-75.76883,5.12736],[-75.76885,5.12737],[-75.76887,5.12737],[-75.76889,5.12738]]]},"properties":{"NAME":"Bocatoma La Romelia Alta","LAYER":" ","ELEVATION":0,"time":" ","sym":" ","X":812435.443419,"Y":1058964.25186,"BUFF_DIST":15,"ORIG_FID":25,"OBJECTID":25,"Shape_Length":94.12823311077824,"Shape_Area":703.2755819044735}},{"type":"Feature","id":26,"geometry":{"type":"Polygon","coordinates":[[[-75.76708,5.13433],[-75.76711,5.13433],[-75.76713,5.13433],[-75.76715,5.13432],[-75.76717,5.1343],[-75.76719,5.13429],[-75.7672,5.13427],[-75.76721,5.13424],[-75.76722,5.13422],[-75.76722,5.1342],[-75.76722,5.13417],[-75.76721,5.13415],[-75.7672,5.13413],[-75.76719,5.13411],[-75.76717,5.13409],[-75.76715,5.13408],[-75.76713,5.13407],[-75.76711,5.13407],[-75.76708,5.13406],[-75.76706,5.13407],[-75.76704,5.13407],[-75.76701,5.13408],[-75.767,5.1341],[-75.76698,5.13411],[-75.76697,5.13413],[-75.76696,5.13415],[-75.76695,5.13418],[-75.76695,5.1342],[-75.76695,5.13422],[-75.76696,5.13425],[-75.76697,5.13427],[-75.76698,5.13429],[-75.767,5.1343],[-75.76702,5.13432],[-75.76704,5.13433],[-75.76706,5.13433],[-75.76708,5.13433]]]},"properties":{"NAME":"Bocatoma Banderas","LAYER":" ","ELEVATION":0,"time":" ","sym":" ","X":812638.379242,"Y":1059733.52944,"BUFF_DIST":15,"ORIG_FID":26,"OBJECTID":26,"Shape_Length":94.12823311021587,"Shape_Area":703.2755818960701}},{"type":"Feature","id":27,"geometry":{"type":"Polygon","coordinates":[[[-75.76533,5.13307],[-75.76535,5.13307],[-75.76537,5.13307],[-75.7654,5.13306],[-75.76541,5.13304],[-75.76543,5.13303],[-75.76544,5.13301],[-75.76545,5.13298],[-75.76546,5.13296],[-75.76546,5.13294],[-75.76546,5.13291],[-75.76545,5.13289],[-75.76544,5.13287],[-75.76543,5.13285],[-75.76541,5.13283],[-75.76539,5.13282],[-75.76537,5.13281],[-75.76535,5.1328],[-75.76533,5.1328],[-75.7653,5.1328],[-75.76528,5.13281],[-75.76526,5.13282],[-75.76524,5.13283],[-75.76522,5.13285],[-75.76521,5.13287],[-75.7652,5.13289],[-75.76519,5.13292],[-75.76519,5.13294],[-75.76519,5.13296],[-75.7652,5.13298],[-75.76521,5.13301],[-75.76522,5.13303],[-75.76524,5.13304],[-75.76526,5.13306],[-75.76528,5.13307],[-75.7653,5.13307],[-75.76533,5.13307]]]},"properties":{"NAME":"Bocatoma El Brillante","LAYER":" ","ELEVATION":0,"time":" ","sym":" ","X":812832.69404,"Y":1059593.56458,"BUFF_DIST":15,"ORIG_FID":27,"OBJECTID":27,"Shape_Length":94.12823310958981,"Shape_Area":703.2755818867142}},{"type":"Feature","id":28,"geometry":{"type":"Polygon","coordinates":[[[-75.77055,5.13967],[-75.77057,5.13967],[-75.7706,5.13967],[-75.77062,5.13966],[-75.77064,5.13964],[-75.77065,5.13963],[-75.77067,5.13961],[-75.77068,5.13958],[-75.77068,5.13956],[-75.77069,5.13954],[-75.77068,5.13951],[-75.77068,5.13949],[-75.77067,5.13947],[-75.77065,5.13945],[-75.77064,5.13943],[-75.77062,5.13942],[-75.7706,5.13941],[-75.77057,5.1394],[-75.77055,5.1394],[-75.77053,5.1394],[-75.7705,5.13941],[-75.77048,5.13942],[-75.77046,5.13943],[-75.77045,5.13945],[-75.77043,5.13947],[-75.77042,5.13949],[-75.77042,5.13952],[-75.77042,5.13954],[-75.77042,5.13956],[-75.77042,5.13959],[-75.77043,5.13961],[-75.77045,5.13963],[-75.77046,5.13964],[-75.77048,5.13966],[-75.7705,5.13967],[-75.77053,5.13967],[-75.77055,5.13967]]]},"properties":{"NAME":"Bocatoma Mediacuesta","LAYER":" ","ELEVATION":0,"time":" ","sym":" ","X":812255.264565,"Y":1060325.27125,"BUFF_DIST":15,"ORIG_FID":28,"OBJECTID":28,"Shape_Length":94.12823311055615,"Shape_Area":703.2755819011547}},{"type":"Feature","id":29,"geometry":{"type":"Polygon","coordinates":[[[-75.75348,5.13665],[-75.7535,5.13665],[-75.75352,5.13664],[-75.75354,5.13663],[-75.75356,5.13662],[-75.75358,5.1366],[-75.75359,5.13658],[-75.7536,5.13656],[-75.75361,5.13654],[-75.75361,5.13651],[-75.75361,5.13649],[-75.7536,5.13647],[-75.75359,5.13645],[-75.75358,5.13643],[-75.75356,5.13641],[-75.75354,5.1364],[-75.75352,5.13639],[-75.7535,5.13638],[-75.75347,5.13638],[-75.75345,5.13638],[-75.75343,5.13639],[-75.75341,5.1364],[-75.75339,5.13641],[-75.75337,5.13643],[-75.75336,5.13645],[-75.75335,5.13647],[-75.75334,5.13649],[-75.75334,5.13651],[-75.75334,5.13654],[-75.75335,5.13656],[-75.75336,5.13658],[-75.75337,5.1366],[-75.75339,5.13662],[-75.75341,5.13663],[-75.75343,5.13664],[-75.75345,5.13665],[-75.75348,5.13665]]]},"properties":{"NAME":"Bocatoma El Palo","LAYER":" ","ELEVATION":0,"time":" ","sym":" ","X":814148.438022,"Y":1059985.75827,"BUFF_DIST":15,"ORIG_FID":29,"OBJECTID":29,"Shape_Length":94.12823311119561,"Shape_Area":703.2755819107107}},{"type":"Feature","id":30,"geometry":{"type":"Polygon","coordinates":[[[-75.75635,5.16569],[-75.75637,5.16569],[-75.7564,5.16568],[-75.75642,5.16567],[-75.75644,5.16566],[-75.75645,5.16564],[-75.75647,5.16562],[-75.75648,5.1656],[-75.75648,5.16558],[-75.75648,5.16555],[-75.75648,5.16553],[-75.75648,5.16551],[-75.75647,5.16549],[-75.75645,5.16547],[-75.75644,5.16545],[-75.75642,5.16544],[-75.75639,5.16543],[-75.75637,5.16542],[-75.75635,5.16542],[-75.75633,5.16542],[-75.7563,5.16543],[-75.75628,5.16544],[-75.75626,5.16545],[-75.75625,5.16547],[-75.75623,5.16549],[-75.75622,5.16551],[-75.75622,5.16553],[-75.75621,5.16555],[-75.75622,5.16558],[-75.75622,5.1656],[-75.75623,5.16562],[-75.75625,5.16564],[-75.75626,5.16566],[-75.75628,5.16567],[-75.7563,5.16568],[-75.75633,5.16569],[-75.75635,5.16569]]]},"properties":{"NAME":"Boc Guamito Frisolina Trinidad","LAYER":" ","ELEVATION":0,"time":" ","sym":" ","X":813838.081151,"Y":1063199.26157,"BUFF_DIST":15,"ORIG_FID":30,"OBJECTID":30,"Shape_Length":94.12823311119561,"Shape_Area":703.2755819107107}},{"type":"Feature","id":31,"geometry":{"type":"Polygon","coordinates":[[[-75.76189,5.16334],[-75.76192,5.16334],[-75.76194,5.16333],[-75.76196,5.16332],[-75.76198,5.16331],[-75.762,5.16329],[-75.76201,5.16327],[-75.76202,5.16325],[-75.76203,5.16323],[-75.76203,5.1632],[-75.76203,5.16318],[-75.76202,5.16316],[-75.76201,5.16313],[-75.762,5.16312],[-75.76198,5.1631],[-75.76196,5.16309],[-75.76194,5.16308],[-75.76192,5.16307],[-75.76189,5.16307],[-75.76187,5.16307],[-75.76185,5.16308],[-75.76183,5.16309],[-75.76181,5.1631],[-75.76179,5.16312],[-75.76178,5.16314],[-75.76177,5.16316],[-75.76176,5.16318],[-75.76176,5.1632],[-75.76176,5.16323],[-75.76177,5.16325],[-75.76178,5.16327],[-75.76179,5.16329],[-75.76181,5.16331],[-75.76183,5.16332],[-75.76185,5.16333],[-75.76187,5.16334],[-75.76189,5.16334]]]},"properties":{"NAME":"Bocatoma Sarciri Baja","LAYER":" ","ELEVATION":0,"time":" ","sym":" ","X":813222.394503,"Y":1062940.76313,"BUFF_DIST":15,"ORIG_FID":31,"OBJECTID":31,"Shape_Length":94.12823310979847,"Shape_Area":703.2755818898329}},{"type":"Feature","id":32,"geometry":{"type":"Polygon","coordinates":[[[-75.7711,5.12629],[-75.77112,5.12629],[-75.77114,5.12628],[-75.77117,5.12627],[-75.77119,5.12626],[-75.7712,5.12624],[-75.77122,5.12622],[-75.77123,5.1262],[-75.77123,5.12618],[-75.77123,5.12615],[-75.77123,5.12613],[-75.77123,5.12611],[-75.77121,5.12608],[-75.7712,5.12607],[-75.77118,5.12605],[-75.77117,5.12604],[-75.77114,5.12603],[-75.77112,5.12602],[-75.7711,5.12602],[-75.77107,5.12602],[-75.77105,5.12603],[-75.77103,5.12604],[-75.77101,5.12605],[-75.77099,5.12607],[-75.77098,5.12609],[-75.77097,5.12611],[-75.77096,5.12613],[-75.77096,5.12615],[-75.77096,5.12618],[-75.77097,5.1262],[-75.77098,5.12622],[-75.77099,5.12624],[-75.77101,5.12626],[-75.77103,5.12627],[-75.77105,5.12628],[-75.77107,5.12629],[-75.7711,5.12629]]]},"properties":{"NAME":"Bocatoma la Romelia Baja","LAYER":" ","ELEVATION":0,"time":" ","sym":" ","X":812190.605634,"Y":1058844.59043,"BUFF_DIST":15,"ORIG_FID":32,"OBJECTID":32,"Shape_Length":94.12823311119558,"Shape_Area":703.2755819107107}},{"type":"Feature","id":33,"geometry":{"type":"Polygon","coordinates":[[[-75.77323,5.12749],[-75.77325,5.12748],[-75.77328,5.12748],[-75.7733,5.12747],[-75.77332,5.12746],[-75.77333,5.12744],[-75.77335,5.12742],[-75.77336,5.1274],[-75.77336,5.12737],[-75.77337,5.12735],[-75.77336,5.12733],[-75.77336,5.1273],[-75.77335,5.12728],[-75.77333,5.12726],[-75.77332,5.12725],[-75.7733,5.12723],[-75.77328,5.12722],[-75.77325,5.12722],[-75.77323,5.12722],[-75.77321,5.12722],[-75.77318,5.12722],[-75.77316,5.12723],[-75.77314,5.12725],[-75.77313,5.12726],[-75.77311,5.12728],[-75.7731,5.12731],[-75.7731,5.12733],[-75.77309,5.12735],[-75.7731,5.12738],[-75.7731,5.1274],[-75.77311,5.12742],[-75.77313,5.12744],[-75.77314,5.12746],[-75.77316,5.12747],[-75.77318,5.12748],[-75.77321,5.12749],[-75.77323,5.12749]]]},"properties":{"NAME":"Bocatoma la Romelia Baja","LAYER":" ","ELEVATION":0,"time":" ","sym":" ","X":811954.464537,"Y":1058977.8084,"BUFF_DIST":15,"ORIG_FID":33,"OBJECTID":33,"Shape_Length":94.12823311077825,"Shape_Area":703.2755819044735}}]}