{"type":"FeatureCollection","name":"Zona_Protectora_Hidraulica_y_Ambiental_U","crs":{"type":"name","properties":{"name":"urn:ogc:def:crs:OGC:1.3:CRS84"}},"features":[{"type":"Feature","id":1,"geometry":{"type":"MultiPolygon","coordinates":[[[[-75.76626,5.16118],[-75.76631,5.1612],[-75.76636,5.16126],[-75.76652,5.16134],[-75.76672,5.16167],[-75.76672,5.16183],[-75.76673,5.16185],[-75.76675,5.16188],[-75.76675,5.16189],[-75.76692,5.16208],[-75.76694,5.1621],[-75.76694,5.1621],[-75.76707,5.16221],[-75.7671,5.16224],[-75.76711,5.16224],[-75.7674,5.16241],[-75.76744,5.16243],[-75.76748,5.16244],[-75.76752,5.16245],[-75.76757,5.16244],[-75.76761,5.16244],[-75.76765,5.16242],[-75.76769,5.1624],[-75.76772,5.16238],[-75.76775,5.16235],[-75.76777,5.16231],[-75.76779,5.16227],[-75.7678,5.16223],[-75.76781,5.16219],[-75.76781,5.16215],[-75.7678,5.1621],[-75.76778,5.16206],[-75.76776,5.16203],[-75.76774,5.16199],[-75.76771,5.16196],[-75.76767,5.16194],[-75.76741,5.16179],[-75.76731,5.16171],[-75.76718,5.16155],[-75.76698,5.16122],[-75.76695,5.16117],[-75.76698,5.16117],[-75.76704,5.16117],[-75.7671,5.16117],[-75.76718,5.16117],[-75.76723,5.16119],[-75.7673,5.16119],[-75.76733,5.16119],[-75.76735,5.16121],[-75.76735,5.16122],[-75.76735,5.16122],[-75.76736,5.16123],[-75.76738,5.16124],[-75.76739,5.16125],[-75.76739,5.16126],[-75.76741,5.16127],[-75.76743,5.16128],[-75.76744,5.16129],[-75.76746,5.1613],[-75.76746,5.1613],[-75.76746,5.1613],[-75.76746,5.1613],[-75.76747,5.16131],[-75.76747,5.16131],[-75.76748,5.16131],[-75.76748,5.16132],[-75.7675,5.16133],[-75.7675,5.16133],[-75.7675,5.16133],[-75.76751,5.16134],[-75.76753,5.16136],[-75.76753,5.16137],[-75.76755,5.16138],[-75.76756,5.16139],[-75.76758,5.1614],[-75.76759,5.16141],[-75.76761,5.16142],[-75.76762,5.16142],[-75.76764,5.16143],[-75.76766,5.16144],[-75.76766,5.16144],[-75.76767,5.16144],[-75.76768,5.16144],[-75.7677,5.16144],[-75.76792,5.16153],[-75.76815,5.1617],[-75.76816,5.16171],[-75.76818,5.16172],[-75.76819,5.16173],[-75.76821,5.16173],[-75.76823,5.16174],[-75.76824,5.16174],[-75.76826,5.16175],[-75.76828,5.16175],[-75.7683,5.16175],[-75.76831,5.16175],[-75.76833,5.16175],[-75.76835,5.16175],[-75.76837,5.16175],[-75.76838,5.16174],[-75.7684,5.16174],[-75.76842,5.16173],[-75.76843,5.16173],[-75.76845,5.16172],[-75.76846,5.16171],[-75.76848,5.1617],[-75.76849,5.16169],[-75.76851,5.16167],[-75.76852,5.16166],[-75.76853,5.16165],[-75.76854,5.16163],[-75.76855,5.16162],[-75.76856,5.1616],[-75.76856,5.16159],[-75.76857,5.16157],[-75.76857,5.16155],[-75.76858,5.16153],[-75.76858,5.16152],[-75.76858,5.1615],[-75.76858,5.16148],[-75.76858,5.16146],[-75.76858,5.16145],[-75.76858,5.16143],[-75.76857,5.16141],[-75.76857,5.16139],[-75.76856,5.16138],[-75.76856,5.16136],[-75.76855,5.16135],[-75.76854,5.16133],[-75.76853,5.16132],[-75.76852,5.1613],[-75.7685,5.16129],[-75.76849,5.16128],[-75.76848,5.16127],[-75.76847,5.16126],[-75.76826,5.16111],[-75.76816,5.16105],[-75.7682,5.16103],[-75.76822,5.16103],[-75.76826,5.16103],[-75.76827,5.16102],[-75.76829,5.16102],[-75.7683,5.16102],[-75.76832,5.16101],[-75.76834,5.16101],[-75.76835,5.161],[-75.76837,5.16099],[-75.76838,5.16098],[-75.7684,5.16097],[-75.76841,5.16096],[-75.76842,5.16095],[-75.76844,5.16093],[-75.76845,5.16092],[-75.76846,5.16091],[-75.76847,5.16089],[-75.76848,5.16088],[-75.76848,5.16086],[-75.76849,5.16084],[-75.76849,5.16083],[-75.7685,5.16081],[-75.7685,5.16079],[-75.7685,5.16077],[-75.7685,5.16076],[-75.7685,5.16074],[-75.7685,5.16072],[-75.7685,5.1607],[-75.76849,5.16069],[-75.76849,5.16067],[-75.76848,5.16065],[-75.76848,5.16064],[-75.76847,5.16063],[-75.76847,5.16063],[-75.76846,5.16061],[-75.76845,5.1606],[-75.76844,5.16058],[-75.76843,5.16057],[-75.76842,5.16055],[-75.76841,5.16054],[-75.7684,5.16054],[-75.7684,5.16054],[-75.76839,5.16053],[-75.76839,5.16053],[-75.76838,5.16052],[-75.76837,5.16052],[-75.76837,5.16051],[-75.76836,5.1605],[-75.76835,5.16049],[-75.76833,5.16048],[-75.76832,5.16048],[-75.7683,5.16047],[-75.76828,5.16046],[-75.76827,5.16046],[-75.76825,5.16045],[-75.76823,5.16045],[-75.76821,5.16045],[-75.76819,5.16045],[-75.76819,5.16045],[-75.76818,5.16045],[-75.76817,5.16045],[-75.76815,5.16045],[-75.76814,5.16045],[-75.76811,5.16045],[-75.76808,5.16045],[-75.76808,5.16045],[-75.76809,5.16043],[-75.7681,5.16039],[-75.76811,5.16037],[-75.76811,5.16035],[-75.76811,5.16034],[-75.76811,5.16032],[-75.76811,5.1603],[-75.76811,5.16028],[-75.76811,5.16027],[-75.76811,5.16025],[-75.7681,5.16023],[-75.76809,5.16021],[-75.76809,5.1602],[-75.76808,5.16018],[-75.76807,5.16017],[-75.76806,5.16015],[-75.76805,5.16014],[-75.76804,5.16013],[-75.76802,5.16011],[-75.76801,5.1601],[-75.76799,5.16009],[-75.76798,5.16008],[-75.76796,5.16008],[-75.76795,5.16007],[-75.76793,5.16006],[-75.76791,5.16006],[-75.7679,5.16005],[-75.76788,5.16005],[-75.76786,5.16005],[-75.76784,5.16005],[-75.76783,5.16005],[-75.76781,5.16005],[-75.76779,5.16005],[-75.76777,5.16006],[-75.76776,5.16006],[-75.76775,5.16006],[-75.76774,5.16007],[-75.76773,5.16007],[-75.76771,5.16008],[-75.76769,5.16009],[-75.76768,5.1601],[-75.76766,5.16011],[-75.76766,5.16012],[-75.76765,5.16012],[-75.76765,5.16012],[-75.76763,5.16014],[-75.76762,5.16015],[-75.76761,5.16016],[-75.7676,5.16018],[-75.7676,5.16018],[-75.7676,5.16018],[-75.76759,5.16019],[-75.76759,5.16019],[-75.76758,5.1602],[-75.76757,5.16021],[-75.76756,5.16021],[-75.76755,5.16022],[-75.76755,5.16023],[-75.76754,5.16023],[-75.76753,5.16024],[-75.76752,5.16025],[-75.76751,5.16026],[-75.76749,5.16027],[-75.76748,5.16028],[-75.76747,5.1603],[-75.76746,5.16031],[-75.76745,5.16032],[-75.76745,5.16032],[-75.76745,5.16033],[-75.76744,5.16033],[-75.76743,5.16034],[-75.76742,5.16034],[-75.76741,5.16035],[-75.7674,5.16036],[-75.7674,5.1605],[-75.7674,5.1605],[-75.7674,5.1605],[-75.76739,5.16051],[-75.76739,5.16051],[-75.76738,5.16052],[-75.76737,5.16053],[-75.76737,5.16054],[-75.76737,5.16054],[-75.76736,5.16055],[-75.76735,5.16056],[-75.76735,5.16056],[-75.76735,5.16057],[-75.76734,5.16057],[-75.76734,5.16058],[-75.76733,5.16059],[-75.76731,5.16063],[-75.76729,5.16066],[-75.76727,5.16071],[-75.76727,5.16071],[-75.76724,5.16071],[-75.76718,5.16071],[-75.76712,5.16062],[-75.76702,5.16063],[-75.76695,5.16063],[-75.76695,5.16063],[-75.76694,5.16063],[-75.76692,5.16063],[-75.7669,5.16063],[-75.76689,5.16063],[-75.76672,5.16066],[-75.76671,5.16066],[-75.76669,5.16066],[-75.76668,5.16067],[-75.76665,5.16068],[-75.76659,5.16069],[-75.76655,5.16071],[-75.76655,5.16071],[-75.76655,5.16071],[-75.76641,5.16065],[-75.7664,5.16065],[-75.76638,5.16064],[-75.76636,5.16064],[-75.76635,5.16064],[-75.76635,5.16064],[-75.76619,5.16062],[-75.76617,5.16062],[-75.76616,5.16062],[-75.76614,5.16062],[-75.76612,5.16062],[-75.7661,5.16062],[-75.76609,5.16062],[-75.76607,5.16063],[-75.76605,5.16064],[-75.76604,5.16064],[-75.76602,5.16065],[-75.76601,5.16066],[-75.76599,5.16067],[-75.76598,5.16068],[-75.76597,5.1607],[-75.76595,5.16071],[-75.76594,5.16072],[-75.76593,5.16074],[-75.76592,5.16075],[-75.76591,5.16077],[-75.76591,5.16078],[-75.7659,5.1608],[-75.7659,5.16082],[-75.76589,5.16083],[-75.76589,5.16085],[-75.76589,5.16087],[-75.76589,5.16089],[-75.76589,5.1609],[-75.76589,5.16092],[-75.76589,5.16094],[-75.7659,5.16096],[-75.7659,5.16097],[-75.76591,5.16099],[-75.76591,5.16101],[-75.76592,5.16102],[-75.76593,5.16104],[-75.76594,5.16105],[-75.76595,5.16107],[-75.76597,5.16108],[-75.76598,5.16109],[-75.76599,5.1611],[-75.76601,5.16111],[-75.76602,5.16112],[-75.76604,5.16113],[-75.76605,5.16114],[-75.76607,5.16114],[-75.76609,5.16115],[-75.7661,5.16115],[-75.76612,5.16116],[-75.76612,5.16116],[-75.76619,5.16116],[-75.76626,5.16118]]],[[[-75.77003,5.16443],[-75.77006,5.16446],[-75.77006,5.16446],[-75.77007,5.16447],[-75.77008,5.16448],[-75.7701,5.16449],[-75.7701,5.16449],[-75.7701,5.16449],[-75.77012,5.1645],[-75.77013,5.16451],[-75.77014,5.16451],[-75.77014,5.16451],[-75.77016,5.16452],[-75.77018,5.16453],[-75.77019,5.16453],[-75.77021,5.16454],[-75.77023,5.16454],[-75.77025,5.16454],[-75.77026,5.16454],[-75.77028,5.16454],[-75.7703,5.16454],[-75.77032,5.16454],[-75.77033,5.16453],[-75.77035,5.16453],[-75.77037,5.16452],[-75.77038,5.16451],[-75.7704,5.16451],[-75.77041,5.1645],[-75.77043,5.16449],[-75.77044,5.16447],[-75.77045,5.16446],[-75.77047,5.16445],[-75.77048,5.16444],[-75.77049,5.16442],[-75.7705,5.16441],[-75.7705,5.16439],[-75.77051,5.16437],[-75.77052,5.16436],[-75.77052,5.16434],[-75.77053,5.16432],[-75.77053,5.16431],[-75.77053,5.16429],[-75.77053,5.16427],[-75.77053,5.16427],[-75.77053,5.16425],[-75.77053,5.16423],[-75.77053,5.16421],[-75.77052,5.1642],[-75.77052,5.16418],[-75.77051,5.16416],[-75.7705,5.16415],[-75.7705,5.16413],[-75.77049,5.16412],[-75.77048,5.1641],[-75.77047,5.1641],[-75.77047,5.16409],[-75.77046,5.16408],[-75.77035,5.16402],[-75.77034,5.16398],[-75.77033,5.16391],[-75.77032,5.16385],[-75.77031,5.16383],[-75.77032,5.16381],[-75.77042,5.16376],[-75.77042,5.16376],[-75.77042,5.16374],[-75.77041,5.16372],[-75.77041,5.1637],[-75.77041,5.16369],[-75.77041,5.16369],[-75.77041,5.16367],[-75.7704,5.16365],[-75.7704,5.16365],[-75.7704,5.16364],[-75.7704,5.16362],[-75.7704,5.1636],[-75.7704,5.1636],[-75.7704,5.16361],[-75.77041,5.16362],[-75.77043,5.16363],[-75.77047,5.16367],[-75.77074,5.16388],[-75.77081,5.16398],[-75.77081,5.16399],[-75.77082,5.164],[-75.77083,5.16401],[-75.77084,5.16403],[-75.77086,5.16404],[-75.77087,5.16405],[-75.77089,5.16406],[-75.7709,5.16407],[-75.77092,5.16408],[-75.77093,5.16409],[-75.77095,5.16409],[-75.77097,5.1641],[-75.77098,5.1641],[-75.771,5.1641],[-75.77102,5.16411],[-75.77104,5.16411],[-75.77105,5.16411],[-75.77107,5.1641],[-75.77109,5.1641],[-75.77111,5.1641],[-75.77112,5.16409],[-75.77114,5.16408],[-75.77116,5.16408],[-75.77117,5.16407],[-75.77119,5.16406],[-75.7712,5.16405],[-75.77121,5.16404],[-75.77123,5.16403],[-75.77124,5.16401],[-75.77125,5.164],[-75.77126,5.16398],[-75.77127,5.16397],[-75.77128,5.16395],[-75.77129,5.16394],[-75.77129,5.16392],[-75.7713,5.1639],[-75.7713,5.16389],[-75.7713,5.16387],[-75.7713,5.16385],[-75.77131,5.16383],[-75.7713,5.16382],[-75.7713,5.1638],[-75.7713,5.16378],[-75.7713,5.16376],[-75.77129,5.16375],[-75.77128,5.16373],[-75.77128,5.16371],[-75.77127,5.1637],[-75.77126,5.16369],[-75.77117,5.16355],[-75.77117,5.16354],[-75.77116,5.16353],[-75.77115,5.16351],[-75.77114,5.1635],[-75.77112,5.16349],[-75.77111,5.16348],[-75.77096,5.16336],[-75.7709,5.16331],[-75.77078,5.16322],[-75.77077,5.16321],[-75.77064,5.16319],[-75.77055,5.16307],[-75.77043,5.16307],[-75.77037,5.16303],[-75.77036,5.16302],[-75.77036,5.16302],[-75.77028,5.16298],[-75.77028,5.16296],[-75.77027,5.16294],[-75.77026,5.16291],[-75.77025,5.16289],[-75.77023,5.16288],[-75.77021,5.16286],[-75.7702,5.16286],[-75.77018,5.16281],[-75.77016,5.1628],[-75.77014,5.1628],[-75.77011,5.1628],[-75.77009,5.16281],[-75.77006,5.16282],[-75.77003,5.16284],[-75.77001,5.16286],[-75.76999,5.16289],[-75.76998,5.16291],[-75.76997,5.16294],[-75.76997,5.16297],[-75.77001,5.163],[-75.77001,5.16301],[-75.77002,5.16303],[-75.77003,5.16305],[-75.77004,5.16307],[-75.77006,5.16309],[-75.77008,5.1631],[-75.7701,5.16311],[-75.77012,5.16312],[-75.77015,5.16312],[-75.77016,5.16312],[-75.7702,5.16314],[-75.77023,5.1634],[-75.77024,5.16341],[-75.77021,5.16341],[-75.77021,5.16341],[-75.7702,5.1634],[-75.77019,5.1634],[-75.77018,5.16339],[-75.77017,5.16339],[-75.77016,5.16338],[-75.77015,5.16338],[-75.77014,5.16337],[-75.77012,5.16337],[-75.77011,5.16337],[-75.7701,5.16337],[-75.77009,5.16337],[-75.77008,5.16337],[-75.77006,5.16337],[-75.77005,5.16337],[-75.77004,5.16337],[-75.77003,5.16338],[-75.77002,5.16338],[-75.77001,5.16339],[-75.77,5.16339],[-75.76999,5.1634],[-75.76998,5.16341],[-75.76997,5.16341],[-75.76996,5.16342],[-75.76995,5.16343],[-75.76995,5.16344],[-75.76994,5.16345],[-75.76993,5.16346],[-75.76993,5.16346],[-75.76993,5.16347],[-75.76992,5.16348],[-75.76992,5.16349],[-75.76992,5.1635],[-75.76991,5.16352],[-75.76988,5.16354],[-75.76982,5.16352],[-75.76979,5.16351],[-75.76976,5.16351],[-75.76972,5.1635],[-75.76972,5.1635],[-75.7697,5.1635],[-75.7697,5.1635],[-75.7697,5.1635],[-75.76969,5.1635],[-75.76968,5.16349],[-75.76968,5.16349],[-75.76967,5.16349],[-75.76967,5.16349],[-75.76966,5.16348],[-75.76964,5.16348],[-75.76964,5.16348],[-75.76964,5.16348],[-75.76963,5.16347],[-75.76962,5.16347],[-75.76961,5.16347],[-75.76959,5.16347],[-75.76958,5.16346],[-75.76958,5.16346],[-75.76957,5.16346],[-75.76957,5.16346],[-75.76956,5.16345],[-75.76955,5.16345],[-75.76955,5.16344],[-75.76954,5.16344],[-75.76954,5.16343],[-75.76953,5.16343],[-75.76953,5.16343],[-75.76952,5.16342],[-75.76952,5.16342],[-75.76952,5.16341],[-75.76951,5.1634],[-75.7695,5.16339],[-75.76949,5.16339],[-75.76948,5.16338],[-75.76947,5.16337],[-75.76947,5.16337],[-75.76943,5.16335],[-75.76938,5.16337],[-75.76938,5.16337],[-75.76936,5.16335],[-75.76934,5.16334],[-75.76931,5.16334],[-75.76929,5.16334],[-75.76927,5.16334],[-75.76924,5.16334],[-75.76922,5.16335],[-75.7692,5.16337],[-75.76919,5.16338],[-75.76917,5.1634],[-75.76916,5.16342],[-75.76916,5.16345],[-75.76915,5.16347],[-75.76916,5.16349],[-75.76916,5.16352],[-75.76917,5.16354],[-75.76917,5.16354],[-75.76913,5.16369],[-75.76914,5.1637],[-75.76915,5.1637],[-75.76916,5.16371],[-75.76917,5.16372],[-75.76918,5.16373],[-75.76919,5.16375],[-75.7692,5.16376],[-75.76922,5.16377],[-75.76922,5.16377],[-75.76933,5.16375],[-75.76934,5.16375],[-75.76935,5.16376],[-75.76936,5.16376],[-75.76937,5.16376],[-75.76937,5.16377],[-75.76937,5.16377],[-75.76938,5.16377],[-75.76939,5.16378],[-75.7694,5.16378],[-75.76942,5.16379],[-75.76942,5.16379],[-75.76943,5.1638],[-75.76943,5.1638],[-75.76942,5.16382],[-75.7694,5.16384],[-75.76935,5.16386],[-75.76932,5.16388],[-75.76931,5.16388],[-75.7693,5.16389],[-75.76928,5.1639],[-75.76927,5.16391],[-75.76926,5.16393],[-75.76925,5.16394],[-75.76924,5.16396],[-75.76923,5.16397],[-75.76922,5.16399],[-75.76921,5.164],[-75.76921,5.16402],[-75.7692,5.16404],[-75.7692,5.16405],[-75.76931,5.16419],[-75.76931,5.1642],[-75.76931,5.16421],[-75.76932,5.16422],[-75.76933,5.16423],[-75.76934,5.16423],[-75.76935,5.16424],[-75.76935,5.16424],[-75.76932,5.16434],[-75.76933,5.16434],[-75.76934,5.16435],[-75.76936,5.16436],[-75.76938,5.16436],[-75.76939,5.16437],[-75.7694,5.16437],[-75.7694,5.16437],[-75.7695,5.16429],[-75.7695,5.16429],[-75.76951,5.16429],[-75.76951,5.16429],[-75.76952,5.16429],[-75.76953,5.16428],[-75.76954,5.16428],[-75.76955,5.16428],[-75.76956,5.16428],[-75.76957,5.16427],[-75.76957,5.16427],[-75.76958,5.16427],[-75.76958,5.16427],[-75.76959,5.16426],[-75.7696,5.16426],[-75.7696,5.16426],[-75.76961,5.16426],[-75.76963,5.16426],[-75.76963,5.16425],[-75.76963,5.16425],[-75.76964,5.16425],[-75.76966,5.16425],[-75.76967,5.16424],[-75.76968,5.16424],[-75.76968,5.16424],[-75.76969,5.16425],[-75.7697,5.16425],[-75.76971,5.16425],[-75.76972,5.16426],[-75.76972,5.16426],[-75.76973,5.16426],[-75.76976,5.16436],[-75.76977,5.16436],[-75.76979,5.16437],[-75.7698,5.16437],[-75.7698,5.16437],[-75.76981,5.16438],[-75.76983,5.16438],[-75.76984,5.16439],[-75.76986,5.1644],[-75.76986,5.1644],[-75.76988,5.1644],[-75.76989,5.16441],[-75.76991,5.16441],[-75.76992,5.16441],[-75.76994,5.16442],[-75.76996,5.16442],[-75.76997,5.16442],[-75.76999,5.16442],[-75.77,5.16442],[-75.77001,5.16442],[-75.77003,5.16442],[-75.77003,5.16443]]],[[[-75.76467,5.16384],[-75.76465,5.16385],[-75.76464,5.16385],[-75.76462,5.16385],[-75.7646,5.16386],[-75.76459,5.16386],[-75.76457,5.16387],[-75.76455,5.16388],[-75.76454,5.16389],[-75.76453,5.1639],[-75.76451,5.16391],[-75.7645,5.16392],[-75.76449,5.16394],[-75.76448,5.16395],[-75.76447,5.16397],[-75.76446,5.16398],[-75.76445,5.164],[-75.76444,5.16401],[-75.76443,5.16403],[-75.76443,5.16405],[-75.76442,5.16406],[-75.76442,5.16408],[-75.76442,5.1641],[-75.76442,5.16412],[-75.76442,5.16413],[-75.76442,5.16415],[-75.76443,5.16417],[-75.76443,5.16419],[-75.76443,5.1642],[-75.76444,5.16422],[-75.76445,5.16424],[-75.76446,5.16425],[-75.76447,5.16427],[-75.76448,5.16428],[-75.76449,5.16429],[-75.76449,5.1643],[-75.76454,5.16435],[-75.76462,5.16456],[-75.76463,5.16457],[-75.76463,5.16458],[-75.76464,5.1646],[-75.76465,5.16461],[-75.76466,5.16463],[-75.76467,5.16464],[-75.76468,5.16466],[-75.76469,5.16466],[-75.76474,5.16471],[-75.76475,5.16472],[-75.76476,5.16473],[-75.76478,5.16474],[-75.76479,5.16475],[-75.7648,5.16475],[-75.76484,5.16478],[-75.7649,5.16481],[-75.76493,5.16482],[-75.76494,5.16483],[-75.76496,5.16484],[-75.76496,5.16484],[-75.76533,5.16499],[-75.76538,5.16501],[-75.7654,5.16501],[-75.76541,5.16502],[-75.76543,5.16502],[-75.76545,5.16503],[-75.76547,5.16503],[-75.76548,5.16503],[-75.7655,5.16503],[-75.76552,5.16503],[-75.76554,5.16502],[-75.76555,5.16502],[-75.76557,5.16501],[-75.76559,5.16501],[-75.7656,5.165],[-75.76562,5.16499],[-75.76563,5.16499],[-75.76563,5.16498],[-75.76565,5.16497],[-75.76566,5.16496],[-75.76567,5.16495],[-75.76569,5.16494],[-75.7657,5.16492],[-75.76571,5.16491],[-75.76572,5.16489],[-75.76573,5.16488],[-75.76573,5.16486],[-75.76574,5.16484],[-75.76574,5.16483],[-75.76575,5.16481],[-75.76575,5.16479],[-75.76575,5.16478],[-75.76575,5.16476],[-75.76575,5.16474],[-75.76575,5.16474],[-75.76575,5.16472],[-75.76575,5.1647],[-75.76574,5.16469],[-75.76574,5.16467],[-75.76573,5.16465],[-75.76572,5.16464],[-75.76572,5.16462],[-75.76571,5.16461],[-75.7657,5.16459],[-75.76569,5.16458],[-75.76567,5.16457],[-75.76566,5.16455],[-75.76565,5.16454],[-75.76563,5.16453],[-75.76562,5.16452],[-75.7656,5.16451],[-75.76559,5.16451],[-75.76558,5.16451],[-75.76519,5.16435],[-75.76518,5.16434],[-75.7651,5.1643],[-75.76502,5.1641],[-75.76502,5.1641],[-75.76502,5.16408],[-75.76501,5.16407],[-75.765,5.16405],[-75.76499,5.16404],[-75.76498,5.16402],[-75.76497,5.16402],[-75.76489,5.16393],[-75.76488,5.16392],[-75.76487,5.16391],[-75.76485,5.1639],[-75.76484,5.16389],[-75.76482,5.16388],[-75.76481,5.16387],[-75.76479,5.16386],[-75.76478,5.16386],[-75.76476,5.16385],[-75.76474,5.16385],[-75.76472,5.16385],[-75.76471,5.16384],[-75.76469,5.16384],[-75.76467,5.16384]]],[[[-75.76876,5.16545],[-75.76874,5.16545],[-75.76877,5.16545],[-75.76876,5.16545]]],[[[-75.76876,5.16545],[-75.76879,5.16546],[-75.76881,5.16546],[-75.76882,5.16546],[-75.76883,5.16546],[-75.76883,5.16546],[-75.76886,5.16546],[-75.76886,5.16547],[-75.76887,5.16548],[-75.76888,5.1655],[-75.76889,5.16551],[-75.7689,5.16552],[-75.76891,5.16553],[-75.76892,5.16554],[-75.76892,5.16554],[-75.76894,5.16555],[-75.76895,5.16556],[-75.76896,5.16557],[-75.76898,5.16558],[-75.76899,5.16559],[-75.769,5.16559],[-75.76901,5.1656],[-75.76902,5.1656],[-75.76904,5.16561],[-75.76904,5.16561],[-75.76905,5.16562],[-75.76906,5.16562],[-75.76908,5.16563],[-75.7691,5.16563],[-75.76912,5.16563],[-75.76913,5.16563],[-75.76914,5.16564],[-75.76915,5.16564],[-75.76915,5.16564],[-75.76915,5.16564],[-75.76917,5.16565],[-75.76919,5.16565],[-75.7692,5.16566],[-75.76922,5.16566],[-75.76923,5.16567],[-75.76923,5.16567],[-75.76924,5.16567],[-75.76926,5.16567],[-75.76928,5.16567],[-75.7693,5.16567],[-75.76931,5.16568],[-75.76933,5.16568],[-75.76935,5.16568],[-75.76936,5.16568],[-75.76938,5.16568],[-75.7694,5.16567],[-75.76942,5.16567],[-75.76943,5.16566],[-75.76945,5.16566],[-75.76947,5.16565],[-75.76948,5.16564],[-75.7695,5.16563],[-75.76951,5.16562],[-75.76952,5.16561],[-75.76954,5.1656],[-75.76954,5.1656],[-75.76955,5.16559],[-75.76956,5.16557],[-75.76957,5.16556],[-75.76958,5.16554],[-75.76959,5.16553],[-75.7696,5.16551],[-75.7696,5.16549],[-75.76961,5.16548],[-75.76961,5.16546],[-75.76961,5.16544],[-75.76962,5.16543],[-75.76962,5.16541],[-75.76962,5.16539],[-75.76961,5.16537],[-75.76961,5.16535],[-75.76961,5.16534],[-75.7696,5.16532],[-75.7696,5.1653],[-75.76959,5.16529],[-75.76958,5.16527],[-75.76957,5.16526],[-75.76956,5.16524],[-75.76955,5.16523],[-75.76954,5.16522],[-75.76952,5.1652],[-75.76951,5.16519],[-75.7695,5.16518],[-75.76949,5.16518],[-75.76948,5.16517],[-75.76947,5.16516],[-75.76945,5.16516],[-75.76943,5.16515],[-75.76942,5.16514],[-75.76941,5.16514],[-75.76941,5.16514],[-75.76939,5.16513],[-75.76938,5.16512],[-75.76938,5.16512],[-75.76937,5.16511],[-75.76935,5.16511],[-75.76934,5.1651],[-75.76932,5.1651],[-75.76931,5.16509],[-75.76931,5.16509],[-75.7693,5.16507],[-75.76929,5.16506],[-75.76929,5.16504],[-75.76928,5.16503],[-75.76927,5.16502],[-75.76927,5.16502],[-75.76926,5.165],[-75.76924,5.16499],[-75.76923,5.16498],[-75.76922,5.16497],[-75.76922,5.16497],[-75.76921,5.16496],[-75.76919,5.16495],[-75.76918,5.16494],[-75.76916,5.16493],[-75.76915,5.16492],[-75.76913,5.16492],[-75.76912,5.16491],[-75.76911,5.16491],[-75.76909,5.1649],[-75.76907,5.16489],[-75.76906,5.16489],[-75.76905,5.16489],[-75.76904,5.16488],[-75.76902,5.16488],[-75.769,5.16488],[-75.769,5.16488],[-75.76899,5.16487],[-75.76895,5.16487],[-75.7689,5.16487],[-75.76887,5.16485],[-75.76885,5.16484],[-75.76885,5.16484],[-75.76884,5.16481],[-75.76884,5.16478],[-75.76883,5.16477],[-75.76882,5.16475],[-75.76882,5.16475],[-75.76882,5.16474],[-75.76881,5.16473],[-75.76881,5.16472],[-75.7688,5.16471],[-75.7688,5.16471],[-75.7688,5.16471],[-75.76879,5.1647],[-75.76879,5.16469],[-75.76879,5.16469],[-75.76878,5.16468],[-75.76878,5.16467],[-75.76877,5.16466],[-75.76877,5.16466],[-75.76875,5.16443],[-75.76874,5.16442],[-75.76873,5.16441],[-75.76872,5.1644],[-75.76871,5.16439],[-75.7687,5.16438],[-75.76869,5.16437],[-75.76869,5.16437],[-75.76867,5.16436],[-75.76866,5.16435],[-75.76864,5.16434],[-75.76863,5.16433],[-75.76862,5.16433],[-75.76862,5.16433],[-75.7686,5.16433],[-75.76859,5.16432],[-75.76859,5.16432],[-75.76857,5.16431],[-75.76856,5.1643],[-75.76854,5.16429],[-75.76853,5.16428],[-75.76851,5.16428],[-75.76849,5.16427],[-75.76848,5.16427],[-75.76846,5.16426],[-75.76845,5.16426],[-75.76838,5.16436],[-75.76838,5.16436],[-75.76837,5.16436],[-75.76835,5.16437],[-75.76834,5.16437],[-75.76834,5.16437],[-75.76834,5.16443],[-75.76832,5.16445],[-75.76831,5.16447],[-75.7683,5.16449],[-75.76829,5.16451],[-75.76829,5.16453],[-75.76829,5.16455],[-75.76828,5.16454],[-75.76826,5.16453],[-75.76824,5.16452],[-75.76822,5.16451],[-75.7682,5.16451],[-75.76818,5.16447],[-75.76817,5.16447],[-75.76816,5.16447],[-75.76816,5.16447],[-75.76815,5.16447],[-75.76814,5.16448],[-75.76812,5.16448],[-75.76811,5.16449],[-75.7681,5.16449],[-75.76809,5.1645],[-75.76808,5.1645],[-75.76807,5.16451],[-75.76807,5.16452],[-75.76806,5.16453],[-75.76805,5.16454],[-75.76804,5.16455],[-75.76804,5.16456],[-75.76803,5.16457],[-75.76803,5.16458],[-75.76802,5.16459],[-75.76802,5.1646],[-75.76802,5.16461],[-75.76802,5.16462],[-75.76801,5.16464],[-75.76801,5.16465],[-75.76801,5.16466],[-75.76802,5.16467],[-75.76802,5.16468],[-75.76802,5.16469],[-75.76802,5.16471],[-75.76803,5.16472],[-75.76803,5.16473],[-75.76804,5.16473],[-75.76806,5.16478],[-75.76805,5.16483],[-75.76803,5.16486],[-75.76801,5.16487],[-75.768,5.16488],[-75.76799,5.16488],[-75.76797,5.16488],[-75.76794,5.16487],[-75.76792,5.16486],[-75.7679,5.16486],[-75.76788,5.16485],[-75.76786,5.16485],[-75.76785,5.16485],[-75.76784,5.16485],[-75.76783,5.16485],[-75.76782,5.16485],[-75.76782,5.16485],[-75.76781,5.16486],[-75.7678,5.16486],[-75.76779,5.16486],[-75.76778,5.16486],[-75.76778,5.16486],[-75.76778,5.16486],[-75.76776,5.16487],[-75.76775,5.16487],[-75.76774,5.16487],[-75.76773,5.16488],[-75.76772,5.16489],[-75.76771,5.16489],[-75.76771,5.16489],[-75.76771,5.16489],[-75.7677,5.1649],[-75.76769,5.1649],[-75.76769,5.1649],[-75.76767,5.1649],[-75.76766,5.1649],[-75.76765,5.16491],[-75.76764,5.16491],[-75.76763,5.16491],[-75.76763,5.16491],[-75.76761,5.16491],[-75.7676,5.16491],[-75.76759,5.16492],[-75.76758,5.16492],[-75.76737,5.16497],[-75.76737,5.16497],[-75.76736,5.16498],[-75.76735,5.16498],[-75.76735,5.16498],[-75.76718,5.16505],[-75.76713,5.16507],[-75.76685,5.16513],[-75.76685,5.16513],[-75.76684,5.16515],[-75.76683,5.16517],[-75.76682,5.16518],[-75.76682,5.1652],[-75.76681,5.16522],[-75.76681,5.16524],[-75.76681,5.16525],[-75.76681,5.16526],[-75.76695,5.16531],[-75.76695,5.16532],[-75.76696,5.16534],[-75.76698,5.16536],[-75.76699,5.16537],[-75.76701,5.16539],[-75.76703,5.1654],[-75.76706,5.1654],[-75.76708,5.16541],[-75.7671,5.1654],[-75.76713,5.1654],[-75.76713,5.1654],[-75.76719,5.16543],[-75.76729,5.1654],[-75.7673,5.1654],[-75.76731,5.16539],[-75.76732,5.16539],[-75.76748,5.16532],[-75.76761,5.16528],[-75.76762,5.16529],[-75.76763,5.16529],[-75.76764,5.16529],[-75.76765,5.16529],[-75.76767,5.16529],[-75.76768,5.16529],[-75.76769,5.16529],[-75.7677,5.16529],[-75.76787,5.16533],[-75.76787,5.16534],[-75.76789,5.16534],[-75.7679,5.16534],[-75.76791,5.16534],[-75.76792,5.16534],[-75.76793,5.16534],[-75.76793,5.16534],[-75.76795,5.16534],[-75.76797,5.16535],[-75.76798,5.16535],[-75.768,5.16535],[-75.76802,5.16535],[-75.76804,5.16535],[-75.76804,5.16535],[-75.76805,5.16534],[-75.76806,5.16534],[-75.76808,5.16534],[-75.7681,5.16534],[-75.76812,5.16533],[-75.76812,5.16533],[-75.76812,5.16533],[-75.76813,5.16534],[-75.76814,5.16534],[-75.76814,5.16534],[-75.76814,5.16534],[-75.76815,5.16535],[-75.76815,5.16536],[-75.76816,5.16536],[-75.76817,5.16537],[-75.76819,5.16538],[-75.7682,5.16539],[-75.7682,5.16539],[-75.76821,5.1654],[-75.76823,5.16541],[-75.76824,5.16541],[-75.76826,5.16542],[-75.76827,5.16542],[-75.76829,5.16543],[-75.7683,5.16543],[-75.76832,5.16544],[-75.76833,5.16544],[-75.76834,5.16544],[-75.76836,5.16544],[-75.76838,5.16544],[-75.76839,5.16544],[-75.76841,5.16544],[-75.76842,5.16544],[-75.76845,5.16544],[-75.76845,5.16544],[-75.76847,5.16544],[-75.76848,5.16543],[-75.7685,5.16543],[-75.76852,5.16542],[-75.76852,5.16542],[-75.76854,5.16541],[-75.76854,5.16541],[-75.76856,5.1654],[-75.76857,5.1654],[-75.76858,5.16539],[-75.76864,5.16538],[-75.76865,5.16539],[-75.76866,5.1654],[-75.7687,5.16543],[-75.76871,5.16543],[-75.76876,5.16545]],[[-75.76834,5.16464],[-75.76836,5.16465],[-75.76837,5.16466],[-75.76836,5.16468],[-75.76833,5.16469],[-75.76832,5.16469],[-75.76832,5.16468],[-75.76833,5.16467],[-75.76833,5.16465],[-75.76833,5.16463],[-75.76834,5.16464]]],[[[-75.76374,5.16596],[-75.76379,5.16598],[-75.7638,5.16598],[-75.76399,5.16602],[-75.76408,5.16606],[-75.7642,5.1661],[-75.76423,5.16611],[-75.76437,5.16618],[-75.76441,5.16619],[-75.76442,5.16619],[-75.76481,5.16627],[-75.76514,5.16637],[-75.76518,5.16637],[-75.76522,5.16638],[-75.76526,5.16637],[-75.7653,5.16636],[-75.76534,5.16634],[-75.76538,5.16632],[-75.76541,5.16629],[-75.76543,5.16626],[-75.76545,5.16622],[-75.76547,5.16618],[-75.76548,5.16614],[-75.76548,5.16609],[-75.76547,5.16605],[-75.76546,5.16601],[-75.76544,5.16597],[-75.76542,5.16594],[-75.76539,5.16591],[-75.76536,5.16588],[-75.76532,5.16586],[-75.76528,5.16584],[-75.76525,5.16583],[-75.76512,5.16589],[-75.76498,5.16585],[-75.76479,5.16571],[-75.76456,5.16566],[-75.76423,5.16553],[-75.76408,5.16558],[-75.76393,5.16555],[-75.76375,5.16537],[-75.76363,5.16532],[-75.7636,5.16529],[-75.76356,5.16525],[-75.7635,5.16517],[-75.76348,5.16514],[-75.76345,5.16511],[-75.76341,5.16509],[-75.76338,5.16507],[-75.76334,5.16506],[-75.7633,5.16506],[-75.76326,5.16506],[-75.76322,5.16506],[-75.76318,5.16508],[-75.76314,5.1651],[-75.7631,5.16513],[-75.76307,5.16516],[-75.76305,5.16519],[-75.76303,5.16523],[-75.76302,5.16528],[-75.76301,5.16532],[-75.76302,5.16536],[-75.76303,5.16541],[-75.76304,5.16545],[-75.76307,5.16549],[-75.76314,5.16558],[-75.76314,5.16559],[-75.76316,5.16562],[-75.76329,5.16574],[-75.7633,5.16575],[-75.76333,5.16578],[-75.76337,5.1658],[-75.76374,5.16596]]],[[[-75.76791,5.1671],[-75.76792,5.16711],[-75.76793,5.16711],[-75.76794,5.16712],[-75.76795,5.16712],[-75.76796,5.16713],[-75.76797,5.16713],[-75.76799,5.16713],[-75.768,5.16714],[-75.76801,5.16714],[-75.76803,5.16714],[-75.76804,5.16714],[-75.76805,5.16714],[-75.76806,5.16714],[-75.76808,5.16714],[-75.76809,5.16713],[-75.7681,5.16713],[-75.76811,5.16713],[-75.76812,5.16712],[-75.76813,5.16712],[-75.76814,5.16712],[-75.76815,5.16712],[-75.76817,5.16712],[-75.76817,5.16712],[-75.76817,5.16712],[-75.76818,5.16711],[-75.76819,5.16711],[-75.7682,5.16711],[-75.76821,5.16711],[-75.76821,5.1671],[-75.76822,5.1671],[-75.76822,5.1671],[-75.76823,5.1671],[-75.76824,5.1671],[-75.76824,5.1671],[-75.76842,5.16712],[-75.76843,5.16712],[-75.76845,5.16711],[-75.76846,5.1671],[-75.76851,5.16701],[-75.76852,5.16701],[-75.76852,5.16701],[-75.76853,5.167],[-75.76854,5.167],[-75.76855,5.167],[-75.76857,5.167],[-75.76858,5.16699],[-75.76859,5.16699],[-75.7686,5.16698],[-75.76861,5.16697],[-75.76861,5.16697],[-75.76861,5.16697],[-75.76862,5.16696],[-75.76863,5.16696],[-75.76864,5.16695],[-75.76865,5.16695],[-75.76866,5.16694],[-75.76867,5.16693],[-75.76867,5.16693],[-75.76868,5.16692],[-75.76869,5.16692],[-75.76869,5.16692],[-75.7687,5.16692],[-75.76871,5.16691],[-75.76872,5.1669],[-75.76872,5.16689],[-75.76873,5.16688],[-75.76874,5.16688],[-75.76875,5.16687],[-75.76875,5.16687],[-75.76875,5.16687],[-75.76876,5.16686],[-75.76876,5.16686],[-75.76876,5.16685],[-75.76876,5.16685],[-75.76876,5.16685],[-75.76878,5.16683],[-75.76878,5.16682],[-75.76879,5.16682],[-75.7688,5.16681],[-75.7688,5.1668],[-75.7688,5.16679],[-75.76881,5.16678],[-75.76882,5.16677],[-75.76882,5.16677],[-75.76883,5.16676],[-75.76883,5.16676],[-75.76884,5.16675],[-75.76884,5.16674],[-75.76886,5.16674],[-75.76888,5.16671],[-75.7689,5.1667],[-75.76893,5.16665],[-75.76894,5.1666],[-75.76894,5.16657],[-75.76893,5.16651],[-75.76892,5.16649],[-75.76891,5.16648],[-75.76891,5.16647],[-75.7689,5.16646],[-75.76889,5.16645],[-75.76888,5.16644],[-75.76887,5.16644],[-75.76887,5.16644],[-75.76886,5.16643],[-75.76885,5.16642],[-75.76884,5.16642],[-75.76883,5.16641],[-75.76883,5.16641],[-75.76877,5.16631],[-75.76874,5.16631],[-75.76873,5.1663],[-75.76872,5.1663],[-75.76871,5.1663],[-75.7687,5.1663],[-75.7687,5.1663],[-75.76868,5.1663],[-75.76867,5.16629],[-75.76867,5.16629],[-75.76866,5.16629],[-75.76865,5.16629],[-75.76864,5.16628],[-75.76862,5.16628],[-75.7686,5.16628],[-75.76858,5.16628],[-75.76857,5.16628],[-75.76855,5.16628],[-75.76854,5.16628],[-75.76852,5.16629],[-75.76852,5.16629],[-75.7685,5.16629],[-75.76848,5.1663],[-75.76848,5.1663],[-75.76847,5.1663],[-75.76845,5.1663],[-75.76844,5.1663],[-75.76843,5.1663],[-75.76841,5.16629],[-75.7684,5.16629],[-75.76837,5.16629],[-75.76836,5.16629],[-75.76836,5.16629],[-75.76834,5.16629],[-75.76832,5.16629],[-75.76831,5.16629],[-75.7683,5.16629],[-75.7683,5.16629],[-75.76828,5.1663],[-75.76826,5.1663],[-75.76825,5.16631],[-75.76823,5.16631],[-75.76822,5.16632],[-75.76821,5.16631],[-75.76819,5.16631],[-75.76819,5.16631],[-75.76818,5.1663],[-75.76818,5.1663],[-75.76817,5.16629],[-75.76815,5.16628],[-75.76814,5.16628],[-75.76802,5.16633],[-75.76801,5.16632],[-75.768,5.16632],[-75.76798,5.16632],[-75.76797,5.16632],[-75.76796,5.16632],[-75.76795,5.16632],[-75.76794,5.16632],[-75.76794,5.16632],[-75.76793,5.16632],[-75.76792,5.16632],[-75.76792,5.16632],[-75.76791,5.16633],[-75.7679,5.16633],[-75.76789,5.16633],[-75.76788,5.16633],[-75.76787,5.16633],[-75.76785,5.16634],[-75.76785,5.16634],[-75.76784,5.16634],[-75.76783,5.16635],[-75.76782,5.16635],[-75.76781,5.16636],[-75.76781,5.16636],[-75.76781,5.16636],[-75.7678,5.16635],[-75.76779,5.16635],[-75.76779,5.16635],[-75.76779,5.16635],[-75.76777,5.16635],[-75.76776,5.16634],[-75.76776,5.16634],[-75.76774,5.16634],[-75.76774,5.16634],[-75.76773,5.16634],[-75.76772,5.16634],[-75.76771,5.16634],[-75.7677,5.16634],[-75.76769,5.16635],[-75.76768,5.16635],[-75.76768,5.16635],[-75.76768,5.16635],[-75.76767,5.16635],[-75.76766,5.16634],[-75.76765,5.16634],[-75.76765,5.16634],[-75.76764,5.16634],[-75.76763,5.16634],[-75.76762,5.16634],[-75.76761,5.16634],[-75.7676,5.16634],[-75.76759,5.16634],[-75.76758,5.16633],[-75.76757,5.16633],[-75.76756,5.16632],[-75.76755,5.16632],[-75.76749,5.16623],[-75.76748,5.16623],[-75.76748,5.16623],[-75.76748,5.16623],[-75.76746,5.16623],[-75.76744,5.16623],[-75.76743,5.16623],[-75.76737,5.16633],[-75.76718,5.16634],[-75.76707,5.16622],[-75.76695,5.16615],[-75.76693,5.16615],[-75.76692,5.16614],[-75.7669,5.16614],[-75.76674,5.16624],[-75.76674,5.16624],[-75.76673,5.16625],[-75.76672,5.16626],[-75.76671,5.16626],[-75.7667,5.16627],[-75.76669,5.16628],[-75.76669,5.16629],[-75.76668,5.1663],[-75.76667,5.16631],[-75.76667,5.16632],[-75.76666,5.16633],[-75.76666,5.16634],[-75.76666,5.16635],[-75.76665,5.16636],[-75.76665,5.16638],[-75.76665,5.16639],[-75.76665,5.1664],[-75.76665,5.16641],[-75.76665,5.16642],[-75.76674,5.16666],[-75.76686,5.16671],[-75.76687,5.16672],[-75.76689,5.16673],[-75.7669,5.16673],[-75.76707,5.16678],[-75.76708,5.16678],[-75.76722,5.1667],[-75.76736,5.1667],[-75.76739,5.16671],[-75.7674,5.16671],[-75.76741,5.16672],[-75.76742,5.16672],[-75.76744,5.16672],[-75.76745,5.16672],[-75.76746,5.16672],[-75.76747,5.16672],[-75.76748,5.16672],[-75.7675,5.16672],[-75.76751,5.16672],[-75.76751,5.16672],[-75.76752,5.16672],[-75.76753,5.16672],[-75.76754,5.16672],[-75.76756,5.16672],[-75.76757,5.16672],[-75.76758,5.16672],[-75.76759,5.16672],[-75.7676,5.16672],[-75.76761,5.16672],[-75.76761,5.16672],[-75.76762,5.16672],[-75.76763,5.16673],[-75.76764,5.16673],[-75.76765,5.16673],[-75.76766,5.16673],[-75.76767,5.16673],[-75.76768,5.16673],[-75.76769,5.16673],[-75.76771,5.16672],[-75.76772,5.16672],[-75.76772,5.16672],[-75.76773,5.16673],[-75.76774,5.16673],[-75.76774,5.16673],[-75.76783,5.16675],[-75.76792,5.16679],[-75.76791,5.16681],[-75.76787,5.16685],[-75.76785,5.16688],[-75.76785,5.16689],[-75.76785,5.16691],[-75.76785,5.16691],[-75.76785,5.16691],[-75.76784,5.16692],[-75.76784,5.16693],[-75.76784,5.16695],[-75.76784,5.16696],[-75.76784,5.16697],[-75.76784,5.16698],[-75.76784,5.16699],[-75.76785,5.167],[-75.76785,5.16702],[-75.76785,5.16703],[-75.76786,5.16704],[-75.76786,5.16705],[-75.76787,5.16706],[-75.76788,5.16707],[-75.76788,5.16708],[-75.76789,5.16709],[-75.7679,5.16709],[-75.76791,5.1671]]],[[[-75.76655,5.16947],[-75.76656,5.16948],[-75.76657,5.16948],[-75.76658,5.16949],[-75.76659,5.1695],[-75.7666,5.1695],[-75.76661,5.16951],[-75.76662,5.16951],[-75.76663,5.16952],[-75.76664,5.16952],[-75.76665,5.16952],[-75.76666,5.16953],[-75.76668,5.16953],[-75.76669,5.16953],[-75.7667,5.16953],[-75.76671,5.16953],[-75.76672,5.16952],[-75.76673,5.16952],[-75.76675,5.16952],[-75.76676,5.16951],[-75.76677,5.16951],[-75.76678,5.1695],[-75.76679,5.1695],[-75.7668,5.16949],[-75.7668,5.16949],[-75.76681,5.16949],[-75.76682,5.16948],[-75.76683,5.16948],[-75.76684,5.16947],[-75.76684,5.16947],[-75.76685,5.16946],[-75.76685,5.16946],[-75.76686,5.16946],[-75.76686,5.16946],[-75.76687,5.16946],[-75.76688,5.16947],[-75.76689,5.16947],[-75.7669,5.16947],[-75.76691,5.16948],[-75.76692,5.16948],[-75.76693,5.16948],[-75.76693,5.16948],[-75.76694,5.16948],[-75.76695,5.16949],[-75.76696,5.16949],[-75.76697,5.16949],[-75.76699,5.16949],[-75.767,5.16949],[-75.76701,5.16949],[-75.76702,5.16949],[-75.76703,5.16949],[-75.76705,5.16948],[-75.76705,5.16948],[-75.76706,5.16948],[-75.76707,5.16948],[-75.76708,5.16947],[-75.76709,5.16947],[-75.7671,5.16946],[-75.76711,5.16946],[-75.76712,5.16945],[-75.76712,5.16945],[-75.76713,5.16945],[-75.76714,5.16945],[-75.76715,5.16945],[-75.76717,5.16945],[-75.76718,5.16944],[-75.76719,5.16944],[-75.7672,5.16943],[-75.7672,5.16943],[-75.76721,5.16943],[-75.76722,5.16942],[-75.76723,5.16942],[-75.76724,5.16941],[-75.76725,5.16941],[-75.76726,5.1694],[-75.76726,5.1694],[-75.76727,5.16939],[-75.76728,5.16938],[-75.76729,5.16937],[-75.76729,5.16937],[-75.7673,5.16937],[-75.76731,5.16937],[-75.76732,5.16936],[-75.76734,5.16936],[-75.76735,5.16935],[-75.76735,5.16935],[-75.76735,5.16935],[-75.76736,5.16935],[-75.76737,5.16935],[-75.76737,5.16935],[-75.76738,5.16935],[-75.76739,5.16935],[-75.7674,5.16936],[-75.76741,5.16936],[-75.76742,5.16936],[-75.76742,5.16936],[-75.76743,5.16937],[-75.76745,5.16937],[-75.76745,5.16937],[-75.76745,5.16937],[-75.76747,5.16938],[-75.76748,5.16938],[-75.76749,5.16938],[-75.76749,5.16938],[-75.7675,5.16938],[-75.76751,5.16938],[-75.76752,5.16939],[-75.76753,5.16939],[-75.76754,5.16939],[-75.76754,5.16939],[-75.76755,5.16939],[-75.76756,5.16939],[-75.76757,5.16939],[-75.76758,5.16939],[-75.76759,5.16939],[-75.7676,5.16939],[-75.76761,5.16939],[-75.76762,5.16938],[-75.76763,5.16938],[-75.76764,5.16938],[-75.76765,5.16938],[-75.76765,5.16938],[-75.76766,5.16937],[-75.76767,5.16937],[-75.76768,5.16937],[-75.76769,5.16936],[-75.7677,5.16935],[-75.76771,5.16935],[-75.76772,5.16934],[-75.76773,5.16933],[-75.76773,5.16933],[-75.76773,5.16933],[-75.76774,5.16932],[-75.76775,5.16931],[-75.76776,5.1693],[-75.76776,5.16929],[-75.76777,5.16928],[-75.76777,5.16927],[-75.76778,5.16926],[-75.76778,5.16925],[-75.76778,5.16923],[-75.76779,5.16922],[-75.76779,5.16922],[-75.76787,5.16912],[-75.76786,5.16911],[-75.76786,5.16909],[-75.76785,5.16907],[-75.76784,5.16906],[-75.76783,5.16904],[-75.76782,5.16903],[-75.76781,5.16902],[-75.7678,5.169],[-75.76778,5.16899],[-75.76777,5.16898],[-75.76776,5.16897],[-75.76774,5.16896],[-75.76773,5.16895],[-75.76771,5.16894],[-75.76769,5.16894],[-75.76768,5.16893],[-75.76766,5.16893],[-75.76764,5.16893],[-75.76762,5.16893],[-75.76761,5.16892],[-75.76759,5.16893],[-75.76757,5.16893],[-75.76756,5.16893],[-75.76755,5.16893],[-75.76755,5.16893],[-75.76754,5.16892],[-75.76754,5.16892],[-75.76752,5.16891],[-75.76751,5.16891],[-75.7675,5.16891],[-75.76749,5.1689],[-75.76748,5.1689],[-75.76747,5.1689],[-75.76747,5.16889],[-75.76746,5.16889],[-75.76745,5.16889],[-75.76743,5.16888],[-75.76742,5.16888],[-75.7674,5.16888],[-75.76738,5.16888],[-75.76736,5.16888],[-75.76735,5.16888],[-75.76735,5.16888],[-75.76733,5.16888],[-75.76731,5.16888],[-75.76729,5.16888],[-75.76729,5.16888],[-75.76729,5.16888],[-75.76727,5.16889],[-75.76725,5.16889],[-75.76724,5.1689],[-75.76722,5.1689],[-75.7672,5.16891],[-75.7672,5.16891],[-75.7672,5.16891],[-75.7672,5.16891],[-75.76718,5.16892],[-75.76716,5.16893],[-75.76715,5.16893],[-75.76715,5.16893],[-75.76714,5.16894],[-75.76713,5.16894],[-75.76711,5.16894],[-75.76709,5.16895],[-75.76708,5.16896],[-75.76706,5.16897],[-75.76705,5.16898],[-75.76703,5.16899],[-75.76702,5.16899],[-75.767,5.16899],[-75.767,5.16899],[-75.76699,5.169],[-75.76697,5.169],[-75.76697,5.169],[-75.76696,5.169],[-75.76696,5.169],[-75.76693,5.16899],[-75.76692,5.16899],[-75.7669,5.16898],[-75.76688,5.16898],[-75.76686,5.16898],[-75.76685,5.16898],[-75.76684,5.16898],[-75.76682,5.16899],[-75.7668,5.16899],[-75.76679,5.16899],[-75.76677,5.169],[-75.76676,5.169],[-75.76676,5.169],[-75.76675,5.16901],[-75.76673,5.16901],[-75.76672,5.16901],[-75.76671,5.16902],[-75.76669,5.16902],[-75.76667,5.16903],[-75.76666,5.16904],[-75.76664,5.16904],[-75.76663,5.16905],[-75.76661,5.16906],[-75.7666,5.16907],[-75.7666,5.16907],[-75.76659,5.16908],[-75.76658,5.16909],[-75.76658,5.16909],[-75.76657,5.16909],[-75.76656,5.1691],[-75.76655,5.16911],[-75.76653,5.16912],[-75.76652,5.16913],[-75.76651,5.16914],[-75.7665,5.16915],[-75.76649,5.16917],[-75.76648,5.16917],[-75.76647,5.16918],[-75.76646,5.1692],[-75.76645,5.16921],[-75.76644,5.16923],[-75.76644,5.16924],[-75.76643,5.16926],[-75.76643,5.16928],[-75.76642,5.1693],[-75.76642,5.16931],[-75.76642,5.16933],[-75.76642,5.16935],[-75.76642,5.16937],[-75.76642,5.16938],[-75.76653,5.16943],[-75.76653,5.16944],[-75.76654,5.16945],[-75.76654,5.16946],[-75.76655,5.16947]]],[[[-75.76619,5.17016],[-75.76621,5.17017],[-75.76622,5.17017],[-75.76624,5.17018],[-75.76624,5.17018],[-75.76625,5.17019],[-75.76627,5.1702],[-75.76638,5.17013],[-75.76638,5.17013],[-75.76639,5.17012],[-75.76639,5.17012],[-75.76641,5.17012],[-75.76643,5.17012],[-75.76644,5.17012],[-75.76645,5.17012],[-75.76645,5.17012],[-75.76647,5.17011],[-75.76649,5.17011],[-75.7665,5.1701],[-75.76651,5.1701],[-75.76652,5.17009],[-75.76653,5.17009],[-75.76654,5.17008],[-75.76655,5.17007],[-75.76656,5.17006],[-75.76656,5.17005],[-75.76657,5.17005],[-75.76658,5.17004],[-75.76658,5.17003],[-75.76659,5.17001],[-75.76659,5.17],[-75.7666,5.16999],[-75.7666,5.16998],[-75.7666,5.16997],[-75.76661,5.16996],[-75.76661,5.16995],[-75.76661,5.16993],[-75.76661,5.16992],[-75.76661,5.16991],[-75.7666,5.1699],[-75.7666,5.16989],[-75.7666,5.16988],[-75.76659,5.16987],[-75.76659,5.16986],[-75.76658,5.16984],[-75.76658,5.16983],[-75.76657,5.16983],[-75.76656,5.16982],[-75.76655,5.16981],[-75.76655,5.1698],[-75.76654,5.16979],[-75.76653,5.16978],[-75.76652,5.16978],[-75.76651,5.16977],[-75.7665,5.16977],[-75.76648,5.16976],[-75.76647,5.16976],[-75.76646,5.16976],[-75.76645,5.16976],[-75.76644,5.16976],[-75.76643,5.16975],[-75.76639,5.16964],[-75.76638,5.16963],[-75.76637,5.16963],[-75.76635,5.16962],[-75.76634,5.16962],[-75.76633,5.16961],[-75.76632,5.16961],[-75.7663,5.16961],[-75.76628,5.1696],[-75.76628,5.1696],[-75.76627,5.1696],[-75.76625,5.1696],[-75.76624,5.1696],[-75.76622,5.1696],[-75.7662,5.1696],[-75.7662,5.1696],[-75.76619,5.1696],[-75.76618,5.16961],[-75.76617,5.1696],[-75.76615,5.1696],[-75.76613,5.16959],[-75.76612,5.16959],[-75.76611,5.16959],[-75.76611,5.16959],[-75.76609,5.16959],[-75.76607,5.16959],[-75.76605,5.16959],[-75.76604,5.16959],[-75.76604,5.16959],[-75.76603,5.16959],[-75.76603,5.16959],[-75.76602,5.16959],[-75.76601,5.16959],[-75.766,5.16959],[-75.76599,5.1696],[-75.76598,5.1696],[-75.76596,5.1696],[-75.76595,5.16961],[-75.76595,5.16961],[-75.76591,5.16962],[-75.76591,5.16962],[-75.76589,5.16962],[-75.76588,5.16962],[-75.76586,5.16962],[-75.76585,5.16963],[-75.76584,5.16962],[-75.76584,5.16962],[-75.76583,5.16962],[-75.76581,5.16962],[-75.76579,5.16962],[-75.76578,5.16962],[-75.76576,5.16962],[-75.76575,5.16962],[-75.76575,5.16962],[-75.76574,5.16962],[-75.76574,5.16962],[-75.76572,5.16962],[-75.7657,5.16962],[-75.7657,5.16962],[-75.76569,5.16961],[-75.76567,5.16961],[-75.76565,5.1696],[-75.76564,5.1696],[-75.76562,5.1696],[-75.7656,5.16959],[-75.76559,5.16959],[-75.76559,5.16959],[-75.76559,5.16959],[-75.76558,5.16959],[-75.76556,5.16959],[-75.76555,5.16958],[-75.76553,5.16958],[-75.76551,5.16958],[-75.76549,5.16958],[-75.76548,5.16958],[-75.76548,5.16957],[-75.76547,5.16957],[-75.76546,5.16957],[-75.76544,5.16957],[-75.76543,5.16957],[-75.76543,5.16957],[-75.76541,5.16957],[-75.7654,5.16957],[-75.76538,5.16956],[-75.76537,5.16956],[-75.76537,5.16956],[-75.76534,5.16956],[-75.76532,5.16956],[-75.76531,5.16956],[-75.7653,5.16956],[-75.76528,5.16955],[-75.76527,5.16955],[-75.76525,5.16954],[-75.76523,5.16954],[-75.76522,5.16954],[-75.76521,5.16954],[-75.7652,5.16954],[-75.76518,5.16954],[-75.76517,5.16954],[-75.76516,5.16954],[-75.76507,5.16965],[-75.76506,5.16965],[-75.76506,5.16965],[-75.76506,5.16965],[-75.76505,5.16966],[-75.76504,5.16966],[-75.76502,5.16967],[-75.76501,5.16967],[-75.76501,5.16967],[-75.76501,5.16967],[-75.765,5.16967],[-75.76498,5.16966],[-75.76497,5.16966],[-75.76496,5.16966],[-75.76495,5.16966],[-75.76494,5.16966],[-75.76493,5.16966],[-75.76482,5.16959],[-75.76481,5.1696],[-75.76481,5.1696],[-75.76479,5.1696],[-75.76478,5.16961],[-75.76478,5.16961],[-75.76477,5.16962],[-75.76475,5.16962],[-75.76474,5.16963],[-75.76472,5.16964],[-75.76471,5.16965],[-75.7647,5.16967],[-75.76469,5.16968],[-75.76467,5.16969],[-75.76466,5.16971],[-75.76466,5.16972],[-75.76465,5.16974],[-75.76464,5.16976],[-75.76464,5.16977],[-75.76476,5.16983],[-75.76476,5.16984],[-75.76475,5.16986],[-75.76476,5.16988],[-75.76476,5.1699],[-75.76477,5.16993],[-75.76479,5.16995],[-75.7648,5.16996],[-75.76482,5.16998],[-75.76484,5.16999],[-75.76487,5.16999],[-75.76489,5.16999],[-75.76491,5.16999],[-75.76494,5.16999],[-75.76496,5.16998],[-75.76498,5.16996],[-75.76499,5.16995],[-75.76499,5.16995],[-75.765,5.16995],[-75.765,5.16995],[-75.765,5.16995],[-75.76521,5.1701],[-75.76522,5.17011],[-75.76523,5.17011],[-75.76524,5.17011],[-75.76526,5.17011],[-75.76527,5.17011],[-75.76529,5.17012],[-75.76531,5.17011],[-75.76531,5.17011],[-75.76531,5.17011],[-75.76532,5.17011],[-75.76533,5.17012],[-75.76534,5.17012],[-75.76535,5.17012],[-75.76536,5.17012],[-75.76538,5.17012],[-75.76539,5.17012],[-75.76541,5.17012],[-75.76543,5.17012],[-75.76544,5.17012],[-75.76544,5.17012],[-75.76544,5.17012],[-75.76544,5.17012],[-75.76545,5.17012],[-75.76546,5.17012],[-75.76546,5.17013],[-75.76547,5.17013],[-75.76549,5.17014],[-75.7655,5.17014],[-75.76552,5.17015],[-75.76553,5.17016],[-75.76555,5.17016],[-75.76556,5.17017],[-75.76557,5.17017],[-75.76559,5.17017],[-75.7656,5.17017],[-75.76562,5.17017],[-75.76563,5.17017],[-75.76565,5.17017],[-75.76565,5.17017],[-75.76565,5.17017],[-75.76566,5.17017],[-75.76568,5.17018],[-75.76569,5.17018],[-75.76571,5.17018],[-75.76573,5.17019],[-75.76575,5.17019],[-75.76576,5.17019],[-75.76577,5.17019],[-75.76579,5.17018],[-75.76581,5.17018],[-75.76581,5.17018],[-75.76582,5.17018],[-75.76584,5.17018],[-75.76586,5.17018],[-75.76588,5.17018],[-75.76589,5.17018],[-75.7659,5.17018],[-75.76592,5.17018],[-75.76592,5.17018],[-75.76593,5.17018],[-75.76595,5.17018],[-75.76597,5.17018],[-75.76599,5.17018],[-75.766,5.17018],[-75.76602,5.17018],[-75.76604,5.17017],[-75.76606,5.17017],[-75.76607,5.17016],[-75.76609,5.17015],[-75.76609,5.17015],[-75.7661,5.17015],[-75.7661,5.17015],[-75.76611,5.17015],[-75.76611,5.17015],[-75.76613,5.17016],[-75.76614,5.17016],[-75.76617,5.17016],[-75.76618,5.17016],[-75.76618,5.17016],[-75.76619,5.17016]]]]},"properties":{"OBJECTID_1":1,"OBJECTID":31105,"ID_DS":88,"CODDEP":" ","CODCUENCA":"2615","CODDS":88,"TIPO":" ","NOMBRE":"Quebrada Sarciri","ORDEN":" ","N_ORDEN":5,"FP":15,"Shape_Leng":36.9566872647,"ORD_STRAHL":2,"FR_STRAHLE":15,"ZPHAMIN":10,"ZPSMIN":5,"BUFF_DIST":10,"Id":0,"Shape_Length":5700.944469025316,"Shape_Area":140756.67613331994}},{"type":"Feature","id":2,"geometry":{"type":"Polygon","coordinates":[[[-75.76683,5.1715],[-75.76681,5.17152],[-75.76679,5.17153],[-75.76677,5.17156],[-75.7667,5.17164],[-75.76662,5.1717],[-75.76623,5.17192],[-75.7662,5.17195],[-75.76617,5.17197],[-75.76614,5.17201],[-75.76612,5.17205],[-75.76611,5.17209],[-75.7661,5.17213],[-75.7661,5.17217],[-75.7661,5.17221],[-75.76612,5.17225],[-75.76613,5.17229],[-75.76616,5.17233],[-75.76619,5.17236],[-75.76622,5.17238],[-75.76626,5.1724],[-75.7663,5.17242],[-75.76634,5.17243],[-75.76638,5.17243],[-75.76642,5.17242],[-75.76647,5.17241],[-75.7665,5.17239],[-75.7669,5.17217],[-75.76691,5.17216],[-75.76692,5.17215],[-75.76705,5.17205],[-75.76708,5.17203],[-75.76711,5.172],[-75.76717,5.17192],[-75.76723,5.17187],[-75.76712,5.17178],[-75.76701,5.17171],[-75.76697,5.17169],[-75.76683,5.1715]]]},"properties":{"OBJECTID_1":2,"OBJECTID":null,"ID_DS":null,"CODDEP":null,"CODCUENCA":null,"CODDS":null,"TIPO":null,"NOMBRE":null,"ORDEN":null,"N_ORDEN":null,"FP":null,"Shape_Leng":null,"ORD_STRAHL":null,"FR_STRAHLE":null,"ZPHAMIN":null,"ZPSMIN":null,"BUFF_DIST":null,"Id":null,"Shape_Length":337.3735333861198,"Shape_Area":6738.175572956544}}]}