{"type":"FeatureCollection","name":"Amenaza_Torrencialidad","crs":{"type":"name","properties":{"name":"urn:ogc:def:crs:OGC:1.3:CRS84"}},"features":[{"type":"Feature","id":0,"geometry":{"type":"Polygon","coordinates":[[[-74.70398,5.7086],[-74.7017,5.71329],[-74.70157,5.71416],[-74.70169,5.71527],[-74.70201,5.71709],[-74.70203,5.71752],[-74.70218,5.71818],[-74.70244,5.71878],[-74.70287,5.7195],[-74.70342,5.72018],[-74.70344,5.72029],[-74.70396,5.72272],[-74.70478,5.72432],[-74.70554,5.72496],[-74.70629,5.72545],[-74.70686,5.72562],[-74.70687,5.72563],[-74.70723,5.72574],[-74.70726,5.72588],[-74.70724,5.7259],[-74.7072,5.72596],[-74.70588,5.72663],[-74.70535,5.72709],[-74.7048,5.72783],[-74.70459,5.72889],[-74.70457,5.72955],[-74.70449,5.72972],[-74.70373,5.73068],[-74.70347,5.73118],[-74.70339,5.73193],[-74.70447,5.73526],[-74.70447,5.73539],[-74.70447,5.7354],[-74.70349,5.73592],[-74.70278,5.73637],[-74.70104,5.73786],[-74.69914,5.73961],[-74.69834,5.74065],[-74.69812,5.74105],[-74.6978,5.74136],[-74.69741,5.74163],[-74.69731,5.7417],[-74.69672,5.74197],[-74.69624,5.74234],[-74.6959,5.74272],[-74.69279,5.7455],[-74.69222,5.74585],[-74.6918,5.74603],[-74.69133,5.74614],[-74.69104,5.74593],[-74.69036,5.74581],[-74.68902,5.74598],[-74.68881,5.74583],[-74.68829,5.74534],[-74.68762,5.74493],[-74.68698,5.74471],[-74.68625,5.74465],[-74.68567,5.74475],[-74.68511,5.74516],[-74.68454,5.74511],[-74.68403,5.74515],[-74.68327,5.74505],[-74.6826,5.74545],[-74.68167,5.74558],[-74.68088,5.74584],[-74.68031,5.74619],[-74.67995,5.74653],[-74.67952,5.74681],[-74.67861,5.74761],[-74.67799,5.74837],[-74.67732,5.74937],[-74.67671,5.75019],[-74.67587,5.75158],[-74.67499,5.75319],[-74.67419,5.75495],[-74.6741,5.75572],[-74.6741,5.75637],[-74.67397,5.75726],[-74.67396,5.75727],[-74.67361,5.75755],[-74.67331,5.75809],[-74.67312,5.75902],[-74.67289,5.7595],[-74.67229,5.7599],[-74.67178,5.76078],[-74.67135,5.76181],[-74.67115,5.76232],[-74.67124,5.76256],[-74.67133,5.7629],[-74.67148,5.76337],[-74.67165,5.76395],[-74.67235,5.76534],[-74.67265,5.76485],[-74.67281,5.76372],[-74.67309,5.76234],[-74.6734,5.76158],[-74.67364,5.76118],[-74.67413,5.76085],[-74.67442,5.76049],[-74.67484,5.75959],[-74.67502,5.75874],[-74.67535,5.75849],[-74.67571,5.75787],[-74.67591,5.7565],[-74.67591,5.75583],[-74.67595,5.75544],[-74.67661,5.754],[-74.67743,5.75248],[-74.67821,5.75121],[-74.6788,5.75041],[-74.67944,5.74945],[-74.67991,5.74888],[-74.68062,5.74825],[-74.68107,5.74795],[-74.68141,5.74764],[-74.68165,5.74749],[-74.68207,5.74735],[-74.68321,5.7472],[-74.68366,5.74693],[-74.68399,5.74697],[-74.68453,5.74692],[-74.68524,5.74699],[-74.68586,5.74686],[-74.68638,5.74648],[-74.68661,5.7465],[-74.68685,5.74657],[-74.68719,5.74679],[-74.68767,5.74723],[-74.68828,5.74768],[-74.68891,5.74781],[-74.69031,5.74764],[-74.69032,5.74764],[-74.69067,5.74789],[-74.69122,5.74802],[-74.69237,5.74776],[-74.69305,5.74746],[-74.69387,5.74696],[-74.69718,5.744],[-74.69748,5.74366],[-74.69765,5.74353],[-74.6982,5.74329],[-74.69843,5.74312],[-74.69896,5.74276],[-74.69957,5.74216],[-74.69985,5.74164],[-74.70048,5.74085],[-74.70224,5.73921],[-74.70386,5.73783],[-74.7044,5.73748],[-74.70582,5.73673],[-74.70628,5.73582],[-74.70628,5.73491],[-74.70601,5.73394],[-74.70593,5.73391],[-74.70522,5.73174],[-74.70523,5.73171],[-74.70525,5.73167],[-74.70606,5.73065],[-74.70636,5.72994],[-74.70639,5.7291],[-74.70649,5.72859],[-74.70668,5.72833],[-74.7069,5.72814],[-74.70835,5.7274],[-74.70877,5.72689],[-74.70902,5.72638],[-74.70908,5.72582],[-74.70897,5.72519],[-74.70851,5.72422],[-74.70738,5.7239],[-74.70706,5.7238],[-74.70662,5.72351],[-74.70622,5.72318],[-74.70568,5.72211],[-74.70521,5.71991],[-74.70509,5.71937],[-74.70435,5.71847],[-74.70405,5.71795],[-74.7039,5.71762],[-74.70383,5.71727],[-74.7038,5.71688],[-74.70348,5.71502],[-74.70339,5.71419],[-74.70344,5.71384],[-74.70561,5.7094],[-74.70479,5.70908],[-74.70398,5.7086]]]},"properties":{"FID":0,"OBJECTID":1,"ID_AME":1,"CODMPO":"17380","CODAME":1,"TIPO":"Torrencialidad","GRADO":"Alta","TIPOPOT":"Amenaza Alta por Torrencialidad","TIPOCORPO":"Zonas de Regeneracion y Mejoramiento","SUBTIPCORP":"Amenaza Natural Alta","COD_EEP":" ","AREA":1792181.16016,"PERIMETER":18421.9592046,"Shape_Leng":18421.9592046,"Shape_Area":1792181.16016}},{"type":"Feature","id":1,"geometry":{"type":"Polygon","coordinates":[[[-74.70201,5.66035],[-74.7027,5.66006],[-74.70294,5.65986],[-74.70311,5.65982],[-74.70354,5.65982],[-74.70374,5.65979],[-74.70379,5.65986],[-74.70442,5.66034],[-74.7054,5.66053],[-74.70564,5.66043],[-74.70642,5.66066],[-74.70727,5.66033],[-74.70835,5.65958],[-74.70903,5.65924],[-74.70974,5.65901],[-74.71004,5.65824],[-74.71024,5.65808],[-74.71117,5.65761],[-74.71148,5.65753],[-74.71268,5.65682],[-74.71424,5.65624],[-74.71421,5.65494],[-74.71448,5.65467],[-74.71482,5.65456],[-74.71491,5.65458],[-74.71591,5.65522],[-74.71702,5.65508],[-74.71727,5.65519],[-74.71842,5.65548],[-74.71886,5.65463],[-74.72007,5.65487],[-74.72133,5.65434],[-74.72168,5.65374],[-74.72144,5.65329],[-74.72079,5.65312],[-74.72011,5.65283],[-74.72007,5.65291],[-74.71988,5.65299],[-74.71897,5.65281],[-74.7181,5.65285],[-74.71759,5.65335],[-74.71728,5.65322],[-74.71633,5.65334],[-74.71558,5.65287],[-74.7147,5.6527],[-74.71352,5.65309],[-74.71269,5.6539],[-74.7124,5.65446],[-74.71241,5.65499],[-74.7119,5.65518],[-74.7108,5.65584],[-74.71055,5.65589],[-74.70926,5.65656],[-74.70854,5.65712],[-74.70837,5.65755],[-74.70835,5.65756],[-74.70742,5.65803],[-74.70642,5.65873],[-74.70634,5.65876],[-74.70552,5.65852],[-74.70521,5.65865],[-74.70518,5.65865],[-74.70508,5.65857],[-74.7048,5.65821],[-74.70399,5.65793],[-74.7034,5.65801],[-74.70291,5.65801],[-74.70211,5.65819],[-74.70175,5.6585],[-74.70156,5.65858],[-74.7014,5.65859],[-74.70109,5.65854],[-74.70008,5.6588],[-74.69943,5.65959],[-74.6991,5.65983],[-74.69844,5.66044],[-74.69787,5.66058],[-74.69719,5.66123],[-74.69711,5.66118],[-74.69636,5.66114],[-74.6955,5.66148],[-74.69496,5.66195],[-74.69473,5.66223],[-74.69456,5.66234],[-74.69419,5.66245],[-74.69397,5.66241],[-74.6938,5.66232],[-74.69363,5.66214],[-74.69325,5.66162],[-74.69256,5.66101],[-74.69173,5.66079],[-74.69105,5.66079],[-74.69035,5.661],[-74.68874,5.66211],[-74.68797,5.66237],[-74.68735,5.66291],[-74.68699,5.66333],[-74.68639,5.66355],[-74.68567,5.66395],[-74.68416,5.66543],[-74.6837,5.66621],[-74.68314,5.66795],[-74.68292,5.6685],[-74.68267,5.66894],[-74.68182,5.66978],[-74.68157,5.66997],[-74.68085,5.67048],[-74.68071,5.67067],[-74.6805,5.67082],[-74.6804,5.67085],[-74.6797,5.6709],[-74.67908,5.67134],[-74.67783,5.67294],[-74.67745,5.67328],[-74.67731,5.67336],[-74.67633,5.67368],[-74.676,5.67327],[-74.67486,5.67241],[-74.67458,5.67209],[-74.67421,5.67148],[-74.67357,5.66976],[-74.6731,5.66834],[-74.67267,5.6674],[-74.67225,5.66675],[-74.67363,5.6656],[-74.67393,5.66507],[-74.67405,5.66495],[-74.67468,5.6646],[-74.67515,5.66422],[-74.67578,5.66356],[-74.67592,5.66281],[-74.67639,5.66227],[-74.67656,5.66174],[-74.6768,5.66129],[-74.67687,5.66122],[-74.67776,5.66082],[-74.6781,5.66079],[-74.67934,5.66051],[-74.68214,5.65937],[-74.68263,5.65908],[-74.68408,5.65772],[-74.68499,5.657],[-74.68649,5.65532],[-74.68821,5.65263],[-74.68851,5.65177],[-74.68863,5.65057],[-74.68867,5.65047],[-74.68872,5.65042],[-74.68879,5.65038],[-74.6891,5.65033],[-74.68931,5.65033],[-74.69011,5.65045],[-74.69088,5.65014],[-74.69149,5.64963],[-74.69255,5.64911],[-74.69391,5.64807],[-74.69439,5.64755],[-74.69469,5.64697],[-74.69518,5.6454],[-74.69625,5.64395],[-74.69725,5.64242],[-74.69722,5.64165],[-74.69853,5.64049],[-74.70043,5.63924],[-74.70093,5.63904],[-74.70138,5.6386],[-74.70177,5.63809],[-74.70266,5.63729],[-74.70309,5.63696],[-74.70377,5.63638],[-74.70447,5.63615],[-74.70497,5.63607],[-74.70723,5.63602],[-74.70725,5.63616],[-74.70762,5.63676],[-74.70856,5.63778],[-74.70903,5.63808],[-74.70978,5.63838],[-74.71089,5.63894],[-74.71184,5.63925],[-74.7132,5.63891],[-74.71347,5.63893],[-74.71381,5.63929],[-74.71492,5.63985],[-74.71584,5.63955],[-74.71632,5.63887],[-74.71651,5.63843],[-74.71705,5.63779],[-74.7174,5.6381],[-74.71811,5.63829],[-74.71933,5.63777],[-74.72046,5.63753],[-74.72137,5.63657],[-74.72223,5.63516],[-74.72228,5.63448],[-74.7222,5.63412],[-74.72279,5.63377],[-74.7235,5.63354],[-74.72384,5.63312],[-74.72408,5.63295],[-74.72448,5.63283],[-74.72514,5.63277],[-74.7254,5.6328],[-74.72579,5.63291],[-74.72592,5.63303],[-74.72695,5.63343],[-74.72715,5.63344],[-74.72737,5.63372],[-74.7283,5.63386],[-74.72876,5.63424],[-74.72926,5.63446],[-74.72977,5.63453],[-74.73071,5.63447],[-74.73249,5.63363],[-74.73195,5.6324],[-74.73156,5.63211],[-74.73173,5.63134],[-74.73177,5.63055],[-74.73168,5.63002],[-74.73124,5.62925],[-74.73146,5.62878],[-74.73156,5.62827],[-74.73154,5.62801],[-74.73159,5.62783],[-74.7317,5.62781],[-74.7322,5.62733],[-74.73297,5.62682],[-74.73327,5.62667],[-74.73391,5.6272],[-74.7347,5.62714],[-74.7354,5.62694],[-74.73597,5.62691],[-74.7364,5.62717],[-74.73695,5.6274],[-74.73761,5.62752],[-74.73893,5.62895],[-74.73949,5.62931],[-74.73994,5.62949],[-74.74023,5.62976],[-74.74078,5.63005],[-74.7412,5.63015],[-74.74138,5.63021],[-74.74193,5.63054],[-74.74256,5.63085],[-74.74328,5.63085],[-74.74389,5.63066],[-74.74407,5.63054],[-74.74449,5.63074],[-74.74511,5.63079],[-74.7458,5.63065],[-74.74701,5.62966],[-74.74744,5.62905],[-74.74741,5.62881],[-74.74872,5.62916],[-74.74994,5.62933],[-74.75066,5.62936],[-74.75086,5.6294],[-74.75096,5.62944],[-74.75098,5.6295],[-74.75144,5.63023],[-74.75231,5.63046],[-74.7528,5.63039],[-74.75297,5.63043],[-74.75321,5.62986],[-74.75337,5.62954],[-74.75336,5.62867],[-74.75288,5.62856],[-74.7526,5.6286],[-74.75254,5.62839],[-74.75203,5.62796],[-74.75143,5.62766],[-74.75086,5.62756],[-74.7501,5.62753],[-74.74908,5.62738],[-74.74699,5.62683],[-74.7463,5.62679],[-74.74553,5.62722],[-74.74515,5.62808],[-74.74546,5.62859],[-74.745,5.62897],[-74.74497,5.62897],[-74.7442,5.6286],[-74.74344,5.6288],[-74.74312,5.629],[-74.743,5.62904],[-74.74297,5.62904],[-74.74279,5.62896],[-74.74211,5.62854],[-74.74168,5.62841],[-74.74166,5.62841],[-74.74165,5.6284],[-74.74142,5.62835],[-74.74129,5.62828],[-74.74093,5.62794],[-74.74053,5.62778],[-74.74088,5.62769],[-74.74197,5.62757],[-74.74278,5.62731],[-74.74421,5.62654],[-74.74492,5.62591],[-74.74521,5.62544],[-74.74583,5.62478],[-74.74598,5.62416],[-74.74665,5.6242],[-74.74807,5.62397],[-74.74986,5.62325],[-74.7503,5.62268],[-74.75055,5.62216],[-74.75057,5.62207],[-74.75122,5.62214],[-74.75194,5.62177],[-74.75234,5.62111],[-74.75234,5.6207],[-74.75302,5.62017],[-74.75334,5.61939],[-74.75278,5.61791],[-74.75228,5.6174],[-74.75156,5.61759],[-74.75112,5.61823],[-74.751,5.61867],[-74.75123,5.61891],[-74.75134,5.61919],[-74.7509,5.61954],[-74.75058,5.62014],[-74.75015,5.62009],[-74.74943,5.62041],[-74.74894,5.62099],[-74.74882,5.62158],[-74.74875,5.62172],[-74.74873,5.62175],[-74.74758,5.62221],[-74.74655,5.62238],[-74.74558,5.62233],[-74.74509,5.62242],[-74.74454,5.62271],[-74.74413,5.62323],[-74.74401,5.62398],[-74.74404,5.62405],[-74.74378,5.62433],[-74.74352,5.62473],[-74.74317,5.62505],[-74.74207,5.62564],[-74.74159,5.6258],[-74.74056,5.6259],[-74.74009,5.62602],[-74.73944,5.62584],[-74.73862,5.62548],[-74.73777,5.62564],[-74.73759,5.62568],[-74.73746,5.62566],[-74.73723,5.62556],[-74.73669,5.62523],[-74.73615,5.62508],[-74.7351,5.62514],[-74.73447,5.62532],[-74.73413,5.62504],[-74.73337,5.6248],[-74.73271,5.62494],[-74.73207,5.62525],[-74.73108,5.6259],[-74.7308,5.62617],[-74.73061,5.62621],[-74.73004,5.62677],[-74.72971,5.62779],[-74.72974,5.62818],[-74.72973,5.62822],[-74.72948,5.62875],[-74.72932,5.62951],[-74.72995,5.63063],[-74.72996,5.63066],[-74.72994,5.6311],[-74.7296,5.63259],[-74.72908,5.63215],[-74.72834,5.63204],[-74.72802,5.63165],[-74.72731,5.63163],[-74.72691,5.63148],[-74.72671,5.63129],[-74.72574,5.63102],[-74.72517,5.63096],[-74.72413,5.63104],[-74.72328,5.63131],[-74.7226,5.63178],[-74.72243,5.63199],[-74.72204,5.63212],[-74.72096,5.63276],[-74.72039,5.63331],[-74.72032,5.63404],[-74.72045,5.6346],[-74.71993,5.63546],[-74.71954,5.63587],[-74.71878,5.63603],[-74.71812,5.63632],[-74.7178,5.63604],[-74.71667,5.63545],[-74.71574,5.63571],[-74.715,5.63659],[-74.71521,5.63718],[-74.71497,5.63746],[-74.71484,5.63775],[-74.71457,5.63746],[-74.71411,5.63716],[-74.71304,5.63709],[-74.71191,5.63737],[-74.71158,5.63727],[-74.71077,5.63688],[-74.7103,5.63667],[-74.70982,5.63647],[-74.70937,5.63602],[-74.70986,5.63571],[-74.71132,5.63554],[-74.71066,5.63482],[-74.71025,5.63437],[-74.70976,5.63413],[-74.70483,5.63427],[-74.70405,5.63438],[-74.70286,5.63478],[-74.70196,5.63555],[-74.70152,5.63588],[-74.70043,5.63686],[-74.70002,5.6374],[-74.69993,5.63749],[-74.69959,5.63762],[-74.69743,5.63905],[-74.69586,5.64084],[-74.69542,5.64169],[-74.69542,5.64192],[-74.69477,5.64291],[-74.69355,5.64457],[-74.69302,5.64627],[-74.6929,5.64649],[-74.69269,5.64673],[-74.6916,5.64756],[-74.69049,5.6481],[-74.68995,5.64857],[-74.68989,5.64859],[-74.68944,5.64853],[-74.68897,5.64853],[-74.68817,5.64864],[-74.68763,5.64897],[-74.68714,5.64942],[-74.68686,5.65015],[-74.68673,5.65138],[-74.68657,5.65184],[-74.68504,5.65423],[-74.68375,5.65568],[-74.68291,5.65634],[-74.68155,5.65762],[-74.68134,5.65774],[-74.6788,5.65878],[-74.67783,5.659],[-74.6773,5.65904],[-74.67583,5.65971],[-74.67534,5.66019],[-74.67489,5.66102],[-74.67479,5.66136],[-74.67423,5.66199],[-74.6741,5.66271],[-74.67394,5.66288],[-74.67367,5.66309],[-74.67292,5.66351],[-74.67248,5.66399],[-74.67223,5.66442],[-74.67128,5.66521],[-74.67112,5.66495],[-74.6701,5.66431],[-74.66897,5.6639],[-74.66526,5.6631],[-74.66425,5.66318],[-74.66408,5.66326],[-74.66314,5.66338],[-74.66201,5.66364],[-74.66117,5.66428],[-74.66077,5.6653],[-74.66073,5.66535],[-74.65961,5.66603],[-74.65953,5.6664],[-74.65927,5.66645],[-74.65868,5.66693],[-74.65854,5.66816],[-74.65831,5.6683],[-74.65804,5.66882],[-74.65773,5.66896],[-74.65615,5.66897],[-74.65561,5.66943],[-74.65486,5.67061],[-74.65504,5.6709],[-74.65463,5.67165],[-74.65515,5.67242],[-74.6551,5.6726],[-74.65464,5.67359],[-74.65427,5.67468],[-74.65418,5.67533],[-74.65435,5.67596],[-74.65447,5.67609],[-74.65446,5.6761],[-74.65396,5.67662],[-74.6535,5.67749],[-74.65406,5.67842],[-74.65323,5.6799],[-74.65221,5.68148],[-74.65239,5.68323],[-74.65286,5.68467],[-74.65284,5.68537],[-74.65296,5.68562],[-74.65371,5.68614],[-74.6538,5.68625],[-74.65397,5.6868],[-74.65405,5.68696],[-74.65352,5.68733],[-74.65313,5.68803],[-74.65289,5.68902],[-74.65259,5.68921],[-74.65123,5.68978],[-74.65062,5.69026],[-74.65018,5.69074],[-74.64987,5.69137],[-74.64979,5.69196],[-74.65006,5.69392],[-74.65005,5.69396],[-74.64992,5.69426],[-74.64957,5.69468],[-74.64949,5.69473],[-74.64906,5.69487],[-74.64857,5.69443],[-74.64832,5.69447],[-74.64718,5.69469],[-74.6464,5.69507],[-74.6458,5.69583],[-74.64554,5.6965],[-74.64465,5.6965],[-74.64411,5.69714],[-74.64397,5.69792],[-74.64438,5.69882],[-74.64477,5.69947],[-74.64594,5.70026],[-74.64695,5.70084],[-74.64803,5.70135],[-74.64904,5.70195],[-74.64985,5.70274],[-74.65056,5.70362],[-74.6512,5.70457],[-74.65183,5.70554],[-74.65224,5.70641],[-74.6527,5.70738],[-74.65317,5.70623],[-74.65305,5.70519],[-74.65267,5.70406],[-74.65214,5.70362],[-74.65161,5.70268],[-74.65123,5.70236],[-74.65089,5.70203],[-74.65058,5.70168],[-74.6503,5.70136],[-74.64997,5.701],[-74.6497,5.70074],[-74.64941,5.70043],[-74.64919,5.70009],[-74.64888,5.69979],[-74.6486,5.69945],[-74.64822,5.69898],[-74.64795,5.69843],[-74.64777,5.69809],[-74.64769,5.69776],[-74.6477,5.6975],[-74.64775,5.69729],[-74.6478,5.69666],[-74.6479,5.69639],[-74.64803,5.69637],[-74.64863,5.6969],[-74.65027,5.69638],[-74.6508,5.69604],[-74.65146,5.69522],[-74.65179,5.6945],[-74.65189,5.69396],[-74.65161,5.69196],[-74.65162,5.6919],[-74.65168,5.69177],[-74.65185,5.69159],[-74.65215,5.69135],[-74.65343,5.69082],[-74.65417,5.69035],[-74.65456,5.6898],[-74.65483,5.6887],[-74.6549,5.68857],[-74.65495,5.68854],[-74.65593,5.68813],[-74.65622,5.68726],[-74.65604,5.6867],[-74.65577,5.68635],[-74.65565,5.68611],[-74.65542,5.68538],[-74.65496,5.6848],[-74.65452,5.6845],[-74.65458,5.68422],[-74.65458,5.68349],[-74.65444,5.68327],[-74.65494,5.68294],[-74.65537,5.68246],[-74.65567,5.6814],[-74.65505,5.68034],[-74.65515,5.68016],[-74.65583,5.67785],[-74.65605,5.67695],[-74.65624,5.67659],[-74.65634,5.6759],[-74.65613,5.67524],[-74.65603,5.67512],[-74.65603,5.6751],[-74.65631,5.67427],[-74.65679,5.67325],[-74.657,5.67254],[-74.657,5.67176],[-74.65694,5.67166],[-74.65739,5.67133],[-74.65752,5.67123],[-74.65726,5.67083],[-74.65817,5.67076],[-74.65935,5.6702],[-74.65968,5.66957],[-74.66002,5.66936],[-74.66029,5.66871],[-74.66037,5.66806],[-74.66105,5.66791],[-74.66121,5.66718],[-74.66198,5.66671],[-74.66236,5.66618],[-74.66267,5.66541],[-74.66279,5.66532],[-74.66345,5.66517],[-74.66458,5.66502],[-74.66518,5.66475],[-74.66781,5.66546],[-74.66842,5.66562],[-74.6693,5.66595],[-74.66981,5.66626],[-74.6703,5.66705],[-74.67108,5.66827],[-74.67142,5.669],[-74.67186,5.67036],[-74.67258,5.67228],[-74.67312,5.67317],[-74.67362,5.67374],[-74.67409,5.67409],[-74.67438,5.67459],[-74.67488,5.67517],[-74.67532,5.67531],[-74.67535,5.67535],[-74.67632,5.67558],[-74.67806,5.67502],[-74.67852,5.67474],[-74.67915,5.67419],[-74.68034,5.67267],[-74.68074,5.67264],[-74.68132,5.67246],[-74.682,5.67197],[-74.68214,5.67178],[-74.68239,5.67161],[-74.68286,5.67162],[-74.6828,5.67217],[-74.68376,5.67255],[-74.68382,5.673],[-74.68398,5.67318],[-74.6833,5.67451],[-74.68369,5.6752],[-74.68426,5.67561],[-74.68547,5.67584],[-74.6859,5.67581],[-74.68614,5.67606],[-74.68679,5.67633],[-74.68771,5.67657],[-74.68913,5.67668],[-74.68988,5.67688],[-74.69065,5.67622],[-74.69109,5.67691],[-74.6909,5.67706],[-74.69066,5.67751],[-74.69038,5.67878],[-74.69017,5.67913],[-74.68878,5.67989],[-74.68807,5.68006],[-74.68684,5.68003],[-74.68613,5.68047],[-74.6856,5.68121],[-74.68593,5.68263],[-74.68585,5.68305],[-74.6855,5.68377],[-74.68541,5.68474],[-74.68581,5.68539],[-74.68637,5.68596],[-74.68683,5.68672],[-74.68776,5.6879],[-74.68844,5.6884],[-74.68891,5.68896],[-74.68936,5.68926],[-74.69087,5.68973],[-74.69191,5.68985],[-74.69329,5.6907],[-74.69383,5.69079],[-74.69564,5.69059],[-74.69593,5.6906],[-74.69641,5.69074],[-74.69666,5.69101],[-74.69726,5.69139],[-74.69793,5.69125],[-74.69837,5.69094],[-74.69877,5.69079],[-74.69915,5.69078],[-74.6998,5.69094],[-74.70064,5.69099],[-74.70176,5.69018],[-74.70192,5.68942],[-74.70216,5.68899],[-74.70224,5.68889],[-74.70256,5.68868],[-74.70332,5.68832],[-74.70373,5.68791],[-74.70405,5.68743],[-74.70412,5.68739],[-74.7046,5.68733],[-74.7055,5.68689],[-74.70586,5.68638],[-74.70605,5.68569],[-74.70664,5.68542],[-74.70725,5.68521],[-74.70838,5.68506],[-74.70879,5.68512],[-74.70969,5.6854],[-74.71048,5.68523],[-74.71119,5.68475],[-74.71151,5.68429],[-74.71193,5.68465],[-74.71276,5.68465],[-74.71306,5.68458],[-74.71338,5.68475],[-74.7142,5.6849],[-74.71459,5.68468],[-74.71491,5.68461],[-74.71546,5.68429],[-74.71571,5.6843],[-74.71684,5.68401],[-74.71721,5.68339],[-74.71707,5.68235],[-74.71669,5.68219],[-74.7155,5.68248],[-74.715,5.68247],[-74.71427,5.6829],[-74.71394,5.68296],[-74.71391,5.68298],[-74.71364,5.68283],[-74.71298,5.68274],[-74.71259,5.68283],[-74.71244,5.6827],[-74.71186,5.68243],[-74.71117,5.68233],[-74.71045,5.68261],[-74.70989,5.68345],[-74.70977,5.68353],[-74.70921,5.68336],[-74.70841,5.68323],[-74.70683,5.68344],[-74.70597,5.68374],[-74.70491,5.68422],[-74.70442,5.68481],[-74.70423,5.6855],[-74.70408,5.68557],[-74.70346,5.68564],[-74.70274,5.68614],[-74.70232,5.68676],[-74.70227,5.68682],[-74.70166,5.6871],[-74.70105,5.68752],[-74.70068,5.68793],[-74.70021,5.68879],[-74.70014,5.68913],[-74.70011,5.68915],[-74.70007,5.68915],[-74.69934,5.68897],[-74.69843,5.68899],[-74.69756,5.68931],[-74.6975,5.68925],[-74.69708,5.68904],[-74.69622,5.68881],[-74.69559,5.68877],[-74.69392,5.68896],[-74.69252,5.6881],[-74.69125,5.68795],[-74.69014,5.68761],[-74.69013,5.6876],[-74.68969,5.68707],[-74.68903,5.68659],[-74.68832,5.68569],[-74.68781,5.68484],[-74.68727,5.68429],[-74.68727,5.68427],[-74.68758,5.68362],[-74.68777,5.6826],[-74.6876,5.68186],[-74.68826,5.68188],[-74.68943,5.68159],[-74.69146,5.68049],[-74.69209,5.67946],[-74.69235,5.67822],[-74.69286,5.67781],[-74.69314,5.67678],[-74.69279,5.67623],[-74.69292,5.6762],[-74.6932,5.67626],[-74.69371,5.67623],[-74.69435,5.67605],[-74.69541,5.67544],[-74.69558,5.6754],[-74.6959,5.67544],[-74.69792,5.67538],[-74.69848,5.67527],[-74.69893,5.67539],[-74.69968,5.67522],[-74.70029,5.67493],[-74.70056,5.67464],[-74.70082,5.67446],[-74.70246,5.67364],[-74.7033,5.67339],[-74.70377,5.67317],[-74.70446,5.67307],[-74.70494,5.67307],[-74.70612,5.67281],[-74.70692,5.67229],[-74.70713,5.67204],[-74.70757,5.67179],[-74.70895,5.67132],[-74.71065,5.67102],[-74.7127,5.66993],[-74.71287,5.66986],[-74.71416,5.66977],[-74.71508,5.66982],[-74.71521,5.67096],[-74.71549,5.67129],[-74.71569,5.672],[-74.71619,5.67245],[-74.71679,5.67268],[-74.7174,5.67268],[-74.71814,5.67254],[-74.71835,5.67272],[-74.71908,5.67303],[-74.72021,5.67334],[-74.72067,5.67363],[-74.72088,5.67381],[-74.72089,5.67382],[-74.72094,5.67428],[-74.72074,5.67593],[-74.71985,5.67918],[-74.72071,5.67954],[-74.72159,5.67966],[-74.72252,5.67628],[-74.72276,5.67429],[-74.72264,5.67316],[-74.72223,5.67258],[-74.72175,5.67217],[-74.72093,5.67166],[-74.71967,5.67132],[-74.7193,5.67116],[-74.71892,5.67085],[-74.71814,5.6707],[-74.71724,5.67087],[-74.71712,5.67043],[-74.71694,5.67021],[-74.71679,5.66895],[-74.71628,5.66823],[-74.71553,5.66804],[-74.71414,5.66796],[-74.71249,5.66808],[-74.71196,5.66827],[-74.71005,5.66928],[-74.7085,5.66956],[-74.70682,5.67013],[-74.70596,5.67062],[-74.70571,5.67092],[-74.70541,5.67112],[-74.70475,5.67126],[-74.70432,5.67126],[-74.70325,5.67143],[-74.70267,5.6717],[-74.7018,5.67194],[-74.69989,5.6729],[-74.69937,5.67328],[-74.69921,5.67344],[-74.6991,5.67349],[-74.69893,5.67334],[-74.69772,5.67357],[-74.69598,5.67363],[-74.69551,5.67357],[-74.69476,5.67372],[-74.69365,5.67437],[-74.69342,5.67443],[-74.69332,5.67444],[-74.69288,5.67435],[-74.69212,5.67453],[-74.69134,5.67459],[-74.69054,5.6746],[-74.69013,5.67471],[-74.68972,5.67465],[-74.68943,5.67489],[-74.68802,5.67478],[-74.68736,5.6746],[-74.68719,5.67454],[-74.68694,5.67425],[-74.68617,5.67397],[-74.68558,5.67402],[-74.6859,5.67339],[-74.68573,5.67244],[-74.68554,5.67222],[-74.68549,5.67181],[-74.68519,5.67117],[-74.68474,5.67099],[-74.68477,5.67075],[-74.68426,5.66984],[-74.68425,5.66982],[-74.68455,5.66929],[-74.68484,5.66856],[-74.68535,5.66696],[-74.68559,5.66655],[-74.68676,5.66541],[-74.68715,5.66519],[-74.68804,5.66487],[-74.68863,5.6642],[-74.68889,5.66396],[-74.68956,5.66374],[-74.69113,5.66265],[-74.69131,5.6626],[-74.6915,5.6626],[-74.69169,5.66265],[-74.69191,5.66284],[-74.69225,5.66331],[-74.69271,5.66378],[-74.69338,5.66414],[-74.6943,5.6643],[-74.69532,5.664],[-74.69594,5.6636],[-74.69626,5.66321],[-74.69645,5.66305],[-74.6966,5.66299],[-74.69675,5.66309],[-74.69748,5.66326],[-74.69828,5.66269],[-74.69877,5.66222],[-74.69932,5.66209],[-74.70024,5.66124],[-74.70067,5.66093],[-74.7011,5.6604],[-74.70116,5.66039],[-74.70134,5.66042],[-74.70201,5.66035]]]},"properties":{"FID":1,"OBJECTID":2,"ID_AME":2,"CODMPO":"17380","CODAME":2,"TIPO":"Torrencialidad","GRADO":"Alta","TIPOPOT":"Amenaza Alta por Torrencialidad","TIPOCORPO":"Zonas de Regeneracion y Mejoramiento","SUBTIPCORP":"Amenaza Natural Alta","COD_EEP":" ","AREA":8232510.42578,"PERIMETER":81446.4175962,"Shape_Leng":81446.4175962,"Shape_Area":8232510.42578}},{"type":"Feature","id":2,"geometry":{"type":"Polygon","coordinates":[[[-74.7474,5.59511],[-74.74674,5.59548],[-74.7463,5.59589],[-74.7457,5.59668],[-74.74547,5.59737],[-74.74547,5.59815],[-74.74563,5.5986],[-74.74498,5.59865],[-74.74422,5.59854],[-74.74356,5.59863],[-74.74283,5.5991],[-74.74218,5.60015],[-74.74241,5.60093],[-74.74228,5.60111],[-74.74194,5.60139],[-74.74185,5.60121],[-74.74131,5.60065],[-74.7407,5.60043],[-74.74007,5.60039],[-74.73934,5.60047],[-74.73869,5.6007],[-74.73786,5.6014],[-74.73756,5.60188],[-74.73741,5.60241],[-74.73705,5.60287],[-74.73681,5.6036],[-74.73728,5.60487],[-74.73738,5.6053],[-74.73738,5.60532],[-74.73712,5.60595],[-74.73713,5.60655],[-74.73656,5.60683],[-74.73598,5.60701],[-74.73486,5.60722],[-74.73456,5.60738],[-74.73447,5.60696],[-74.7335,5.60661],[-74.73283,5.60586],[-74.73257,5.60533],[-74.73191,5.60477],[-74.73131,5.60455],[-74.73086,5.60448],[-74.72939,5.60401],[-74.72876,5.60394],[-74.7275,5.60403],[-74.72665,5.60428],[-74.72584,5.60472],[-74.72505,5.60563],[-74.72459,5.60668],[-74.72488,5.60748],[-74.72521,5.60874],[-74.72567,5.60953],[-74.72498,5.61021],[-74.72512,5.61097],[-74.72496,5.61114],[-74.72481,5.61137],[-74.72409,5.61178],[-74.72397,5.61215],[-74.72308,5.61214],[-74.72307,5.61253],[-74.72205,5.61273],[-74.71796,5.61236],[-74.71714,5.61281],[-74.71654,5.61332],[-74.71651,5.61336],[-74.71552,5.61314],[-74.71413,5.61495],[-74.71407,5.61578],[-74.71315,5.61583],[-74.71281,5.61559],[-74.71205,5.61559],[-74.71126,5.61577],[-74.71108,5.61548],[-74.71035,5.61513],[-74.70949,5.61528],[-74.70837,5.6161],[-74.70753,5.61612],[-74.70683,5.61658],[-74.70657,5.61719],[-74.70632,5.61825],[-74.70629,5.61952],[-74.70625,5.61962],[-74.70583,5.61979],[-74.70546,5.62001],[-74.7054,5.61997],[-74.70495,5.61984],[-74.70463,5.61918],[-74.70424,5.61869],[-74.70252,5.61778],[-74.70189,5.61766],[-74.70121,5.61762],[-74.70041,5.61777],[-74.69976,5.61809],[-74.69859,5.61887],[-74.69826,5.61959],[-74.69783,5.61971],[-74.69725,5.62045],[-74.69711,5.62136],[-74.6974,5.62211],[-74.6974,5.62219],[-74.69673,5.6222],[-74.69615,5.62245],[-74.69549,5.62301],[-74.69535,5.62379],[-74.69548,5.62421],[-74.69497,5.62482],[-74.69479,5.62542],[-74.69385,5.62605],[-74.69073,5.62694],[-74.68922,5.62701],[-74.68775,5.62653],[-74.68717,5.62653],[-74.68636,5.62632],[-74.68613,5.62636],[-74.68625,5.62578],[-74.68604,5.62506],[-74.68552,5.62446],[-74.6851,5.62432],[-74.6845,5.62397],[-74.68325,5.62394],[-74.68296,5.62362],[-74.68214,5.6233],[-74.68131,5.62359],[-74.68087,5.62436],[-74.68078,5.62505],[-74.6809,5.62569],[-74.67986,5.62648],[-74.67921,5.62707],[-74.67904,5.62737],[-74.67829,5.6279],[-74.67788,5.62857],[-74.67793,5.62934],[-74.67805,5.6296],[-74.67802,5.62965],[-74.67627,5.63087],[-74.67484,5.63199],[-74.67373,5.63423],[-74.67346,5.63441],[-74.67326,5.63404],[-74.67259,5.63371],[-74.67186,5.63367],[-74.67127,5.63396],[-74.67111,5.63356],[-74.67057,5.63312],[-74.66663,5.63247],[-74.66612,5.63252],[-74.66535,5.63275],[-74.66405,5.63337],[-74.66349,5.63426],[-74.66331,5.63404],[-74.66222,5.63371],[-74.66123,5.63379],[-74.66053,5.63335],[-74.65997,5.63323],[-74.659,5.63327],[-74.65848,5.63376],[-74.65838,5.63375],[-74.6581,5.63378],[-74.657,5.63348],[-74.65701,5.63343],[-74.65742,5.63192],[-74.65749,5.6309],[-74.65744,5.6306],[-74.6575,5.63041],[-74.65807,5.62918],[-74.65812,5.62838],[-74.65812,5.62762],[-74.65828,5.62646],[-74.65868,5.62571],[-74.6589,5.6251],[-74.65923,5.62452],[-74.65936,5.62352],[-74.6594,5.62342],[-74.65984,5.62293],[-74.65996,5.62224],[-74.66012,5.62186],[-74.66014,5.6213],[-74.66069,5.62026],[-74.66072,5.61906],[-74.6605,5.61797],[-74.66051,5.6178],[-74.66117,5.61558],[-74.66117,5.61494],[-74.66095,5.6141],[-74.66096,5.61253],[-74.65998,5.60866],[-74.66097,5.60773],[-74.66129,5.60749],[-74.66148,5.60744],[-74.66177,5.60743],[-74.66225,5.60752],[-74.66264,5.60766],[-74.66337,5.60766],[-74.6648,5.60899],[-74.66512,5.60915],[-74.6656,5.60978],[-74.66615,5.60994],[-74.6665,5.60993],[-74.66674,5.60914],[-74.66672,5.6081],[-74.66631,5.60772],[-74.66584,5.60749],[-74.66486,5.60658],[-74.66596,5.60625],[-74.66624,5.60595],[-74.66686,5.6058],[-74.66701,5.60572],[-74.66741,5.60605],[-74.66779,5.60611],[-74.66787,5.60615],[-74.66814,5.60641],[-74.66849,5.60662],[-74.669,5.60717],[-74.66993,5.60727],[-74.67077,5.60705],[-74.67167,5.60667],[-74.67221,5.60636],[-74.67464,5.60542],[-74.6757,5.60492],[-74.67821,5.60407],[-74.67925,5.60377],[-74.67987,5.60345],[-74.68028,5.60315],[-74.68169,5.6018],[-74.68232,5.60128],[-74.68299,5.60049],[-74.6837,5.59979],[-74.68503,5.59872],[-74.6854,5.5983],[-74.68571,5.59813],[-74.68587,5.59807],[-74.68602,5.5982],[-74.68671,5.59847],[-74.68766,5.59789],[-74.68789,5.59781],[-74.68858,5.59803],[-74.68922,5.59747],[-74.68974,5.59721],[-74.69019,5.59684],[-74.69044,5.59636],[-74.69122,5.59605],[-74.69134,5.59573],[-74.69156,5.59565],[-74.69208,5.59512],[-74.69284,5.59507],[-74.69344,5.59464],[-74.69353,5.59442],[-74.69442,5.59417],[-74.69466,5.59381],[-74.69542,5.59341],[-74.69621,5.59316],[-74.69643,5.59301],[-74.69697,5.59295],[-74.69707,5.59296],[-74.69743,5.5933],[-74.69829,5.59349],[-74.6987,5.59328],[-74.69897,5.59337],[-74.6992,5.59335],[-74.69938,5.59372],[-74.70011,5.59397],[-74.7008,5.59389],[-74.70117,5.59402],[-74.70121,5.5942],[-74.7015,5.59472],[-74.70194,5.59524],[-74.70247,5.59548],[-74.70307,5.59548],[-74.70353,5.59526],[-74.70399,5.59484],[-74.70409,5.59492],[-74.70471,5.59521],[-74.70621,5.59489],[-74.70643,5.5955],[-74.70703,5.59652],[-74.70862,5.59794],[-74.71033,5.59867],[-74.71113,5.59888],[-74.71189,5.59875],[-74.7126,5.59835],[-74.71344,5.59758],[-74.71492,5.59694],[-74.71513,5.5969],[-74.71562,5.5969],[-74.71567,5.59692],[-74.71693,5.598],[-74.71793,5.59839],[-74.71857,5.59842],[-74.7191,5.59815],[-74.71999,5.5974],[-74.72038,5.59696],[-74.72069,5.59642],[-74.72118,5.59587],[-74.72131,5.59565],[-74.72145,5.59561],[-74.72158,5.59562],[-74.72225,5.59585],[-74.72494,5.59643],[-74.72552,5.59623],[-74.7262,5.59552],[-74.72738,5.59474],[-74.72803,5.59439],[-74.72931,5.59415],[-74.73042,5.59369],[-74.73109,5.59353],[-74.73225,5.59304],[-74.7326,5.59274],[-74.733,5.59276],[-74.73355,5.59296],[-74.73706,5.59169],[-74.7377,5.5909],[-74.73923,5.58992],[-74.73978,5.58937],[-74.74004,5.58936],[-74.74101,5.58915],[-74.74126,5.58901],[-74.74151,5.58912],[-74.74225,5.58899],[-74.74334,5.58802],[-74.74388,5.58874],[-74.74443,5.58926],[-74.74521,5.58942],[-74.74629,5.58918],[-74.74692,5.58892],[-74.74782,5.58813],[-74.74811,5.58856],[-74.74813,5.58869],[-74.74811,5.58958],[-74.74832,5.59043],[-74.74964,5.59116],[-74.75045,5.59044],[-74.75051,5.58957],[-74.74992,5.58925],[-74.74994,5.58856],[-74.74982,5.58786],[-74.74901,5.58668],[-74.74824,5.58626],[-74.74752,5.58629],[-74.74697,5.58647],[-74.74596,5.58736],[-74.74575,5.58745],[-74.74526,5.58756],[-74.74523,5.58753],[-74.74477,5.58692],[-74.74454,5.58649],[-74.74393,5.58623],[-74.74322,5.58609],[-74.74265,5.58622],[-74.74159,5.58717],[-74.74119,5.58698],[-74.74037,5.58744],[-74.73981,5.58756],[-74.7393,5.58758],[-74.73872,5.58788],[-74.7381,5.5885],[-74.7361,5.58978],[-74.73601,5.59005],[-74.73353,5.59102],[-74.73335,5.59096],[-74.73196,5.59091],[-74.73129,5.59149],[-74.73053,5.59181],[-74.72986,5.59196],[-74.7288,5.59241],[-74.72742,5.59266],[-74.72645,5.59318],[-74.72504,5.59412],[-74.72466,5.59452],[-74.72273,5.5941],[-74.72194,5.59383],[-74.72125,5.59379],[-74.72037,5.59404],[-74.71993,5.59443],[-74.71971,5.5948],[-74.71923,5.59535],[-74.7189,5.5959],[-74.71872,5.59611],[-74.71819,5.59655],[-74.71787,5.59643],[-74.71666,5.5954],[-74.71603,5.59509],[-74.71496,5.59509],[-74.71438,5.5952],[-74.71245,5.59604],[-74.71154,5.59687],[-74.71127,5.59702],[-74.71121,5.59703],[-74.71091,5.59695],[-74.70959,5.59639],[-74.70844,5.59536],[-74.70807,5.59474],[-74.7078,5.59395],[-74.70745,5.59338],[-74.70681,5.59309],[-74.70627,5.59303],[-74.70497,5.59331],[-74.70438,5.59284],[-74.70348,5.59285],[-74.70289,5.59339],[-74.70284,5.59312],[-74.70244,5.59264],[-74.70192,5.59237],[-74.701,5.59204],[-74.70059,5.59209],[-74.70048,5.59187],[-74.69996,5.59148],[-74.6992,5.59154],[-74.6989,5.59144],[-74.69821,5.5915],[-74.69818,5.59152],[-74.69784,5.59119],[-74.69692,5.59114],[-74.69581,5.59126],[-74.69543,5.5915],[-74.69471,5.59174],[-74.69343,5.59242],[-74.69342,5.59243],[-74.69232,5.59267],[-74.69205,5.59331],[-74.69147,5.59334],[-74.69098,5.59366],[-74.69055,5.5941],[-74.69031,5.59419],[-74.68985,5.59457],[-74.68982,5.59466],[-74.689,5.59522],[-74.68876,5.59568],[-74.68875,5.59569],[-74.68821,5.59595],[-74.68817,5.59599],[-74.68759,5.59599],[-74.68688,5.59626],[-74.68662,5.59641],[-74.68621,5.59624],[-74.68567,5.59624],[-74.68496,5.59647],[-74.68425,5.59689],[-74.68379,5.5974],[-74.68249,5.59844],[-74.68167,5.59926],[-74.68105,5.59998],[-74.68048,5.60045],[-74.67911,5.60176],[-74.67891,5.60191],[-74.67858,5.60208],[-74.67767,5.60234],[-74.67503,5.60324],[-74.67393,5.60375],[-74.67143,5.60472],[-74.67086,5.60504],[-74.67018,5.60533],[-74.66984,5.60542],[-74.66963,5.6052],[-74.66924,5.60496],[-74.66892,5.60466],[-74.66835,5.60437],[-74.66818,5.60434],[-74.6675,5.60379],[-74.66679,5.60379],[-74.66621,5.6041],[-74.6655,5.60427],[-74.66496,5.60385],[-74.66426,5.60355],[-74.66346,5.60355],[-74.66284,5.60446],[-74.66295,5.60543],[-74.66292,5.6057],[-74.66281,5.6058],[-74.66272,5.60577],[-74.6619,5.60562],[-74.66122,5.60564],[-74.66049,5.60583],[-74.65897,5.60704],[-74.6581,5.60859],[-74.65915,5.61275],[-74.65914,5.61433],[-74.65937,5.61518],[-74.65937,5.61532],[-74.65872,5.61749],[-74.65869,5.61811],[-74.65891,5.61922],[-74.65889,5.61979],[-74.65836,5.62082],[-74.65833,5.62145],[-74.65821,5.62172],[-74.65815,5.62211],[-74.65783,5.62246],[-74.6576,5.62308],[-74.65749,5.62393],[-74.65726,5.62434],[-74.65703,5.62497],[-74.65654,5.6259],[-74.65632,5.62749],[-74.65631,5.62848],[-74.6558,5.6298],[-74.65558,5.63046],[-74.65567,5.63099],[-74.65563,5.63162],[-74.65524,5.63304],[-74.65512,5.63379],[-74.65536,5.63463],[-74.65554,5.63492],[-74.65521,5.63555],[-74.65489,5.63731],[-74.65493,5.63756],[-74.65419,5.63807],[-74.65402,5.63883],[-74.65405,5.63892],[-74.65353,5.63935],[-74.65341,5.63991],[-74.6529,5.64018],[-74.65258,5.64124],[-74.65268,5.64174],[-74.65246,5.64232],[-74.65259,5.64271],[-74.65251,5.64305],[-74.65251,5.64327],[-74.65242,5.64343],[-74.65226,5.64407],[-74.65229,5.64416],[-74.65207,5.64434],[-74.65194,5.64513],[-74.65175,5.64525],[-74.65122,5.64589],[-74.65131,5.6465],[-74.65114,5.64671],[-74.65085,5.64723],[-74.6505,5.64833],[-74.6505,5.64919],[-74.65098,5.6496],[-74.65082,5.65],[-74.6511,5.65045],[-74.65086,5.65067],[-74.65059,5.65101],[-74.65005,5.65154],[-74.64972,5.652],[-74.64926,5.65308],[-74.64966,5.65371],[-74.64976,5.65428],[-74.64986,5.65453],[-74.64971,5.65466],[-74.64959,5.65493],[-74.64972,5.65505],[-74.65007,5.65524],[-74.65038,5.65542],[-74.65068,5.65572],[-74.65115,5.65643],[-74.65112,5.65604],[-74.65114,5.65587],[-74.65118,5.65578],[-74.65147,5.65553],[-74.65168,5.6548],[-74.65168,5.6542],[-74.65145,5.65365],[-74.65147,5.65358],[-74.65138,5.65304],[-74.6513,5.6529],[-74.65142,5.65273],[-74.65195,5.65221],[-74.65218,5.65191],[-74.65258,5.65156],[-74.653,5.65072],[-74.65292,5.64966],[-74.65292,5.64965],[-74.65292,5.64888],[-74.65237,5.64841],[-74.65252,5.64796],[-74.65265,5.64772],[-74.65322,5.64701],[-74.65314,5.6465],[-74.65352,5.64625],[-74.6538,5.64576],[-74.65408,5.64505],[-74.65425,5.64428],[-74.65415,5.64402],[-74.6543,5.64374],[-74.65431,5.64327],[-74.65446,5.64262],[-74.65438,5.64236],[-74.65456,5.6419],[-74.65446,5.6414],[-74.655,5.64112],[-74.65512,5.64053],[-74.65571,5.64045],[-74.65605,5.63945],[-74.656,5.63927],[-74.65655,5.63878],[-74.6566,5.6383],[-74.65681,5.63781],[-74.65672,5.63731],[-74.65693,5.63614],[-74.657,5.63602],[-74.65747,5.63548],[-74.65795,5.63562],[-74.65841,5.63557],[-74.65884,5.63561],[-74.65941,5.63536],[-74.65973,5.63506],[-74.65975,5.63511],[-74.66043,5.63567],[-74.66203,5.63554],[-74.66228,5.63562],[-74.66284,5.63628],[-74.66376,5.63643],[-74.66454,5.63629],[-74.66517,5.63565],[-74.66525,5.63486],[-74.6653,5.63477],[-74.66599,5.63444],[-74.66646,5.6343],[-74.66656,5.6343],[-74.66966,5.63481],[-74.66967,5.63483],[-74.67011,5.63544],[-74.67074,5.63572],[-74.67149,5.63588],[-74.67205,5.63559],[-74.67217,5.6358],[-74.6726,5.63628],[-74.67343,5.63642],[-74.67431,5.63602],[-74.67492,5.63561],[-74.67637,5.63318],[-74.67637,5.63309],[-74.67734,5.63232],[-74.67928,5.63097],[-74.67968,5.63046],[-74.68007,5.62964],[-74.67979,5.62905],[-74.6804,5.62863],[-74.68064,5.62822],[-74.68102,5.62787],[-74.68258,5.62668],[-74.68281,5.62605],[-74.68275,5.62574],[-74.684,5.62577],[-74.68424,5.62591],[-74.68392,5.62623],[-74.68366,5.62691],[-74.68389,5.62797],[-74.68466,5.62828],[-74.68582,5.6284],[-74.68623,5.62817],[-74.68628,5.62817],[-74.68694,5.62834],[-74.68747,5.62834],[-74.68897,5.62883],[-74.69102,5.62873],[-74.69462,5.62771],[-74.69598,5.6268],[-74.69639,5.62634],[-74.69659,5.6257],[-74.69703,5.62517],[-74.69743,5.62438],[-74.69731,5.624],[-74.69834,5.624],[-74.69917,5.62349],[-74.69921,5.62179],[-74.699,5.62126],[-74.69913,5.62122],[-74.69971,5.62076],[-74.70002,5.62009],[-74.70066,5.61966],[-74.70098,5.6195],[-74.70133,5.61944],[-74.70166,5.61945],[-74.70191,5.61951],[-74.70306,5.62011],[-74.70309,5.62015],[-74.70343,5.62084],[-74.70383,5.62141],[-74.70471,5.62165],[-74.70515,5.6219],[-74.70593,5.62183],[-74.70662,5.62142],[-74.70747,5.6211],[-74.70786,5.62048],[-74.70809,5.61987],[-74.70812,5.61848],[-74.70826,5.61792],[-74.70898,5.6179],[-74.70999,5.61716],[-74.71021,5.61753],[-74.71105,5.61768],[-74.71224,5.6174],[-74.71337,5.61822],[-74.71413,5.61762],[-74.71435,5.61768],[-74.71492,5.61764],[-74.71594,5.61721],[-74.71642,5.61652],[-74.7162,5.61585],[-74.71748,5.61568],[-74.71779,5.61466],[-74.7178,5.61463],[-74.71782,5.6146],[-74.71817,5.6143],[-74.71834,5.61421],[-74.72215,5.61455],[-74.72301,5.61438],[-74.72415,5.61499],[-74.72469,5.61396],[-74.72529,5.61397],[-74.72559,5.61301],[-74.72607,5.61274],[-74.72639,5.61226],[-74.72706,5.61153],[-74.72695,5.61094],[-74.7272,5.61084],[-74.72783,5.60991],[-74.72741,5.60894],[-74.72689,5.60804],[-74.72661,5.60695],[-74.72653,5.60674],[-74.72659,5.60661],[-74.72699,5.60615],[-74.72734,5.60596],[-74.72782,5.60582],[-74.72872,5.60575],[-74.72901,5.60579],[-74.73044,5.60624],[-74.73085,5.60631],[-74.731,5.60636],[-74.73111,5.60645],[-74.7313,5.60687],[-74.73246,5.60817],[-74.73276,5.60827],[-74.73282,5.60865],[-74.7331,5.60919],[-74.7339,5.60992],[-74.73493,5.60971],[-74.73516,5.60911],[-74.73546,5.60895],[-74.73642,5.60877],[-74.73722,5.60852],[-74.7382,5.60804],[-74.73896,5.60729],[-74.73893,5.60629],[-74.73912,5.60583],[-74.73922,5.60525],[-74.73902,5.60435],[-74.73875,5.60363],[-74.73904,5.60325],[-74.73922,5.60263],[-74.73924,5.6026],[-74.7396,5.6023],[-74.73974,5.60225],[-74.74012,5.6022],[-74.74031,5.60222],[-74.74036,5.60227],[-74.74063,5.60282],[-74.74158,5.60341],[-74.74272,5.60309],[-74.7436,5.60236],[-74.7439,5.60195],[-74.74419,5.60137],[-74.74426,5.60082],[-74.74414,5.60041],[-74.74415,5.6004],[-74.74419,5.60037],[-74.74422,5.60037],[-74.74493,5.60046],[-74.74598,5.60038],[-74.74731,5.59981],[-74.74764,5.5994],[-74.74754,5.59849],[-74.74727,5.59781],[-74.74727,5.59767],[-74.74732,5.59754],[-74.74764,5.5971],[-74.7478,5.59696],[-74.74822,5.597],[-74.74952,5.59727],[-74.75012,5.59753],[-74.75219,5.59798],[-74.75262,5.59813],[-74.75299,5.59836],[-74.7539,5.59902],[-74.75453,5.59853],[-74.75494,5.59754],[-74.75399,5.59685],[-74.7534,5.59649],[-74.75268,5.59623],[-74.75067,5.5958],[-74.75007,5.59554],[-74.74849,5.59521],[-74.7474,5.59511]]]},"properties":{"FID":2,"OBJECTID":3,"ID_AME":3,"CODMPO":"17380","CODAME":3,"TIPO":"Torrencialidad","GRADO":"Alta","TIPOPOT":"Amenaza Alta por Torrencialidad","TIPOCORPO":"Zonas de Regeneracion y Mejoramiento","SUBTIPCORP":"Amenaza Natural Alta","COD_EEP":" ","AREA":6899211.19922,"PERIMETER":68204.5159792,"Shape_Leng":68204.5159792,"Shape_Area":6899211.19922}},{"type":"Feature","id":3,"geometry":{"type":"Polygon","coordinates":[[[-74.7039,5.5696],[-74.7039,5.5695],[-74.7039,5.56943],[-74.7039,5.5693],[-74.7039,5.56916],[-74.70392,5.56909],[-74.70394,5.56901],[-74.70394,5.56893],[-74.70399,5.56883],[-74.70404,5.56873],[-74.70406,5.56867],[-74.70407,5.56854],[-74.7041,5.56845],[-74.70411,5.56838],[-74.70414,5.5683],[-74.70414,5.56817],[-74.70415,5.56809],[-74.70416,5.56803],[-74.70415,5.56792],[-74.70414,5.56785],[-74.7041,5.56778],[-74.70404,5.56771],[-74.70397,5.56766],[-74.7039,5.56755],[-74.70381,5.56749],[-74.70363,5.56727],[-74.70354,5.56723],[-74.70347,5.56713],[-74.70338,5.56702],[-74.70333,5.56695],[-74.70328,5.56687],[-74.70324,5.56673],[-74.7032,5.56662],[-74.70315,5.56654],[-74.70308,5.56643],[-74.70306,5.56633],[-74.70304,5.56627],[-74.703,5.5662],[-74.70297,5.56613],[-74.7029,5.56603],[-74.70284,5.56596],[-74.70274,5.56588],[-74.70265,5.56575],[-74.70253,5.5657],[-74.70238,5.56561],[-74.70231,5.56561],[-74.70219,5.56558],[-74.70207,5.56555],[-74.702,5.56554],[-74.70193,5.56553],[-74.7018,5.56557],[-74.70169,5.56563],[-74.70154,5.56564],[-74.70144,5.56564],[-74.70134,5.56562],[-74.70129,5.56558],[-74.70116,5.56547],[-74.70109,5.56541],[-74.70109,5.56528],[-74.70109,5.56519],[-74.70113,5.56505],[-74.70116,5.56496],[-74.70121,5.5648],[-74.70127,5.56465],[-74.70131,5.56454],[-74.70135,5.56446],[-74.70138,5.56435],[-74.7014,5.56429],[-74.70138,5.56419],[-74.70132,5.56413],[-74.70129,5.56407],[-74.70125,5.56402],[-74.70116,5.56391],[-74.70123,5.56388],[-74.70131,5.56383],[-74.7014,5.56379],[-74.70146,5.56366],[-74.70144,5.56359],[-74.70142,5.56349],[-74.70142,5.5634],[-74.70144,5.5633],[-74.70149,5.56325],[-74.70162,5.56317],[-74.70091,5.56307],[-74.70029,5.56326],[-74.70018,5.56326],[-74.69932,5.56301],[-74.69843,5.56295],[-74.69767,5.56296],[-74.69689,5.56311],[-74.69499,5.56309],[-74.69445,5.56344],[-74.69419,5.56408],[-74.69427,5.56451],[-74.69408,5.5645],[-74.69327,5.56491],[-74.69316,5.56546],[-74.69309,5.56542],[-74.69217,5.56524],[-74.69129,5.56542],[-74.69057,5.56564],[-74.69028,5.5655],[-74.68937,5.56536],[-74.68849,5.56544],[-74.68792,5.56642],[-74.68745,5.56663],[-74.68719,5.56684],[-74.68673,5.56701],[-74.6867,5.56703],[-74.68617,5.5671],[-74.68569,5.56728],[-74.68529,5.56658],[-74.6846,5.56624],[-74.68389,5.56614],[-74.68332,5.56574],[-74.68289,5.56568],[-74.68204,5.56534],[-74.6812,5.56528],[-74.6799,5.56578],[-74.6793,5.56683],[-74.67852,5.56749],[-74.67796,5.56747],[-74.67788,5.56701],[-74.67755,5.56652],[-74.67712,5.56606],[-74.67645,5.56578],[-74.67639,5.56539],[-74.67613,5.56439],[-74.6754,5.56385],[-74.67469,5.56376],[-74.6739,5.56398],[-74.67324,5.56457],[-74.67323,5.56512],[-74.67296,5.56512],[-74.67225,5.56521],[-74.67114,5.56515],[-74.67063,5.56548],[-74.67033,5.56569],[-74.67021,5.56577],[-74.67016,5.56578],[-74.66995,5.56579],[-74.66943,5.56583],[-74.66879,5.56601],[-74.66875,5.56592],[-74.66849,5.5654],[-74.66795,5.56492],[-74.6673,5.56463],[-74.66632,5.56454],[-74.66568,5.56493],[-74.66531,5.56544],[-74.66513,5.56579],[-74.66501,5.56624],[-74.66496,5.56669],[-74.66493,5.56687],[-74.66487,5.567],[-74.66473,5.5671],[-74.66443,5.56724],[-74.6638,5.56752],[-74.66326,5.56805],[-74.66304,5.56891],[-74.66342,5.56961],[-74.66366,5.56994],[-74.66381,5.57014],[-74.66384,5.57019],[-74.66386,5.57029],[-74.66389,5.57065],[-74.6639,5.57106],[-74.66397,5.57137],[-74.66347,5.57105],[-74.6628,5.57081],[-74.66238,5.57062],[-74.6617,5.57026],[-74.66072,5.57004],[-74.65971,5.57011],[-74.65923,5.57072],[-74.65905,5.57106],[-74.65881,5.57128],[-74.65869,5.57133],[-74.65848,5.57121],[-74.65818,5.57107],[-74.65817,5.57113],[-74.65813,5.57172],[-74.65812,5.57225],[-74.65795,5.5728],[-74.65766,5.57344],[-74.65778,5.5735],[-74.65871,5.57379],[-74.65938,5.57361],[-74.65982,5.57348],[-74.66028,5.5732],[-74.66065,5.57284],[-74.66084,5.57261],[-74.66086,5.5726],[-74.66103,5.57257],[-74.66115,5.57258],[-74.66122,5.57259],[-74.66135,5.57269],[-74.66186,5.57298],[-74.66249,5.57319],[-74.66255,5.57322],[-74.66256,5.57325],[-74.66269,5.5738],[-74.66307,5.57434],[-74.66354,5.57476],[-74.66437,5.57492],[-74.66505,5.57469],[-74.66547,5.57451],[-74.66608,5.57423],[-74.66657,5.57383],[-74.66699,5.57333],[-74.66719,5.57261],[-74.66696,5.57196],[-74.66674,5.57162],[-74.66662,5.57139],[-74.66647,5.57097],[-74.66624,5.57055],[-74.6662,5.57043],[-74.66623,5.57003],[-74.66616,5.5695],[-74.66601,5.5691],[-74.66621,5.56901],[-74.66664,5.56839],[-74.66685,5.56801],[-74.66699,5.56771],[-74.667,5.56773],[-74.6671,5.56825],[-74.66744,5.56881],[-74.66801,5.56924],[-74.66891,5.56932],[-74.66953,5.56877],[-74.66972,5.56843],[-74.66984,5.56825],[-74.66993,5.56815],[-74.66999,5.56809],[-74.67016,5.56802],[-74.67046,5.5679],[-74.67068,5.56781],[-74.67086,5.56777],[-74.67131,5.56769],[-74.67168,5.5675],[-74.672,5.56728],[-74.67217,5.56717],[-74.67237,5.5671],[-74.67258,5.56703],[-74.67277,5.56701],[-74.67306,5.56693],[-74.67391,5.56695],[-74.67448,5.56672],[-74.67473,5.56642],[-74.67479,5.56678],[-74.67532,5.56727],[-74.67607,5.56758],[-74.67614,5.56765],[-74.67617,5.5677],[-74.6763,5.5684],[-74.67665,5.56889],[-74.67734,5.56926],[-74.67817,5.56929],[-74.6786,5.56942],[-74.67918,5.56917],[-74.6795,5.56954],[-74.68052,5.56954],[-74.68099,5.56864],[-74.68117,5.5679],[-74.68118,5.56726],[-74.68117,5.56721],[-74.68145,5.56711],[-74.68163,5.56712],[-74.68242,5.56744],[-74.68264,5.56747],[-74.68321,5.56787],[-74.68401,5.56798],[-74.68409,5.56834],[-74.68452,5.56911],[-74.68537,5.56934],[-74.68661,5.56886],[-74.68742,5.56876],[-74.68762,5.56861],[-74.68809,5.56843],[-74.68839,5.5682],[-74.68879,5.56816],[-74.68969,5.56786],[-74.68984,5.5673],[-74.69041,5.56758],[-74.69173,5.56718],[-74.69218,5.56709],[-74.69255,5.56716],[-74.69304,5.56738],[-74.69353,5.56767],[-74.69522,5.5684],[-74.69545,5.56668],[-74.69523,5.56627],[-74.69627,5.56613],[-74.69633,5.56506],[-74.69628,5.56491],[-74.69706,5.56492],[-74.69786,5.56477],[-74.69838,5.56476],[-74.699,5.5648],[-74.69994,5.56507],[-74.7004,5.56506],[-74.70033,5.56553],[-74.70081,5.56667],[-74.7021,5.56659],[-74.70223,5.56669],[-74.70248,5.56706],[-74.70295,5.56813],[-74.70325,5.56849],[-74.70316,5.56924],[-74.70321,5.57036],[-74.70351,5.57102],[-74.70478,5.57219],[-74.70539,5.57241],[-74.70603,5.57279],[-74.70673,5.57354],[-74.70849,5.57448],[-74.70857,5.5746],[-74.70889,5.57531],[-74.71002,5.57686],[-74.71007,5.57784],[-74.71092,5.57796],[-74.7104,5.57863],[-74.7099,5.57948],[-74.71012,5.58059],[-74.71064,5.58168],[-74.71123,5.58211],[-74.71183,5.58236],[-74.71396,5.58298],[-74.71598,5.58378],[-74.71739,5.58459],[-74.71758,5.58479],[-74.71804,5.5854],[-74.71897,5.58577],[-74.71979,5.58527],[-74.72017,5.58515],[-74.7203,5.5852],[-74.721,5.58562],[-74.72179,5.58586],[-74.72252,5.58596],[-74.72397,5.586],[-74.72525,5.58549],[-74.72566,5.58539],[-74.72589,5.58546],[-74.72656,5.5858],[-74.72838,5.58508],[-74.72866,5.58507],[-74.7296,5.58496],[-74.73006,5.58466],[-74.73049,5.58405],[-74.73079,5.58375],[-74.73174,5.58382],[-74.73228,5.58373],[-74.73365,5.58388],[-74.73416,5.58369],[-74.73484,5.58328],[-74.73533,5.5828],[-74.73579,5.5822],[-74.7358,5.58218],[-74.73633,5.58242],[-74.73705,5.58265],[-74.73796,5.58252],[-74.73876,5.58216],[-74.73923,5.58182],[-74.74027,5.58125],[-74.74265,5.58144],[-74.74286,5.58063],[-74.74284,5.58027],[-74.74281,5.58029],[-74.74267,5.5804],[-74.74261,5.58044],[-74.74246,5.58049],[-74.74237,5.58049],[-74.74225,5.58047],[-74.74218,5.58045],[-74.74207,5.58038],[-74.74194,5.58033],[-74.74188,5.58031],[-74.74175,5.58022],[-74.74162,5.58017],[-74.7415,5.58016],[-74.74144,5.58013],[-74.74131,5.58011],[-74.74124,5.58008],[-74.74107,5.58006],[-74.74097,5.58008],[-74.74083,5.58008],[-74.74071,5.5801],[-74.74063,5.58011],[-74.74052,5.58017],[-74.74046,5.58019],[-74.74029,5.58025],[-74.74023,5.58025],[-74.7401,5.58028],[-74.73993,5.58034],[-74.73982,5.58039],[-74.73968,5.58045],[-74.73958,5.5805],[-74.73942,5.58059],[-74.73931,5.58066],[-74.73916,5.58075],[-74.73906,5.58081],[-74.73891,5.58089],[-74.73882,5.58095],[-74.73864,5.58109],[-74.73849,5.58116],[-74.73841,5.58121],[-74.73824,5.58129],[-74.73812,5.58133],[-74.73796,5.58139],[-74.73776,5.58145],[-74.73761,5.58148],[-74.73749,5.58151],[-74.73736,5.58152],[-74.7372,5.58152],[-74.73705,5.58153],[-74.73692,5.58149],[-74.7368,5.58146],[-74.73666,5.5814],[-74.73652,5.58133],[-74.73643,5.58127],[-74.73633,5.58123],[-74.73628,5.58119],[-74.73624,5.58115],[-74.73612,5.58103],[-74.73594,5.58096],[-74.73588,5.58093],[-74.73581,5.58093],[-74.73574,5.58091],[-74.73562,5.58091],[-74.73549,5.58094],[-74.73534,5.58099],[-74.73523,5.58103],[-74.73507,5.5811],[-74.73499,5.58116],[-74.7349,5.58124],[-74.73487,5.5813],[-74.7348,5.5814],[-74.73479,5.58151],[-74.73476,5.58159],[-74.73473,5.5817],[-74.7347,5.58175],[-74.73466,5.5818],[-74.73461,5.58188],[-74.73455,5.58196],[-74.73447,5.58205],[-74.73437,5.58216],[-74.73428,5.58225],[-74.7342,5.58231],[-74.73412,5.58238],[-74.73406,5.58243],[-74.73394,5.58254],[-74.73386,5.58261],[-74.73377,5.58272],[-74.73366,5.5828],[-74.73349,5.58287],[-74.73341,5.58287],[-74.73335,5.58289],[-74.73327,5.58285],[-74.7332,5.58284],[-74.73314,5.58281],[-74.73305,5.58277],[-74.73298,5.58275],[-74.73286,5.58271],[-74.73278,5.58268],[-74.73271,5.58266],[-74.73261,5.58261],[-74.73249,5.58258],[-74.73239,5.58254],[-74.7323,5.5825],[-74.73221,5.58247],[-74.73214,5.58247],[-74.73199,5.58248],[-74.7319,5.58248],[-74.73179,5.58249],[-74.73166,5.58252],[-74.73155,5.58254],[-74.73146,5.58256],[-74.73134,5.58255],[-74.73123,5.58255],[-74.73111,5.58255],[-74.7309,5.58254],[-74.73079,5.58254],[-74.7307,5.58255],[-74.73053,5.58257],[-74.73038,5.58262],[-74.73021,5.58264],[-74.73014,5.58268],[-74.73002,5.58271],[-74.72997,5.58276],[-74.72989,5.58281],[-74.7298,5.58296],[-74.72975,5.58303],[-74.72969,5.5831],[-74.72963,5.58323],[-74.72957,5.58333],[-74.72951,5.58346],[-74.72943,5.58357],[-74.72934,5.58371],[-74.72926,5.58381],[-74.72918,5.58387],[-74.72911,5.58394],[-74.72901,5.58399],[-74.7289,5.58403],[-74.7288,5.58403],[-74.72866,5.58407],[-74.72851,5.58407],[-74.72837,5.58408],[-74.72825,5.58408],[-74.72808,5.58408],[-74.72795,5.58408],[-74.7278,5.58406],[-74.72768,5.58402],[-74.72757,5.584],[-74.72741,5.58399],[-74.72732,5.58399],[-74.72726,5.584],[-74.72719,5.58401],[-74.72714,5.58404],[-74.72699,5.58416],[-74.72696,5.58425],[-74.72696,5.58435],[-74.72695,5.58452],[-74.72682,5.58464],[-74.72673,5.58471],[-74.72667,5.58475],[-74.72652,5.58477],[-74.72646,5.58475],[-74.72638,5.58471],[-74.72628,5.58463],[-74.72619,5.5846],[-74.72608,5.58452],[-74.72598,5.58445],[-74.72585,5.58435],[-74.72572,5.58432],[-74.72556,5.58427],[-74.72548,5.58427],[-74.72534,5.58427],[-74.72521,5.58428],[-74.72506,5.58433],[-74.72497,5.58436],[-74.72486,5.58444],[-74.72469,5.58448],[-74.7246,5.58457],[-74.72444,5.58466],[-74.72428,5.58474],[-74.72417,5.58478],[-74.72408,5.58481],[-74.7239,5.58486],[-74.72383,5.58489],[-74.72368,5.58493],[-74.72349,5.58493],[-74.72328,5.58493],[-74.72312,5.58493],[-74.723,5.58493],[-74.7229,5.58491],[-74.72277,5.58489],[-74.72263,5.58484],[-74.72242,5.58482],[-74.7222,5.58477],[-74.72206,5.58476],[-74.72197,5.5847],[-74.72183,5.58462],[-74.72175,5.58459],[-74.72162,5.58451],[-74.72154,5.58449],[-74.72145,5.58443],[-74.72133,5.58439],[-74.72117,5.58436],[-74.72107,5.58436],[-74.7209,5.58436],[-74.72082,5.58433],[-74.72067,5.58428],[-74.72055,5.58421],[-74.72043,5.58415],[-74.72026,5.5841],[-74.72018,5.58408],[-74.72002,5.58404],[-74.71989,5.58402],[-74.71982,5.58402],[-74.71972,5.58406],[-74.71964,5.58415],[-74.71958,5.58418],[-74.71945,5.58424],[-74.71936,5.58428],[-74.71928,5.58435],[-74.71911,5.58444],[-74.71909,5.5845],[-74.71903,5.58457],[-74.71895,5.58466],[-74.71887,5.58471],[-74.71874,5.58471],[-74.71864,5.58471],[-74.71856,5.58473],[-74.7185,5.58473],[-74.71845,5.58469],[-74.7184,5.58466],[-74.71836,5.5846],[-74.71831,5.58455],[-74.71829,5.58449],[-74.71825,5.58442],[-74.71815,5.58416],[-74.71813,5.58409],[-74.71805,5.58402],[-74.718,5.58395],[-74.71793,5.58389],[-74.71788,5.58384],[-74.71778,5.58375],[-74.71768,5.5837],[-74.71757,5.58363],[-74.71747,5.58353],[-74.71735,5.58344],[-74.7172,5.58339],[-74.71709,5.58332],[-74.71693,5.58326],[-74.71682,5.58319],[-74.71668,5.58314],[-74.71657,5.5831],[-74.71644,5.58304],[-74.71633,5.58296],[-74.71624,5.58289],[-74.71613,5.58284],[-74.71601,5.58277],[-74.7159,5.58274],[-74.71575,5.58266],[-74.71563,5.58261],[-74.71548,5.58252],[-74.71534,5.5825],[-74.71522,5.58246],[-74.7151,5.5824],[-74.71503,5.58234],[-74.71495,5.5823],[-74.71481,5.58225],[-74.71474,5.58221],[-74.71464,5.58217],[-74.71447,5.58212],[-74.71435,5.58205],[-74.71423,5.58205],[-74.71411,5.582],[-74.71397,5.58197],[-74.71375,5.58198],[-74.7137,5.58193],[-74.71355,5.58191],[-74.71344,5.58187],[-74.71335,5.58184],[-74.71328,5.58183],[-74.71317,5.58182],[-74.71308,5.58179],[-74.71301,5.58175],[-74.71291,5.58171],[-74.71285,5.58165],[-74.71276,5.58158],[-74.71264,5.58151],[-74.71249,5.58145],[-74.71239,5.5814],[-74.71224,5.58138],[-74.71213,5.58136],[-74.712,5.58132],[-74.7119,5.58127],[-74.71176,5.58122],[-74.7116,5.58116],[-74.71147,5.58112],[-74.71138,5.58107],[-74.71132,5.58103],[-74.71125,5.58098],[-74.71106,5.58093],[-74.71115,5.58087],[-74.71102,5.58078],[-74.71094,5.58063],[-74.7109,5.58053],[-74.71086,5.58039],[-74.7108,5.58027],[-74.71074,5.58017],[-74.71068,5.58001],[-74.71066,5.57996],[-74.71065,5.57988],[-74.71064,5.57982],[-74.71068,5.57972],[-74.71073,5.5796],[-74.71078,5.57954],[-74.71082,5.57945],[-74.71087,5.57934],[-74.71093,5.57927],[-74.71098,5.57917],[-74.71102,5.57909],[-74.71108,5.57895],[-74.71114,5.57888],[-74.71116,5.57883],[-74.71124,5.57874],[-74.71135,5.57863],[-74.71136,5.57854],[-74.71142,5.57847],[-74.71146,5.5784],[-74.71149,5.57834],[-74.71155,5.57826],[-74.71159,5.57823],[-74.71163,5.57816],[-74.71167,5.57809],[-74.7117,5.57803],[-74.71171,5.57794],[-74.71171,5.57783],[-74.71171,5.57775],[-74.71167,5.57754],[-74.71164,5.57741],[-74.7116,5.57735],[-74.7116,5.57728],[-74.71157,5.57723],[-74.71151,5.57709],[-74.71143,5.57702],[-74.71139,5.57695],[-74.71131,5.57687],[-74.71122,5.57687],[-74.71114,5.57687],[-74.71103,5.57689],[-74.71096,5.57688],[-74.71088,5.57688],[-74.71073,5.57683],[-74.71069,5.57675],[-74.71065,5.57664],[-74.7106,5.57653],[-74.71061,5.57644],[-74.71062,5.57633],[-74.71062,5.57626],[-74.71064,5.57618],[-74.71061,5.57605],[-74.71058,5.57598],[-74.71051,5.57587],[-74.71045,5.57578],[-74.71033,5.57572],[-74.71029,5.57567],[-74.71007,5.57551],[-74.71003,5.57546],[-74.70999,5.57539],[-74.70991,5.57524],[-74.70988,5.57519],[-74.70983,5.57509],[-74.70973,5.57492],[-74.70963,5.57474],[-74.70959,5.57463],[-74.70954,5.57452],[-74.70947,5.57443],[-74.70942,5.57431],[-74.70939,5.57424],[-74.70935,5.57416],[-74.7093,5.57408],[-74.70926,5.57399],[-74.70921,5.57393],[-74.70916,5.57384],[-74.70908,5.57376],[-74.70902,5.57371],[-74.70892,5.57355],[-74.70882,5.57351],[-74.70873,5.5734],[-74.70864,5.57333],[-74.7086,5.57328],[-74.70851,5.57319],[-74.70843,5.57315],[-74.70833,5.57299],[-74.70824,5.57305],[-74.70816,5.57304],[-74.70803,5.57302],[-74.7079,5.573],[-74.70784,5.57296],[-74.70777,5.57293],[-74.7077,5.57286],[-74.70761,5.5727],[-74.70755,5.57278],[-74.70748,5.57275],[-74.7074,5.5727],[-74.70732,5.57264],[-74.70722,5.5726],[-74.70713,5.57251],[-74.70705,5.57242],[-74.70692,5.57233],[-74.70685,5.57226],[-74.7068,5.57219],[-74.70673,5.57212],[-74.70663,5.57202],[-74.70653,5.57191],[-74.70646,5.5718],[-74.70634,5.57173],[-74.70618,5.57157],[-74.70611,5.57153],[-74.70595,5.57145],[-74.70588,5.5714],[-74.7058,5.57138],[-74.70567,5.57134],[-74.70556,5.57132],[-74.70536,5.57123],[-74.70524,5.57118],[-74.70519,5.57115],[-74.70507,5.5711],[-74.70495,5.57101],[-74.70488,5.57095],[-74.70477,5.57091],[-74.7047,5.57083],[-74.7046,5.57075],[-74.70444,5.57065],[-74.7044,5.57056],[-74.70428,5.57047],[-74.70416,5.57037],[-74.70416,5.57027],[-74.70409,5.57017],[-74.70404,5.57004],[-74.70399,5.56994],[-74.70395,5.56986],[-74.70393,5.56978],[-74.70391,5.56968],[-74.7039,5.5696]]]},"properties":{"FID":3,"OBJECTID":4,"ID_AME":4,"CODMPO":"17380","CODAME":4,"TIPO":"Torrencialidad","GRADO":"Alta","TIPOPOT":"Amenaza Alta por Torrencialidad","TIPOCORPO":"Zonas de Regeneracion y Mejoramiento","SUBTIPCORP":"Amenaza Natural Alta","COD_EEP":" ","AREA":2307339.75391,"PERIMETER":27022.650748,"Shape_Leng":27022.650748,"Shape_Area":2307339.75391}}]}