{"type":"FeatureCollection","name":"COND_AME_INUN_RUR","crs":{"type":"name","properties":{"name":"urn:ogc:def:crs:OGC:1.3:CRS84"}},"features":[{"type":"Feature","id":0,"geometry":{"type":"Polygon","coordinates":[[[-75.45656,5.51934],[-75.45656,5.51945],[-75.45668,5.51945],[-75.45668,5.51934],[-75.45656,5.51934]]]},"properties":{"FID":0,"OBJECTID":24,"Priorizaci":"Largo Plazo","Shape_Leng":50,"Shape_Area":156.25}},{"type":"Feature","id":1,"geometry":{"type":"Polygon","coordinates":[[[-75.45656,5.51922],[-75.45668,5.51922],[-75.45667,5.51911],[-75.45667,5.519],[-75.45667,5.51888],[-75.45656,5.51888],[-75.45656,5.51855],[-75.45645,5.51855],[-75.45645,5.51798],[-75.45633,5.51798],[-75.45633,5.51775],[-75.45622,5.51776],[-75.45622,5.51764],[-75.45611,5.51764],[-75.45611,5.51787],[-75.456,5.51787],[-75.456,5.51798],[-75.45611,5.51798],[-75.45611,5.51809],[-75.456,5.51809],[-75.456,5.51821],[-75.45611,5.51821],[-75.45611,5.51877],[-75.45622,5.51877],[-75.45622,5.51889],[-75.45634,5.51888],[-75.45634,5.519],[-75.45634,5.51911],[-75.45645,5.51911],[-75.45656,5.51911],[-75.45656,5.51922]]]},"properties":{"FID":1,"OBJECTID":25,"Priorizaci":"Largo Plazo","Shape_Leng":525,"Shape_Area":6250}},{"type":"Feature","id":2,"geometry":{"type":"Polygon","coordinates":[[[-75.46107,5.51684],[-75.46107,5.51707],[-75.46118,5.51707],[-75.46118,5.51684],[-75.46107,5.51684]]]},"properties":{"FID":2,"OBJECTID":26,"Priorizaci":"Largo Plazo","Shape_Leng":75,"Shape_Area":312.5}},{"type":"Feature","id":3,"geometry":{"type":"Polygon","coordinates":[[[-75.4587,5.517],[-75.4587,5.51699],[-75.45878,5.51699],[-75.45875,5.51683],[-75.45874,5.51679],[-75.45874,5.51676],[-75.45874,5.51673],[-75.4587,5.51673],[-75.4587,5.51685],[-75.45859,5.51685],[-75.45859,5.51662],[-75.45859,5.51617],[-75.4586,5.51617],[-75.4586,5.51616],[-75.45859,5.51614],[-75.45859,5.51613],[-75.45859,5.51613],[-75.45859,5.51612],[-75.45859,5.51611],[-75.45859,5.51609],[-75.45859,5.51608],[-75.45859,5.51608],[-75.45859,5.51607],[-75.4586,5.51605],[-75.4586,5.51603],[-75.4586,5.51603],[-75.45861,5.51601],[-75.45861,5.516],[-75.45862,5.51598],[-75.45862,5.51598],[-75.45862,5.51598],[-75.45863,5.51596],[-75.45864,5.51595],[-75.45864,5.51594],[-75.45865,5.51594],[-75.45865,5.51593],[-75.45866,5.51591],[-75.45868,5.5159],[-75.45868,5.5159],[-75.45869,5.51589],[-75.4587,5.51588],[-75.45871,5.51587],[-75.45872,5.51587],[-75.45872,5.51586],[-75.45874,5.51585],[-75.45875,5.51585],[-75.45876,5.51584],[-75.45876,5.51584],[-75.45877,5.51584],[-75.45879,5.51583],[-75.4588,5.51583],[-75.45858,5.51583],[-75.45847,5.51583],[-75.45847,5.51594],[-75.45836,5.51594],[-75.45836,5.51628],[-75.45825,5.51628],[-75.45825,5.51639],[-75.45836,5.51639],[-75.45836,5.51651],[-75.45825,5.51651],[-75.45825,5.51662],[-75.45836,5.51662],[-75.45836,5.51673],[-75.45825,5.51673],[-75.45825,5.51685],[-75.45836,5.51685],[-75.45836,5.51696],[-75.4587,5.51696],[-75.4587,5.517]]]},"properties":{"FID":3,"OBJECTID":27,"Priorizaci":"Largo Plazo","Shape_Leng":482.990169274,"Shape_Area":3983.78102912}},{"type":"Feature","id":4,"geometry":{"type":"Polygon","coordinates":[[[-75.4596,5.51605],[-75.4596,5.51617],[-75.45971,5.51616],[-75.45971,5.51605],[-75.4596,5.51605]]]},"properties":{"FID":4,"OBJECTID":28,"Priorizaci":"Largo Plazo","Shape_Leng":50,"Shape_Area":156.25}},{"type":"Feature","id":5,"geometry":{"type":"Polygon","coordinates":[[[-75.45881,5.51583],[-75.45881,5.51594],[-75.45892,5.51594],[-75.45892,5.51583],[-75.45881,5.51583]]]},"properties":{"FID":5,"OBJECTID":29,"Priorizaci":"Largo Plazo","Shape_Leng":50,"Shape_Area":156.25}},{"type":"Feature","id":6,"geometry":{"type":"Polygon","coordinates":[[[-75.46038,5.51581],[-75.46037,5.51582],[-75.46035,5.51583],[-75.46031,5.51585],[-75.46016,5.51593],[-75.46016,5.51594],[-75.4605,5.51594],[-75.4605,5.51572],[-75.46038,5.51581]]]},"properties":{"FID":6,"OBJECTID":30,"Priorizaci":"Largo Plazo","Shape_Leng":107.108663943,"Shape_Area":437.167614229}},{"type":"Feature","id":7,"geometry":{"type":"Polygon","coordinates":[[[-75.45881,5.51549],[-75.45881,5.5156],[-75.4587,5.5156],[-75.4587,5.51572],[-75.45881,5.51572],[-75.45892,5.51571],[-75.45892,5.5156],[-75.45892,5.51549],[-75.45881,5.51549]]]},"properties":{"FID":7,"OBJECTID":31,"Priorizaci":"Largo Plazo","Shape_Leng":100,"Shape_Area":468.75}},{"type":"Feature","id":8,"geometry":{"type":"Polygon","coordinates":[[[-75.46039,5.5156],[-75.46039,5.51571],[-75.4605,5.51571],[-75.4605,5.5156],[-75.46039,5.5156]]]},"properties":{"FID":8,"OBJECTID":32,"Priorizaci":"Largo Plazo","Shape_Leng":50,"Shape_Area":156.25}},{"type":"Feature","id":9,"geometry":{"type":"Polygon","coordinates":[[[-75.46065,5.5149],[-75.46069,5.51492],[-75.46073,5.51495],[-75.46076,5.51498],[-75.46078,5.51502],[-75.4608,5.51506],[-75.46081,5.5151],[-75.46082,5.51514],[-75.46082,5.51515],[-75.46084,5.51515],[-75.46084,5.51503],[-75.46095,5.51503],[-75.46095,5.51481],[-75.46061,5.51481],[-75.4605,5.51481],[-75.4605,5.51492],[-75.4605,5.51503],[-75.46061,5.51503],[-75.46061,5.51489],[-75.46065,5.5149]]]},"properties":{"FID":9,"OBJECTID":33,"Priorizaci":"Largo Plazo","Shape_Leng":194.990386618,"Shape_Area":1099.22955006}},{"type":"Feature","id":10,"geometry":{"type":"Polygon","coordinates":[[[-75.45903,5.51492],[-75.45892,5.51492],[-75.45892,5.51504],[-75.45926,5.51504],[-75.45926,5.51492],[-75.45915,5.51492],[-75.45915,5.51481],[-75.45926,5.51481],[-75.45926,5.51424],[-75.45914,5.51425],[-75.45914,5.51436],[-75.45903,5.51436],[-75.45903,5.51447],[-75.45903,5.51458],[-75.45903,5.5147],[-75.45892,5.5147],[-75.45892,5.51481],[-75.45903,5.51481],[-75.45903,5.51492]]]},"properties":{"FID":10,"OBJECTID":34,"Priorizaci":"Largo Plazo","Shape_Leng":300,"Shape_Area":2187.5}},{"type":"Feature","id":11,"geometry":{"type":"Polygon","coordinates":[[[-75.4614,5.51447],[-75.4614,5.51458],[-75.46151,5.51458],[-75.46151,5.51447],[-75.4614,5.51447]]]},"properties":{"FID":11,"OBJECTID":35,"Priorizaci":"Largo Plazo","Shape_Leng":50,"Shape_Area":156.25}},{"type":"Feature","id":12,"geometry":{"type":"Polygon","coordinates":[[[-75.45957,5.51368],[-75.45957,5.51368],[-75.45957,5.5137],[-75.45957,5.51371],[-75.45956,5.51373],[-75.45956,5.51373],[-75.45956,5.51375],[-75.45955,5.51377],[-75.45955,5.51378],[-75.45954,5.51378],[-75.45954,5.51379],[-75.45953,5.5138],[-75.45952,5.51382],[-75.45952,5.51382],[-75.45952,5.51383],[-75.45951,5.51383],[-75.4595,5.51385],[-75.45949,5.51386],[-75.45949,5.51386],[-75.45948,5.51387],[-75.45948,5.51391],[-75.4596,5.51391],[-75.45959,5.51379],[-75.45971,5.51379],[-75.45971,5.51368],[-75.45959,5.51368],[-75.45959,5.51345],[-75.45971,5.51345],[-75.45971,5.51323],[-75.45982,5.51323],[-75.45982,5.51255],[-75.45948,5.51255],[-75.45948,5.51266],[-75.45937,5.51266],[-75.45937,5.51278],[-75.45914,5.51278],[-75.45914,5.51289],[-75.45925,5.51289],[-75.45937,5.51289],[-75.45937,5.513],[-75.45925,5.513],[-75.45925,5.51311],[-75.45937,5.51311],[-75.45937,5.51323],[-75.45948,5.51323],[-75.45948,5.51345],[-75.45949,5.51345],[-75.45949,5.51345],[-75.4595,5.51347],[-75.45951,5.51348],[-75.45952,5.51349],[-75.45952,5.51349],[-75.45952,5.5135],[-75.45953,5.51351],[-75.45954,5.51353],[-75.45955,5.51353],[-75.45955,5.51354],[-75.45955,5.51355],[-75.45956,5.51356],[-75.45956,5.51358],[-75.45956,5.51358],[-75.45957,5.5136],[-75.45957,5.51362],[-75.45957,5.51363],[-75.45957,5.51363],[-75.45957,5.51364],[-75.45957,5.51366],[-75.45957,5.51368],[-75.45957,5.51368]]]},"properties":{"FID":12,"OBJECTID":36,"Priorizaci":"Largo Plazo","Shape_Leng":505.609123896,"Shape_Area":5144.87831158}},{"type":"Feature","id":13,"geometry":{"type":"Polygon","coordinates":[[[-75.46286,5.51345],[-75.46286,5.51356],[-75.46275,5.51356],[-75.46275,5.51367],[-75.46275,5.51378],[-75.46287,5.51378],[-75.46286,5.51367],[-75.46298,5.51367],[-75.46298,5.51345],[-75.46286,5.51345]]]},"properties":{"FID":13,"OBJECTID":37,"Priorizaci":"Largo Plazo","Shape_Leng":125,"Shape_Area":625}},{"type":"Feature","id":14,"geometry":{"type":"Polygon","coordinates":[[[-75.46162,5.51311],[-75.46185,5.51311],[-75.46185,5.513],[-75.46196,5.513],[-75.46196,5.51288],[-75.46185,5.51288],[-75.46185,5.51277],[-75.46162,5.51277],[-75.46162,5.51286],[-75.46163,5.51286],[-75.46164,5.51285],[-75.46166,5.51285],[-75.46167,5.51284],[-75.46169,5.51284],[-75.4617,5.51284],[-75.46172,5.51285],[-75.46173,5.51286],[-75.46174,5.51287],[-75.46175,5.51288],[-75.46176,5.51289],[-75.46176,5.51291],[-75.46177,5.51292],[-75.46177,5.51294],[-75.46177,5.51295],[-75.46176,5.51297],[-75.46176,5.51298],[-75.46175,5.51299],[-75.46174,5.513],[-75.46172,5.51301],[-75.46171,5.51302],[-75.46169,5.51302],[-75.46168,5.51302],[-75.46166,5.51302],[-75.46165,5.51302],[-75.46164,5.51301],[-75.46163,5.51301],[-75.46162,5.513],[-75.46162,5.51311]]]},"properties":{"FID":14,"OBJECTID":38,"Priorizaci":"Largo Plazo","Shape_Leng":179.287392906,"Shape_Area":821.761353639}},{"type":"Feature","id":15,"geometry":{"type":"Polygon","coordinates":[[[-75.46219,5.51277],[-75.46219,5.51288],[-75.4623,5.51288],[-75.4623,5.51277],[-75.46219,5.51277]]]},"properties":{"FID":15,"OBJECTID":39,"Priorizaci":"Largo Plazo","Shape_Leng":50,"Shape_Area":156.25}},{"type":"Feature","id":16,"geometry":{"type":"Polygon","coordinates":[[[-75.46061,5.51187],[-75.46061,5.51198],[-75.46072,5.51198],[-75.46072,5.51187],[-75.46061,5.51187]]]},"properties":{"FID":16,"OBJECTID":40,"Priorizaci":"Largo Plazo","Shape_Leng":50,"Shape_Area":156.25}},{"type":"Feature","id":17,"geometry":{"type":"Polygon","coordinates":[[[-75.45925,5.51176],[-75.45936,5.51176],[-75.45936,5.51165],[-75.45948,5.51165],[-75.45948,5.51153],[-75.45936,5.51153],[-75.45936,5.51142],[-75.45925,5.51142],[-75.45916,5.51142],[-75.45914,5.51143],[-75.45903,5.5115],[-75.45903,5.51153],[-75.45914,5.51153],[-75.45914,5.51165],[-75.45925,5.51165],[-75.45925,5.51176]]]},"properties":{"FID":17,"OBJECTID":41,"Priorizaci":"Largo Plazo","Shape_Leng":168.588850002,"Shape_Area":1029.63073534}},{"type":"Feature","id":18,"geometry":{"type":"Polygon","coordinates":[[[-75.46241,5.51164],[-75.46241,5.51175],[-75.46252,5.51175],[-75.46252,5.51164],[-75.46241,5.51164]]]},"properties":{"FID":18,"OBJECTID":42,"Priorizaci":"Largo Plazo","Shape_Leng":50,"Shape_Area":156.25}},{"type":"Feature","id":19,"geometry":{"type":"Polygon","coordinates":[[[-75.46083,5.51142],[-75.46094,5.51142],[-75.46094,5.5111],[-75.46086,5.51109],[-75.46084,5.51109],[-75.46075,5.51108],[-75.46072,5.51108],[-75.46072,5.51119],[-75.46083,5.51119],[-75.46083,5.51142]]]},"properties":{"FID":19,"OBJECTID":43,"Priorizaci":"Largo Plazo","Shape_Leng":122.674996118,"Shape_Area":601.068254167}},{"type":"Feature","id":20,"geometry":{"type":"Polygon","coordinates":[[[-75.46105,5.51006],[-75.46105,5.5104],[-75.46094,5.5104],[-75.46094,5.51051],[-75.46094,5.51062],[-75.46094,5.51074],[-75.46094,5.51085],[-75.46087,5.51085],[-75.46094,5.51104],[-75.46094,5.51096],[-75.46105,5.51096],[-75.46128,5.51096],[-75.46139,5.51096],[-75.46139,5.51085],[-75.46151,5.51085],[-75.4615,5.51074],[-75.46139,5.51074],[-75.46139,5.5104],[-75.4615,5.5104],[-75.4615,5.51017],[-75.46139,5.51017],[-75.46139,5.50983],[-75.46128,5.50983],[-75.46105,5.50983],[-75.46105,5.50995],[-75.46116,5.50995],[-75.46116,5.51006],[-75.46105,5.51006]]]},"properties":{"FID":20,"OBJECTID":44,"Priorizaci":"Largo Plazo","Shape_Leng":451.250713389,"Shape_Area":5867.68287534}},{"type":"Feature","id":21,"geometry":{"type":"Polygon","coordinates":[[[-75.46105,5.50995],[-75.46094,5.50995],[-75.46094,5.51006],[-75.46105,5.51006],[-75.46105,5.50995]]]},"properties":{"FID":21,"OBJECTID":45,"Priorizaci":"Largo Plazo","Shape_Leng":50,"Shape_Area":156.25}},{"type":"Feature","id":22,"geometry":{"type":"Polygon","coordinates":[[[-75.46567,5.5096],[-75.46545,5.5096],[-75.46545,5.50971],[-75.46534,5.50971],[-75.46534,5.51005],[-75.46545,5.51005],[-75.46545,5.50994],[-75.46556,5.50994],[-75.46568,5.50994],[-75.46568,5.50971],[-75.46572,5.50971],[-75.4657,5.5096],[-75.46567,5.5096]]]},"properties":{"FID":22,"OBJECTID":46,"Priorizaci":"Largo Plazo","Shape_Leng":182.639432898,"Shape_Area":1452.91875}},{"type":"Feature","id":23,"geometry":{"type":"Polygon","coordinates":[[[-75.46288,5.50915],[-75.46289,5.50916],[-75.46289,5.50916],[-75.4629,5.50916],[-75.46291,5.50917],[-75.46293,5.50918],[-75.46293,5.50918],[-75.46294,5.50918],[-75.46295,5.50919],[-75.46296,5.5092],[-75.46297,5.50921],[-75.46297,5.50915],[-75.46288,5.50915]]]},"properties":{"FID":23,"OBJECTID":47,"Priorizaci":"Largo Plazo","Shape_Leng":27.7996513821,"Shape_Area":26.8896319366}},{"type":"Feature","id":24,"geometry":{"type":"Polygon","coordinates":[[[-75.46545,5.50903],[-75.46545,5.50915],[-75.46556,5.50915],[-75.46556,5.50903],[-75.46545,5.50903]]]},"properties":{"FID":24,"OBJECTID":48,"Priorizaci":"Largo Plazo","Shape_Leng":50,"Shape_Area":156.25}},{"type":"Feature","id":25,"geometry":{"type":"Polygon","coordinates":[[[-75.46074,5.50882],[-75.46071,5.5089],[-75.46071,5.50893],[-75.46082,5.50893],[-75.46082,5.50882],[-75.46074,5.50882]]]},"properties":{"FID":25,"OBJECTID":49,"Priorizaci":"Largo Plazo","Shape_Leng":47.5697779825,"Shape_Area":142.828990774}},{"type":"Feature","id":26,"geometry":{"type":"Polygon","coordinates":[[[-75.46387,5.50825],[-75.46398,5.50824],[-75.46398,5.50802],[-75.46409,5.50802],[-75.46409,5.50791],[-75.46443,5.5079],[-75.46443,5.50802],[-75.46466,5.50802],[-75.46466,5.50779],[-75.46477,5.50779],[-75.46477,5.50756],[-75.46454,5.50757],[-75.46454,5.50745],[-75.46443,5.50745],[-75.46443,5.50757],[-75.46432,5.50757],[-75.4642,5.50757],[-75.46398,5.50757],[-75.46398,5.50768],[-75.46413,5.50768],[-75.46414,5.5077],[-75.46413,5.50771],[-75.46413,5.50772],[-75.46413,5.50772],[-75.46413,5.50773],[-75.46413,5.50775],[-75.46413,5.50777],[-75.46412,5.50777],[-75.46412,5.50779],[-75.46411,5.50781],[-75.46411,5.50782],[-75.46411,5.50782],[-75.4641,5.50782],[-75.4641,5.50784],[-75.46409,5.50786],[-75.46408,5.50786],[-75.46408,5.50786],[-75.46407,5.50787],[-75.46406,5.50789],[-75.46405,5.5079],[-75.46405,5.5079],[-75.46404,5.50791],[-75.46402,5.50792],[-75.46401,5.50793],[-75.46401,5.50793],[-75.46401,5.50794],[-75.46399,5.50795],[-75.46397,5.50795],[-75.46397,5.50796],[-75.46397,5.50796],[-75.46396,5.50796],[-75.46394,5.50797],[-75.46392,5.50797],[-75.46392,5.50797],[-75.4639,5.50798],[-75.46388,5.50798],[-75.46387,5.50798],[-75.46387,5.50798],[-75.46387,5.50798],[-75.46387,5.50802],[-75.46375,5.50802],[-75.46375,5.50813],[-75.46387,5.50813],[-75.46387,5.50825]]]},"properties":{"FID":26,"OBJECTID":50,"Priorizaci":"Largo Plazo","Shape_Leng":445.970906895,"Shape_Area":3904.49874701}},{"type":"Feature","id":27,"geometry":{"type":"Polygon","coordinates":[[[-75.46251,5.50701],[-75.46251,5.50712],[-75.46262,5.50712],[-75.46262,5.507],[-75.46251,5.50701]]]},"properties":{"FID":27,"OBJECTID":51,"Priorizaci":"Largo Plazo","Shape_Leng":50,"Shape_Area":156.25}},{"type":"Feature","id":28,"geometry":{"type":"Polygon","coordinates":[[[-75.46251,5.50701],[-75.46251,5.50689],[-75.46243,5.50689],[-75.4624,5.50692],[-75.4624,5.50701],[-75.46251,5.50701]]]},"properties":{"FID":28,"OBJECTID":52,"Priorizaci":"Largo Plazo","Shape_Leng":47.9341679839,"Shape_Area":149.918551281}},{"type":"Feature","id":29,"geometry":{"type":"Polygon","coordinates":[[[-75.46285,5.50655],[-75.46274,5.50655],[-75.46274,5.50667],[-75.46285,5.50667],[-75.46285,5.50655]]]},"properties":{"FID":29,"OBJECTID":53,"Priorizaci":"Largo Plazo","Shape_Leng":50,"Shape_Area":156.25}},{"type":"Feature","id":30,"geometry":{"type":"Polygon","coordinates":[[[-75.46285,5.50655],[-75.46296,5.50655],[-75.46307,5.50655],[-75.46307,5.50666],[-75.46319,5.50666],[-75.46319,5.50655],[-75.4633,5.50655],[-75.4633,5.50666],[-75.46341,5.50666],[-75.46341,5.50655],[-75.46353,5.50655],[-75.46352,5.50644],[-75.46341,5.50644],[-75.46341,5.50621],[-75.46341,5.5061],[-75.46364,5.5061],[-75.46364,5.50599],[-75.46352,5.50599],[-75.46352,5.50587],[-75.46364,5.50587],[-75.46364,5.50565],[-75.46352,5.50565],[-75.46352,5.50553],[-75.46341,5.50553],[-75.46341,5.50542],[-75.4633,5.50542],[-75.4633,5.50553],[-75.4633,5.50565],[-75.46318,5.50565],[-75.46318,5.50576],[-75.4633,5.50576],[-75.4633,5.50587],[-75.46319,5.50587],[-75.46319,5.50599],[-75.46307,5.50599],[-75.46307,5.5061],[-75.46319,5.5061],[-75.46319,5.50621],[-75.46296,5.50621],[-75.46285,5.50621],[-75.46285,5.50644],[-75.46285,5.50655]]]},"properties":{"FID":30,"OBJECTID":54,"Priorizaci":"Largo Plazo","Shape_Leng":575,"Shape_Area":5937.5}},{"type":"Feature","id":31,"geometry":{"type":"Polygon","coordinates":[[[-75.46409,5.50542],[-75.46409,5.50553],[-75.4642,5.50553],[-75.4642,5.50542],[-75.46409,5.50542]]]},"properties":{"FID":31,"OBJECTID":55,"Priorizaci":"Largo Plazo","Shape_Leng":50,"Shape_Area":156.25}},{"type":"Feature","id":32,"geometry":{"type":"Polygon","coordinates":[[[-75.46487,5.50497],[-75.46499,5.50497],[-75.46499,5.50485],[-75.46499,5.50474],[-75.4651,5.50474],[-75.4651,5.50463],[-75.4651,5.5043],[-75.46504,5.5043],[-75.46499,5.50432],[-75.46499,5.50433],[-75.46498,5.50435],[-75.46498,5.50435],[-75.46498,5.50437],[-75.46497,5.50438],[-75.46497,5.50439],[-75.46496,5.5044],[-75.46496,5.5044],[-75.46495,5.50442],[-75.46494,5.50443],[-75.46494,5.50444],[-75.46494,5.50444],[-75.46493,5.50445],[-75.46492,5.50446],[-75.46491,5.50448],[-75.46491,5.50448],[-75.46489,5.50449],[-75.46488,5.5045],[-75.46487,5.50451],[-75.46487,5.50451],[-75.46486,5.50451],[-75.46485,5.50452],[-75.46483,5.50453],[-75.46483,5.50453],[-75.46483,5.50453],[-75.46482,5.50453],[-75.46481,5.50454],[-75.4648,5.50455],[-75.46478,5.50455],[-75.46478,5.50455],[-75.46476,5.50455],[-75.46476,5.50463],[-75.46487,5.50463],[-75.46487,5.50474],[-75.46476,5.50474],[-75.46476,5.50485],[-75.46487,5.50485],[-75.46487,5.50497]]]},"properties":{"FID":32,"OBJECTID":56,"Priorizaci":"Largo Plazo","Shape_Leng":232.529517774,"Shape_Area":1602.05944951}},{"type":"Feature","id":33,"geometry":{"type":"Polygon","coordinates":[[[-75.47305,5.48031],[-75.47294,5.48031],[-75.47294,5.48043],[-75.47282,5.48043],[-75.47282,5.48054],[-75.47271,5.48054],[-75.47271,5.48058],[-75.4731,5.48063],[-75.47326,5.48065],[-75.47328,5.48065],[-75.47328,5.48042],[-75.4735,5.48042],[-75.4735,5.4802],[-75.47339,5.4802],[-75.47339,5.48009],[-75.47327,5.48009],[-75.47327,5.47997],[-75.47316,5.47997],[-75.47316,5.47986],[-75.47305,5.47986],[-75.47305,5.48031]]]},"properties":{"FID":33,"OBJECTID":57,"Priorizaci":"Mediano Plazo","Shape_Leng":342.969207109,"Shape_Area":3523.22852883}},{"type":"Feature","id":34,"geometry":{"type":"Polygon","coordinates":[[[-75.47327,5.47975],[-75.47327,5.47986],[-75.4735,5.47986],[-75.4735,5.47975],[-75.47373,5.47975],[-75.47372,5.47941],[-75.47361,5.47941],[-75.47361,5.47929],[-75.47361,5.47918],[-75.4735,5.47918],[-75.47339,5.47918],[-75.47339,5.47907],[-75.47327,5.47907],[-75.47327,5.47896],[-75.47316,5.47896],[-75.47316,5.47884],[-75.47327,5.47884],[-75.47327,5.4785],[-75.47316,5.4785],[-75.47316,5.47839],[-75.47305,5.47839],[-75.47304,5.47805],[-75.47304,5.47794],[-75.47293,5.47794],[-75.47293,5.47805],[-75.47271,5.47805],[-75.47271,5.47817],[-75.47282,5.47817],[-75.47282,5.47828],[-75.47271,5.47828],[-75.47271,5.47839],[-75.47259,5.47839],[-75.47259,5.47851],[-75.47271,5.4785],[-75.47271,5.47862],[-75.47282,5.47862],[-75.47282,5.47873],[-75.47293,5.47873],[-75.47293,5.47884],[-75.47271,5.47884],[-75.47271,5.47896],[-75.47271,5.47907],[-75.47282,5.47907],[-75.47282,5.47918],[-75.47293,5.47918],[-75.47293,5.4793],[-75.47305,5.47929],[-75.47305,5.47975],[-75.47316,5.47975],[-75.47316,5.47963],[-75.47327,5.47963],[-75.47327,5.47975]]]},"properties":{"FID":34,"OBJECTID":58,"Priorizaci":"Mediano Plazo","Shape_Leng":800,"Shape_Area":10937.5}},{"type":"Feature","id":35,"geometry":{"type":"Polygon","coordinates":[[[-75.47801,5.47925],[-75.478,5.47928],[-75.47801,5.47928],[-75.47801,5.47924],[-75.47801,5.47925]]]},"properties":{"FID":35,"OBJECTID":59,"Priorizaci":"Mediano Plazo","Shape_Leng":10.103895191,"Shape_Area":2.71752364095}},{"type":"Feature","id":36,"geometry":{"type":"Polygon","coordinates":[[[-75.47959,5.47917],[-75.47947,5.47917],[-75.47948,5.47928],[-75.47981,5.47928],[-75.47981,5.47917],[-75.4797,5.47917],[-75.4797,5.47905],[-75.47981,5.47905],[-75.47981,5.47894],[-75.47947,5.47894],[-75.47947,5.47905],[-75.47959,5.47905],[-75.47959,5.47917]]]},"properties":{"FID":36,"OBJECTID":60,"Priorizaci":"Mediano Plazo","Shape_Leng":200,"Shape_Area":1093.75}},{"type":"Feature","id":37,"geometry":{"type":"Polygon","coordinates":[[[-75.47799,5.47907],[-75.478,5.47908],[-75.47801,5.47912],[-75.47801,5.47902],[-75.47799,5.47907]]]},"properties":{"FID":37,"OBJECTID":61,"Priorizaci":"Mediano Plazo","Shape_Leng":22.9189797912,"Shape_Area":9.87061092152}},{"type":"Feature","id":38,"geometry":{"type":"Polygon","coordinates":[[[-75.47451,5.47907],[-75.47485,5.47906],[-75.47485,5.47873],[-75.47474,5.47873],[-75.47474,5.47861],[-75.47462,5.47861],[-75.47462,5.4785],[-75.47451,5.4785],[-75.4744,5.4785],[-75.4744,5.47895],[-75.47451,5.47895],[-75.47451,5.47907]]]},"properties":{"FID":38,"OBJECTID":62,"Priorizaci":"Mediano Plazo","Shape_Leng":225,"Shape_Area":2500}},{"type":"Feature","id":39,"geometry":{"type":"Polygon","coordinates":[[[-75.47598,5.47872],[-75.47587,5.47872],[-75.47587,5.47884],[-75.4762,5.47884],[-75.4762,5.47872],[-75.47609,5.47872],[-75.47609,5.47861],[-75.4762,5.47861],[-75.4762,5.47832],[-75.47613,5.47828],[-75.47609,5.47825],[-75.47609,5.47827],[-75.47609,5.47838],[-75.47575,5.47838],[-75.47575,5.4785],[-75.47586,5.4785],[-75.47587,5.47861],[-75.47598,5.47861],[-75.47598,5.47872]]]},"properties":{"FID":39,"OBJECTID":63,"Priorizaci":"Mediano Plazo","Shape_Leng":274.163013922,"Shape_Area":1854.5241109}},{"type":"Feature","id":40,"geometry":{"type":"Polygon","coordinates":[[[-75.47887,5.47826],[-75.47858,5.4786],[-75.47891,5.4786],[-75.47891,5.47826],[-75.47887,5.47826]]]},"properties":{"FID":40,"OBJECTID":64,"Priorizaci":"Mediano Plazo","Shape_Leng":128.07904427,"Shape_Area":776.171250001}},{"type":"Feature","id":41,"geometry":{"type":"Polygon","coordinates":[[[-75.47801,5.47851],[-75.47818,5.47845],[-75.47824,5.47838],[-75.47823,5.47838],[-75.47823,5.47815],[-75.47812,5.47815],[-75.47812,5.47804],[-75.47801,5.47804],[-75.47801,5.47815],[-75.47801,5.47815],[-75.47803,5.47815],[-75.47804,5.47815],[-75.47806,5.47815],[-75.47807,5.47816],[-75.47808,5.47817],[-75.47809,5.47818],[-75.4781,5.47819],[-75.47811,5.47821],[-75.47811,5.47822],[-75.47812,5.47824],[-75.47811,5.47825],[-75.47811,5.47827],[-75.4781,5.47828],[-75.4781,5.47829],[-75.47808,5.47831],[-75.47807,5.47831],[-75.47806,5.47832],[-75.47804,5.47833],[-75.47803,5.47833],[-75.47801,5.47833],[-75.47801,5.47832],[-75.47801,5.47851]]]},"properties":{"FID":41,"OBJECTID":65,"Priorizaci":"Mediano Plazo","Shape_Leng":161.726773476,"Shape_Area":820.919595318}},{"type":"Feature","id":42,"geometry":{"type":"Polygon","coordinates":[[[-75.47496,5.47793],[-75.47485,5.47793],[-75.47485,5.47839],[-75.47496,5.47839],[-75.47496,5.47827],[-75.47507,5.47827],[-75.47507,5.47805],[-75.47496,5.47805],[-75.47496,5.47793]]]},"properties":{"FID":42,"OBJECTID":66,"Priorizaci":"Mediano Plazo","Shape_Leng":150,"Shape_Area":937.5}},{"type":"Feature","id":43,"geometry":{"type":"Polygon","coordinates":[[[-75.47056,5.47817],[-75.47056,5.47828],[-75.47068,5.47828],[-75.47068,5.47817],[-75.47056,5.47817]]]},"properties":{"FID":43,"OBJECTID":67,"Priorizaci":"Mediano Plazo","Shape_Leng":50,"Shape_Area":156.25}},{"type":"Feature","id":44,"geometry":{"type":"Polygon","coordinates":[[[-75.47834,5.47815],[-75.47835,5.47825],[-75.47843,5.47815],[-75.47834,5.47815]]]},"properties":{"FID":44,"OBJECTID":68,"Priorizaci":"Mediano Plazo","Shape_Leng":34.6395756556,"Shape_Area":50.9810063033}},{"type":"Feature","id":45,"geometry":{"type":"Polygon","coordinates":[[[-75.48364,5.47814],[-75.48365,5.47821],[-75.48368,5.47814],[-75.48364,5.47814]]]},"properties":{"FID":45,"OBJECTID":69,"Priorizaci":"Mediano Plazo","Shape_Leng":19.9123833781,"Shape_Area":13.2617300874}},{"type":"Feature","id":46,"geometry":{"type":"Polygon","coordinates":[[[-75.47169,5.47783],[-75.47169,5.47794],[-75.4718,5.47794],[-75.4718,5.47783],[-75.47169,5.47783]]]},"properties":{"FID":46,"OBJECTID":70,"Priorizaci":"Mediano Plazo","Shape_Leng":50,"Shape_Area":156.25}},{"type":"Feature","id":47,"geometry":{"type":"Polygon","coordinates":[[[-75.47316,5.47783],[-75.47316,5.47794],[-75.47327,5.47794],[-75.47327,5.47783],[-75.47316,5.47783]]]},"properties":{"FID":47,"OBJECTID":71,"Priorizaci":"Mediano Plazo","Shape_Leng":50,"Shape_Area":156.25}},{"type":"Feature","id":48,"geometry":{"type":"Polygon","coordinates":[[[-75.47496,5.47793],[-75.4753,5.47793],[-75.4753,5.47782],[-75.47519,5.47782],[-75.47519,5.47771],[-75.47507,5.47771],[-75.47507,5.47782],[-75.47496,5.47782],[-75.47496,5.47793]]]},"properties":{"FID":48,"OBJECTID":72,"Priorizaci":"Mediano Plazo","Shape_Leng":125,"Shape_Area":625}},{"type":"Feature","id":49,"geometry":{"type":"Polygon","coordinates":[[[-75.47748,5.47792],[-75.4775,5.47792],[-75.47751,5.47793],[-75.47751,5.47793],[-75.47755,5.47793],[-75.47755,5.47759],[-75.47744,5.47759],[-75.47744,5.4777],[-75.47733,5.4777],[-75.47733,5.47782],[-75.47744,5.47782],[-75.47744,5.47792],[-75.47745,5.47792],[-75.47746,5.47791],[-75.47748,5.47792]]]},"properties":{"FID":49,"OBJECTID":73,"Priorizaci":"Mediano Plazo","Shape_Leng":124.104563743,"Shape_Area":615.786328199}},{"type":"Feature","id":50,"geometry":{"type":"Polygon","coordinates":[[[-75.4833,5.47692],[-75.48339,5.47696],[-75.48342,5.47697],[-75.48342,5.47656],[-75.48319,5.47656],[-75.48319,5.47667],[-75.48308,5.47667],[-75.48308,5.47683],[-75.48325,5.4769],[-75.4833,5.4769],[-75.4833,5.47692]]]},"properties":{"FID":50,"OBJECTID":74,"Priorizaci":"Mediano Plazo","Shape_Leng":154.745492296,"Shape_Area":1237.02014984}},{"type":"Feature","id":51,"geometry":{"type":"Polygon","coordinates":[[[-75.47699,5.47657],[-75.47699,5.4768],[-75.4771,5.4768],[-75.4771,5.47657],[-75.47699,5.47657]]]},"properties":{"FID":51,"OBJECTID":75,"Priorizaci":"Mediano Plazo","Shape_Leng":75,"Shape_Area":312.5}},{"type":"Feature","id":52,"geometry":{"type":"Polygon","coordinates":[[[-75.47203,5.47659],[-75.47214,5.47659],[-75.47214,5.47625],[-75.47214,5.47579],[-75.47191,5.47579],[-75.47191,5.47591],[-75.47191,5.47602],[-75.4718,5.47602],[-75.4718,5.47613],[-75.47191,5.47613],[-75.47191,5.47625],[-75.4718,5.47625],[-75.4718,5.47636],[-75.47191,5.47636],[-75.47191,5.47647],[-75.47203,5.47647],[-75.47203,5.47659]]]},"properties":{"FID":52,"OBJECTID":76,"Priorizaci":"Mediano Plazo","Shape_Leng":275,"Shape_Area":2343.75}},{"type":"Feature","id":53,"geometry":{"type":"Polygon","coordinates":[[[-75.48353,5.47645],[-75.48353,5.47656],[-75.48375,5.47656],[-75.48375,5.47644],[-75.48353,5.47645]]]},"properties":{"FID":53,"OBJECTID":77,"Priorizaci":"Mediano Plazo","Shape_Leng":75,"Shape_Area":312.5}},{"type":"Feature","id":54,"geometry":{"type":"Polygon","coordinates":[[[-75.47845,5.47567],[-75.47868,5.47567],[-75.47868,5.47533],[-75.47856,5.47533],[-75.47856,5.47521],[-75.47845,5.47521],[-75.47845,5.47567]]]},"properties":{"FID":54,"OBJECTID":78,"Priorizaci":"Mediano Plazo","Shape_Leng":150,"Shape_Area":1093.75}},{"type":"Feature","id":55,"geometry":{"type":"Polygon","coordinates":[[[-75.4833,5.47543],[-75.4833,5.47554],[-75.48319,5.47554],[-75.48319,5.47566],[-75.48409,5.47565],[-75.48409,5.47543],[-75.48431,5.47543],[-75.48432,5.47542],[-75.48431,5.4752],[-75.48436,5.4752],[-75.48439,5.47501],[-75.48437,5.47489],[-75.48431,5.47475],[-75.48431,5.47486],[-75.4842,5.47486],[-75.4842,5.47497],[-75.48409,5.47498],[-75.48409,5.47509],[-75.48398,5.47509],[-75.48398,5.4752],[-75.48386,5.4752],[-75.48386,5.47531],[-75.48375,5.47531],[-75.48375,5.47543],[-75.48364,5.47543],[-75.48364,5.47532],[-75.48353,5.47532],[-75.48353,5.4752],[-75.48341,5.4752],[-75.48341,5.47532],[-75.4833,5.47532],[-75.4833,5.47543]]]},"properties":{"FID":55,"OBJECTID":79,"Priorizaci":"Mediano Plazo","Shape_Leng":505.508135412,"Shape_Area":5591.15404775}},{"type":"Feature","id":56,"geometry":{"type":"Polygon","coordinates":[[[-75.47901,5.47499],[-75.47915,5.47499],[-75.47911,5.47489],[-75.4791,5.47485],[-75.4791,5.47482],[-75.4791,5.47478],[-75.47911,5.47476],[-75.47893,5.47476],[-75.4789,5.47479],[-75.4789,5.47487],[-75.47901,5.47487],[-75.47901,5.47499]]]},"properties":{"FID":56,"OBJECTID":80,"Priorizaci":"Mediano Plazo","Shape_Leng":98.8373258225,"Shape_Area":428.543850026}},{"type":"Feature","id":57,"geometry":{"type":"Polygon","coordinates":[[[-75.4842,5.47475],[-75.48431,5.47475],[-75.4842,5.47446],[-75.4842,5.47452],[-75.48409,5.47452],[-75.48409,5.47464],[-75.4842,5.47464],[-75.4842,5.47475]]]},"properties":{"FID":57,"OBJECTID":81,"Priorizaci":"Mediano Plazo","Shape_Leng":103.572090402,"Shape_Area":354.02596155}},{"type":"Feature","id":58,"geometry":{"type":"Polygon","coordinates":[[[-75.4665,5.47456],[-75.4665,5.47468],[-75.46661,5.47468],[-75.46661,5.47456],[-75.4665,5.47456]]]},"properties":{"FID":58,"OBJECTID":82,"Priorizaci":"Mediano Plazo","Shape_Leng":50,"Shape_Area":156.25}},{"type":"Feature","id":59,"geometry":{"type":"Polygon","coordinates":[[[-75.47112,5.47467],[-75.47135,5.47467],[-75.47134,5.47455],[-75.47146,5.47455],[-75.47146,5.47389],[-75.47143,5.47386],[-75.4714,5.47383],[-75.47137,5.47379],[-75.47135,5.47376],[-75.47134,5.47376],[-75.47134,5.47387],[-75.47112,5.47388],[-75.47112,5.47399],[-75.47101,5.47399],[-75.47089,5.47399],[-75.47089,5.4741],[-75.47089,5.47433],[-75.47101,5.47433],[-75.47101,5.47455],[-75.47112,5.47455],[-75.47112,5.47467]]]},"properties":{"FID":59,"OBJECTID":83,"Priorizaci":"Mediano Plazo","Shape_Leng":317.235916085,"Shape_Area":4442.60726438}},{"type":"Feature","id":60,"geometry":{"type":"Polygon","coordinates":[[[-75.46717,5.47343],[-75.46717,5.47355],[-75.46728,5.47355],[-75.46728,5.47343],[-75.46717,5.47343]]]},"properties":{"FID":60,"OBJECTID":84,"Priorizaci":"Mediano Plazo","Shape_Leng":50,"Shape_Area":156.25}},{"type":"Feature","id":61,"geometry":{"type":"Polygon","coordinates":[[[-75.46694,5.4723],[-75.46694,5.47242],[-75.46705,5.47242],[-75.46705,5.4723],[-75.46694,5.4723]]]},"properties":{"FID":61,"OBJECTID":85,"Priorizaci":"Mediano Plazo","Shape_Leng":50,"Shape_Area":156.25}},{"type":"Feature","id":62,"geometry":{"type":"Polygon","coordinates":[[[-75.46886,5.47117],[-75.46919,5.47117],[-75.46919,5.47083],[-75.46908,5.47083],[-75.46908,5.47072],[-75.46897,5.47072],[-75.46886,5.47072],[-75.46886,5.47083],[-75.46863,5.47083],[-75.46863,5.47094],[-75.46874,5.47094],[-75.46874,5.47106],[-75.46886,5.47106],[-75.46886,5.47117]]]},"properties":{"FID":62,"OBJECTID":86,"Priorizaci":"Mediano Plazo","Shape_Leng":225,"Shape_Area":2187.5}},{"type":"Feature","id":63,"geometry":{"type":"Polygon","coordinates":[[[-75.46389,5.47073],[-75.46401,5.47073],[-75.46401,5.4705],[-75.46389,5.4705],[-75.46378,5.4705],[-75.46378,5.47062],[-75.46389,5.47062],[-75.46389,5.47073]]]},"properties":{"FID":63,"OBJECTID":87,"Priorizaci":"Mediano Plazo","Shape_Leng":100,"Shape_Area":468.75}},{"type":"Feature","id":64,"geometry":{"type":"Polygon","coordinates":[[[-75.46942,5.47026],[-75.46942,5.47038],[-75.46953,5.47038],[-75.46953,5.47026],[-75.46942,5.47026]]]},"properties":{"FID":64,"OBJECTID":88,"Priorizaci":"Mediano Plazo","Shape_Leng":50,"Shape_Area":156.25}},{"type":"Feature","id":65,"geometry":{"type":"Polygon","coordinates":[[[-75.46378,5.47016],[-75.46367,5.47016],[-75.46367,5.47028],[-75.46401,5.47028],[-75.464,5.47016],[-75.46389,5.47016],[-75.46389,5.47005],[-75.46378,5.47005],[-75.46378,5.47016]]]},"properties":{"FID":65,"OBJECTID":89,"Priorizaci":"Mediano Plazo","Shape_Leng":125,"Shape_Area":625}},{"type":"Feature","id":66,"geometry":{"type":"Polygon","coordinates":[[[-75.47077,5.46981],[-75.47077,5.46992],[-75.47085,5.46992],[-75.47085,5.4699],[-75.47085,5.46984],[-75.47085,5.46981],[-75.47077,5.46981]]]},"properties":{"FID":66,"OBJECTID":90,"Priorizaci":"Mediano Plazo","Shape_Leng":42.7436174657,"Shape_Area":111.785633105}},{"type":"Feature","id":67,"geometry":{"type":"Polygon","coordinates":[[[-75.46998,5.46958],[-75.47009,5.46958],[-75.47021,5.46958],[-75.47032,5.46958],[-75.47032,5.46936],[-75.47032,5.46924],[-75.47009,5.46924],[-75.46998,5.46924],[-75.46998,5.46936],[-75.46987,5.46936],[-75.46987,5.46947],[-75.46998,5.46947],[-75.46998,5.46958]]]},"properties":{"FID":67,"OBJECTID":91,"Priorizaci":"Mediano Plazo","Shape_Leng":175,"Shape_Area":1562.5}},{"type":"Feature","id":68,"geometry":{"type":"Polygon","coordinates":[[[-75.46287,5.46779],[-75.46287,5.46791],[-75.46298,5.46791],[-75.46298,5.46779],[-75.46287,5.46779]]]},"properties":{"FID":68,"OBJECTID":92,"Priorizaci":"Mediano Plazo","Shape_Leng":50,"Shape_Area":156.25}},{"type":"Feature","id":69,"geometry":{"type":"Polygon","coordinates":[[[-75.46783,5.46642],[-75.46783,5.46654],[-75.46794,5.46654],[-75.46794,5.46642],[-75.46783,5.46642]]]},"properties":{"FID":69,"OBJECTID":93,"Priorizaci":"Mediano Plazo","Shape_Leng":50,"Shape_Area":156.25}},{"type":"Feature","id":70,"geometry":{"type":"Polygon","coordinates":[[[-75.47087,5.4663],[-75.47087,5.46637],[-75.47089,5.46636],[-75.47094,5.4663],[-75.47087,5.4663]]]},"properties":{"FID":70,"OBJECTID":94,"Priorizaci":"Mediano Plazo","Shape_Leng":24.6088406334,"Shape_Area":26.2398032977}},{"type":"Feature","id":71,"geometry":{"type":"Polygon","coordinates":[[[-75.47099,5.46619],[-75.47099,5.46623],[-75.47101,5.46619],[-75.47099,5.46619]]]},"properties":{"FID":71,"OBJECTID":95,"Priorizaci":"Mediano Plazo","Shape_Leng":12.2806794777,"Shape_Area":5.61079843932}},{"type":"Feature","id":72,"geometry":{"type":"Polygon","coordinates":[[[-75.46783,5.46597],[-75.46783,5.46609],[-75.46794,5.46609],[-75.46794,5.46597],[-75.46783,5.46597]]]},"properties":{"FID":72,"OBJECTID":96,"Priorizaci":"Mediano Plazo","Shape_Leng":50,"Shape_Area":156.25}},{"type":"Feature","id":73,"geometry":{"type":"Polygon","coordinates":[[[-75.46332,5.46553],[-75.46332,5.46564],[-75.46343,5.46564],[-75.46343,5.46553],[-75.46332,5.46553]]]},"properties":{"FID":73,"OBJECTID":97,"Priorizaci":"Mediano Plazo","Shape_Leng":50,"Shape_Area":156.25}},{"type":"Feature","id":74,"geometry":{"type":"Polygon","coordinates":[[[-75.46783,5.46552],[-75.46783,5.46563],[-75.46794,5.46563],[-75.46794,5.46552],[-75.46783,5.46552]]]},"properties":{"FID":74,"OBJECTID":98,"Priorizaci":"Mediano Plazo","Shape_Leng":50,"Shape_Area":156.25}}]}