{"type":"FeatureCollection","name":"COND_AME_AV_TORR_RUR","crs":{"type":"name","properties":{"name":"urn:ogc:def:crs:OGC:1.3:CRS84"}},"features":[{"type":"Feature","id":0,"geometry":{"type":"Polygon","coordinates":[[[-75.46088,5.53402],[-75.46088,5.53402],[-75.4609,5.53402],[-75.46088,5.53402]]]},"properties":{"FID":0,"OBJECTID":2,"Pririzacio":"Largo Plazo","Shape_Leng":4.28161256264,"Shape_Area":0.155623170716}},{"type":"Feature","id":1,"geometry":{"type":"Polygon","coordinates":[[[-75.46133,5.5334],[-75.46133,5.53345],[-75.46129,5.53345],[-75.46122,5.53354],[-75.46122,5.53356],[-75.4612,5.53356],[-75.46114,5.53364],[-75.46111,5.53368],[-75.46111,5.5339],[-75.46099,5.5339],[-75.46099,5.53399],[-75.46118,5.5339],[-75.46122,5.53386],[-75.46122,5.53368],[-75.46133,5.53368],[-75.46133,5.53356],[-75.46143,5.53356],[-75.46144,5.53353],[-75.46144,5.53345],[-75.46146,5.53345],[-75.46146,5.53334],[-75.46147,5.53331],[-75.46145,5.53326],[-75.46133,5.5334]]]},"properties":{"FID":1,"OBJECTID":3,"Pririzacio":"Largo Plazo","Shape_Leng":233.366341667,"Shape_Area":1113.31103104}},{"type":"Feature","id":2,"geometry":{"type":"Polygon","coordinates":[[[-75.45656,5.51888],[-75.45656,5.519],[-75.45645,5.519],[-75.45645,5.51911],[-75.45656,5.51911],[-75.45656,5.51934],[-75.45656,5.51968],[-75.45657,5.51968],[-75.45658,5.51967],[-75.45659,5.51967],[-75.45663,5.51967],[-75.45663,5.51967],[-75.45664,5.51968],[-75.45668,5.51968],[-75.45668,5.51968],[-75.45674,5.51968],[-75.45679,5.51968],[-75.45687,5.51968],[-75.45692,5.51945],[-75.4569,5.51945],[-75.4569,5.51934],[-75.45679,5.51934],[-75.45679,5.519],[-75.45667,5.519],[-75.45667,5.51888],[-75.45656,5.51888]]]},"properties":{"FID":2,"OBJECTID":4,"Pririzacio":"Largo Plazo","Shape_Leng":274.447877852,"Shape_Area":2639.69699098}},{"type":"Feature","id":3,"geometry":{"type":"Polygon","coordinates":[[[-75.45645,5.51877],[-75.45645,5.51888],[-75.45656,5.51888],[-75.45656,5.51877],[-75.45645,5.51877]]]},"properties":{"FID":3,"OBJECTID":5,"Pririzacio":"Largo Plazo","Shape_Leng":50,"Shape_Area":156.25}},{"type":"Feature","id":4,"geometry":{"type":"Polygon","coordinates":[[[-75.45645,5.51877],[-75.45645,5.51821],[-75.45656,5.51821],[-75.45656,5.51809],[-75.45645,5.51809],[-75.45645,5.51787],[-75.45633,5.51787],[-75.45633,5.51775],[-75.45622,5.51776],[-75.45622,5.51753],[-75.45611,5.51753],[-75.45611,5.51742],[-75.45599,5.51742],[-75.45599,5.5173],[-75.45588,5.5173],[-75.45577,5.5173],[-75.45566,5.5173],[-75.45566,5.51708],[-75.45552,5.51753],[-75.45566,5.51753],[-75.45566,5.51776],[-75.45588,5.51776],[-75.45588,5.51787],[-75.456,5.51787],[-75.456,5.51798],[-75.45611,5.51798],[-75.45611,5.51809],[-75.456,5.51809],[-75.456,5.51821],[-75.45611,5.51821],[-75.45611,5.51832],[-75.45611,5.51843],[-75.45611,5.51855],[-75.45622,5.51855],[-75.45622,5.51866],[-75.45634,5.51866],[-75.45634,5.51877],[-75.45645,5.51877]]]},"properties":{"FID":4,"OBJECTID":6,"Pririzacio":"Largo Plazo","Shape_Leng":616.826346676,"Shape_Area":7413.49568113}},{"type":"Feature","id":5,"geometry":{"type":"Polygon","coordinates":[[[-75.45814,5.517],[-75.45819,5.517],[-75.45819,5.517],[-75.45823,5.517],[-75.45829,5.517],[-75.45832,5.517],[-75.45832,5.517],[-75.45832,5.517],[-75.45833,5.517],[-75.45836,5.517],[-75.45836,5.51696],[-75.45847,5.51696],[-75.45847,5.51685],[-75.45836,5.51685],[-75.45836,5.51673],[-75.45825,5.51673],[-75.45825,5.51685],[-75.45814,5.51685],[-75.45814,5.517]]]},"properties":{"FID":5,"OBJECTID":7,"Pririzacio":"Largo Plazo","Shape_Leng":134.10644174,"Shape_Area":734.767342641}},{"type":"Feature","id":6,"geometry":{"type":"Polygon","coordinates":[[[-75.4631,5.51639],[-75.4631,5.51639],[-75.46312,5.51638],[-75.46326,5.51631],[-75.46341,5.51622],[-75.46343,5.5162],[-75.46343,5.51616],[-75.46332,5.51616],[-75.46321,5.51616],[-75.46321,5.51604],[-75.46287,5.51604],[-75.46287,5.51616],[-75.46287,5.51627],[-75.46298,5.51627],[-75.46298,5.51638],[-75.4631,5.51638],[-75.4631,5.51639]]]},"properties":{"FID":6,"OBJECTID":8,"Pririzacio":"Largo Plazo","Shape_Leng":186.599615078,"Shape_Area":1531.48529141}},{"type":"Feature","id":7,"geometry":{"type":"Polygon","coordinates":[[[-75.45847,5.51628],[-75.45847,5.51639],[-75.45859,5.51639],[-75.45859,5.51628],[-75.45847,5.51628]]]},"properties":{"FID":7,"OBJECTID":9,"Pririzacio":"Largo Plazo","Shape_Leng":50,"Shape_Area":156.25}},{"type":"Feature","id":8,"geometry":{"type":"Polygon","coordinates":[[[-75.45847,5.51605],[-75.45847,5.51617],[-75.45859,5.51617],[-75.45859,5.51605],[-75.45847,5.51605]]]},"properties":{"FID":8,"OBJECTID":10,"Pririzacio":"Largo Plazo","Shape_Leng":50,"Shape_Area":156.25}},{"type":"Feature","id":9,"geometry":{"type":"Polygon","coordinates":[[[-75.46005,5.51594],[-75.46005,5.51605],[-75.46016,5.51605],[-75.46016,5.51594],[-75.46005,5.51594]]]},"properties":{"FID":9,"OBJECTID":11,"Pririzacio":"Largo Plazo","Shape_Leng":50,"Shape_Area":156.25}},{"type":"Feature","id":10,"geometry":{"type":"Polygon","coordinates":[[[-75.45904,5.51583],[-75.45892,5.51583],[-75.45892,5.51594],[-75.45904,5.51594],[-75.45904,5.51583]]]},"properties":{"FID":10,"OBJECTID":12,"Pririzacio":"Largo Plazo","Shape_Leng":50,"Shape_Area":156.25}},{"type":"Feature","id":11,"geometry":{"type":"Polygon","coordinates":[[[-75.45983,5.51583],[-75.45983,5.51594],[-75.45994,5.51594],[-75.45994,5.51583],[-75.45983,5.51583]]]},"properties":{"FID":11,"OBJECTID":13,"Pririzacio":"Largo Plazo","Shape_Leng":50,"Shape_Area":156.25}},{"type":"Feature","id":12,"geometry":{"type":"Polygon","coordinates":[[[-75.46276,5.51582],[-75.46276,5.51593],[-75.46287,5.51593],[-75.4631,5.51593],[-75.46321,5.51593],[-75.46321,5.51582],[-75.46321,5.5157],[-75.4631,5.51571],[-75.46309,5.51559],[-75.46298,5.51559],[-75.46276,5.51559],[-75.46276,5.51582]]]},"properties":{"FID":12,"OBJECTID":14,"Pririzacio":"Largo Plazo","Shape_Leng":175,"Shape_Area":1718.75}},{"type":"Feature","id":13,"geometry":{"type":"Polygon","coordinates":[[[-75.45904,5.51583],[-75.45915,5.51583],[-75.45915,5.51571],[-75.45915,5.5156],[-75.45915,5.51549],[-75.45903,5.51549],[-75.45904,5.5156],[-75.45892,5.5156],[-75.45892,5.51571],[-75.45904,5.51571],[-75.45904,5.51583]]]},"properties":{"FID":13,"OBJECTID":15,"Pririzacio":"Largo Plazo","Shape_Leng":125,"Shape_Area":625}},{"type":"Feature","id":14,"geometry":{"type":"Polygon","coordinates":[[[-75.45983,5.51583],[-75.45982,5.51571],[-75.45971,5.51571],[-75.45971,5.51583],[-75.45983,5.51583]]]},"properties":{"FID":14,"OBJECTID":16,"Pririzacio":"Largo Plazo","Shape_Leng":50,"Shape_Area":156.25}},{"type":"Feature","id":15,"geometry":{"type":"Polygon","coordinates":[[[-75.46028,5.51549],[-75.46028,5.5156],[-75.46039,5.5156],[-75.46039,5.51549],[-75.46028,5.51549]]]},"properties":{"FID":15,"OBJECTID":17,"Pririzacio":"Largo Plazo","Shape_Leng":50,"Shape_Area":156.25}},{"type":"Feature","id":16,"geometry":{"type":"Polygon","coordinates":[[[-75.46276,5.51537],[-75.46276,5.51548],[-75.46287,5.51548],[-75.46287,5.51537],[-75.46276,5.51537]]]},"properties":{"FID":16,"OBJECTID":18,"Pririzacio":"Largo Plazo","Shape_Leng":50,"Shape_Area":156.25}},{"type":"Feature","id":17,"geometry":{"type":"Polygon","coordinates":[[[-75.46174,5.51469],[-75.46163,5.51469],[-75.46106,5.51469],[-75.46095,5.51469],[-75.46095,5.51481],[-75.46095,5.51503],[-75.46106,5.51503],[-75.46106,5.51514],[-75.46129,5.51514],[-75.46129,5.51503],[-75.46151,5.51503],[-75.46152,5.51514],[-75.46163,5.51514],[-75.46163,5.51503],[-75.46174,5.51503],[-75.46174,5.51514],[-75.46174,5.51526],[-75.46185,5.51526],[-75.46208,5.51526],[-75.46219,5.51526],[-75.46242,5.51525],[-75.46242,5.51537],[-75.46253,5.51537],[-75.46264,5.51537],[-75.46276,5.51537],[-75.46276,5.51503],[-75.46264,5.51503],[-75.46264,5.51492],[-75.46253,5.51492],[-75.46253,5.5148],[-75.46242,5.5148],[-75.4623,5.5148],[-75.4623,5.51469],[-75.46219,5.51469],[-75.46208,5.51469],[-75.46208,5.51458],[-75.46196,5.51458],[-75.46174,5.51458],[-75.46174,5.51469],[-75.46185,5.51469],[-75.46185,5.5148],[-75.46174,5.5148],[-75.46174,5.51469]]]},"properties":{"FID":17,"OBJECTID":19,"Pririzacio":"Largo Plazo","Shape_Leng":675,"Shape_Area":10468.75}},{"type":"Feature","id":18,"geometry":{"type":"Polygon","coordinates":[[[-75.46039,5.51503],[-75.46039,5.51515],[-75.4605,5.51515],[-75.4605,5.51503],[-75.46039,5.51503]]]},"properties":{"FID":18,"OBJECTID":20,"Pririzacio":"Largo Plazo","Shape_Leng":50,"Shape_Area":156.25}},{"type":"Feature","id":19,"geometry":{"type":"Polygon","coordinates":[[[-75.46162,5.51254],[-75.46164,5.51254],[-75.46165,5.51253],[-75.46166,5.51252],[-75.46167,5.51251],[-75.46168,5.51251],[-75.4617,5.5125],[-75.46172,5.5125],[-75.46173,5.5125],[-75.46173,5.5125],[-75.46173,5.51243],[-75.46162,5.51243],[-75.46162,5.51254]]]},"properties":{"FID":19,"OBJECTID":21,"Pririzacio":"Largo Plazo","Shape_Leng":47.2508312043,"Shape_Area":119.622567291}},{"type":"Feature","id":20,"geometry":{"type":"Polygon","coordinates":[[[-75.45925,5.51142],[-75.45925,5.51165],[-75.45925,5.51176],[-75.45936,5.51176],[-75.45936,5.51187],[-75.45937,5.51198],[-75.45937,5.5121],[-75.45948,5.5121],[-75.45948,5.51221],[-75.45993,5.51221],[-75.45993,5.5121],[-75.45982,5.5121],[-75.45982,5.51198],[-75.45982,5.51187],[-75.4597,5.51187],[-75.4597,5.51176],[-75.45959,5.51176],[-75.45959,5.51165],[-75.45948,5.51165],[-75.45936,5.51165],[-75.45936,5.51142],[-75.45925,5.51142]]]},"properties":{"FID":20,"OBJECTID":22,"Pririzacio":"Largo Plazo","Shape_Leng":325,"Shape_Area":3125}},{"type":"Feature","id":21,"geometry":{"type":"Polygon","coordinates":[[[-75.4633,5.50508],[-75.4633,5.50542],[-75.46341,5.50542],[-75.46341,5.50553],[-75.46352,5.50553],[-75.46352,5.50565],[-75.46341,5.50565],[-75.4633,5.50565],[-75.4633,5.50576],[-75.4633,5.50599],[-75.46319,5.50599],[-75.46319,5.5061],[-75.46307,5.5061],[-75.46307,5.50621],[-75.46307,5.50633],[-75.46296,5.50633],[-75.46296,5.50644],[-75.46285,5.50644],[-75.46285,5.50655],[-75.46266,5.50655],[-75.46266,5.50667],[-75.46262,5.50671],[-75.46262,5.50678],[-75.46257,5.50678],[-75.46254,5.5068],[-75.46251,5.50683],[-75.46251,5.50689],[-75.46243,5.50689],[-75.4624,5.50692],[-75.4624,5.50701],[-75.4624,5.50712],[-75.46229,5.50712],[-75.46229,5.50723],[-75.46217,5.50723],[-75.46217,5.50746],[-75.46206,5.50746],[-75.46206,5.50757],[-75.46195,5.50757],[-75.46195,5.50746],[-75.46195,5.50735],[-75.46195,5.50728],[-75.46184,5.50737],[-75.46184,5.50746],[-75.46173,5.50746],[-75.46172,5.50746],[-75.46172,5.50757],[-75.46159,5.50757],[-75.46152,5.50763],[-75.46139,5.50775],[-75.46139,5.50776],[-75.46139,5.5078],[-75.4615,5.5078],[-75.4615,5.50802],[-75.46139,5.50802],[-75.46139,5.50814],[-75.4615,5.50814],[-75.4615,5.50848],[-75.46139,5.50848],[-75.46139,5.50859],[-75.46127,5.50859],[-75.46127,5.50882],[-75.46139,5.50882],[-75.46139,5.50893],[-75.46128,5.50893],[-75.46128,5.50904],[-75.46128,5.50927],[-75.46128,5.50938],[-75.46116,5.50938],[-75.46105,5.50938],[-75.46105,5.50961],[-75.46094,5.50961],[-75.46094,5.50972],[-75.46105,5.50972],[-75.46105,5.50983],[-75.46105,5.51017],[-75.46105,5.51029],[-75.46105,5.5104],[-75.46105,5.51062],[-75.46094,5.51062],[-75.46094,5.51074],[-75.46083,5.51074],[-75.46083,5.51076],[-75.46097,5.5111],[-75.46086,5.51109],[-75.46084,5.51109],[-75.46075,5.51108],[-75.46072,5.51108],[-75.46072,5.51117],[-75.46072,5.51117],[-75.46073,5.51117],[-75.46073,5.51118],[-75.46074,5.51118],[-75.46075,5.51119],[-75.46076,5.51119],[-75.46083,5.51119],[-75.46083,5.51125],[-75.46084,5.51126],[-75.46084,5.51127],[-75.46084,5.51127],[-75.46085,5.51128],[-75.46086,5.51129],[-75.46087,5.51131],[-75.46087,5.51131],[-75.46087,5.51132],[-75.46087,5.51133],[-75.46088,5.51134],[-75.46089,5.51136],[-75.46089,5.51136],[-75.46089,5.51138],[-75.46089,5.5114],[-75.46089,5.51141],[-75.46089,5.51141],[-75.4609,5.51142],[-75.4609,5.51144],[-75.4609,5.51146],[-75.46089,5.51146],[-75.46089,5.51146],[-75.46089,5.51148],[-75.46089,5.51149],[-75.46089,5.51151],[-75.46089,5.51151],[-75.46088,5.51153],[-75.46087,5.51155],[-75.46087,5.51156],[-75.46087,5.51156],[-75.46086,5.51157],[-75.46086,5.51158],[-75.46085,5.5116],[-75.46084,5.5116],[-75.46084,5.51161],[-75.46084,5.51161],[-75.46083,5.51162],[-75.46083,5.51176],[-75.46072,5.51176],[-75.46072,5.51187],[-75.46083,5.51187],[-75.46083,5.51198],[-75.46072,5.51198],[-75.46072,5.51209],[-75.46061,5.51209],[-75.46061,5.51221],[-75.46106,5.51221],[-75.46106,5.51187],[-75.46117,5.51187],[-75.46117,5.51164],[-75.46128,5.51164],[-75.46128,5.51142],[-75.46117,5.51142],[-75.46117,5.51119],[-75.46117,5.51108],[-75.46128,5.51108],[-75.46128,5.51085],[-75.46128,5.51051],[-75.46139,5.51051],[-75.46139,5.51017],[-75.4615,5.51017],[-75.4615,5.51006],[-75.46139,5.51006],[-75.46139,5.50995],[-75.46139,5.50972],[-75.4615,5.50972],[-75.4615,5.50961],[-75.46162,5.50961],[-75.46161,5.50949],[-75.46173,5.50949],[-75.46173,5.50938],[-75.46184,5.50938],[-75.46184,5.50915],[-75.46195,5.50915],[-75.46195,5.5087],[-75.46206,5.5087],[-75.46206,5.50859],[-75.46218,5.50859],[-75.46229,5.50859],[-75.4624,5.50859],[-75.4624,5.50847],[-75.46285,5.50847],[-75.46285,5.50836],[-75.46308,5.50836],[-75.46308,5.50847],[-75.46319,5.50847],[-75.46319,5.50836],[-75.46342,5.50836],[-75.46353,5.50836],[-75.46353,5.50825],[-75.46353,5.50813],[-75.46364,5.50813],[-75.46364,5.50802],[-75.46353,5.50802],[-75.4633,5.50802],[-75.46319,5.50802],[-75.46319,5.50813],[-75.46308,5.50813],[-75.46308,5.50825],[-75.46274,5.50825],[-75.46274,5.50813],[-75.46263,5.50813],[-75.46263,5.50825],[-75.46229,5.50825],[-75.46218,5.50825],[-75.46217,5.5078],[-75.46229,5.5078],[-75.46229,5.50768],[-75.46239,5.50768],[-75.46239,5.50768],[-75.4624,5.50767],[-75.4624,5.50757],[-75.46251,5.50757],[-75.46251,5.50746],[-75.46263,5.50746],[-75.46262,5.507],[-75.46285,5.507],[-75.46285,5.50689],[-75.46296,5.50689],[-75.46296,5.50678],[-75.46307,5.50678],[-75.46307,5.50666],[-75.46319,5.50666],[-75.46319,5.50655],[-75.4633,5.50655],[-75.4633,5.50633],[-75.46341,5.50633],[-75.46341,5.50621],[-75.46352,5.50621],[-75.46352,5.50599],[-75.46364,5.50599],[-75.46364,5.5061],[-75.46375,5.5061],[-75.46386,5.5061],[-75.46398,5.5061],[-75.46397,5.50598],[-75.46431,5.50598],[-75.46431,5.50587],[-75.46454,5.50587],[-75.46465,5.50587],[-75.46465,5.50576],[-75.46476,5.50576],[-75.46476,5.50564],[-75.46488,5.50564],[-75.46488,5.50553],[-75.46499,5.50553],[-75.46499,5.50542],[-75.4651,5.50542],[-75.4651,5.50519],[-75.4651,5.50508],[-75.4651,5.50451],[-75.4651,5.5044],[-75.46521,5.5044],[-75.46521,5.5043],[-75.46504,5.5043],[-75.46499,5.50432],[-75.46499,5.50433],[-75.46499,5.50433],[-75.46499,5.50433],[-75.46487,5.50437],[-75.46487,5.5044],[-75.46487,5.50451],[-75.46487,5.50463],[-75.46487,5.50474],[-75.46487,5.50485],[-75.46487,5.50497],[-75.46487,5.50508],[-75.46476,5.50508],[-75.46476,5.50519],[-75.46476,5.5053],[-75.46465,5.50531],[-75.46465,5.50542],[-75.46454,5.50542],[-75.46454,5.50553],[-75.46431,5.50553],[-75.46431,5.50565],[-75.4642,5.50565],[-75.4642,5.50576],[-75.46409,5.50576],[-75.46409,5.50565],[-75.4642,5.50565],[-75.4642,5.50553],[-75.46409,5.50553],[-75.46397,5.50553],[-75.46386,5.50553],[-75.46386,5.50542],[-75.46375,5.50542],[-75.46375,5.50531],[-75.46363,5.50531],[-75.46352,5.50531],[-75.46352,5.50519],[-75.46341,5.5052],[-75.46341,5.50508],[-75.4633,5.50508]]]},"properties":{"FID":21,"OBJECTID":23,"Pririzacio":"Largo Plazo","Shape_Leng":3700.74538773,"Shape_Area":55496.6994358}},{"type":"Feature","id":22,"geometry":{"type":"Polygon","coordinates":[[[-75.46185,5.51209],[-75.46173,5.51209],[-75.46173,5.51221],[-75.46185,5.5122],[-75.46196,5.5122],[-75.46196,5.51209],[-75.46185,5.51209]]]},"properties":{"FID":22,"OBJECTID":24,"Pririzacio":"Largo Plazo","Shape_Leng":75,"Shape_Area":312.5}},{"type":"Feature","id":23,"geometry":{"type":"Polygon","coordinates":[[[-75.4623,5.51186],[-75.46218,5.51187],[-75.46218,5.51209],[-75.46241,5.51209],[-75.46252,5.51209],[-75.46264,5.51209],[-75.46264,5.51186],[-75.46241,5.51186],[-75.46241,5.51175],[-75.4623,5.51175],[-75.4623,5.51186]]]},"properties":{"FID":23,"OBJECTID":25,"Pririzacio":"Largo Plazo","Shape_Leng":175,"Shape_Area":1406.25}},{"type":"Feature","id":24,"geometry":{"type":"Polygon","coordinates":[[[-75.46354,5.51096],[-75.46354,5.51107],[-75.46342,5.51107],[-75.46331,5.51107],[-75.46331,5.51118],[-75.46331,5.51152],[-75.46331,5.51164],[-75.46354,5.51164],[-75.46354,5.5113],[-75.46365,5.5113],[-75.46365,5.51118],[-75.46375,5.51118],[-75.46362,5.51096],[-75.46354,5.51096]]]},"properties":{"FID":24,"OBJECTID":26,"Pririzacio":"Largo Plazo","Shape_Leng":236.396646759,"Shape_Area":2125.79375}},{"type":"Feature","id":25,"geometry":{"type":"Polygon","coordinates":[[[-75.45925,5.51142],[-75.45925,5.51137],[-75.45916,5.51142],[-75.45925,5.51142]]]},"properties":{"FID":25,"OBJECTID":27,"Pririzacio":"Largo Plazo","Shape_Leng":27.6477048736,"Shape_Area":28.6906808629}},{"type":"Feature","id":26,"geometry":{"type":"Polygon","coordinates":[[[-75.46387,5.51096],[-75.46387,5.51107],[-75.46399,5.51107],[-75.46399,5.51096],[-75.46387,5.51096]]]},"properties":{"FID":26,"OBJECTID":28,"Pririzacio":"Largo Plazo","Shape_Leng":50,"Shape_Area":156.25}},{"type":"Feature","id":27,"geometry":{"type":"Polygon","coordinates":[[[-75.46432,5.51039],[-75.46421,5.51039],[-75.46421,5.5105],[-75.4641,5.5105],[-75.46399,5.5105],[-75.46399,5.51051],[-75.46421,5.5109],[-75.46421,5.51073],[-75.46432,5.51073],[-75.46432,5.51062],[-75.46444,5.51062],[-75.46444,5.5105],[-75.46455,5.5105],[-75.46455,5.51039],[-75.46432,5.51039]]]},"properties":{"FID":27,"OBJECTID":29,"Pririzacio":"Largo Plazo","Shape_Leng":220.188633374,"Shape_Area":1500.11}},{"type":"Feature","id":28,"geometry":{"type":"Polygon","coordinates":[[[-75.46511,5.50982],[-75.465,5.50982],[-75.46489,5.50982],[-75.46477,5.50983],[-75.46466,5.50983],[-75.46466,5.50994],[-75.46455,5.50994],[-75.46455,5.51005],[-75.46444,5.51005],[-75.46444,5.51016],[-75.46432,5.51017],[-75.46432,5.51028],[-75.46444,5.51028],[-75.46466,5.51028],[-75.46477,5.51028],[-75.46477,5.51016],[-75.46489,5.51016],[-75.46511,5.51016],[-75.46511,5.51005],[-75.46522,5.51005],[-75.46522,5.50982],[-75.46511,5.50982]]]},"properties":{"FID":28,"OBJECTID":30,"Pririzacio":"Largo Plazo","Shape_Leng":300,"Shape_Area":3281.25}},{"type":"Feature","id":29,"geometry":{"type":"Polygon","coordinates":[[[-75.46568,5.51027],[-75.4657,5.51027],[-75.46572,5.51021],[-75.46573,5.51016],[-75.46575,5.50988],[-75.46574,5.50982],[-75.46572,5.50971],[-75.46568,5.50971],[-75.46568,5.50982],[-75.46556,5.50982],[-75.46556,5.50994],[-75.46556,5.51016],[-75.46568,5.51016],[-75.46568,5.51027]]]},"properties":{"FID":29,"OBJECTID":31,"Pririzacio":"Largo Plazo","Shape_Leng":158.189719252,"Shape_Area":852.879432835}},{"type":"Feature","id":30,"geometry":{"type":"Polygon","coordinates":[[[-75.46409,5.50723],[-75.46409,5.50734],[-75.4642,5.50734],[-75.4642,5.50723],[-75.46409,5.50723]]]},"properties":{"FID":30,"OBJECTID":32,"Pririzacio":"Largo Plazo","Shape_Leng":50,"Shape_Area":156.25}},{"type":"Feature","id":31,"geometry":{"type":"Polygon","coordinates":[[[-75.46432,5.50678],[-75.46409,5.50678],[-75.46409,5.50711],[-75.4642,5.50711],[-75.4642,5.50689],[-75.46432,5.50689],[-75.46443,5.50689],[-75.46443,5.50677],[-75.46432,5.50678]]]},"properties":{"FID":31,"OBJECTID":33,"Pririzacio":"Largo Plazo","Shape_Leng":150,"Shape_Area":781.25}},{"type":"Feature","id":32,"geometry":{"type":"Polygon","coordinates":[[[-75.46454,5.50677],[-75.46454,5.50689],[-75.46465,5.50689],[-75.46465,5.50677],[-75.46454,5.50677]]]},"properties":{"FID":32,"OBJECTID":34,"Pririzacio":"Largo Plazo","Shape_Leng":50,"Shape_Area":156.25}},{"type":"Feature","id":33,"geometry":{"type":"Polygon","coordinates":[[[-75.46477,5.50677],[-75.46477,5.50689],[-75.46488,5.50689],[-75.46488,5.50677],[-75.46477,5.50677]]]},"properties":{"FID":33,"OBJECTID":35,"Pririzacio":"Largo Plazo","Shape_Leng":50,"Shape_Area":156.25}},{"type":"Feature","id":34,"geometry":{"type":"Polygon","coordinates":[[[-75.4633,5.50508],[-75.4633,5.50497],[-75.4633,5.50486],[-75.46318,5.50486],[-75.46318,5.50497],[-75.46318,5.50508],[-75.4633,5.50508]]]},"properties":{"FID":34,"OBJECTID":36,"Pririzacio":"Largo Plazo","Shape_Leng":75,"Shape_Area":312.5}},{"type":"Feature","id":35,"geometry":{"type":"Polygon","coordinates":[[[-75.47282,5.48043],[-75.47282,5.48054],[-75.47294,5.48054],[-75.47294,5.48043],[-75.47282,5.48043]]]},"properties":{"FID":35,"OBJECTID":37,"Pririzacio":"Mediano Plazo","Shape_Leng":50,"Shape_Area":156.25}},{"type":"Feature","id":36,"geometry":{"type":"Polygon","coordinates":[[[-75.47282,5.47862],[-75.47282,5.47873],[-75.47293,5.47873],[-75.47293,5.47862],[-75.47282,5.47862]]]},"properties":{"FID":36,"OBJECTID":38,"Pririzacio":"Mediano Plazo","Shape_Leng":50,"Shape_Area":156.25}},{"type":"Feature","id":37,"geometry":{"type":"Polygon","coordinates":[[[-75.47068,5.4784],[-75.47068,5.47851],[-75.47056,5.47851],[-75.47056,5.47862],[-75.47079,5.47862],[-75.47079,5.4784],[-75.47068,5.4784]]]},"properties":{"FID":37,"OBJECTID":39,"Pririzacio":"Mediano Plazo","Shape_Leng":100,"Shape_Area":468.75}},{"type":"Feature","id":38,"geometry":{"type":"Polygon","coordinates":[[[-75.47259,5.4776],[-75.47259,5.47794],[-75.47271,5.47794],[-75.47271,5.4776],[-75.47293,5.4776],[-75.47293,5.47749],[-75.47304,5.47749],[-75.47304,5.47715],[-75.47293,5.47715],[-75.47293,5.47704],[-75.47282,5.47704],[-75.47259,5.47704],[-75.47259,5.47681],[-75.47259,5.4767],[-75.47248,5.4767],[-75.47248,5.47658],[-75.47236,5.47658],[-75.47236,5.47647],[-75.47225,5.47647],[-75.47225,5.47625],[-75.47225,5.47613],[-75.47225,5.47602],[-75.47225,5.47585],[-75.47224,5.47582],[-75.47223,5.47578],[-75.47223,5.47574],[-75.47223,5.4757],[-75.47223,5.47568],[-75.47223,5.47562],[-75.47225,5.47556],[-75.47225,5.47534],[-75.47225,5.47523],[-75.47225,5.47512],[-75.47225,5.47492],[-75.47224,5.47491],[-75.47223,5.47489],[-75.47214,5.47489],[-75.47213,5.47478],[-75.47202,5.47478],[-75.47202,5.47466],[-75.47207,5.47466],[-75.47205,5.47464],[-75.47203,5.47461],[-75.472,5.47457],[-75.47198,5.47454],[-75.47195,5.47451],[-75.47193,5.47447],[-75.4719,5.47444],[-75.47188,5.47441],[-75.47185,5.47438],[-75.47183,5.47434],[-75.47181,5.47433],[-75.4718,5.47431],[-75.47177,5.47427],[-75.47174,5.47424],[-75.47172,5.4742],[-75.47169,5.47417],[-75.47166,5.47414],[-75.47163,5.4741],[-75.4716,5.47407],[-75.47157,5.47403],[-75.47155,5.474],[-75.47152,5.47396],[-75.47149,5.47393],[-75.47146,5.47389],[-75.47146,5.47389],[-75.47143,5.47386],[-75.4714,5.47383],[-75.47137,5.47379],[-75.47135,5.47376],[-75.47134,5.47376],[-75.47134,5.47399],[-75.47123,5.47399],[-75.47123,5.4741],[-75.47123,5.47433],[-75.47123,5.47444],[-75.47123,5.47467],[-75.47112,5.47467],[-75.47112,5.47478],[-75.47123,5.47478],[-75.47123,5.47489],[-75.47135,5.47489],[-75.47135,5.475],[-75.47146,5.475],[-75.47146,5.47512],[-75.47157,5.47512],[-75.47157,5.47523],[-75.47168,5.47523],[-75.47169,5.47534],[-75.47169,5.47556],[-75.4717,5.47557],[-75.4717,5.47557],[-75.47171,5.47558],[-75.47172,5.47559],[-75.47173,5.4756],[-75.47173,5.47561],[-75.47173,5.47561],[-75.47174,5.47563],[-75.47175,5.47564],[-75.47175,5.47565],[-75.47175,5.47565],[-75.47176,5.47566],[-75.47177,5.47568],[-75.47177,5.47569],[-75.47177,5.4757],[-75.47178,5.47572],[-75.47178,5.47573],[-75.47178,5.47574],[-75.47178,5.47575],[-75.47178,5.47575],[-75.47178,5.47577],[-75.47178,5.47579],[-75.47178,5.47579],[-75.4718,5.47579],[-75.4718,5.47591],[-75.47191,5.47591],[-75.47191,5.47602],[-75.4718,5.47602],[-75.4718,5.47613],[-75.47169,5.47613],[-75.47169,5.47625],[-75.4718,5.47625],[-75.4718,5.47636],[-75.47191,5.47636],[-75.47191,5.47647],[-75.47203,5.47647],[-75.47203,5.47659],[-75.47169,5.47659],[-75.47169,5.47693],[-75.47169,5.47715],[-75.4718,5.47715],[-75.4718,5.47726],[-75.47192,5.47726],[-75.47192,5.47738],[-75.47203,5.47738],[-75.47203,5.4776],[-75.47214,5.4776],[-75.47214,5.47738],[-75.47214,5.47715],[-75.47225,5.47715],[-75.47225,5.47726],[-75.47237,5.47726],[-75.47237,5.47738],[-75.47248,5.47738],[-75.47248,5.47749],[-75.47259,5.47749],[-75.47259,5.4776]]]},"properties":{"FID":38,"OBJECTID":40,"Pririzacio":"Mediano Plazo","Shape_Leng":1525.04657156,"Shape_Area":29973.2570438}},{"type":"Feature","id":39,"geometry":{"type":"Polygon","coordinates":[[[-75.47113,5.4776],[-75.47113,5.47772],[-75.47101,5.47772],[-75.47101,5.47783],[-75.47124,5.47783],[-75.47124,5.4776],[-75.47113,5.4776]]]},"properties":{"FID":39,"OBJECTID":41,"Pririzacio":"Mediano Plazo","Shape_Leng":100,"Shape_Area":468.75}},{"type":"Feature","id":40,"geometry":{"type":"Polygon","coordinates":[[[-75.46706,5.47434],[-75.46706,5.47456],[-75.46717,5.47456],[-75.46717,5.47434],[-75.46706,5.47434]]]},"properties":{"FID":40,"OBJECTID":42,"Pririzacio":"Mediano Plazo","Shape_Leng":75,"Shape_Area":312.5}},{"type":"Feature","id":41,"geometry":{"type":"Polygon","coordinates":[[[-75.47033,5.47399],[-75.47022,5.47399],[-75.47022,5.4741],[-75.47022,5.47444],[-75.47033,5.47444],[-75.47033,5.47433],[-75.47078,5.47433],[-75.47078,5.47422],[-75.47078,5.47399],[-75.47067,5.47399],[-75.47055,5.47399],[-75.47055,5.47388],[-75.47033,5.47388],[-75.47033,5.47399]]]},"properties":{"FID":41,"OBJECTID":43,"Pririzacio":"Mediano Plazo","Shape_Leng":250,"Shape_Area":2812.5}},{"type":"Feature","id":42,"geometry":{"type":"Polygon","coordinates":[[[-75.46728,5.47253],[-75.46762,5.47253],[-75.46762,5.47241],[-75.46751,5.47241],[-75.46751,5.4723],[-75.46762,5.4723],[-75.46762,5.47208],[-75.46773,5.47208],[-75.46773,5.47174],[-75.46807,5.47174],[-75.46807,5.47162],[-75.46852,5.47162],[-75.46852,5.4714],[-75.46863,5.4714],[-75.46863,5.47128],[-75.46874,5.47128],[-75.46874,5.47117],[-75.46852,5.47117],[-75.46852,5.47094],[-75.46852,5.47083],[-75.4684,5.47083],[-75.4684,5.47094],[-75.46829,5.47094],[-75.46829,5.47106],[-75.46818,5.47106],[-75.46818,5.47117],[-75.46784,5.47117],[-75.46784,5.47128],[-75.46784,5.47151],[-75.46773,5.47151],[-75.46773,5.47162],[-75.46762,5.47162],[-75.46762,5.47174],[-75.4675,5.47174],[-75.4675,5.47185],[-75.46739,5.47185],[-75.46739,5.47174],[-75.46728,5.47174],[-75.46728,5.47185],[-75.46717,5.47185],[-75.46717,5.47208],[-75.46717,5.47219],[-75.46717,5.4723],[-75.46728,5.4723],[-75.46728,5.47253]]]},"properties":{"FID":42,"OBJECTID":44,"Pririzacio":"Mediano Plazo","Shape_Leng":775,"Shape_Area":10000}},{"type":"Feature","id":43,"geometry":{"type":"Polygon","coordinates":[[[-75.46976,5.47026],[-75.46987,5.47026],[-75.47009,5.47026],[-75.47009,5.47015],[-75.47009,5.47004],[-75.47032,5.47004],[-75.47032,5.46981],[-75.47021,5.46981],[-75.47021,5.4697],[-75.47009,5.4697],[-75.46998,5.4697],[-75.46998,5.46981],[-75.46987,5.46981],[-75.46987,5.46992],[-75.46976,5.46992],[-75.46976,5.47004],[-75.46964,5.47004],[-75.46964,5.47015],[-75.46976,5.47015],[-75.46976,5.47026]]]},"properties":{"FID":43,"OBJECTID":45,"Pririzacio":"Mediano Plazo","Shape_Leng":275,"Shape_Area":2812.5}},{"type":"Feature","id":44,"geometry":{"type":"Polygon","coordinates":[[[-75.47077,5.47003],[-75.47077,5.47007],[-75.47078,5.47007],[-75.47079,5.47009],[-75.4708,5.4701],[-75.4708,5.4701],[-75.4708,5.4701],[-75.47081,5.47012],[-75.47082,5.47013],[-75.47082,5.47014],[-75.47082,5.47014],[-75.47083,5.47015],[-75.47083,5.47017],[-75.47083,5.47015],[-75.47084,5.4701],[-75.47085,5.47005],[-75.47085,5.47003],[-75.47077,5.47003]]]},"properties":{"FID":44,"OBJECTID":46,"Pririzacio":"Mediano Plazo","Shape_Leng":40.471290261,"Shape_Area":70.4421739815}},{"type":"Feature","id":45,"geometry":{"type":"Polygon","coordinates":[[[-75.47066,5.46902],[-75.47067,5.46902],[-75.47066,5.46899],[-75.47066,5.46902]]]},"properties":{"FID":45,"OBJECTID":47,"Pririzacio":"Mediano Plazo","Shape_Leng":7.2033751677,"Shape_Area":1.60243552515}},{"type":"Feature","id":46,"geometry":{"type":"Polygon","coordinates":[[[-75.4702,5.46778],[-75.4702,5.46789],[-75.47009,5.46789],[-75.46998,5.46789],[-75.46998,5.468],[-75.46986,5.468],[-75.46986,5.46812],[-75.46975,5.46812],[-75.46975,5.46823],[-75.46964,5.46823],[-75.46964,5.46834],[-75.46953,5.46834],[-75.46953,5.46845],[-75.46975,5.46845],[-75.46975,5.46834],[-75.46986,5.46834],[-75.46986,5.46823],[-75.46998,5.46823],[-75.46998,5.46811],[-75.47032,5.46811],[-75.47032,5.46809],[-75.47031,5.46809],[-75.4703,5.46805],[-75.47029,5.46801],[-75.47029,5.468],[-75.47028,5.46797],[-75.47027,5.46789],[-75.47025,5.46781],[-75.47025,5.46778],[-75.4702,5.46778]]]},"properties":{"FID":46,"OBJECTID":48,"Pririzacio":"Mediano Plazo","Shape_Leng":318.51076521,"Shape_Area":2043.33884183}},{"type":"Feature","id":47,"geometry":{"type":"Polygon","coordinates":[[[-75.46783,5.46778],[-75.46806,5.46778],[-75.46806,5.46755],[-75.46817,5.46755],[-75.46817,5.46744],[-75.46806,5.46744],[-75.46806,5.46733],[-75.46795,5.46733],[-75.46783,5.46733],[-75.46783,5.46744],[-75.46772,5.46744],[-75.46772,5.46756],[-75.46772,5.46767],[-75.46783,5.46767],[-75.46783,5.46778]]]},"properties":{"FID":47,"OBJECTID":49,"Pririzacio":"Mediano Plazo","Shape_Leng":200,"Shape_Area":1718.75}},{"type":"Feature","id":48,"geometry":{"type":"Polygon","coordinates":[[[-75.47087,5.46574],[-75.47087,5.46608],[-75.47076,5.46608],[-75.47076,5.46619],[-75.47076,5.4663],[-75.47076,5.46648],[-75.47076,5.46648],[-75.4708,5.46645],[-75.47083,5.46642],[-75.47086,5.46639],[-75.47089,5.46636],[-75.47094,5.4663],[-75.47094,5.4663],[-75.47099,5.46624],[-75.47099,5.46623],[-75.47102,5.46617],[-75.47104,5.4661],[-75.47105,5.46605],[-75.47105,5.46601],[-75.47104,5.46596],[-75.47103,5.46591],[-75.47101,5.46586],[-75.47099,5.46582],[-75.47097,5.46577],[-75.47094,5.46572],[-75.4709,5.46568],[-75.47087,5.46564],[-75.47087,5.46574]]]},"properties":{"FID":48,"OBJECTID":50,"Pririzacio":"Mediano Plazo","Shape_Leng":214.375001087,"Shape_Area":1509.27382294}},{"type":"Feature","id":49,"geometry":{"type":"Polygon","coordinates":[[[-75.46839,5.46597],[-75.46851,5.46597],[-75.46851,5.46586],[-75.4685,5.46529],[-75.46862,5.46529],[-75.46862,5.46518],[-75.46862,5.46515],[-75.4686,5.46514],[-75.46857,5.46514],[-75.46854,5.46514],[-75.46852,5.46514],[-75.4685,5.46514],[-75.46849,5.46513],[-75.46847,5.46513],[-75.46844,5.46513],[-75.46841,5.46513],[-75.46839,5.46512],[-75.46836,5.46512],[-75.46834,5.46512],[-75.46831,5.46512],[-75.46828,5.46511],[-75.46828,5.46511],[-75.46828,5.46518],[-75.46817,5.46518],[-75.46817,5.46529],[-75.46817,5.46575],[-75.46828,5.46575],[-75.46828,5.46586],[-75.46839,5.46586],[-75.46839,5.46597]]]},"properties":{"FID":49,"OBJECTID":51,"Pririzacio":"Mediano Plazo","Shape_Leng":286.391935512,"Shape_Area":3176.41407161}}]}