{"type":"FeatureCollection","name":"AreasCondiconesAmenaza_MM_Rural","crs":{"type":"name","properties":{"name":"urn:ogc:def:crs:OGC:1.3:CRS84"}},"features":[{"type":"Feature","id":0,"geometry":{"type":"Polygon","coordinates":[[[-75.72692,5.1248],[-75.72685,5.12486],[-75.72691,5.12488],[-75.72692,5.1248]]]},"properties":{"FID":0,"OBJECTID":32,"ID":616,"GRIDCODE":2,"Clasificac":"Amenaza Media","InPoly_FID":615,"Shape_Leng":24.5272150152,"Shape_Area":26.6578981499,"Centro_Pob":" "}},{"type":"Feature","id":1,"geometry":{"type":"Polygon","coordinates":[[[-75.72945,5.12428],[-75.72945,5.12427],[-75.72944,5.12426],[-75.72942,5.12424],[-75.72941,5.12421],[-75.72936,5.12412],[-75.72935,5.12409],[-75.72933,5.12407],[-75.72932,5.12405],[-75.72931,5.12403],[-75.7293,5.12402],[-75.72929,5.12402],[-75.72928,5.12403],[-75.7292,5.12416],[-75.72916,5.12422],[-75.72913,5.12426],[-75.72911,5.12429],[-75.7291,5.12431],[-75.72909,5.12433],[-75.72908,5.12435],[-75.72907,5.12438],[-75.72907,5.1244],[-75.72907,5.12441],[-75.72918,5.12438],[-75.72922,5.12436],[-75.72926,5.12435],[-75.72939,5.12431],[-75.72945,5.12428]]]},"properties":{"FID":1,"OBJECTID":33,"ID":634,"GRIDCODE":2,"Clasificac":"Amenaza Media","InPoly_FID":633,"Shape_Leng":129.867020694,"Shape_Area":861.632338762,"Centro_Pob":" "}},{"type":"Feature","id":2,"geometry":{"type":"Polygon","coordinates":[[[-75.73027,5.12389],[-75.73026,5.12389],[-75.73025,5.12389],[-75.73024,5.1239],[-75.73027,5.12389]]]},"properties":{"FID":2,"OBJECTID":34,"ID":640,"GRIDCODE":2,"Clasificac":"Amenaza Media","InPoly_FID":639,"Shape_Leng":6.02631225259,"Shape_Area":0.779989059766,"Centro_Pob":" "}},{"type":"Feature","id":3,"geometry":{"type":"Polygon","coordinates":[[[-75.72842,5.1236],[-75.72842,5.12363],[-75.72839,5.12379],[-75.72838,5.12388],[-75.72838,5.1239],[-75.72838,5.12393],[-75.72838,5.12395],[-75.72838,5.12398],[-75.72838,5.124],[-75.72839,5.12401],[-75.7284,5.12403],[-75.72841,5.12404],[-75.72843,5.12404],[-75.72845,5.12404],[-75.72847,5.12404],[-75.72849,5.12404],[-75.72852,5.12403],[-75.72857,5.12402],[-75.72865,5.12401],[-75.72871,5.124],[-75.72873,5.12399],[-75.72876,5.12399],[-75.72878,5.12398],[-75.7288,5.12397],[-75.72882,5.12396],[-75.72883,5.12395],[-75.72884,5.12394],[-75.72884,5.12393],[-75.72884,5.12391],[-75.72883,5.12389],[-75.72882,5.12387],[-75.72881,5.12385],[-75.7288,5.12383],[-75.72879,5.12381],[-75.72871,5.1237],[-75.7287,5.12368],[-75.72868,5.12365],[-75.72867,5.12363],[-75.72866,5.12361],[-75.72865,5.12358],[-75.72861,5.1235],[-75.7286,5.12347],[-75.72859,5.12345],[-75.72852,5.1235],[-75.72843,5.12359],[-75.72842,5.1236]]]},"properties":{"FID":3,"OBJECTID":35,"ID":664,"GRIDCODE":2,"Clasificac":"Amenaza Media","InPoly_FID":663,"Shape_Leng":186.998205588,"Shape_Area":2124.92588013,"Centro_Pob":" "}},{"type":"Feature","id":4,"geometry":{"type":"Polygon","coordinates":[[[-75.73145,5.1233],[-75.73145,5.12329],[-75.73144,5.12329],[-75.73143,5.12327],[-75.73142,5.12326],[-75.7314,5.12324],[-75.73139,5.12323],[-75.73138,5.12322],[-75.73138,5.12322],[-75.73137,5.12322],[-75.73137,5.12322],[-75.73136,5.12322],[-75.73136,5.12322],[-75.73136,5.12323],[-75.73135,5.12324],[-75.73135,5.12325],[-75.73134,5.12327],[-75.73132,5.12334],[-75.73138,5.12333],[-75.73145,5.1233]]]},"properties":{"FID":4,"OBJECTID":36,"ID":669,"GRIDCODE":2,"Clasificac":"Amenaza Media","InPoly_FID":668,"Shape_Leng":42.1615702205,"Shape_Area":101.776365314,"Centro_Pob":" "}},{"type":"Feature","id":5,"geometry":{"type":"Polygon","coordinates":[[[-75.73121,5.12312],[-75.73114,5.12314],[-75.73111,5.12314],[-75.7311,5.12315],[-75.73109,5.12315],[-75.73109,5.12316],[-75.73109,5.12316],[-75.73109,5.12316],[-75.73109,5.12317],[-75.73109,5.12317],[-75.7311,5.12319],[-75.73111,5.1232],[-75.73113,5.12322],[-75.73115,5.12323],[-75.73115,5.12324],[-75.73116,5.12324],[-75.73116,5.12324],[-75.73117,5.12324],[-75.73117,5.12324],[-75.73118,5.12324],[-75.73118,5.12323],[-75.73118,5.12322],[-75.73119,5.12321],[-75.73119,5.12319],[-75.73121,5.12312]]]},"properties":{"FID":5,"OBJECTID":37,"ID":675,"GRIDCODE":2,"Clasificac":"Amenaza Media","InPoly_FID":674,"Shape_Leng":42.7303339293,"Shape_Area":107.252123966,"Centro_Pob":" "}},{"type":"Feature","id":6,"geometry":{"type":"Polygon","coordinates":[[[-75.73121,5.12312],[-75.73129,5.1231],[-75.73131,5.12309],[-75.73132,5.12308],[-75.73133,5.12308],[-75.73133,5.12308],[-75.73134,5.12307],[-75.73134,5.12307],[-75.73133,5.12306],[-75.73133,5.12306],[-75.73132,5.12305],[-75.73131,5.12304],[-75.73129,5.12302],[-75.73127,5.123],[-75.73127,5.123],[-75.73126,5.12299],[-75.73126,5.12299],[-75.73125,5.12299],[-75.73125,5.12299],[-75.73125,5.123],[-75.73124,5.123],[-75.73124,5.12301],[-75.73124,5.12302],[-75.73123,5.12304],[-75.73121,5.12312]]]},"properties":{"FID":6,"OBJECTID":38,"ID":679,"GRIDCODE":2,"Clasificac":"Amenaza Media","InPoly_FID":678,"Shape_Leng":42.7304091122,"Shape_Area":107.251727677,"Centro_Pob":" "}},{"type":"Feature","id":7,"geometry":{"type":"Polygon","coordinates":[[[-75.72929,5.12289],[-75.72927,5.12298],[-75.7292,5.12325],[-75.72919,5.1233],[-75.72918,5.12332],[-75.72918,5.12335],[-75.72917,5.12337],[-75.72917,5.1234],[-75.72917,5.12342],[-75.72917,5.12344],[-75.72918,5.12346],[-75.72919,5.12348],[-75.7292,5.1235],[-75.72922,5.12352],[-75.72924,5.12353],[-75.72926,5.12355],[-75.72929,5.12356],[-75.72931,5.12358],[-75.72935,5.12361],[-75.7294,5.12363],[-75.72942,5.12365],[-75.72945,5.12366],[-75.72947,5.12367],[-75.72949,5.12368],[-75.72951,5.12369],[-75.72953,5.12369],[-75.72954,5.12368],[-75.72956,5.12368],[-75.72957,5.12366],[-75.72958,5.12364],[-75.72959,5.12362],[-75.7296,5.1236],[-75.7296,5.12358],[-75.72961,5.12355],[-75.72963,5.1235],[-75.72965,5.1234],[-75.72966,5.12334],[-75.72968,5.12329],[-75.72968,5.12327],[-75.72968,5.12324],[-75.72968,5.12322],[-75.72968,5.1232],[-75.72968,5.12318],[-75.72967,5.12316],[-75.72966,5.12314],[-75.72964,5.12312],[-75.72962,5.12311],[-75.7296,5.12309],[-75.72958,5.12307],[-75.72956,5.12306],[-75.72952,5.12303],[-75.72931,5.1229],[-75.7293,5.12289],[-75.72929,5.12289]]]},"properties":{"FID":7,"OBJECTID":39,"ID":687,"GRIDCODE":2,"Clasificac":"Amenaza Media","InPoly_FID":686,"Shape_Leng":227.188341252,"Shape_Area":3368.5048573,"Centro_Pob":" "}},{"type":"Feature","id":8,"geometry":{"type":"Polygon","coordinates":[[[-75.72992,5.12247],[-75.72997,5.12248],[-75.73013,5.1225],[-75.73021,5.12251],[-75.73023,5.12252],[-75.73025,5.12252],[-75.73028,5.12252],[-75.73029,5.12252],[-75.73031,5.12251],[-75.73032,5.12251],[-75.73032,5.12249],[-75.73032,5.12248],[-75.73031,5.12246],[-75.73031,5.12244],[-75.73029,5.12242],[-75.73027,5.12238],[-75.73024,5.12233],[-75.7302,5.12226],[-75.7302,5.12226],[-75.72992,5.12247]]]},"properties":{"FID":8,"OBJECTID":40,"ID":742,"GRIDCODE":2,"Clasificac":"Amenaza Media","InPoly_FID":741,"Shape_Leng":115.211043078,"Shape_Area":672.682916818,"Centro_Pob":" "}},{"type":"Feature","id":9,"geometry":{"type":"MultiPolygon","coordinates":[[[[-75.7655,5.08094],[-75.76543,5.08116],[-75.76534,5.08121],[-75.76508,5.0814],[-75.76507,5.08154],[-75.7651,5.08174],[-75.7653,5.08208],[-75.76545,5.08237],[-75.76541,5.08246],[-75.76545,5.08267],[-75.76543,5.08292],[-75.7655,5.08294],[-75.76585,5.08259],[-75.76592,5.08242],[-75.76592,5.08225],[-75.76585,5.08194],[-75.76586,5.08166],[-75.76588,5.08135],[-75.76593,5.08121],[-75.76631,5.08097],[-75.7663,5.08094],[-75.7663,5.08094],[-75.76628,5.08089],[-75.76625,5.08084],[-75.76624,5.08082],[-75.76623,5.08079],[-75.76622,5.08077],[-75.76622,5.08075],[-75.76621,5.08072],[-75.76621,5.08072],[-75.76576,5.08064],[-75.7655,5.08094]]],[[[-75.73132,5.12335],[-75.73131,5.12335],[-75.73124,5.1234],[-75.73122,5.12341],[-75.73132,5.12336],[-75.73133,5.12335],[-75.73133,5.12335],[-75.73132,5.12334],[-75.73132,5.12335]]],[[[-75.73071,5.12354],[-75.73073,5.12356],[-75.73074,5.12358],[-75.73076,5.1236],[-75.73078,5.12362],[-75.7308,5.12363],[-75.73082,5.12362],[-75.73099,5.12354],[-75.73102,5.12352],[-75.73101,5.12353],[-75.73098,5.12353],[-75.73096,5.12352],[-75.73094,5.12351],[-75.73092,5.1235],[-75.7309,5.12348],[-75.73088,5.12347],[-75.73086,5.12345],[-75.73085,5.12343],[-75.73084,5.12341],[-75.73082,5.12339],[-75.73082,5.12337],[-75.73081,5.12334],[-75.73081,5.12332],[-75.73081,5.12329],[-75.73081,5.12326],[-75.73082,5.12321],[-75.73082,5.12316],[-75.73084,5.123],[-75.73084,5.12294],[-75.73084,5.12292],[-75.73084,5.12289],[-75.73084,5.12286],[-75.73084,5.12284],[-75.73084,5.12281],[-75.73083,5.12279],[-75.73083,5.12276],[-75.73082,5.12274],[-75.73081,5.12271],[-75.73079,5.12266],[-75.73077,5.12261],[-75.73075,5.12257],[-75.73073,5.12252],[-75.73072,5.1225],[-75.73071,5.12248],[-75.73069,5.12246],[-75.73068,5.12245],[-75.73067,5.12244],[-75.73066,5.12243],[-75.73064,5.12243],[-75.73062,5.12244],[-75.73061,5.12245],[-75.73059,5.12246],[-75.73057,5.12248],[-75.73056,5.1225],[-75.73052,5.12254],[-75.73049,5.12258],[-75.73047,5.1226],[-75.73046,5.12262],[-75.73044,5.12264],[-75.73043,5.12266],[-75.73041,5.12268],[-75.7304,5.1227],[-75.7304,5.12273],[-75.7304,5.12275],[-75.7304,5.12277],[-75.7304,5.1228],[-75.73041,5.12282],[-75.73042,5.12285],[-75.73043,5.12287],[-75.73044,5.1229],[-75.73046,5.12295],[-75.73055,5.12317],[-75.73066,5.12342],[-75.73068,5.12347],[-75.73069,5.12349],[-75.7307,5.12352],[-75.73071,5.12354]]],[[[-75.72832,5.12444],[-75.7283,5.12444],[-75.72827,5.12444],[-75.72825,5.12445],[-75.7282,5.12446],[-75.72812,5.12448],[-75.72802,5.12451],[-75.72796,5.12452],[-75.72794,5.12453],[-75.72791,5.12454],[-75.72789,5.12455],[-75.72787,5.12456],[-75.72785,5.12457],[-75.72783,5.12458],[-75.72781,5.1246],[-75.72779,5.12462],[-75.72777,5.12464],[-75.72776,5.12466],[-75.72774,5.12468],[-75.72773,5.12471],[-75.72772,5.12473],[-75.72771,5.12475],[-75.72769,5.12478],[-75.72768,5.1248],[-75.72767,5.12483],[-75.72766,5.12485],[-75.72766,5.12488],[-75.72765,5.1249],[-75.72765,5.12492],[-75.72765,5.12493],[-75.72769,5.12491],[-75.72799,5.12482],[-75.72824,5.12474],[-75.72839,5.12469],[-75.72856,5.12462],[-75.72866,5.12457],[-75.72856,5.12452],[-75.72852,5.12449],[-75.72849,5.12448],[-75.72847,5.12447],[-75.72844,5.12446],[-75.72842,5.12445],[-75.7284,5.12444],[-75.72837,5.12444],[-75.72835,5.12443],[-75.72832,5.12444]]],[[[-75.77195,5.15383],[-75.77203,5.15396],[-75.77212,5.15409],[-75.77218,5.15417],[-75.77223,5.15423],[-75.77229,5.1543],[-75.77236,5.15438],[-75.77255,5.15433],[-75.77276,5.15429],[-75.77288,5.15427],[-75.77308,5.15423],[-75.77307,5.15418],[-75.77308,5.15413],[-75.77309,5.15406],[-75.77309,5.15399],[-75.77309,5.15399],[-75.7731,5.15395],[-75.77319,5.15372],[-75.77321,5.15372],[-75.77325,5.15371],[-75.77332,5.1537],[-75.77337,5.1537],[-75.77341,5.1537],[-75.77341,5.15368],[-75.77342,5.15361],[-75.77342,5.15355],[-75.77342,5.15352],[-75.77343,5.15349],[-75.7718,5.15113],[-75.7718,5.15113],[-75.7718,5.15113],[-75.77154,5.15117],[-75.77154,5.15117],[-75.77153,5.15121],[-75.77152,5.1513],[-75.77151,5.15136],[-75.77151,5.15137],[-75.77144,5.15138],[-75.7714,5.15138],[-75.77133,5.1514],[-75.77127,5.1514],[-75.77132,5.15198],[-75.77165,5.15197],[-75.77174,5.15217],[-75.77167,5.15221],[-75.77163,5.15224],[-75.7716,5.15229],[-75.77158,5.15231],[-75.77156,5.15238],[-75.77156,5.15245],[-75.77156,5.15245],[-75.77157,5.15249],[-75.77158,5.15255],[-75.77163,5.15264],[-75.77168,5.15274],[-75.77173,5.15281],[-75.7718,5.15289],[-75.77179,5.15311],[-75.7718,5.15329],[-75.77183,5.15343],[-75.77186,5.15358],[-75.77189,5.15366],[-75.7719,5.1537],[-75.77195,5.15383]],[[-75.77199,5.15182],[-75.77211,5.1519],[-75.77215,5.15193],[-75.77217,5.15194],[-75.77218,5.15195],[-75.77219,5.15196],[-75.77221,5.15197],[-75.77222,5.15198],[-75.77222,5.152],[-75.77223,5.15201],[-75.77222,5.15202],[-75.77222,5.15204],[-75.77221,5.15205],[-75.7722,5.15206],[-75.77219,5.15208],[-75.77218,5.15209],[-75.77216,5.15212],[-75.77215,5.15213],[-75.77213,5.15214],[-75.77212,5.15215],[-75.77211,5.15216],[-75.7721,5.15217],[-75.77209,5.15217],[-75.77208,5.15216],[-75.77208,5.15215],[-75.77207,5.15214],[-75.77206,5.15213],[-75.77206,5.15211],[-75.77205,5.15208],[-75.77204,5.15204],[-75.77198,5.15181],[-75.77199,5.15182]]],[[[-75.76587,5.1734],[-75.76601,5.17367],[-75.76619,5.17355],[-75.76636,5.17346],[-75.76653,5.17333],[-75.76664,5.17325],[-75.7668,5.17312],[-75.76681,5.17312],[-75.76706,5.17295],[-75.76721,5.17287],[-75.76723,5.17288],[-75.76732,5.17295],[-75.76733,5.17296],[-75.76737,5.17302],[-75.76738,5.17304],[-75.7674,5.1731],[-75.76751,5.17305],[-75.76753,5.17302],[-75.76756,5.17299],[-75.76764,5.1729],[-75.76775,5.17281],[-75.76775,5.1728],[-75.76745,5.17248],[-75.76716,5.17284],[-75.76714,5.17283],[-75.7671,5.17267],[-75.76709,5.17261],[-75.76701,5.17233],[-75.76713,5.17216],[-75.7672,5.17203],[-75.76727,5.17191],[-75.76728,5.1719],[-75.76723,5.17188],[-75.76712,5.17178],[-75.76701,5.17171],[-75.76697,5.17169],[-75.76673,5.17135],[-75.76651,5.17107],[-75.76636,5.17045],[-75.76644,5.17036],[-75.76656,5.1702],[-75.76673,5.17006],[-75.76681,5.17003],[-75.76678,5.17],[-75.76675,5.16991],[-75.76673,5.16987],[-75.76672,5.16978],[-75.76674,5.16968],[-75.76678,5.16958],[-75.76685,5.16938],[-75.76691,5.16928],[-75.76696,5.1692],[-75.767,5.16912],[-75.76701,5.16908],[-75.76707,5.16907],[-75.76692,5.1684],[-75.76759,5.16814],[-75.76754,5.16747],[-75.76746,5.1675],[-75.76739,5.16754],[-75.76727,5.16758],[-75.76703,5.16704],[-75.76704,5.16698],[-75.76711,5.16685],[-75.76712,5.16684],[-75.76714,5.16682],[-75.76715,5.1668],[-75.76716,5.16679],[-75.76718,5.16677],[-75.76722,5.16674],[-75.76725,5.16672],[-75.76729,5.16668],[-75.7674,5.16658],[-75.76752,5.16646],[-75.76766,5.16634],[-75.76767,5.16632],[-75.76769,5.16634],[-75.76773,5.16637],[-75.76778,5.1664],[-75.76788,5.16646],[-75.76802,5.16651],[-75.76819,5.16661],[-75.76824,5.16662],[-75.7683,5.16664],[-75.76846,5.16665],[-75.76859,5.16664],[-75.76859,5.16664],[-75.77029,5.16458],[-75.77086,5.16394],[-75.77086,5.16393],[-75.77094,5.16398],[-75.77102,5.16402],[-75.77113,5.16405],[-75.7712,5.16407],[-75.77126,5.16407],[-75.77129,5.16407],[-75.77128,5.16407],[-75.7712,5.16396],[-75.77112,5.16386],[-75.77105,5.16377],[-75.77098,5.16366],[-75.77096,5.16355],[-75.7709,5.16346],[-75.77083,5.16336],[-75.77075,5.16325],[-75.77068,5.16315],[-75.77225,5.16231],[-75.77222,5.16227],[-75.77213,5.16218],[-75.77201,5.1621],[-75.7719,5.16202],[-75.7718,5.16192],[-75.77169,5.16178],[-75.77156,5.16159],[-75.77149,5.16148],[-75.77148,5.16143],[-75.7715,5.16144],[-75.77154,5.16146],[-75.77159,5.16148],[-75.77168,5.1615],[-75.77176,5.16151],[-75.77188,5.16152],[-75.77196,5.16151],[-75.77205,5.16148],[-75.77211,5.16144],[-75.77219,5.16138],[-75.77221,5.16135],[-75.77218,5.16123],[-75.77219,5.16102],[-75.7722,5.16084],[-75.7722,5.16082],[-75.77219,5.16074],[-75.77216,5.16062],[-75.77217,5.16044],[-75.77219,5.16031],[-75.77222,5.16033],[-75.77223,5.16033],[-75.77223,5.16034],[-75.77224,5.16034],[-75.77225,5.16034],[-75.77237,5.16035],[-75.77247,5.16035],[-75.77253,5.16034],[-75.77276,5.16035],[-75.77303,5.16037],[-75.77322,5.16036],[-75.77321,5.1603],[-75.77328,5.16032],[-75.7733,5.16032],[-75.77331,5.16033],[-75.77332,5.16033],[-75.77332,5.16033],[-75.77333,5.16034],[-75.77333,5.16034],[-75.77333,5.16035],[-75.77333,5.16035],[-75.77332,5.16036],[-75.77332,5.16036],[-75.77334,5.16036],[-75.77337,5.16035],[-75.77373,5.16036],[-75.77381,5.16037],[-75.77399,5.16039],[-75.7742,5.16042],[-75.77434,5.16043],[-75.77434,5.16043],[-75.77434,5.16043],[-75.77418,5.16022],[-75.77389,5.15988],[-75.77363,5.15953],[-75.7737,5.15952],[-75.77384,5.1595],[-75.77384,5.1595],[-75.774,5.15945],[-75.77418,5.15942],[-75.77433,5.15937],[-75.77436,5.15936],[-75.77441,5.15934],[-75.77436,5.1593],[-75.77429,5.15923],[-75.77418,5.15913],[-75.77406,5.15902],[-75.77396,5.15895],[-75.77381,5.15883],[-75.77372,5.15872],[-75.77362,5.15862],[-75.77351,5.15851],[-75.77345,5.15842],[-75.77341,5.15841],[-75.77333,5.15838],[-75.77329,5.15836],[-75.77321,5.15832],[-75.7731,5.15824],[-75.77296,5.15813],[-75.77279,5.15803],[-75.77261,5.15793],[-75.7725,5.15789],[-75.77235,5.15781],[-75.77219,5.15773],[-75.77204,5.15767],[-75.77191,5.15762],[-75.77191,5.15763],[-75.7719,5.15765],[-75.77189,5.15768],[-75.77188,5.1577],[-75.77186,5.15775],[-75.77183,5.15784],[-75.77182,5.15786],[-75.77182,5.15788],[-75.77181,5.15789],[-75.7718,5.1579],[-75.7718,5.15791],[-75.77179,5.1579],[-75.77179,5.15789],[-75.77178,5.15788],[-75.77177,5.15786],[-75.77177,5.15783],[-75.77176,5.15778],[-75.77175,5.15776],[-75.77175,5.15773],[-75.77175,5.1577],[-75.77174,5.15768],[-75.77174,5.15765],[-75.77175,5.15762],[-75.77175,5.1576],[-75.77176,5.15758],[-75.76983,5.15773],[-75.76983,5.15773],[-75.76983,5.15773],[-75.76981,5.15774],[-75.76976,5.15779],[-75.76968,5.15784],[-75.76964,5.15786],[-75.76963,5.15787],[-75.76954,5.1579],[-75.76952,5.15791],[-75.76946,5.15794],[-75.76941,5.15795],[-75.76935,5.15798],[-75.76929,5.15799],[-75.76922,5.15802],[-75.76913,5.15805],[-75.76906,5.15806],[-75.76901,5.15807],[-75.76896,5.15794],[-75.76858,5.15802],[-75.76829,5.15818],[-75.76836,5.1583],[-75.76834,5.15832],[-75.76823,5.15844],[-75.76822,5.15843],[-75.76814,5.15836],[-75.76812,5.15833],[-75.76802,5.15824],[-75.76797,5.15819],[-75.76792,5.15815],[-75.7679,5.15813],[-75.76789,5.15812],[-75.76787,5.1581],[-75.76786,5.15809],[-75.76782,5.15806],[-75.76779,5.15804],[-75.76775,5.15802],[-75.76772,5.158],[-75.76769,5.15797],[-75.76765,5.15795],[-75.76765,5.15794],[-75.76761,5.15792],[-75.76757,5.15789],[-75.76754,5.15787],[-75.76748,5.15783],[-75.76748,5.15784],[-75.76747,5.15784],[-75.76747,5.15785],[-75.76747,5.15785],[-75.76746,5.15785],[-75.76746,5.15786],[-75.76746,5.15786],[-75.76746,5.15786],[-75.76745,5.15787],[-75.76745,5.15787],[-75.76745,5.15787],[-75.76743,5.1579],[-75.76741,5.15791],[-75.76741,5.15791],[-75.76741,5.15792],[-75.76741,5.15792],[-75.76741,5.15792],[-75.7674,5.15793],[-75.7674,5.15793],[-75.76734,5.15801],[-75.76732,5.158],[-75.76729,5.15798],[-75.76727,5.15796],[-75.76723,5.15793],[-75.76716,5.15786],[-75.76714,5.15783],[-75.76705,5.15772],[-75.76696,5.15761],[-75.76696,5.15758],[-75.76695,5.15755],[-75.76695,5.15747],[-75.76696,5.15745],[-75.767,5.15739],[-75.76707,5.15731],[-75.76713,5.15719],[-75.76706,5.15711],[-75.76695,5.15707],[-75.7669,5.15705],[-75.76683,5.15711],[-75.76674,5.15701],[-75.7667,5.15698],[-75.76662,5.15695],[-75.76664,5.15705],[-75.76665,5.15709],[-75.76663,5.15719],[-75.76659,5.15729],[-75.76655,5.15739],[-75.76648,5.15753],[-75.76643,5.15764],[-75.76643,5.15768],[-75.7664,5.1578],[-75.76637,5.15802],[-75.76638,5.15821],[-75.76639,5.15838],[-75.7664,5.15859],[-75.7664,5.15875],[-75.76638,5.15889],[-75.76634,5.15902],[-75.76631,5.15912],[-75.76633,5.15911],[-75.76642,5.15907],[-75.76655,5.15904],[-75.76663,5.15903],[-75.76672,5.15901],[-75.76688,5.15898],[-75.76692,5.15898],[-75.76694,5.1591],[-75.76697,5.15919],[-75.76706,5.15917],[-75.76712,5.15916],[-75.76709,5.15897],[-75.76712,5.15897],[-75.76721,5.15897],[-75.76725,5.15898],[-75.76731,5.159],[-75.76739,5.159],[-75.76745,5.159],[-75.76748,5.159],[-75.7675,5.159],[-75.76749,5.15904],[-75.76748,5.15911],[-75.76746,5.15917],[-75.76745,5.1593],[-75.76744,5.15936],[-75.76744,5.15944],[-75.76745,5.15954],[-75.76746,5.15962],[-75.76746,5.15962],[-75.76743,5.15963],[-75.76737,5.15967],[-75.7673,5.15972],[-75.76722,5.15977],[-75.76715,5.15984],[-75.76709,5.15989],[-75.76707,5.15992],[-75.76707,5.15992],[-75.76702,5.15995],[-75.76696,5.16002],[-75.76692,5.16008],[-75.76694,5.16016],[-75.7667,5.16087],[-75.76638,5.16089],[-75.76627,5.1609],[-75.76626,5.1609],[-75.76614,5.16092],[-75.76613,5.16092],[-75.76605,5.16092],[-75.76605,5.16094],[-75.76558,5.16134],[-75.76565,5.16147],[-75.76573,5.16157],[-75.76582,5.16171],[-75.76587,5.16178],[-75.76591,5.16183],[-75.76607,5.162],[-75.76615,5.16206],[-75.76615,5.16207],[-75.766,5.16223],[-75.7644,5.16474],[-75.7644,5.16483],[-75.76437,5.16496],[-75.76434,5.16507],[-75.76433,5.16511],[-75.76428,5.16521],[-75.76421,5.16533],[-75.76414,5.16544],[-75.76407,5.16553],[-75.76402,5.16562],[-75.76398,5.16569],[-75.76396,5.16572],[-75.76388,5.16569],[-75.76386,5.16568],[-75.76382,5.16566],[-75.76374,5.16564],[-75.76374,5.16564],[-75.76375,5.16566],[-75.7637,5.16564],[-75.76367,5.16598],[-75.76371,5.16619],[-75.76371,5.16623],[-75.76372,5.16628],[-75.76366,5.16635],[-75.76364,5.16637],[-75.76361,5.1664],[-75.7636,5.16642],[-75.76359,5.16643],[-75.76354,5.16649],[-75.76352,5.16651],[-75.7635,5.16654],[-75.7636,5.16653],[-75.76361,5.16653],[-75.76366,5.16656],[-75.76366,5.16657],[-75.76365,5.1666],[-75.76363,5.16663],[-75.76363,5.16664],[-75.76362,5.16665],[-75.76362,5.16666],[-75.76362,5.16667],[-75.7636,5.16671],[-75.7636,5.16672],[-75.76359,5.16673],[-75.76358,5.16675],[-75.76358,5.16677],[-75.76358,5.1668],[-75.76358,5.16682],[-75.76359,5.16683],[-75.76361,5.16683],[-75.76363,5.16693],[-75.76365,5.16697],[-75.76365,5.16697],[-75.76361,5.16699],[-75.76353,5.16702],[-75.76346,5.16704],[-75.76344,5.16705],[-75.76336,5.16709],[-75.76328,5.16713],[-75.7632,5.16714],[-75.76313,5.16713],[-75.76315,5.16722],[-75.76317,5.16741],[-75.76321,5.16749],[-75.76325,5.16759],[-75.7633,5.16766],[-75.76341,5.16777],[-75.76353,5.16787],[-75.76366,5.16797],[-75.76374,5.16803],[-75.76383,5.1681],[-75.76394,5.16815],[-75.76402,5.16817],[-75.76409,5.16818],[-75.76409,5.16817],[-75.7641,5.16819],[-75.7641,5.16819],[-75.7641,5.16827],[-75.76408,5.1684],[-75.76405,5.16858],[-75.764,5.16874],[-75.76394,5.16886],[-75.7639,5.16895],[-75.76384,5.16897],[-75.76375,5.16898],[-75.76361,5.16899],[-75.76357,5.16912],[-75.76353,5.16925],[-75.76349,5.16939],[-75.76347,5.16953],[-75.76347,5.16962],[-75.76355,5.16957],[-75.76363,5.16953],[-75.76373,5.16952],[-75.76379,5.16951],[-75.76386,5.16951],[-75.76392,5.1695],[-75.76385,5.16976],[-75.76382,5.16991],[-75.76382,5.16991],[-75.76382,5.16991],[-75.76383,5.16991],[-75.76383,5.16991],[-75.76384,5.16991],[-75.76385,5.16991],[-75.76386,5.1699],[-75.76388,5.16989],[-75.76383,5.17004],[-75.76381,5.17007],[-75.76381,5.17007],[-75.76381,5.17007],[-75.76379,5.17009],[-75.76378,5.17012],[-75.76376,5.17013],[-75.76376,5.17014],[-75.76374,5.1702],[-75.76377,5.17021],[-75.76377,5.17022],[-75.76378,5.17022],[-75.76363,5.1705],[-75.76363,5.17052],[-75.76362,5.17056],[-75.76362,5.17061],[-75.76361,5.17074],[-75.76361,5.17087],[-75.76361,5.17102],[-75.76363,5.17114],[-75.76364,5.17125],[-75.76364,5.17138],[-75.76365,5.17144],[-75.76367,5.17145],[-75.76368,5.17153],[-75.7637,5.1717],[-75.76371,5.17174],[-75.76374,5.17189],[-75.76378,5.17204],[-75.76382,5.17223],[-75.76385,5.17242],[-75.76387,5.17257],[-75.76387,5.17264],[-75.76385,5.17265],[-75.76383,5.17272],[-75.76384,5.17286],[-75.76385,5.17295],[-75.76389,5.17297],[-75.76391,5.17297],[-75.76392,5.17298],[-75.76393,5.17298],[-75.76394,5.17298],[-75.76394,5.17298],[-75.76394,5.17299],[-75.76394,5.17299],[-75.76394,5.173],[-75.76394,5.173],[-75.76393,5.17301],[-75.76392,5.17303],[-75.7639,5.17304],[-75.76389,5.17305],[-75.76388,5.17306],[-75.76387,5.17307],[-75.76386,5.17307],[-75.76386,5.17307],[-75.76386,5.17307],[-75.76385,5.17306],[-75.76385,5.17306],[-75.76386,5.17317],[-75.76388,5.17325],[-75.76391,5.17337],[-75.76396,5.17345],[-75.76401,5.17352],[-75.76403,5.17353],[-75.76406,5.17355],[-75.76411,5.17357],[-75.76411,5.17357],[-75.76414,5.17357],[-75.76418,5.17357],[-75.76427,5.17357],[-75.76436,5.17354],[-75.76449,5.17345],[-75.76451,5.17344],[-75.7646,5.17337],[-75.76469,5.1733],[-75.76479,5.17323],[-75.76489,5.17315],[-75.76498,5.17305],[-75.76503,5.17299],[-75.76509,5.17307],[-75.76525,5.1733],[-75.76528,5.17333],[-75.76535,5.1734],[-75.76543,5.17346],[-75.76547,5.17342],[-75.7656,5.17334],[-75.76572,5.17328],[-75.76587,5.1734]],[[-75.76393,5.17181],[-75.76399,5.17184],[-75.76402,5.17185],[-75.76403,5.17186],[-75.76405,5.17186],[-75.76405,5.17187],[-75.76406,5.17188],[-75.76406,5.17188],[-75.76406,5.17189],[-75.76406,5.1719],[-75.76406,5.17191],[-75.76406,5.17192],[-75.76405,5.17193],[-75.76404,5.17196],[-75.76402,5.172],[-75.764,5.17203],[-75.764,5.17204],[-75.76399,5.17204],[-75.76399,5.17205],[-75.76398,5.17205],[-75.76398,5.17205],[-75.76397,5.17204],[-75.76397,5.17203],[-75.76397,5.17201],[-75.76396,5.17199],[-75.76396,5.17197],[-75.76393,5.17181],[-75.76387,5.17179],[-75.76384,5.17178],[-75.76383,5.17177],[-75.76382,5.17177],[-75.76381,5.17176],[-75.76381,5.17175],[-75.7638,5.17174],[-75.7638,5.17174],[-75.7638,5.17173],[-75.76381,5.17172],[-75.76381,5.17171],[-75.76381,5.1717],[-75.76382,5.17167],[-75.76385,5.17163],[-75.76386,5.1716],[-75.76387,5.17159],[-75.76388,5.17159],[-75.76388,5.17158],[-75.76388,5.17158],[-75.76389,5.17158],[-75.76389,5.17159],[-75.76389,5.1716],[-75.7639,5.17162],[-75.7639,5.17164],[-75.76391,5.17166],[-75.76393,5.17181]],[[-75.76411,5.16969],[-75.76414,5.1697],[-75.76415,5.16971],[-75.76416,5.16972],[-75.76417,5.16972],[-75.76418,5.16973],[-75.76418,5.16974],[-75.76418,5.16975],[-75.76418,5.16975],[-75.76418,5.16976],[-75.76417,5.16977],[-75.76417,5.16979],[-75.76416,5.16981],[-75.76414,5.16985],[-75.76412,5.16988],[-75.76411,5.16989],[-75.76411,5.16989],[-75.7641,5.1699],[-75.7641,5.1699],[-75.7641,5.1699],[-75.76409,5.16989],[-75.76409,5.16989],[-75.76408,5.16987],[-75.76408,5.16984],[-75.76408,5.16982],[-75.76405,5.16967],[-75.76411,5.16969]],[[-75.76424,5.16946],[-75.76426,5.16946],[-75.76427,5.16947],[-75.76428,5.16947],[-75.76428,5.16948],[-75.76429,5.16948],[-75.76429,5.16948],[-75.76429,5.16949],[-75.76429,5.16949],[-75.76428,5.1695],[-75.76428,5.1695],[-75.76426,5.16952],[-75.76424,5.16954],[-75.76423,5.16955],[-75.76422,5.16956],[-75.76422,5.16956],[-75.76421,5.16956],[-75.76421,5.16956],[-75.7642,5.16956],[-75.7642,5.16956],[-75.7642,5.16955],[-75.76419,5.16954],[-75.76418,5.16952],[-75.76416,5.16944],[-75.76424,5.16946]],[[-75.7645,5.16865],[-75.76451,5.16865],[-75.76454,5.16867],[-75.76455,5.16867],[-75.76457,5.16868],[-75.76459,5.16869],[-75.76461,5.1687],[-75.76462,5.16872],[-75.76463,5.16873],[-75.76464,5.16874],[-75.76464,5.16875],[-75.76464,5.16877],[-75.76464,5.16878],[-75.76463,5.16879],[-75.76462,5.16883],[-75.76461,5.16886],[-75.76459,5.16892],[-75.76457,5.16896],[-75.76457,5.16897],[-75.76456,5.16898],[-75.76456,5.16899],[-75.76456,5.16899],[-75.76455,5.16899],[-75.76455,5.16898],[-75.76455,5.16897],[-75.76454,5.16894],[-75.76453,5.16888],[-75.7645,5.16865],[-75.7645,5.16865],[-75.76447,5.16863],[-75.76445,5.16862],[-75.76444,5.16862],[-75.76442,5.1686],[-75.7644,5.16859],[-75.76439,5.16858],[-75.76438,5.16857],[-75.76437,5.16856],[-75.76437,5.16855],[-75.76437,5.16853],[-75.76437,5.16852],[-75.76437,5.1685],[-75.76438,5.16847],[-75.76439,5.16844],[-75.76442,5.16838],[-75.76443,5.16834],[-75.76444,5.16833],[-75.76444,5.16832],[-75.76445,5.16831],[-75.76445,5.16831],[-75.76446,5.16831],[-75.76446,5.16832],[-75.76446,5.16833],[-75.76447,5.16836],[-75.76448,5.16842],[-75.7645,5.16865]],[[-75.76612,5.1658],[-75.76616,5.16582],[-75.76617,5.16583],[-75.76618,5.16584],[-75.7662,5.16585],[-75.7662,5.16586],[-75.76621,5.16587],[-75.76621,5.16587],[-75.76621,5.16588],[-75.7662,5.16588],[-75.76618,5.16589],[-75.76617,5.16589],[-75.76615,5.1659],[-75.76612,5.16591],[-75.76602,5.16593],[-75.76596,5.16594],[-75.76594,5.16594],[-75.76593,5.16594],[-75.76591,5.16594],[-75.7659,5.16594],[-75.76589,5.16593],[-75.76589,5.16593],[-75.76589,5.16591],[-75.76589,5.1659],[-75.7659,5.16589],[-75.7659,5.16587],[-75.76591,5.16585],[-75.76592,5.16583],[-75.76594,5.16578],[-75.76598,5.16571],[-75.76598,5.16571],[-75.76612,5.1658]],[[-75.7662,5.16481],[-75.76618,5.16488],[-75.76618,5.16491],[-75.76617,5.16492],[-75.76617,5.16493],[-75.76616,5.16493],[-75.76616,5.16493],[-75.76616,5.16493],[-75.76615,5.16493],[-75.76615,5.16493],[-75.76613,5.16492],[-75.76612,5.16491],[-75.76611,5.16489],[-75.76609,5.16487],[-75.76609,5.16487],[-75.76608,5.16486],[-75.76608,5.16485],[-75.76608,5.16485],[-75.76608,5.16485],[-75.76609,5.16484],[-75.76609,5.16484],[-75.7661,5.16484],[-75.76611,5.16483],[-75.76613,5.16483],[-75.7662,5.16481],[-75.7662,5.1648],[-75.76621,5.16474],[-75.76622,5.16471],[-75.76623,5.16468],[-75.76624,5.16465],[-75.76625,5.16462],[-75.76626,5.16459],[-75.76627,5.16457],[-75.76629,5.16455],[-75.76631,5.16453],[-75.76633,5.16452],[-75.76635,5.16451],[-75.76637,5.16449],[-75.7664,5.16448],[-75.76644,5.16446],[-75.76649,5.16443],[-75.76654,5.16441],[-75.76658,5.16439],[-75.7666,5.16438],[-75.76662,5.16438],[-75.76664,5.16437],[-75.76665,5.16437],[-75.76666,5.16438],[-75.76667,5.16439],[-75.76667,5.1644],[-75.76666,5.16442],[-75.76666,5.16444],[-75.76665,5.16446],[-75.76664,5.16448],[-75.76663,5.16451],[-75.76662,5.16453],[-75.76661,5.16455],[-75.7666,5.16458],[-75.76658,5.1646],[-75.76657,5.16461],[-75.76655,5.16463],[-75.76653,5.16464],[-75.76651,5.16466],[-75.76648,5.16467],[-75.76646,5.16468],[-75.76644,5.16469],[-75.76638,5.16472],[-75.76622,5.1648],[-75.7662,5.16481]],[[-75.76699,5.1639],[-75.76698,5.16398],[-75.76697,5.164],[-75.76696,5.16402],[-75.76696,5.16402],[-75.76696,5.16403],[-75.76695,5.16403],[-75.76695,5.16403],[-75.76694,5.16403],[-75.76694,5.16402],[-75.76693,5.16401],[-75.76691,5.164],[-75.7669,5.16399],[-75.76688,5.16397],[-75.76688,5.16396],[-75.76687,5.16396],[-75.76687,5.16395],[-75.76687,5.16395],[-75.76687,5.16394],[-75.76688,5.16394],[-75.76688,5.16394],[-75.76689,5.16393],[-75.7669,5.16393],[-75.76692,5.16392],[-75.76699,5.1639],[-75.767,5.1639],[-75.76701,5.16385],[-75.76701,5.16382],[-75.76702,5.16379],[-75.76703,5.16376],[-75.76704,5.16373],[-75.76705,5.1637],[-75.76706,5.16367],[-75.76707,5.16365],[-75.76709,5.16363],[-75.76711,5.16361],[-75.76713,5.16359],[-75.76715,5.16358],[-75.76717,5.16356],[-75.76721,5.16353],[-75.76725,5.1635],[-75.76727,5.16348],[-75.76729,5.16347],[-75.76731,5.16346],[-75.76733,5.16345],[-75.76734,5.16345],[-75.76735,5.16345],[-75.76735,5.16346],[-75.76735,5.16347],[-75.76735,5.16349],[-75.76734,5.16351],[-75.76734,5.16353],[-75.76732,5.16358],[-75.7673,5.16363],[-75.76729,5.16365],[-75.76728,5.16367],[-75.76727,5.1637],[-75.76725,5.16372],[-75.76724,5.16374],[-75.76722,5.16376],[-75.7672,5.16378],[-75.76718,5.16379],[-75.76715,5.16381],[-75.76713,5.16383],[-75.7671,5.16385],[-75.76707,5.16386],[-75.767,5.1639],[-75.76699,5.1639]],[[-75.7677,5.16301],[-75.76772,5.16302],[-75.76774,5.16303],[-75.76776,5.16304],[-75.76777,5.16306],[-75.76779,5.16307],[-75.7678,5.16309],[-75.76781,5.1631],[-75.76781,5.16312],[-75.7678,5.16314],[-75.7678,5.16316],[-75.76779,5.16318],[-75.76779,5.1632],[-75.76778,5.16323],[-75.76776,5.16327],[-75.76776,5.16329],[-75.76775,5.16331],[-75.76774,5.16332],[-75.76773,5.16333],[-75.76772,5.16334],[-75.76771,5.16335],[-75.7677,5.16335],[-75.76768,5.16335],[-75.76767,5.16335],[-75.76765,5.16334],[-75.76764,5.16333],[-75.76762,5.16332],[-75.76761,5.16331],[-75.7676,5.1633],[-75.76758,5.16329],[-75.76757,5.16328],[-75.76757,5.16326],[-75.76756,5.16325],[-75.76757,5.16323],[-75.76757,5.16322],[-75.76757,5.1632],[-75.76758,5.16318],[-75.76759,5.16316],[-75.76761,5.16312],[-75.76764,5.16307],[-75.76767,5.163],[-75.76767,5.163],[-75.7677,5.16301]],[[-75.76801,5.16244],[-75.76799,5.16259],[-75.76798,5.16264],[-75.76797,5.16266],[-75.76797,5.16267],[-75.76797,5.16267],[-75.76796,5.16267],[-75.76796,5.16267],[-75.76795,5.16267],[-75.76795,5.16266],[-75.76794,5.16265],[-75.76793,5.16262],[-75.76791,5.16258],[-75.7679,5.16256],[-75.76789,5.16254],[-75.76789,5.16253],[-75.76789,5.16252],[-75.76788,5.16251],[-75.76789,5.1625],[-75.76789,5.1625],[-75.7679,5.16249],[-75.7679,5.16248],[-75.76791,5.16248],[-75.76793,5.16247],[-75.76796,5.16246],[-75.76801,5.16244],[-75.76801,5.16235],[-75.76801,5.16234],[-75.76801,5.16233],[-75.76802,5.16233],[-75.76802,5.16233],[-75.76802,5.16233],[-75.76802,5.16232],[-75.76803,5.16232],[-75.76804,5.16232],[-75.76813,5.16232],[-75.76813,5.16224],[-75.76813,5.16222],[-75.76813,5.16222],[-75.76813,5.16222],[-75.76813,5.16221],[-75.76813,5.16221],[-75.76814,5.16221],[-75.76814,5.16221],[-75.76815,5.16221],[-75.76824,5.16221],[-75.76824,5.16212],[-75.76824,5.16211],[-75.76824,5.16211],[-75.76824,5.1621],[-75.76824,5.1621],[-75.76825,5.1621],[-75.76825,5.1621],[-75.76825,5.1621],[-75.76827,5.1621],[-75.76835,5.1621],[-75.76835,5.16201],[-75.76835,5.162],[-75.76835,5.16199],[-75.76835,5.16199],[-75.76836,5.16199],[-75.76836,5.16199],[-75.76836,5.16199],[-75.76837,5.16199],[-75.76838,5.16198],[-75.76847,5.16199],[-75.76846,5.1619],[-75.76847,5.16189],[-75.76847,5.16188],[-75.76847,5.16188],[-75.76847,5.16188],[-75.76847,5.16187],[-75.76848,5.16187],[-75.76848,5.16187],[-75.76849,5.16187],[-75.76858,5.16187],[-75.76863,5.16164],[-75.76864,5.16161],[-75.76865,5.16157],[-75.76866,5.16156],[-75.76867,5.16154],[-75.76867,5.16153],[-75.76868,5.16152],[-75.76869,5.16152],[-75.7687,5.16152],[-75.76871,5.16153],[-75.76872,5.16153],[-75.76873,5.16154],[-75.76874,5.16155],[-75.76875,5.16157],[-75.76878,5.16159],[-75.76879,5.16161],[-75.7688,5.16162],[-75.76881,5.16164],[-75.76882,5.16165],[-75.76882,5.16166],[-75.76882,5.16168],[-75.76882,5.16169],[-75.76881,5.1617],[-75.7688,5.16172],[-75.76879,5.16173],[-75.76878,5.16174],[-75.76876,5.16175],[-75.76875,5.16176],[-75.76871,5.16179],[-75.76859,5.16186],[-75.76858,5.16187],[-75.76858,5.16196],[-75.76858,5.16197],[-75.76858,5.16198],[-75.76858,5.16198],[-75.76857,5.16198],[-75.76857,5.16198],[-75.76857,5.16198],[-75.76856,5.16199],[-75.76855,5.16199],[-75.76847,5.16199],[-75.76847,5.16207],[-75.76846,5.16208],[-75.76846,5.16209],[-75.76846,5.16209],[-75.76846,5.16209],[-75.76846,5.1621],[-75.76845,5.1621],[-75.76845,5.1621],[-75.76844,5.1621],[-75.76835,5.1621],[-75.76835,5.16218],[-75.76835,5.1622],[-75.76835,5.1622],[-75.76835,5.1622],[-75.76835,5.16221],[-75.76835,5.16221],[-75.76834,5.16221],[-75.76834,5.16221],[-75.76833,5.16221],[-75.76824,5.16221],[-75.76824,5.1623],[-75.76824,5.16231],[-75.76824,5.16231],[-75.76824,5.16232],[-75.76823,5.16232],[-75.76823,5.16232],[-75.76823,5.16232],[-75.76823,5.16232],[-75.76821,5.16232],[-75.76813,5.16232],[-75.76813,5.16241],[-75.76813,5.16242],[-75.76812,5.16243],[-75.76812,5.16243],[-75.76812,5.16243],[-75.76812,5.16243],[-75.76812,5.16244],[-75.76811,5.16244],[-75.7681,5.16244],[-75.76801,5.16244]],[[-75.76911,5.16076],[-75.76912,5.16077],[-75.76914,5.16077],[-75.76914,5.16077],[-75.76915,5.16078],[-75.76915,5.16078],[-75.76916,5.16079],[-75.76916,5.16079],[-75.76915,5.16079],[-75.76915,5.1608],[-75.76915,5.16081],[-75.76913,5.16082],[-75.76911,5.16084],[-75.7691,5.16085],[-75.76909,5.16086],[-75.76908,5.16086],[-75.76908,5.16087],[-75.76907,5.16087],[-75.76907,5.16086],[-75.76907,5.16086],[-75.76906,5.16086],[-75.76906,5.16084],[-75.76905,5.16082],[-75.76903,5.16074],[-75.76911,5.16076]],[[-75.77362,5.15987],[-75.77364,5.15987],[-75.77365,5.15988],[-75.77366,5.15988],[-75.77366,5.15988],[-75.77367,5.15989],[-75.77367,5.15989],[-75.77367,5.15989],[-75.77367,5.1599],[-75.77366,5.1599],[-75.77366,5.15991],[-75.77364,5.15993],[-75.77363,5.15995],[-75.77361,5.15996],[-75.7736,5.15997],[-75.7736,5.15997],[-75.77359,5.15997],[-75.77359,5.15997],[-75.77358,5.15997],[-75.77358,5.15997],[-75.77358,5.15996],[-75.77357,5.15995],[-75.77356,5.15992],[-75.77355,5.15985],[-75.77362,5.15987]],[[-75.76967,5.15963],[-75.76969,5.15964],[-75.7697,5.15964],[-75.76971,5.15965],[-75.76972,5.15965],[-75.76972,5.15965],[-75.76972,5.15966],[-75.76972,5.15966],[-75.76972,5.15967],[-75.76972,5.15967],[-75.76971,5.15968],[-75.7697,5.15969],[-75.76968,5.15971],[-75.76967,5.15972],[-75.76966,5.15973],[-75.76965,5.15973],[-75.76965,5.15974],[-75.76964,5.15974],[-75.76964,5.15974],[-75.76963,5.15973],[-75.76963,5.15973],[-75.76962,5.15971],[-75.76962,5.15969],[-75.7696,5.15961],[-75.76967,5.15963]],[[-75.77024,5.15929],[-75.77026,5.1593],[-75.77027,5.1593],[-75.77028,5.15931],[-75.77028,5.15931],[-75.77028,5.15931],[-75.77029,5.15932],[-75.77029,5.15932],[-75.77028,5.15933],[-75.77028,5.15933],[-75.77028,5.15934],[-75.77028,5.15934],[-75.77026,5.15936],[-75.77024,5.15937],[-75.77023,5.15938],[-75.77022,5.15939],[-75.77021,5.1594],[-75.77021,5.1594],[-75.77021,5.1594],[-75.7702,5.1594],[-75.7702,5.15939],[-75.77019,5.15939],[-75.77019,5.15937],[-75.77018,5.15935],[-75.77016,5.15928],[-75.77016,5.15927],[-75.77024,5.15929]],[[-75.76848,5.1593],[-75.76853,5.15931],[-75.76856,5.15931],[-75.76857,5.15931],[-75.76858,5.15932],[-75.76859,5.15932],[-75.76859,5.15932],[-75.76859,5.15933],[-75.76858,5.15933],[-75.76857,5.15934],[-75.76856,5.15934],[-75.76852,5.15936],[-75.76845,5.15938],[-75.76842,5.15939],[-75.76839,5.15939],[-75.76837,5.1594],[-75.76836,5.1594],[-75.76834,5.1594],[-75.76833,5.1594],[-75.76832,5.15939],[-75.76831,5.15938],[-75.76829,5.15936],[-75.76828,5.15934],[-75.76827,5.15933],[-75.76826,5.15931],[-75.76825,5.15927],[-75.76848,5.1593]],[[-75.7706,5.15927],[-75.77058,5.15926],[-75.77056,5.15925],[-75.77054,5.15924],[-75.77053,5.15922],[-75.77052,5.15921],[-75.77052,5.1592],[-75.77052,5.15919],[-75.77053,5.15917],[-75.77054,5.15916],[-75.77056,5.15915],[-75.77058,5.15914],[-75.7706,5.15912],[-75.77064,5.1591],[-75.77073,5.15904],[-75.77078,5.15902],[-75.7708,5.159],[-75.77082,5.15898],[-75.77085,5.15896],[-75.77087,5.15894],[-75.77089,5.15892],[-75.77091,5.15889],[-75.77093,5.15887],[-75.77094,5.15885],[-75.77095,5.15884],[-75.77095,5.15883],[-75.77095,5.15882],[-75.77096,5.15882],[-75.77102,5.15884],[-75.77105,5.15884],[-75.77108,5.15885],[-75.77111,5.15886],[-75.77113,5.15886],[-75.77115,5.15887],[-75.77117,5.15888],[-75.77118,5.15889],[-75.77117,5.15891],[-75.77116,5.15892],[-75.77115,5.15894],[-75.77114,5.15895],[-75.77112,5.15897],[-75.7711,5.15899],[-75.77102,5.15906],[-75.77089,5.15916],[-75.77085,5.15919],[-75.77085,5.1592],[-75.77082,5.15922],[-75.7708,5.15923],[-75.77078,5.15925],[-75.77076,5.15926],[-75.77074,5.15927],[-75.77071,5.15928],[-75.77069,5.15929],[-75.77067,5.15929],[-75.77065,5.15928],[-75.77065,5.15928],[-75.77062,5.15928],[-75.7706,5.15927]],[[-75.77171,5.15817],[-75.77172,5.15817],[-75.77174,5.15818],[-75.77174,5.15818],[-75.77175,5.15818],[-75.77175,5.15819],[-75.77176,5.15819],[-75.77176,5.15819],[-75.77175,5.1582],[-75.77175,5.1582],[-75.77175,5.15821],[-75.77173,5.15823],[-75.77171,5.15825],[-75.7717,5.15826],[-75.77169,5.15827],[-75.77168,5.15827],[-75.77168,5.15827],[-75.77167,5.15827],[-75.77167,5.15827],[-75.77167,5.15827],[-75.77166,5.15826],[-75.77166,5.15825],[-75.77165,5.15822],[-75.77163,5.15815],[-75.77171,5.15817]],[[-75.7675,5.15828],[-75.76755,5.15829],[-75.76757,5.15829],[-75.76757,5.15829],[-75.76758,5.1583],[-75.76758,5.1583],[-75.76758,5.15831],[-75.76758,5.15831],[-75.76757,5.15831],[-75.76756,5.15832],[-75.76753,5.15834],[-75.76749,5.15836],[-75.76746,5.15837],[-75.76745,5.15837],[-75.76744,5.15838],[-75.76743,5.15838],[-75.76742,5.15838],[-75.76741,5.15838],[-75.76741,5.15837],[-75.7674,5.15837],[-75.76739,5.15836],[-75.76739,5.15835],[-75.76738,5.15834],[-75.76737,5.15831],[-75.76735,5.15825],[-75.7675,5.15828]]]]},"properties":{"FID":9,"OBJECTID":42,"ID":2252,"GRIDCODE":2,"Clasificac":"Amenaza Media","InPoly_FID":2251,"Shape_Leng":11284.7115435,"Shape_Area":983010.195823,"Centro_Pob":" "}}]}