{"type":"FeatureCollection","name":"buff_nacimientos","crs":{"type":"name","properties":{"name":"urn:ogc:def:crs:OGC:1.3:CRS84"}},"features":[{"type":"Feature","id":0,"geometry":{"type":"MultiPolygon","coordinates":[[[[-75.62477,5.51838],[-75.62478,5.51846],[-75.6248,5.51854],[-75.62483,5.51861],[-75.62488,5.51867],[-75.62493,5.51873],[-75.625,5.51877],[-75.62507,5.51881],[-75.62514,5.51883],[-75.62522,5.51883],[-75.6253,5.51883],[-75.62538,5.51881],[-75.62545,5.51877],[-75.62551,5.51873],[-75.62557,5.51867],[-75.62561,5.51861],[-75.62565,5.51854],[-75.62567,5.51846],[-75.62567,5.51838],[-75.62567,5.5183],[-75.62565,5.51823],[-75.62561,5.51816],[-75.62557,5.51809],[-75.62551,5.51804],[-75.62545,5.51799],[-75.62538,5.51796],[-75.6253,5.51794],[-75.62522,5.51793],[-75.62515,5.51794],[-75.62507,5.51796],[-75.625,5.51799],[-75.62493,5.51803],[-75.62488,5.51809],[-75.62483,5.51815],[-75.6248,5.51823],[-75.62478,5.5183],[-75.62477,5.51838]]],[[[-75.62525,5.50666],[-75.62525,5.50674],[-75.62527,5.50681],[-75.62531,5.50688],[-75.62535,5.50695],[-75.62541,5.507],[-75.62547,5.50705],[-75.62554,5.50708],[-75.62562,5.5071],[-75.6257,5.50711],[-75.62577,5.5071],[-75.62585,5.50708],[-75.62592,5.50705],[-75.62599,5.507],[-75.62604,5.50695],[-75.62609,5.50688],[-75.62612,5.50681],[-75.62614,5.50674],[-75.62615,5.50666],[-75.62614,5.50658],[-75.62612,5.5065],[-75.62609,5.50643],[-75.62604,5.50637],[-75.62599,5.50631],[-75.62592,5.50627],[-75.62585,5.50623],[-75.62578,5.50621],[-75.6257,5.50621],[-75.62562,5.50621],[-75.62554,5.50623],[-75.62547,5.50627],[-75.62541,5.50631],[-75.62535,5.50637],[-75.62531,5.50643],[-75.62527,5.5065],[-75.62525,5.50658],[-75.62525,5.50666]]],[[[-75.62236,5.50739],[-75.62236,5.50747],[-75.62238,5.50755],[-75.62242,5.50762],[-75.62246,5.50768],[-75.62252,5.50774],[-75.62258,5.50778],[-75.62265,5.50782],[-75.62273,5.50784],[-75.62281,5.50784],[-75.62288,5.50784],[-75.62296,5.50782],[-75.62303,5.50778],[-75.6231,5.50774],[-75.62315,5.50768],[-75.6232,5.50762],[-75.62323,5.50755],[-75.62325,5.50747],[-75.62326,5.50739],[-75.62325,5.50732],[-75.62323,5.50724],[-75.6232,5.50717],[-75.62315,5.5071],[-75.6231,5.50705],[-75.62303,5.507],[-75.62296,5.50697],[-75.62289,5.50695],[-75.62281,5.50694],[-75.62273,5.50695],[-75.62265,5.50697],[-75.62258,5.507],[-75.62252,5.50705],[-75.62246,5.5071],[-75.62242,5.50717],[-75.62238,5.50724],[-75.62236,5.50731],[-75.62236,5.50739]]],[[[-75.6221,5.50598],[-75.62211,5.50606],[-75.62213,5.50614],[-75.62216,5.50621],[-75.6222,5.50627],[-75.62226,5.50633],[-75.62232,5.50637],[-75.6224,5.50641],[-75.62247,5.50643],[-75.62255,5.50643],[-75.62263,5.50643],[-75.6227,5.50641],[-75.62278,5.50637],[-75.62284,5.50633],[-75.6229,5.50627],[-75.62294,5.50621],[-75.62297,5.50614],[-75.62299,5.50606],[-75.623,5.50598],[-75.62299,5.5059],[-75.62297,5.50583],[-75.62294,5.50576],[-75.6229,5.50569],[-75.62284,5.50564],[-75.62278,5.50559],[-75.62271,5.50556],[-75.62263,5.50554],[-75.62255,5.50553],[-75.62247,5.50554],[-75.6224,5.50556],[-75.62233,5.50559],[-75.62226,5.50564],[-75.62221,5.50569],[-75.62216,5.50576],[-75.62213,5.50583],[-75.62211,5.5059],[-75.6221,5.50598]]],[[[-75.62399,5.50565],[-75.624,5.50573],[-75.62402,5.50581],[-75.62405,5.50588],[-75.62409,5.50594],[-75.62415,5.506],[-75.62421,5.50604],[-75.62428,5.50608],[-75.62436,5.5061],[-75.62444,5.5061],[-75.62452,5.5061],[-75.62459,5.50608],[-75.62466,5.50604],[-75.62473,5.506],[-75.62478,5.50594],[-75.62483,5.50588],[-75.62486,5.50581],[-75.62488,5.50573],[-75.62489,5.50565],[-75.62488,5.50558],[-75.62486,5.5055],[-75.62483,5.50543],[-75.62479,5.50536],[-75.62473,5.50531],[-75.62467,5.50526],[-75.6246,5.50523],[-75.62452,5.50521],[-75.62444,5.5052],[-75.62436,5.50521],[-75.62429,5.50523],[-75.62422,5.50526],[-75.62415,5.50531],[-75.62409,5.50536],[-75.62405,5.50543],[-75.62402,5.5055],[-75.624,5.50557],[-75.62399,5.50565]]],[[[-75.62858,5.5054],[-75.62859,5.50548],[-75.62861,5.50556],[-75.62864,5.50563],[-75.62869,5.50569],[-75.62874,5.50575],[-75.62881,5.5058],[-75.62888,5.50583],[-75.62895,5.50585],[-75.62903,5.50586],[-75.62911,5.50585],[-75.62919,5.50583],[-75.62926,5.5058],[-75.62932,5.50575],[-75.62938,5.5057],[-75.62942,5.50563],[-75.62946,5.50556],[-75.62948,5.50548],[-75.62948,5.50541],[-75.62948,5.50533],[-75.62946,5.50525],[-75.62942,5.50518],[-75.62938,5.50511],[-75.62932,5.50506],[-75.62926,5.50501],[-75.62919,5.50498],[-75.62911,5.50496],[-75.62903,5.50495],[-75.62895,5.50496],[-75.62888,5.50498],[-75.62881,5.50501],[-75.62874,5.50506],[-75.62869,5.50511],[-75.62864,5.50518],[-75.62861,5.50525],[-75.62859,5.50532],[-75.62858,5.5054]]],[[[-75.62865,5.50633],[-75.62866,5.50641],[-75.62868,5.50649],[-75.62871,5.50656],[-75.62876,5.50662],[-75.62881,5.50668],[-75.62888,5.50672],[-75.62895,5.50676],[-75.62902,5.50678],[-75.6291,5.50678],[-75.62918,5.50678],[-75.62926,5.50676],[-75.62933,5.50672],[-75.62939,5.50668],[-75.62945,5.50662],[-75.62949,5.50656],[-75.62953,5.50649],[-75.62955,5.50641],[-75.62955,5.50633],[-75.62955,5.50625],[-75.62953,5.50618],[-75.6295,5.50611],[-75.62945,5.50604],[-75.62939,5.50599],[-75.62933,5.50594],[-75.62926,5.50591],[-75.62918,5.50589],[-75.6291,5.50588],[-75.62903,5.50589],[-75.62895,5.50591],[-75.62888,5.50594],[-75.62881,5.50599],[-75.62876,5.50604],[-75.62871,5.50611],[-75.62868,5.50618],[-75.62866,5.50625],[-75.62865,5.50633]]],[[[-75.63114,5.50463],[-75.63114,5.50471],[-75.63116,5.50478],[-75.6312,5.50486],[-75.63124,5.50492],[-75.6313,5.50498],[-75.63136,5.50502],[-75.63143,5.50506],[-75.63151,5.50508],[-75.63159,5.50508],[-75.63167,5.50508],[-75.63174,5.50506],[-75.63181,5.50502],[-75.63188,5.50498],[-75.63193,5.50492],[-75.63198,5.50486],[-75.63201,5.50479],[-75.63203,5.50471],[-75.63204,5.50463],[-75.63203,5.50455],[-75.63201,5.50448],[-75.63198,5.50441],[-75.63194,5.50434],[-75.63188,5.50429],[-75.63182,5.50424],[-75.63174,5.50421],[-75.63167,5.50419],[-75.63159,5.50418],[-75.63151,5.50419],[-75.63144,5.50421],[-75.63136,5.50424],[-75.6313,5.50428],[-75.63124,5.50434],[-75.6312,5.5044],[-75.63117,5.50448],[-75.63114,5.50455],[-75.63114,5.50463]]],[[[-75.62995,5.50767],[-75.62995,5.50775],[-75.62997,5.50782],[-75.63001,5.5079],[-75.63005,5.50796],[-75.63011,5.50802],[-75.63017,5.50806],[-75.63024,5.5081],[-75.63032,5.50812],[-75.6304,5.50812],[-75.63047,5.50812],[-75.63055,5.5081],[-75.63062,5.50806],[-75.63069,5.50802],[-75.63074,5.50796],[-75.63079,5.5079],[-75.63082,5.50783],[-75.63084,5.50775],[-75.63085,5.50767],[-75.63084,5.50759],[-75.63082,5.50752],[-75.63079,5.50745],[-75.63074,5.50738],[-75.63069,5.50733],[-75.63062,5.50728],[-75.63055,5.50725],[-75.63048,5.50723],[-75.6304,5.50722],[-75.63032,5.50723],[-75.63024,5.50725],[-75.63017,5.50728],[-75.63011,5.50732],[-75.63005,5.50738],[-75.63001,5.50744],[-75.62997,5.50752],[-75.62995,5.50759],[-75.62995,5.50767]]],[[[-75.62258,5.50487],[-75.62259,5.50495],[-75.62261,5.50502],[-75.62264,5.5051],[-75.62269,5.50516],[-75.62274,5.50522],[-75.62281,5.50526],[-75.62288,5.50529],[-75.62296,5.50531],[-75.62303,5.50532],[-75.62311,5.50532],[-75.62319,5.5053],[-75.62326,5.50526],[-75.62332,5.50522],[-75.62338,5.50516],[-75.62342,5.5051],[-75.62346,5.50503],[-75.62348,5.50495],[-75.62349,5.50487],[-75.62348,5.50479],[-75.62346,5.50472],[-75.62343,5.50465],[-75.62338,5.50458],[-75.62333,5.50452],[-75.62326,5.50448],[-75.62319,5.50445],[-75.62311,5.50443],[-75.62304,5.50442],[-75.62296,5.50442],[-75.62288,5.50444],[-75.62281,5.50448],[-75.62275,5.50452],[-75.62269,5.50458],[-75.62264,5.50464],[-75.62261,5.50471],[-75.62259,5.50479],[-75.62258,5.50487]]],[[[-75.62644,5.50388],[-75.62644,5.50396],[-75.62646,5.50403],[-75.6265,5.5041],[-75.62654,5.50417],[-75.6266,5.50422],[-75.62666,5.50427],[-75.62673,5.5043],[-75.62681,5.50432],[-75.62689,5.50433],[-75.62697,5.50432],[-75.62704,5.5043],[-75.62711,5.50427],[-75.62718,5.50422],[-75.62723,5.50417],[-75.62728,5.5041],[-75.62731,5.50403],[-75.62733,5.50396],[-75.62734,5.50388],[-75.62733,5.5038],[-75.62731,5.50372],[-75.62728,5.50365],[-75.62723,5.50359],[-75.62718,5.50353],[-75.62711,5.50349],[-75.62704,5.50345],[-75.62697,5.50343],[-75.62689,5.50343],[-75.62681,5.50343],[-75.62673,5.50345],[-75.62666,5.50349],[-75.6266,5.50353],[-75.62654,5.50359],[-75.6265,5.50365],[-75.62646,5.50372],[-75.62644,5.5038],[-75.62644,5.50388]]],[[[-75.62125,5.50661],[-75.62125,5.50669],[-75.62127,5.50676],[-75.62131,5.50684],[-75.62135,5.5069],[-75.62141,5.50696],[-75.62147,5.507],[-75.62154,5.50704],[-75.62162,5.50706],[-75.6217,5.50706],[-75.62177,5.50706],[-75.62185,5.50704],[-75.62192,5.507],[-75.62199,5.50696],[-75.62204,5.5069],[-75.62209,5.50684],[-75.62212,5.50677],[-75.62214,5.50669],[-75.62215,5.50661],[-75.62214,5.50653],[-75.62212,5.50646],[-75.62209,5.50639],[-75.62204,5.50632],[-75.62199,5.50627],[-75.62192,5.50622],[-75.62185,5.50619],[-75.62178,5.50617],[-75.6217,5.50616],[-75.62162,5.50617],[-75.62154,5.50619],[-75.62147,5.50622],[-75.62141,5.50626],[-75.62135,5.50632],[-75.62131,5.50638],[-75.62127,5.50646],[-75.62125,5.50653],[-75.62125,5.50661]]],[[[-75.61943,5.50831],[-75.61943,5.50839],[-75.61945,5.50847],[-75.61949,5.50854],[-75.61953,5.5086],[-75.61959,5.50866],[-75.61965,5.5087],[-75.61972,5.50874],[-75.6198,5.50876],[-75.61988,5.50877],[-75.61996,5.50876],[-75.62003,5.50874],[-75.6201,5.50871],[-75.62017,5.50866],[-75.62022,5.5086],[-75.62027,5.50854],[-75.6203,5.50847],[-75.62032,5.50839],[-75.62032,5.50839],[-75.62036,5.5084],[-75.62044,5.50839],[-75.62051,5.50837],[-75.62059,5.50834],[-75.62065,5.50829],[-75.62071,5.50823],[-75.62075,5.50817],[-75.62078,5.5081],[-75.6208,5.50802],[-75.62081,5.50794],[-75.62081,5.50787],[-75.62079,5.50779],[-75.62075,5.50772],[-75.62071,5.50765],[-75.62065,5.5076],[-75.62059,5.50755],[-75.62052,5.50752],[-75.62044,5.5075],[-75.62036,5.50749],[-75.62028,5.5075],[-75.62021,5.50752],[-75.62014,5.50755],[-75.62007,5.5076],[-75.62002,5.50765],[-75.61997,5.50772],[-75.61994,5.50779],[-75.61992,5.50786],[-75.61992,5.50786],[-75.61988,5.50786],[-75.6198,5.50787],[-75.61973,5.50789],[-75.61965,5.50792],[-75.61959,5.50797],[-75.61953,5.50802],[-75.61949,5.50809],[-75.61946,5.50816],[-75.61943,5.50823],[-75.61943,5.50831]]],[[[-75.61672,5.50957],[-75.61673,5.50965],[-75.61675,5.50972],[-75.61678,5.50979],[-75.61683,5.50986],[-75.61688,5.50991],[-75.61695,5.50996],[-75.61702,5.50999],[-75.61709,5.51001],[-75.61717,5.51002],[-75.61725,5.51001],[-75.61733,5.50999],[-75.6174,5.50996],[-75.61746,5.50991],[-75.61752,5.50986],[-75.61756,5.50979],[-75.6176,5.50972],[-75.61762,5.50965],[-75.61762,5.50957],[-75.61762,5.50949],[-75.6176,5.50941],[-75.61756,5.50934],[-75.61752,5.50928],[-75.61746,5.50922],[-75.6174,5.50918],[-75.61733,5.50914],[-75.61725,5.50912],[-75.61717,5.50912],[-75.6171,5.50912],[-75.61702,5.50914],[-75.61695,5.50918],[-75.61688,5.50922],[-75.61683,5.50928],[-75.61678,5.50934],[-75.61675,5.50941],[-75.61673,5.50949],[-75.61672,5.50957]]],[[[-75.61579,5.51038],[-75.6158,5.51046],[-75.61582,5.51054],[-75.61585,5.51061],[-75.6159,5.51067],[-75.61595,5.51073],[-75.61602,5.51077],[-75.61609,5.51081],[-75.61617,5.51083],[-75.61624,5.51083],[-75.61632,5.51083],[-75.6164,5.51081],[-75.61647,5.51077],[-75.61653,5.51073],[-75.61659,5.51067],[-75.61663,5.51061],[-75.61667,5.51054],[-75.61669,5.51046],[-75.6167,5.51038],[-75.61669,5.5103],[-75.61667,5.51023],[-75.61664,5.51016],[-75.61659,5.51009],[-75.61654,5.51004],[-75.61647,5.50999],[-75.6164,5.50996],[-75.61632,5.50994],[-75.61625,5.50993],[-75.61617,5.50994],[-75.61609,5.50996],[-75.61602,5.50999],[-75.61596,5.51004],[-75.6159,5.51009],[-75.61585,5.51016],[-75.61582,5.51023],[-75.6158,5.5103],[-75.61579,5.51038]]],[[[-75.62099,5.50464],[-75.621,5.50472],[-75.62102,5.5048],[-75.62105,5.50487],[-75.6211,5.50493],[-75.62115,5.50499],[-75.62122,5.50503],[-75.62129,5.50507],[-75.62136,5.50509],[-75.62144,5.5051],[-75.62152,5.50509],[-75.6216,5.50507],[-75.62167,5.50504],[-75.62173,5.50499],[-75.62179,5.50493],[-75.62183,5.50487],[-75.62187,5.5048],[-75.62189,5.50472],[-75.62189,5.50464],[-75.62189,5.50457],[-75.62187,5.50449],[-75.62183,5.50442],[-75.62179,5.50435],[-75.62173,5.5043],[-75.62167,5.50425],[-75.6216,5.50422],[-75.62152,5.5042],[-75.62144,5.50419],[-75.62137,5.5042],[-75.62129,5.50422],[-75.62122,5.50425],[-75.62115,5.5043],[-75.6211,5.50435],[-75.62105,5.50442],[-75.62102,5.50449],[-75.621,5.50456],[-75.62099,5.50464]]],[[[-75.62426,5.49901],[-75.62427,5.49909],[-75.62429,5.49917],[-75.62432,5.49924],[-75.62437,5.4993],[-75.62442,5.49936],[-75.62449,5.4994],[-75.62456,5.49944],[-75.62464,5.49946],[-75.62471,5.49946],[-75.62479,5.49946],[-75.62487,5.49944],[-75.62494,5.4994],[-75.625,5.49936],[-75.62506,5.4993],[-75.62511,5.49924],[-75.62514,5.49917],[-75.62516,5.49909],[-75.62517,5.49901],[-75.62516,5.49893],[-75.62514,5.49886],[-75.62511,5.49879],[-75.62506,5.49872],[-75.62501,5.49867],[-75.62494,5.49862],[-75.62487,5.49859],[-75.62479,5.49857],[-75.62472,5.49856],[-75.62464,5.49857],[-75.62456,5.49859],[-75.62449,5.49862],[-75.62443,5.49866],[-75.62437,5.49872],[-75.62433,5.49878],[-75.62429,5.49886],[-75.62427,5.49893],[-75.62426,5.49901]]],[[[-75.62442,5.49745],[-75.62442,5.49753],[-75.62444,5.49761],[-75.62448,5.49768],[-75.62452,5.49774],[-75.62458,5.4978],[-75.62464,5.49784],[-75.62471,5.49788],[-75.62479,5.4979],[-75.62487,5.49791],[-75.62494,5.4979],[-75.62502,5.49788],[-75.62509,5.49785],[-75.62516,5.4978],[-75.62521,5.49774],[-75.62526,5.49768],[-75.62529,5.49761],[-75.62531,5.49753],[-75.62532,5.49745],[-75.62531,5.49738],[-75.62529,5.4973],[-75.62526,5.49723],[-75.62521,5.49716],[-75.62516,5.49711],[-75.62509,5.49706],[-75.62502,5.49703],[-75.62495,5.49701],[-75.62487,5.497],[-75.62479,5.49701],[-75.62471,5.49703],[-75.62464,5.49706],[-75.62458,5.49711],[-75.62452,5.49716],[-75.62448,5.49723],[-75.62444,5.4973],[-75.62442,5.49737],[-75.62442,5.49745]]],[[[-75.61786,5.49744],[-75.61787,5.49751],[-75.61789,5.49759],[-75.61792,5.49766],[-75.61797,5.49773],[-75.61802,5.49778],[-75.61809,5.49783],[-75.61816,5.49786],[-75.61823,5.49788],[-75.61831,5.49789],[-75.61839,5.49788],[-75.61847,5.49786],[-75.61854,5.49783],[-75.6186,5.49778],[-75.61866,5.49773],[-75.6187,5.49766],[-75.61874,5.49759],[-75.61876,5.49752],[-75.61876,5.49744],[-75.61876,5.49736],[-75.61874,5.49728],[-75.6187,5.49721],[-75.61866,5.49715],[-75.6186,5.49709],[-75.61854,5.49705],[-75.61847,5.49701],[-75.61839,5.49699],[-75.61831,5.49699],[-75.61824,5.49699],[-75.61816,5.49701],[-75.61809,5.49705],[-75.61802,5.49709],[-75.61797,5.49715],[-75.61792,5.49721],[-75.61789,5.49728],[-75.61787,5.49736],[-75.61786,5.49744]]],[[[-75.61616,5.49762],[-75.61616,5.4977],[-75.61618,5.49777],[-75.61622,5.49784],[-75.61626,5.49791],[-75.61632,5.49796],[-75.61638,5.49801],[-75.61645,5.49804],[-75.61653,5.49806],[-75.61661,5.49807],[-75.61669,5.49806],[-75.61676,5.49804],[-75.61683,5.49801],[-75.6169,5.49797],[-75.61695,5.49791],[-75.617,5.49785],[-75.61703,5.49777],[-75.61705,5.4977],[-75.61706,5.49762],[-75.61705,5.49754],[-75.61703,5.49747],[-75.617,5.49739],[-75.61696,5.49733],[-75.6169,5.49727],[-75.61684,5.49723],[-75.61676,5.49719],[-75.61669,5.49717],[-75.61661,5.49717],[-75.61653,5.49717],[-75.61646,5.49719],[-75.61638,5.49723],[-75.61632,5.49727],[-75.61626,5.49733],[-75.61622,5.49739],[-75.61619,5.49746],[-75.61617,5.49754],[-75.61616,5.49762]]],[[[-75.61954,5.49388],[-75.61954,5.49396],[-75.61956,5.49403],[-75.6196,5.4941],[-75.61964,5.49417],[-75.6197,5.49423],[-75.61976,5.49427],[-75.61983,5.4943],[-75.61991,5.49432],[-75.61999,5.49433],[-75.62007,5.49432],[-75.62014,5.4943],[-75.62021,5.49427],[-75.62028,5.49423],[-75.62033,5.49417],[-75.62038,5.49411],[-75.62041,5.49404],[-75.62043,5.49396],[-75.62044,5.49388],[-75.62043,5.4938],[-75.62041,5.49373],[-75.62038,5.49365],[-75.62033,5.49359],[-75.62028,5.49353],[-75.62021,5.49349],[-75.62014,5.49346],[-75.62007,5.49343],[-75.61999,5.49343],[-75.61991,5.49343],[-75.61983,5.49345],[-75.61976,5.49349],[-75.6197,5.49353],[-75.61964,5.49359],[-75.6196,5.49365],[-75.61956,5.49372],[-75.61954,5.4938],[-75.61954,5.49388]]],[[[-75.61868,5.49466],[-75.61869,5.49473],[-75.61871,5.49481],[-75.61874,5.49488],[-75.61879,5.49495],[-75.61884,5.495],[-75.61891,5.49505],[-75.61898,5.49508],[-75.61905,5.4951],[-75.61913,5.49511],[-75.61921,5.4951],[-75.61929,5.49508],[-75.61936,5.49505],[-75.61942,5.495],[-75.61948,5.49495],[-75.61952,5.49488],[-75.61956,5.49481],[-75.61958,5.49474],[-75.61959,5.49466],[-75.61958,5.49458],[-75.61956,5.4945],[-75.61953,5.49443],[-75.61948,5.49437],[-75.61943,5.49431],[-75.61936,5.49427],[-75.61929,5.49423],[-75.61921,5.49421],[-75.61914,5.4942],[-75.61906,5.49421],[-75.61898,5.49423],[-75.61891,5.49426],[-75.61885,5.49431],[-75.61879,5.49437],[-75.61874,5.49443],[-75.61871,5.4945],[-75.61869,5.49458],[-75.61868,5.49466]]],[[[-75.61915,5.48531],[-75.61916,5.48538],[-75.61918,5.48546],[-75.61921,5.48553],[-75.61926,5.4856],[-75.61931,5.48565],[-75.61938,5.4857],[-75.61945,5.48573],[-75.61952,5.48575],[-75.6196,5.48576],[-75.61968,5.48575],[-75.61975,5.48573],[-75.61983,5.4857],[-75.61989,5.48565],[-75.61995,5.4856],[-75.61999,5.48553],[-75.62003,5.48546],[-75.62005,5.48539],[-75.62005,5.48531],[-75.62005,5.48523],[-75.62003,5.48515],[-75.61999,5.48508],[-75.61995,5.48502],[-75.61989,5.48496],[-75.61983,5.48492],[-75.61976,5.48488],[-75.61968,5.48486],[-75.6196,5.48486],[-75.61952,5.48486],[-75.61945,5.48488],[-75.61938,5.48492],[-75.61931,5.48496],[-75.61926,5.48502],[-75.61921,5.48508],[-75.61918,5.48515],[-75.61916,5.48523],[-75.61915,5.48531]]],[[[-75.61149,5.48195],[-75.6115,5.48203],[-75.61152,5.4821],[-75.61155,5.48217],[-75.6116,5.48224],[-75.61165,5.48229],[-75.61172,5.48234],[-75.61179,5.48237],[-75.61187,5.48239],[-75.61194,5.4824],[-75.61202,5.48239],[-75.6121,5.48237],[-75.61217,5.48234],[-75.61223,5.4823],[-75.61229,5.48224],[-75.61233,5.48218],[-75.61237,5.4821],[-75.61239,5.48203],[-75.6124,5.48195],[-75.61239,5.48187],[-75.61237,5.4818],[-75.61234,5.48172],[-75.61229,5.48166],[-75.61224,5.4816],[-75.61217,5.48156],[-75.6121,5.48152],[-75.61202,5.4815],[-75.61195,5.4815],[-75.61187,5.4815],[-75.61179,5.48152],[-75.61172,5.48156],[-75.61166,5.4816],[-75.6116,5.48166],[-75.61155,5.48172],[-75.61152,5.48179],[-75.6115,5.48187],[-75.61149,5.48195]]],[[[-75.61379,5.48047],[-75.6138,5.48055],[-75.61382,5.48062],[-75.61385,5.4807],[-75.6139,5.48076],[-75.61395,5.48082],[-75.61402,5.48086],[-75.61409,5.48089],[-75.61416,5.48092],[-75.61424,5.48092],[-75.61432,5.48092],[-75.6144,5.4809],[-75.61447,5.48086],[-75.61453,5.48082],[-75.61459,5.48076],[-75.61463,5.4807],[-75.61467,5.48063],[-75.61469,5.48055],[-75.6147,5.48047],[-75.61469,5.48039],[-75.61467,5.48032],[-75.61464,5.48025],[-75.61459,5.48018],[-75.61454,5.48012],[-75.61447,5.48008],[-75.6144,5.48005],[-75.61432,5.48003],[-75.61425,5.48002],[-75.61417,5.48003],[-75.61409,5.48005],[-75.61402,5.48008],[-75.61396,5.48012],[-75.6139,5.48018],[-75.61385,5.48024],[-75.61382,5.48031],[-75.6138,5.48039],[-75.61379,5.48047]]],[[[-75.61591,5.47984],[-75.61591,5.47992],[-75.61593,5.48],[-75.61597,5.48007],[-75.61601,5.48013],[-75.61607,5.48019],[-75.61613,5.48024],[-75.6162,5.48027],[-75.61628,5.48029],[-75.61636,5.4803],[-75.61643,5.48029],[-75.61651,5.48027],[-75.61658,5.48024],[-75.61665,5.48019],[-75.6167,5.48014],[-75.61675,5.48007],[-75.61678,5.48],[-75.6168,5.47992],[-75.61681,5.47985],[-75.6168,5.47977],[-75.61678,5.47969],[-75.61675,5.47962],[-75.6167,5.47956],[-75.61665,5.4795],[-75.61658,5.47945],[-75.61651,5.47942],[-75.61644,5.4794],[-75.61636,5.47939],[-75.61628,5.4794],[-75.6162,5.47942],[-75.61613,5.47945],[-75.61607,5.4795],[-75.61601,5.47955],[-75.61597,5.47962],[-75.61593,5.47969],[-75.61591,5.47977],[-75.61591,5.47984]]],[[[-75.61458,5.47799],[-75.61458,5.47806],[-75.6146,5.47814],[-75.61464,5.47821],[-75.61468,5.47828],[-75.61474,5.47833],[-75.6148,5.47838],[-75.61485,5.4784],[-75.6148,5.47841],[-75.61473,5.47845],[-75.61466,5.47849],[-75.61461,5.47855],[-75.61456,5.47861],[-75.61453,5.47868],[-75.61451,5.47876],[-75.6145,5.47884],[-75.61451,5.47892],[-75.61453,5.47899],[-75.61456,5.47906],[-75.61461,5.47913],[-75.61466,5.47919],[-75.61473,5.47923],[-75.6148,5.47926],[-75.61487,5.47928],[-75.61495,5.47929],[-75.61503,5.47928],[-75.6151,5.47926],[-75.61518,5.47923],[-75.61524,5.47919],[-75.6153,5.47913],[-75.61534,5.47907],[-75.61538,5.479],[-75.6154,5.47892],[-75.6154,5.47884],[-75.6154,5.47876],[-75.61538,5.47869],[-75.61534,5.47861],[-75.6153,5.47855],[-75.61524,5.47849],[-75.61518,5.47845],[-75.61513,5.47843],[-75.61518,5.47841],[-75.61525,5.47838],[-75.61532,5.47833],[-75.61537,5.47828],[-75.61542,5.47821],[-75.61545,5.47814],[-75.61547,5.47807],[-75.61548,5.47799],[-75.61547,5.47791],[-75.61545,5.47783],[-75.61542,5.47776],[-75.61537,5.4777],[-75.61532,5.47764],[-75.61525,5.4776],[-75.61518,5.47756],[-75.61511,5.47754],[-75.61503,5.47753],[-75.61495,5.47754],[-75.61487,5.47756],[-75.6148,5.47759],[-75.61474,5.47764],[-75.61468,5.47769],[-75.61464,5.47776],[-75.6146,5.47783],[-75.61458,5.47791],[-75.61458,5.47799]]],[[[-75.61761,5.47732],[-75.61762,5.4774],[-75.61764,5.47748],[-75.61767,5.47755],[-75.61772,5.47762],[-75.61778,5.47767],[-75.61784,5.47772],[-75.61791,5.47775],[-75.61799,5.47777],[-75.61806,5.47778],[-75.61814,5.47777],[-75.61822,5.47775],[-75.61829,5.47772],[-75.61835,5.47767],[-75.61841,5.47762],[-75.61846,5.47755],[-75.61849,5.47748],[-75.61851,5.47741],[-75.61852,5.47733],[-75.61851,5.47725],[-75.61849,5.47717],[-75.61846,5.4771],[-75.61841,5.47704],[-75.61836,5.47698],[-75.61829,5.47694],[-75.61822,5.4769],[-75.61815,5.47688],[-75.61807,5.47687],[-75.61799,5.47688],[-75.61791,5.4769],[-75.61784,5.47693],[-75.61778,5.47698],[-75.61772,5.47703],[-75.61768,5.4771],[-75.61764,5.47717],[-75.61762,5.47725],[-75.61761,5.47732]]],[[[-75.61858,5.47551],[-75.61859,5.47559],[-75.61861,5.47566],[-75.61864,5.47574],[-75.61869,5.4758],[-75.61874,5.47586],[-75.61881,5.4759],[-75.61888,5.47593],[-75.61895,5.47596],[-75.61903,5.47596],[-75.61911,5.47596],[-75.61919,5.47594],[-75.61926,5.4759],[-75.61932,5.47586],[-75.61938,5.4758],[-75.61942,5.47574],[-75.61946,5.47567],[-75.61948,5.47559],[-75.61948,5.47551],[-75.61948,5.47543],[-75.61946,5.47536],[-75.61942,5.47529],[-75.61938,5.47522],[-75.61932,5.47516],[-75.61926,5.47512],[-75.61919,5.47509],[-75.61911,5.47507],[-75.61903,5.47506],[-75.61896,5.47506],[-75.61888,5.47509],[-75.61881,5.47512],[-75.61874,5.47516],[-75.61869,5.47522],[-75.61864,5.47528],[-75.61861,5.47535],[-75.61859,5.47543],[-75.61858,5.47551]]],[[[-75.61528,5.47621],[-75.61529,5.47628],[-75.61531,5.47636],[-75.61534,5.47643],[-75.61539,5.4765],[-75.61544,5.47655],[-75.61551,5.4766],[-75.61558,5.47663],[-75.61566,5.47665],[-75.61573,5.47666],[-75.61581,5.47665],[-75.61589,5.47663],[-75.61596,5.4766],[-75.61602,5.47655],[-75.61608,5.4765],[-75.61613,5.47643],[-75.61616,5.47636],[-75.61618,5.47629],[-75.61619,5.47621],[-75.61618,5.47613],[-75.61616,5.47605],[-75.61613,5.47598],[-75.61608,5.47592],[-75.61603,5.47586],[-75.61596,5.47582],[-75.61589,5.47578],[-75.61582,5.47576],[-75.61574,5.47576],[-75.61566,5.47576],[-75.61558,5.47578],[-75.61551,5.47582],[-75.61545,5.47586],[-75.61539,5.47592],[-75.61535,5.47598],[-75.61531,5.47605],[-75.61529,5.47613],[-75.61528,5.47621]]],[[[-75.61258,5.47516],[-75.61259,5.47524],[-75.61261,5.47532],[-75.61264,5.47539],[-75.61269,5.47545],[-75.61274,5.47551],[-75.61281,5.47555],[-75.61288,5.47559],[-75.61296,5.47561],[-75.61303,5.47561],[-75.61311,5.47561],[-75.61319,5.47559],[-75.61326,5.47555],[-75.61332,5.47551],[-75.61338,5.47545],[-75.61343,5.47539],[-75.61346,5.47532],[-75.61348,5.47524],[-75.61349,5.47516],[-75.61348,5.47508],[-75.61346,5.47501],[-75.61343,5.47494],[-75.61338,5.47487],[-75.61333,5.47482],[-75.61326,5.47477],[-75.61319,5.47474],[-75.61311,5.47472],[-75.61304,5.47471],[-75.61296,5.47472],[-75.61288,5.47474],[-75.61281,5.47477],[-75.61275,5.47481],[-75.61269,5.47487],[-75.61265,5.47493],[-75.61261,5.47501],[-75.61259,5.47508],[-75.61258,5.47516]]],[[[-75.61062,5.47568],[-75.61063,5.47575],[-75.61065,5.47583],[-75.61068,5.4759],[-75.61073,5.47597],[-75.61078,5.47602],[-75.61085,5.47607],[-75.61092,5.4761],[-75.61099,5.47612],[-75.61107,5.47613],[-75.61115,5.47612],[-75.61122,5.4761],[-75.6113,5.47607],[-75.61136,5.47602],[-75.61142,5.47597],[-75.61146,5.4759],[-75.6115,5.47583],[-75.61152,5.47576],[-75.61152,5.47568],[-75.61152,5.4756],[-75.6115,5.47552],[-75.61146,5.47545],[-75.61142,5.47539],[-75.61136,5.47533],[-75.6113,5.47529],[-75.61123,5.47525],[-75.61115,5.47523],[-75.61107,5.47522],[-75.61099,5.47523],[-75.61092,5.47525],[-75.61085,5.47528],[-75.61078,5.47533],[-75.61073,5.47538],[-75.61068,5.47545],[-75.61065,5.47552],[-75.61063,5.4756],[-75.61062,5.47568]]],[[[-75.60857,5.48105],[-75.60858,5.48113],[-75.6086,5.4812],[-75.60863,5.48128],[-75.60868,5.48134],[-75.60873,5.4814],[-75.6088,5.48144],[-75.60887,5.48148],[-75.60894,5.4815],[-75.60902,5.4815],[-75.6091,5.4815],[-75.60918,5.48148],[-75.60925,5.48144],[-75.60931,5.4814],[-75.60937,5.48134],[-75.60941,5.48128],[-75.60945,5.48121],[-75.60947,5.48113],[-75.60947,5.48105],[-75.60947,5.48097],[-75.60945,5.4809],[-75.60941,5.48083],[-75.60937,5.48076],[-75.60931,5.48071],[-75.60925,5.48066],[-75.60918,5.48063],[-75.6091,5.48061],[-75.60902,5.4806],[-75.60894,5.48061],[-75.60887,5.48063],[-75.6088,5.48066],[-75.60873,5.4807],[-75.60868,5.48076],[-75.60863,5.48082],[-75.6086,5.4809],[-75.60858,5.48097],[-75.60857,5.48105]]],[[[-75.60642,5.48156],[-75.60643,5.48164],[-75.60645,5.48172],[-75.60648,5.48179],[-75.60653,5.48186],[-75.60658,5.48191],[-75.60665,5.48196],[-75.60672,5.48199],[-75.60679,5.48201],[-75.60687,5.48202],[-75.60695,5.48201],[-75.60703,5.48199],[-75.6071,5.48196],[-75.60716,5.48191],[-75.60722,5.48186],[-75.60726,5.48179],[-75.6073,5.48172],[-75.60732,5.48165],[-75.60732,5.48157],[-75.60732,5.48149],[-75.6073,5.48141],[-75.60726,5.48134],[-75.60722,5.48128],[-75.60716,5.48122],[-75.6071,5.48117],[-75.60703,5.48114],[-75.60695,5.48112],[-75.60687,5.48111],[-75.6068,5.48112],[-75.60672,5.48114],[-75.60665,5.48117],[-75.60658,5.48122],[-75.60653,5.48127],[-75.60648,5.48134],[-75.60645,5.48141],[-75.60643,5.48149],[-75.60642,5.48156]]],[[[-75.60542,5.48379],[-75.60542,5.48387],[-75.60544,5.48394],[-75.60548,5.48401],[-75.60552,5.48408],[-75.60558,5.48413],[-75.60564,5.48418],[-75.60571,5.48421],[-75.60579,5.48423],[-75.60587,5.48424],[-75.60594,5.48423],[-75.60602,5.48421],[-75.60609,5.48418],[-75.60616,5.48414],[-75.60621,5.48408],[-75.60626,5.48402],[-75.60629,5.48394],[-75.60631,5.48387],[-75.60632,5.48379],[-75.60631,5.48371],[-75.60629,5.48364],[-75.60626,5.48356],[-75.60621,5.4835],[-75.60616,5.48344],[-75.60609,5.4834],[-75.60602,5.48336],[-75.60595,5.48334],[-75.60587,5.48334],[-75.60579,5.48334],[-75.60571,5.48336],[-75.60564,5.4834],[-75.60558,5.48344],[-75.60552,5.4835],[-75.60548,5.48356],[-75.60544,5.48363],[-75.60542,5.48371],[-75.60542,5.48379]]],[[[-75.60738,5.48398],[-75.60739,5.48406],[-75.60741,5.48413],[-75.60744,5.4842],[-75.60748,5.48427],[-75.60754,5.48433],[-75.6076,5.48437],[-75.60767,5.4844],[-75.60775,5.48442],[-75.60783,5.48443],[-75.60791,5.48442],[-75.60798,5.4844],[-75.60805,5.48437],[-75.60812,5.48433],[-75.60817,5.48427],[-75.60822,5.48421],[-75.60825,5.48414],[-75.60827,5.48406],[-75.60828,5.48398],[-75.60827,5.4839],[-75.60825,5.48383],[-75.60822,5.48375],[-75.60818,5.48369],[-75.60812,5.48363],[-75.60806,5.48359],[-75.60799,5.48356],[-75.60791,5.48353],[-75.60783,5.48353],[-75.60775,5.48353],[-75.60768,5.48355],[-75.60761,5.48359],[-75.60754,5.48363],[-75.60748,5.48369],[-75.60744,5.48375],[-75.60741,5.48382],[-75.60739,5.4839],[-75.60738,5.48398]]],[[[-75.61055,5.47408],[-75.61056,5.47416],[-75.61058,5.47423],[-75.61061,5.47431],[-75.61066,5.47437],[-75.61071,5.47443],[-75.61077,5.47447],[-75.61085,5.4745],[-75.61092,5.47453],[-75.611,5.47453],[-75.61108,5.47453],[-75.61115,5.47451],[-75.61123,5.47447],[-75.61129,5.47443],[-75.61135,5.47437],[-75.61139,5.47431],[-75.61142,5.47424],[-75.61145,5.47416],[-75.61145,5.47408],[-75.61145,5.474],[-75.61143,5.47393],[-75.61139,5.47386],[-75.61135,5.47379],[-75.61129,5.47373],[-75.61123,5.47369],[-75.61116,5.47366],[-75.61108,5.47364],[-75.611,5.47363],[-75.61092,5.47364],[-75.61085,5.47366],[-75.61078,5.47369],[-75.61071,5.47373],[-75.61066,5.47379],[-75.61061,5.47385],[-75.61058,5.47392],[-75.61056,5.474],[-75.61055,5.47408]]],[[[-75.60874,5.47385],[-75.60874,5.47393],[-75.60876,5.47401],[-75.6088,5.47408],[-75.60884,5.47414],[-75.6089,5.4742],[-75.60896,5.47424],[-75.60903,5.47428],[-75.60911,5.4743],[-75.60919,5.47431],[-75.60926,5.4743],[-75.60934,5.47428],[-75.60941,5.47425],[-75.60948,5.4742],[-75.60953,5.47414],[-75.60958,5.47408],[-75.60961,5.47401],[-75.60963,5.47393],[-75.60964,5.47385],[-75.60963,5.47378],[-75.60961,5.4737],[-75.60958,5.47363],[-75.60953,5.47356],[-75.60948,5.47351],[-75.60941,5.47346],[-75.60934,5.47343],[-75.60927,5.47341],[-75.60919,5.4734],[-75.60911,5.47341],[-75.60903,5.47343],[-75.60896,5.47346],[-75.6089,5.47351],[-75.60884,5.47356],[-75.6088,5.47363],[-75.60876,5.4737],[-75.60874,5.47377],[-75.60874,5.47385]]],[[[-75.60066,5.47495],[-75.60067,5.47502],[-75.60069,5.4751],[-75.60072,5.47517],[-75.60077,5.47524],[-75.60082,5.47529],[-75.60089,5.47534],[-75.60096,5.47537],[-75.60103,5.47539],[-75.60111,5.4754],[-75.60119,5.47539],[-75.60127,5.47537],[-75.60134,5.47534],[-75.6014,5.47529],[-75.60146,5.47524],[-75.6015,5.47517],[-75.60154,5.4751],[-75.60156,5.47503],[-75.60156,5.47495],[-75.60156,5.47487],[-75.60154,5.47479],[-75.6015,5.47472],[-75.60146,5.47466],[-75.6014,5.4746],[-75.60134,5.47456],[-75.60127,5.47452],[-75.60119,5.4745],[-75.60111,5.47449],[-75.60104,5.4745],[-75.60096,5.47452],[-75.60089,5.47455],[-75.60082,5.4746],[-75.60077,5.47466],[-75.60072,5.47472],[-75.60069,5.47479],[-75.60067,5.47487],[-75.60066,5.47495]]],[[[-75.60076,5.47854],[-75.60077,5.47862],[-75.60079,5.4787],[-75.60082,5.47877],[-75.60087,5.47884],[-75.60092,5.47889],[-75.60099,5.47894],[-75.60106,5.47897],[-75.60114,5.47899],[-75.60121,5.479],[-75.60129,5.47899],[-75.60137,5.47897],[-75.60144,5.47894],[-75.6015,5.47889],[-75.60156,5.47884],[-75.60161,5.47877],[-75.60164,5.4787],[-75.60166,5.47863],[-75.60167,5.47855],[-75.60166,5.47847],[-75.60164,5.47839],[-75.60161,5.47832],[-75.60156,5.47826],[-75.60151,5.4782],[-75.60144,5.47816],[-75.60137,5.47812],[-75.60129,5.4781],[-75.60122,5.47809],[-75.60114,5.4781],[-75.60106,5.47812],[-75.60099,5.47815],[-75.60093,5.4782],[-75.60087,5.47825],[-75.60083,5.47832],[-75.60079,5.47839],[-75.60077,5.47847],[-75.60076,5.47854]]],[[[-75.59938,5.48314],[-75.59939,5.48322],[-75.59941,5.4833],[-75.59944,5.48337],[-75.59949,5.48343],[-75.59954,5.48349],[-75.59961,5.48353],[-75.59968,5.48357],[-75.59975,5.48359],[-75.59983,5.4836],[-75.59991,5.48359],[-75.59999,5.48357],[-75.60006,5.48354],[-75.60012,5.48349],[-75.60018,5.48343],[-75.60022,5.48337],[-75.60026,5.4833],[-75.60028,5.48322],[-75.60028,5.48314],[-75.60028,5.48307],[-75.60026,5.48299],[-75.60022,5.48292],[-75.60018,5.48285],[-75.60012,5.4828],[-75.60006,5.48275],[-75.59999,5.48272],[-75.59991,5.4827],[-75.59983,5.48269],[-75.59976,5.4827],[-75.59968,5.48272],[-75.59961,5.48275],[-75.59954,5.4828],[-75.59949,5.48285],[-75.59944,5.48292],[-75.59941,5.48299],[-75.59939,5.48306],[-75.59938,5.48314]]],[[[-75.59783,5.48318],[-75.59783,5.48325],[-75.59785,5.48333],[-75.59789,5.4834],[-75.59793,5.48347],[-75.59799,5.48352],[-75.59805,5.48357],[-75.59812,5.4836],[-75.5982,5.48362],[-75.59828,5.48363],[-75.59836,5.48362],[-75.59843,5.4836],[-75.5985,5.48357],[-75.59857,5.48352],[-75.59862,5.48347],[-75.59867,5.4834],[-75.5987,5.48333],[-75.59872,5.48326],[-75.59873,5.48318],[-75.59872,5.4831],[-75.5987,5.48302],[-75.59867,5.48295],[-75.59862,5.48289],[-75.59857,5.48283],[-75.5985,5.48279],[-75.59843,5.48275],[-75.59836,5.48273],[-75.59828,5.48272],[-75.5982,5.48273],[-75.59813,5.48275],[-75.59805,5.48278],[-75.59799,5.48283],[-75.59793,5.48289],[-75.59789,5.48295],[-75.59786,5.48302],[-75.59783,5.4831],[-75.59783,5.48318]]],[[[-75.59262,5.47808],[-75.59263,5.47816],[-75.59265,5.47823],[-75.59268,5.47831],[-75.59272,5.47837],[-75.59278,5.47843],[-75.59284,5.47847],[-75.59291,5.4785],[-75.59299,5.47853],[-75.59307,5.47853],[-75.59315,5.47853],[-75.59322,5.47851],[-75.59329,5.47847],[-75.59336,5.47843],[-75.59341,5.47837],[-75.59346,5.47831],[-75.59349,5.47824],[-75.59351,5.47816],[-75.59352,5.47808],[-75.59351,5.478],[-75.59349,5.47793],[-75.59346,5.47786],[-75.59342,5.47779],[-75.59336,5.47773],[-75.5933,5.47769],[-75.59323,5.47766],[-75.59315,5.47764],[-75.59307,5.47763],[-75.59299,5.47764],[-75.59292,5.47766],[-75.59285,5.47769],[-75.59278,5.47773],[-75.59273,5.47779],[-75.59268,5.47785],[-75.59265,5.47792],[-75.59263,5.478],[-75.59262,5.47808]]],[[[-75.59125,5.47759],[-75.59126,5.47767],[-75.59128,5.47775],[-75.59131,5.47782],[-75.59136,5.47788],[-75.59141,5.47794],[-75.59147,5.47799],[-75.59155,5.47802],[-75.59162,5.47804],[-75.5917,5.47805],[-75.59178,5.47804],[-75.59185,5.47802],[-75.59193,5.47799],[-75.59199,5.47794],[-75.59205,5.47789],[-75.59209,5.47782],[-75.59212,5.47775],[-75.59215,5.47767],[-75.59215,5.4776],[-75.59215,5.47752],[-75.59213,5.47744],[-75.59209,5.47737],[-75.59205,5.47731],[-75.59199,5.47725],[-75.59193,5.4772],[-75.59186,5.47717],[-75.59178,5.47715],[-75.5917,5.47714],[-75.59162,5.47715],[-75.59155,5.47717],[-75.59148,5.4772],[-75.59141,5.47725],[-75.59136,5.4773],[-75.59131,5.47737],[-75.59128,5.47744],[-75.59126,5.47752],[-75.59125,5.47759]]],[[[-75.58867,5.47417],[-75.58867,5.47425],[-75.58869,5.47433],[-75.58873,5.4744],[-75.58877,5.47446],[-75.58883,5.47452],[-75.58889,5.47457],[-75.58896,5.4746],[-75.58904,5.47462],[-75.58912,5.47463],[-75.5892,5.47462],[-75.58927,5.4746],[-75.58934,5.47457],[-75.58941,5.47452],[-75.58946,5.47447],[-75.58951,5.4744],[-75.58954,5.47433],[-75.58956,5.47425],[-75.58957,5.47418],[-75.58956,5.4741],[-75.58954,5.47402],[-75.58951,5.47395],[-75.58946,5.47389],[-75.58941,5.47383],[-75.58934,5.47378],[-75.58927,5.47375],[-75.5892,5.47373],[-75.58912,5.47372],[-75.58904,5.47373],[-75.58896,5.47375],[-75.58889,5.47378],[-75.58883,5.47383],[-75.58877,5.47388],[-75.58873,5.47395],[-75.58869,5.47402],[-75.58867,5.4741],[-75.58867,5.47417]]],[[[-75.59689,5.48737],[-75.5969,5.48744],[-75.59692,5.48752],[-75.59695,5.48759],[-75.597,5.48766],[-75.59705,5.48771],[-75.59712,5.48776],[-75.59719,5.48779],[-75.59726,5.48781],[-75.59734,5.48782],[-75.59742,5.48781],[-75.5975,5.48779],[-75.59757,5.48776],[-75.59763,5.48771],[-75.59769,5.48766],[-75.59773,5.48759],[-75.59777,5.48752],[-75.59779,5.48745],[-75.59779,5.48737],[-75.59779,5.48729],[-75.59777,5.48721],[-75.59773,5.48714],[-75.59769,5.48708],[-75.59763,5.48702],[-75.59757,5.48698],[-75.5975,5.48694],[-75.59742,5.48692],[-75.59734,5.48692],[-75.59727,5.48692],[-75.59719,5.48694],[-75.59712,5.48698],[-75.59705,5.48702],[-75.597,5.48708],[-75.59695,5.48714],[-75.59692,5.48721],[-75.5969,5.48729],[-75.59689,5.48737]]],[[[-75.59452,5.48825],[-75.59453,5.48833],[-75.59455,5.48841],[-75.59458,5.48848],[-75.59462,5.48854],[-75.59468,5.4886],[-75.59474,5.48864],[-75.59482,5.48868],[-75.59489,5.4887],[-75.59497,5.4887],[-75.59505,5.4887],[-75.59512,5.48868],[-75.59519,5.48864],[-75.59526,5.4886],[-75.59532,5.48854],[-75.59536,5.48848],[-75.59539,5.48841],[-75.59541,5.48833],[-75.59542,5.48825],[-75.59541,5.48817],[-75.59539,5.4881],[-75.59536,5.48803],[-75.59532,5.48796],[-75.59526,5.48791],[-75.5952,5.48786],[-75.59513,5.48783],[-75.59505,5.48781],[-75.59497,5.4878],[-75.59489,5.48781],[-75.59482,5.48783],[-75.59475,5.48786],[-75.59468,5.4879],[-75.59463,5.48796],[-75.59458,5.48802],[-75.59455,5.4881],[-75.59453,5.48817],[-75.59452,5.48825]]],[[[-75.59241,5.48769],[-75.59242,5.48777],[-75.59244,5.48784],[-75.59247,5.48792],[-75.59251,5.48798],[-75.59257,5.48804],[-75.59263,5.48808],[-75.59271,5.48811],[-75.59278,5.48814],[-75.59286,5.48814],[-75.59294,5.48814],[-75.59301,5.48812],[-75.59309,5.48808],[-75.59315,5.48804],[-75.59321,5.48798],[-75.59325,5.48792],[-75.59328,5.48785],[-75.59331,5.48777],[-75.59331,5.48769],[-75.59331,5.48761],[-75.59329,5.48754],[-75.59325,5.48747],[-75.59321,5.4874],[-75.59315,5.48734],[-75.59309,5.4873],[-75.59302,5.48727],[-75.59294,5.48725],[-75.59286,5.48724],[-75.59278,5.48724],[-75.59271,5.48726],[-75.59264,5.4873],[-75.59257,5.48734],[-75.59252,5.4874],[-75.59247,5.48746],[-75.59244,5.48753],[-75.59242,5.48761],[-75.59241,5.48769]]],[[[-75.5893,5.48787],[-75.58931,5.48795],[-75.58933,5.48802],[-75.58936,5.48809],[-75.5894,5.48816],[-75.58946,5.48821],[-75.58952,5.48826],[-75.5896,5.48829],[-75.58967,5.48831],[-75.58975,5.48832],[-75.58983,5.48831],[-75.5899,5.48829],[-75.58997,5.48826],[-75.59004,5.48821],[-75.5901,5.48816],[-75.59014,5.48809],[-75.59017,5.48802],[-75.59019,5.48795],[-75.5902,5.48787],[-75.59019,5.48779],[-75.59017,5.48771],[-75.59014,5.48764],[-75.5901,5.48758],[-75.59004,5.48752],[-75.58998,5.48748],[-75.58991,5.48744],[-75.58983,5.48742],[-75.58975,5.48742],[-75.58967,5.48742],[-75.5896,5.48744],[-75.58953,5.48748],[-75.58946,5.48752],[-75.58941,5.48758],[-75.58936,5.48764],[-75.58933,5.48771],[-75.58931,5.48779],[-75.5893,5.48787]]],[[[-75.59081,5.49032],[-75.59082,5.4904],[-75.59084,5.49047],[-75.59087,5.49055],[-75.59092,5.49061],[-75.59097,5.49067],[-75.59104,5.49071],[-75.59111,5.49074],[-75.59118,5.49077],[-75.59126,5.49077],[-75.59134,5.49077],[-75.59142,5.49075],[-75.59149,5.49071],[-75.59155,5.49067],[-75.59161,5.49061],[-75.59165,5.49055],[-75.59169,5.49048],[-75.59171,5.4904],[-75.59171,5.49032],[-75.59171,5.49024],[-75.59169,5.49017],[-75.59165,5.4901],[-75.59161,5.49003],[-75.59155,5.48998],[-75.59149,5.48993],[-75.59142,5.4899],[-75.59134,5.48988],[-75.59126,5.48987],[-75.59119,5.48988],[-75.59111,5.4899],[-75.59104,5.48993],[-75.59097,5.48997],[-75.59092,5.49003],[-75.59087,5.49009],[-75.59084,5.49016],[-75.59082,5.49024],[-75.59081,5.49032]]],[[[-75.59904,5.48637],[-75.59905,5.48645],[-75.59907,5.48652],[-75.5991,5.4866],[-75.59915,5.48666],[-75.5992,5.48672],[-75.59927,5.48676],[-75.59934,5.4868],[-75.59941,5.48682],[-75.59949,5.48682],[-75.59957,5.48682],[-75.59965,5.4868],[-75.59972,5.48676],[-75.59978,5.48672],[-75.59984,5.48666],[-75.59988,5.4866],[-75.59992,5.48653],[-75.59994,5.48645],[-75.59994,5.48637],[-75.59994,5.48629],[-75.59992,5.48622],[-75.59988,5.48615],[-75.59984,5.48608],[-75.59978,5.48603],[-75.59972,5.48598],[-75.59965,5.48595],[-75.59957,5.48593],[-75.59949,5.48592],[-75.59942,5.48593],[-75.59934,5.48595],[-75.59927,5.48598],[-75.5992,5.48602],[-75.59915,5.48608],[-75.5991,5.48614],[-75.59907,5.48622],[-75.59905,5.48629],[-75.59904,5.48637]]],[[[-75.60275,5.4859],[-75.60275,5.48598],[-75.60277,5.48605],[-75.60281,5.48612],[-75.60285,5.48619],[-75.60291,5.48624],[-75.60297,5.48629],[-75.60304,5.48632],[-75.60312,5.48634],[-75.6032,5.48635],[-75.60327,5.48634],[-75.60335,5.48632],[-75.60342,5.48629],[-75.60349,5.48624],[-75.60354,5.48619],[-75.60359,5.48612],[-75.60362,5.48605],[-75.60364,5.48598],[-75.60365,5.4859],[-75.60364,5.48582],[-75.60362,5.48574],[-75.60359,5.48567],[-75.60354,5.48561],[-75.60349,5.48555],[-75.60342,5.48551],[-75.60335,5.48547],[-75.60328,5.48545],[-75.6032,5.48545],[-75.60312,5.48545],[-75.60304,5.48547],[-75.60297,5.48551],[-75.60291,5.48555],[-75.60285,5.48561],[-75.60281,5.48567],[-75.60277,5.48574],[-75.60275,5.48582],[-75.60275,5.4859]]],[[[-75.59996,5.48726],[-75.59997,5.48734],[-75.59999,5.48742],[-75.60002,5.48749],[-75.60007,5.48755],[-75.60013,5.48761],[-75.60019,5.48765],[-75.60026,5.48769],[-75.60034,5.48771],[-75.60041,5.48772],[-75.60049,5.48771],[-75.60057,5.48769],[-75.60064,5.48766],[-75.60071,5.48761],[-75.60076,5.48756],[-75.60081,5.48749],[-75.60084,5.48742],[-75.60086,5.48734],[-75.60087,5.48726],[-75.60086,5.48719],[-75.60084,5.48711],[-75.60081,5.48704],[-75.60076,5.48697],[-75.60071,5.48692],[-75.60064,5.48687],[-75.60057,5.48684],[-75.6005,5.48682],[-75.60042,5.48681],[-75.60034,5.48682],[-75.60026,5.48684],[-75.60019,5.48687],[-75.60013,5.48692],[-75.60007,5.48697],[-75.60003,5.48704],[-75.59999,5.48711],[-75.59997,5.48718],[-75.59996,5.48726]]],[[[-75.61222,5.48922],[-75.61222,5.4893],[-75.61224,5.48938],[-75.61228,5.48945],[-75.61232,5.48951],[-75.61238,5.48957],[-75.61244,5.48961],[-75.61251,5.48965],[-75.61259,5.48967],[-75.61267,5.48968],[-75.61274,5.48967],[-75.61282,5.48965],[-75.61289,5.48962],[-75.61296,5.48957],[-75.61301,5.48951],[-75.61306,5.48945],[-75.61309,5.48938],[-75.61311,5.4893],[-75.61312,5.48922],[-75.61311,5.48915],[-75.61309,5.48907],[-75.61306,5.489],[-75.61301,5.48893],[-75.61296,5.48888],[-75.61289,5.48883],[-75.61282,5.4888],[-75.61275,5.48878],[-75.61267,5.48877],[-75.61259,5.48878],[-75.61251,5.4888],[-75.61244,5.48883],[-75.61238,5.48888],[-75.61232,5.48893],[-75.61228,5.489],[-75.61224,5.48907],[-75.61222,5.48914],[-75.61222,5.48922]]],[[[-75.60818,5.48892],[-75.60819,5.48899],[-75.60821,5.48907],[-75.60824,5.48914],[-75.60829,5.48921],[-75.60834,5.48926],[-75.60841,5.48931],[-75.60848,5.48934],[-75.60855,5.48936],[-75.60863,5.48937],[-75.60871,5.48936],[-75.60879,5.48934],[-75.60886,5.48931],[-75.60892,5.48926],[-75.60898,5.48921],[-75.60902,5.48914],[-75.60906,5.48907],[-75.60908,5.489],[-75.60908,5.48892],[-75.60908,5.48884],[-75.60906,5.48876],[-75.60902,5.48869],[-75.60898,5.48863],[-75.60892,5.48857],[-75.60886,5.48853],[-75.60879,5.48849],[-75.60871,5.48847],[-75.60863,5.48846],[-75.60856,5.48847],[-75.60848,5.48849],[-75.60841,5.48852],[-75.60834,5.48857],[-75.60829,5.48863],[-75.60824,5.48869],[-75.60821,5.48876],[-75.60819,5.48884],[-75.60818,5.48892]]],[[[-75.60638,5.4895],[-75.60637,5.4895],[-75.60629,5.48952],[-75.60622,5.48956],[-75.60616,5.4896],[-75.6061,5.48966],[-75.60605,5.48972],[-75.60602,5.48979],[-75.606,5.48987],[-75.60599,5.48995],[-75.606,5.49003],[-75.60602,5.4901],[-75.60605,5.49018],[-75.6061,5.49024],[-75.60615,5.4903],[-75.60622,5.49034],[-75.60629,5.49037],[-75.60637,5.4904],[-75.60644,5.4904],[-75.60652,5.4904],[-75.6066,5.49038],[-75.60667,5.49034],[-75.60673,5.4903],[-75.60679,5.49024],[-75.60684,5.49018],[-75.60687,5.49011],[-75.60688,5.49006],[-75.60689,5.49006],[-75.60697,5.49004],[-75.60704,5.49001],[-75.60711,5.48996],[-75.60716,5.48991],[-75.60721,5.48984],[-75.60724,5.48977],[-75.60726,5.4897],[-75.60727,5.48962],[-75.60726,5.48954],[-75.60724,5.48946],[-75.60721,5.48939],[-75.60716,5.48933],[-75.60711,5.48927],[-75.60704,5.48923],[-75.60697,5.48919],[-75.6069,5.48917],[-75.60682,5.48917],[-75.60674,5.48917],[-75.60666,5.48919],[-75.60659,5.48923],[-75.60653,5.48927],[-75.60647,5.48933],[-75.60643,5.48939],[-75.60639,5.48946],[-75.60638,5.4895]]],[[[-75.60502,5.49277],[-75.60503,5.49285],[-75.60505,5.49292],[-75.60508,5.49299],[-75.60513,5.49306],[-75.60518,5.49311],[-75.60525,5.49316],[-75.60532,5.49319],[-75.6054,5.49321],[-75.60547,5.49322],[-75.60555,5.49321],[-75.60563,5.49319],[-75.6057,5.49316],[-75.60576,5.49311],[-75.60582,5.49306],[-75.60587,5.49299],[-75.6059,5.49292],[-75.60592,5.49285],[-75.60593,5.49277],[-75.60592,5.49269],[-75.6059,5.49261],[-75.60587,5.49254],[-75.60582,5.49248],[-75.60577,5.49242],[-75.6057,5.49238],[-75.60563,5.49234],[-75.60555,5.49232],[-75.60548,5.49232],[-75.6054,5.49232],[-75.60532,5.49234],[-75.60525,5.49238],[-75.60519,5.49242],[-75.60513,5.49248],[-75.60509,5.49254],[-75.60505,5.49261],[-75.60503,5.49269],[-75.60502,5.49277]]],[[[-75.60603,5.49162],[-75.60603,5.4917],[-75.60605,5.49177],[-75.60609,5.49184],[-75.60613,5.49191],[-75.60619,5.49197],[-75.60625,5.49201],[-75.60632,5.49204],[-75.6064,5.49206],[-75.60648,5.49207],[-75.60656,5.49207],[-75.60663,5.49205],[-75.6067,5.49201],[-75.60677,5.49197],[-75.60682,5.49191],[-75.60687,5.49185],[-75.6069,5.49178],[-75.60692,5.4917],[-75.60693,5.49162],[-75.60692,5.49154],[-75.6069,5.49147],[-75.60687,5.49139],[-75.60682,5.49133],[-75.60677,5.49127],[-75.6067,5.49123],[-75.60663,5.4912],[-75.60656,5.49117],[-75.60648,5.49117],[-75.6064,5.49117],[-75.60632,5.49119],[-75.60625,5.49123],[-75.60619,5.49127],[-75.60613,5.49133],[-75.60609,5.49139],[-75.60605,5.49146],[-75.60603,5.49154],[-75.60603,5.49162]]],[[[-75.60903,5.49088],[-75.60903,5.49096],[-75.60905,5.49104],[-75.60909,5.49111],[-75.60913,5.49117],[-75.60919,5.49123],[-75.60925,5.49128],[-75.60932,5.49131],[-75.6094,5.49133],[-75.60948,5.49134],[-75.60956,5.49133],[-75.60963,5.49131],[-75.6097,5.49128],[-75.60977,5.49123],[-75.60982,5.49118],[-75.60987,5.49111],[-75.6099,5.49104],[-75.60992,5.49096],[-75.60993,5.49089],[-75.60992,5.49081],[-75.6099,5.49073],[-75.60987,5.49066],[-75.60983,5.4906],[-75.60977,5.49054],[-75.60971,5.49049],[-75.60963,5.49046],[-75.60956,5.49044],[-75.60948,5.49043],[-75.6094,5.49044],[-75.60933,5.49046],[-75.60925,5.49049],[-75.60919,5.49054],[-75.60913,5.49059],[-75.60909,5.49066],[-75.60906,5.49073],[-75.60904,5.49081],[-75.60903,5.49088]]],[[[-75.6038,5.49347],[-75.60381,5.49355],[-75.60383,5.49362],[-75.60386,5.49369],[-75.60391,5.49376],[-75.60396,5.49382],[-75.60403,5.49386],[-75.6041,5.49389],[-75.60417,5.49391],[-75.60425,5.49392],[-75.60433,5.49391],[-75.6044,5.49389],[-75.60448,5.49386],[-75.60454,5.49382],[-75.6046,5.49376],[-75.60464,5.4937],[-75.60468,5.49363],[-75.6047,5.49355],[-75.6047,5.49347],[-75.6047,5.49339],[-75.60468,5.49332],[-75.60464,5.49324],[-75.6046,5.49318],[-75.60454,5.49312],[-75.60448,5.49308],[-75.60441,5.49305],[-75.60433,5.49302],[-75.60425,5.49302],[-75.60417,5.49302],[-75.6041,5.49304],[-75.60403,5.49308],[-75.60396,5.49312],[-75.60391,5.49318],[-75.60386,5.49324],[-75.60383,5.49331],[-75.60381,5.49339],[-75.6038,5.49347]]],[[[-75.59784,5.49394],[-75.59784,5.49401],[-75.59786,5.49409],[-75.5979,5.49416],[-75.59794,5.49423],[-75.598,5.49428],[-75.59806,5.49433],[-75.59813,5.49436],[-75.59821,5.49438],[-75.59829,5.49439],[-75.59837,5.49438],[-75.59844,5.49436],[-75.59851,5.49433],[-75.59858,5.49428],[-75.59863,5.49423],[-75.59868,5.49416],[-75.59871,5.49409],[-75.59873,5.49402],[-75.59874,5.49394],[-75.59873,5.49386],[-75.59871,5.49378],[-75.59868,5.49371],[-75.59864,5.49365],[-75.59858,5.49359],[-75.59852,5.49355],[-75.59844,5.49351],[-75.59837,5.49349],[-75.59829,5.49349],[-75.59821,5.49349],[-75.59814,5.49351],[-75.59806,5.49355],[-75.598,5.49359],[-75.59794,5.49365],[-75.5979,5.49371],[-75.59787,5.49378],[-75.59784,5.49386],[-75.59784,5.49394]]],[[[-75.60868,5.49678],[-75.60869,5.49686],[-75.60871,5.49694],[-75.60874,5.49701],[-75.60879,5.49707],[-75.60884,5.49713],[-75.6089,5.49717],[-75.60898,5.49721],[-75.60905,5.49723],[-75.60913,5.49724],[-75.60921,5.49723],[-75.60928,5.49721],[-75.60936,5.49718],[-75.60942,5.49713],[-75.60948,5.49708],[-75.60952,5.49701],[-75.60955,5.49694],[-75.60958,5.49686],[-75.60958,5.49679],[-75.60958,5.49671],[-75.60956,5.49663],[-75.60952,5.49656],[-75.60948,5.49649],[-75.60942,5.49644],[-75.60936,5.49639],[-75.60929,5.49636],[-75.60921,5.49634],[-75.60913,5.49633],[-75.60905,5.49634],[-75.60898,5.49636],[-75.60891,5.49639],[-75.60884,5.49644],[-75.60879,5.49649],[-75.60874,5.49656],[-75.60871,5.49663],[-75.60869,5.4967],[-75.60868,5.49678]]],[[[-75.59834,5.49913],[-75.59835,5.49921],[-75.59837,5.49929],[-75.5984,5.49936],[-75.59845,5.49942],[-75.5985,5.49948],[-75.59857,5.49952],[-75.59864,5.49956],[-75.59871,5.49958],[-75.59879,5.49959],[-75.59887,5.49958],[-75.59895,5.49956],[-75.59902,5.49953],[-75.59908,5.49948],[-75.59914,5.49942],[-75.59918,5.49936],[-75.59922,5.49929],[-75.59924,5.49921],[-75.59925,5.49913],[-75.59924,5.49906],[-75.59922,5.49898],[-75.59919,5.49891],[-75.59914,5.49884],[-75.59909,5.49879],[-75.59902,5.49874],[-75.59895,5.49871],[-75.59887,5.49869],[-75.5988,5.49868],[-75.59872,5.49869],[-75.59864,5.49871],[-75.59857,5.49874],[-75.59851,5.49879],[-75.59845,5.49884],[-75.5984,5.49891],[-75.59837,5.49898],[-75.59835,5.49905],[-75.59834,5.49913]]],[[[-75.59878,5.50385],[-75.59878,5.50392],[-75.5988,5.504],[-75.59884,5.50407],[-75.59888,5.50414],[-75.59894,5.50419],[-75.599,5.50424],[-75.59907,5.50427],[-75.59915,5.50429],[-75.59923,5.5043],[-75.5993,5.50429],[-75.59938,5.50427],[-75.59945,5.50424],[-75.59952,5.50419],[-75.59957,5.50414],[-75.59962,5.50407],[-75.59965,5.504],[-75.59967,5.50393],[-75.59968,5.50385],[-75.59967,5.50377],[-75.59965,5.50369],[-75.59962,5.50362],[-75.59957,5.50356],[-75.59952,5.5035],[-75.59945,5.50346],[-75.59938,5.50342],[-75.59931,5.5034],[-75.59923,5.50339],[-75.59915,5.5034],[-75.59907,5.50342],[-75.599,5.50345],[-75.59894,5.5035],[-75.59888,5.50356],[-75.59884,5.50362],[-75.5988,5.50369],[-75.59878,5.50377],[-75.59878,5.50385]]],[[[-75.59897,5.5021],[-75.59897,5.50218],[-75.59899,5.50226],[-75.59903,5.50233],[-75.59907,5.50239],[-75.59913,5.50245],[-75.59919,5.50249],[-75.59926,5.50253],[-75.59934,5.50255],[-75.59942,5.50256],[-75.59949,5.50255],[-75.59957,5.50253],[-75.59964,5.5025],[-75.59971,5.50245],[-75.59976,5.50239],[-75.59981,5.50233],[-75.59984,5.50226],[-75.59986,5.50218],[-75.59987,5.5021],[-75.59986,5.50203],[-75.59984,5.50195],[-75.59981,5.50188],[-75.59976,5.50181],[-75.59971,5.50176],[-75.59964,5.50171],[-75.59957,5.50168],[-75.5995,5.50166],[-75.59942,5.50165],[-75.59934,5.50166],[-75.59926,5.50168],[-75.59919,5.50171],[-75.59913,5.50176],[-75.59907,5.50181],[-75.59903,5.50188],[-75.59899,5.50195],[-75.59897,5.50202],[-75.59897,5.5021]]],[[[-75.6113,5.50113],[-75.61131,5.50121],[-75.61133,5.50129],[-75.61136,5.50136],[-75.6114,5.50142],[-75.61146,5.50148],[-75.61152,5.50152],[-75.61159,5.50156],[-75.61167,5.50158],[-75.61175,5.50158],[-75.61183,5.50158],[-75.6119,5.50156],[-75.61197,5.50152],[-75.61204,5.50148],[-75.61209,5.50142],[-75.61214,5.50136],[-75.61217,5.50129],[-75.61219,5.50121],[-75.6122,5.50113],[-75.61219,5.50105],[-75.61217,5.50098],[-75.61214,5.50091],[-75.6121,5.50084],[-75.61204,5.50079],[-75.61198,5.50074],[-75.61191,5.50071],[-75.61183,5.50069],[-75.61175,5.50068],[-75.61167,5.50069],[-75.6116,5.50071],[-75.61153,5.50074],[-75.61146,5.50078],[-75.6114,5.50084],[-75.61136,5.5009],[-75.61133,5.50098],[-75.61131,5.50105],[-75.6113,5.50113]]],[[[-75.60619,5.50138],[-75.60619,5.50146],[-75.60621,5.50153],[-75.60625,5.5016],[-75.60629,5.50167],[-75.60635,5.50172],[-75.60641,5.50177],[-75.60648,5.5018],[-75.60656,5.50182],[-75.60664,5.50183],[-75.60672,5.50182],[-75.60679,5.5018],[-75.60686,5.50177],[-75.60693,5.50173],[-75.60698,5.50167],[-75.60703,5.50161],[-75.60706,5.50153],[-75.60708,5.50146],[-75.60709,5.50138],[-75.60708,5.5013],[-75.60706,5.50123],[-75.60703,5.50115],[-75.60699,5.50109],[-75.60693,5.50103],[-75.60687,5.50099],[-75.60679,5.50095],[-75.60672,5.50093],[-75.60664,5.50093],[-75.60656,5.50093],[-75.60649,5.50095],[-75.60641,5.50099],[-75.60635,5.50103],[-75.60629,5.50109],[-75.60625,5.50115],[-75.60622,5.50122],[-75.6062,5.5013],[-75.60619,5.50138]]],[[[-75.60304,5.50256],[-75.60304,5.50264],[-75.60306,5.50271],[-75.6031,5.50278],[-75.60314,5.50285],[-75.6032,5.5029],[-75.60326,5.50295],[-75.60333,5.50298],[-75.60341,5.503],[-75.60349,5.50301],[-75.60357,5.503],[-75.60364,5.50298],[-75.60371,5.50295],[-75.60378,5.50291],[-75.60383,5.50285],[-75.60388,5.50279],[-75.60391,5.50271],[-75.60393,5.50264],[-75.60394,5.50256],[-75.60393,5.50248],[-75.60391,5.5024],[-75.60388,5.50233],[-75.60383,5.50227],[-75.60378,5.50221],[-75.60372,5.50217],[-75.60364,5.50213],[-75.60357,5.50211],[-75.60349,5.50211],[-75.60341,5.50211],[-75.60334,5.50213],[-75.60326,5.50217],[-75.6032,5.50221],[-75.60314,5.50227],[-75.6031,5.50233],[-75.60307,5.5024],[-75.60304,5.50248],[-75.60304,5.50256]]],[[[-75.59637,5.50543],[-75.59637,5.50551],[-75.59639,5.50559],[-75.59643,5.50566],[-75.59647,5.50573],[-75.59653,5.50578],[-75.59659,5.50583],[-75.59666,5.50586],[-75.59674,5.50588],[-75.59682,5.50589],[-75.59689,5.50588],[-75.59697,5.50586],[-75.59704,5.50583],[-75.59711,5.50578],[-75.59716,5.50573],[-75.59721,5.50566],[-75.59724,5.50559],[-75.59726,5.50552],[-75.59727,5.50544],[-75.59726,5.50536],[-75.59724,5.50528],[-75.59721,5.50521],[-75.59716,5.50515],[-75.59711,5.50509],[-75.59704,5.50505],[-75.59697,5.50501],[-75.5969,5.50499],[-75.59682,5.50498],[-75.59674,5.50499],[-75.59666,5.50501],[-75.59659,5.50504],[-75.59653,5.50509],[-75.59647,5.50514],[-75.59643,5.50521],[-75.59639,5.50528],[-75.59637,5.50536],[-75.59637,5.50543]]],[[[-75.61166,5.50659],[-75.61166,5.50666],[-75.61168,5.50674],[-75.61172,5.50681],[-75.61176,5.50688],[-75.61182,5.50693],[-75.61188,5.50698],[-75.61195,5.50701],[-75.61203,5.50703],[-75.61211,5.50704],[-75.61218,5.50703],[-75.61226,5.50701],[-75.61233,5.50698],[-75.6124,5.50693],[-75.61245,5.50688],[-75.6125,5.50681],[-75.61253,5.50674],[-75.61255,5.50667],[-75.61256,5.50659],[-75.61255,5.50651],[-75.61253,5.50643],[-75.6125,5.50636],[-75.61245,5.5063],[-75.6124,5.50624],[-75.61233,5.5062],[-75.61226,5.50616],[-75.61219,5.50614],[-75.61211,5.50614],[-75.61203,5.50614],[-75.61195,5.50616],[-75.61188,5.5062],[-75.61182,5.50624],[-75.61176,5.5063],[-75.61172,5.50636],[-75.61168,5.50643],[-75.61166,5.50651],[-75.61166,5.50659]]],[[[-75.61216,5.51056],[-75.61217,5.51064],[-75.61219,5.51071],[-75.61222,5.51078],[-75.61227,5.51085],[-75.61232,5.5109],[-75.61239,5.51095],[-75.61246,5.51098],[-75.61254,5.511],[-75.61261,5.51101],[-75.61269,5.511],[-75.61277,5.51098],[-75.61284,5.51095],[-75.6129,5.51091],[-75.61296,5.51085],[-75.61301,5.51079],[-75.61304,5.51071],[-75.61306,5.51064],[-75.61307,5.51056],[-75.61306,5.51048],[-75.61304,5.51041],[-75.61301,5.51033],[-75.61296,5.51027],[-75.61291,5.51021],[-75.61284,5.51017],[-75.61277,5.51013],[-75.61269,5.51011],[-75.61262,5.51011],[-75.61254,5.51011],[-75.61246,5.51013],[-75.61239,5.51017],[-75.61233,5.51021],[-75.61227,5.51027],[-75.61223,5.51033],[-75.61219,5.5104],[-75.61217,5.51048],[-75.61216,5.51056]]],[[[-75.59293,5.50398],[-75.59293,5.50406],[-75.59295,5.50413],[-75.59298,5.50421],[-75.59303,5.50427],[-75.59309,5.50433],[-75.59315,5.50437],[-75.59322,5.5044],[-75.5933,5.50443],[-75.59337,5.50443],[-75.59345,5.50443],[-75.59353,5.50441],[-75.5936,5.50437],[-75.59367,5.50433],[-75.59372,5.50427],[-75.59377,5.50421],[-75.5938,5.50414],[-75.59382,5.50406],[-75.59383,5.50398],[-75.59382,5.5039],[-75.5938,5.50383],[-75.59377,5.50376],[-75.59372,5.50369],[-75.59367,5.50363],[-75.5936,5.50359],[-75.59353,5.50356],[-75.59346,5.50354],[-75.59338,5.50353],[-75.5933,5.50353],[-75.59322,5.50356],[-75.59315,5.50359],[-75.59309,5.50363],[-75.59303,5.50369],[-75.59299,5.50375],[-75.59295,5.50382],[-75.59293,5.5039],[-75.59293,5.50398]]],[[[-75.5931,5.51003],[-75.5931,5.51011],[-75.59312,5.51018],[-75.59315,5.51025],[-75.5932,5.51032],[-75.59326,5.51037],[-75.59332,5.51042],[-75.59339,5.51045],[-75.59347,5.51047],[-75.59355,5.51048],[-75.59362,5.51047],[-75.5937,5.51045],[-75.59377,5.51042],[-75.59384,5.51038],[-75.59389,5.51032],[-75.59394,5.51026],[-75.59397,5.51018],[-75.59399,5.51011],[-75.594,5.51003],[-75.59399,5.50995],[-75.59397,5.50988],[-75.59394,5.5098],[-75.59389,5.50974],[-75.59384,5.50968],[-75.59377,5.50964],[-75.5937,5.5096],[-75.59363,5.50958],[-75.59355,5.50958],[-75.59347,5.50958],[-75.59339,5.5096],[-75.59332,5.50964],[-75.59326,5.50968],[-75.5932,5.50974],[-75.59316,5.5098],[-75.59312,5.50987],[-75.5931,5.50995],[-75.5931,5.51003]]],[[[-75.59391,5.50877],[-75.59392,5.50885],[-75.59394,5.50892],[-75.59397,5.50899],[-75.59402,5.50906],[-75.59407,5.50911],[-75.59414,5.50916],[-75.59421,5.50919],[-75.59428,5.50921],[-75.59436,5.50922],[-75.59444,5.50921],[-75.59452,5.50919],[-75.59459,5.50916],[-75.59465,5.50912],[-75.59471,5.50906],[-75.59475,5.509],[-75.59479,5.50892],[-75.59481,5.50885],[-75.59482,5.50877],[-75.59481,5.50869],[-75.59479,5.50862],[-75.59476,5.50854],[-75.59471,5.50848],[-75.59465,5.50842],[-75.59459,5.50838],[-75.59452,5.50834],[-75.59444,5.50832],[-75.59437,5.50832],[-75.59429,5.50832],[-75.59421,5.50834],[-75.59414,5.50838],[-75.59407,5.50842],[-75.59402,5.50848],[-75.59397,5.50854],[-75.59394,5.50861],[-75.59392,5.50869],[-75.59391,5.50877]]],[[[-75.59087,5.51121],[-75.59088,5.51129],[-75.5909,5.51136],[-75.59093,5.51144],[-75.59098,5.5115],[-75.59103,5.51156],[-75.59109,5.5116],[-75.59117,5.51163],[-75.59124,5.51166],[-75.59132,5.51166],[-75.5914,5.51166],[-75.59147,5.51164],[-75.59155,5.5116],[-75.59161,5.51156],[-75.59167,5.5115],[-75.59171,5.51144],[-75.59174,5.51137],[-75.59177,5.51129],[-75.59177,5.51121],[-75.59177,5.51113],[-75.59175,5.51106],[-75.59171,5.51099],[-75.59167,5.51092],[-75.59161,5.51087],[-75.59155,5.51082],[-75.59148,5.51079],[-75.5914,5.51077],[-75.59132,5.51076],[-75.59124,5.51077],[-75.59117,5.51079],[-75.5911,5.51082],[-75.59103,5.51086],[-75.59098,5.51092],[-75.59093,5.51098],[-75.5909,5.51105],[-75.59088,5.51113],[-75.59087,5.51121]]],[[[-75.59193,5.50145],[-75.59194,5.50153],[-75.59196,5.50161],[-75.59199,5.50168],[-75.59204,5.50174],[-75.59209,5.5018],[-75.59216,5.50185],[-75.59223,5.50188],[-75.5923,5.5019],[-75.59238,5.50191],[-75.59246,5.5019],[-75.59254,5.50188],[-75.59261,5.50185],[-75.59267,5.5018],[-75.59273,5.50175],[-75.59277,5.50168],[-75.59281,5.50161],[-75.59283,5.50153],[-75.59283,5.50146],[-75.59283,5.50138],[-75.59281,5.5013],[-75.59277,5.50123],[-75.59273,5.50117],[-75.59267,5.50111],[-75.59261,5.50106],[-75.59254,5.50103],[-75.59246,5.50101],[-75.59238,5.501],[-75.59231,5.50101],[-75.59223,5.50103],[-75.59216,5.50106],[-75.59209,5.50111],[-75.59204,5.50116],[-75.59199,5.50123],[-75.59196,5.5013],[-75.59194,5.50138],[-75.59193,5.50145]]],[[[-75.59085,5.50319],[-75.59086,5.50327],[-75.59088,5.50335],[-75.59091,5.50342],[-75.59096,5.50349],[-75.59101,5.50354],[-75.59108,5.50359],[-75.59115,5.50362],[-75.59123,5.50364],[-75.5913,5.50365],[-75.59138,5.50364],[-75.59146,5.50362],[-75.59153,5.50359],[-75.59159,5.50354],[-75.59165,5.50349],[-75.59169,5.50342],[-75.59173,5.50335],[-75.59175,5.50328],[-75.59176,5.5032],[-75.59175,5.50312],[-75.59173,5.50304],[-75.5917,5.50297],[-75.59165,5.50291],[-75.5916,5.50285],[-75.59153,5.50281],[-75.59146,5.50277],[-75.59138,5.50275],[-75.59131,5.50274],[-75.59123,5.50275],[-75.59115,5.50277],[-75.59108,5.5028],[-75.59102,5.50285],[-75.59096,5.5029],[-75.59091,5.50297],[-75.59088,5.50304],[-75.59086,5.50312],[-75.59085,5.50319]]],[[[-75.60871,5.51404],[-75.60872,5.51412],[-75.60874,5.51419],[-75.60877,5.51426],[-75.60882,5.51433],[-75.60887,5.51438],[-75.60894,5.51443],[-75.60901,5.51446],[-75.60908,5.51448],[-75.60916,5.51449],[-75.60924,5.51448],[-75.60932,5.51446],[-75.60939,5.51443],[-75.60945,5.51438],[-75.60951,5.51433],[-75.60955,5.51426],[-75.60959,5.51419],[-75.60961,5.51412],[-75.60961,5.51404],[-75.60961,5.51396],[-75.60959,5.51388],[-75.60955,5.51381],[-75.60951,5.51375],[-75.60945,5.51369],[-75.60944,5.51368],[-75.60944,5.51367],[-75.60946,5.5136],[-75.60947,5.51352],[-75.60946,5.51344],[-75.60944,5.51336],[-75.60941,5.51329],[-75.60936,5.51323],[-75.60931,5.51317],[-75.60924,5.51313],[-75.60917,5.51309],[-75.6091,5.51307],[-75.60902,5.51307],[-75.60894,5.51307],[-75.60886,5.51309],[-75.60879,5.51313],[-75.60873,5.51317],[-75.60867,5.51323],[-75.60863,5.51329],[-75.60859,5.51336],[-75.60857,5.51344],[-75.60856,5.51352],[-75.60857,5.5136],[-75.60859,5.51367],[-75.60862,5.51374],[-75.60867,5.51381],[-75.60873,5.51386],[-75.60874,5.51388],[-75.60874,5.51388],[-75.60872,5.51396],[-75.60871,5.51404]]],[[[-75.61486,5.51223],[-75.61487,5.51231],[-75.61489,5.51239],[-75.61492,5.51246],[-75.61497,5.51252],[-75.61502,5.51258],[-75.61509,5.51263],[-75.61516,5.51266],[-75.61523,5.51268],[-75.61531,5.51269],[-75.61539,5.51268],[-75.61547,5.51266],[-75.61554,5.51263],[-75.6156,5.51258],[-75.61566,5.51253],[-75.6157,5.51246],[-75.61574,5.51239],[-75.61576,5.51231],[-75.61577,5.51224],[-75.61576,5.51216],[-75.61574,5.51208],[-75.61571,5.51201],[-75.61566,5.51195],[-75.61561,5.51189],[-75.61554,5.51184],[-75.61547,5.51181],[-75.61539,5.51179],[-75.61532,5.51178],[-75.61524,5.51179],[-75.61516,5.51181],[-75.61509,5.51184],[-75.61503,5.51189],[-75.61497,5.51194],[-75.61492,5.51201],[-75.61489,5.51208],[-75.61487,5.51216],[-75.61486,5.51223]]],[[[-75.62009,5.51061],[-75.6201,5.51069],[-75.62012,5.51077],[-75.62015,5.51084],[-75.62019,5.5109],[-75.62025,5.51096],[-75.62031,5.51101],[-75.62038,5.51104],[-75.62046,5.51106],[-75.62054,5.51107],[-75.62062,5.51106],[-75.62069,5.51104],[-75.62076,5.51101],[-75.62083,5.51096],[-75.62088,5.51091],[-75.62093,5.51084],[-75.62096,5.51077],[-75.62098,5.51069],[-75.62099,5.51062],[-75.62098,5.51054],[-75.62096,5.51046],[-75.62093,5.51039],[-75.62089,5.51033],[-75.62083,5.51027],[-75.62077,5.51022],[-75.62069,5.51019],[-75.62062,5.51017],[-75.62054,5.51016],[-75.62046,5.51017],[-75.62039,5.51019],[-75.62031,5.51022],[-75.62025,5.51027],[-75.62019,5.51032],[-75.62015,5.51039],[-75.62012,5.51046],[-75.6201,5.51054],[-75.62009,5.51061]]],[[[-75.61393,5.51527],[-75.61394,5.51535],[-75.61396,5.51543],[-75.61399,5.5155],[-75.61403,5.51556],[-75.61405,5.51558],[-75.61401,5.51557],[-75.61394,5.51556],[-75.61386,5.51557],[-75.61378,5.51559],[-75.61371,5.51562],[-75.61365,5.51567],[-75.61359,5.51572],[-75.61354,5.51579],[-75.61351,5.51586],[-75.61349,5.51594],[-75.61348,5.51602],[-75.61349,5.51609],[-75.61351,5.51617],[-75.61354,5.51624],[-75.61359,5.51631],[-75.61364,5.51636],[-75.61371,5.51641],[-75.61378,5.51644],[-75.61386,5.51646],[-75.61393,5.51647],[-75.61401,5.51646],[-75.61409,5.51644],[-75.61416,5.51641],[-75.61422,5.51636],[-75.61428,5.51631],[-75.61432,5.51624],[-75.61436,5.51617],[-75.61438,5.5161],[-75.61439,5.51602],[-75.61438,5.51594],[-75.61436,5.51586],[-75.61433,5.51579],[-75.61428,5.51573],[-75.61426,5.51571],[-75.6143,5.51572],[-75.61438,5.51573],[-75.61446,5.51572],[-75.61453,5.5157],[-75.61461,5.51567],[-75.61467,5.51562],[-75.61473,5.51557],[-75.61477,5.5155],[-75.6148,5.51543],[-75.61483,5.51535],[-75.61483,5.51528],[-75.61483,5.5152],[-75.61481,5.51512],[-75.61477,5.51505],[-75.61473,5.51499],[-75.61467,5.51493],[-75.61461,5.51488],[-75.61454,5.51485],[-75.61446,5.51483],[-75.61438,5.51482],[-75.6143,5.51483],[-75.61423,5.51485],[-75.61416,5.51488],[-75.61409,5.51493],[-75.61404,5.51498],[-75.61399,5.51505],[-75.61396,5.51512],[-75.61394,5.5152],[-75.61393,5.51527]]],[[[-75.61563,5.5171],[-75.61564,5.51718],[-75.61566,5.51725],[-75.61569,5.51732],[-75.61573,5.51739],[-75.61579,5.51744],[-75.61585,5.51749],[-75.61592,5.51752],[-75.616,5.51754],[-75.61608,5.51755],[-75.61616,5.51754],[-75.61623,5.51752],[-75.6163,5.51749],[-75.61637,5.51744],[-75.61642,5.51739],[-75.61647,5.51732],[-75.6165,5.51725],[-75.61652,5.51718],[-75.61653,5.5171],[-75.61652,5.51702],[-75.6165,5.51694],[-75.61647,5.51687],[-75.61643,5.51681],[-75.61637,5.51675],[-75.61631,5.51671],[-75.61624,5.51667],[-75.61616,5.51665],[-75.61608,5.51665],[-75.616,5.51665],[-75.61593,5.51667],[-75.61586,5.51671],[-75.61579,5.51675],[-75.61574,5.51681],[-75.61569,5.51687],[-75.61566,5.51694],[-75.61564,5.51702],[-75.61563,5.5171]]],[[[-75.61244,5.51761],[-75.61245,5.51769],[-75.61247,5.51776],[-75.6125,5.51783],[-75.61255,5.5179],[-75.6126,5.51795],[-75.61267,5.518],[-75.61274,5.51803],[-75.61281,5.51805],[-75.61289,5.51806],[-75.61297,5.51805],[-75.61305,5.51803],[-75.61312,5.518],[-75.61318,5.51796],[-75.61324,5.5179],[-75.61328,5.51784],[-75.61332,5.51776],[-75.61334,5.51769],[-75.61335,5.51761],[-75.61334,5.51753],[-75.61332,5.51746],[-75.61329,5.51738],[-75.61324,5.51732],[-75.61318,5.51726],[-75.61312,5.51722],[-75.61305,5.51718],[-75.61297,5.51716],[-75.6129,5.51716],[-75.61282,5.51716],[-75.61274,5.51718],[-75.61267,5.51722],[-75.61261,5.51726],[-75.61255,5.51732],[-75.6125,5.51738],[-75.61247,5.51745],[-75.61245,5.51753],[-75.61244,5.51761]]],[[[-75.61514,5.52047],[-75.61515,5.52055],[-75.61517,5.52063],[-75.6152,5.5207],[-75.61524,5.52076],[-75.6153,5.52082],[-75.61536,5.52086],[-75.61543,5.5209],[-75.61551,5.52092],[-75.61559,5.52092],[-75.61567,5.52092],[-75.61574,5.5209],[-75.61581,5.52086],[-75.61588,5.52082],[-75.61594,5.52076],[-75.61598,5.5207],[-75.61601,5.52063],[-75.61603,5.52055],[-75.61604,5.52047],[-75.61603,5.5204],[-75.61601,5.52032],[-75.61598,5.52025],[-75.61594,5.52018],[-75.61588,5.52013],[-75.61582,5.52008],[-75.61575,5.52005],[-75.61567,5.52003],[-75.61559,5.52002],[-75.61551,5.52003],[-75.61544,5.52005],[-75.61537,5.52008],[-75.6153,5.52013],[-75.61525,5.52018],[-75.6152,5.52025],[-75.61517,5.52032],[-75.61515,5.52039],[-75.61514,5.52047]]],[[[-75.61614,5.52055],[-75.61615,5.52063],[-75.61617,5.5207],[-75.6162,5.52077],[-75.61624,5.52084],[-75.6163,5.5209],[-75.61636,5.52094],[-75.61643,5.52097],[-75.61651,5.52099],[-75.61659,5.521],[-75.61667,5.52099],[-75.61674,5.52097],[-75.61681,5.52094],[-75.61688,5.5209],[-75.61693,5.52084],[-75.61698,5.52078],[-75.61701,5.52071],[-75.61703,5.52063],[-75.61704,5.52055],[-75.61703,5.52047],[-75.61701,5.5204],[-75.61698,5.52032],[-75.61694,5.52026],[-75.61688,5.5202],[-75.61682,5.52016],[-75.61675,5.52013],[-75.61667,5.5201],[-75.61659,5.5201],[-75.61651,5.5201],[-75.61644,5.52012],[-75.61637,5.52016],[-75.6163,5.5202],[-75.61625,5.52026],[-75.6162,5.52032],[-75.61617,5.52039],[-75.61615,5.52047],[-75.61614,5.52055]]],[[[-75.61706,5.5204],[-75.61707,5.52048],[-75.61709,5.52056],[-75.61712,5.52063],[-75.61717,5.52069],[-75.61723,5.52075],[-75.61729,5.52079],[-75.61736,5.52083],[-75.61744,5.52085],[-75.61751,5.52086],[-75.61759,5.52085],[-75.61767,5.52083],[-75.61774,5.5208],[-75.61781,5.52075],[-75.61786,5.52069],[-75.61791,5.52063],[-75.61794,5.52056],[-75.61796,5.52048],[-75.61797,5.5204],[-75.61796,5.52033],[-75.61794,5.52025],[-75.61791,5.52018],[-75.61786,5.52011],[-75.61781,5.52006],[-75.61774,5.52001],[-75.61767,5.51998],[-75.6176,5.51996],[-75.61752,5.51995],[-75.61744,5.51996],[-75.61736,5.51998],[-75.61729,5.52001],[-75.61723,5.52006],[-75.61717,5.52011],[-75.61713,5.52018],[-75.61709,5.52025],[-75.61707,5.52032],[-75.61706,5.5204]]],[[[-75.61773,5.52159],[-75.61774,5.52167],[-75.61776,5.52175],[-75.61779,5.52182],[-75.61783,5.52188],[-75.61789,5.52194],[-75.61795,5.52198],[-75.61802,5.52202],[-75.6181,5.52204],[-75.61818,5.52204],[-75.61826,5.52204],[-75.61833,5.52202],[-75.6184,5.52198],[-75.61847,5.52194],[-75.61852,5.52188],[-75.61857,5.52182],[-75.6186,5.52175],[-75.61862,5.52167],[-75.61863,5.52159],[-75.61862,5.52152],[-75.6186,5.52144],[-75.61857,5.52137],[-75.61853,5.5213],[-75.61847,5.52125],[-75.61841,5.5212],[-75.61834,5.52117],[-75.61826,5.52115],[-75.61818,5.52114],[-75.6181,5.52115],[-75.61803,5.52117],[-75.61796,5.5212],[-75.61789,5.52125],[-75.61783,5.5213],[-75.61779,5.52137],[-75.61776,5.52144],[-75.61774,5.52151],[-75.61773,5.52159]]],[[[-75.6269,5.51727],[-75.62689,5.51723],[-75.62687,5.51716],[-75.62684,5.51708],[-75.62679,5.51702],[-75.62674,5.51696],[-75.62667,5.51692],[-75.6266,5.51688],[-75.62653,5.51686],[-75.62645,5.51686],[-75.62637,5.51686],[-75.62629,5.51688],[-75.62622,5.51692],[-75.62616,5.51696],[-75.6261,5.51702],[-75.62606,5.51708],[-75.62602,5.51715],[-75.626,5.51723],[-75.626,5.51731],[-75.626,5.51739],[-75.62602,5.51746],[-75.62606,5.51753],[-75.6261,5.5176],[-75.62611,5.51761],[-75.62611,5.51765],[-75.62613,5.51772],[-75.62617,5.51779],[-75.62621,5.51786],[-75.62627,5.51791],[-75.62633,5.51796],[-75.6264,5.51799],[-75.62648,5.51801],[-75.62656,5.51802],[-75.62664,5.51801],[-75.62671,5.51799],[-75.62678,5.51796],[-75.62681,5.51794],[-75.62683,5.51797],[-75.62689,5.51802],[-75.62695,5.51807],[-75.62702,5.5181],[-75.6271,5.51812],[-75.62718,5.51813],[-75.62726,5.51812],[-75.62733,5.5181],[-75.6274,5.51807],[-75.62747,5.51803],[-75.62752,5.51797],[-75.62757,5.51791],[-75.6276,5.51783],[-75.62762,5.51776],[-75.62763,5.51768],[-75.62762,5.5176],[-75.6276,5.51753],[-75.62757,5.51745],[-75.62753,5.51739],[-75.62747,5.51733],[-75.62741,5.51729],[-75.62734,5.51725],[-75.62726,5.51723],[-75.62718,5.51723],[-75.6271,5.51723],[-75.62703,5.51725],[-75.62696,5.51729],[-75.62693,5.51731],[-75.6269,5.51728],[-75.6269,5.51727]]],[[[-75.62645,5.51914],[-75.62646,5.51922],[-75.62648,5.51929],[-75.62651,5.51936],[-75.62656,5.51943],[-75.62661,5.51949],[-75.62668,5.51953],[-75.62675,5.51956],[-75.62682,5.51958],[-75.6269,5.51959],[-75.62698,5.51958],[-75.62706,5.51956],[-75.62713,5.51953],[-75.62719,5.51949],[-75.62725,5.51943],[-75.62729,5.51937],[-75.62733,5.5193],[-75.62735,5.51922],[-75.62735,5.51914],[-75.62735,5.51906],[-75.62733,5.51899],[-75.62729,5.51891],[-75.62725,5.51885],[-75.62719,5.51879],[-75.62713,5.51875],[-75.62706,5.51872],[-75.62698,5.51869],[-75.6269,5.51869],[-75.62683,5.51869],[-75.62675,5.51871],[-75.62668,5.51875],[-75.62661,5.51879],[-75.62656,5.51885],[-75.62651,5.51891],[-75.62648,5.51898],[-75.62646,5.51906],[-75.62645,5.51914]]],[[[-75.60487,5.51516],[-75.60487,5.51524],[-75.60489,5.51531],[-75.60493,5.51539],[-75.60497,5.51545],[-75.60503,5.51551],[-75.60509,5.51555],[-75.60516,5.51558],[-75.60524,5.5156],[-75.60532,5.51561],[-75.60539,5.51561],[-75.60547,5.51559],[-75.60554,5.51555],[-75.60561,5.51551],[-75.60566,5.51545],[-75.60571,5.51539],[-75.60574,5.51532],[-75.60576,5.51524],[-75.60577,5.51516],[-75.60576,5.51508],[-75.60574,5.51501],[-75.60571,5.51494],[-75.60566,5.51487],[-75.60561,5.51481],[-75.60554,5.51477],[-75.60547,5.51474],[-75.6054,5.51472],[-75.60532,5.51471],[-75.60524,5.51471],[-75.60516,5.51473],[-75.60509,5.51477],[-75.60503,5.51481],[-75.60497,5.51487],[-75.60493,5.51493],[-75.60489,5.515],[-75.60487,5.51508],[-75.60487,5.51516]]],[[[-75.61486,5.46785],[-75.61487,5.46792],[-75.61489,5.468],[-75.61492,5.46807],[-75.61497,5.46814],[-75.61502,5.46819],[-75.61509,5.46824],[-75.61516,5.46827],[-75.61523,5.46829],[-75.61531,5.4683],[-75.61539,5.46829],[-75.61547,5.46827],[-75.61554,5.46824],[-75.6156,5.46819],[-75.61566,5.46814],[-75.6157,5.46807],[-75.61574,5.468],[-75.61576,5.46793],[-75.61576,5.46785],[-75.61576,5.46777],[-75.61574,5.46769],[-75.6157,5.46762],[-75.61566,5.46756],[-75.6156,5.4675],[-75.61554,5.46746],[-75.61547,5.46742],[-75.61539,5.4674],[-75.61531,5.4674],[-75.61523,5.4674],[-75.61516,5.46742],[-75.61509,5.46746],[-75.61502,5.4675],[-75.61497,5.46756],[-75.61492,5.46762],[-75.61489,5.46769],[-75.61487,5.46777],[-75.61486,5.46785]]],[[[-75.6134,5.46943],[-75.61341,5.46951],[-75.61343,5.46958],[-75.61346,5.46965],[-75.61351,5.46972],[-75.61356,5.46977],[-75.61363,5.46982],[-75.6137,5.46985],[-75.61377,5.46987],[-75.61385,5.46988],[-75.61393,5.46987],[-75.61401,5.46985],[-75.61408,5.46982],[-75.61414,5.46978],[-75.6142,5.46972],[-75.61424,5.46966],[-75.61428,5.46958],[-75.6143,5.46951],[-75.61431,5.46943],[-75.6143,5.46935],[-75.61428,5.46928],[-75.61425,5.4692],[-75.6142,5.46914],[-75.61415,5.46908],[-75.61408,5.46904],[-75.61401,5.469],[-75.61393,5.46898],[-75.61386,5.46898],[-75.61378,5.46898],[-75.6137,5.469],[-75.61363,5.46904],[-75.61357,5.46908],[-75.61351,5.46914],[-75.61346,5.4692],[-75.61343,5.46927],[-75.61341,5.46935],[-75.6134,5.46943]]],[[[-75.61165,5.47139],[-75.61165,5.47147],[-75.61167,5.47155],[-75.61171,5.47162],[-75.61175,5.47169],[-75.61181,5.47174],[-75.61187,5.47179],[-75.61194,5.47182],[-75.61202,5.47184],[-75.6121,5.47185],[-75.61217,5.47184],[-75.61225,5.47182],[-75.61232,5.47179],[-75.61239,5.47174],[-75.61244,5.47169],[-75.61249,5.47162],[-75.61252,5.47155],[-75.61254,5.47147],[-75.61255,5.4714],[-75.61254,5.47132],[-75.61252,5.47124],[-75.61249,5.47117],[-75.61244,5.47111],[-75.61239,5.47105],[-75.61232,5.471],[-75.61225,5.47097],[-75.61218,5.47095],[-75.6121,5.47094],[-75.61202,5.47095],[-75.61194,5.47097],[-75.61187,5.471],[-75.61181,5.47105],[-75.61175,5.4711],[-75.61171,5.47117],[-75.61167,5.47124],[-75.61165,5.47132],[-75.61165,5.47139]]],[[[-75.61136,5.46428],[-75.61137,5.46436],[-75.61139,5.46444],[-75.61142,5.46451],[-75.61147,5.46457],[-75.61152,5.46463],[-75.61159,5.46467],[-75.61166,5.46471],[-75.61174,5.46473],[-75.61181,5.46473],[-75.61189,5.46473],[-75.61197,5.46471],[-75.61204,5.46467],[-75.6121,5.46463],[-75.61216,5.46457],[-75.6122,5.46451],[-75.61224,5.46444],[-75.61226,5.46436],[-75.61227,5.46428],[-75.61226,5.4642],[-75.61224,5.46413],[-75.61221,5.46406],[-75.61216,5.46399],[-75.61211,5.46394],[-75.61204,5.46389],[-75.61197,5.46386],[-75.61189,5.46384],[-75.61182,5.46383],[-75.61174,5.46384],[-75.61166,5.46386],[-75.61159,5.46389],[-75.61153,5.46394],[-75.61147,5.46399],[-75.61142,5.46406],[-75.61139,5.46413],[-75.61137,5.4642],[-75.61136,5.46428]]],[[[-75.60331,5.46983],[-75.60332,5.46991],[-75.60334,5.46999],[-75.60337,5.47006],[-75.60342,5.47012],[-75.60347,5.47018],[-75.60354,5.47022],[-75.60361,5.47026],[-75.60368,5.47028],[-75.60376,5.47028],[-75.60384,5.47028],[-75.60392,5.47026],[-75.60399,5.47022],[-75.60405,5.47018],[-75.60411,5.47012],[-75.60415,5.47006],[-75.60419,5.46999],[-75.60421,5.46991],[-75.60421,5.46983],[-75.60421,5.46976],[-75.60419,5.46968],[-75.60415,5.46961],[-75.60411,5.46954],[-75.60405,5.46949],[-75.60399,5.46944],[-75.60392,5.46941],[-75.60384,5.46939],[-75.60376,5.46938],[-75.60369,5.46939],[-75.60361,5.46941],[-75.60354,5.46944],[-75.60347,5.46949],[-75.60342,5.46954],[-75.60337,5.46961],[-75.60334,5.46968],[-75.60332,5.46975],[-75.60331,5.46983]]],[[[-75.61068,5.46274],[-75.61069,5.46282],[-75.61071,5.46289],[-75.61074,5.46296],[-75.61079,5.46303],[-75.61084,5.46308],[-75.61091,5.46313],[-75.61098,5.46316],[-75.61105,5.46318],[-75.61113,5.46319],[-75.61121,5.46318],[-75.61129,5.46316],[-75.61136,5.46313],[-75.61142,5.46309],[-75.61148,5.46303],[-75.61152,5.46297],[-75.61156,5.46289],[-75.61158,5.46282],[-75.61159,5.46274],[-75.61158,5.46266],[-75.61156,5.46258],[-75.61153,5.46251],[-75.61148,5.46245],[-75.61143,5.46239],[-75.61136,5.46235],[-75.61129,5.46231],[-75.61121,5.46229],[-75.61114,5.46229],[-75.61106,5.46229],[-75.61098,5.46231],[-75.61091,5.46235],[-75.61085,5.46239],[-75.61079,5.46245],[-75.61074,5.46251],[-75.61071,5.46258],[-75.61069,5.46266],[-75.61068,5.46274]]],[[[-75.58826,5.46907],[-75.58827,5.46914],[-75.58829,5.46922],[-75.58832,5.46929],[-75.58837,5.46936],[-75.58842,5.46941],[-75.58849,5.46946],[-75.58856,5.46949],[-75.58864,5.46951],[-75.58871,5.46952],[-75.58879,5.46951],[-75.58887,5.46949],[-75.58894,5.46946],[-75.589,5.46941],[-75.58906,5.46936],[-75.58911,5.46929],[-75.58914,5.46922],[-75.58916,5.46915],[-75.58917,5.46907],[-75.58916,5.46899],[-75.58914,5.46891],[-75.58911,5.46884],[-75.58906,5.46878],[-75.58901,5.46872],[-75.58894,5.46868],[-75.58887,5.46864],[-75.58879,5.46862],[-75.58872,5.46861],[-75.58864,5.46862],[-75.58856,5.46864],[-75.58849,5.46867],[-75.58843,5.46872],[-75.58837,5.46878],[-75.58832,5.46884],[-75.58829,5.46891],[-75.58827,5.46899],[-75.58826,5.46907]]],[[[-75.61257,5.46146],[-75.61257,5.46153],[-75.61259,5.46161],[-75.61263,5.46168],[-75.61267,5.46175],[-75.61273,5.4618],[-75.61279,5.46185],[-75.61286,5.46188],[-75.61294,5.4619],[-75.61302,5.46191],[-75.6131,5.4619],[-75.61317,5.46188],[-75.61324,5.46185],[-75.61331,5.4618],[-75.61336,5.46175],[-75.61341,5.46168],[-75.61344,5.46161],[-75.61346,5.46154],[-75.61347,5.46146],[-75.61346,5.46138],[-75.61344,5.4613],[-75.61341,5.46123],[-75.61336,5.46117],[-75.61331,5.46111],[-75.61325,5.46107],[-75.61317,5.46103],[-75.6131,5.46101],[-75.61302,5.46101],[-75.61294,5.46101],[-75.61287,5.46103],[-75.61279,5.46107],[-75.61273,5.46111],[-75.61267,5.46117],[-75.61263,5.46123],[-75.6126,5.4613],[-75.61257,5.46138],[-75.61257,5.46146]]],[[[-75.59683,5.46116],[-75.59684,5.46124],[-75.59686,5.46132],[-75.59689,5.46139],[-75.59694,5.46145],[-75.59699,5.46151],[-75.59706,5.46155],[-75.59713,5.46159],[-75.59721,5.46161],[-75.59728,5.46161],[-75.59736,5.46161],[-75.59744,5.46159],[-75.59751,5.46155],[-75.59757,5.46151],[-75.59763,5.46145],[-75.59768,5.46139],[-75.59771,5.46132],[-75.59773,5.46124],[-75.59774,5.46116],[-75.59773,5.46108],[-75.59771,5.46101],[-75.59768,5.46094],[-75.59763,5.46087],[-75.59758,5.46082],[-75.59751,5.46077],[-75.59744,5.46074],[-75.59736,5.46072],[-75.59729,5.46071],[-75.59721,5.46072],[-75.59713,5.46074],[-75.59706,5.46077],[-75.597,5.46081],[-75.59694,5.46087],[-75.5969,5.46093],[-75.59686,5.46101],[-75.59684,5.46108],[-75.59683,5.46116]]],[[[-75.61804,5.47831],[-75.61805,5.47839],[-75.61807,5.47846],[-75.6181,5.47853],[-75.61815,5.4786],[-75.6182,5.47865],[-75.61827,5.4787],[-75.61834,5.47873],[-75.61841,5.47875],[-75.61849,5.47876],[-75.61857,5.47875],[-75.61865,5.47873],[-75.61872,5.4787],[-75.61878,5.47866],[-75.61884,5.4786],[-75.61888,5.47854],[-75.61892,5.47846],[-75.61894,5.47839],[-75.61894,5.47831],[-75.61894,5.47823],[-75.61892,5.47816],[-75.61888,5.47808],[-75.61884,5.47802],[-75.61878,5.47796],[-75.61872,5.47792],[-75.61865,5.47788],[-75.61857,5.47786],[-75.61849,5.47786],[-75.61842,5.47786],[-75.61834,5.47788],[-75.61827,5.47792],[-75.6182,5.47796],[-75.61815,5.47802],[-75.6181,5.47808],[-75.61807,5.47815],[-75.61805,5.47823],[-75.61804,5.47831]]],[[[-75.61663,5.47899],[-75.61664,5.47907],[-75.61666,5.47914],[-75.61669,5.47922],[-75.61673,5.47928],[-75.61679,5.47934],[-75.61685,5.47938],[-75.61693,5.47942],[-75.617,5.47944],[-75.61708,5.47944],[-75.61716,5.47944],[-75.61723,5.47942],[-75.61731,5.47938],[-75.61737,5.47934],[-75.61743,5.47928],[-75.61747,5.47922],[-75.6175,5.47915],[-75.61752,5.47907],[-75.61753,5.47899],[-75.61752,5.47891],[-75.6175,5.47884],[-75.61747,5.47877],[-75.61743,5.4787],[-75.61737,5.47865],[-75.61731,5.4786],[-75.61724,5.47857],[-75.61716,5.47855],[-75.61708,5.47854],[-75.617,5.47855],[-75.61693,5.47857],[-75.61686,5.4786],[-75.61679,5.47864],[-75.61674,5.4787],[-75.61669,5.47876],[-75.61666,5.47884],[-75.61664,5.47891],[-75.61663,5.47899]]]]},"properties":{"FID":0,"ID":0,"BUFFERDIS":50}}]}