{"type":"FeatureCollection","name":"Areas_SINAP","crs":{"type":"name","properties":{"name":"urn:ogc:def:crs:OGC:1.3:CRS84"}},"features":[{"type":"Feature","id":0,"geometry":{"type":"Polygon","coordinates":[[[-75.37858,5.45408],[-75.37871,5.45409],[-75.37886,5.45412],[-75.37902,5.45413],[-75.37916,5.45414],[-75.37932,5.45415],[-75.37946,5.45415],[-75.37962,5.45416],[-75.37977,5.45418],[-75.37993,5.45421],[-75.38007,5.45424],[-75.38019,5.45428],[-75.38034,5.45433],[-75.38047,5.45437],[-75.38058,5.45439],[-75.3807,5.45443],[-75.38082,5.45447],[-75.38094,5.45453],[-75.38108,5.45458],[-75.38125,5.45464],[-75.38137,5.4547],[-75.38153,5.45476],[-75.38168,5.45486],[-75.38179,5.45492],[-75.38195,5.455],[-75.38209,5.45507],[-75.38225,5.45517],[-75.3824,5.45522],[-75.3826,5.45531],[-75.38277,5.45538],[-75.38288,5.45544],[-75.38299,5.45548],[-75.38308,5.45551],[-75.38312,5.45552],[-75.38317,5.45544],[-75.38326,5.45536],[-75.38342,5.45522],[-75.38355,5.45508],[-75.38366,5.45498],[-75.38378,5.45485],[-75.38394,5.45467],[-75.38405,5.45454],[-75.38416,5.45441],[-75.38428,5.45429],[-75.38435,5.45422],[-75.38444,5.45415],[-75.38455,5.45403],[-75.38466,5.45392],[-75.38471,5.45392],[-75.38495,5.45365],[-75.38526,5.45331],[-75.3854,5.45314],[-75.3855,5.45298],[-75.38584,5.45263],[-75.38629,5.45213],[-75.38679,5.45149],[-75.38695,5.45127],[-75.38713,5.45101],[-75.38723,5.45082],[-75.38728,5.45061],[-75.38736,5.45045],[-75.38737,5.45037],[-75.38738,5.45035],[-75.38734,5.45029],[-75.38737,5.45016],[-75.38739,5.45003],[-75.38744,5.44986],[-75.38748,5.44946],[-75.38749,5.44907],[-75.38744,5.44889],[-75.38743,5.44874],[-75.38744,5.44853],[-75.38748,5.44833],[-75.38755,5.44806],[-75.38758,5.44795],[-75.38758,5.4479],[-75.38758,5.4479],[-75.3876,5.44782],[-75.38763,5.44771],[-75.38767,5.44736],[-75.38769,5.44727],[-75.3877,5.44725],[-75.38772,5.44712],[-75.38778,5.44688],[-75.3878,5.4468],[-75.38792,5.44657],[-75.38806,5.44626],[-75.38813,5.44603],[-75.38818,5.44583],[-75.38821,5.4454],[-75.38821,5.4451],[-75.38821,5.445],[-75.38818,5.44469],[-75.38817,5.44462],[-75.38817,5.44457],[-75.38815,5.44446],[-75.38815,5.44445],[-75.38815,5.44434],[-75.38815,5.44434],[-75.38815,5.44428],[-75.38815,5.44424],[-75.38815,5.44424],[-75.38815,5.44424],[-75.38815,5.44423],[-75.38814,5.4442],[-75.38815,5.4442],[-75.38815,5.44419],[-75.38815,5.44416],[-75.38815,5.44415],[-75.38815,5.44414],[-75.38816,5.44411],[-75.38816,5.4441],[-75.38816,5.44407],[-75.38816,5.44406],[-75.38817,5.44403],[-75.38817,5.44401],[-75.38817,5.44401],[-75.38818,5.44397],[-75.38818,5.44394],[-75.38819,5.4439],[-75.38819,5.44389],[-75.3882,5.44383],[-75.38821,5.44383],[-75.38825,5.44367],[-75.38826,5.44363],[-75.38827,5.44361],[-75.38834,5.4435],[-75.38835,5.44347],[-75.38841,5.44339],[-75.38847,5.44331],[-75.38847,5.4433],[-75.38855,5.44319],[-75.38858,5.44315],[-75.38864,5.44307],[-75.38874,5.44293],[-75.38874,5.44292],[-75.38875,5.44291],[-75.38883,5.4428],[-75.38888,5.44272],[-75.3889,5.44269],[-75.38892,5.44266],[-75.38894,5.44264],[-75.38898,5.4426],[-75.38901,5.44258],[-75.38908,5.4425],[-75.38915,5.44243],[-75.38919,5.4424],[-75.38921,5.44238],[-75.38924,5.44235],[-75.38932,5.44227],[-75.38933,5.44226],[-75.38934,5.44225],[-75.38945,5.44219],[-75.3895,5.44217],[-75.38955,5.44214],[-75.38956,5.44213],[-75.38961,5.44209],[-75.38969,5.44204],[-75.38971,5.44202],[-75.38973,5.442],[-75.38984,5.44193],[-75.38991,5.44189],[-75.38994,5.44187],[-75.38995,5.44187],[-75.38997,5.44186],[-75.39003,5.44185],[-75.39016,5.44182],[-75.39016,5.44182],[-75.39019,5.44181],[-75.39034,5.44174],[-75.39034,5.44174],[-75.39044,5.4417],[-75.39047,5.44169],[-75.39049,5.44169],[-75.39062,5.44166],[-75.39066,5.44166],[-75.39074,5.44165],[-75.39078,5.44164],[-75.39079,5.44164],[-75.39079,5.44164],[-75.39079,5.44164],[-75.3908,5.44164],[-75.39094,5.44157],[-75.39097,5.44156],[-75.39104,5.44153],[-75.39112,5.44149],[-75.39114,5.44148],[-75.39137,5.44138],[-75.39142,5.44135],[-75.39154,5.4413],[-75.3916,5.44125],[-75.3917,5.44118],[-75.3917,5.44118],[-75.39172,5.44116],[-75.39185,5.44107],[-75.39193,5.44102],[-75.39196,5.441],[-75.39197,5.44099],[-75.392,5.44098],[-75.39213,5.44093],[-75.39214,5.44092],[-75.39217,5.44091],[-75.39229,5.44085],[-75.39236,5.44081],[-75.39251,5.44073],[-75.39252,5.44073],[-75.39262,5.44067],[-75.39262,5.44067],[-75.39263,5.44067],[-75.39275,5.44061],[-75.39285,5.44057],[-75.39297,5.44051],[-75.39298,5.44051],[-75.39307,5.44047],[-75.3932,5.44041],[-75.39326,5.44039],[-75.39332,5.44037],[-75.39348,5.44031],[-75.39348,5.4403],[-75.39355,5.44029],[-75.39371,5.44026],[-75.39374,5.44026],[-75.39388,5.44024],[-75.3939,5.44024],[-75.3939,5.44024],[-75.39386,5.44017],[-75.39385,5.44017],[-75.39364,5.44013],[-75.39364,5.44013],[-75.39348,5.44013],[-75.39347,5.44013],[-75.39344,5.44012],[-75.39331,5.44009],[-75.39325,5.44008],[-75.39314,5.44005],[-75.39311,5.44004],[-75.39311,5.44004],[-75.3931,5.44003],[-75.39301,5.43997],[-75.39301,5.43997],[-75.39284,5.43991],[-75.39282,5.4399],[-75.39271,5.4399],[-75.39271,5.43989],[-75.39261,5.43985],[-75.39251,5.43981],[-75.39251,5.43981],[-75.39243,5.43974],[-75.39232,5.43966],[-75.39231,5.43966],[-75.39223,5.43961],[-75.39206,5.43952],[-75.39206,5.43952],[-75.39201,5.4395],[-75.39189,5.43947],[-75.39181,5.43944],[-75.39179,5.43944],[-75.39163,5.4394],[-75.39152,5.43938],[-75.39152,5.43938],[-75.39143,5.43938],[-75.39124,5.43938],[-75.39123,5.43938],[-75.39116,5.43937],[-75.39114,5.43936],[-75.39105,5.43935],[-75.39096,5.43933],[-75.39085,5.43931],[-75.39085,5.43931],[-75.39076,5.43927],[-75.39072,5.43925],[-75.39068,5.43923],[-75.39063,5.43921],[-75.39063,5.43921],[-75.39054,5.43914],[-75.39051,5.43912],[-75.39041,5.43903],[-75.3904,5.43903],[-75.39026,5.43893],[-75.39026,5.43893],[-75.39024,5.43892],[-75.39024,5.43892],[-75.39022,5.43891],[-75.39021,5.43891],[-75.39019,5.43891],[-75.39018,5.4389],[-75.39016,5.4389],[-75.39015,5.43889],[-75.39014,5.43889],[-75.39013,5.43889],[-75.3901,5.43888],[-75.3901,5.43888],[-75.39007,5.43888],[-75.39006,5.43888],[-75.39004,5.43887],[-75.39002,5.43887],[-75.39001,5.43887],[-75.38999,5.43886],[-75.38998,5.43886],[-75.38996,5.43886],[-75.38994,5.43885],[-75.3897,5.4387],[-75.38949,5.43851],[-75.38934,5.4383],[-75.38927,5.43822],[-75.3892,5.43816],[-75.38904,5.4381],[-75.38881,5.4381],[-75.38857,5.4381],[-75.38832,5.43806],[-75.38813,5.438],[-75.38795,5.43798],[-75.38778,5.43797],[-75.38767,5.43799],[-75.38757,5.438],[-75.38741,5.43794],[-75.38719,5.43776],[-75.38695,5.43754],[-75.38681,5.43744],[-75.38664,5.43734],[-75.38611,5.43711],[-75.38571,5.43694],[-75.38538,5.43679],[-75.38523,5.43675],[-75.38503,5.43675],[-75.38488,5.43676],[-75.38474,5.43675],[-75.38451,5.43671],[-75.38434,5.43664],[-75.38424,5.43661],[-75.38408,5.43649],[-75.38388,5.43619],[-75.38368,5.43596],[-75.38348,5.43575],[-75.38327,5.43556],[-75.38307,5.4354],[-75.38324,5.4354],[-75.38342,5.43539],[-75.38364,5.43539],[-75.38385,5.43536],[-75.38407,5.43531],[-75.3843,5.43519],[-75.38448,5.43505],[-75.38451,5.43503],[-75.38467,5.43487],[-75.38482,5.43469],[-75.38496,5.43446],[-75.38502,5.43424],[-75.38504,5.43397],[-75.38505,5.43381],[-75.38505,5.43369],[-75.38501,5.43366],[-75.38491,5.43362],[-75.38479,5.43358],[-75.38469,5.43353],[-75.38465,5.43351],[-75.38455,5.4334],[-75.38446,5.43332],[-75.38435,5.4332],[-75.38426,5.43309],[-75.38415,5.433],[-75.38406,5.43293],[-75.38396,5.43285],[-75.3838,5.43276],[-75.38368,5.43265],[-75.38358,5.43255],[-75.38347,5.43241],[-75.38334,5.43219],[-75.38319,5.432],[-75.38316,5.43197],[-75.38308,5.43189],[-75.38295,5.43181],[-75.38291,5.43179],[-75.38281,5.43173],[-75.38263,5.43169],[-75.38251,5.43169],[-75.38251,5.43169],[-75.38232,5.43166],[-75.38206,5.43163],[-75.38183,5.4316],[-75.38155,5.43151],[-75.38149,5.43148],[-75.38147,5.43147],[-75.38146,5.43146],[-75.38144,5.43145],[-75.38143,5.43145],[-75.3814,5.43143],[-75.38138,5.43143],[-75.38121,5.43132],[-75.38102,5.43116],[-75.38079,5.431],[-75.38081,5.43095],[-75.38058,5.43082],[-75.38036,5.43078],[-75.38019,5.43074],[-75.37997,5.43067],[-75.37995,5.43066],[-75.37993,5.43066],[-75.37963,5.43056],[-75.37927,5.4305],[-75.37877,5.43041],[-75.37822,5.43032],[-75.37779,5.43027],[-75.37747,5.43027],[-75.37728,5.43031],[-75.37695,5.43041],[-75.37668,5.43045],[-75.37649,5.43055],[-75.37626,5.43067],[-75.37604,5.43084],[-75.3759,5.43103],[-75.3758,5.43119],[-75.37563,5.43148],[-75.37536,5.43183],[-75.37524,5.43206],[-75.37508,5.43226],[-75.37492,5.43249],[-75.37459,5.43303],[-75.37433,5.43345],[-75.37411,5.43382],[-75.37397,5.43406],[-75.37378,5.4344],[-75.37362,5.43473],[-75.37341,5.43524],[-75.37327,5.43562],[-75.37315,5.43607],[-75.37305,5.43656],[-75.37295,5.43701],[-75.37292,5.43738],[-75.37289,5.43759],[-75.37289,5.43789],[-75.37288,5.43809],[-75.37286,5.43832],[-75.37286,5.4386],[-75.37285,5.43892],[-75.3729,5.43927],[-75.37294,5.43945],[-75.37296,5.43974],[-75.37298,5.44],[-75.37306,5.44047],[-75.37316,5.44096],[-75.3732,5.44141],[-75.37325,5.44172],[-75.3733,5.44184],[-75.37333,5.44202],[-75.37335,5.44223],[-75.37338,5.44267],[-75.3734,5.44302],[-75.37348,5.44358],[-75.37353,5.44381],[-75.37363,5.44412],[-75.37367,5.44447],[-75.37372,5.44463],[-75.37387,5.44516],[-75.37407,5.44568],[-75.37418,5.44594],[-75.37427,5.44621],[-75.37444,5.44654],[-75.37462,5.44688],[-75.37474,5.44723],[-75.3749,5.44753],[-75.37511,5.44796],[-75.37531,5.44832],[-75.37542,5.44853],[-75.37553,5.44876],[-75.37561,5.44899],[-75.37569,5.44936],[-75.37566,5.44973],[-75.37559,5.44995],[-75.37551,5.45014],[-75.37548,5.45029],[-75.37541,5.45044],[-75.37528,5.45068],[-75.37521,5.45086],[-75.37512,5.451],[-75.375,5.45113],[-75.37489,5.45131],[-75.37475,5.45155],[-75.37464,5.45175],[-75.37442,5.45209],[-75.37433,5.4522],[-75.37415,5.45236],[-75.37399,5.45262],[-75.37392,5.45276],[-75.3738,5.45292],[-75.3737,5.45306],[-75.37359,5.45326],[-75.3735,5.45354],[-75.37341,5.45395],[-75.37341,5.45395],[-75.37361,5.45389],[-75.37373,5.45388],[-75.37387,5.45389],[-75.37398,5.45388],[-75.37416,5.45385],[-75.37431,5.45384],[-75.37453,5.45384],[-75.37471,5.45384],[-75.37488,5.45383],[-75.37504,5.45383],[-75.3752,5.45384],[-75.37533,5.45386],[-75.37544,5.45386],[-75.37558,5.45386],[-75.37572,5.45387],[-75.3759,5.45389],[-75.37635,5.45394],[-75.3764,5.45394],[-75.3766,5.45399],[-75.37676,5.45399],[-75.37695,5.454],[-75.37716,5.454],[-75.37738,5.454],[-75.37759,5.45399],[-75.3777,5.45402],[-75.37782,5.45402],[-75.378,5.45401],[-75.37818,5.45402],[-75.37832,5.45402],[-75.3785,5.45405],[-75.37851,5.45405],[-75.37858,5.45408]]]},"properties":{"FID":0,"OBJECTID_1":1,"nombre":"La Virginia","id_pnn":"02070695","categoria":"Reserva Natural de la Sociedad Civil","territoria":"Andes occidentales","resolucion":"100","hectareas_":377.51998901,"escala":"1:25.000","organizaci":"PNN","fecha_act":"2017/07/19 00:00:00.000","url":"http://runap.parquesnacionales.gov.co/area-protegidas/1282","wkid":"3116","app_id":1,"record_id":1536,"centroid_x":-75.38083682,"centroid_y":5.44280605,"fecha_regi":"2017/12/28 18:30:36.000","validado":"No","hectarea_1":377.52362349,"perimetro_":8.99506661,"globalid":"{19F1381C-D125-4B5B-A4F5-11C1E52EC197}","Shape_Leng":8995.06668589,"Shape_Area":3775236.23847}}]}