{"type":"FeatureCollection","name":"Paramo_Sonson_25K","crs":{"type":"name","properties":{"name":"urn:ogc:def:crs:OGC:1.3:CRS84"}},"features":[{"type":"Feature","id":0,"geometry":{"type":"Polygon","coordinates":[[[-75.38088,5.41984],[-75.38086,5.41987],[-75.38105,5.42051],[-75.38113,5.42137],[-75.38116,5.42181],[-75.38112,5.42237],[-75.38113,5.42275],[-75.38107,5.42339],[-75.38094,5.42414],[-75.38088,5.42524],[-75.38088,5.42618],[-75.38085,5.42698],[-75.38086,5.42792],[-75.38085,5.42869],[-75.38083,5.42879],[-75.38087,5.42879],[-75.38089,5.42878],[-75.38092,5.42878],[-75.38094,5.42877],[-75.38096,5.42877],[-75.38098,5.42875],[-75.381,5.42874],[-75.38102,5.42873],[-75.38103,5.42871],[-75.38105,5.42869],[-75.38106,5.42867],[-75.38107,5.42864],[-75.38108,5.42862],[-75.3811,5.42856],[-75.38111,5.4285],[-75.38112,5.42842],[-75.38113,5.42827],[-75.38113,5.42809],[-75.38114,5.42801],[-75.38113,5.42788],[-75.38113,5.42776],[-75.38112,5.42768],[-75.38111,5.42759],[-75.38107,5.42739],[-75.38106,5.42727],[-75.38105,5.42717],[-75.38104,5.42707],[-75.38104,5.42702],[-75.38104,5.42695],[-75.38105,5.42682],[-75.38106,5.42673],[-75.38107,5.4266],[-75.38109,5.42651],[-75.3811,5.42645],[-75.38112,5.42639],[-75.38114,5.42633],[-75.38117,5.42626],[-75.38123,5.42613],[-75.38133,5.42596],[-75.3814,5.42583],[-75.38145,5.42574],[-75.38148,5.42566],[-75.38151,5.42559],[-75.38153,5.42551],[-75.38156,5.42543],[-75.38158,5.42534],[-75.3816,5.42525],[-75.38161,5.42516],[-75.38164,5.42498],[-75.38165,5.42487],[-75.38167,5.42466],[-75.3817,5.42426],[-75.38173,5.42385],[-75.38176,5.42349],[-75.38177,5.42331],[-75.38178,5.42322],[-75.38181,5.423],[-75.38184,5.42269],[-75.38185,5.42258],[-75.38187,5.42247],[-75.38189,5.42239],[-75.3819,5.42233],[-75.38193,5.4222],[-75.38196,5.42208],[-75.38201,5.42193],[-75.38206,5.42176],[-75.38213,5.42155],[-75.38215,5.42147],[-75.38219,5.42137],[-75.38227,5.42116],[-75.38226,5.42115],[-75.3819,5.42074],[-75.38088,5.41984],[-75.38088,5.41984]]]},"properties":{"FID":0,"OBJECTID":1,"Nombre":"Páramo Sonsón","Poligono":17,"Area":384.385425397,"Shape_Leng":2093.26009279,"Shape_Area":63052.3894152}},{"type":"Feature","id":1,"geometry":{"type":"Polygon","coordinates":[[[-75.37572,5.43091],[-75.37549,5.43106],[-75.37529,5.4312],[-75.37509,5.43147],[-75.37485,5.43179],[-75.3746,5.43213],[-75.37438,5.43245],[-75.37413,5.43286],[-75.37405,5.43304],[-75.37377,5.43365],[-75.37368,5.43386],[-75.3735,5.43446],[-75.37346,5.43463],[-75.37349,5.43461],[-75.37352,5.43458],[-75.37356,5.43455],[-75.37359,5.43452],[-75.37363,5.43449],[-75.37366,5.43445],[-75.3737,5.4344],[-75.37375,5.43435],[-75.37383,5.43423],[-75.37388,5.43416],[-75.37401,5.43397],[-75.37412,5.4338],[-75.37421,5.43365],[-75.37433,5.43345],[-75.37441,5.43332],[-75.37446,5.43325],[-75.37489,5.43266],[-75.37502,5.43248],[-75.37509,5.43238],[-75.37517,5.43225],[-75.37531,5.43204],[-75.37536,5.43194],[-75.37539,5.4319],[-75.37541,5.43184],[-75.37547,5.43168],[-75.37551,5.43158],[-75.37555,5.43149],[-75.3756,5.4314],[-75.37565,5.43133],[-75.37571,5.43125],[-75.37578,5.43116],[-75.37581,5.43111],[-75.37584,5.43108],[-75.37588,5.43104],[-75.37591,5.43101],[-75.37595,5.43099],[-75.37599,5.43097],[-75.37606,5.43094],[-75.37614,5.43092],[-75.37621,5.4309],[-75.37627,5.43089],[-75.37634,5.43088],[-75.37646,5.43087],[-75.37657,5.43087],[-75.37693,5.43085],[-75.37707,5.43085],[-75.37718,5.43086],[-75.37746,5.43087],[-75.37778,5.43088],[-75.37789,5.43088],[-75.37798,5.43089],[-75.37809,5.4309],[-75.37817,5.4309],[-75.37826,5.4309],[-75.3783,5.4309],[-75.37834,5.43089],[-75.37841,5.43088],[-75.37847,5.43087],[-75.3785,5.43086],[-75.37852,5.43085],[-75.37854,5.43084],[-75.37856,5.43082],[-75.37858,5.43081],[-75.3786,5.43079],[-75.37861,5.43078],[-75.37862,5.43076],[-75.37863,5.43074],[-75.37864,5.43072],[-75.37864,5.4307],[-75.37865,5.43067],[-75.37865,5.43065],[-75.37858,5.43065],[-75.37828,5.43065],[-75.37795,5.43066],[-75.3775,5.43066],[-75.37716,5.43069],[-75.37674,5.43067],[-75.37665,5.43068],[-75.37645,5.43071],[-75.37624,5.43075],[-75.37598,5.43081],[-75.37572,5.43091]]]},"properties":{"FID":1,"OBJECTID":2,"Nombre":"Páramo Sonsón","Poligono":16,"Area":95.1603987884,"Shape_Leng":1625.98805307,"Shape_Area":28117.5340473}},{"type":"Feature","id":2,"geometry":{"type":"Polygon","coordinates":[[[-75.37397,5.47265],[-75.3739,5.47281],[-75.37381,5.47299],[-75.37369,5.47321],[-75.37364,5.47344],[-75.37364,5.47384],[-75.37364,5.47395],[-75.37362,5.4742],[-75.37359,5.47432],[-75.37347,5.47462],[-75.37345,5.47474],[-75.37343,5.47504],[-75.37342,5.47532],[-75.37337,5.4755],[-75.37327,5.47566],[-75.37311,5.47583],[-75.37299,5.47597],[-75.3729,5.47606],[-75.37278,5.47619],[-75.37272,5.47629],[-75.37261,5.47643],[-75.37252,5.47655],[-75.37242,5.4767],[-75.37232,5.47684],[-75.37217,5.47704],[-75.37208,5.47719],[-75.37191,5.4774],[-75.37161,5.47754],[-75.37148,5.47761],[-75.37145,5.47762],[-75.37137,5.4777],[-75.3713,5.47778],[-75.37122,5.47787],[-75.37115,5.47797],[-75.37108,5.47808],[-75.37105,5.47828],[-75.37105,5.47851],[-75.37107,5.47866],[-75.37117,5.47882],[-75.37124,5.47897],[-75.37132,5.47917],[-75.37137,5.47929],[-75.37147,5.47948],[-75.37157,5.4797],[-75.37167,5.47987],[-75.37177,5.48006],[-75.37197,5.48054],[-75.372,5.48068],[-75.37198,5.48104],[-75.37197,5.48118],[-75.37192,5.4814],[-75.37192,5.48153],[-75.37191,5.48165],[-75.37184,5.48191],[-75.3718,5.48201],[-75.37173,5.48228],[-75.37172,5.48235],[-75.37165,5.48247],[-75.37158,5.4826],[-75.37149,5.48278],[-75.37135,5.48309],[-75.37126,5.48322],[-75.37118,5.48332],[-75.37114,5.48341],[-75.3711,5.4835],[-75.37102,5.48363],[-75.37092,5.48379],[-75.37089,5.48392],[-75.37087,5.48404],[-75.37086,5.48423],[-75.37082,5.4844],[-75.37082,5.4846],[-75.37075,5.48502],[-75.37075,5.48507],[-75.37071,5.48519],[-75.3707,5.4853],[-75.3707,5.48541],[-75.3707,5.48548],[-75.3707,5.48553],[-75.3707,5.48557],[-75.3707,5.48569],[-75.3707,5.48579],[-75.3707,5.48592],[-75.3707,5.48605],[-75.37077,5.48617],[-75.37085,5.48631],[-75.3709,5.48637],[-75.37095,5.48647],[-75.371,5.48654],[-75.37109,5.48667],[-75.37115,5.48673],[-75.37125,5.48686],[-75.37134,5.48695],[-75.37142,5.48704],[-75.37144,5.48706],[-75.37149,5.48711],[-75.3716,5.48721],[-75.37177,5.48736],[-75.3719,5.48747],[-75.37202,5.48758],[-75.37227,5.48789],[-75.37239,5.48802],[-75.3725,5.48817],[-75.37251,5.48817],[-75.37254,5.48816],[-75.37257,5.48815],[-75.37259,5.48813],[-75.37261,5.48811],[-75.37263,5.48808],[-75.37264,5.48806],[-75.37265,5.48803],[-75.37266,5.488],[-75.37266,5.48797],[-75.37266,5.48794],[-75.37266,5.48791],[-75.37265,5.4878],[-75.37264,5.48771],[-75.37262,5.4876],[-75.37259,5.48742],[-75.37258,5.48736],[-75.37257,5.48731],[-75.37255,5.48725],[-75.37253,5.4872],[-75.37251,5.48714],[-75.37248,5.48708],[-75.37244,5.48703],[-75.3724,5.48698],[-75.37236,5.48693],[-75.37231,5.48687],[-75.37219,5.48676],[-75.37215,5.48672],[-75.37211,5.48667],[-75.37208,5.48663],[-75.37206,5.4866],[-75.37204,5.48656],[-75.37202,5.48653],[-75.372,5.48649],[-75.37199,5.48645],[-75.37198,5.48642],[-75.37197,5.48639],[-75.37196,5.48636],[-75.37196,5.48632],[-75.37197,5.48628],[-75.37198,5.48624],[-75.372,5.48619],[-75.37202,5.48615],[-75.37205,5.48611],[-75.37215,5.48599],[-75.3722,5.48592],[-75.37222,5.48588],[-75.37223,5.48585],[-75.37225,5.48581],[-75.37226,5.48577],[-75.37228,5.48571],[-75.37229,5.48564],[-75.3723,5.48556],[-75.3723,5.48548],[-75.3723,5.48541],[-75.3723,5.48535],[-75.37229,5.4853],[-75.37228,5.48524],[-75.37228,5.48522],[-75.37227,5.48519],[-75.37225,5.48517],[-75.37224,5.48514],[-75.37222,5.48512],[-75.37221,5.4851],[-75.37219,5.48508],[-75.37216,5.48507],[-75.37213,5.48505],[-75.3721,5.48504],[-75.37205,5.48503],[-75.37197,5.48501],[-75.37191,5.485],[-75.37189,5.48499],[-75.37187,5.48497],[-75.37185,5.48496],[-75.37183,5.48495],[-75.37181,5.48493],[-75.3718,5.48492],[-75.37179,5.4849],[-75.37178,5.48488],[-75.37177,5.48487],[-75.37176,5.48485],[-75.37175,5.4848],[-75.37175,5.48477],[-75.37175,5.48474],[-75.37175,5.48471],[-75.37176,5.48468],[-75.37176,5.48465],[-75.37177,5.48462],[-75.37179,5.48456],[-75.37181,5.48451],[-75.37184,5.48445],[-75.37188,5.48439],[-75.37195,5.48429],[-75.37199,5.48421],[-75.37201,5.48417],[-75.37202,5.48413],[-75.37204,5.48409],[-75.37205,5.48405],[-75.37206,5.484],[-75.37206,5.48396],[-75.37207,5.48391],[-75.37207,5.48386],[-75.37207,5.48382],[-75.37207,5.48376],[-75.37206,5.48364],[-75.37206,5.48356],[-75.37206,5.48351],[-75.37206,5.48348],[-75.37207,5.48346],[-75.37208,5.48342],[-75.3721,5.48338],[-75.37212,5.48335],[-75.37214,5.48332],[-75.37217,5.48328],[-75.3722,5.48325],[-75.37224,5.48322],[-75.37228,5.4832],[-75.37231,5.48318],[-75.37234,5.48316],[-75.37242,5.48313],[-75.37272,5.48301],[-75.37278,5.48298],[-75.37284,5.48296],[-75.37288,5.48294],[-75.37291,5.48292],[-75.37294,5.4829],[-75.37297,5.48287],[-75.373,5.48285],[-75.37303,5.48281],[-75.37305,5.48277],[-75.37308,5.48273],[-75.3731,5.48269],[-75.37312,5.48264],[-75.37317,5.4825],[-75.37321,5.48241],[-75.37323,5.48238],[-75.37325,5.48234],[-75.37327,5.48231],[-75.37329,5.48228],[-75.37334,5.48223],[-75.37338,5.48219],[-75.37344,5.48215],[-75.37356,5.48207],[-75.37363,5.48202],[-75.37368,5.48198],[-75.37375,5.48191],[-75.3738,5.48187],[-75.37385,5.48184],[-75.37394,5.48178],[-75.374,5.48173],[-75.37407,5.48168],[-75.37413,5.48162],[-75.37418,5.48156],[-75.37424,5.48151],[-75.37428,5.48145],[-75.37433,5.48139],[-75.37438,5.48133],[-75.37442,5.48126],[-75.37446,5.48119],[-75.3745,5.48112],[-75.37453,5.48106],[-75.37455,5.481],[-75.37457,5.48096],[-75.37458,5.48091],[-75.37459,5.48085],[-75.3746,5.4808],[-75.3746,5.48073],[-75.3746,5.48059],[-75.3746,5.48053],[-75.37461,5.48047],[-75.37462,5.4804],[-75.37464,5.48032],[-75.37466,5.48027],[-75.37468,5.4802],[-75.37472,5.48012],[-75.37477,5.48002],[-75.37484,5.47989],[-75.3749,5.4798],[-75.37499,5.47967],[-75.37506,5.47956],[-75.3752,5.47937],[-75.37527,5.47927],[-75.37532,5.4792],[-75.37537,5.47911],[-75.37541,5.47904],[-75.37544,5.47897],[-75.37545,5.47894],[-75.37546,5.47891],[-75.37547,5.47889],[-75.37547,5.47886],[-75.37547,5.47882],[-75.37547,5.47879],[-75.37546,5.47875],[-75.37544,5.47872],[-75.37543,5.47869],[-75.37541,5.47865],[-75.37534,5.47857],[-75.3753,5.47851],[-75.37527,5.47846],[-75.37525,5.47841],[-75.37523,5.47836],[-75.37522,5.47831],[-75.37521,5.47824],[-75.37519,5.47815],[-75.37517,5.47807],[-75.37516,5.47804],[-75.37515,5.47801],[-75.37514,5.47798],[-75.37512,5.47795],[-75.37509,5.47791],[-75.37507,5.47788],[-75.37503,5.47786],[-75.375,5.47783],[-75.37497,5.47782],[-75.37494,5.47781],[-75.37486,5.47779],[-75.37481,5.47778],[-75.37478,5.47776],[-75.37475,5.47775],[-75.37473,5.47773],[-75.37471,5.4777],[-75.3747,5.47767],[-75.37469,5.47763],[-75.37469,5.4776],[-75.37469,5.47757],[-75.37469,5.47753],[-75.3747,5.47749],[-75.37472,5.47744],[-75.37474,5.47739],[-75.37477,5.47734],[-75.37479,5.47728],[-75.37483,5.47722],[-75.37487,5.47716],[-75.37494,5.47708],[-75.37505,5.47696],[-75.37511,5.47687],[-75.3752,5.47676],[-75.37523,5.47671],[-75.37527,5.47666],[-75.37529,5.47661],[-75.37532,5.47657],[-75.37534,5.47653],[-75.37535,5.47648],[-75.37537,5.47644],[-75.37538,5.47639],[-75.37539,5.47635],[-75.3754,5.4763],[-75.3754,5.47627],[-75.3754,5.47623],[-75.3754,5.4762],[-75.37539,5.47617],[-75.37539,5.47614],[-75.37538,5.4761],[-75.37537,5.47607],[-75.37535,5.47604],[-75.37533,5.476],[-75.3753,5.47596],[-75.37526,5.4759],[-75.37517,5.47578],[-75.37513,5.47573],[-75.3751,5.47569],[-75.37507,5.47563],[-75.37504,5.47557],[-75.37501,5.4755],[-75.37498,5.47543],[-75.37497,5.47539],[-75.37495,5.47536],[-75.37495,5.47533],[-75.37494,5.4753],[-75.37494,5.47527],[-75.37495,5.47525],[-75.37495,5.47522],[-75.37496,5.4752],[-75.37497,5.47518],[-75.37499,5.47516],[-75.37502,5.47512],[-75.37506,5.47508],[-75.3751,5.47504],[-75.37514,5.47502],[-75.37519,5.47499],[-75.37535,5.4749],[-75.37539,5.47488],[-75.37543,5.47485],[-75.37546,5.47482],[-75.37549,5.47479],[-75.37557,5.47472],[-75.37561,5.47468],[-75.37564,5.47465],[-75.37568,5.47462],[-75.37571,5.4746],[-75.37576,5.47457],[-75.37589,5.47451],[-75.37592,5.47449],[-75.37595,5.47446],[-75.37598,5.47444],[-75.37601,5.47441],[-75.37603,5.47437],[-75.37607,5.47431],[-75.3761,5.47427],[-75.37613,5.47424],[-75.37616,5.47421],[-75.3762,5.47419],[-75.37625,5.47416],[-75.37631,5.47415],[-75.37641,5.47411],[-75.37646,5.4741],[-75.3765,5.47408],[-75.37652,5.47407],[-75.37655,5.47406],[-75.37657,5.47404],[-75.37659,5.47402],[-75.37661,5.474],[-75.37663,5.47397],[-75.37664,5.47394],[-75.37666,5.47391],[-75.37666,5.47387],[-75.37667,5.47383],[-75.37669,5.4737],[-75.3767,5.47362],[-75.37671,5.4736],[-75.37672,5.47357],[-75.37673,5.47355],[-75.37675,5.47353],[-75.37676,5.47351],[-75.37678,5.4735],[-75.3768,5.47348],[-75.37683,5.47347],[-75.37688,5.47346],[-75.37696,5.47344],[-75.37703,5.47342],[-75.37709,5.4734],[-75.37714,5.47337],[-75.37719,5.47334],[-75.37723,5.47331],[-75.37727,5.47327],[-75.3773,5.47323],[-75.37732,5.47319],[-75.37733,5.47316],[-75.37735,5.47312],[-75.37736,5.47308],[-75.37736,5.47302],[-75.37737,5.47293],[-75.37737,5.47286],[-75.37738,5.47281],[-75.37739,5.47277],[-75.3774,5.47273],[-75.37742,5.47269],[-75.37745,5.47266],[-75.37746,5.47264],[-75.37748,5.47263],[-75.37751,5.47261],[-75.37754,5.4726],[-75.37758,5.47259],[-75.37762,5.47259],[-75.37766,5.4726],[-75.37771,5.47261],[-75.37788,5.47264],[-75.37799,5.47266],[-75.37804,5.47266],[-75.37808,5.47267],[-75.37812,5.47267],[-75.37816,5.47267],[-75.3782,5.47266],[-75.37824,5.47265],[-75.37828,5.47264],[-75.37831,5.47263],[-75.37835,5.47261],[-75.37838,5.47259],[-75.37841,5.47257],[-75.37843,5.47254],[-75.37845,5.47252],[-75.37847,5.4725],[-75.37848,5.47247],[-75.3785,5.47245],[-75.37851,5.47242],[-75.37852,5.4724],[-75.37852,5.47237],[-75.37853,5.47234],[-75.37854,5.47229],[-75.37854,5.47226],[-75.37853,5.47224],[-75.37853,5.47221],[-75.37852,5.47219],[-75.37852,5.47216],[-75.37851,5.47214],[-75.37849,5.47211],[-75.37847,5.47208],[-75.37845,5.47205],[-75.37842,5.47203],[-75.37839,5.472],[-75.37834,5.47197],[-75.37819,5.47188],[-75.37809,5.47181],[-75.37806,5.47178],[-75.37802,5.47176],[-75.378,5.47174],[-75.37798,5.47171],[-75.37796,5.47169],[-75.37794,5.47166],[-75.37793,5.47163],[-75.37793,5.4716],[-75.37793,5.47157],[-75.37794,5.47154],[-75.37795,5.47151],[-75.37796,5.47147],[-75.37798,5.47144],[-75.378,5.47141],[-75.37803,5.47138],[-75.37806,5.47135],[-75.37809,5.47133],[-75.37813,5.4713],[-75.37817,5.47128],[-75.37821,5.47126],[-75.37825,5.47125],[-75.37828,5.47123],[-75.37832,5.47122],[-75.37837,5.47122],[-75.37846,5.4712],[-75.3786,5.47119],[-75.37869,5.47118],[-75.37877,5.47116],[-75.37885,5.47114],[-75.3789,5.47112],[-75.37894,5.47111],[-75.37899,5.47109],[-75.37903,5.47106],[-75.37907,5.47104],[-75.37911,5.47102],[-75.37915,5.47099],[-75.37918,5.47096],[-75.37924,5.47091],[-75.3793,5.47086],[-75.37934,5.4708],[-75.37938,5.47075],[-75.37941,5.47068],[-75.37947,5.47055],[-75.37951,5.47047],[-75.37956,5.47039],[-75.37963,5.47027],[-75.37968,5.47019],[-75.37969,5.47015],[-75.37971,5.47011],[-75.37972,5.47007],[-75.37973,5.47003],[-75.37973,5.46998],[-75.37973,5.46994],[-75.37972,5.46989],[-75.3797,5.46985],[-75.37968,5.46981],[-75.37967,5.4698],[-75.37966,5.46978],[-75.37962,5.46976],[-75.37959,5.46973],[-75.37955,5.46971],[-75.37951,5.4697],[-75.37947,5.46969],[-75.37943,5.46968],[-75.37939,5.46968],[-75.37933,5.46968],[-75.37913,5.46969],[-75.37906,5.46969],[-75.379,5.46969],[-75.37894,5.46968],[-75.37888,5.46967],[-75.37883,5.46966],[-75.37877,5.46964],[-75.37874,5.46963],[-75.37872,5.46962],[-75.37867,5.46959],[-75.37861,5.46954],[-75.37855,5.46949],[-75.37851,5.46945],[-75.37849,5.46943],[-75.37848,5.46941],[-75.37847,5.46939],[-75.37846,5.46937],[-75.37845,5.46935],[-75.37845,5.46933],[-75.37845,5.46929],[-75.37845,5.46925],[-75.37846,5.46921],[-75.37848,5.46917],[-75.3785,5.46913],[-75.37852,5.46908],[-75.37855,5.46904],[-75.37859,5.469],[-75.37863,5.46896],[-75.37867,5.46892],[-75.37871,5.46888],[-75.37876,5.46885],[-75.3788,5.46882],[-75.37885,5.46879],[-75.37897,5.46872],[-75.37905,5.46868],[-75.3791,5.46864],[-75.37915,5.4686],[-75.37918,5.46858],[-75.3792,5.46855],[-75.37923,5.46852],[-75.37925,5.46848],[-75.37927,5.46845],[-75.37928,5.46842],[-75.37929,5.46839],[-75.3793,5.46836],[-75.3793,5.46834],[-75.3793,5.46832],[-75.37929,5.46829],[-75.37929,5.46827],[-75.37928,5.46825],[-75.37927,5.46823],[-75.37925,5.46821],[-75.37924,5.4682],[-75.3792,5.46817],[-75.37916,5.46814],[-75.3791,5.46811],[-75.37898,5.46805],[-75.37892,5.46801],[-75.37887,5.46798],[-75.37883,5.46795],[-75.3788,5.46792],[-75.37878,5.46789],[-75.37876,5.46786],[-75.37875,5.46783],[-75.37875,5.46781],[-75.37874,5.46778],[-75.37875,5.46775],[-75.37876,5.46772],[-75.37877,5.46769],[-75.37878,5.46765],[-75.3788,5.46761],[-75.37883,5.46756],[-75.37886,5.4675],[-75.3789,5.46745],[-75.37897,5.46738],[-75.37901,5.46732],[-75.37904,5.46728],[-75.37906,5.46723],[-75.37908,5.46718],[-75.37908,5.46715],[-75.37909,5.46713],[-75.37909,5.4671],[-75.37909,5.46708],[-75.37908,5.46702],[-75.37908,5.46699],[-75.37907,5.46696],[-75.37905,5.46692],[-75.37904,5.46689],[-75.37902,5.46686],[-75.37901,5.46683],[-75.37899,5.4668],[-75.37897,5.46678],[-75.37894,5.46675],[-75.37892,5.46673],[-75.37889,5.4667],[-75.37886,5.46668],[-75.37879,5.46663],[-75.37866,5.46655],[-75.37861,5.46652],[-75.37858,5.46649],[-75.37856,5.46647],[-75.37854,5.46645],[-75.37853,5.46643],[-75.37851,5.4664],[-75.3785,5.46638],[-75.3785,5.46636],[-75.37849,5.46634],[-75.37849,5.46632],[-75.37849,5.46628],[-75.37849,5.46625],[-75.3785,5.46622],[-75.37851,5.46618],[-75.37853,5.46615],[-75.37855,5.46611],[-75.37857,5.46606],[-75.3786,5.46602],[-75.37863,5.46599],[-75.37866,5.46595],[-75.37872,5.46588],[-75.3788,5.4658],[-75.37892,5.46569],[-75.37896,5.46565],[-75.37899,5.46561],[-75.37903,5.46556],[-75.37906,5.46551],[-75.37909,5.46546],[-75.37911,5.46541],[-75.37913,5.46537],[-75.37914,5.46533],[-75.37915,5.46529],[-75.37916,5.46525],[-75.37916,5.46521],[-75.37917,5.46517],[-75.37917,5.46513],[-75.37917,5.46509],[-75.37917,5.46506],[-75.37916,5.46503],[-75.37916,5.465],[-75.37915,5.46497],[-75.37914,5.46494],[-75.37913,5.46492],[-75.37911,5.46489],[-75.37909,5.46487],[-75.37907,5.46485],[-75.37905,5.46484],[-75.37903,5.46482],[-75.37901,5.46481],[-75.37899,5.4648],[-75.37896,5.46478],[-75.3789,5.46477],[-75.37883,5.46475],[-75.37876,5.46474],[-75.37868,5.46473],[-75.3786,5.46473],[-75.37852,5.46474],[-75.37844,5.46474],[-75.37836,5.46476],[-75.37828,5.46477],[-75.3782,5.4648],[-75.37812,5.46482],[-75.37803,5.46486],[-75.37794,5.46489],[-75.37785,5.46494],[-75.37777,5.46498],[-75.37769,5.46503],[-75.37758,5.4651],[-75.37736,5.46525],[-75.37731,5.46529],[-75.37723,5.46535],[-75.37715,5.46542],[-75.37709,5.46549],[-75.37702,5.46555],[-75.37697,5.46562],[-75.37692,5.46568],[-75.37689,5.46573],[-75.37686,5.46578],[-75.37679,5.46591],[-75.37675,5.46599],[-75.37673,5.46603],[-75.3767,5.46608],[-75.37667,5.46611],[-75.37663,5.46615],[-75.3766,5.46618],[-75.37656,5.46621],[-75.37653,5.46623],[-75.3765,5.46625],[-75.37648,5.46626],[-75.37645,5.46627],[-75.37642,5.46628],[-75.37639,5.46628],[-75.37636,5.46628],[-75.37633,5.46628],[-75.37631,5.46627],[-75.37629,5.46626],[-75.37627,5.46625],[-75.37626,5.46624],[-75.37624,5.46622],[-75.37623,5.46621],[-75.37622,5.46618],[-75.37622,5.46616],[-75.37621,5.46613],[-75.37621,5.4661],[-75.3762,5.46603],[-75.37621,5.46596],[-75.37621,5.46588],[-75.37622,5.46582],[-75.37623,5.46576],[-75.37626,5.46561],[-75.37628,5.46552],[-75.37629,5.46542],[-75.37631,5.46528],[-75.37632,5.46519],[-75.37634,5.46512],[-75.37636,5.46505],[-75.37639,5.46497],[-75.37645,5.46485],[-75.37648,5.46477],[-75.3765,5.46472],[-75.3765,5.46469],[-75.3765,5.46466],[-75.37651,5.46463],[-75.3765,5.46459],[-75.3765,5.46456],[-75.37649,5.46452],[-75.37647,5.46448],[-75.37645,5.46444],[-75.3764,5.46435],[-75.37638,5.4643],[-75.37637,5.46428],[-75.37636,5.46426],[-75.37636,5.46424],[-75.37636,5.46422],[-75.37636,5.4642],[-75.37636,5.46417],[-75.37637,5.46415],[-75.37638,5.46412],[-75.3764,5.4641],[-75.37641,5.46407],[-75.37648,5.46399],[-75.37652,5.46394],[-75.37653,5.46392],[-75.37654,5.46389],[-75.37655,5.46386],[-75.37656,5.46384],[-75.37656,5.46381],[-75.37656,5.46378],[-75.37655,5.46374],[-75.37654,5.46371],[-75.37652,5.46365],[-75.37647,5.46355],[-75.37646,5.46352],[-75.37645,5.46349],[-75.37645,5.46346],[-75.37645,5.46344],[-75.37645,5.46341],[-75.37645,5.46339],[-75.37646,5.46336],[-75.37648,5.46333],[-75.37651,5.4633],[-75.37654,5.46328],[-75.37658,5.46325],[-75.37663,5.46322],[-75.37676,5.46315],[-75.37682,5.46311],[-75.37687,5.46308],[-75.37691,5.46304],[-75.37694,5.46302],[-75.37696,5.46299],[-75.37698,5.46297],[-75.377,5.46295],[-75.37701,5.46292],[-75.37702,5.4629],[-75.37703,5.46287],[-75.37703,5.46285],[-75.37704,5.4628],[-75.37703,5.46275],[-75.37703,5.46273],[-75.37702,5.46271],[-75.37701,5.46269],[-75.377,5.46267],[-75.37698,5.46264],[-75.37696,5.46261],[-75.37688,5.46253],[-75.37684,5.46248],[-75.37681,5.46244],[-75.37679,5.46241],[-75.37678,5.46237],[-75.37677,5.46233],[-75.37677,5.46229],[-75.37678,5.46225],[-75.37679,5.46222],[-75.37681,5.46219],[-75.37684,5.46215],[-75.37687,5.46211],[-75.37691,5.46207],[-75.37695,5.46203],[-75.37705,5.46194],[-75.37711,5.46189],[-75.37715,5.46184],[-75.37719,5.46178],[-75.37722,5.46173],[-75.37725,5.46168],[-75.37728,5.46161],[-75.37731,5.46153],[-75.37734,5.46146],[-75.37736,5.46141],[-75.37739,5.46136],[-75.37742,5.46131],[-75.37747,5.46126],[-75.37753,5.4612],[-75.37762,5.4611],[-75.3777,5.46101],[-75.37773,5.46096],[-75.37777,5.46092],[-75.3778,5.46087],[-75.37784,5.46081],[-75.37786,5.46077],[-75.37788,5.46072],[-75.3779,5.46068],[-75.37792,5.46064],[-75.37794,5.4606],[-75.37795,5.46055],[-75.37796,5.46052],[-75.37797,5.46048],[-75.37797,5.46044],[-75.37797,5.46039],[-75.37797,5.46035],[-75.37796,5.46031],[-75.37795,5.46028],[-75.37793,5.46025],[-75.37791,5.46022],[-75.37789,5.4602],[-75.37787,5.46018],[-75.37784,5.46017],[-75.37781,5.46016],[-75.37777,5.46015],[-75.37774,5.46015],[-75.37769,5.46014],[-75.37753,5.46015],[-75.37748,5.46015],[-75.37744,5.46015],[-75.37739,5.46014],[-75.37735,5.46013],[-75.3773,5.46011],[-75.37726,5.46009],[-75.37722,5.46007],[-75.37719,5.46005],[-75.37718,5.46004],[-75.37717,5.46002],[-75.37717,5.46001],[-75.37716,5.45999],[-75.37716,5.45997],[-75.37715,5.45995],[-75.37715,5.45991],[-75.37716,5.45987],[-75.37717,5.45982],[-75.37718,5.4598],[-75.37719,5.45977],[-75.37721,5.45974],[-75.37722,5.45972],[-75.37724,5.45969],[-75.37726,5.45967],[-75.37731,5.45962],[-75.37745,5.45949],[-75.37754,5.45942],[-75.37764,5.45935],[-75.37767,5.45932],[-75.37771,5.4593],[-75.37776,5.45928],[-75.3778,5.45926],[-75.37785,5.45924],[-75.3779,5.45923],[-75.37795,5.45923],[-75.37801,5.45922],[-75.37821,5.45921],[-75.37827,5.4592],[-75.37831,5.4592],[-75.37835,5.45919],[-75.37838,5.45917],[-75.37841,5.45916],[-75.37844,5.45914],[-75.37847,5.45911],[-75.37849,5.45908],[-75.3785,5.45905],[-75.37852,5.45901],[-75.37852,5.45897],[-75.37852,5.45893],[-75.37852,5.45884],[-75.37852,5.45879],[-75.37853,5.45876],[-75.37853,5.45872],[-75.37855,5.45869],[-75.37857,5.45866],[-75.37859,5.45863],[-75.37862,5.45861],[-75.37865,5.4586],[-75.37868,5.45858],[-75.37871,5.45857],[-75.37874,5.45856],[-75.37882,5.45855],[-75.37895,5.45853],[-75.37905,5.45851],[-75.3791,5.4585],[-75.37915,5.45849],[-75.37919,5.45847],[-75.37924,5.45845],[-75.37929,5.45843],[-75.37934,5.4584],[-75.37939,5.45838],[-75.37944,5.45834],[-75.37947,5.45831],[-75.37951,5.45828],[-75.37954,5.45825],[-75.37956,5.45822],[-75.37958,5.4582],[-75.37959,5.45817],[-75.37962,5.45812],[-75.37963,5.45807],[-75.37965,5.45801],[-75.37965,5.45794],[-75.37966,5.45788],[-75.37965,5.45781],[-75.37964,5.45776],[-75.37963,5.4577],[-75.37961,5.45764],[-75.37958,5.45759],[-75.37955,5.45753],[-75.37951,5.45749],[-75.37946,5.45744],[-75.3794,5.45738],[-75.37932,5.45731],[-75.37926,5.45725],[-75.37924,5.45722],[-75.37921,5.45718],[-75.37919,5.45715],[-75.37918,5.45712],[-75.37916,5.45708],[-75.37916,5.45704],[-75.37916,5.457],[-75.37916,5.45699],[-75.37916,5.45697],[-75.37918,5.45694],[-75.3792,5.45691],[-75.37923,5.45688],[-75.37927,5.45685],[-75.37932,5.45682],[-75.37937,5.45679],[-75.37953,5.45672],[-75.37963,5.45667],[-75.37975,5.4566],[-75.37998,5.45647],[-75.38005,5.45643],[-75.38013,5.4564],[-75.38043,5.45626],[-75.38054,5.45621],[-75.38072,5.45614],[-75.38081,5.45611],[-75.38087,5.45609],[-75.3809,5.45608],[-75.38094,5.45608],[-75.38103,5.45607],[-75.38114,5.45606],[-75.38125,5.45606],[-75.38135,5.45606],[-75.38147,5.45607],[-75.38155,5.45608],[-75.38167,5.4561],[-75.38177,5.45611],[-75.38187,5.45612],[-75.38197,5.45613],[-75.3821,5.45613],[-75.38223,5.45613],[-75.38234,5.45613],[-75.38244,5.45612],[-75.38248,5.45611],[-75.38253,5.4561],[-75.38257,5.45609],[-75.38261,5.45608],[-75.38264,5.45607],[-75.38267,5.45605],[-75.3827,5.45604],[-75.38273,5.45601],[-75.38277,5.45599],[-75.3828,5.45596],[-75.38283,5.45593],[-75.38285,5.45591],[-75.38286,5.45589],[-75.38286,5.45587],[-75.38286,5.45584],[-75.38285,5.45582],[-75.38284,5.4558],[-75.38281,5.45578],[-75.38279,5.45576],[-75.38275,5.45573],[-75.38261,5.45566],[-75.3824,5.45555],[-75.38234,5.45551],[-75.38227,5.45547],[-75.38222,5.45543],[-75.38217,5.45539],[-75.38201,5.45526],[-75.38186,5.45512],[-75.38162,5.45491],[-75.38156,5.45485],[-75.38152,5.45481],[-75.38148,5.45477],[-75.38144,5.45472],[-75.3814,5.45467],[-75.38134,5.45459],[-75.38129,5.45453],[-75.38122,5.45445],[-75.3811,5.45434],[-75.38102,5.45425],[-75.38094,5.45416],[-75.38083,5.45403],[-75.3808,5.45399],[-75.38075,5.45394],[-75.38068,5.45388],[-75.38059,5.4538],[-75.38054,5.45376],[-75.3805,5.45372],[-75.38046,5.45369],[-75.38042,5.45367],[-75.38037,5.45364],[-75.38032,5.45362],[-75.38026,5.4536],[-75.3802,5.45358],[-75.38014,5.45356],[-75.38009,5.45355],[-75.38003,5.45354],[-75.37998,5.45354],[-75.37991,5.45353],[-75.37982,5.45354],[-75.37975,5.45354],[-75.37969,5.45353],[-75.37964,5.45353],[-75.37959,5.45352],[-75.37952,5.4535],[-75.37932,5.45344],[-75.37919,5.45341],[-75.37909,5.45339],[-75.37885,5.45334],[-75.37867,5.4533],[-75.37851,5.45328],[-75.37837,5.45326],[-75.37823,5.45324],[-75.37811,5.45323],[-75.37801,5.45323],[-75.37796,5.45324],[-75.37788,5.45324],[-75.37776,5.45325],[-75.37767,5.45327],[-75.37757,5.45329],[-75.37748,5.45332],[-75.37733,5.45336],[-75.37726,5.45337],[-75.37721,5.45338],[-75.37717,5.45338],[-75.37715,5.45338],[-75.37713,5.45338],[-75.37711,5.45337],[-75.3771,5.45337],[-75.37709,5.45336],[-75.37708,5.45335],[-75.37707,5.45333],[-75.37707,5.45332],[-75.37707,5.4533],[-75.37707,5.45328],[-75.37707,5.45326],[-75.37708,5.45323],[-75.37712,5.45313],[-75.37713,5.45306],[-75.37714,5.45302],[-75.37715,5.45298],[-75.37715,5.45294],[-75.37714,5.4529],[-75.37714,5.45287],[-75.37712,5.45282],[-75.37706,5.45265],[-75.37702,5.45248],[-75.37697,5.45231],[-75.37694,5.4522],[-75.37692,5.45212],[-75.37691,5.45204],[-75.3769,5.45197],[-75.3769,5.45189],[-75.3769,5.45183],[-75.3769,5.45178],[-75.37691,5.45172],[-75.37692,5.45165],[-75.37696,5.45148],[-75.37704,5.45115],[-75.37707,5.45105],[-75.37708,5.45097],[-75.37709,5.45086],[-75.3771,5.45074],[-75.3771,5.45063],[-75.3771,5.45058],[-75.3771,5.45053],[-75.37709,5.45046],[-75.37708,5.4504],[-75.37706,5.45034],[-75.37703,5.45029],[-75.37702,5.45025],[-75.377,5.45022],[-75.37695,5.45016],[-75.3769,5.4501],[-75.37683,5.45002],[-75.37681,5.45],[-75.3768,5.44997],[-75.37678,5.44994],[-75.37677,5.44991],[-75.37676,5.44988],[-75.37676,5.44985],[-75.37676,5.4498],[-75.37677,5.44974],[-75.37678,5.44969],[-75.3768,5.44963],[-75.37683,5.44957],[-75.37686,5.44949],[-75.37696,5.44928],[-75.37699,5.44921],[-75.377,5.44916],[-75.37702,5.4491],[-75.37702,5.44905],[-75.37702,5.44899],[-75.37702,5.44894],[-75.37701,5.4489],[-75.377,5.44887],[-75.37698,5.44883],[-75.37696,5.4488],[-75.37694,5.44876],[-75.37691,5.4487],[-75.37688,5.44866],[-75.37686,5.44862],[-75.37684,5.4486],[-75.37684,5.44858],[-75.37684,5.44856],[-75.37683,5.44855],[-75.37682,5.44851],[-75.3768,5.44848],[-75.37673,5.44837],[-75.37669,5.44829],[-75.37668,5.44827],[-75.37666,5.44825],[-75.37662,5.44821],[-75.3766,5.44817],[-75.37658,5.44816],[-75.37656,5.44814],[-75.37652,5.44812],[-75.37644,5.44808],[-75.3764,5.44806],[-75.37633,5.44803],[-75.37626,5.44799],[-75.37618,5.44795],[-75.37614,5.44793],[-75.37612,5.44791],[-75.37609,5.44789],[-75.37607,5.44786],[-75.37605,5.44784],[-75.37603,5.44782],[-75.37602,5.44779],[-75.37601,5.44777],[-75.376,5.44774],[-75.376,5.44772],[-75.376,5.44769],[-75.376,5.44766],[-75.37601,5.44763],[-75.37602,5.4476],[-75.37603,5.44757],[-75.37605,5.44755],[-75.37606,5.44752],[-75.37608,5.4475],[-75.37612,5.44746],[-75.37615,5.44744],[-75.3762,5.44741],[-75.3763,5.44735],[-75.37637,5.44731],[-75.37643,5.44727],[-75.37648,5.44724],[-75.37651,5.4472],[-75.37654,5.44716],[-75.37656,5.44712],[-75.37662,5.44701],[-75.37666,5.44691],[-75.3767,5.4468],[-75.37671,5.44677],[-75.37672,5.44673],[-75.37673,5.44669],[-75.37673,5.44665],[-75.37674,5.4466],[-75.37674,5.44654],[-75.37674,5.44649],[-75.37674,5.44643],[-75.37673,5.44638],[-75.37672,5.44633],[-75.37672,5.44628],[-75.3767,5.44624],[-75.37669,5.4462],[-75.37667,5.44616],[-75.37664,5.44612],[-75.37662,5.44608],[-75.37658,5.44602],[-75.37643,5.44585],[-75.37636,5.44578],[-75.37631,5.44573],[-75.37626,5.44569],[-75.37615,5.4456],[-75.37603,5.44549],[-75.37598,5.44545],[-75.37594,5.44542],[-75.37589,5.44539],[-75.37584,5.44537],[-75.37579,5.44535],[-75.37574,5.44533],[-75.37555,5.44527],[-75.37544,5.44523],[-75.3754,5.44521],[-75.37536,5.44518],[-75.37532,5.44516],[-75.37528,5.44514],[-75.37522,5.44509],[-75.37513,5.445],[-75.37509,5.44496],[-75.37504,5.44491],[-75.37501,5.44488],[-75.37499,5.44484],[-75.37494,5.44474],[-75.37491,5.44469],[-75.37487,5.44465],[-75.37484,5.44461],[-75.3748,5.44457],[-75.37475,5.44454],[-75.3747,5.44451],[-75.37462,5.44446],[-75.37456,5.44442],[-75.37451,5.44439],[-75.37447,5.44434],[-75.37442,5.44428],[-75.3744,5.44425],[-75.37438,5.44422],[-75.37436,5.44419],[-75.37435,5.44415],[-75.37433,5.44412],[-75.37432,5.44408],[-75.3743,5.44402],[-75.37429,5.44396],[-75.37428,5.44388],[-75.37427,5.44376],[-75.37426,5.44368],[-75.37425,5.44365],[-75.37424,5.44362],[-75.37423,5.44359],[-75.37422,5.44356],[-75.3742,5.44354],[-75.37419,5.44351],[-75.37417,5.44349],[-75.37415,5.44347],[-75.3741,5.44342],[-75.37403,5.44336],[-75.37399,5.44332],[-75.37395,5.44328],[-75.37392,5.44324],[-75.37389,5.44319],[-75.37386,5.44314],[-75.37383,5.44307],[-75.37378,5.44294],[-75.37376,5.44289],[-75.37374,5.44285],[-75.37371,5.44281],[-75.37368,5.44277],[-75.37365,5.44274],[-75.37361,5.44271],[-75.37358,5.4427],[-75.37355,5.44268],[-75.37353,5.44268],[-75.37351,5.44298],[-75.3735,5.44326],[-75.3735,5.44338],[-75.37347,5.444],[-75.37347,5.44415],[-75.37347,5.44451],[-75.37356,5.44473],[-75.37371,5.44493],[-75.37391,5.44524],[-75.37431,5.44601],[-75.37447,5.44636],[-75.37467,5.44682],[-75.37483,5.44712],[-75.37504,5.44749],[-75.37521,5.44783],[-75.37536,5.44806],[-75.37552,5.44825],[-75.37565,5.44849],[-75.37577,5.44865],[-75.3759,5.44884],[-75.376,5.44917],[-75.37609,5.44944],[-75.37609,5.44983],[-75.37609,5.44989],[-75.37609,5.4502],[-75.37609,5.45048],[-75.37609,5.45092],[-75.37609,5.45106],[-75.37608,5.45127],[-75.37608,5.45151],[-75.37608,5.45171],[-75.37608,5.45185],[-75.37607,5.45191],[-75.376,5.45197],[-75.37595,5.45205],[-75.37583,5.45222],[-75.37572,5.45235],[-75.37564,5.45244],[-75.37546,5.4527],[-75.37523,5.45302],[-75.37504,5.45328],[-75.37488,5.45353],[-75.37477,5.45371],[-75.37466,5.45395],[-75.37448,5.4543],[-75.37429,5.45493],[-75.37413,5.45559],[-75.37413,5.45577],[-75.37413,5.45605],[-75.37428,5.4563],[-75.37486,5.4571],[-75.37503,5.45748],[-75.37506,5.45771],[-75.37508,5.45787],[-75.37509,5.45802],[-75.37509,5.45819],[-75.37509,5.4584],[-75.37509,5.45859],[-75.37501,5.45878],[-75.37488,5.45898],[-75.37475,5.45918],[-75.37465,5.45936],[-75.37463,5.45956],[-75.37461,5.45985],[-75.37464,5.46009],[-75.37472,5.46033],[-75.37495,5.46082],[-75.375,5.46093],[-75.37504,5.46101],[-75.37519,5.46126],[-75.37528,5.4615],[-75.3753,5.4616],[-75.3753,5.46162],[-75.37529,5.46166],[-75.37526,5.46173],[-75.37523,5.46179],[-75.37517,5.46189],[-75.37511,5.46198],[-75.37504,5.46207],[-75.375,5.4621],[-75.37494,5.46214],[-75.37485,5.46223],[-75.37476,5.46231],[-75.37432,5.46286],[-75.37422,5.46304],[-75.37421,5.46324],[-75.3742,5.46351],[-75.37415,5.46377],[-75.37413,5.4641],[-75.37413,5.46435],[-75.37413,5.46452],[-75.37416,5.46484],[-75.37415,5.46493],[-75.37421,5.46509],[-75.37426,5.46521],[-75.37435,5.46531],[-75.37447,5.46552],[-75.37452,5.4656],[-75.37458,5.46565],[-75.37461,5.46569],[-75.37464,5.46573],[-75.37469,5.46579],[-75.37484,5.46604],[-75.37492,5.4662],[-75.37496,5.46634],[-75.37497,5.46637],[-75.37501,5.46653],[-75.37501,5.4667],[-75.37501,5.46697],[-75.37499,5.4673],[-75.37492,5.46758],[-75.37478,5.46783],[-75.37467,5.46791],[-75.37462,5.46801],[-75.37461,5.46821],[-75.37476,5.46848],[-75.37476,5.46848],[-75.3748,5.46856],[-75.37478,5.46878],[-75.37482,5.46898],[-75.37483,5.46917],[-75.37483,5.46943],[-75.37483,5.46956],[-75.37483,5.46962],[-75.37474,5.46987],[-75.37472,5.47012],[-75.37472,5.47038],[-75.37472,5.47058],[-75.37472,5.47075],[-75.37472,5.47092],[-75.37472,5.4711],[-75.37468,5.47125],[-75.37464,5.47132],[-75.37462,5.47142],[-75.37459,5.4715],[-75.37454,5.47159],[-75.37449,5.47167],[-75.37445,5.47177],[-75.37437,5.47188],[-75.3743,5.472],[-75.37429,5.47204],[-75.37424,5.47215],[-75.37412,5.47233],[-75.37401,5.47249],[-75.37397,5.47265]]]},"properties":{"FID":2,"OBJECTID":3,"Nombre":"Páramo Sonsón","Poligono":15,"Area":608.540659879,"Shape_Leng":13518.8716276,"Shape_Area":1550318.07734}},{"type":"Feature","id":3,"geometry":{"type":"Polygon","coordinates":[[[-75.37723,5.50028],[-75.37731,5.5004],[-75.37741,5.50056],[-75.37763,5.50074],[-75.37795,5.50098],[-75.37811,5.50099],[-75.37825,5.50101],[-75.37838,5.501],[-75.37858,5.50096],[-75.37875,5.50088],[-75.37891,5.50079],[-75.37902,5.50072],[-75.37917,5.50059],[-75.37935,5.50044],[-75.37953,5.50029],[-75.37973,5.50019],[-75.38005,5.50016],[-75.38012,5.50016],[-75.38025,5.50016],[-75.38053,5.50016],[-75.38108,5.50026],[-75.38128,5.50029],[-75.38147,5.50032],[-75.38144,5.50024],[-75.38133,5.49987],[-75.38126,5.49964],[-75.38116,5.49949],[-75.3811,5.49941],[-75.38095,5.49927],[-75.38077,5.49908],[-75.38074,5.49902],[-75.38073,5.49895],[-75.38073,5.49889],[-75.38073,5.4988],[-75.38072,5.49874],[-75.3807,5.49867],[-75.38069,5.49861],[-75.38069,5.49855],[-75.38069,5.49845],[-75.38069,5.4984],[-75.38068,5.49835],[-75.38067,5.49831],[-75.38065,5.49828],[-75.38064,5.49826],[-75.38062,5.49824],[-75.3806,5.49823],[-75.38058,5.49821],[-75.38056,5.49821],[-75.38053,5.4982],[-75.3805,5.4982],[-75.38047,5.4982],[-75.38044,5.49821],[-75.38041,5.49822],[-75.38037,5.49823],[-75.38034,5.49824],[-75.38031,5.49826],[-75.38022,5.49831],[-75.37992,5.49851],[-75.37969,5.49864],[-75.37949,5.49876],[-75.37937,5.49886],[-75.37933,5.49891],[-75.37928,5.499],[-75.37922,5.49908],[-75.37903,5.49918],[-75.37885,5.49935],[-75.3787,5.49949],[-75.37852,5.49959],[-75.37835,5.49965],[-75.37819,5.49966],[-75.37806,5.49959],[-75.37792,5.49937],[-75.37777,5.49915],[-75.37774,5.49908],[-75.3777,5.49901],[-75.37766,5.49891],[-75.3776,5.49879],[-75.37754,5.49866],[-75.37744,5.49851],[-75.37736,5.49841],[-75.37733,5.49838],[-75.37726,5.49835],[-75.37718,5.49833],[-75.37712,5.49831],[-75.37706,5.49829],[-75.37698,5.49827],[-75.3769,5.49825],[-75.37685,5.49824],[-75.3768,5.49823],[-75.37676,5.49823],[-75.37672,5.49822],[-75.37665,5.49823],[-75.37652,5.49824],[-75.37648,5.49824],[-75.37644,5.49824],[-75.3764,5.49824],[-75.37637,5.49823],[-75.37634,5.49821],[-75.37633,5.4982],[-75.37632,5.49819],[-75.37631,5.49818],[-75.37631,5.49817],[-75.3763,5.49816],[-75.3763,5.49815],[-75.3763,5.49813],[-75.3763,5.49812],[-75.37631,5.49808],[-75.37633,5.49805],[-75.37635,5.498],[-75.37642,5.49787],[-75.37646,5.49778],[-75.37648,5.49774],[-75.37649,5.49771],[-75.3765,5.49768],[-75.37651,5.49764],[-75.37651,5.49761],[-75.37651,5.49758],[-75.37651,5.49755],[-75.3765,5.49752],[-75.37649,5.4975],[-75.37647,5.49747],[-75.37646,5.49745],[-75.37644,5.49743],[-75.37642,5.49742],[-75.37639,5.49741],[-75.37637,5.4974],[-75.37634,5.49739],[-75.37626,5.49738],[-75.37614,5.49737],[-75.37609,5.49736],[-75.37603,5.49735],[-75.37591,5.49732],[-75.3757,5.49727],[-75.37561,5.49725],[-75.37552,5.49722],[-75.37542,5.49719],[-75.37534,5.49716],[-75.37525,5.49712],[-75.37517,5.49708],[-75.37511,5.49705],[-75.37508,5.49703],[-75.37503,5.497],[-75.375,5.49696],[-75.37497,5.49693],[-75.37495,5.49691],[-75.37494,5.49689],[-75.37493,5.49685],[-75.37492,5.49682],[-75.37491,5.49678],[-75.37491,5.49673],[-75.37492,5.49668],[-75.37493,5.49663],[-75.37495,5.49659],[-75.37497,5.49654],[-75.37499,5.49651],[-75.37502,5.49647],[-75.37505,5.49644],[-75.37508,5.49641],[-75.37511,5.49639],[-75.37516,5.49637],[-75.37528,5.4963],[-75.37535,5.49627],[-75.37538,5.49624],[-75.37541,5.49622],[-75.37543,5.4962],[-75.37545,5.49618],[-75.37547,5.49614],[-75.37549,5.4961],[-75.37551,5.49606],[-75.37551,5.49602],[-75.37552,5.49598],[-75.37552,5.49593],[-75.37551,5.49588],[-75.3755,5.49583],[-75.37549,5.49578],[-75.37547,5.49572],[-75.37544,5.49567],[-75.37541,5.49561],[-75.37539,5.49557],[-75.37536,5.49552],[-75.37528,5.49541],[-75.37523,5.49535],[-75.3752,5.4953],[-75.37518,5.49525],[-75.37515,5.49518],[-75.37512,5.4951],[-75.37508,5.49499],[-75.37504,5.49486],[-75.37498,5.49468],[-75.37497,5.49463],[-75.37494,5.49454],[-75.37493,5.49445],[-75.37491,5.49436],[-75.3749,5.49423],[-75.37489,5.49415],[-75.37488,5.49396],[-75.37487,5.49387],[-75.37487,5.49382],[-75.37486,5.49377],[-75.37484,5.49372],[-75.37483,5.49368],[-75.37481,5.49364],[-75.37479,5.49362],[-75.37476,5.49359],[-75.37474,5.49357],[-75.37471,5.49355],[-75.37467,5.49353],[-75.37463,5.49352],[-75.37458,5.4935],[-75.37454,5.49349],[-75.37447,5.49348],[-75.3744,5.49347],[-75.37431,5.49346],[-75.37417,5.49346],[-75.37412,5.49346],[-75.37407,5.49346],[-75.37403,5.49345],[-75.37399,5.49344],[-75.37396,5.49343],[-75.37392,5.49342],[-75.37389,5.49341],[-75.37385,5.49339],[-75.37382,5.49336],[-75.37379,5.49334],[-75.37377,5.49331],[-75.37374,5.49327],[-75.37372,5.49324],[-75.3737,5.4932],[-75.3737,5.49318],[-75.37369,5.49316],[-75.37369,5.4931],[-75.37369,5.49305],[-75.37369,5.49299],[-75.3737,5.49291],[-75.37372,5.49284],[-75.37374,5.49276],[-75.37377,5.49269],[-75.3738,5.49259],[-75.37385,5.4925],[-75.3739,5.4924],[-75.37396,5.49229],[-75.37399,5.49223],[-75.37403,5.49217],[-75.37407,5.49211],[-75.37417,5.49198],[-75.3742,5.49192],[-75.37422,5.49188],[-75.37424,5.49184],[-75.37425,5.4918],[-75.37426,5.49176],[-75.37425,5.49172],[-75.37425,5.4917],[-75.37424,5.49168],[-75.37423,5.49165],[-75.37422,5.49163],[-75.37418,5.49157],[-75.37412,5.49149],[-75.37408,5.49142],[-75.37406,5.49136],[-75.37404,5.4913],[-75.37402,5.49123],[-75.37401,5.49115],[-75.37401,5.4911],[-75.374,5.49097],[-75.37398,5.49079],[-75.37397,5.49069],[-75.37396,5.49065],[-75.37395,5.49062],[-75.37394,5.49059],[-75.37393,5.49057],[-75.37391,5.49054],[-75.3739,5.49052],[-75.37385,5.49046],[-75.37378,5.49039],[-75.37374,5.49034],[-75.3737,5.4903],[-75.37369,5.49027],[-75.37368,5.49025],[-75.37366,5.49021],[-75.37365,5.49016],[-75.37362,5.49005],[-75.3736,5.48997],[-75.37358,5.48985],[-75.37357,5.48979],[-75.37356,5.48973],[-75.37355,5.48969],[-75.37353,5.48966],[-75.3735,5.48958],[-75.37346,5.48951],[-75.37344,5.48948],[-75.37342,5.48946],[-75.37341,5.48943],[-75.37338,5.48941],[-75.37336,5.48939],[-75.37334,5.48938],[-75.37331,5.48936],[-75.37329,5.48935],[-75.37326,5.48934],[-75.37323,5.48933],[-75.37319,5.48933],[-75.37315,5.48932],[-75.37312,5.48932],[-75.37308,5.48932],[-75.37303,5.48932],[-75.37297,5.48932],[-75.37297,5.48933],[-75.37297,5.48935],[-75.37303,5.48944],[-75.37308,5.48954],[-75.37309,5.48961],[-75.37309,5.48968],[-75.37308,5.49021],[-75.37308,5.49038],[-75.37308,5.49063],[-75.37308,5.49083],[-75.37308,5.49105],[-75.37308,5.49124],[-75.37308,5.49136],[-75.37307,5.49159],[-75.37307,5.49175],[-75.37307,5.49185],[-75.37307,5.49205],[-75.37302,5.49227],[-75.37297,5.49259],[-75.37292,5.49275],[-75.37288,5.49293],[-75.37278,5.49316],[-75.37274,5.49331],[-75.37262,5.49386],[-75.37246,5.49481],[-75.37237,5.49527],[-75.37242,5.4958],[-75.37244,5.49599],[-75.37266,5.49644],[-75.37299,5.49689],[-75.37345,5.49726],[-75.37371,5.49744],[-75.37384,5.49752],[-75.37401,5.49759],[-75.37421,5.49771],[-75.37469,5.49804],[-75.37499,5.49822],[-75.3751,5.49831],[-75.37526,5.49844],[-75.37542,5.49861],[-75.37554,5.49875],[-75.3757,5.49897],[-75.37571,5.49907],[-75.37571,5.49918],[-75.37581,5.49934],[-75.37606,5.49945],[-75.37627,5.49951],[-75.37638,5.49957],[-75.37645,5.49961],[-75.37658,5.49966],[-75.37664,5.49971],[-75.37681,5.49981],[-75.37704,5.49998],[-75.37723,5.50028]]]},"properties":{"FID":3,"OBJECTID":4,"Nombre":"Páramo Sonsón","Poligono":14,"Area":104.46294097,"Shape_Leng":4212.98710645,"Shape_Area":290066.737771}}]}