{"type":"FeatureCollection","name":"Reserva_Ley_2_1959","crs":{"type":"name","properties":{"name":"urn:ogc:def:crs:OGC:1.3:CRS84"}},"features":[{"type":"Feature","id":0,"geometry":{"type":"MultiPolygon","coordinates":[[[[-75.37506,5.45246],[-75.37483,5.45286],[-75.37483,5.45286],[-75.37506,5.45246]]],[[[-75.37497,5.46176],[-75.37482,5.4622],[-75.37482,5.4622],[-75.37497,5.46176]]],[[[-75.37149,5.48254],[-75.37149,5.48254],[-75.37141,5.48269],[-75.37149,5.48254]]],[[[-75.3706,5.48636],[-75.37085,5.48662],[-75.37085,5.48662],[-75.3706,5.48636]]],[[[-75.3728,5.49318],[-75.3728,5.49318],[-75.37265,5.49365],[-75.3728,5.49318]]],[[[-75.37971,5.50017],[-75.37971,5.50017],[-75.37971,5.50017],[-75.37971,5.50017]]],[[[-75.38047,5.50017],[-75.38099,5.50018],[-75.38099,5.50018],[-75.38047,5.50017]]],[[[-75.38441,5.50025],[-75.38441,5.50025],[-75.38442,5.50025],[-75.38441,5.50025]]],[[[-75.38606,5.50075],[-75.38632,5.50076],[-75.38632,5.50076],[-75.38606,5.50075]]],[[[-75.38977,5.5005],[-75.38977,5.5005],[-75.38983,5.5005],[-75.38977,5.5005]]]]},"properties":{"FID":0,"OBJECTID":1,"NOMBRE":"Reserva Forestal Central ley 2da Tipo A","NomMpio":"Aguadas","Ã_rea_ha":39844,"Shape_Leng":620.409153492,"Shape_Area":0}},{"type":"Feature","id":1,"geometry":{"type":"MultiPolygon","coordinates":[[[[-75.39847,5.50069],[-75.39868,5.50069],[-75.3986,5.50061],[-75.39816,5.5004],[-75.39762,5.50049],[-75.3973,5.50062],[-75.39794,5.50064],[-75.39797,5.50064],[-75.39796,5.50064],[-75.39795,5.50064],[-75.39847,5.50069]]],[[[-75.39335,5.5004],[-75.39413,5.50046],[-75.39402,5.50031],[-75.39382,5.50008],[-75.39359,5.49994],[-75.39346,5.49986],[-75.39329,5.49979],[-75.3931,5.49971],[-75.39284,5.49966],[-75.39283,5.49967],[-75.39299,5.49953],[-75.39288,5.49953],[-75.39248,5.49965],[-75.39247,5.49965],[-75.39243,5.49964],[-75.39212,5.49968],[-75.39168,5.4997],[-75.39097,5.49984],[-75.39025,5.5002],[-75.38985,5.50045],[-75.38977,5.5005],[-75.38983,5.5005],[-75.38998,5.5005],[-75.38998,5.5005],[-75.38997,5.50051],[-75.3906,5.50053],[-75.39068,5.50053],[-75.39109,5.50049],[-75.39142,5.50038],[-75.39155,5.50037],[-75.39335,5.5004]]],[[[-75.38908,5.50061],[-75.38908,5.50061],[-75.38866,5.50061],[-75.38806,5.50061],[-75.38793,5.50064],[-75.38826,5.50069],[-75.38853,5.5007],[-75.38908,5.50061]]],[[[-75.38606,5.50075],[-75.38632,5.50076],[-75.38613,5.50069],[-75.38563,5.50038],[-75.38541,5.50021],[-75.38448,5.50024],[-75.38441,5.50025],[-75.38442,5.50025],[-75.38442,5.50026],[-75.38458,5.50031],[-75.38485,5.5004],[-75.38494,5.50043],[-75.38492,5.50043],[-75.38556,5.50066],[-75.38567,5.50067],[-75.38565,5.50067],[-75.38561,5.50066],[-75.38589,5.5007],[-75.38581,5.50069],[-75.38581,5.50069],[-75.38599,5.50072],[-75.38606,5.50075]]],[[[-75.38047,5.50017],[-75.38099,5.50018],[-75.38097,5.50017],[-75.38087,5.50015],[-75.3803,5.50001],[-75.37995,5.50001],[-75.37973,5.50015],[-75.37973,5.50016],[-75.37971,5.50017],[-75.37971,5.50017],[-75.38042,5.50017],[-75.38049,5.50018],[-75.38047,5.50017]]],[[[-75.37532,5.49837],[-75.37526,5.49832],[-75.37455,5.49777],[-75.37432,5.4976],[-75.37432,5.4976],[-75.3743,5.49758],[-75.37364,5.49706],[-75.3733,5.49677],[-75.37286,5.49646],[-75.37257,5.49634],[-75.37259,5.4964],[-75.37257,5.49638],[-75.37257,5.49637],[-75.37259,5.49642],[-75.37277,5.49677],[-75.373,5.49703],[-75.37326,5.4972],[-75.3733,5.49724],[-75.37334,5.49727],[-75.3734,5.49731],[-75.37368,5.49751],[-75.37387,5.49766],[-75.37384,5.49763],[-75.37394,5.4977],[-75.37416,5.49784],[-75.37497,5.49823],[-75.37532,5.49837]]],[[[-75.37239,5.49573],[-75.37247,5.49557],[-75.3726,5.49533],[-75.37266,5.4951],[-75.37273,5.49443],[-75.37277,5.49366],[-75.3728,5.49318],[-75.37265,5.49365],[-75.37262,5.49378],[-75.37247,5.49417],[-75.37245,5.49429],[-75.37244,5.49428],[-75.37237,5.49468],[-75.37234,5.49525],[-75.37239,5.49573]]],[[[-75.37299,5.49198],[-75.37305,5.49148],[-75.3731,5.49081],[-75.37305,5.49017],[-75.37298,5.48921],[-75.37288,5.48878],[-75.37247,5.48811],[-75.37209,5.48764],[-75.37186,5.4875],[-75.37226,5.48791],[-75.37249,5.48819],[-75.37271,5.48859],[-75.37271,5.48871],[-75.3727,5.48869],[-75.3727,5.48898],[-75.37284,5.48947],[-75.37285,5.4896],[-75.37285,5.48998],[-75.37283,5.49077],[-75.37286,5.49114],[-75.37292,5.49155],[-75.37292,5.49151],[-75.37299,5.49198]]],[[[-75.3706,5.48636],[-75.37085,5.48662],[-75.3708,5.48649],[-75.37073,5.48627],[-75.37073,5.48584],[-75.37072,5.48537],[-75.37082,5.4847],[-75.37084,5.48441],[-75.37101,5.48379],[-75.37125,5.48307],[-75.37149,5.48254],[-75.37141,5.48269],[-75.37117,5.48322],[-75.3709,5.48357],[-75.37059,5.48423],[-75.3704,5.48496],[-75.37036,5.48545],[-75.37038,5.48565],[-75.37045,5.48604],[-75.3706,5.48636]]],[[[-75.37436,5.47161],[-75.37451,5.47136],[-75.37473,5.47096],[-75.37475,5.47053],[-75.37472,5.47031],[-75.37471,5.47038],[-75.37448,5.47119],[-75.37436,5.47161]]],[[[-75.37492,5.46716],[-75.37501,5.46679],[-75.37498,5.46646],[-75.37496,5.46622],[-75.37472,5.46584],[-75.3744,5.46531],[-75.3744,5.46535],[-75.37451,5.46579],[-75.37466,5.46618],[-75.37479,5.4666],[-75.37492,5.46716]]],[[[-75.37497,5.46176],[-75.37482,5.4622],[-75.3749,5.46206],[-75.37507,5.4618],[-75.37502,5.46163],[-75.37499,5.46159],[-75.37497,5.46176]]],[[[-75.37491,5.45764],[-75.37491,5.45749],[-75.37486,5.45727],[-75.37491,5.45764]]],[[[-75.37506,5.45246],[-75.37483,5.45286],[-75.37486,5.45283],[-75.37512,5.45256],[-75.37545,5.45235],[-75.37576,5.45208],[-75.37595,5.45194],[-75.37609,5.45148],[-75.37612,5.45093],[-75.37612,5.45041],[-75.3761,5.45015],[-75.37609,5.45046],[-75.37586,5.45098],[-75.37534,5.45187],[-75.37506,5.45246]]]]},"properties":{"FID":1,"OBJECTID":2,"NOMBRE":"Reserva Forestal Central ley 2da Tipo A","NomMpio":"Pacora","Ã_rea_ha":90,"Shape_Leng":7512.45751397,"Shape_Area":90411.072054}},{"type":"Feature","id":2,"geometry":{"type":"Polygon","coordinates":[[[-75.39428,5.50047],[-75.39429,5.50047],[-75.39429,5.50047],[-75.39428,5.50047]]]},"properties":{"FID":2,"OBJECTID":3,"NOMBRE":"Reserva Forestal Central ley 2da Tipo B","NomMpio":"Aguadas","Ã_rea_ha":108893,"Shape_Leng":2.10838149256,"Shape_Area":0}},{"type":"Feature","id":3,"geometry":{"type":"MultiPolygon","coordinates":[[[[-75.39428,5.50047],[-75.39429,5.50047],[-75.39408,5.50022],[-75.3937,5.49986],[-75.39327,5.49955],[-75.39299,5.49953],[-75.39283,5.49967],[-75.39284,5.49966],[-75.3931,5.49971],[-75.39329,5.49979],[-75.39346,5.49986],[-75.39359,5.49994],[-75.39382,5.50008],[-75.39402,5.50031],[-75.39413,5.50046],[-75.39425,5.50047],[-75.39425,5.50047],[-75.39428,5.50047]]],[[[-75.37603,5.44927],[-75.37607,5.44958],[-75.37604,5.44919],[-75.37599,5.44909],[-75.37603,5.44927]]],[[[-75.38048,5.42987],[-75.3803,5.43019],[-75.38056,5.42995],[-75.38077,5.42932],[-75.38075,5.42888],[-75.3807,5.42913],[-75.38066,5.42932],[-75.38048,5.42987]]],[[[-75.3808,5.42783],[-75.38084,5.42753],[-75.38084,5.42674],[-75.38084,5.42649],[-75.38081,5.4268],[-75.38078,5.42748],[-75.3808,5.42783]]],[[[-75.38084,5.4263],[-75.38084,5.42597],[-75.38081,5.42519],[-75.38079,5.42468],[-75.38087,5.42408],[-75.38083,5.42416],[-75.38083,5.42415],[-75.3807,5.42438],[-75.3807,5.42514],[-75.38078,5.42564],[-75.38078,5.42567],[-75.38081,5.42596],[-75.38084,5.4263]]],[[[-75.38133,5.42159],[-75.38133,5.42164],[-75.38152,5.42074],[-75.38159,5.42042],[-75.38183,5.41981],[-75.38177,5.41982],[-75.38166,5.4201],[-75.38158,5.42034],[-75.38147,5.42056],[-75.38135,5.42107],[-75.38133,5.42159]]],[[[-75.37432,5.4976],[-75.37432,5.4976],[-75.3743,5.49758],[-75.37432,5.4976]]]]},"properties":{"FID":3,"OBJECTID":4,"NOMBRE":"Reserva Forestal Central ley 2da Tipo B","NomMpio":"Pacora","Ã_rea_ha":8,"Shape_Leng":2062.50703574,"Shape_Area":8013.19388379}},{"type":"Feature","id":4,"geometry":{"type":"MultiPolygon","coordinates":[[[[-75.38183,5.41981],[-75.38177,5.41982],[-75.38183,5.41981],[-75.38183,5.41981]]],[[[-75.38133,5.42159],[-75.38133,5.42164],[-75.38133,5.42164],[-75.38133,5.42159]]],[[[-75.38075,5.42888],[-75.3807,5.42913],[-75.38075,5.42888],[-75.38075,5.42888]]],[[[-75.38048,5.42987],[-75.3803,5.43019],[-75.3803,5.43019],[-75.38048,5.42987]]]]},"properties":{"FID":4,"OBJECTID":5,"NOMBRE":"Reserva Forestal Central ley 2da Tipo B","NomMpio":"Salamina","Ã_rea_ha":92416,"Shape_Leng":165.198808178,"Shape_Area":0}},{"type":"Feature","id":5,"geometry":{"type":"MultiPolygon","coordinates":[[[[-75.40997,5.50553],[-75.40999,5.50549],[-75.41016,5.50512],[-75.40973,5.50484],[-75.40969,5.50494],[-75.40957,5.5048],[-75.40947,5.50469],[-75.40937,5.5046],[-75.40917,5.5044],[-75.40874,5.50398],[-75.40823,5.50348],[-75.4079,5.50336],[-75.40786,5.50334],[-75.40705,5.50303],[-75.40645,5.50284],[-75.40631,5.5028],[-75.40596,5.50267],[-75.4055,5.50251],[-75.40546,5.5025],[-75.40521,5.50245],[-75.4052,5.50245],[-75.40502,5.50241],[-75.40504,5.50242],[-75.40586,5.50282],[-75.40654,5.50321],[-75.40662,5.50323],[-75.40737,5.50371],[-75.40741,5.50375],[-75.40762,5.5039],[-75.40772,5.50398],[-75.408,5.50414],[-75.40854,5.50448],[-75.40912,5.50486],[-75.40916,5.5049],[-75.40968,5.50533],[-75.40969,5.50533],[-75.40976,5.50534],[-75.40983,5.50537],[-75.40988,5.5054],[-75.40992,5.50544],[-75.40995,5.5055],[-75.40996,5.50552],[-75.40997,5.50553]]],[[[-75.4046,5.50229],[-75.40442,5.50221],[-75.40431,5.50216],[-75.40405,5.50203],[-75.40383,5.50188],[-75.4034,5.50159],[-75.40311,5.50137],[-75.4026,5.50103],[-75.40218,5.50077],[-75.4017,5.50056],[-75.40159,5.50051],[-75.40121,5.50036],[-75.40081,5.50015],[-75.40046,5.49997],[-75.40021,5.49988],[-75.39994,5.49979],[-75.39974,5.49975],[-75.39942,5.49969],[-75.39876,5.49963],[-75.39856,5.49967],[-75.39837,5.49971],[-75.39811,5.49977],[-75.39784,5.49991],[-75.39752,5.50021],[-75.39748,5.5003],[-75.39562,5.50007],[-75.39544,5.49971],[-75.39466,5.49971],[-75.39522,5.50058],[-75.39526,5.50063],[-75.39554,5.50064],[-75.39561,5.50063],[-75.39714,5.50061],[-75.39718,5.50061],[-75.39724,5.50061],[-75.39732,5.5006],[-75.3974,5.50059],[-75.39774,5.50058],[-75.39783,5.50057],[-75.39791,5.50057],[-75.39799,5.50056],[-75.39806,5.50054],[-75.39813,5.50053],[-75.39819,5.5005],[-75.39823,5.50048],[-75.3983,5.50042],[-75.39833,5.5004],[-75.39837,5.50039],[-75.39841,5.50039],[-75.39845,5.50039],[-75.39849,5.50041],[-75.39852,5.50043],[-75.39855,5.50046],[-75.39861,5.50052],[-75.39865,5.50055],[-75.39873,5.50061],[-75.39876,5.50064],[-75.3988,5.50068],[-75.3988,5.50069],[-75.39884,5.50069],[-75.39949,5.50068],[-75.40037,5.501],[-75.40066,5.50114],[-75.40146,5.50143],[-75.40235,5.50161],[-75.40236,5.50161],[-75.40271,5.50168],[-75.40301,5.50186],[-75.40337,5.50197],[-75.40363,5.50198],[-75.40389,5.50206],[-75.40427,5.50222],[-75.40427,5.50222],[-75.40447,5.50227],[-75.4046,5.50229]]],[[[-75.38989,5.5005],[-75.38996,5.50044],[-75.39,5.50042],[-75.39005,5.50039],[-75.39011,5.50037],[-75.39023,5.50032],[-75.39029,5.5003],[-75.39034,5.50028],[-75.39039,5.50025],[-75.39043,5.50022],[-75.39047,5.50018],[-75.39053,5.5001],[-75.3906,5.50004],[-75.39064,5.5],[-75.39067,5.49996],[-75.39069,5.49991],[-75.39072,5.49986],[-75.39075,5.49974],[-75.39077,5.49969],[-75.3908,5.49964],[-75.39082,5.49961],[-75.39085,5.49959],[-75.39089,5.49958],[-75.39093,5.49958],[-75.39096,5.49959],[-75.391,5.49961],[-75.39106,5.49966],[-75.3911,5.49968],[-75.39116,5.49971],[-75.39123,5.49973],[-75.3913,5.49974],[-75.39138,5.49975],[-75.39146,5.49976],[-75.39155,5.49976],[-75.39163,5.49977],[-75.3918,5.49977],[-75.39189,5.49977],[-75.39197,5.49976],[-75.39205,5.49975],[-75.39213,5.49974],[-75.39221,5.49973],[-75.39227,5.49971],[-75.39234,5.49968],[-75.39238,5.49966],[-75.39246,5.49959],[-75.3925,5.49956],[-75.39256,5.49954],[-75.39263,5.49952],[-75.3927,5.4995],[-75.39278,5.49949],[-75.39286,5.49949],[-75.39294,5.49948],[-75.39302,5.49948],[-75.39305,5.49948],[-75.39308,5.49946],[-75.39327,5.4993],[-75.39327,5.49917],[-75.39273,5.49917],[-75.39273,5.49863],[-75.39129,5.4988],[-75.39079,5.49886],[-75.38948,5.49918],[-75.38732,5.49994],[-75.38657,5.49968],[-75.38314,5.49849],[-75.38321,5.50018],[-75.38322,5.50023],[-75.38403,5.50019],[-75.38442,5.50025],[-75.38442,5.50026],[-75.38458,5.50031],[-75.38466,5.50034],[-75.38474,5.50034],[-75.38492,5.50034],[-75.385,5.50035],[-75.38509,5.50035],[-75.38517,5.50036],[-75.38524,5.50038],[-75.38531,5.50039],[-75.38538,5.50042],[-75.38542,5.50045],[-75.3855,5.50051],[-75.38554,5.50054],[-75.3856,5.50056],[-75.38567,5.50058],[-75.38575,5.5006],[-75.38583,5.50061],[-75.38591,5.50061],[-75.38609,5.50062],[-75.38635,5.50062],[-75.38717,5.50061],[-75.38744,5.50061],[-75.38762,5.50062],[-75.38771,5.50062],[-75.38779,5.50062],[-75.38788,5.50063],[-75.38796,5.50064],[-75.38803,5.50065],[-75.38809,5.50067],[-75.38826,5.50069],[-75.38853,5.5007],[-75.38864,5.50068],[-75.38867,5.50067],[-75.38873,5.50065],[-75.38881,5.50064],[-75.38888,5.50063],[-75.38896,5.50063],[-75.38899,5.50063],[-75.38908,5.50061],[-75.38942,5.50052],[-75.38983,5.5005],[-75.38989,5.5005]]],[[[-75.38246,5.50022],[-75.38234,5.50018],[-75.38229,5.50017],[-75.38227,5.50016],[-75.38179,5.50002],[-75.38134,5.49991],[-75.38132,5.49991],[-75.38072,5.49985],[-75.38034,5.49987],[-75.38028,5.49979],[-75.38028,5.49974],[-75.38024,5.49972],[-75.38022,5.49969],[-75.38004,5.49949],[-75.37984,5.4993],[-75.37964,5.49912],[-75.3796,5.49908],[-75.37944,5.49893],[-75.37919,5.49883],[-75.37892,5.49886],[-75.3787,5.49902],[-75.37864,5.49908],[-75.37852,5.4992],[-75.37812,5.4992],[-75.37767,5.49748],[-75.37703,5.49704],[-75.37703,5.49649],[-75.37649,5.4965],[-75.37649,5.49704],[-75.37613,5.49776],[-75.37542,5.49812],[-75.37535,5.49791],[-75.37512,5.49776],[-75.37499,5.49776],[-75.37459,5.49719],[-75.37432,5.4976],[-75.37418,5.4974],[-75.37424,5.49714],[-75.37437,5.4969],[-75.3745,5.49666],[-75.37457,5.4964],[-75.37455,5.49613],[-75.37444,5.49588],[-75.37428,5.49566],[-75.37413,5.49544],[-75.37404,5.49518],[-75.37395,5.49492],[-75.37382,5.49468],[-75.37366,5.49446],[-75.37351,5.49424],[-75.37334,5.49403],[-75.37323,5.49396],[-75.37323,5.49325],[-75.37323,5.49271],[-75.37319,5.49263],[-75.37326,5.49251],[-75.3733,5.49224],[-75.37324,5.49198],[-75.37322,5.49194],[-75.37331,5.49165],[-75.37338,5.49127],[-75.37341,5.49081],[-75.37343,5.49018],[-75.37348,5.48964],[-75.37363,5.48934],[-75.37363,5.48904],[-75.37359,5.48871],[-75.37351,5.48848],[-75.37331,5.48812],[-75.37295,5.48777],[-75.37254,5.48751],[-75.37222,5.48718],[-75.37201,5.48696],[-75.37186,5.48657],[-75.37186,5.48617],[-75.37176,5.48583],[-75.37163,5.48546],[-75.37125,5.48523],[-75.37121,5.48522],[-75.3712,5.4853],[-75.37119,5.48537],[-75.37117,5.48544],[-75.37114,5.4855],[-75.37112,5.48554],[-75.37107,5.48561],[-75.37105,5.48565],[-75.37104,5.48569],[-75.37103,5.48573],[-75.37103,5.48575],[-75.37103,5.48576],[-75.37104,5.4858],[-75.37106,5.48583],[-75.3711,5.48589],[-75.37112,5.48593],[-75.37113,5.48595],[-75.37113,5.48596],[-75.37113,5.486],[-75.37113,5.48604],[-75.37111,5.48608],[-75.37109,5.48612],[-75.37104,5.48619],[-75.37102,5.48623],[-75.37099,5.48628],[-75.37098,5.48635],[-75.37097,5.48641],[-75.37096,5.48649],[-75.37096,5.48656],[-75.37096,5.48663],[-75.37097,5.4867],[-75.37097,5.48673],[-75.37102,5.48678],[-75.37142,5.48713],[-75.37146,5.48719],[-75.37184,5.48749],[-75.37226,5.48791],[-75.37249,5.48819],[-75.37271,5.48859],[-75.37271,5.4886],[-75.37276,5.48865],[-75.3728,5.48868],[-75.37282,5.48872],[-75.37285,5.48879],[-75.37287,5.48885],[-75.37287,5.48885],[-75.37289,5.48893],[-75.3729,5.48901],[-75.3729,5.48909],[-75.3729,5.48918],[-75.37291,5.48935],[-75.37291,5.4898],[-75.37291,5.48998],[-75.37292,5.49015],[-75.37292,5.49023],[-75.37293,5.49031],[-75.37294,5.49037],[-75.37295,5.49039],[-75.37296,5.49046],[-75.37299,5.49052],[-75.37302,5.49056],[-75.37308,5.49064],[-75.3731,5.49068],[-75.37312,5.49073],[-75.37313,5.49077],[-75.37314,5.49079],[-75.37314,5.49085],[-75.37314,5.49091],[-75.37314,5.49097],[-75.37312,5.49103],[-75.3731,5.49108],[-75.37308,5.49112],[-75.37302,5.4912],[-75.37299,5.49124],[-75.37297,5.4913],[-75.37295,5.49137],[-75.37293,5.49144],[-75.37293,5.49152],[-75.37293,5.49153],[-75.373,5.49204],[-75.37298,5.49243],[-75.37293,5.49274],[-75.37284,5.49308],[-75.37265,5.49365],[-75.37262,5.49378],[-75.37247,5.49417],[-75.37247,5.4942],[-75.37252,5.49427],[-75.37255,5.49431],[-75.37258,5.49437],[-75.3726,5.49444],[-75.3726,5.49444],[-75.37261,5.49451],[-75.37262,5.49459],[-75.37263,5.49468],[-75.37263,5.49476],[-75.37264,5.49494],[-75.37264,5.49502],[-75.37264,5.4952],[-75.37263,5.49537],[-75.37263,5.49546],[-75.37262,5.49554],[-75.37261,5.49562],[-75.3726,5.4957],[-75.37258,5.49577],[-75.37255,5.49583],[-75.37253,5.49587],[-75.37247,5.49594],[-75.37245,5.49597],[-75.37245,5.49598],[-75.37246,5.49604],[-75.37247,5.49603],[-75.37249,5.49609],[-75.37253,5.49621],[-75.37257,5.49625],[-75.3726,5.49629],[-75.37266,5.49637],[-75.37269,5.4964],[-75.37273,5.49643],[-75.37281,5.49649],[-75.37285,5.49652],[-75.37292,5.49659],[-75.37296,5.49662],[-75.373,5.49665],[-75.37306,5.49668],[-75.37312,5.4967],[-75.37319,5.49671],[-75.37341,5.49675],[-75.37348,5.49676],[-75.37354,5.49678],[-75.3736,5.49681],[-75.37365,5.49684],[-75.37369,5.49689],[-75.37371,5.49695],[-75.37373,5.49701],[-75.37374,5.49706],[-75.37375,5.49708],[-75.37378,5.49729],[-75.37378,5.4973],[-75.37379,5.49737],[-75.37381,5.49743],[-75.37384,5.49749],[-75.37386,5.49754],[-75.37392,5.49762],[-75.37395,5.49766],[-75.37398,5.49771],[-75.37399,5.49773],[-75.37416,5.49784],[-75.3748,5.49815],[-75.37486,5.49816],[-75.37493,5.49818],[-75.37499,5.4982],[-75.37505,5.49823],[-75.37508,5.49828],[-75.37508,5.49828],[-75.37542,5.49841],[-75.37545,5.49841],[-75.37598,5.49861],[-75.37649,5.4989],[-75.37671,5.4991],[-75.37686,5.49945],[-75.3771,5.49977],[-75.3771,5.49977],[-75.37732,5.49981],[-75.37739,5.49982],[-75.37745,5.49984],[-75.37751,5.49987],[-75.37756,5.4999],[-75.37759,5.49996],[-75.37762,5.50002],[-75.37763,5.50008],[-75.37763,5.50009],[-75.37764,5.50016],[-75.37765,5.50024],[-75.37765,5.50025],[-75.37798,5.50037],[-75.37846,5.50032],[-75.37895,5.50021],[-75.37908,5.5002],[-75.3791,5.50019],[-75.37914,5.50016],[-75.37919,5.50013],[-75.37926,5.5001],[-75.37932,5.50009],[-75.37939,5.50007],[-75.37961,5.50004],[-75.37968,5.50003],[-75.37974,5.50001],[-75.3798,5.49998],[-75.37984,5.49996],[-75.37991,5.49991],[-75.37995,5.49989],[-75.37999,5.49988],[-75.38003,5.49987],[-75.38007,5.49988],[-75.3801,5.49989],[-75.38014,5.49991],[-75.38021,5.49996],[-75.38025,5.49999],[-75.3803,5.50002],[-75.38035,5.50004],[-75.38053,5.5001],[-75.38059,5.50012],[-75.38064,5.50015],[-75.38068,5.50018],[-75.38246,5.50022]]],[[[-75.37153,5.48246],[-75.37152,5.48252],[-75.37151,5.48259],[-75.3715,5.48267],[-75.37149,5.48291],[-75.37148,5.48299],[-75.37147,5.48306],[-75.37146,5.48314],[-75.37144,5.4832],[-75.37141,5.48326],[-75.37139,5.48331],[-75.37133,5.48339],[-75.3713,5.48343],[-75.37127,5.48349],[-75.37125,5.48356],[-75.37124,5.48364],[-75.37123,5.48372],[-75.37123,5.4838],[-75.37122,5.48397],[-75.37122,5.48415],[-75.37122,5.48469],[-75.37122,5.4847],[-75.37123,5.48464],[-75.3713,5.48437],[-75.37138,5.48412],[-75.37154,5.4839],[-75.37176,5.48374],[-75.37201,5.48362],[-75.37224,5.48348],[-75.37243,5.4833],[-75.37258,5.48307],[-75.37271,5.48283],[-75.37287,5.48261],[-75.37304,5.4824],[-75.37321,5.48219],[-75.37338,5.48198],[-75.37348,5.48187],[-75.37356,5.48177],[-75.37371,5.48155],[-75.3738,5.48129],[-75.37383,5.48102],[-75.37387,5.48075],[-75.37397,5.4805],[-75.37398,5.48049],[-75.37414,5.48029],[-75.37431,5.48008],[-75.37442,5.47983],[-75.37447,5.47957],[-75.37447,5.4793],[-75.37445,5.47902],[-75.37441,5.47875],[-75.37432,5.4785],[-75.37428,5.47841],[-75.3742,5.47825],[-75.37412,5.478],[-75.37415,5.47773],[-75.37428,5.47749],[-75.37441,5.47725],[-75.37448,5.477],[-75.37447,5.47683],[-75.37446,5.47672],[-75.3744,5.47646],[-75.37435,5.47619],[-75.37436,5.47592],[-75.37449,5.47568],[-75.37471,5.47552],[-75.37496,5.47542],[-75.37522,5.47534],[-75.37547,5.47525],[-75.37569,5.47509],[-75.37586,5.47487],[-75.3759,5.47481],[-75.37601,5.47465],[-75.37619,5.47445],[-75.37641,5.47428],[-75.37665,5.47416],[-75.3769,5.47407],[-75.37716,5.47398],[-75.3774,5.47386],[-75.37759,5.47367],[-75.37773,5.47343],[-75.37779,5.47317],[-75.37781,5.4729],[-75.37783,5.47263],[-75.37791,5.47237],[-75.37806,5.47214],[-75.37825,5.47194],[-75.37845,5.47177],[-75.37865,5.47158],[-75.3788,5.47136],[-75.37887,5.47109],[-75.37882,5.47083],[-75.37868,5.47059],[-75.37851,5.47039],[-75.37834,5.47018],[-75.37819,5.46995],[-75.37811,5.46969],[-75.37811,5.46942],[-75.37815,5.46915],[-75.37818,5.46888],[-75.37821,5.46861],[-75.37824,5.46848],[-75.37826,5.46834],[-75.37831,5.46808],[-75.3783,5.46781],[-75.37822,5.46755],[-75.37811,5.4673],[-75.37806,5.46704],[-75.37808,5.46676],[-75.37815,5.4665],[-75.37821,5.46624],[-75.37824,5.46597],[-75.37817,5.4657],[-75.37804,5.46558],[-75.37798,5.46552],[-75.37771,5.46546],[-75.37745,5.4655],[-75.3772,5.46561],[-75.37696,5.46574],[-75.3767,5.46583],[-75.37644,5.46579],[-75.37626,5.46559],[-75.37619,5.46533],[-75.37616,5.46506],[-75.37612,5.46479],[-75.37608,5.46452],[-75.37605,5.46425],[-75.37605,5.46398],[-75.37606,5.46371],[-75.3761,5.46344],[-75.3761,5.46341],[-75.37613,5.46317],[-75.37616,5.4629],[-75.37621,5.46264],[-75.37631,5.46238],[-75.37642,5.46214],[-75.37654,5.46189],[-75.37666,5.46165],[-75.37677,5.4614],[-75.37686,5.46114],[-75.37693,5.46088],[-75.37697,5.46066],[-75.37697,5.46062],[-75.37703,5.46035],[-75.37715,5.4601],[-75.37734,5.45991],[-75.37734,5.45991],[-75.37757,5.45977],[-75.3778,5.45964],[-75.37785,5.45961],[-75.37802,5.45947],[-75.37803,5.45946],[-75.37818,5.45926],[-75.37827,5.459],[-75.37829,5.45873],[-75.37828,5.45846],[-75.3783,5.45819],[-75.3784,5.45794],[-75.37862,5.45778],[-75.37888,5.4577],[-75.37914,5.45766],[-75.37941,5.45762],[-75.37968,5.45758],[-75.37994,5.45752],[-75.3802,5.45743],[-75.38045,5.45733],[-75.38069,5.4572],[-75.38092,5.45706],[-75.38113,5.45689],[-75.38132,5.45669],[-75.38143,5.45645],[-75.38142,5.45617],[-75.38134,5.45592],[-75.38127,5.45566],[-75.38119,5.4554],[-75.38102,5.45518],[-75.38079,5.45503],[-75.38056,5.4549],[-75.38033,5.45475],[-75.38009,5.45463],[-75.37983,5.45458],[-75.37956,5.45456],[-75.37929,5.45454],[-75.37903,5.45447],[-75.37879,5.45434],[-75.37855,5.45421],[-75.37831,5.45409],[-75.37805,5.45402],[-75.37778,5.454],[-75.37751,5.45399],[-75.37724,5.45396],[-75.37697,5.4539],[-75.37673,5.45378],[-75.37654,5.45358],[-75.37645,5.45333],[-75.37644,5.45306],[-75.37645,5.45279],[-75.37646,5.45252],[-75.37646,5.45225],[-75.37643,5.45197],[-75.37642,5.45185],[-75.37641,5.45188],[-75.37639,5.45193],[-75.37635,5.45198],[-75.3763,5.45202],[-75.37624,5.45204],[-75.37618,5.45206],[-75.37611,5.45208],[-75.37589,5.45211],[-75.37582,5.45213],[-75.37575,5.45215],[-75.3757,5.45217],[-75.37566,5.4522],[-75.37562,5.45224],[-75.37555,5.45231],[-75.37548,5.45237],[-75.37544,5.45241],[-75.37541,5.45245],[-75.37538,5.4525],[-75.37536,5.45255],[-75.3753,5.45273],[-75.37527,5.45279],[-75.37525,5.45284],[-75.37521,5.45288],[-75.37511,5.45299],[-75.37508,5.45302],[-75.37502,5.45311],[-75.37499,5.45314],[-75.37496,5.45318],[-75.37489,5.45325],[-75.37486,5.45329],[-75.37483,5.45334],[-75.3748,5.45339],[-75.37476,5.45351],[-75.37473,5.45356],[-75.3747,5.45362],[-75.37467,5.45366],[-75.37462,5.4537],[-75.37457,5.45373],[-75.37451,5.45375],[-75.37449,5.45382],[-75.37442,5.45441],[-75.37443,5.45473],[-75.37444,5.45473],[-75.37445,5.45478],[-75.37445,5.45479],[-75.37446,5.45485],[-75.37446,5.45491],[-75.37445,5.45497],[-75.37445,5.45498],[-75.37449,5.45528],[-75.37467,5.4561],[-75.37476,5.45662],[-75.37482,5.45701],[-75.37485,5.45704],[-75.37492,5.45711],[-75.37495,5.45715],[-75.37498,5.45719],[-75.37501,5.45725],[-75.37503,5.45732],[-75.37503,5.45732],[-75.37505,5.45739],[-75.37506,5.45747],[-75.37506,5.45756],[-75.37507,5.45773],[-75.37507,5.45791],[-75.37507,5.45809],[-75.37507,5.45826],[-75.37507,5.45844],[-75.37506,5.45861],[-75.37505,5.4587],[-75.37504,5.45877],[-75.37503,5.45885],[-75.37501,5.45892],[-75.37501,5.45893],[-75.37508,5.45946],[-75.37513,5.46054],[-75.37506,5.46111],[-75.37501,5.46143],[-75.37502,5.46144],[-75.37504,5.46151],[-75.37505,5.46156],[-75.37505,5.46158],[-75.37506,5.46166],[-75.37507,5.46174],[-75.37507,5.46183],[-75.37508,5.46191],[-75.37508,5.46208],[-75.37508,5.46217],[-75.37507,5.46225],[-75.37507,5.46233],[-75.37506,5.46241],[-75.37504,5.46248],[-75.37503,5.46255],[-75.375,5.46261],[-75.37497,5.46266],[-75.37491,5.46273],[-75.37488,5.46278],[-75.37485,5.46283],[-75.37483,5.46289],[-75.37477,5.46306],[-75.37474,5.46312],[-75.37471,5.46317],[-75.37468,5.46321],[-75.37457,5.46331],[-75.37454,5.46335],[-75.37448,5.46343],[-75.37445,5.46347],[-75.3744,5.46352],[-75.37432,5.46406],[-75.37431,5.4646],[-75.37435,5.46489],[-75.37441,5.46497],[-75.37444,5.46501],[-75.37446,5.46506],[-75.37449,5.46512],[-75.37455,5.4653],[-75.37457,5.46535],[-75.3746,5.46541],[-75.37463,5.46545],[-75.37469,5.46552],[-75.37472,5.46556],[-75.37475,5.46561],[-75.37477,5.46567],[-75.37484,5.46585],[-75.37486,5.46591],[-75.37489,5.46596],[-75.37492,5.466],[-75.37498,5.46608],[-75.37501,5.46612],[-75.37503,5.46618],[-75.37505,5.46625],[-75.37505,5.46625],[-75.37507,5.46632],[-75.37508,5.4664],[-75.37508,5.46648],[-75.37509,5.46657],[-75.37509,5.46674],[-75.37509,5.46691],[-75.37508,5.46699],[-75.37507,5.46707],[-75.37506,5.46715],[-75.37505,5.46722],[-75.37503,5.46729],[-75.375,5.46735],[-75.37498,5.4674],[-75.37494,5.46744],[-75.37498,5.46813],[-75.37499,5.46918],[-75.37499,5.46919],[-75.375,5.4692],[-75.37503,5.46927],[-75.37505,5.46935],[-75.37505,5.46936],[-75.37506,5.4694],[-75.37507,5.46945],[-75.37508,5.46955],[-75.37509,5.46965],[-75.37509,5.46972],[-75.37509,5.46974],[-75.37509,5.46982],[-75.37509,5.46995],[-75.37509,5.47001],[-75.37509,5.47007],[-75.37508,5.47025],[-75.37508,5.47035],[-75.37507,5.47045],[-75.37505,5.47054],[-75.37503,5.47063],[-75.37501,5.4707],[-75.37498,5.47074],[-75.37493,5.47081],[-75.37491,5.47085],[-75.3749,5.47088],[-75.3749,5.47092],[-75.3749,5.47094],[-75.3749,5.47096],[-75.37492,5.471],[-75.37494,5.47104],[-75.37499,5.47111],[-75.37502,5.47114],[-75.37504,5.4712],[-75.37505,5.47123],[-75.37505,5.47125],[-75.37506,5.47131],[-75.37506,5.47137],[-75.37505,5.47143],[-75.37504,5.47149],[-75.37501,5.47154],[-75.37499,5.47158],[-75.37493,5.47166],[-75.3749,5.4717],[-75.37487,5.47175],[-75.37485,5.47181],[-75.37479,5.47199],[-75.37477,5.47205],[-75.37474,5.4721],[-75.37471,5.47214],[-75.3746,5.47224],[-75.37457,5.47228],[-75.37451,5.47236],[-75.37447,5.47239],[-75.37443,5.47243],[-75.37436,5.47249],[-75.37432,5.47252],[-75.37429,5.47256],[-75.37422,5.47263],[-75.37419,5.47267],[-75.37412,5.47274],[-75.37409,5.47278],[-75.37406,5.47282],[-75.37403,5.47288],[-75.37401,5.47295],[-75.374,5.47302],[-75.37399,5.4731],[-75.37398,5.47319],[-75.37398,5.47327],[-75.37398,5.47345],[-75.37398,5.47389],[-75.37398,5.47407],[-75.37398,5.47424],[-75.37397,5.47433],[-75.37396,5.47441],[-75.37395,5.47448],[-75.37393,5.47455],[-75.37391,5.47462],[-75.37388,5.47466],[-75.37382,5.47474],[-75.37379,5.47478],[-75.37377,5.47484],[-75.37375,5.4749],[-75.37374,5.47497],[-75.37372,5.47504],[-75.3737,5.47519],[-75.37369,5.47525],[-75.37372,5.47557],[-75.37369,5.47594],[-75.37354,5.47625],[-75.37325,5.47648],[-75.37267,5.47679],[-75.37267,5.47679],[-75.37265,5.4768],[-75.37235,5.47703],[-75.37229,5.47711],[-75.37226,5.47714],[-75.37222,5.47718],[-75.37217,5.47722],[-75.37202,5.47746],[-75.37205,5.47742],[-75.37184,5.47776],[-75.37155,5.47862],[-75.37158,5.47898],[-75.37166,5.47946],[-75.37167,5.47947],[-75.37171,5.4795],[-75.37174,5.47954],[-75.3718,5.47961],[-75.37184,5.47965],[-75.37191,5.47972],[-75.37194,5.47976],[-75.37197,5.4798],[-75.372,5.47986],[-75.37202,5.47993],[-75.37203,5.47998],[-75.37204,5.48],[-75.37205,5.48008],[-75.37205,5.48016],[-75.37206,5.48024],[-75.37206,5.48041],[-75.37205,5.48055],[-75.37208,5.48062],[-75.37215,5.48105],[-75.37215,5.48142],[-75.37191,5.48194],[-75.37168,5.48224],[-75.37169,5.48222],[-75.37159,5.48235],[-75.37153,5.48246]]],[[[-75.37369,5.47527],[-75.37368,5.47529],[-75.37368,5.47529],[-75.37369,5.47527]]],[[[-75.37591,5.45087],[-75.37591,5.45087],[-75.37594,5.45091],[-75.37598,5.45094],[-75.37606,5.451],[-75.3761,5.45103],[-75.37614,5.45107],[-75.3762,5.45115],[-75.37623,5.45119],[-75.37631,5.45126],[-75.37634,5.4513],[-75.37637,5.45133],[-75.37636,5.45131],[-75.37636,5.45117],[-75.37637,5.45093],[-75.37637,5.4509],[-75.37634,5.45062],[-75.37626,5.45036],[-75.37616,5.45011],[-75.37612,5.45002],[-75.37611,5.45],[-75.37609,5.45046],[-75.37591,5.45087]]],[[[-75.37568,5.44746],[-75.37569,5.4474],[-75.3757,5.44729],[-75.37565,5.44703],[-75.3756,5.44694],[-75.37557,5.44687],[-75.37567,5.44737],[-75.37568,5.44746]]],[[[-75.4089,5.43982],[-75.409,5.43996],[-75.40887,5.44015],[-75.40861,5.44052],[-75.40779,5.43986],[-75.40776,5.43984],[-75.40748,5.43933],[-75.40725,5.43922],[-75.40667,5.43893],[-75.40626,5.43893],[-75.40613,5.43893],[-75.40613,5.43913],[-75.40613,5.43947],[-75.40668,5.44056],[-75.40722,5.44056],[-75.40722,5.44164],[-75.40776,5.44164],[-75.4083,5.44164],[-75.41016,5.44187],[-75.41121,5.442],[-75.41138,5.44189],[-75.41017,5.44156],[-75.4098,5.44145],[-75.40936,5.4411],[-75.40993,5.44083],[-75.41019,5.44116],[-75.41023,5.44054],[-75.41025,5.44019],[-75.41033,5.44003],[-75.40972,5.43984],[-75.40966,5.43982],[-75.4094,5.43986],[-75.40901,5.43985],[-75.4089,5.43982]]],[[[-75.41743,5.44424],[-75.41741,5.44446],[-75.41738,5.445],[-75.4175,5.44506],[-75.41797,5.44596],[-75.4186,5.44596],[-75.4187,5.44601],[-75.41885,5.44591],[-75.41944,5.44575],[-75.41969,5.44469],[-75.41912,5.44479],[-75.41897,5.44481],[-75.4186,5.44487],[-75.41854,5.44476],[-75.41836,5.4444],[-75.41802,5.44437],[-75.41757,5.44429],[-75.41743,5.44424]]],[[[-75.40471,5.45062],[-75.40375,5.45279],[-75.40346,5.45304],[-75.40346,5.45354],[-75.40346,5.45358],[-75.40389,5.4538],[-75.40418,5.45394],[-75.40598,5.4543],[-75.40659,5.4555],[-75.40779,5.45574],[-75.40887,5.45411],[-75.40887,5.45357],[-75.40815,5.45321],[-75.40779,5.45249],[-75.40587,5.45116],[-75.40543,5.45065],[-75.40494,5.45009],[-75.40471,5.45062]]],[[[-75.39696,5.45306],[-75.39588,5.45306],[-75.3948,5.45306],[-75.39371,5.45306],[-75.39372,5.45361],[-75.39417,5.45541],[-75.39426,5.45577],[-75.39534,5.45577],[-75.39751,5.45522],[-75.39751,5.4545],[-75.39751,5.45414],[-75.39805,5.45414],[-75.39804,5.45305],[-75.39696,5.45306]]],[[[-75.3867,5.46338],[-75.38692,5.46425],[-75.38779,5.46555],[-75.38909,5.46641],[-75.38996,5.46663],[-75.39084,5.46535],[-75.39212,5.46446],[-75.3932,5.46391],[-75.39356,5.46319],[-75.39428,5.46283],[-75.39482,5.46282],[-75.39482,5.46228],[-75.39482,5.46174],[-75.39481,5.46065],[-75.39427,5.46066],[-75.39373,5.46066],[-75.39319,5.46066],[-75.39048,5.46066],[-75.39048,5.46121],[-75.3894,5.46121],[-75.38886,5.46121],[-75.38832,5.46121],[-75.38832,5.46175],[-75.38724,5.46121],[-75.3867,5.46121],[-75.3867,5.46338]]],[[[-75.4168,5.47787],[-75.41634,5.47796],[-75.41488,5.47797],[-75.41488,5.47743],[-75.41488,5.47736],[-75.41486,5.47736],[-75.4145,5.47709],[-75.41429,5.47706],[-75.41391,5.47866],[-75.41488,5.48014],[-75.41489,5.48176],[-75.415,5.48176],[-75.41543,5.48158],[-75.41543,5.48122],[-75.41597,5.48122],[-75.41597,5.48136],[-75.41662,5.48108],[-75.41647,5.4823],[-75.41651,5.4823],[-75.41706,5.48122],[-75.4172,5.48115],[-75.41766,5.48093],[-75.41737,5.4797],[-75.4168,5.47787]]],[[[-75.41264,5.44488],[-75.41271,5.44488],[-75.41264,5.44458],[-75.41264,5.44488]]],[[[-75.39669,5.44391],[-75.39726,5.44406],[-75.39794,5.44436],[-75.39855,5.44464],[-75.40077,5.44564],[-75.40019,5.44329],[-75.39996,5.4415],[-75.39946,5.44175],[-75.39858,5.4422],[-75.39856,5.4422],[-75.39856,5.44218],[-75.39854,5.44213],[-75.39802,5.44004],[-75.39703,5.44053],[-75.39694,5.44058],[-75.39639,5.44058],[-75.39585,5.44167],[-75.39533,5.44167],[-75.39531,5.44167],[-75.39532,5.4433],[-75.39532,5.44384],[-75.3964,5.44384],[-75.39669,5.44391]]],[[[-75.39415,5.48435],[-75.39255,5.48517],[-75.39226,5.48532],[-75.39197,5.48547],[-75.39233,5.48591],[-75.39284,5.48654],[-75.3932,5.48697],[-75.39366,5.48753],[-75.39384,5.48755],[-75.39492,5.48772],[-75.3966,5.48797],[-75.39704,5.48723],[-75.39703,5.4856],[-75.39703,5.48452],[-75.39659,5.4843],[-75.39631,5.48416],[-75.39584,5.4841],[-75.39544,5.48405],[-75.39529,5.48403],[-75.39486,5.48398],[-75.39415,5.48435]]],[[[-75.38297,5.48889],[-75.38351,5.48889],[-75.38459,5.48888],[-75.38459,5.48834],[-75.38621,5.48834],[-75.38621,5.48779],[-75.38621,5.48725],[-75.38621,5.48671],[-75.38675,5.48671],[-75.38729,5.48671],[-75.38729,5.48617],[-75.38729,5.48508],[-75.38512,5.48346],[-75.38383,5.48379],[-75.3835,5.48509],[-75.3835,5.48617],[-75.38296,5.48617],[-75.38296,5.4878],[-75.38242,5.4878],[-75.38242,5.48835],[-75.38297,5.48834],[-75.38297,5.48889]]],[[[-75.40549,5.49177],[-75.40625,5.49318],[-75.40706,5.49276],[-75.40751,5.49118],[-75.40787,5.491],[-75.40815,5.49086],[-75.40804,5.49073],[-75.40834,5.49056],[-75.40833,5.49032],[-75.40842,5.48983],[-75.40878,5.48972],[-75.40888,5.48973],[-75.40895,5.48937],[-75.40787,5.48883],[-75.40742,5.48906],[-75.40746,5.48949],[-75.40735,5.48981],[-75.40679,5.48983],[-75.40661,5.48996],[-75.40633,5.49016],[-75.40617,5.49057],[-75.40586,5.49058],[-75.40575,5.49041],[-75.40575,5.49023],[-75.40481,5.4902],[-75.40471,5.49019],[-75.40495,5.48992],[-75.40462,5.48992],[-75.40462,5.49017],[-75.40462,5.49029],[-75.40462,5.49047],[-75.40549,5.49177]]]]},"properties":{"FID":5,"OBJECTID":11,"NOMBRE":"Reserva Forestal Central ley 2da Tipo A","NomMpio":"Pacora","Ã_rea_ha":3147,"Shape_Leng":39880.4010741,"Shape_Area":3148448.83971}},{"type":"Feature","id":6,"geometry":{"type":"MultiPolygon","coordinates":[[[[-75.41033,5.44003],[-75.41033,5.44003],[-75.40972,5.43984],[-75.41033,5.44003]]],[[[-75.40901,5.43985],[-75.4089,5.43982],[-75.4089,5.43982],[-75.40901,5.43985]]],[[[-75.41743,5.44424],[-75.41757,5.44429],[-75.41743,5.44424],[-75.41743,5.44424]]]]},"properties":{"FID":6,"OBJECTID":12,"NOMBRE":"Reserva Forestal Central ley 2da Tipo A","NomMpio":"Salamina","Ã_rea_ha":9079,"Shape_Leng":200.349910496,"Shape_Area":0}},{"type":"Feature","id":7,"geometry":{"type":"MultiPolygon","coordinates":[[[[-75.40466,5.5023],[-75.40502,5.50241],[-75.40502,5.50241],[-75.40466,5.5023]]],[[[-75.39432,5.50048],[-75.39476,5.50054],[-75.39432,5.50048],[-75.39432,5.50048]]],[[[-75.37568,5.44746],[-75.37574,5.44788],[-75.37568,5.44746],[-75.37568,5.44746]]]]},"properties":{"FID":7,"OBJECTID":13,"NOMBRE":"Reserva Forestal Central ley 2da Tipo B","NomMpio":"Aguadas","Ã_rea_ha":295,"Shape_Leng":274.381752041,"Shape_Area":0}},{"type":"Feature","id":8,"geometry":{"type":"MultiPolygon","coordinates":[[[[-75.40466,5.5023],[-75.40502,5.50241],[-75.4052,5.50245],[-75.40521,5.50245],[-75.40546,5.5025],[-75.4055,5.50251],[-75.40596,5.50267],[-75.40631,5.5028],[-75.40645,5.50284],[-75.40705,5.50303],[-75.40786,5.50334],[-75.4079,5.50336],[-75.40823,5.50348],[-75.40874,5.50398],[-75.40917,5.5044],[-75.40937,5.5046],[-75.40947,5.50469],[-75.40957,5.5048],[-75.40969,5.50494],[-75.40973,5.50484],[-75.41016,5.50512],[-75.4105,5.50439],[-75.4109,5.50256],[-75.41162,5.50008],[-75.41154,5.49832],[-75.41135,5.49626],[-75.4116,5.49545],[-75.41224,5.49492],[-75.4141,5.49417],[-75.41617,5.49273],[-75.41699,5.49192],[-75.41752,5.49106],[-75.41763,5.49024],[-75.41768,5.48955],[-75.41849,5.48793],[-75.41857,5.4853],[-75.41817,5.48314],[-75.41766,5.48093],[-75.4172,5.48115],[-75.41706,5.48122],[-75.41651,5.4823],[-75.41647,5.4823],[-75.41662,5.48108],[-75.41597,5.48136],[-75.41597,5.48122],[-75.41543,5.48122],[-75.41543,5.48158],[-75.415,5.48176],[-75.41489,5.48176],[-75.41488,5.48014],[-75.41391,5.47866],[-75.41429,5.47706],[-75.4145,5.47709],[-75.41486,5.47736],[-75.41488,5.47736],[-75.41488,5.47743],[-75.41488,5.47797],[-75.41634,5.47796],[-75.4168,5.47787],[-75.41666,5.47739],[-75.41658,5.47491],[-75.41634,5.47275],[-75.41674,5.46964],[-75.41698,5.46724],[-75.41746,5.46564],[-75.41882,5.46301],[-75.41978,5.46045],[-75.42017,5.45913],[-75.42023,5.45893],[-75.42024,5.45889],[-75.42024,5.45757],[-75.42,5.45656],[-75.42029,5.45457],[-75.42034,5.45422],[-75.42018,5.45126],[-75.41962,5.44854],[-75.41914,5.44702],[-75.41944,5.44575],[-75.41885,5.44591],[-75.4187,5.44601],[-75.4186,5.44596],[-75.41797,5.44596],[-75.4175,5.44506],[-75.41738,5.445],[-75.41741,5.44446],[-75.41743,5.44424],[-75.41736,5.44422],[-75.41728,5.44419],[-75.41703,5.44402],[-75.41687,5.44391],[-75.41672,5.44384],[-75.41653,5.44381],[-75.41638,5.44387],[-75.4163,5.44391],[-75.41618,5.44407],[-75.41617,5.44408],[-75.41597,5.44424],[-75.41586,5.44433],[-75.41562,5.44444],[-75.41539,5.44448],[-75.41518,5.44441],[-75.41479,5.44401],[-75.41447,5.44372],[-75.41424,5.44349],[-75.41414,5.44334],[-75.41412,5.44332],[-75.41395,5.44307],[-75.41382,5.44281],[-75.41377,5.44271],[-75.41375,5.44267],[-75.41354,5.44209],[-75.41354,5.44208],[-75.41352,5.44193],[-75.41351,5.44183],[-75.41352,5.44162],[-75.41352,5.44157],[-75.41349,5.4415],[-75.41343,5.44137],[-75.4134,5.44133],[-75.41339,5.44132],[-75.41332,5.44128],[-75.41323,5.44122],[-75.41288,5.44118],[-75.41242,5.44122],[-75.41229,5.44125],[-75.41191,5.44133],[-75.41177,5.4413],[-75.41161,5.44127],[-75.41158,5.44124],[-75.41154,5.4411],[-75.41154,5.44073],[-75.41163,5.44051],[-75.41164,5.44022],[-75.41154,5.43998],[-75.41152,5.43991],[-75.41149,5.43988],[-75.41139,5.43974],[-75.41135,5.4397],[-75.41123,5.43965],[-75.41114,5.43972],[-75.41104,5.4399],[-75.41083,5.44004],[-75.41074,5.44007],[-75.41055,5.4401],[-75.41033,5.44003],[-75.41025,5.44019],[-75.41023,5.44054],[-75.41019,5.44116],[-75.40993,5.44083],[-75.40936,5.4411],[-75.4098,5.44145],[-75.41017,5.44156],[-75.41138,5.44189],[-75.41121,5.442],[-75.41016,5.44187],[-75.4083,5.44164],[-75.40776,5.44164],[-75.40722,5.44164],[-75.40722,5.44056],[-75.40668,5.44056],[-75.40613,5.43947],[-75.40613,5.43913],[-75.40613,5.43893],[-75.40626,5.43893],[-75.40667,5.43893],[-75.40725,5.43922],[-75.40748,5.43933],[-75.40776,5.43984],[-75.40779,5.43986],[-75.40861,5.44052],[-75.40887,5.44015],[-75.409,5.43996],[-75.4089,5.43982],[-75.40862,5.43973],[-75.40836,5.43957],[-75.40835,5.43955],[-75.40802,5.43935],[-75.4078,5.43936],[-75.40771,5.43933],[-75.40761,5.43926],[-75.40751,5.4392],[-75.40746,5.43916],[-75.40723,5.43905],[-75.40716,5.43902],[-75.40679,5.43896],[-75.40656,5.43886],[-75.40622,5.43861],[-75.40619,5.43857],[-75.40603,5.43846],[-75.4058,5.43829],[-75.40528,5.43807],[-75.40487,5.43795],[-75.40411,5.4378],[-75.40408,5.43778],[-75.40381,5.43763],[-75.40365,5.43747],[-75.40351,5.43736],[-75.40324,5.43716],[-75.40284,5.43711],[-75.40276,5.43708],[-75.40263,5.43703],[-75.40241,5.43688],[-75.40197,5.43668],[-75.40171,5.43662],[-75.4014,5.43661],[-75.40104,5.43663],[-75.40059,5.4367],[-75.40048,5.43677],[-75.40018,5.43711],[-75.40013,5.4372],[-75.39991,5.43746],[-75.3998,5.43756],[-75.39969,5.43766],[-75.39959,5.43768],[-75.39949,5.4377],[-75.39941,5.4377],[-75.3994,5.43769],[-75.39924,5.43755],[-75.39922,5.43753],[-75.39919,5.4375],[-75.39919,5.4375],[-75.39919,5.4375],[-75.39922,5.4373],[-75.39923,5.43724],[-75.39922,5.43707],[-75.39922,5.43704],[-75.39921,5.43686],[-75.39912,5.43656],[-75.39908,5.43644],[-75.39895,5.436],[-75.39891,5.43576],[-75.39888,5.43555],[-75.39888,5.43551],[-75.39887,5.43545],[-75.39874,5.43485],[-75.39866,5.43467],[-75.39865,5.43464],[-75.39861,5.43454],[-75.39857,5.43444],[-75.39854,5.4344],[-75.39849,5.43432],[-75.39838,5.43411],[-75.39813,5.43384],[-75.39783,5.4335],[-75.39783,5.43349],[-75.39769,5.43332],[-75.39764,5.43322],[-75.39759,5.43314],[-75.39745,5.43289],[-75.39728,5.43253],[-75.39726,5.43248],[-75.39722,5.43236],[-75.39717,5.43219],[-75.39715,5.43169],[-75.39714,5.43142],[-75.39714,5.43139],[-75.39715,5.43095],[-75.39704,5.43045],[-75.39698,5.43035],[-75.39683,5.43017],[-75.39682,5.43015],[-75.39672,5.43004],[-75.39639,5.42983],[-75.39623,5.4298],[-75.39594,5.42985],[-75.39584,5.42985],[-75.39536,5.42973],[-75.39512,5.42948],[-75.39477,5.42907],[-75.39475,5.42905],[-75.39465,5.42896],[-75.39448,5.42881],[-75.3942,5.42868],[-75.39412,5.42867],[-75.39391,5.42868],[-75.39367,5.42857],[-75.3936,5.4285],[-75.39334,5.42813],[-75.39318,5.42787],[-75.39307,5.42773],[-75.39276,5.42742],[-75.39244,5.42722],[-75.39224,5.42714],[-75.39209,5.42707],[-75.39162,5.4268],[-75.39124,5.42653],[-75.39118,5.42648],[-75.39099,5.42633],[-75.39083,5.4262],[-75.39081,5.42619],[-75.39009,5.42545],[-75.38975,5.42518],[-75.38915,5.42486],[-75.38887,5.42461],[-75.38846,5.42432],[-75.38822,5.42418],[-75.38778,5.42407],[-75.38665,5.42395],[-75.3861,5.42381],[-75.3857,5.42359],[-75.3851,5.42313],[-75.3848,5.42286],[-75.38449,5.42254],[-75.38425,5.42222],[-75.38402,5.42183],[-75.38389,5.42148],[-75.38373,5.42112],[-75.38354,5.42084],[-75.38325,5.42047],[-75.38278,5.42013],[-75.38244,5.41996],[-75.38221,5.41985],[-75.3822,5.41984],[-75.3822,5.41985],[-75.38203,5.41977],[-75.38195,5.41979],[-75.38195,5.41986],[-75.38193,5.4201],[-75.38193,5.42018],[-75.38192,5.42026],[-75.3819,5.42033],[-75.38189,5.4204],[-75.38186,5.42046],[-75.38183,5.4205],[-75.38178,5.42058],[-75.38175,5.42063],[-75.38172,5.42068],[-75.3817,5.42075],[-75.38169,5.42082],[-75.38166,5.42102],[-75.38164,5.4211],[-75.38163,5.42117],[-75.38161,5.42124],[-75.38158,5.42129],[-75.38155,5.42134],[-75.38149,5.42142],[-75.38147,5.42146],[-75.38144,5.42152],[-75.38142,5.42159],[-75.38141,5.42167],[-75.3814,5.42175],[-75.3814,5.42183],[-75.38139,5.42192],[-75.38139,5.42209],[-75.38139,5.42263],[-75.38139,5.4228],[-75.38139,5.42289],[-75.38138,5.42297],[-75.38137,5.42305],[-75.38136,5.42312],[-75.38134,5.42317],[-75.38134,5.42323],[-75.38132,5.42329],[-75.38134,5.42323],[-75.38135,5.42316],[-75.38135,5.42315],[-75.38135,5.42322],[-75.38124,5.42365],[-75.38104,5.42387],[-75.38097,5.42395],[-75.38091,5.42402],[-75.38085,5.42412],[-75.38086,5.42418],[-75.38087,5.42422],[-75.38087,5.42424],[-75.38089,5.42431],[-75.38092,5.42437],[-75.38094,5.42441],[-75.38101,5.42449],[-75.38103,5.42453],[-75.38106,5.42459],[-75.38108,5.42465],[-75.38108,5.42466],[-75.38109,5.42472],[-75.3811,5.4248],[-75.3811,5.42487],[-75.3811,5.42494],[-75.38109,5.42502],[-75.38108,5.42508],[-75.38106,5.42515],[-75.38104,5.42521],[-75.38101,5.42525],[-75.38095,5.42533],[-75.38093,5.42537],[-75.38091,5.42542],[-75.38089,5.42548],[-75.38089,5.42554],[-75.38089,5.4256],[-75.38089,5.42565],[-75.38089,5.42566],[-75.38091,5.42572],[-75.38093,5.42577],[-75.38095,5.42581],[-75.38101,5.42589],[-75.38103,5.42593],[-75.38105,5.42598],[-75.38106,5.42602],[-75.38107,5.42604],[-75.38107,5.42609],[-75.38107,5.42616],[-75.38107,5.42621],[-75.38106,5.42627],[-75.38104,5.42632],[-75.38102,5.42636],[-75.38097,5.42643],[-75.38095,5.42646],[-75.38094,5.4265],[-75.38093,5.42654],[-75.38094,5.42657],[-75.38094,5.42658],[-75.38095,5.42662],[-75.38097,5.42666],[-75.38102,5.42673],[-75.38105,5.42677],[-75.38107,5.42682],[-75.38108,5.42688],[-75.38109,5.42688],[-75.3811,5.42695],[-75.3811,5.42702],[-75.38111,5.4271],[-75.3811,5.42717],[-75.3811,5.42724],[-75.38109,5.42731],[-75.38107,5.42737],[-75.38104,5.42743],[-75.38102,5.42747],[-75.38096,5.42755],[-75.38093,5.4276],[-75.3809,5.42766],[-75.38088,5.42773],[-75.38087,5.42781],[-75.38086,5.42789],[-75.38085,5.42797],[-75.38085,5.42806],[-75.38085,5.42824],[-75.38085,5.42851],[-75.38086,5.42932],[-75.38085,5.4295],[-75.38085,5.42959],[-75.38085,5.42967],[-75.38084,5.42975],[-75.38082,5.42983],[-75.3808,5.4299],[-75.38078,5.42996],[-75.38075,5.43],[-75.38071,5.43003],[-75.38064,5.4301],[-75.38057,5.43017],[-75.38054,5.43021],[-75.3805,5.43024],[-75.38045,5.43027],[-75.3804,5.43029],[-75.38021,5.43035],[-75.38018,5.43037],[-75.38001,5.43048],[-75.37996,5.4305],[-75.37994,5.43052],[-75.37993,5.43052],[-75.37993,5.43052],[-75.37976,5.43061],[-75.37944,5.43078],[-75.37913,5.43098],[-75.37912,5.43098],[-75.3787,5.43112],[-75.3782,5.43117],[-75.3778,5.43133],[-75.37779,5.43133],[-75.37716,5.43174],[-75.37713,5.43177],[-75.37713,5.43177],[-75.37699,5.43184],[-75.37655,5.43206],[-75.37571,5.43267],[-75.37547,5.43299],[-75.37534,5.43332],[-75.37519,5.43351],[-75.37454,5.434],[-75.3744,5.4344],[-75.37429,5.43483],[-75.37425,5.43496],[-75.3741,5.43527],[-75.37382,5.43551],[-75.37354,5.43566],[-75.37343,5.43584],[-75.37332,5.43636],[-75.37315,5.43659],[-75.37317,5.43682],[-75.37336,5.43748],[-75.37337,5.43776],[-75.37328,5.4388],[-75.37332,5.43918],[-75.37339,5.43972],[-75.37356,5.44052],[-75.37373,5.44108],[-75.37375,5.4411],[-75.37403,5.44218],[-75.37408,5.44261],[-75.3741,5.44315],[-75.37419,5.44344],[-75.37438,5.44378],[-75.37472,5.44414],[-75.37492,5.44443],[-75.37504,5.44468],[-75.37512,5.44509],[-75.37515,5.44533],[-75.37522,5.44559],[-75.37539,5.44598],[-75.37546,5.44619],[-75.37556,5.44679],[-75.37556,5.44683],[-75.37557,5.44687],[-75.3756,5.44694],[-75.37565,5.44703],[-75.3757,5.44729],[-75.37569,5.4474],[-75.37568,5.44746],[-75.37574,5.44788],[-75.37574,5.44789],[-75.37575,5.4479],[-75.37581,5.44829],[-75.37603,5.44927],[-75.37612,5.44992],[-75.37611,5.45],[-75.37612,5.45002],[-75.37616,5.45011],[-75.37626,5.45036],[-75.37634,5.45062],[-75.37637,5.4509],[-75.37637,5.45093],[-75.37636,5.45117],[-75.37636,5.45131],[-75.37637,5.45133],[-75.37637,5.45134],[-75.3764,5.45139],[-75.37642,5.45146],[-75.37642,5.45146],[-75.37643,5.45153],[-75.37644,5.4516],[-75.37644,5.45167],[-75.37644,5.45174],[-75.37643,5.45181],[-75.37642,5.45185],[-75.37643,5.45197],[-75.37646,5.45225],[-75.37646,5.45252],[-75.37645,5.45279],[-75.37644,5.45306],[-75.37645,5.45333],[-75.37654,5.45358],[-75.37673,5.45378],[-75.37697,5.4539],[-75.37724,5.45396],[-75.37751,5.45399],[-75.37778,5.454],[-75.37805,5.45402],[-75.37831,5.45409],[-75.37855,5.45421],[-75.37879,5.45434],[-75.37903,5.45447],[-75.37929,5.45454],[-75.37956,5.45456],[-75.37983,5.45458],[-75.38009,5.45463],[-75.38033,5.45475],[-75.38056,5.4549],[-75.38079,5.45503],[-75.38102,5.45518],[-75.38119,5.4554],[-75.38127,5.45566],[-75.38134,5.45592],[-75.38142,5.45617],[-75.38143,5.45645],[-75.38132,5.45669],[-75.38113,5.45689],[-75.38092,5.45706],[-75.38069,5.4572],[-75.38045,5.45733],[-75.3802,5.45743],[-75.37994,5.45752],[-75.37968,5.45758],[-75.37941,5.45762],[-75.37914,5.45766],[-75.37888,5.4577],[-75.37862,5.45778],[-75.3784,5.45794],[-75.3783,5.45819],[-75.37828,5.45846],[-75.37829,5.45873],[-75.37827,5.459],[-75.37818,5.45926],[-75.37803,5.45946],[-75.37802,5.45947],[-75.37785,5.45961],[-75.3778,5.45964],[-75.37757,5.45977],[-75.37734,5.45991],[-75.37734,5.45991],[-75.37715,5.4601],[-75.37703,5.46035],[-75.37697,5.46062],[-75.37697,5.46066],[-75.37693,5.46088],[-75.37686,5.46114],[-75.37677,5.4614],[-75.37666,5.46165],[-75.37654,5.46189],[-75.37642,5.46214],[-75.37631,5.46238],[-75.37621,5.46264],[-75.37616,5.4629],[-75.37613,5.46317],[-75.3761,5.46341],[-75.3761,5.46344],[-75.37606,5.46371],[-75.37605,5.46398],[-75.37605,5.46425],[-75.37608,5.46452],[-75.37612,5.46479],[-75.37616,5.46506],[-75.37619,5.46533],[-75.37626,5.46559],[-75.37644,5.46579],[-75.3767,5.46583],[-75.37696,5.46574],[-75.3772,5.46561],[-75.37745,5.4655],[-75.37771,5.46546],[-75.37798,5.46552],[-75.37804,5.46558],[-75.37817,5.4657],[-75.37824,5.46597],[-75.37821,5.46624],[-75.37815,5.4665],[-75.37808,5.46676],[-75.37806,5.46704],[-75.37811,5.4673],[-75.37822,5.46755],[-75.3783,5.46781],[-75.37831,5.46808],[-75.37826,5.46834],[-75.37824,5.46848],[-75.37821,5.46861],[-75.37818,5.46888],[-75.37815,5.46915],[-75.37811,5.46942],[-75.37811,5.46969],[-75.37819,5.46995],[-75.37834,5.47018],[-75.37851,5.47039],[-75.37868,5.47059],[-75.37882,5.47083],[-75.37887,5.47109],[-75.3788,5.47136],[-75.37865,5.47158],[-75.37845,5.47177],[-75.37825,5.47194],[-75.37806,5.47214],[-75.37791,5.47237],[-75.37783,5.47263],[-75.37781,5.4729],[-75.37779,5.47317],[-75.37773,5.47343],[-75.37759,5.47367],[-75.3774,5.47386],[-75.37716,5.47398],[-75.3769,5.47407],[-75.37665,5.47416],[-75.37641,5.47428],[-75.37619,5.47445],[-75.37601,5.47465],[-75.3759,5.47481],[-75.37586,5.47487],[-75.37569,5.47509],[-75.37547,5.47525],[-75.37522,5.47534],[-75.37496,5.47542],[-75.37471,5.47552],[-75.37449,5.47568],[-75.37436,5.47592],[-75.37435,5.47619],[-75.3744,5.47646],[-75.37446,5.47672],[-75.37447,5.47683],[-75.37448,5.477],[-75.37441,5.47725],[-75.37428,5.47749],[-75.37415,5.47773],[-75.37412,5.478],[-75.3742,5.47825],[-75.37428,5.47841],[-75.37432,5.4785],[-75.37441,5.47875],[-75.37445,5.47902],[-75.37447,5.4793],[-75.37447,5.47957],[-75.37442,5.47983],[-75.37431,5.48008],[-75.37414,5.48029],[-75.37398,5.48049],[-75.37397,5.4805],[-75.37387,5.48075],[-75.37383,5.48102],[-75.3738,5.48129],[-75.37371,5.48155],[-75.37356,5.48177],[-75.37348,5.48187],[-75.37338,5.48198],[-75.37321,5.48219],[-75.37304,5.4824],[-75.37287,5.48261],[-75.37271,5.48283],[-75.37258,5.48307],[-75.37243,5.4833],[-75.37224,5.48348],[-75.37201,5.48362],[-75.37176,5.48374],[-75.37154,5.4839],[-75.37138,5.48412],[-75.3713,5.48437],[-75.37123,5.48464],[-75.37122,5.4847],[-75.37122,5.48487],[-75.37122,5.48505],[-75.37121,5.48513],[-75.37121,5.48522],[-75.37121,5.48522],[-75.37125,5.48523],[-75.37163,5.48546],[-75.37176,5.48583],[-75.37186,5.48617],[-75.37186,5.48657],[-75.37201,5.48696],[-75.37222,5.48718],[-75.37254,5.48751],[-75.37295,5.48777],[-75.37331,5.48812],[-75.37351,5.48848],[-75.37359,5.48871],[-75.37363,5.48904],[-75.37363,5.48934],[-75.37348,5.48964],[-75.37343,5.49018],[-75.37341,5.49081],[-75.37338,5.49127],[-75.37331,5.49165],[-75.37322,5.49194],[-75.37324,5.49198],[-75.3733,5.49224],[-75.37326,5.49251],[-75.37319,5.49263],[-75.37323,5.49271],[-75.37323,5.49325],[-75.37323,5.49396],[-75.37334,5.49403],[-75.37351,5.49424],[-75.37366,5.49446],[-75.37382,5.49468],[-75.37395,5.49492],[-75.37404,5.49518],[-75.37413,5.49544],[-75.37428,5.49566],[-75.37444,5.49588],[-75.37455,5.49613],[-75.37457,5.4964],[-75.3745,5.49666],[-75.37437,5.4969],[-75.37424,5.49714],[-75.37418,5.4974],[-75.37432,5.4976],[-75.37459,5.49719],[-75.37499,5.49776],[-75.37512,5.49776],[-75.37535,5.49791],[-75.37542,5.49812],[-75.37613,5.49776],[-75.37649,5.49704],[-75.37649,5.4965],[-75.37703,5.49649],[-75.37703,5.49704],[-75.37767,5.49748],[-75.37812,5.4992],[-75.37852,5.4992],[-75.37864,5.49908],[-75.3787,5.49902],[-75.37892,5.49886],[-75.37919,5.49883],[-75.37944,5.49893],[-75.3796,5.49908],[-75.37964,5.49912],[-75.37984,5.4993],[-75.38004,5.49949],[-75.38022,5.49969],[-75.38024,5.49972],[-75.38028,5.49974],[-75.38028,5.49979],[-75.38034,5.49987],[-75.38072,5.49985],[-75.38132,5.49991],[-75.38134,5.49991],[-75.38179,5.50002],[-75.38227,5.50016],[-75.38229,5.50017],[-75.38234,5.50018],[-75.38246,5.50022],[-75.38315,5.50023],[-75.38322,5.50023],[-75.38321,5.50018],[-75.38314,5.49849],[-75.38657,5.49968],[-75.38732,5.49994],[-75.38948,5.49918],[-75.39079,5.49886],[-75.39129,5.4988],[-75.39273,5.49863],[-75.39273,5.49917],[-75.39327,5.49917],[-75.39327,5.4993],[-75.39308,5.49946],[-75.39305,5.49948],[-75.3931,5.49948],[-75.39318,5.49949],[-75.39325,5.4995],[-75.39333,5.49951],[-75.39339,5.49953],[-75.39345,5.49956],[-75.39349,5.49959],[-75.39353,5.49962],[-75.3936,5.49969],[-75.39364,5.49972],[-75.39372,5.49979],[-75.39375,5.49982],[-75.39379,5.49986],[-75.39385,5.49993],[-75.39388,5.49997],[-75.39392,5.5],[-75.39399,5.50007],[-75.39403,5.5001],[-75.39406,5.50014],[-75.39412,5.50022],[-75.39415,5.50026],[-75.39426,5.50036],[-75.39429,5.5004],[-75.39432,5.50045],[-75.39432,5.50048],[-75.39476,5.50054],[-75.39507,5.50063],[-75.39526,5.50063],[-75.39522,5.50058],[-75.39466,5.49971],[-75.39544,5.49971],[-75.39562,5.50007],[-75.39748,5.5003],[-75.39752,5.50021],[-75.39784,5.49991],[-75.39811,5.49977],[-75.39837,5.49971],[-75.39856,5.49967],[-75.39876,5.49963],[-75.39942,5.49969],[-75.39974,5.49975],[-75.39994,5.49979],[-75.40021,5.49988],[-75.40046,5.49997],[-75.40081,5.50015],[-75.40121,5.50036],[-75.40159,5.50051],[-75.4017,5.50056],[-75.40218,5.50077],[-75.4026,5.50103],[-75.40311,5.50137],[-75.4034,5.50159],[-75.40383,5.50188],[-75.40405,5.50203],[-75.40431,5.50216],[-75.40442,5.50221],[-75.4046,5.50229],[-75.40466,5.5023]],[[-75.40842,5.48983],[-75.40833,5.49032],[-75.40834,5.49056],[-75.40804,5.49073],[-75.40815,5.49086],[-75.40787,5.491],[-75.40751,5.49118],[-75.40706,5.49276],[-75.40625,5.49318],[-75.40549,5.49177],[-75.40462,5.49047],[-75.40462,5.49029],[-75.40462,5.49017],[-75.40462,5.48992],[-75.40495,5.48992],[-75.40471,5.49019],[-75.40481,5.4902],[-75.40575,5.49023],[-75.40575,5.49041],[-75.40586,5.49058],[-75.40617,5.49057],[-75.40633,5.49016],[-75.40661,5.48996],[-75.40679,5.48983],[-75.40735,5.48981],[-75.40746,5.48949],[-75.40742,5.48906],[-75.40787,5.48883],[-75.40895,5.48937],[-75.40888,5.48973],[-75.40878,5.48972],[-75.40842,5.48983]],[[-75.38459,5.48888],[-75.38351,5.48889],[-75.38297,5.48889],[-75.38297,5.48834],[-75.38242,5.48835],[-75.38242,5.4878],[-75.38296,5.4878],[-75.38296,5.48617],[-75.3835,5.48617],[-75.3835,5.48509],[-75.38383,5.48379],[-75.38512,5.48346],[-75.38729,5.48508],[-75.38729,5.48617],[-75.38729,5.48671],[-75.38675,5.48671],[-75.38621,5.48671],[-75.38621,5.48725],[-75.38621,5.48779],[-75.38621,5.48834],[-75.38459,5.48834],[-75.38459,5.48888]],[[-75.39492,5.48772],[-75.39384,5.48755],[-75.39366,5.48753],[-75.3932,5.48697],[-75.39284,5.48654],[-75.39233,5.48591],[-75.39197,5.48547],[-75.39226,5.48532],[-75.39255,5.48517],[-75.39415,5.48435],[-75.39486,5.48398],[-75.39529,5.48403],[-75.39544,5.48405],[-75.39584,5.4841],[-75.39631,5.48416],[-75.39659,5.4843],[-75.39703,5.48452],[-75.39703,5.4856],[-75.39704,5.48723],[-75.3966,5.48797],[-75.39492,5.48772]],[[-75.39482,5.46174],[-75.39482,5.46228],[-75.39482,5.46282],[-75.39428,5.46283],[-75.39356,5.46319],[-75.3932,5.46391],[-75.39212,5.46446],[-75.39084,5.46535],[-75.38996,5.46663],[-75.38909,5.46641],[-75.38779,5.46555],[-75.38692,5.46425],[-75.3867,5.46338],[-75.3867,5.46121],[-75.38724,5.46121],[-75.38832,5.46175],[-75.38832,5.46121],[-75.38886,5.46121],[-75.3894,5.46121],[-75.39048,5.46121],[-75.39048,5.46066],[-75.39319,5.46066],[-75.39373,5.46066],[-75.39427,5.46066],[-75.39481,5.46065],[-75.39482,5.46174]],[[-75.39534,5.45577],[-75.39426,5.45577],[-75.39417,5.45541],[-75.39372,5.45361],[-75.39371,5.45306],[-75.3948,5.45306],[-75.39588,5.45306],[-75.39696,5.45306],[-75.39804,5.45305],[-75.39805,5.45414],[-75.39751,5.45414],[-75.39751,5.4545],[-75.39751,5.45522],[-75.39534,5.45577]],[[-75.40659,5.4555],[-75.40598,5.4543],[-75.40418,5.45394],[-75.40389,5.4538],[-75.40346,5.45358],[-75.40346,5.45354],[-75.40346,5.45304],[-75.40375,5.45279],[-75.40471,5.45062],[-75.40494,5.45009],[-75.40543,5.45065],[-75.40587,5.45116],[-75.40779,5.45249],[-75.40815,5.45321],[-75.40887,5.45357],[-75.40887,5.45411],[-75.40779,5.45574],[-75.40659,5.4555]],[[-75.40077,5.44564],[-75.39855,5.44464],[-75.39794,5.44436],[-75.39726,5.44406],[-75.39669,5.44391],[-75.3964,5.44384],[-75.39532,5.44384],[-75.39532,5.4433],[-75.39531,5.44167],[-75.39533,5.44167],[-75.39585,5.44167],[-75.39639,5.44058],[-75.39694,5.44058],[-75.39703,5.44053],[-75.39802,5.44004],[-75.39854,5.44213],[-75.39856,5.44218],[-75.39856,5.4422],[-75.39858,5.4422],[-75.39946,5.44175],[-75.39996,5.4415],[-75.40019,5.44329],[-75.40077,5.44564]],[[-75.41264,5.44458],[-75.41271,5.44488],[-75.41264,5.44488],[-75.41264,5.44458]]],[[[-75.41836,5.4444],[-75.41854,5.44476],[-75.4186,5.44487],[-75.41897,5.44481],[-75.41912,5.44479],[-75.41969,5.44469],[-75.41975,5.44444],[-75.41869,5.44442],[-75.41857,5.44441],[-75.41836,5.4444]]]]},"properties":{"FID":8,"OBJECTID":14,"NOMBRE":"Reserva Forestal Central ley 2da Tipo B","NomMpio":"Pacora","Ã_rea_ha":33236,"Shape_Leng":46033.921636,"Shape_Area":33253104.1431}}]}