{"type":"FeatureCollection","name":"Amenaza Inundación Supia (IDEAM)","crs":{"type":"name","properties":{"name":"urn:ogc:def:crs:OGC:1.3:CRS84"}},"features":[{"type":"Feature","id":1,"geometry":{"type":"Polygon","coordinates":[[[-75.65327,5.45919],[-75.65313,5.45932],[-75.65292,5.45949],[-75.65333,5.45949],[-75.6534,5.45925],[-75.65352,5.45915],[-75.65371,5.45905],[-75.65389,5.45907],[-75.65398,5.45911],[-75.65402,5.45919],[-75.65398,5.45927],[-75.65401,5.45942],[-75.65407,5.45946],[-75.65415,5.45946],[-75.65422,5.45938],[-75.65426,5.45926],[-75.65434,5.45913],[-75.65444,5.45907],[-75.65452,5.45907],[-75.65474,5.45924],[-75.65508,5.45942],[-75.65531,5.45947],[-75.65549,5.45943],[-75.65569,5.4594],[-75.65596,5.45943],[-75.65622,5.45947],[-75.65645,5.45943],[-75.65672,5.45931],[-75.65688,5.45914],[-75.65702,5.45892],[-75.65712,5.45865],[-75.65723,5.45829],[-75.65745,5.45798],[-75.65746,5.45676],[-75.65735,5.45689],[-75.65719,5.45714],[-75.65696,5.45736],[-75.65683,5.45754],[-75.65662,5.45765],[-75.65647,5.45773],[-75.65627,5.4578],[-75.6561,5.45787],[-75.65589,5.45799],[-75.65567,5.45811],[-75.65553,5.45821],[-75.65534,5.45833],[-75.65515,5.45843],[-75.65493,5.45853],[-75.65464,5.45863],[-75.6544,5.45871],[-75.65424,5.4587],[-75.65416,5.45864],[-75.65411,5.4585],[-75.6541,5.45821],[-75.65414,5.45796],[-75.65417,5.45777],[-75.65417,5.4576],[-75.65413,5.45746],[-75.65409,5.45731],[-75.65417,5.45712],[-75.65423,5.45701],[-75.65429,5.45686],[-75.65426,5.45674],[-75.65411,5.45663],[-75.65392,5.45646],[-75.65374,5.45622],[-75.65367,5.45604],[-75.65363,5.45594],[-75.65351,5.45564],[-75.65347,5.45528],[-75.65343,5.45484],[-75.65342,5.45456],[-75.65352,5.45432],[-75.65354,5.45421],[-75.65358,5.45403],[-75.65355,5.45389],[-75.65361,5.45367],[-75.65373,5.45342],[-75.65382,5.45316],[-75.65376,5.45298],[-75.65379,5.45282],[-75.65389,5.4527],[-75.65398,5.45247],[-75.65402,5.4523],[-75.65398,5.45224],[-75.65407,5.45199],[-75.65408,5.45198],[-75.65414,5.45184],[-75.65421,5.45165],[-75.65425,5.45147],[-75.65433,5.45133],[-75.65448,5.45119],[-75.65465,5.4511],[-75.65476,5.45089],[-75.65484,5.4507],[-75.65487,5.45047],[-75.65485,5.45032],[-75.65481,5.45019],[-75.65474,5.45006],[-75.65462,5.45003],[-75.6545,5.44999],[-75.65434,5.4499],[-75.6541,5.44979],[-75.65392,5.44964],[-75.65386,5.44959],[-75.65376,5.44945],[-75.65364,5.44929],[-75.65362,5.44909],[-75.65365,5.4489],[-75.65379,5.44863],[-75.65383,5.44841],[-75.65383,5.44825],[-75.65383,5.44819],[-75.65382,5.44817],[-75.65379,5.44805],[-75.65374,5.44797],[-75.65369,5.4479],[-75.65365,5.44779],[-75.65356,5.44769],[-75.65351,5.44762],[-75.65346,5.44754],[-75.65344,5.44742],[-75.65342,5.44728],[-75.65339,5.4471],[-75.65328,5.44678],[-75.65322,5.44646],[-75.65318,5.44633],[-75.6532,5.44616],[-75.65322,5.44595],[-75.65322,5.44578],[-75.65327,5.44556],[-75.65335,5.44535],[-75.65344,5.44516],[-75.65352,5.44504],[-75.65356,5.44496],[-75.65357,5.44487],[-75.65353,5.44479],[-75.65332,5.4447],[-75.65307,5.44459],[-75.65288,5.44445],[-75.65273,5.44426],[-75.65248,5.44404],[-75.65228,5.44389],[-75.65214,5.44373],[-75.652,5.44347],[-75.65188,5.44309],[-75.65184,5.44269],[-75.65186,5.4424],[-75.652,5.44209],[-75.65207,5.44191],[-75.65203,5.44181],[-75.65189,5.44159],[-75.65176,5.44136],[-75.65172,5.44119],[-75.65161,5.44083],[-75.65161,5.44063],[-75.65158,5.44047],[-75.65158,5.44034],[-75.65161,5.44016],[-75.65168,5.44],[-75.65167,5.43986],[-75.65166,5.43967],[-75.65163,5.43942],[-75.65164,5.43935],[-75.65166,5.43921],[-75.65165,5.43894],[-75.65167,5.43878],[-75.65179,5.43857],[-75.65186,5.43837],[-75.65188,5.43814],[-75.6519,5.43788],[-75.65197,5.43766],[-75.65194,5.43751],[-75.65197,5.43739],[-75.65203,5.43711],[-75.65205,5.4369],[-75.65205,5.43669],[-75.65213,5.43646],[-75.65226,5.4362],[-75.65243,5.43601],[-75.65256,5.43575],[-75.65259,5.43551],[-75.65258,5.43528],[-75.65259,5.43511],[-75.65259,5.43499],[-75.65249,5.43491],[-75.65245,5.43473],[-75.65236,5.43452],[-75.65225,5.43438],[-75.65215,5.43423],[-75.65194,5.43405],[-75.65181,5.43382],[-75.65183,5.43367],[-75.6513,5.43366],[-75.65131,5.43376],[-75.65138,5.43407],[-75.65149,5.43431],[-75.65159,5.43443],[-75.65168,5.43458],[-75.65166,5.43472],[-75.65172,5.43489],[-75.65184,5.4352],[-75.65184,5.43535],[-75.65175,5.43548],[-75.65168,5.43564],[-75.65167,5.43579],[-75.65167,5.43598],[-75.65171,5.43615],[-75.65171,5.43631],[-75.65173,5.43645],[-75.65173,5.43657],[-75.65164,5.4366],[-75.65158,5.43651],[-75.65157,5.43639],[-75.65149,5.43617],[-75.65141,5.43606],[-75.65131,5.43595],[-75.65122,5.43578],[-75.65117,5.43564],[-75.65113,5.4354],[-75.65111,5.43516],[-75.65107,5.43505],[-75.65098,5.43497],[-75.65087,5.43488],[-75.65082,5.43479],[-75.65073,5.43448],[-75.65063,5.43434],[-75.65054,5.43426],[-75.65049,5.43423],[-75.65045,5.43414],[-75.65047,5.43401],[-75.65051,5.43386],[-75.65059,5.43367],[-75.64993,5.43366],[-75.64995,5.43378],[-75.64996,5.43388],[-75.64997,5.43399],[-75.64995,5.4341],[-75.6499,5.43423],[-75.64987,5.43432],[-75.64986,5.43443],[-75.64987,5.43463],[-75.64988,5.43483],[-75.64995,5.4351],[-75.65,5.43525],[-75.65007,5.43546],[-75.65016,5.43561],[-75.6503,5.43589],[-75.65033,5.43606],[-75.65035,5.43615],[-75.65037,5.43629],[-75.6504,5.43639],[-75.65044,5.43647],[-75.65051,5.43664],[-75.65052,5.43678],[-75.65054,5.43684],[-75.65055,5.4369],[-75.65055,5.43699],[-75.65051,5.43708],[-75.65043,5.43716],[-75.65034,5.43729],[-75.65019,5.43743],[-75.64995,5.43777],[-75.64994,5.43778],[-75.64984,5.43793],[-75.64974,5.43802],[-75.64966,5.43811],[-75.64962,5.43818],[-75.64956,5.43838],[-75.64948,5.43863],[-75.64943,5.43879],[-75.64929,5.43897],[-75.64919,5.4392],[-75.64912,5.43942],[-75.64913,5.43966],[-75.64915,5.4399],[-75.64919,5.44],[-75.64925,5.44013],[-75.64932,5.44031],[-75.64938,5.44059],[-75.6495,5.44084],[-75.64951,5.4409],[-75.64954,5.44103],[-75.64956,5.44118],[-75.64959,5.44127],[-75.64964,5.44134],[-75.64968,5.44136],[-75.64973,5.44138],[-75.64981,5.44151],[-75.64987,5.44164],[-75.64987,5.44165],[-75.64999,5.44178],[-75.65003,5.44187],[-75.65007,5.44197],[-75.65008,5.44209],[-75.65005,5.44224],[-75.64998,5.44244],[-75.64996,5.44259],[-75.64997,5.44269],[-75.65001,5.44277],[-75.65003,5.44282],[-75.65014,5.44291],[-75.65033,5.44306],[-75.65039,5.44321],[-75.65043,5.44329],[-75.65044,5.44343],[-75.65046,5.4435],[-75.65055,5.44355],[-75.65063,5.44359],[-75.65069,5.44365],[-75.65079,5.44371],[-75.65087,5.44379],[-75.65093,5.44391],[-75.651,5.44405],[-75.65108,5.44417],[-75.65118,5.44421],[-75.65139,5.44419],[-75.65155,5.44419],[-75.65165,5.44419],[-75.65178,5.44418],[-75.65181,5.44419],[-75.65183,5.44431],[-75.65187,5.44444],[-75.65191,5.44455],[-75.65194,5.44469],[-75.65198,5.44474],[-75.65205,5.44474],[-75.65209,5.44476],[-75.65213,5.44505],[-75.65217,5.44537],[-75.65217,5.4454],[-75.65214,5.44542],[-75.65212,5.44544],[-75.65214,5.44569],[-75.65217,5.44593],[-75.65219,5.44615],[-75.65221,5.44637],[-75.65224,5.44659],[-75.65226,5.44662],[-75.65227,5.44668],[-75.6523,5.44698],[-75.65233,5.44726],[-75.65242,5.44726],[-75.65263,5.44725],[-75.65265,5.44727],[-75.6527,5.44734],[-75.65272,5.4474],[-75.65274,5.44744],[-75.65278,5.44746],[-75.65286,5.44749],[-75.65292,5.44753],[-75.65296,5.44761],[-75.65298,5.44771],[-75.653,5.44779],[-75.65298,5.44785],[-75.65296,5.44791],[-75.65295,5.44797],[-75.65293,5.44804],[-75.65293,5.44814],[-75.65292,5.44818],[-75.65292,5.44827],[-75.65291,5.44836],[-75.65291,5.44841],[-75.65289,5.44848],[-75.65288,5.44853],[-75.65287,5.4486],[-75.65284,5.44865],[-75.65283,5.44871],[-75.65282,5.44879],[-75.65283,5.44884],[-75.65284,5.44891],[-75.65286,5.44898],[-75.65292,5.4491],[-75.65299,5.44917],[-75.65303,5.44925],[-75.65306,5.44933],[-75.65307,5.4494],[-75.65308,5.44945],[-75.65307,5.44951],[-75.65307,5.44957],[-75.6531,5.44968],[-75.65319,5.44981],[-75.65326,5.44989],[-75.65332,5.44992],[-75.65342,5.44996],[-75.6535,5.45001],[-75.65354,5.45006],[-75.65356,5.45014],[-75.65356,5.45019],[-75.65351,5.45023],[-75.65342,5.45027],[-75.65331,5.45028],[-75.65314,5.45025],[-75.65291,5.45024],[-75.65263,5.45022],[-75.65257,5.45022],[-75.65255,5.45024],[-75.65254,5.45047],[-75.65251,5.45073],[-75.6525,5.45094],[-75.65248,5.45114],[-75.65248,5.45132],[-75.65248,5.45134],[-75.65252,5.45137],[-75.65265,5.4514],[-75.65293,5.45145],[-75.65312,5.45149],[-75.65322,5.45152],[-75.65328,5.45156],[-75.65334,5.45162],[-75.65336,5.45167],[-75.65337,5.45171],[-75.65343,5.45177],[-75.65344,5.45182],[-75.65348,5.45187],[-75.6535,5.45196],[-75.65351,5.45201],[-75.65352,5.45209],[-75.65351,5.45214],[-75.65349,5.45218],[-75.65348,5.45221],[-75.65346,5.45224],[-75.65346,5.45228],[-75.65346,5.45235],[-75.65346,5.45238],[-75.65347,5.45244],[-75.65343,5.4525],[-75.65339,5.45254],[-75.65339,5.45257],[-75.65339,5.4526],[-75.65339,5.45265],[-75.65339,5.45271],[-75.65338,5.45277],[-75.65337,5.45281],[-75.65336,5.45285],[-75.65337,5.4529],[-75.6534,5.45292],[-75.65347,5.45291],[-75.65353,5.45291],[-75.65353,5.45296],[-75.65351,5.453],[-75.65347,5.453],[-75.65343,5.45301],[-75.6534,5.45303],[-75.65333,5.45303],[-75.65324,5.45303],[-75.65318,5.45304],[-75.65315,5.45306],[-75.65314,5.45312],[-75.65312,5.45316],[-75.65309,5.45317],[-75.65303,5.45316],[-75.65297,5.45314],[-75.65292,5.45313],[-75.65289,5.45314],[-75.65283,5.4533],[-75.6528,5.45337],[-75.65277,5.45339],[-75.65273,5.45338],[-75.65266,5.45336],[-75.65264,5.45332],[-75.65259,5.45331],[-75.65254,5.45338],[-75.6525,5.45345],[-75.6525,5.45349],[-75.65254,5.45352],[-75.65258,5.45353],[-75.65258,5.45356],[-75.65249,5.45373],[-75.65229,5.45404],[-75.65225,5.45414],[-75.65226,5.45418],[-75.65227,5.45424],[-75.6523,5.45427],[-75.65232,5.45431],[-75.65228,5.45445],[-75.6522,5.45461],[-75.65213,5.45478],[-75.65212,5.45483],[-75.65207,5.45497],[-75.65209,5.45499],[-75.65215,5.45502],[-75.65221,5.45506],[-75.65224,5.45514],[-75.65225,5.45523],[-75.65228,5.45534],[-75.6523,5.45545],[-75.6523,5.45555],[-75.65222,5.4557],[-75.6522,5.45581],[-75.65223,5.4559],[-75.6523,5.45597],[-75.65233,5.45607],[-75.65234,5.45616],[-75.65234,5.45623],[-75.65231,5.45628],[-75.6523,5.45636],[-75.65234,5.45645],[-75.65238,5.45649],[-75.6525,5.45658],[-75.65252,5.45661],[-75.65255,5.45666],[-75.6526,5.45674],[-75.65265,5.45682],[-75.65266,5.45691],[-75.65265,5.45699],[-75.65271,5.45709],[-75.65275,5.45715],[-75.65283,5.45727],[-75.65286,5.45736],[-75.65293,5.45743],[-75.65301,5.45758],[-75.65307,5.45766],[-75.65315,5.45768],[-75.65324,5.45768],[-75.65329,5.45766],[-75.65336,5.45767],[-75.6534,5.45772],[-75.65342,5.45784],[-75.65342,5.45806],[-75.65343,5.45833],[-75.65343,5.45852],[-75.65347,5.45868],[-75.65347,5.45886],[-75.65343,5.459],[-75.65327,5.45919]]]},"properties":{"OBJECTID_1":1,"OBJECTID":23,"SITIO":"Supía","CUENCA":"Río Supía","CORRIENTE":"Río Supía","AMENAZA":"ALTA","SHAPE_Leng":8852.36378787,"Shape_Length":8852.367200138406,"Shape_Area":494660.0763734141}},{"type":"Feature","id":2,"geometry":{"type":"Polygon","coordinates":[[[-75.65263,5.45771],[-75.65272,5.45781],[-75.65282,5.45793],[-75.65292,5.45804],[-75.65296,5.45812],[-75.65301,5.4582],[-75.65299,5.45832],[-75.65298,5.4584],[-75.65298,5.4585],[-75.65295,5.45855],[-75.65296,5.45862],[-75.65292,5.45872],[-75.6528,5.45907],[-75.65278,5.45925],[-75.6527,5.45942],[-75.65268,5.45948],[-75.65292,5.45949],[-75.65313,5.45932],[-75.65327,5.45919],[-75.65343,5.459],[-75.65347,5.45886],[-75.65347,5.45868],[-75.65343,5.45852],[-75.65343,5.45833],[-75.65342,5.45806],[-75.65342,5.45784],[-75.6534,5.45772],[-75.65336,5.45767],[-75.65329,5.45766],[-75.65324,5.45768],[-75.65315,5.45768],[-75.65307,5.45766],[-75.65301,5.45758],[-75.65293,5.45743],[-75.65286,5.45736],[-75.65283,5.45727],[-75.65275,5.45715],[-75.65271,5.45709],[-75.65265,5.45699],[-75.65266,5.45691],[-75.65265,5.45682],[-75.6526,5.45674],[-75.65255,5.45666],[-75.65252,5.45661],[-75.6525,5.45658],[-75.65238,5.45649],[-75.65234,5.45645],[-75.6523,5.45636],[-75.65231,5.45628],[-75.65234,5.45623],[-75.65234,5.45616],[-75.65233,5.45607],[-75.6523,5.45597],[-75.65223,5.4559],[-75.6522,5.45581],[-75.65222,5.4557],[-75.6523,5.45555],[-75.6523,5.45545],[-75.65228,5.45534],[-75.65225,5.45523],[-75.65224,5.45514],[-75.65221,5.45506],[-75.65215,5.45502],[-75.65209,5.45499],[-75.65207,5.45497],[-75.65212,5.45483],[-75.65213,5.45478],[-75.6522,5.45461],[-75.65228,5.45445],[-75.65232,5.45431],[-75.6523,5.45427],[-75.65227,5.45424],[-75.65226,5.45418],[-75.65225,5.45414],[-75.65229,5.45404],[-75.65249,5.45373],[-75.65258,5.45356],[-75.65258,5.45353],[-75.65254,5.45352],[-75.6525,5.45349],[-75.6525,5.45345],[-75.65254,5.45338],[-75.65259,5.45331],[-75.65264,5.45332],[-75.65266,5.45336],[-75.65273,5.45338],[-75.65277,5.45339],[-75.6528,5.45337],[-75.65283,5.4533],[-75.65289,5.45314],[-75.65292,5.45313],[-75.65297,5.45314],[-75.65303,5.45316],[-75.65309,5.45317],[-75.65312,5.45316],[-75.65314,5.45312],[-75.65315,5.45306],[-75.65318,5.45304],[-75.65324,5.45303],[-75.65333,5.45303],[-75.6534,5.45303],[-75.65343,5.45301],[-75.65347,5.453],[-75.65351,5.453],[-75.65353,5.45296],[-75.65353,5.45291],[-75.65347,5.45291],[-75.6534,5.45292],[-75.65337,5.4529],[-75.65336,5.45285],[-75.65337,5.45281],[-75.65338,5.45277],[-75.65339,5.45271],[-75.65339,5.45265],[-75.65339,5.4526],[-75.65339,5.45257],[-75.65339,5.45254],[-75.65343,5.4525],[-75.65347,5.45244],[-75.65346,5.45238],[-75.65346,5.45235],[-75.65346,5.45228],[-75.65346,5.45224],[-75.65348,5.45221],[-75.65349,5.45218],[-75.65351,5.45214],[-75.65352,5.45209],[-75.65351,5.45201],[-75.6535,5.45196],[-75.65348,5.45187],[-75.65344,5.45182],[-75.65343,5.45177],[-75.65337,5.45171],[-75.65336,5.45167],[-75.65334,5.45162],[-75.65328,5.45156],[-75.65322,5.45152],[-75.65312,5.45149],[-75.65293,5.45145],[-75.65265,5.4514],[-75.65252,5.45137],[-75.65248,5.45134],[-75.65248,5.45132],[-75.65248,5.45114],[-75.6525,5.45094],[-75.65251,5.45073],[-75.65254,5.45047],[-75.65255,5.45024],[-75.65257,5.45022],[-75.65263,5.45022],[-75.65291,5.45024],[-75.65314,5.45025],[-75.65331,5.45028],[-75.65342,5.45027],[-75.65351,5.45023],[-75.65356,5.45019],[-75.65356,5.45014],[-75.65354,5.45006],[-75.6535,5.45001],[-75.65342,5.44996],[-75.65332,5.44992],[-75.65326,5.44989],[-75.65319,5.44981],[-75.6531,5.44968],[-75.65307,5.44957],[-75.65307,5.44951],[-75.65308,5.44945],[-75.65307,5.4494],[-75.65306,5.44933],[-75.65303,5.44925],[-75.65299,5.44917],[-75.65292,5.4491],[-75.65286,5.44898],[-75.65284,5.44891],[-75.65283,5.44884],[-75.65282,5.44879],[-75.65283,5.44871],[-75.65284,5.44865],[-75.65287,5.4486],[-75.65288,5.44853],[-75.65289,5.44848],[-75.65291,5.44841],[-75.65291,5.44836],[-75.65292,5.44827],[-75.65292,5.44818],[-75.65293,5.44814],[-75.65293,5.44804],[-75.65295,5.44797],[-75.65296,5.44791],[-75.65298,5.44785],[-75.653,5.44779],[-75.65298,5.44771],[-75.65296,5.44761],[-75.65292,5.44753],[-75.65286,5.44749],[-75.65278,5.44746],[-75.65274,5.44744],[-75.65272,5.4474],[-75.6527,5.44734],[-75.65265,5.44727],[-75.65263,5.44725],[-75.65242,5.44726],[-75.65233,5.44726],[-75.6523,5.44698],[-75.65227,5.44668],[-75.65226,5.44662],[-75.65224,5.44659],[-75.65221,5.44637],[-75.65219,5.44615],[-75.65217,5.44593],[-75.65214,5.44569],[-75.65212,5.44544],[-75.65214,5.44542],[-75.65217,5.4454],[-75.65217,5.44537],[-75.65213,5.44505],[-75.65209,5.44476],[-75.65205,5.44474],[-75.65198,5.44474],[-75.65194,5.44469],[-75.65191,5.44455],[-75.65187,5.44444],[-75.65183,5.44431],[-75.65181,5.44419],[-75.65178,5.44418],[-75.65165,5.44419],[-75.65155,5.44419],[-75.65139,5.44419],[-75.65118,5.44421],[-75.65108,5.44417],[-75.651,5.44405],[-75.65093,5.44391],[-75.65087,5.44379],[-75.65079,5.44371],[-75.65069,5.44365],[-75.65063,5.44359],[-75.65055,5.44355],[-75.65046,5.4435],[-75.65044,5.44343],[-75.65043,5.44329],[-75.65039,5.44321],[-75.65033,5.44306],[-75.65014,5.44291],[-75.65003,5.44282],[-75.65001,5.44277],[-75.64997,5.44269],[-75.64996,5.44259],[-75.64998,5.44244],[-75.65005,5.44224],[-75.65008,5.44209],[-75.65007,5.44197],[-75.65003,5.44187],[-75.64999,5.44178],[-75.64987,5.44165],[-75.64987,5.44164],[-75.64981,5.44151],[-75.64973,5.44138],[-75.64968,5.44136],[-75.64964,5.44134],[-75.64959,5.44127],[-75.64956,5.44118],[-75.64954,5.44103],[-75.64951,5.4409],[-75.6495,5.44084],[-75.64938,5.44059],[-75.64932,5.44031],[-75.64925,5.44013],[-75.64919,5.44],[-75.64915,5.4399],[-75.64913,5.43966],[-75.64912,5.43942],[-75.64919,5.4392],[-75.64929,5.43897],[-75.64943,5.43879],[-75.64948,5.43863],[-75.64956,5.43838],[-75.64962,5.43818],[-75.64966,5.43811],[-75.64974,5.43802],[-75.64984,5.43793],[-75.64994,5.43778],[-75.64995,5.43777],[-75.65019,5.43743],[-75.65034,5.43729],[-75.65043,5.43716],[-75.65051,5.43708],[-75.65055,5.43699],[-75.65055,5.4369],[-75.65054,5.43684],[-75.65052,5.43678],[-75.65051,5.43664],[-75.65044,5.43647],[-75.6504,5.43639],[-75.65037,5.43629],[-75.65035,5.43615],[-75.65033,5.43606],[-75.6503,5.43589],[-75.65016,5.43561],[-75.65007,5.43546],[-75.65,5.43525],[-75.64995,5.4351],[-75.64988,5.43483],[-75.64987,5.43463],[-75.64986,5.43443],[-75.64987,5.43432],[-75.6499,5.43423],[-75.64995,5.4341],[-75.64997,5.43399],[-75.64996,5.43388],[-75.64995,5.43378],[-75.64993,5.43366],[-75.64975,5.43366],[-75.64978,5.43381],[-75.64977,5.43388],[-75.64974,5.43402],[-75.64972,5.43417],[-75.64968,5.43434],[-75.64964,5.43447],[-75.64964,5.4346],[-75.6497,5.43473],[-75.64971,5.43484],[-75.64977,5.43529],[-75.64984,5.43558],[-75.64989,5.43576],[-75.64991,5.43593],[-75.64986,5.43635],[-75.64985,5.43665],[-75.64991,5.43683],[-75.64996,5.43699],[-75.65001,5.43714],[-75.64999,5.43725],[-75.64987,5.43738],[-75.64975,5.4375],[-75.64964,5.4376],[-75.64943,5.4378],[-75.64935,5.43798],[-75.64928,5.43801],[-75.64922,5.43809],[-75.64913,5.43816],[-75.6491,5.43826],[-75.64906,5.4384],[-75.64906,5.43851],[-75.64909,5.43866],[-75.64912,5.43879],[-75.64914,5.43889],[-75.64912,5.43903],[-75.64909,5.43919],[-75.64906,5.43929],[-75.64906,5.4394],[-75.64905,5.43954],[-75.64904,5.43974],[-75.64906,5.43999],[-75.64909,5.44015],[-75.64912,5.44041],[-75.64916,5.44063],[-75.64919,5.44081],[-75.64925,5.44092],[-75.64926,5.441],[-75.64927,5.44109],[-75.6493,5.44124],[-75.64932,5.44139],[-75.64939,5.44173],[-75.64942,5.44188],[-75.64951,5.44235],[-75.64958,5.44302],[-75.64962,5.44311],[-75.64967,5.44313],[-75.64981,5.44313],[-75.6499,5.44319],[-75.64997,5.44336],[-75.65001,5.44351],[-75.65005,5.44379],[-75.65007,5.44413],[-75.6501,5.44432],[-75.65013,5.44434],[-75.65019,5.44434],[-75.65032,5.44431],[-75.65038,5.44432],[-75.65041,5.44436],[-75.65045,5.44438],[-75.65055,5.44437],[-75.65091,5.44433],[-75.6512,5.44429],[-75.65123,5.4444],[-75.65125,5.44461],[-75.65129,5.44481],[-75.65133,5.44483],[-75.65142,5.44483],[-75.65149,5.44485],[-75.65153,5.44488],[-75.65158,5.44497],[-75.65163,5.44503],[-75.65166,5.44509],[-75.65169,5.44514],[-75.65174,5.44523],[-75.65182,5.44533],[-75.65186,5.44545],[-75.65189,5.44572],[-75.65195,5.44629],[-75.652,5.44661],[-75.65203,5.44676],[-75.65206,5.44703],[-75.65209,5.44726],[-75.65211,5.44728],[-75.65217,5.44728],[-75.65219,5.44731],[-75.65222,5.44749],[-75.65226,5.44791],[-75.6523,5.44805],[-75.65212,5.45026],[-75.6521,5.45039],[-75.65208,5.45054],[-75.65208,5.45072],[-75.65205,5.45122],[-75.65207,5.4513],[-75.65211,5.45132],[-75.65228,5.45134],[-75.65241,5.45138],[-75.65246,5.45142],[-75.65246,5.45152],[-75.65243,5.45178],[-75.6524,5.45202],[-75.65238,5.4522],[-75.65236,5.45229],[-75.65232,5.4524],[-75.65231,5.4525],[-75.65234,5.45255],[-75.65239,5.45262],[-75.65255,5.45269],[-75.65264,5.45277],[-75.65266,5.45282],[-75.65241,5.45326],[-75.65201,5.45389],[-75.65185,5.45419],[-75.65164,5.45455],[-75.65159,5.45465],[-75.65155,5.45472],[-75.65155,5.45478],[-75.65161,5.45482],[-75.65181,5.45491],[-75.65195,5.45496],[-75.652,5.455],[-75.65203,5.45503],[-75.65201,5.45513],[-75.65196,5.45549],[-75.65196,5.45558],[-75.65198,5.45566],[-75.65201,5.4557],[-75.65205,5.45578],[-75.65206,5.45588],[-75.65205,5.45595],[-75.65205,5.45603],[-75.65205,5.45609],[-75.65206,5.45614],[-75.6521,5.4562],[-75.65215,5.45627],[-75.65219,5.45632],[-75.65221,5.45636],[-75.65223,5.4564],[-75.65226,5.45645],[-75.65229,5.4565],[-75.65234,5.45655],[-75.65239,5.45656],[-75.65245,5.45658],[-75.65247,5.45662],[-75.65248,5.45665],[-75.65248,5.4567],[-75.65248,5.45677],[-75.65249,5.45684],[-75.65251,5.45692],[-75.65253,5.45702],[-75.65254,5.45712],[-75.65253,5.45722],[-75.65252,5.45736],[-75.65253,5.45743],[-75.65258,5.4575],[-75.65258,5.4576],[-75.65263,5.45771]]]},"properties":{"OBJECTID_1":2,"OBJECTID":24,"SITIO":"Supía","CUENCA":"Río Supía","CORRIENTE":"Río Supía","AMENAZA":"MEDIA","SHAPE_Leng":6959.015407,"Shape_Length":6959.0181667770175,"Shape_Area":149163.10609962413}},{"type":"Feature","id":3,"geometry":{"type":"Polygon","coordinates":[[[-75.65059,5.43367],[-75.65051,5.43386],[-75.65047,5.43401],[-75.65045,5.43414],[-75.65049,5.43423],[-75.65054,5.43426],[-75.65063,5.43434],[-75.65073,5.43448],[-75.65082,5.43479],[-75.65087,5.43488],[-75.65098,5.43497],[-75.65107,5.43505],[-75.65111,5.43516],[-75.65113,5.4354],[-75.65117,5.43564],[-75.65122,5.43578],[-75.65131,5.43595],[-75.65141,5.43606],[-75.65149,5.43617],[-75.65157,5.43639],[-75.65158,5.43651],[-75.65164,5.4366],[-75.65173,5.43657],[-75.65173,5.43645],[-75.65171,5.43631],[-75.65171,5.43615],[-75.65167,5.43598],[-75.65167,5.43579],[-75.65168,5.43564],[-75.65175,5.43548],[-75.65184,5.43535],[-75.65184,5.4352],[-75.65172,5.43489],[-75.65166,5.43472],[-75.65168,5.43458],[-75.65159,5.43443],[-75.65149,5.43431],[-75.65138,5.43407],[-75.65131,5.43376],[-75.6513,5.43366],[-75.65059,5.43367]]]},"properties":{"OBJECTID_1":3,"OBJECTID":25,"SITIO":"Supía","CUENCA":"Río Supía","CORRIENTE":"Río Supía","AMENAZA":"MEDIA","SHAPE_Leng":798.527544575,"Shape_Length":798.5278352174706,"Shape_Area":22730.357539654648}},{"type":"Feature","id":4,"geometry":{"type":"Polygon","coordinates":[[[-75.6523,5.44805],[-75.65226,5.44791],[-75.65222,5.44749],[-75.65219,5.44731],[-75.65217,5.44728],[-75.65211,5.44728],[-75.65209,5.44726],[-75.65206,5.44703],[-75.65203,5.44676],[-75.652,5.44661],[-75.65195,5.44629],[-75.65189,5.44572],[-75.65186,5.44545],[-75.65182,5.44533],[-75.65174,5.44523],[-75.65169,5.44514],[-75.65166,5.44509],[-75.65163,5.44503],[-75.65158,5.44497],[-75.65153,5.44488],[-75.65149,5.44485],[-75.65142,5.44483],[-75.65133,5.44483],[-75.65129,5.44481],[-75.65125,5.44461],[-75.65123,5.4444],[-75.6512,5.44429],[-75.65091,5.44433],[-75.65055,5.44437],[-75.65045,5.44438],[-75.65041,5.44436],[-75.65038,5.44432],[-75.65032,5.44431],[-75.65019,5.44434],[-75.65013,5.44434],[-75.6501,5.44432],[-75.65007,5.44413],[-75.65005,5.44379],[-75.65001,5.44351],[-75.64997,5.44336],[-75.6499,5.44319],[-75.64981,5.44313],[-75.64967,5.44313],[-75.64962,5.44311],[-75.64958,5.44302],[-75.64951,5.44235],[-75.64942,5.44188],[-75.64939,5.44173],[-75.64932,5.44139],[-75.6493,5.44124],[-75.64927,5.44109],[-75.64926,5.441],[-75.64925,5.44092],[-75.64919,5.44081],[-75.64916,5.44063],[-75.64912,5.44041],[-75.64909,5.44015],[-75.64906,5.43999],[-75.64904,5.43974],[-75.64905,5.43954],[-75.64906,5.4394],[-75.64906,5.43929],[-75.64909,5.43919],[-75.64912,5.43903],[-75.64914,5.43889],[-75.64912,5.43879],[-75.64909,5.43866],[-75.64906,5.43851],[-75.64906,5.4384],[-75.6491,5.43826],[-75.64913,5.43816],[-75.64922,5.43809],[-75.64928,5.43801],[-75.64935,5.43798],[-75.64943,5.4378],[-75.64964,5.4376],[-75.64975,5.4375],[-75.64987,5.43738],[-75.64999,5.43725],[-75.65001,5.43714],[-75.64996,5.43699],[-75.64991,5.43683],[-75.64985,5.43665],[-75.64986,5.43635],[-75.64991,5.43593],[-75.64989,5.43576],[-75.64984,5.43558],[-75.64977,5.43529],[-75.64971,5.43484],[-75.6497,5.43473],[-75.64964,5.4346],[-75.64964,5.43447],[-75.64968,5.43434],[-75.64972,5.43417],[-75.64974,5.43402],[-75.64977,5.43388],[-75.64978,5.43381],[-75.64975,5.43366],[-75.64952,5.43365],[-75.64951,5.4338],[-75.64949,5.43394],[-75.64951,5.4341],[-75.64948,5.43436],[-75.64945,5.43464],[-75.64945,5.43478],[-75.64947,5.43493],[-75.64951,5.43522],[-75.64956,5.43551],[-75.64956,5.4357],[-75.64949,5.43591],[-75.64946,5.43622],[-75.64943,5.43641],[-75.64941,5.43663],[-75.64947,5.43683],[-75.64952,5.43695],[-75.64952,5.43706],[-75.64946,5.43716],[-75.64944,5.43724],[-75.6494,5.4373],[-75.64932,5.43738],[-75.64928,5.43743],[-75.64923,5.4375],[-75.64921,5.43757],[-75.64921,5.43764],[-75.64919,5.43774],[-75.64913,5.43788],[-75.64911,5.43792],[-75.64907,5.43793],[-75.64897,5.43797],[-75.64888,5.438],[-75.64881,5.43804],[-75.64878,5.43809],[-75.64875,5.43815],[-75.64876,5.43822],[-75.64877,5.43851],[-75.64881,5.43875],[-75.64883,5.439],[-75.64886,5.43913],[-75.64888,5.43928],[-75.64889,5.43938],[-75.64888,5.43953],[-75.64889,5.43967],[-75.64892,5.43993],[-75.64895,5.44015],[-75.64899,5.44039],[-75.64902,5.44052],[-75.64905,5.44063],[-75.64905,5.44073],[-75.64905,5.44084],[-75.64905,5.44095],[-75.64906,5.44104],[-75.64908,5.44114],[-75.64908,5.44123],[-75.64907,5.44136],[-75.64908,5.44157],[-75.64908,5.4417],[-75.6491,5.44184],[-75.64912,5.44196],[-75.64916,5.44214],[-75.64919,5.44229],[-75.64921,5.44241],[-75.64922,5.44251],[-75.64922,5.44259],[-75.64922,5.44273],[-75.64923,5.44282],[-75.64926,5.44293],[-75.64932,5.44309],[-75.64937,5.44319],[-75.64935,5.44331],[-75.64934,5.44342],[-75.64932,5.44352],[-75.64933,5.44378],[-75.64933,5.44388],[-75.64933,5.44398],[-75.64932,5.44411],[-75.64937,5.44423],[-75.64946,5.44431],[-75.64958,5.44446],[-75.64975,5.44452],[-75.64997,5.44455],[-75.65003,5.44462],[-75.65006,5.44481],[-75.65008,5.44495],[-75.65012,5.44498],[-75.6502,5.44498],[-75.65036,5.44495],[-75.65051,5.44494],[-75.65089,5.44514],[-75.65106,5.44521],[-75.65123,5.4453],[-75.65131,5.44541],[-75.65135,5.44558],[-75.65139,5.44596],[-75.65154,5.44702],[-75.65161,5.4476],[-75.65166,5.44797],[-75.65169,5.44807],[-75.65181,5.44845],[-75.65185,5.44857],[-75.65173,5.45009],[-75.65168,5.45084],[-75.65164,5.45158],[-75.65161,5.45179],[-75.65159,5.45205],[-75.6516,5.45214],[-75.65166,5.45221],[-75.65183,5.45231],[-75.65198,5.45245],[-75.65199,5.45255],[-75.65193,5.4527],[-75.65179,5.45314],[-75.6516,5.45364],[-75.65148,5.45397],[-75.65138,5.45428],[-75.65125,5.45464],[-75.65123,5.45473],[-75.65125,5.45476],[-75.6513,5.45478],[-75.65134,5.4548],[-75.65137,5.45482],[-75.65138,5.45489],[-75.65138,5.45498],[-75.65134,5.45533],[-75.65132,5.45554],[-75.65136,5.45559],[-75.65145,5.45562],[-75.65162,5.45564],[-75.65184,5.45567],[-75.65191,5.45569],[-75.65191,5.45576],[-75.65187,5.45597],[-75.65176,5.45635],[-75.6517,5.45659],[-75.65173,5.45661],[-75.65183,5.45663],[-75.65207,5.4567],[-75.65241,5.45678],[-75.65244,5.4568],[-75.65242,5.45688],[-75.65237,5.45696],[-75.65234,5.45701],[-75.65231,5.45708],[-75.6523,5.4572],[-75.65235,5.45733],[-75.65243,5.45749],[-75.65256,5.4577],[-75.65271,5.45791],[-75.65275,5.45802],[-75.65275,5.45811],[-75.65274,5.45819],[-75.6527,5.45832],[-75.65267,5.45845],[-75.65265,5.45861],[-75.65263,5.45885],[-75.65262,5.45905],[-75.6526,5.45913],[-75.65256,5.45919],[-75.65247,5.45928],[-75.65243,5.4593],[-75.65241,5.45936],[-75.65247,5.45941],[-75.65251,5.45947],[-75.65268,5.45948],[-75.6527,5.45942],[-75.65278,5.45925],[-75.6528,5.45907],[-75.65292,5.45872],[-75.65296,5.45862],[-75.65295,5.45855],[-75.65298,5.4585],[-75.65298,5.4584],[-75.65299,5.45832],[-75.65301,5.4582],[-75.65296,5.45812],[-75.65292,5.45804],[-75.65282,5.45793],[-75.65272,5.45781],[-75.65263,5.45771],[-75.65258,5.4576],[-75.65258,5.4575],[-75.65253,5.45743],[-75.65252,5.45736],[-75.65253,5.45722],[-75.65254,5.45712],[-75.65253,5.45702],[-75.65251,5.45692],[-75.65249,5.45684],[-75.65248,5.45677],[-75.65248,5.4567],[-75.65248,5.45665],[-75.65247,5.45662],[-75.65245,5.45658],[-75.65239,5.45656],[-75.65234,5.45655],[-75.65229,5.4565],[-75.65226,5.45645],[-75.65223,5.4564],[-75.65221,5.45636],[-75.65219,5.45632],[-75.65215,5.45627],[-75.6521,5.4562],[-75.65206,5.45614],[-75.65205,5.45609],[-75.65205,5.45603],[-75.65205,5.45595],[-75.65206,5.45588],[-75.65205,5.45578],[-75.65201,5.4557],[-75.65198,5.45566],[-75.65196,5.45558],[-75.65196,5.45549],[-75.65201,5.45513],[-75.65203,5.45503],[-75.652,5.455],[-75.65195,5.45496],[-75.65181,5.45491],[-75.65161,5.45482],[-75.65155,5.45478],[-75.65155,5.45472],[-75.65159,5.45465],[-75.65164,5.45455],[-75.65185,5.45419],[-75.65201,5.45389],[-75.65241,5.45326],[-75.65266,5.45282],[-75.65264,5.45277],[-75.65255,5.45269],[-75.65239,5.45262],[-75.65234,5.45255],[-75.65231,5.4525],[-75.65232,5.4524],[-75.65236,5.45229],[-75.65238,5.4522],[-75.6524,5.45202],[-75.65243,5.45178],[-75.65246,5.45152],[-75.65246,5.45142],[-75.65241,5.45138],[-75.65228,5.45134],[-75.65211,5.45132],[-75.65207,5.4513],[-75.65205,5.45122],[-75.65208,5.45072],[-75.65208,5.45054],[-75.6521,5.45039],[-75.65212,5.45026],[-75.6523,5.44805]]]},"properties":{"OBJECTID_1":4,"OBJECTID":26,"SITIO":"Supía","CUENCA":"Río Supía","CORRIENTE":"Río Supía","AMENAZA":"BAJA","SHAPE_Leng":6586.7687529,"Shape_Length":6586.771583068396,"Shape_Area":135640.13914239244}},{"type":"Feature","id":5,"geometry":{"type":"Polygon","coordinates":[[[-75.65506,5.45947],[-75.65507,5.45947],[-75.65531,5.45951],[-75.65531,5.45951],[-75.65532,5.45951],[-75.65532,5.45951],[-75.6555,5.45947],[-75.65569,5.45944],[-75.65595,5.45948],[-75.65622,5.45951],[-75.65622,5.45951],[-75.65623,5.45951],[-75.65646,5.45947],[-75.65647,5.45947],[-75.65647,5.45947],[-75.65674,5.45935],[-75.65674,5.45935],[-75.65675,5.45934],[-75.65675,5.45934],[-75.65691,5.45917],[-75.65691,5.45917],[-75.65692,5.45916],[-75.65706,5.45894],[-75.65706,5.45894],[-75.65706,5.45894],[-75.65716,5.45867],[-75.65717,5.45866],[-75.65727,5.45831],[-75.65744,5.45806],[-75.65745,5.45798],[-75.65723,5.45829],[-75.65712,5.45865],[-75.65702,5.45892],[-75.65688,5.45914],[-75.65672,5.45931],[-75.65645,5.45943],[-75.65622,5.45947],[-75.65596,5.45943],[-75.65569,5.4594],[-75.65549,5.45943],[-75.65531,5.45947],[-75.65508,5.45942],[-75.65474,5.45924],[-75.65452,5.45907],[-75.65444,5.45907],[-75.65434,5.45913],[-75.65426,5.45926],[-75.65422,5.45938],[-75.65415,5.45946],[-75.65407,5.45946],[-75.65401,5.45942],[-75.65398,5.45927],[-75.65402,5.45919],[-75.65398,5.45911],[-75.65389,5.45907],[-75.65371,5.45905],[-75.65352,5.45915],[-75.6534,5.45925],[-75.65333,5.45949],[-75.65338,5.4595],[-75.65344,5.45928],[-75.65355,5.45918],[-75.65372,5.4591],[-75.65388,5.45912],[-75.65394,5.45915],[-75.65397,5.45919],[-75.65394,5.45926],[-75.65394,5.45927],[-75.65394,5.45927],[-75.65394,5.45928],[-75.65394,5.45928],[-75.65397,5.45943],[-75.65397,5.45943],[-75.65398,5.45944],[-75.65398,5.45944],[-75.65399,5.45945],[-75.65399,5.45945],[-75.65405,5.45949],[-75.65405,5.4595],[-75.65406,5.4595],[-75.65407,5.4595],[-75.65407,5.4595],[-75.65415,5.4595],[-75.65416,5.4595],[-75.65416,5.4595],[-75.65417,5.4595],[-75.65418,5.45949],[-75.65418,5.45949],[-75.65425,5.45941],[-75.65425,5.45941],[-75.65425,5.45941],[-75.65426,5.4594],[-75.65426,5.4594],[-75.6543,5.45928],[-75.65438,5.45916],[-75.65445,5.45911],[-75.65451,5.45912],[-75.65472,5.45928],[-75.65472,5.45928],[-75.65472,5.45928],[-75.65506,5.45946],[-75.65506,5.45947]]]},"properties":{"OBJECTID_1":5,"OBJECTID":27,"SITIO":"Supía","CUENCA":"Río Supía","CORRIENTE":"Río Supía","AMENAZA":"MEDIA","SHAPE_Leng":1294.17034634,"Shape_Length":1294.1708013965983,"Shape_Area":3200.3899002745607}},{"type":"Feature","id":6,"geometry":{"type":"Polygon","coordinates":[[[-75.65424,5.4587],[-75.6544,5.45871],[-75.65464,5.45863],[-75.65493,5.45853],[-75.65515,5.45843],[-75.65534,5.45833],[-75.65553,5.45821],[-75.65567,5.45811],[-75.65589,5.45799],[-75.6561,5.45787],[-75.65627,5.4578],[-75.65647,5.45773],[-75.65662,5.45765],[-75.65683,5.45754],[-75.65696,5.45736],[-75.65719,5.45714],[-75.65735,5.45689],[-75.65746,5.45676],[-75.65746,5.45672],[-75.65745,5.45672],[-75.65745,5.45672],[-75.65744,5.45672],[-75.65743,5.45673],[-75.65743,5.45673],[-75.65731,5.45686],[-75.65731,5.45686],[-75.65731,5.45686],[-75.65716,5.45711],[-75.65693,5.45733],[-75.65693,5.45733],[-75.65693,5.45734],[-75.6568,5.4575],[-75.65659,5.45761],[-75.65645,5.45769],[-75.65625,5.45775],[-75.65625,5.45775],[-75.65625,5.45776],[-75.65608,5.45783],[-75.65608,5.45783],[-75.65586,5.45795],[-75.65565,5.45807],[-75.65564,5.45807],[-75.65551,5.45817],[-75.65531,5.45829],[-75.65513,5.45839],[-75.65491,5.45849],[-75.65463,5.45859],[-75.65439,5.45866],[-75.65425,5.45865],[-75.6542,5.45861],[-75.65416,5.45849],[-75.65414,5.45821],[-75.65418,5.45797],[-75.65422,5.45778],[-75.65422,5.45777],[-75.65422,5.4576],[-75.65422,5.4576],[-75.65422,5.45759],[-75.65418,5.45745],[-75.65414,5.45731],[-75.65421,5.45714],[-75.65427,5.45703],[-75.65428,5.45702],[-75.65433,5.45688],[-75.65433,5.45687],[-75.65433,5.45686],[-75.65433,5.45685],[-75.65433,5.45685],[-75.65431,5.45673],[-75.6543,5.45672],[-75.6543,5.45672],[-75.6543,5.45671],[-75.65429,5.4567],[-75.65429,5.4567],[-75.65414,5.4566],[-75.65395,5.45643],[-75.65378,5.4562],[-75.65371,5.45603],[-75.65367,5.45592],[-75.65356,5.45563],[-75.65351,5.45527],[-75.65347,5.45484],[-75.65346,5.45457],[-75.65356,5.45434],[-75.65356,5.45434],[-75.65356,5.45433],[-75.65358,5.45422],[-75.65362,5.45404],[-75.65362,5.45404],[-75.65362,5.45403],[-75.65362,5.45403],[-75.6536,5.4539],[-75.65366,5.45369],[-75.65377,5.45344],[-75.65378,5.45344],[-75.65378,5.45344],[-75.65386,5.45318],[-75.65386,5.45317],[-75.65386,5.45316],[-75.65386,5.45316],[-75.65386,5.45315],[-75.6538,5.45298],[-75.65383,5.45284],[-75.65392,5.45273],[-75.65393,5.45272],[-75.65393,5.45272],[-75.65403,5.45248],[-75.65403,5.45248],[-75.65403,5.45247],[-75.65406,5.45231],[-75.65406,5.45231],[-75.65406,5.4523],[-75.65406,5.4523],[-75.65406,5.45229],[-75.65406,5.45228],[-75.65403,5.45223],[-75.65411,5.45201],[-75.65412,5.452],[-75.65418,5.45186],[-75.65418,5.45186],[-75.65425,5.45167],[-75.65425,5.45167],[-75.6543,5.45148],[-75.65437,5.45135],[-75.6545,5.45122],[-75.65467,5.45114],[-75.65467,5.45114],[-75.65468,5.45113],[-75.65468,5.45113],[-75.65469,5.45112],[-75.65469,5.45112],[-75.6548,5.45091],[-75.65481,5.45091],[-75.65488,5.45071],[-75.65488,5.4507],[-75.65488,5.4507],[-75.65491,5.45047],[-75.65491,5.45047],[-75.65491,5.45046],[-75.65489,5.45032],[-75.65489,5.45031],[-75.65489,5.45031],[-75.65485,5.45018],[-75.65485,5.45018],[-75.65485,5.45017],[-75.65478,5.45004],[-75.65478,5.45004],[-75.65477,5.45003],[-75.65477,5.45002],[-75.65476,5.45002],[-75.65475,5.45002],[-75.65475,5.45002],[-75.65463,5.44998],[-75.65452,5.44995],[-75.65436,5.44986],[-75.65436,5.44986],[-75.65412,5.44975],[-75.65395,5.44961],[-75.65389,5.44956],[-75.6538,5.44943],[-75.6538,5.44943],[-75.65368,5.44927],[-75.65366,5.44909],[-75.65369,5.44892],[-75.65383,5.44866],[-75.65383,5.44865],[-75.65384,5.44864],[-75.65384,5.44864],[-75.65387,5.44841],[-75.65387,5.44841],[-75.65387,5.44825],[-75.65387,5.44819],[-75.65387,5.44818],[-75.65387,5.44818],[-75.65387,5.44816],[-75.65384,5.44804],[-75.65384,5.44804],[-75.65383,5.44803],[-75.65383,5.44803],[-75.65378,5.44795],[-75.65373,5.44787],[-75.65369,5.44777],[-75.65368,5.44776],[-75.65368,5.44776],[-75.65368,5.44776],[-75.65359,5.44766],[-75.65355,5.4476],[-75.65351,5.44752],[-75.65348,5.44741],[-75.65347,5.44727],[-75.65347,5.44727],[-75.65343,5.44709],[-75.65343,5.44709],[-75.65333,5.44677],[-75.65326,5.44645],[-75.65326,5.44645],[-75.65322,5.44633],[-75.65324,5.44616],[-75.65326,5.44596],[-75.65326,5.44595],[-75.65326,5.44595],[-75.65326,5.44578],[-75.65331,5.44557],[-75.65339,5.44537],[-75.65348,5.44518],[-75.65356,5.44506],[-75.65356,5.44506],[-75.6536,5.44499],[-75.6536,5.44498],[-75.65361,5.44497],[-75.65361,5.44497],[-75.65362,5.44488],[-75.65362,5.44487],[-75.65362,5.44486],[-75.65361,5.44486],[-75.65361,5.44485],[-75.65357,5.44477],[-75.65357,5.44477],[-75.65356,5.44476],[-75.65356,5.44476],[-75.65355,5.44475],[-75.65354,5.44475],[-75.65334,5.44466],[-75.65309,5.44455],[-75.65292,5.44442],[-75.65277,5.44423],[-75.65277,5.44423],[-75.65276,5.44422],[-75.65251,5.444],[-75.65251,5.444],[-75.65251,5.444],[-75.65231,5.44385],[-75.65218,5.4437],[-75.65204,5.44345],[-75.65193,5.44308],[-75.65188,5.44269],[-75.6519,5.44241],[-75.65204,5.44211],[-75.65204,5.44211],[-75.65211,5.44192],[-75.65211,5.44192],[-75.65211,5.44191],[-75.65211,5.4419],[-75.65211,5.44189],[-75.65208,5.4418],[-75.65207,5.44179],[-75.65207,5.44179],[-75.65193,5.44156],[-75.6518,5.44135],[-75.65177,5.44118],[-75.65176,5.44118],[-75.65165,5.44082],[-75.65165,5.44063],[-75.65165,5.44062],[-75.65163,5.44047],[-75.65162,5.44034],[-75.65165,5.44018],[-75.65172,5.44002],[-75.65172,5.44002],[-75.65172,5.44001],[-75.65172,5.44],[-75.65172,5.44],[-75.65172,5.43986],[-75.6517,5.43966],[-75.6517,5.43966],[-75.65168,5.43942],[-75.65169,5.43936],[-75.6517,5.43922],[-75.6517,5.43921],[-75.6517,5.43921],[-75.65169,5.43895],[-75.65172,5.4388],[-75.65183,5.43859],[-75.65184,5.43858],[-75.6519,5.43839],[-75.65191,5.43838],[-75.65191,5.43838],[-75.65193,5.43814],[-75.65195,5.43789],[-75.65201,5.43768],[-75.65201,5.43767],[-75.65202,5.43766],[-75.65201,5.43765],[-75.65199,5.43752],[-75.65202,5.4374],[-75.65202,5.4374],[-75.65207,5.43711],[-75.65207,5.43711],[-75.6521,5.43691],[-75.6521,5.4369],[-75.6521,5.4367],[-75.65218,5.43647],[-75.65229,5.43623],[-75.65246,5.43604],[-75.65246,5.43604],[-75.65247,5.43604],[-75.65247,5.43603],[-75.6526,5.43577],[-75.65261,5.43576],[-75.65261,5.43575],[-75.65261,5.43575],[-75.65264,5.43552],[-75.65264,5.43551],[-75.65264,5.43551],[-75.65262,5.43528],[-75.65264,5.43512],[-75.65264,5.43511],[-75.65264,5.43511],[-75.65263,5.43498],[-75.65263,5.43498],[-75.65263,5.43497],[-75.65263,5.43496],[-75.65262,5.43496],[-75.65261,5.43495],[-75.65261,5.43495],[-75.65253,5.43488],[-75.6525,5.43472],[-75.6525,5.43472],[-75.65249,5.43471],[-75.6524,5.43451],[-75.6524,5.4345],[-75.6524,5.4345],[-75.65229,5.43436],[-75.65219,5.43421],[-75.65219,5.43421],[-75.65218,5.4342],[-75.65197,5.43402],[-75.65185,5.43381],[-75.65188,5.43368],[-75.65188,5.43367],[-75.65183,5.43367],[-75.65181,5.43382],[-75.65194,5.43405],[-75.65215,5.43423],[-75.65225,5.43438],[-75.65236,5.43452],[-75.65245,5.43473],[-75.65249,5.43491],[-75.65259,5.43499],[-75.65259,5.43511],[-75.65258,5.43528],[-75.65259,5.43551],[-75.65256,5.43575],[-75.65243,5.43601],[-75.65226,5.4362],[-75.65213,5.43646],[-75.65205,5.43669],[-75.65205,5.4369],[-75.65203,5.43711],[-75.65197,5.43739],[-75.65194,5.43751],[-75.65197,5.43766],[-75.6519,5.43788],[-75.65188,5.43814],[-75.65186,5.43837],[-75.65179,5.43857],[-75.65167,5.43878],[-75.65165,5.43894],[-75.65166,5.43921],[-75.65164,5.43935],[-75.65163,5.43942],[-75.65166,5.43967],[-75.65167,5.43986],[-75.65168,5.44],[-75.65161,5.44016],[-75.65158,5.44034],[-75.65158,5.44047],[-75.65161,5.44063],[-75.65161,5.44083],[-75.65172,5.44119],[-75.65176,5.44136],[-75.65189,5.44159],[-75.65203,5.44181],[-75.65207,5.44191],[-75.652,5.44209],[-75.65186,5.4424],[-75.65184,5.44269],[-75.65188,5.44309],[-75.652,5.44347],[-75.65214,5.44373],[-75.65228,5.44389],[-75.65248,5.44404],[-75.65273,5.44426],[-75.65288,5.44445],[-75.65307,5.44459],[-75.65332,5.4447],[-75.65353,5.44479],[-75.65357,5.44487],[-75.65356,5.44496],[-75.65352,5.44504],[-75.65344,5.44516],[-75.65335,5.44535],[-75.65327,5.44556],[-75.65322,5.44578],[-75.65322,5.44595],[-75.6532,5.44616],[-75.65318,5.44633],[-75.65322,5.44646],[-75.65328,5.44678],[-75.65339,5.4471],[-75.65342,5.44728],[-75.65344,5.44742],[-75.65346,5.44754],[-75.65351,5.44762],[-75.65356,5.44769],[-75.65365,5.44779],[-75.65369,5.4479],[-75.65374,5.44797],[-75.65379,5.44805],[-75.65382,5.44817],[-75.65383,5.44819],[-75.65383,5.44825],[-75.65383,5.44841],[-75.65379,5.44863],[-75.65365,5.4489],[-75.65362,5.44909],[-75.65364,5.44929],[-75.65376,5.44945],[-75.65386,5.44959],[-75.65392,5.44964],[-75.6541,5.44979],[-75.65434,5.4499],[-75.6545,5.44999],[-75.65462,5.45003],[-75.65474,5.45006],[-75.65481,5.45019],[-75.65485,5.45032],[-75.65487,5.45047],[-75.65484,5.4507],[-75.65476,5.45089],[-75.65465,5.4511],[-75.65448,5.45119],[-75.65433,5.45133],[-75.65425,5.45147],[-75.65421,5.45165],[-75.65414,5.45184],[-75.65408,5.45198],[-75.65407,5.45199],[-75.65398,5.45224],[-75.65402,5.4523],[-75.65398,5.45247],[-75.65389,5.4527],[-75.65379,5.45282],[-75.65376,5.45298],[-75.65382,5.45316],[-75.65373,5.45342],[-75.65361,5.45367],[-75.65355,5.45389],[-75.65358,5.45403],[-75.65354,5.45421],[-75.65352,5.45432],[-75.65342,5.45456],[-75.65343,5.45484],[-75.65347,5.45528],[-75.65351,5.45564],[-75.65363,5.45594],[-75.65367,5.45604],[-75.65374,5.45622],[-75.65392,5.45646],[-75.65411,5.45663],[-75.65426,5.45674],[-75.65429,5.45686],[-75.65423,5.45701],[-75.65417,5.45712],[-75.65409,5.45731],[-75.65413,5.45746],[-75.65417,5.4576],[-75.65417,5.45777],[-75.65414,5.45796],[-75.6541,5.45821],[-75.65411,5.4585],[-75.65416,5.45864],[-75.65424,5.4587]]]},"properties":{"OBJECTID_1":6,"OBJECTID":28,"SITIO":"Supía","CUENCA":"Río Supía","CORRIENTE":"Río Supía","AMENAZA":"MEDIA","SHAPE_Leng":7096.10671438,"Shape_Length":7096.109692062212,"Shape_Area":17715.76692134929}},{"type":"Feature","id":7,"geometry":{"type":"Polygon","coordinates":[[[-75.65188,5.43367],[-75.65188,5.43368],[-75.65185,5.43381],[-75.65197,5.43402],[-75.65218,5.4342],[-75.65219,5.43421],[-75.65219,5.43421],[-75.65229,5.43436],[-75.6524,5.4345],[-75.6524,5.4345],[-75.6524,5.43451],[-75.65249,5.43471],[-75.6525,5.43472],[-75.6525,5.43472],[-75.65253,5.43488],[-75.65261,5.43495],[-75.65261,5.43495],[-75.65262,5.43496],[-75.65263,5.43496],[-75.65263,5.43497],[-75.65263,5.43498],[-75.65263,5.43498],[-75.65264,5.43511],[-75.65264,5.43511],[-75.65264,5.43512],[-75.65262,5.43528],[-75.65264,5.43551],[-75.65264,5.43551],[-75.65264,5.43552],[-75.65261,5.43575],[-75.65261,5.43575],[-75.65261,5.43576],[-75.6526,5.43577],[-75.65247,5.43603],[-75.65247,5.43604],[-75.65246,5.43604],[-75.65246,5.43604],[-75.65229,5.43623],[-75.65218,5.43647],[-75.6521,5.4367],[-75.6521,5.4369],[-75.6521,5.43691],[-75.65207,5.43711],[-75.65207,5.43711],[-75.65202,5.4374],[-75.65202,5.4374],[-75.65199,5.43752],[-75.65201,5.43765],[-75.65202,5.43766],[-75.65201,5.43767],[-75.65201,5.43768],[-75.65195,5.43789],[-75.65193,5.43814],[-75.65191,5.43838],[-75.65191,5.43838],[-75.6519,5.43839],[-75.65184,5.43858],[-75.65183,5.43859],[-75.65172,5.4388],[-75.65169,5.43895],[-75.6517,5.43921],[-75.6517,5.43921],[-75.6517,5.43922],[-75.65169,5.43936],[-75.65168,5.43942],[-75.6517,5.43966],[-75.6517,5.43966],[-75.65172,5.43986],[-75.65172,5.44],[-75.65172,5.44],[-75.65172,5.44001],[-75.65172,5.44002],[-75.65172,5.44002],[-75.65165,5.44018],[-75.65162,5.44034],[-75.65163,5.44047],[-75.65165,5.44062],[-75.65165,5.44063],[-75.65165,5.44082],[-75.65176,5.44118],[-75.65177,5.44118],[-75.6518,5.44135],[-75.65193,5.44156],[-75.65207,5.44179],[-75.65207,5.44179],[-75.65208,5.4418],[-75.65211,5.44189],[-75.65211,5.4419],[-75.65211,5.44191],[-75.65211,5.44192],[-75.65211,5.44192],[-75.65204,5.44211],[-75.65204,5.44211],[-75.6519,5.44241],[-75.65188,5.44269],[-75.65193,5.44308],[-75.65204,5.44345],[-75.65218,5.4437],[-75.65231,5.44385],[-75.65251,5.444],[-75.65251,5.444],[-75.65251,5.444],[-75.65276,5.44422],[-75.65277,5.44423],[-75.65277,5.44423],[-75.65292,5.44442],[-75.65309,5.44455],[-75.65334,5.44466],[-75.65354,5.44475],[-75.65355,5.44475],[-75.65356,5.44476],[-75.65356,5.44476],[-75.65357,5.44477],[-75.65357,5.44477],[-75.65361,5.44485],[-75.65361,5.44486],[-75.65362,5.44486],[-75.65362,5.44487],[-75.65362,5.44488],[-75.65361,5.44497],[-75.65361,5.44497],[-75.6536,5.44498],[-75.6536,5.44499],[-75.65356,5.44506],[-75.65356,5.44506],[-75.65348,5.44518],[-75.65339,5.44537],[-75.65331,5.44557],[-75.65326,5.44578],[-75.65326,5.44595],[-75.65326,5.44595],[-75.65326,5.44596],[-75.65324,5.44616],[-75.65322,5.44633],[-75.65326,5.44645],[-75.65326,5.44645],[-75.65333,5.44677],[-75.65343,5.44709],[-75.65343,5.44709],[-75.65347,5.44727],[-75.65347,5.44727],[-75.65348,5.44741],[-75.65351,5.44752],[-75.65355,5.4476],[-75.65359,5.44766],[-75.65368,5.44776],[-75.65368,5.44776],[-75.65368,5.44776],[-75.65369,5.44777],[-75.65373,5.44787],[-75.65378,5.44795],[-75.65383,5.44803],[-75.65383,5.44803],[-75.65384,5.44804],[-75.65384,5.44804],[-75.65387,5.44816],[-75.65387,5.44818],[-75.65387,5.44818],[-75.65387,5.44819],[-75.65387,5.44825],[-75.65387,5.44841],[-75.65387,5.44841],[-75.65384,5.44864],[-75.65384,5.44864],[-75.65383,5.44865],[-75.65383,5.44866],[-75.65369,5.44892],[-75.65366,5.44909],[-75.65368,5.44927],[-75.6538,5.44943],[-75.6538,5.44943],[-75.65389,5.44956],[-75.65395,5.44961],[-75.65412,5.44975],[-75.65436,5.44986],[-75.65436,5.44986],[-75.65452,5.44995],[-75.65463,5.44998],[-75.65475,5.45002],[-75.65475,5.45002],[-75.65476,5.45002],[-75.65477,5.45002],[-75.65477,5.45003],[-75.65478,5.45004],[-75.65478,5.45004],[-75.65485,5.45017],[-75.65485,5.45018],[-75.65485,5.45018],[-75.65489,5.45031],[-75.65489,5.45031],[-75.65489,5.45032],[-75.65491,5.45046],[-75.65491,5.45047],[-75.65491,5.45047],[-75.65488,5.4507],[-75.65488,5.4507],[-75.65488,5.45071],[-75.65481,5.45091],[-75.6548,5.45091],[-75.65469,5.45112],[-75.65469,5.45112],[-75.65468,5.45113],[-75.65468,5.45113],[-75.65467,5.45114],[-75.65467,5.45114],[-75.6545,5.45122],[-75.65437,5.45135],[-75.6543,5.45148],[-75.65425,5.45167],[-75.65425,5.45167],[-75.65418,5.45186],[-75.65418,5.45186],[-75.65412,5.452],[-75.65411,5.45201],[-75.65403,5.45223],[-75.65406,5.45228],[-75.65406,5.45229],[-75.65406,5.4523],[-75.65406,5.4523],[-75.65406,5.45231],[-75.65406,5.45231],[-75.65403,5.45247],[-75.65403,5.45248],[-75.65403,5.45248],[-75.65393,5.45272],[-75.65393,5.45272],[-75.65392,5.45273],[-75.65383,5.45284],[-75.6538,5.45298],[-75.65386,5.45315],[-75.65386,5.45316],[-75.65386,5.45316],[-75.65386,5.45317],[-75.65386,5.45318],[-75.65378,5.45344],[-75.65378,5.45344],[-75.65377,5.45344],[-75.65366,5.45369],[-75.6536,5.4539],[-75.65362,5.45403],[-75.65362,5.45403],[-75.65362,5.45404],[-75.65362,5.45404],[-75.65358,5.45422],[-75.65356,5.45433],[-75.65356,5.45434],[-75.65356,5.45434],[-75.65346,5.45457],[-75.65347,5.45484],[-75.65351,5.45527],[-75.65356,5.45563],[-75.65367,5.45592],[-75.65371,5.45603],[-75.65378,5.4562],[-75.65395,5.45643],[-75.65414,5.4566],[-75.65429,5.4567],[-75.65429,5.4567],[-75.6543,5.45671],[-75.6543,5.45672],[-75.6543,5.45672],[-75.65431,5.45673],[-75.65433,5.45685],[-75.65433,5.45685],[-75.65433,5.45686],[-75.65433,5.45687],[-75.65433,5.45688],[-75.65428,5.45702],[-75.65427,5.45703],[-75.65421,5.45714],[-75.65414,5.45731],[-75.65418,5.45745],[-75.65422,5.45759],[-75.65422,5.4576],[-75.65422,5.4576],[-75.65422,5.45777],[-75.65422,5.45778],[-75.65418,5.45797],[-75.65414,5.45821],[-75.65416,5.45849],[-75.6542,5.45861],[-75.65425,5.45865],[-75.65439,5.45866],[-75.65463,5.45859],[-75.65491,5.45849],[-75.65513,5.45839],[-75.65531,5.45829],[-75.65551,5.45817],[-75.65564,5.45807],[-75.65565,5.45807],[-75.65586,5.45795],[-75.65608,5.45783],[-75.65608,5.45783],[-75.65625,5.45776],[-75.65625,5.45775],[-75.65625,5.45775],[-75.65645,5.45769],[-75.65659,5.45761],[-75.6568,5.4575],[-75.65693,5.45734],[-75.65693,5.45733],[-75.65693,5.45733],[-75.65716,5.45711],[-75.65731,5.45686],[-75.65731,5.45686],[-75.65731,5.45686],[-75.65743,5.45673],[-75.65743,5.45673],[-75.65744,5.45672],[-75.65745,5.45672],[-75.65745,5.45672],[-75.65746,5.45672],[-75.65746,5.45667],[-75.65746,5.45667],[-75.65746,5.45667],[-75.65745,5.45667],[-75.65745,5.45667],[-75.65744,5.45667],[-75.65743,5.45667],[-75.65743,5.45668],[-75.65743,5.45668],[-75.65742,5.45668],[-75.65742,5.45668],[-75.65741,5.45668],[-75.65741,5.45669],[-75.6574,5.45669],[-75.6574,5.45669],[-75.6574,5.4567],[-75.65739,5.4567],[-75.65728,5.45683],[-75.65728,5.45683],[-75.65728,5.45683],[-75.65727,5.45684],[-75.65727,5.45684],[-75.65712,5.45709],[-75.6569,5.4573],[-75.6569,5.4573],[-75.6569,5.4573],[-75.6569,5.45731],[-75.65689,5.45731],[-75.65677,5.45747],[-75.65657,5.45757],[-75.65643,5.45765],[-75.65624,5.45771],[-75.65624,5.45771],[-75.65624,5.45771],[-75.65623,5.45771],[-75.65623,5.45771],[-75.65606,5.45779],[-75.65606,5.45779],[-75.65606,5.45779],[-75.65606,5.45779],[-75.65584,5.45791],[-75.65563,5.45803],[-75.65562,5.45803],[-75.65562,5.45804],[-75.65562,5.45804],[-75.65548,5.45814],[-75.65529,5.45825],[-75.65511,5.45835],[-75.65489,5.45845],[-75.65461,5.45855],[-75.65439,5.45861],[-75.65427,5.45861],[-75.65424,5.45858],[-75.6542,5.45848],[-75.65419,5.45821],[-75.65423,5.45798],[-75.65426,5.45779],[-75.65426,5.45778],[-75.65426,5.45778],[-75.65426,5.45777],[-75.65426,5.4576],[-75.65426,5.4576],[-75.65426,5.45759],[-75.65426,5.45759],[-75.65426,5.45759],[-75.65426,5.45758],[-75.65426,5.45758],[-75.65422,5.45743],[-75.65419,5.45732],[-75.65426,5.45716],[-75.65431,5.45705],[-75.65432,5.45705],[-75.65432,5.45704],[-75.65432,5.45704],[-75.65437,5.45689],[-75.65437,5.45689],[-75.65438,5.45688],[-75.65438,5.45688],[-75.65438,5.45687],[-75.65438,5.45686],[-75.65438,5.45686],[-75.65438,5.45686],[-75.65438,5.45685],[-75.65438,5.45684],[-75.65438,5.45684],[-75.65438,5.45684],[-75.65438,5.45684],[-75.65435,5.45672],[-75.65435,5.45672],[-75.65435,5.45671],[-75.65435,5.45671],[-75.65435,5.45671],[-75.65434,5.4567],[-75.65434,5.45669],[-75.65434,5.45669],[-75.65433,5.45668],[-75.65433,5.45668],[-75.65433,5.45668],[-75.65432,5.45667],[-75.65432,5.45667],[-75.65432,5.45667],[-75.65432,5.45667],[-75.65431,5.45667],[-75.65416,5.45656],[-75.65399,5.4564],[-75.65382,5.45618],[-75.65375,5.45601],[-75.65371,5.45591],[-75.6536,5.45562],[-75.65356,5.45527],[-75.65352,5.45483],[-75.65351,5.45458],[-75.6536,5.45436],[-75.6536,5.45436],[-75.6536,5.45435],[-75.6536,5.45435],[-75.6536,5.45435],[-75.65361,5.45434],[-75.65361,5.45434],[-75.65363,5.45423],[-75.65367,5.45405],[-75.65367,5.45405],[-75.65367,5.45405],[-75.65367,5.45405],[-75.65367,5.45405],[-75.65367,5.45404],[-75.65367,5.45403],[-75.65367,5.45403],[-75.65367,5.45402],[-75.65367,5.45402],[-75.65364,5.4539],[-75.6537,5.4537],[-75.65382,5.45346],[-75.65382,5.45346],[-75.65382,5.45346],[-75.65382,5.45346],[-75.65382,5.45345],[-75.65382,5.45345],[-75.65382,5.45345],[-75.6539,5.45319],[-75.6539,5.45319],[-75.6539,5.45318],[-75.6539,5.45318],[-75.6539,5.45317],[-75.65391,5.45317],[-75.65391,5.45316],[-75.65391,5.45316],[-75.6539,5.45315],[-75.6539,5.45315],[-75.6539,5.45314],[-75.6539,5.45314],[-75.6539,5.45313],[-75.65385,5.45298],[-75.65387,5.45286],[-75.65396,5.45276],[-75.65396,5.45276],[-75.65397,5.45275],[-75.65397,5.45275],[-75.65397,5.45274],[-75.65397,5.45274],[-75.65397,5.45273],[-75.65407,5.4525],[-75.65407,5.4525],[-75.65407,5.45249],[-75.65407,5.45249],[-75.65407,5.45248],[-75.65411,5.45232],[-75.65411,5.45232],[-75.65411,5.45232],[-75.65411,5.45231],[-75.65411,5.4523],[-75.65411,5.4523],[-75.65411,5.45229],[-75.65411,5.45229],[-75.65411,5.45229],[-75.6541,5.45228],[-75.6541,5.45227],[-75.6541,5.45227],[-75.6541,5.45227],[-75.6541,5.45226],[-75.65408,5.45223],[-75.65416,5.45202],[-75.65416,5.45202],[-75.65422,5.45188],[-75.65422,5.45188],[-75.65422,5.45187],[-75.65422,5.45187],[-75.65429,5.45169],[-75.65429,5.45168],[-75.65429,5.45168],[-75.65429,5.45168],[-75.65434,5.4515],[-75.65441,5.45138],[-75.65453,5.45126],[-75.65469,5.45118],[-75.65469,5.45118],[-75.65469,5.45118],[-75.65469,5.45118],[-75.6547,5.45118],[-75.6547,5.45117],[-75.65471,5.45117],[-75.65471,5.45117],[-75.65472,5.45116],[-75.65472,5.45116],[-75.65472,5.45115],[-75.65473,5.45115],[-75.65473,5.45114],[-75.65473,5.45114],[-75.65484,5.45093],[-75.65484,5.45093],[-75.65485,5.45093],[-75.65485,5.45092],[-75.65492,5.45073],[-75.65492,5.45072],[-75.65493,5.45072],[-75.65493,5.45071],[-75.65493,5.45071],[-75.65493,5.45071],[-75.65493,5.45071],[-75.65496,5.45048],[-75.65496,5.45048],[-75.65496,5.45047],[-75.65496,5.45047],[-75.65496,5.45047],[-75.65496,5.45046],[-75.65496,5.45046],[-75.65494,5.45031],[-75.65493,5.45031],[-75.65493,5.4503],[-75.65493,5.4503],[-75.65493,5.45029],[-75.65489,5.45017],[-75.65489,5.45017],[-75.65489,5.45016],[-75.65489,5.45016],[-75.65489,5.45016],[-75.65489,5.45016],[-75.65489,5.45015],[-75.65482,5.45002],[-75.65482,5.45002],[-75.65482,5.45002],[-75.65482,5.45001],[-75.65482,5.45001],[-75.65481,5.45],[-75.65481,5.45],[-75.65481,5.45],[-75.6548,5.44999],[-75.6548,5.44999],[-75.65479,5.44999],[-75.65479,5.44998],[-75.65478,5.44998],[-75.65478,5.44998],[-75.65477,5.44998],[-75.65477,5.44997],[-75.65477,5.44997],[-75.65477,5.44997],[-75.65476,5.44997],[-75.65464,5.44994],[-75.65453,5.44991],[-75.65438,5.44982],[-75.65438,5.44982],[-75.65438,5.44982],[-75.65438,5.44981],[-75.65415,5.44971],[-75.65398,5.44957],[-75.65392,5.44953],[-75.65384,5.4494],[-75.65384,5.4494],[-75.65372,5.44925],[-75.65371,5.44909],[-75.65374,5.44893],[-75.65387,5.44868],[-75.65387,5.44867],[-75.65388,5.44867],[-75.65388,5.44867],[-75.65388,5.44866],[-75.65388,5.44865],[-75.65388,5.44865],[-75.65388,5.44865],[-75.65392,5.44842],[-75.65392,5.44842],[-75.65392,5.44841],[-75.65392,5.44841],[-75.65392,5.44825],[-75.65392,5.44819],[-75.65392,5.44819],[-75.65392,5.44818],[-75.65392,5.44818],[-75.65392,5.44818],[-75.65391,5.44817],[-75.65391,5.44817],[-75.65391,5.44815],[-75.65388,5.44803],[-75.65388,5.44803],[-75.65388,5.44802],[-75.65388,5.44802],[-75.65388,5.44802],[-75.65387,5.44801],[-75.65387,5.44801],[-75.65387,5.44801],[-75.65387,5.448],[-75.65387,5.448],[-75.65381,5.44792],[-75.65377,5.44785],[-75.65373,5.44775],[-75.65373,5.44775],[-75.65372,5.44774],[-75.65372,5.44774],[-75.65372,5.44774],[-75.65372,5.44773],[-75.65371,5.44773],[-75.65371,5.44773],[-75.65363,5.44763],[-75.65358,5.44757],[-75.65355,5.44751],[-75.65353,5.4474],[-75.65351,5.44727],[-75.65351,5.44727],[-75.65351,5.44726],[-75.65351,5.44726],[-75.65348,5.44708],[-75.65348,5.44708],[-75.65348,5.44708],[-75.65347,5.44707],[-75.65337,5.44676],[-75.65331,5.44644],[-75.65331,5.44644],[-75.65331,5.44643],[-75.6533,5.44643],[-75.65327,5.44632],[-75.65329,5.44617],[-75.6533,5.44596],[-75.6533,5.44596],[-75.65331,5.44595],[-75.65331,5.44595],[-75.65331,5.44579],[-75.65335,5.44558],[-75.65343,5.44539],[-75.65352,5.4452],[-75.65359,5.44509],[-75.65359,5.44509],[-75.6536,5.44509],[-75.6536,5.44508],[-75.65364,5.44501],[-75.65364,5.445],[-75.65364,5.445],[-75.65365,5.44499],[-75.65365,5.44499],[-75.65365,5.44498],[-75.65365,5.44498],[-75.65365,5.44498],[-75.65365,5.44497],[-75.65365,5.44497],[-75.65366,5.44488],[-75.65366,5.44488],[-75.65366,5.44487],[-75.65366,5.44487],[-75.65366,5.44487],[-75.65366,5.44486],[-75.65366,5.44486],[-75.65366,5.44485],[-75.65366,5.44485],[-75.65366,5.44484],[-75.65365,5.44484],[-75.65365,5.44483],[-75.65365,5.44483],[-75.65361,5.44475],[-75.65361,5.44475],[-75.6536,5.44474],[-75.6536,5.44474],[-75.6536,5.44473],[-75.65359,5.44473],[-75.65359,5.44472],[-75.65358,5.44472],[-75.65358,5.44472],[-75.65358,5.44471],[-75.65357,5.44471],[-75.65357,5.44471],[-75.65356,5.44471],[-75.65356,5.44471],[-75.65336,5.44462],[-75.65312,5.44451],[-75.65295,5.44439],[-75.6528,5.4442],[-75.6528,5.4442],[-75.6528,5.4442],[-75.65279,5.44419],[-75.65279,5.44419],[-75.65254,5.44397],[-75.65254,5.44397],[-75.65254,5.44397],[-75.65254,5.44396],[-75.65254,5.44396],[-75.65234,5.44382],[-75.65222,5.44368],[-75.65208,5.44344],[-75.65197,5.44307],[-75.65193,5.44269],[-75.65195,5.44242],[-75.65208,5.44213],[-75.65208,5.44213],[-75.65208,5.44212],[-75.65208,5.44212],[-75.65215,5.44194],[-75.65215,5.44194],[-75.65216,5.44193],[-75.65216,5.44192],[-75.65216,5.44192],[-75.65216,5.44191],[-75.65216,5.44191],[-75.65216,5.44191],[-75.65216,5.4419],[-75.65216,5.44189],[-75.65216,5.44189],[-75.65215,5.44188],[-75.65215,5.44188],[-75.65212,5.44178],[-75.65212,5.44178],[-75.65211,5.44177],[-75.65211,5.44177],[-75.65211,5.44177],[-75.65197,5.44154],[-75.65185,5.44133],[-75.65181,5.44117],[-75.65181,5.44117],[-75.65181,5.44117],[-75.65181,5.44116],[-75.6517,5.44081],[-75.6517,5.44063],[-75.6517,5.44062],[-75.6517,5.44062],[-75.6517,5.44061],[-75.65167,5.44046],[-75.65167,5.44034],[-75.6517,5.44019],[-75.65176,5.44004],[-75.65176,5.44004],[-75.65176,5.44003],[-75.65176,5.44003],[-75.65176,5.44003],[-75.65177,5.44002],[-75.65177,5.44002],[-75.65177,5.44001],[-75.65177,5.44001],[-75.65177,5.44],[-75.65177,5.44],[-75.65177,5.44],[-75.65177,5.44],[-75.65176,5.43986],[-75.65175,5.43966],[-75.65175,5.43966],[-75.65172,5.43942],[-75.65173,5.43936],[-75.65175,5.43922],[-75.65175,5.43922],[-75.65175,5.43921],[-75.65175,5.43921],[-75.65175,5.43921],[-75.65175,5.43921],[-75.65175,5.43921],[-75.65174,5.43895],[-75.65176,5.43881],[-75.65187,5.43861],[-75.65187,5.43861],[-75.65188,5.4386],[-75.65188,5.4386],[-75.65195,5.4384],[-75.65195,5.4384],[-75.65195,5.43839],[-75.65195,5.43839],[-75.65195,5.43839],[-75.65195,5.43838],[-75.65195,5.43838],[-75.65197,5.43815],[-75.65199,5.43789],[-75.65206,5.43769],[-75.65206,5.43769],[-75.65206,5.43768],[-75.65206,5.43768],[-75.65206,5.43767],[-75.65206,5.43767],[-75.65206,5.43766],[-75.65206,5.43766],[-75.65206,5.43765],[-75.65206,5.43765],[-75.65204,5.43752],[-75.65206,5.43741],[-75.65206,5.43741],[-75.65211,5.43712],[-75.65211,5.43712],[-75.65211,5.43712],[-75.65211,5.43712],[-75.65214,5.43692],[-75.65214,5.43691],[-75.65214,5.43691],[-75.65214,5.4369],[-75.65214,5.43671],[-75.65222,5.43649],[-75.65233,5.43625],[-75.6525,5.43607],[-75.6525,5.43607],[-75.6525,5.43607],[-75.6525,5.43607],[-75.6525,5.43607],[-75.65251,5.43606],[-75.65251,5.43606],[-75.65251,5.43606],[-75.65251,5.43605],[-75.65251,5.43605],[-75.65264,5.43579],[-75.65265,5.43578],[-75.65265,5.43578],[-75.65265,5.43578],[-75.65265,5.43577],[-75.65265,5.43576],[-75.65265,5.43576],[-75.65265,5.43576],[-75.65265,5.43576],[-75.65265,5.43576],[-75.65268,5.43552],[-75.65268,5.43552],[-75.65268,5.43551],[-75.65268,5.43551],[-75.65268,5.43551],[-75.65268,5.43551],[-75.65268,5.43551],[-75.65267,5.43528],[-75.65268,5.43512],[-75.65268,5.43512],[-75.65268,5.43512],[-75.65268,5.43511],[-75.65268,5.43511],[-75.65268,5.43511],[-75.65268,5.43511],[-75.65268,5.43498],[-75.65268,5.43498],[-75.65268,5.43497],[-75.65267,5.43497],[-75.65267,5.43497],[-75.65267,5.43496],[-75.65267,5.43496],[-75.65267,5.43495],[-75.65267,5.43495],[-75.65266,5.43494],[-75.65266,5.43494],[-75.65266,5.43493],[-75.65266,5.43493],[-75.65265,5.43493],[-75.65265,5.43492],[-75.65264,5.43492],[-75.65264,5.43492],[-75.65257,5.43486],[-75.65254,5.43472],[-75.65254,5.43471],[-75.65254,5.4347],[-75.65254,5.4347],[-75.65254,5.4347],[-75.65254,5.4347],[-75.65253,5.43469],[-75.65244,5.43449],[-75.65244,5.43448],[-75.65244,5.43448],[-75.65244,5.43448],[-75.65244,5.43448],[-75.65243,5.43447],[-75.65243,5.43447],[-75.65233,5.43433],[-75.65223,5.43418],[-75.65223,5.43418],[-75.65222,5.43418],[-75.65222,5.43418],[-75.65222,5.43417],[-75.65221,5.43417],[-75.65221,5.43417],[-75.65201,5.43399],[-75.6519,5.4338],[-75.65192,5.43369],[-75.65192,5.43368],[-75.65192,5.43368],[-75.65192,5.43367],[-75.65188,5.43367]]]},"properties":{"OBJECTID_1":7,"OBJECTID":29,"SITIO":"Supía","CUENCA":"Río Supía","CORRIENTE":"Río Supía","AMENAZA":"BAJA","SHAPE_Leng":7076.88536934,"Shape_Length":7076.8883364472495,"Shape_Area":17668.190767912278}},{"type":"Feature","id":8,"geometry":{"type":"Polygon","coordinates":[[[-75.65342,5.4595],[-75.65348,5.4593],[-75.65357,5.45922],[-75.65372,5.45915],[-75.65387,5.45916],[-75.65391,5.45918],[-75.65392,5.45919],[-75.6539,5.45924],[-75.6539,5.45925],[-75.65389,5.45925],[-75.65389,5.45926],[-75.65389,5.45926],[-75.65389,5.45927],[-75.65389,5.45927],[-75.65389,5.45928],[-75.65389,5.45929],[-75.65389,5.45929],[-75.65389,5.45929],[-75.65389,5.45929],[-75.65389,5.4593],[-75.65393,5.45944],[-75.65393,5.45944],[-75.65393,5.45944],[-75.65393,5.45945],[-75.65393,5.45945],[-75.65393,5.45946],[-75.65394,5.45946],[-75.65394,5.45946],[-75.65394,5.45947],[-75.65395,5.45947],[-75.65395,5.45948],[-75.65395,5.45948],[-75.65396,5.45948],[-75.65396,5.45949],[-75.65396,5.45949],[-75.65396,5.45949],[-75.65402,5.45953],[-75.65403,5.45953],[-75.65403,5.45953],[-75.65403,5.45953],[-75.65403,5.45954],[-75.65404,5.45954],[-75.65404,5.45954],[-75.65405,5.45954],[-75.65405,5.45954],[-75.65406,5.45954],[-75.65406,5.45955],[-75.65407,5.45955],[-75.65407,5.45955],[-75.65415,5.45955],[-75.65415,5.45955],[-75.65416,5.45955],[-75.65416,5.45955],[-75.65417,5.45954],[-75.65418,5.45954],[-75.65418,5.45954],[-75.65418,5.45954],[-75.65419,5.45954],[-75.65419,5.45953],[-75.6542,5.45953],[-75.6542,5.45953],[-75.65421,5.45953],[-75.65421,5.45952],[-75.65421,5.45952],[-75.65421,5.45952],[-75.65428,5.45944],[-75.65428,5.45944],[-75.65429,5.45944],[-75.65429,5.45943],[-75.65429,5.45943],[-75.6543,5.45942],[-75.6543,5.45942],[-75.6543,5.45941],[-75.6543,5.45941],[-75.65434,5.4593],[-75.65441,5.45919],[-75.65447,5.45916],[-75.65449,5.45916],[-75.65469,5.45931],[-75.65469,5.45932],[-75.6547,5.45932],[-75.6547,5.45932],[-75.6547,5.45932],[-75.65504,5.4595],[-75.65504,5.45951],[-75.65504,5.45951],[-75.65504,5.45951],[-75.65505,5.45951],[-75.65505,5.45951],[-75.65506,5.45951],[-75.65506,5.45951],[-75.65506,5.45951],[-75.6553,5.45955],[-75.6553,5.45956],[-75.65531,5.45956],[-75.65531,5.45956],[-75.65532,5.45956],[-75.65532,5.45956],[-75.65533,5.45955],[-75.65533,5.45955],[-75.65533,5.45955],[-75.65533,5.45955],[-75.6555,5.45951],[-75.65569,5.45949],[-75.65594,5.45952],[-75.65621,5.45956],[-75.65621,5.45956],[-75.65622,5.45956],[-75.65622,5.45956],[-75.65623,5.45956],[-75.65624,5.45956],[-75.65624,5.45956],[-75.65647,5.45952],[-75.65647,5.45952],[-75.65648,5.45951],[-75.65648,5.45951],[-75.65648,5.45951],[-75.65649,5.45951],[-75.65649,5.45951],[-75.65676,5.45939],[-75.65676,5.45939],[-75.65676,5.45939],[-75.65676,5.45939],[-75.65677,5.45938],[-75.65677,5.45938],[-75.65678,5.45938],[-75.65678,5.45938],[-75.65678,5.45937],[-75.65678,5.45937],[-75.65695,5.4592],[-75.65695,5.4592],[-75.65695,5.4592],[-75.65695,5.4592],[-75.65695,5.4592],[-75.65695,5.45919],[-75.65696,5.45919],[-75.6571,5.45897],[-75.6571,5.45897],[-75.6571,5.45897],[-75.6571,5.45896],[-75.6571,5.45896],[-75.6571,5.45895],[-75.65711,5.45895],[-75.65721,5.45868],[-75.65721,5.45868],[-75.65721,5.45868],[-75.65721,5.45868],[-75.65731,5.45833],[-75.65744,5.45815],[-75.65744,5.45806],[-75.65727,5.45831],[-75.65717,5.45866],[-75.65716,5.45867],[-75.65706,5.45894],[-75.65706,5.45894],[-75.65706,5.45894],[-75.65692,5.45916],[-75.65691,5.45917],[-75.65691,5.45917],[-75.65675,5.45934],[-75.65675,5.45934],[-75.65674,5.45935],[-75.65674,5.45935],[-75.65647,5.45947],[-75.65647,5.45947],[-75.65646,5.45947],[-75.65623,5.45951],[-75.65622,5.45951],[-75.65622,5.45951],[-75.65595,5.45948],[-75.65569,5.45944],[-75.6555,5.45947],[-75.65532,5.45951],[-75.65532,5.45951],[-75.65531,5.45951],[-75.65531,5.45951],[-75.65507,5.45947],[-75.65506,5.45947],[-75.65506,5.45946],[-75.65472,5.45928],[-75.65472,5.45928],[-75.65472,5.45928],[-75.65451,5.45912],[-75.65445,5.45911],[-75.65438,5.45916],[-75.6543,5.45928],[-75.65426,5.4594],[-75.65426,5.4594],[-75.65425,5.45941],[-75.65425,5.45941],[-75.65425,5.45941],[-75.65418,5.45949],[-75.65418,5.45949],[-75.65417,5.4595],[-75.65416,5.4595],[-75.65416,5.4595],[-75.65415,5.4595],[-75.65407,5.4595],[-75.65407,5.4595],[-75.65406,5.4595],[-75.65405,5.4595],[-75.65405,5.45949],[-75.65399,5.45945],[-75.65399,5.45945],[-75.65398,5.45944],[-75.65398,5.45944],[-75.65397,5.45943],[-75.65397,5.45943],[-75.65394,5.45928],[-75.65394,5.45928],[-75.65394,5.45927],[-75.65394,5.45927],[-75.65394,5.45926],[-75.65397,5.45919],[-75.65394,5.45915],[-75.65388,5.45912],[-75.65372,5.4591],[-75.65355,5.45918],[-75.65344,5.45928],[-75.65338,5.4595],[-75.65342,5.4595]]]},"properties":{"OBJECTID_1":8,"OBJECTID":30,"SITIO":"Supía","CUENCA":"Río Supía","CORRIENTE":"Río Supía","AMENAZA":"BAJA","SHAPE_Leng":1271.94833363,"Shape_Length":1271.948544525549,"Shape_Area":3144.055269654999}}]}