{"type":"FeatureCollection","name":"AREAS_SINAP","crs":{"type":"name","properties":{"name":"urn:ogc:def:crs:OGC:1.3:CRS84"}},"features":[{"type":"Feature","id":0,"geometry":{"type":"Polygon","coordinates":[[[-75.43076,5.37899],[-75.43076,5.37911],[-75.43091,5.37915],[-75.43116,5.37923],[-75.43141,5.37937],[-75.43162,5.37954],[-75.43159,5.37944],[-75.43153,5.37913],[-75.43136,5.37866],[-75.43123,5.37827],[-75.43113,5.37794],[-75.43106,5.37762],[-75.43102,5.37729],[-75.43097,5.3769],[-75.43091,5.37659],[-75.43085,5.3762],[-75.43075,5.376],[-75.43075,5.37498],[-75.43104,5.37475],[-75.43146,5.37448],[-75.43175,5.37436],[-75.43215,5.3743],[-75.4326,5.37433],[-75.43322,5.37449],[-75.43372,5.37467],[-75.43378,5.37449],[-75.43392,5.37412],[-75.43409,5.37376],[-75.43395,5.37373],[-75.43375,5.37373],[-75.43357,5.37368],[-75.43342,5.37352],[-75.43329,5.37333],[-75.43321,5.37011],[-75.43352,5.36999],[-75.43408,5.36996],[-75.43448,5.36993],[-75.43499,5.36987],[-75.43562,5.3698],[-75.43634,5.36974],[-75.43648,5.36981],[-75.43697,5.36986],[-75.43721,5.36998],[-75.43786,5.3701],[-75.43821,5.37011],[-75.43839,5.37008],[-75.43858,5.37002],[-75.43874,5.37004],[-75.43903,5.37014],[-75.43945,5.37035],[-75.43984,5.37062],[-75.44015,5.37063],[-75.44042,5.37066],[-75.44068,5.37072],[-75.44091,5.37085],[-75.44099,5.37092],[-75.44115,5.37114],[-75.4413,5.37135],[-75.44151,5.37163],[-75.44183,5.37196],[-75.44197,5.37214],[-75.44206,5.37208],[-75.44208,5.37197],[-75.44216,5.37152],[-75.44224,5.37121],[-75.44232,5.37102],[-75.44242,5.37081],[-75.44249,5.37064],[-75.44251,5.37046],[-75.4426,5.37019],[-75.44289,5.36953],[-75.44325,5.36881],[-75.44351,5.36845],[-75.44368,5.36856],[-75.4439,5.3688],[-75.4441,5.36894],[-75.44427,5.369],[-75.44475,5.36903],[-75.44515,5.36904],[-75.44571,5.36915],[-75.44597,5.36919],[-75.44622,5.36906],[-75.44649,5.36887],[-75.44672,5.36875],[-75.44675,5.36866],[-75.44689,5.36836],[-75.44714,5.36815],[-75.4473,5.36809],[-75.44746,5.36802],[-75.44776,5.36777],[-75.44804,5.36753],[-75.44823,5.36733],[-75.44845,5.36697],[-75.44864,5.36682],[-75.44881,5.36674],[-75.44908,5.36665],[-75.44962,5.36641],[-75.45005,5.36621],[-75.4506,5.36601],[-75.45095,5.36601],[-75.4514,5.36598],[-75.45186,5.36587],[-75.45235,5.36582],[-75.45235,5.36573],[-75.4524,5.36561],[-75.45245,5.36553],[-75.45249,5.36543],[-75.45245,5.36532],[-75.45235,5.36527],[-75.45224,5.36522],[-75.45225,5.36512],[-75.45232,5.36504],[-75.4523,5.36497],[-75.45221,5.36491],[-75.45201,5.36486],[-75.45197,5.36482],[-75.45191,5.36476],[-75.45182,5.36457],[-75.45175,5.36428],[-75.45173,5.36398],[-75.45174,5.36338],[-75.45174,5.36298],[-75.45175,5.3628],[-75.45177,5.36252],[-75.4518,5.36228],[-75.45178,5.36202],[-75.45175,5.36185],[-75.45159,5.36186],[-75.45135,5.36191],[-75.451,5.362],[-75.45074,5.36207],[-75.45046,5.36219],[-75.4503,5.36222],[-75.45025,5.36233],[-75.45013,5.36254],[-75.45012,5.36254],[-75.45012,5.36224],[-75.44998,5.36144],[-75.4497,5.36048],[-75.44958,5.35986],[-75.44942,5.3594],[-75.44922,5.35906],[-75.44882,5.35866],[-75.44838,5.35854],[-75.44782,5.35866],[-75.4473,5.35896],[-75.4471,5.35936],[-75.44682,5.3593],[-75.44682,5.35902],[-75.44682,5.35866],[-75.44692,5.35836],[-75.4471,5.35816],[-75.44732,5.3579],[-75.4475,5.35764],[-75.44776,5.3574],[-75.44786,5.35728],[-75.448,5.357],[-75.44796,5.3567],[-75.44778,5.35648],[-75.4476,5.3562],[-75.4473,5.356],[-75.44692,5.35592],[-75.4467,5.35584],[-75.44638,5.3558],[-75.44616,5.3557],[-75.44598,5.35562],[-75.44568,5.35551],[-75.44544,5.35537],[-75.44476,5.35509],[-75.4445,5.35507],[-75.44424,5.35501],[-75.44412,5.35487],[-75.4441,5.35473],[-75.44407,5.35444],[-75.44397,5.35446],[-75.44367,5.35452],[-75.44333,5.35459],[-75.44283,5.35464],[-75.44258,5.35465],[-75.44234,5.35465],[-75.44214,5.35458],[-75.44195,5.35454],[-75.44166,5.35455],[-75.44127,5.35455],[-75.44071,5.3546],[-75.44034,5.35468],[-75.44016,5.35468],[-75.43999,5.35463],[-75.43984,5.35457],[-75.43955,5.35442],[-75.4392,5.35425],[-75.43885,5.3541],[-75.43855,5.35402],[-75.4383,5.354],[-75.43799,5.35402],[-75.4377,5.35414],[-75.43751,5.35423],[-75.43722,5.35433],[-75.43691,5.35434],[-75.43628,5.35434],[-75.43548,5.35433],[-75.43491,5.35427],[-75.43442,5.35419],[-75.43394,5.35417],[-75.43347,5.35417],[-75.43342,5.35327],[-75.43347,5.35249],[-75.43338,5.35247],[-75.43319,5.35239],[-75.43297,5.35226],[-75.43266,5.3521],[-75.43237,5.35205],[-75.432,5.35204],[-75.43168,5.35213],[-75.43131,5.35234],[-75.43108,5.3526],[-75.43101,5.35268],[-75.4307,5.35297],[-75.4307,5.35323],[-75.43035,5.35355],[-75.43001,5.35394],[-75.42975,5.35431],[-75.42917,5.35418],[-75.42877,5.35414],[-75.42823,5.35401],[-75.42774,5.35378],[-75.42729,5.35349],[-75.42707,5.35329],[-75.42707,5.35289],[-75.42714,5.3526],[-75.42713,5.35237],[-75.42689,5.35205],[-75.42651,5.3515],[-75.42605,5.35064],[-75.42553,5.34945],[-75.42546,5.34912],[-75.42535,5.34885],[-75.42522,5.34858],[-75.42508,5.34841],[-75.42501,5.34814],[-75.42491,5.34769],[-75.42478,5.34712],[-75.42465,5.34676],[-75.42441,5.34632],[-75.42421,5.34602],[-75.42392,5.34573],[-75.42356,5.34551],[-75.42316,5.34535],[-75.4228,5.34576],[-75.42236,5.34617],[-75.42205,5.34655],[-75.42177,5.34703],[-75.42147,5.34751],[-75.4214,5.3478],[-75.42127,5.34816],[-75.42122,5.3485],[-75.42103,5.34886],[-75.42064,5.34955],[-75.42062,5.34961],[-75.42048,5.34998],[-75.42025,5.35048],[-75.42004,5.351],[-75.41988,5.35145],[-75.4198,5.35185],[-75.41985,5.35264],[-75.41985,5.35331],[-75.41984,5.35388],[-75.41974,5.35412],[-75.41974,5.35416],[-75.41974,5.35443],[-75.41972,5.35498],[-75.42001,5.35556],[-75.42025,5.35616],[-75.42046,5.35666],[-75.42063,5.35704],[-75.42076,5.35737],[-75.42085,5.3577],[-75.42083,5.3581],[-75.42091,5.35829],[-75.42081,5.3585],[-75.42078,5.35888],[-75.42074,5.3594],[-75.42071,5.36011],[-75.42076,5.36066],[-75.42083,5.36131],[-75.4209,5.36195],[-75.4209,5.36249],[-75.4209,5.36309],[-75.42085,5.36354],[-75.42071,5.36381],[-75.42041,5.36424],[-75.41983,5.36492],[-75.41953,5.36535],[-75.41917,5.36609],[-75.41903,5.3667],[-75.419,5.36715],[-75.41898,5.36748],[-75.41889,5.36777],[-75.4185,5.36822],[-75.41762,5.369],[-75.41739,5.36924],[-75.41716,5.36963],[-75.41707,5.36996],[-75.41704,5.37022],[-75.41723,5.37062],[-75.41748,5.37104],[-75.41749,5.37123],[-75.41737,5.37153],[-75.41721,5.37183],[-75.4172,5.37216],[-75.41741,5.37239],[-75.41768,5.37267],[-75.4178,5.37293],[-75.41787,5.3733],[-75.41787,5.37373],[-75.41782,5.37437],[-75.41777,5.37607],[-75.41773,5.37651],[-75.41778,5.37697],[-75.41781,5.37769],[-75.418,5.37812],[-75.41807,5.37794],[-75.41829,5.37746],[-75.41851,5.37715],[-75.4188,5.37687],[-75.41904,5.37659],[-75.41922,5.37623],[-75.4194,5.3758],[-75.41959,5.37534],[-75.41975,5.37508],[-75.41999,5.3747],[-75.42029,5.37438],[-75.42065,5.3741],[-75.42099,5.37386],[-75.42135,5.3737],[-75.42163,5.37352],[-75.4219,5.37333],[-75.42219,5.37305],[-75.42236,5.37277],[-75.42279,5.37211],[-75.42284,5.37202],[-75.42321,5.37237],[-75.42357,5.37279],[-75.42381,5.37323],[-75.42394,5.37359],[-75.42401,5.37394],[-75.42405,5.37446],[-75.42407,5.375],[-75.42406,5.37548],[-75.4242,5.37564],[-75.42446,5.37579],[-75.42489,5.37596],[-75.42528,5.37617],[-75.42551,5.37634],[-75.42574,5.37652],[-75.42597,5.37673],[-75.42646,5.37678],[-75.427,5.3769],[-75.42745,5.37709],[-75.42793,5.37727],[-75.42827,5.37746],[-75.4285,5.37773],[-75.42874,5.37799],[-75.42897,5.37817],[-75.42931,5.37844],[-75.42961,5.37871],[-75.42993,5.37887],[-75.4302,5.37894],[-75.43051,5.37892],[-75.43076,5.37899]]]},"properties":{"FID":0,"OBJECTID":1,"NOMBRE":"Distrito de Conservación de Suelos El Gigante","COMPOSICIO":" ","AREA_PBOT":0,"SECTOR":"RURAL","FUENTE":"CORPOCALDAS - ANP 2019","TIPO":"AREAS SINAP","SHAPE_Leng":15920.4924285,"SHAPE_Area":7291037.9733}}]}