{"type":"FeatureCollection","name":"BOSQUE_SECO_TROPICAL","crs":{"type":"name","properties":{"name":"urn:ogc:def:crs:OGC:1.3:CRS84"}},"features":[{"type":"Feature","id":0,"geometry":{"type":"MultiPolygon","coordinates":[[[[-75.52883,5.43111],[-75.52884,5.43111],[-75.52886,5.43111],[-75.52887,5.43111],[-75.52888,5.43112],[-75.52889,5.43112],[-75.5289,5.43112],[-75.52891,5.43113],[-75.52892,5.43114],[-75.52893,5.43115],[-75.52893,5.43116],[-75.52894,5.43117],[-75.52895,5.43118],[-75.52896,5.43121],[-75.52899,5.43127],[-75.52901,5.43131],[-75.52902,5.43134],[-75.52903,5.43135],[-75.52903,5.43136],[-75.52897,5.43097],[-75.52893,5.43064],[-75.52892,5.4303],[-75.529,5.42979],[-75.52903,5.42969],[-75.52918,5.42942],[-75.52935,5.42899],[-75.52939,5.42859],[-75.52937,5.42823],[-75.52953,5.42731],[-75.52951,5.42652],[-75.52945,5.42565],[-75.52963,5.42493],[-75.52978,5.42388],[-75.52998,5.42293],[-75.52964,5.42288],[-75.52941,5.42279],[-75.52941,5.42286],[-75.52941,5.4229],[-75.52941,5.42293],[-75.52941,5.42294],[-75.52941,5.42295],[-75.52941,5.42297],[-75.52941,5.42298],[-75.5294,5.42301],[-75.5294,5.42305],[-75.52937,5.42319],[-75.52936,5.42323],[-75.52935,5.42326],[-75.52935,5.42327],[-75.52935,5.42328],[-75.52934,5.42329],[-75.52934,5.42331],[-75.52933,5.42332],[-75.52932,5.42334],[-75.5293,5.42339],[-75.52926,5.42346],[-75.52925,5.42349],[-75.52924,5.42351],[-75.52923,5.42352],[-75.52922,5.42353],[-75.52922,5.42354],[-75.52921,5.42355],[-75.5292,5.42356],[-75.52919,5.42357],[-75.52918,5.42358],[-75.52915,5.42361],[-75.52908,5.42369],[-75.52906,5.42371],[-75.52905,5.42372],[-75.52904,5.42373],[-75.52903,5.42374],[-75.52903,5.42375],[-75.52902,5.42376],[-75.52901,5.42377],[-75.529,5.42378],[-75.529,5.42379],[-75.52899,5.42382],[-75.52897,5.42384],[-75.52889,5.42401],[-75.5288,5.42419],[-75.52878,5.42422],[-75.52877,5.42425],[-75.52877,5.42426],[-75.52876,5.42427],[-75.52876,5.42428],[-75.52876,5.4243],[-75.52875,5.42432],[-75.52875,5.42435],[-75.52874,5.42438],[-75.52872,5.4245],[-75.52871,5.42452],[-75.52871,5.42453],[-75.52871,5.42455],[-75.5287,5.42456],[-75.5287,5.42457],[-75.52869,5.42458],[-75.52869,5.4246],[-75.52868,5.42461],[-75.52868,5.42462],[-75.52867,5.42463],[-75.52866,5.42464],[-75.52865,5.42465],[-75.52863,5.42467],[-75.52857,5.42473],[-75.52855,5.42475],[-75.52854,5.42476],[-75.52853,5.42477],[-75.52852,5.42478],[-75.52851,5.42479],[-75.5285,5.4248],[-75.5285,5.42481],[-75.52849,5.42482],[-75.52848,5.42483],[-75.52848,5.42485],[-75.52846,5.42487],[-75.5284,5.42499],[-75.52835,5.4251],[-75.52834,5.42512],[-75.52833,5.42513],[-75.52833,5.42515],[-75.52832,5.42516],[-75.52832,5.42517],[-75.52832,5.42518],[-75.52832,5.42519],[-75.52832,5.4252],[-75.52833,5.42521],[-75.52833,5.42522],[-75.52834,5.42523],[-75.52835,5.42524],[-75.52836,5.42525],[-75.52837,5.42526],[-75.52839,5.42528],[-75.52844,5.42533],[-75.52846,5.42535],[-75.52847,5.42536],[-75.52848,5.42537],[-75.52849,5.42538],[-75.5285,5.42539],[-75.5285,5.4254],[-75.52851,5.42541],[-75.52852,5.42543],[-75.52852,5.42544],[-75.52854,5.42547],[-75.52864,5.42566],[-75.52872,5.42583],[-75.52874,5.42586],[-75.52874,5.42587],[-75.52875,5.42588],[-75.52875,5.42589],[-75.52876,5.4259],[-75.52876,5.42592],[-75.52876,5.42593],[-75.52876,5.42594],[-75.52876,5.42596],[-75.52876,5.42597],[-75.52877,5.42599],[-75.52877,5.42603],[-75.52876,5.42614],[-75.52876,5.42617],[-75.52877,5.42618],[-75.52877,5.42619],[-75.52877,5.4262],[-75.52877,5.42622],[-75.52877,5.42623],[-75.52878,5.42624],[-75.52878,5.42625],[-75.52879,5.42626],[-75.5288,5.42627],[-75.5288,5.42628],[-75.52881,5.42629],[-75.52883,5.42631],[-75.52889,5.42637],[-75.52891,5.42638],[-75.52892,5.42639],[-75.52893,5.4264],[-75.52893,5.42641],[-75.52894,5.42642],[-75.52895,5.42643],[-75.52895,5.42645],[-75.52896,5.42646],[-75.52896,5.42647],[-75.52896,5.42648],[-75.52896,5.42649],[-75.52896,5.42651],[-75.52896,5.42653],[-75.52896,5.42656],[-75.52896,5.42665],[-75.52896,5.42673],[-75.52896,5.42703],[-75.52897,5.42718],[-75.52897,5.42732],[-75.52897,5.42735],[-75.52897,5.42736],[-75.52897,5.42738],[-75.52896,5.42739],[-75.52896,5.4274],[-75.52896,5.42741],[-75.52895,5.42742],[-75.52895,5.42743],[-75.52894,5.42744],[-75.52893,5.42745],[-75.52892,5.42745],[-75.52891,5.42746],[-75.52888,5.42747],[-75.52885,5.42749],[-75.5288,5.42751],[-75.52878,5.42753],[-75.52876,5.42753],[-75.52875,5.42754],[-75.52874,5.42754],[-75.52873,5.42754],[-75.52872,5.42754],[-75.52871,5.42754],[-75.5287,5.42754],[-75.52869,5.42754],[-75.52868,5.42753],[-75.52867,5.42752],[-75.52866,5.42751],[-75.52865,5.42751],[-75.52864,5.4275],[-75.52862,5.42748],[-75.52856,5.42742],[-75.52854,5.4274],[-75.52853,5.42739],[-75.52852,5.42738],[-75.52851,5.42737],[-75.5285,5.42737],[-75.52849,5.42736],[-75.52848,5.42735],[-75.52847,5.42735],[-75.52845,5.42733],[-75.52842,5.42732],[-75.52836,5.42729],[-75.52833,5.42727],[-75.5283,5.42726],[-75.52829,5.42726],[-75.52828,5.42725],[-75.52827,5.42725],[-75.52825,5.42724],[-75.52824,5.42724],[-75.52823,5.42724],[-75.52822,5.42723],[-75.5282,5.42723],[-75.52819,5.42723],[-75.52816,5.42723],[-75.52813,5.42723],[-75.52801,5.42723],[-75.5279,5.42723],[-75.52768,5.42723],[-75.52765,5.42723],[-75.52764,5.42723],[-75.52763,5.42723],[-75.52761,5.42724],[-75.5276,5.42724],[-75.52759,5.42724],[-75.52758,5.42724],[-75.52756,5.42725],[-75.52755,5.42725],[-75.52754,5.42726],[-75.52751,5.42727],[-75.52748,5.42729],[-75.52742,5.42732],[-75.52739,5.42733],[-75.52738,5.42734],[-75.52737,5.42734],[-75.52736,5.42735],[-75.52735,5.42736],[-75.52734,5.42736],[-75.52734,5.42737],[-75.52733,5.42738],[-75.52733,5.42739],[-75.52733,5.42741],[-75.52732,5.42742],[-75.52732,5.42743],[-75.52732,5.42744],[-75.52732,5.42746],[-75.52732,5.42748],[-75.52732,5.42759],[-75.52732,5.42762],[-75.52732,5.42764],[-75.52733,5.42766],[-75.52733,5.42767],[-75.52733,5.42768],[-75.52733,5.42769],[-75.52733,5.42771],[-75.52734,5.42772],[-75.52734,5.42773],[-75.52735,5.42774],[-75.52736,5.42777],[-75.52737,5.42779],[-75.52742,5.42789],[-75.52744,5.42792],[-75.52745,5.42795],[-75.52746,5.42797],[-75.52748,5.42799],[-75.5275,5.42803],[-75.5276,5.4282],[-75.52762,5.42823],[-75.52763,5.42825],[-75.52764,5.42826],[-75.52765,5.42827],[-75.52766,5.42828],[-75.52767,5.42829],[-75.52767,5.4283],[-75.52769,5.42832],[-75.52771,5.42834],[-75.52776,5.42839],[-75.5278,5.42843],[-75.52781,5.42845],[-75.52782,5.42845],[-75.52783,5.42846],[-75.52784,5.42847],[-75.52785,5.42848],[-75.52787,5.42849],[-75.52788,5.42849],[-75.52789,5.4285],[-75.5279,5.42851],[-75.52792,5.42852],[-75.52797,5.42854],[-75.52803,5.42857],[-75.52806,5.42858],[-75.52807,5.42859],[-75.52808,5.4286],[-75.52809,5.4286],[-75.5281,5.4286],[-75.52812,5.42861],[-75.52813,5.42861],[-75.52814,5.42861],[-75.52815,5.42861],[-75.52817,5.42861],[-75.52819,5.42861],[-75.52823,5.42861],[-75.52834,5.42861],[-75.52836,5.42861],[-75.52838,5.42861],[-75.52839,5.42861],[-75.5284,5.42861],[-75.52842,5.42862],[-75.52843,5.42862],[-75.52844,5.42862],[-75.52845,5.42863],[-75.52846,5.42863],[-75.52847,5.42864],[-75.52848,5.42865],[-75.52849,5.42866],[-75.5285,5.42867],[-75.52852,5.42869],[-75.52855,5.42871],[-75.52858,5.42874],[-75.52859,5.42876],[-75.5286,5.42877],[-75.52861,5.42878],[-75.52862,5.42879],[-75.52863,5.4288],[-75.52863,5.42881],[-75.52863,5.42883],[-75.52864,5.42884],[-75.52864,5.42885],[-75.52864,5.42886],[-75.52864,5.42888],[-75.52864,5.42889],[-75.52864,5.42891],[-75.52864,5.42902],[-75.52864,5.42907],[-75.52864,5.4291],[-75.52864,5.42911],[-75.52864,5.42913],[-75.52864,5.42914],[-75.52865,5.42915],[-75.52865,5.42916],[-75.52865,5.42918],[-75.52865,5.4292],[-75.52866,5.42924],[-75.52869,5.42938],[-75.52869,5.4294],[-75.5287,5.42943],[-75.5287,5.42945],[-75.52871,5.42947],[-75.52871,5.42948],[-75.52871,5.42949],[-75.52871,5.42952],[-75.52871,5.42956],[-75.52871,5.42982],[-75.52871,5.43002],[-75.52871,5.43005],[-75.52871,5.43007],[-75.52871,5.43009],[-75.52871,5.4301],[-75.52871,5.43011],[-75.5287,5.43012],[-75.5287,5.43014],[-75.5287,5.43015],[-75.52869,5.43016],[-75.52869,5.43017],[-75.52867,5.4302],[-75.52866,5.43022],[-75.52863,5.43028],[-75.52862,5.43032],[-75.5286,5.43034],[-75.5286,5.43035],[-75.52859,5.43036],[-75.52858,5.43038],[-75.52858,5.43039],[-75.52857,5.4304],[-75.52856,5.43041],[-75.52855,5.43042],[-75.52854,5.43043],[-75.52853,5.43044],[-75.52851,5.43045],[-75.52845,5.43052],[-75.52843,5.43054],[-75.52842,5.43055],[-75.52841,5.43056],[-75.5284,5.43057],[-75.5284,5.43058],[-75.52839,5.43059],[-75.52839,5.4306],[-75.52839,5.43061],[-75.52838,5.43063],[-75.52838,5.43064],[-75.52838,5.43065],[-75.52838,5.43067],[-75.52838,5.43069],[-75.52838,5.43072],[-75.52838,5.43081],[-75.52838,5.43084],[-75.52838,5.43085],[-75.52838,5.43086],[-75.52838,5.43088],[-75.52839,5.43089],[-75.52839,5.4309],[-75.52839,5.43091],[-75.5284,5.43092],[-75.5284,5.43093],[-75.52841,5.43094],[-75.52842,5.43095],[-75.52843,5.43096],[-75.52845,5.43098],[-75.52847,5.431],[-75.5285,5.43104],[-75.52852,5.43106],[-75.52853,5.43107],[-75.52854,5.43107],[-75.52855,5.43108],[-75.52856,5.43109],[-75.52857,5.4311],[-75.52858,5.4311],[-75.5286,5.43111],[-75.52861,5.43111],[-75.52862,5.43111],[-75.52863,5.43111],[-75.52865,5.43111],[-75.52866,5.43111],[-75.52869,5.43111],[-75.52879,5.43111],[-75.52882,5.43111],[-75.52883,5.43111]]],[[[-75.52863,5.43374],[-75.52867,5.43374],[-75.52868,5.43374],[-75.52869,5.43374],[-75.5287,5.43375],[-75.52872,5.43375],[-75.52873,5.43375],[-75.52874,5.43375],[-75.52876,5.43376],[-75.52877,5.43376],[-75.52879,5.43377],[-75.52882,5.43378],[-75.52897,5.43383],[-75.52904,5.43385],[-75.52907,5.43386],[-75.5291,5.43387],[-75.52911,5.43387],[-75.52914,5.43388],[-75.52918,5.43389],[-75.52923,5.4339],[-75.52934,5.43392],[-75.52937,5.43393],[-75.5294,5.43393],[-75.52941,5.43393],[-75.52943,5.43394],[-75.52944,5.43394],[-75.52945,5.43395],[-75.52946,5.43395],[-75.52948,5.43396],[-75.52949,5.43396],[-75.52951,5.43397],[-75.52956,5.434],[-75.52973,5.43408],[-75.52977,5.43411],[-75.5298,5.43412],[-75.52981,5.43412],[-75.52982,5.43413],[-75.52984,5.43413],[-75.52985,5.43413],[-75.52986,5.43414],[-75.52987,5.43414],[-75.52989,5.43414],[-75.52991,5.43415],[-75.52998,5.43416],[-75.53003,5.43417],[-75.52983,5.4338],[-75.52934,5.4326],[-75.52921,5.43217],[-75.52919,5.43214],[-75.52917,5.43208],[-75.52917,5.4321],[-75.52917,5.43214],[-75.52917,5.43226],[-75.52917,5.43228],[-75.52917,5.43231],[-75.52917,5.43232],[-75.52917,5.43233],[-75.52917,5.43235],[-75.52917,5.43236],[-75.52916,5.43237],[-75.52916,5.43238],[-75.52916,5.4324],[-75.52915,5.43241],[-75.52914,5.43243],[-75.52913,5.43246],[-75.52908,5.43254],[-75.52907,5.43256],[-75.52907,5.43258],[-75.52906,5.43259],[-75.52906,5.4326],[-75.52905,5.43261],[-75.52905,5.43263],[-75.52905,5.43264],[-75.52905,5.43265],[-75.52904,5.43266],[-75.52904,5.43268],[-75.52904,5.43269],[-75.52904,5.43273],[-75.52905,5.43285],[-75.52905,5.43287],[-75.52904,5.43289],[-75.52904,5.4329],[-75.52904,5.43291],[-75.52904,5.43293],[-75.52904,5.43294],[-75.52903,5.43295],[-75.52903,5.43296],[-75.52902,5.43297],[-75.52902,5.43298],[-75.52901,5.43299],[-75.529,5.433],[-75.52899,5.43301],[-75.52897,5.43303],[-75.52895,5.43305],[-75.52892,5.43308],[-75.52891,5.4331],[-75.5289,5.4331],[-75.52889,5.43311],[-75.52888,5.43312],[-75.52887,5.43313],[-75.52886,5.43314],[-75.52884,5.43314],[-75.52883,5.43315],[-75.52882,5.43315],[-75.52881,5.43315],[-75.5288,5.43315],[-75.52878,5.43315],[-75.52877,5.43315],[-75.52873,5.43315],[-75.52861,5.43315],[-75.52849,5.43315],[-75.52752,5.43315],[-75.52743,5.43315],[-75.52731,5.43315],[-75.52729,5.43315],[-75.52727,5.43315],[-75.52726,5.43315],[-75.52725,5.43316],[-75.52723,5.43316],[-75.52722,5.43316],[-75.52721,5.43316],[-75.5272,5.43317],[-75.52719,5.43318],[-75.52718,5.43318],[-75.52717,5.43319],[-75.52716,5.4332],[-75.52715,5.43321],[-75.52713,5.43323],[-75.5271,5.43326],[-75.52707,5.43329],[-75.52706,5.4333],[-75.52705,5.43331],[-75.52704,5.43332],[-75.52703,5.43333],[-75.52703,5.43334],[-75.52702,5.43336],[-75.52702,5.43337],[-75.52702,5.43338],[-75.52702,5.43339],[-75.52702,5.4334],[-75.52702,5.43342],[-75.52702,5.43343],[-75.52703,5.43347],[-75.52705,5.43358],[-75.52706,5.4336],[-75.52707,5.43363],[-75.52707,5.43364],[-75.52707,5.43365],[-75.52708,5.43367],[-75.52708,5.43368],[-75.52709,5.43369],[-75.5271,5.4337],[-75.52711,5.43371],[-75.52711,5.43372],[-75.52713,5.43374],[-75.52716,5.43377],[-75.5272,5.4338],[-75.52722,5.43382],[-75.52724,5.43384],[-75.52725,5.43385],[-75.52726,5.43386],[-75.52727,5.43386],[-75.52728,5.43387],[-75.52729,5.43388],[-75.5273,5.43388],[-75.52731,5.43388],[-75.52733,5.43389],[-75.52734,5.43389],[-75.52737,5.4339],[-75.52755,5.43393],[-75.52768,5.43396],[-75.52783,5.43399],[-75.52788,5.434],[-75.5279,5.434],[-75.52792,5.434],[-75.52793,5.43401],[-75.52794,5.43401],[-75.52796,5.43401],[-75.52797,5.43401],[-75.528,5.43401],[-75.52813,5.43401],[-75.52817,5.43401],[-75.52818,5.43401],[-75.52819,5.43401],[-75.52821,5.43401],[-75.52822,5.43401],[-75.52823,5.434],[-75.52824,5.434],[-75.52825,5.43399],[-75.52826,5.43399],[-75.52827,5.43398],[-75.52828,5.43397],[-75.52828,5.43396],[-75.52829,5.43395],[-75.5283,5.43394],[-75.5283,5.43392],[-75.52831,5.4339],[-75.52834,5.43384],[-75.52835,5.43381],[-75.52836,5.4338],[-75.52837,5.43379],[-75.52837,5.43378],[-75.52838,5.43377],[-75.52839,5.43376],[-75.5284,5.43376],[-75.52841,5.43375],[-75.52842,5.43375],[-75.52843,5.43375],[-75.52844,5.43374],[-75.52845,5.43374],[-75.52847,5.43374],[-75.52848,5.43374],[-75.52851,5.43374],[-75.52863,5.43374]]],[[[-75.5305,5.4392],[-75.53049,5.4392],[-75.53048,5.4392],[-75.53044,5.43921],[-75.53021,5.43925],[-75.53019,5.43925],[-75.53016,5.43926],[-75.53014,5.43926],[-75.53012,5.43926],[-75.53011,5.43927],[-75.5301,5.43927],[-75.53009,5.43928],[-75.53007,5.43928],[-75.53006,5.43929],[-75.53004,5.4393],[-75.52995,5.43934],[-75.52993,5.43935],[-75.52992,5.43936],[-75.5299,5.43937],[-75.52989,5.43937],[-75.52988,5.43938],[-75.52987,5.43939],[-75.52987,5.4394],[-75.52986,5.4394],[-75.52986,5.43941],[-75.52985,5.43942],[-75.52986,5.43943],[-75.52986,5.43944],[-75.52986,5.43945],[-75.52987,5.43946],[-75.52988,5.43947],[-75.52989,5.43948],[-75.5299,5.43949],[-75.52991,5.43949],[-75.52992,5.4395],[-75.52994,5.43952],[-75.53002,5.43958],[-75.53008,5.43962],[-75.53034,5.43981],[-75.53039,5.43985],[-75.53041,5.43987],[-75.53042,5.43988],[-75.53044,5.43989],[-75.53048,5.43991],[-75.53076,5.44009],[-75.5309,5.44019],[-75.53094,5.44021],[-75.53096,5.44022],[-75.53097,5.44023],[-75.53098,5.44024],[-75.53099,5.44025],[-75.531,5.44026],[-75.531,5.44027],[-75.53101,5.44028],[-75.53102,5.44029],[-75.53103,5.4403],[-75.53104,5.44032],[-75.53116,5.44049],[-75.53123,5.44059],[-75.5313,5.4407],[-75.53133,5.44073],[-75.53134,5.44076],[-75.53135,5.44077],[-75.53136,5.44078],[-75.53136,5.44079],[-75.53137,5.4408],[-75.53137,5.44082],[-75.53138,5.44083],[-75.53139,5.44085],[-75.5314,5.44088],[-75.53149,5.44114],[-75.53161,5.44148],[-75.53162,5.44152],[-75.53163,5.44155],[-75.53163,5.44156],[-75.53164,5.44157],[-75.53164,5.44159],[-75.53164,5.4416],[-75.53165,5.44163],[-75.53165,5.44165],[-75.53166,5.44171],[-75.53168,5.44181],[-75.5317,5.44196],[-75.5317,5.44199],[-75.5317,5.442],[-75.53171,5.44201],[-75.53171,5.44203],[-75.53171,5.44204],[-75.53172,5.44205],[-75.53173,5.44206],[-75.53174,5.44206],[-75.53175,5.44207],[-75.53176,5.44207],[-75.53177,5.44208],[-75.53178,5.44208],[-75.53179,5.44208],[-75.53182,5.44209],[-75.53197,5.44211],[-75.532,5.44211],[-75.53202,5.44211],[-75.53204,5.44212],[-75.53205,5.44212],[-75.53206,5.44212],[-75.53207,5.44213],[-75.53209,5.44213],[-75.5321,5.44214],[-75.53211,5.44215],[-75.53212,5.44215],[-75.53213,5.44216],[-75.53214,5.44217],[-75.53216,5.44219],[-75.53218,5.44222],[-75.53225,5.44229],[-75.53238,5.44222],[-75.53239,5.44219],[-75.53229,5.44183],[-75.53224,5.44146],[-75.53219,5.44085],[-75.53217,5.44077],[-75.53216,5.44032],[-75.53217,5.43996],[-75.53224,5.4395],[-75.53225,5.43919],[-75.53223,5.43893],[-75.53213,5.43872],[-75.532,5.43861],[-75.53174,5.43847],[-75.53138,5.4382],[-75.53122,5.43798],[-75.53112,5.43769],[-75.53109,5.43753],[-75.53103,5.43669],[-75.53092,5.43602],[-75.53084,5.43567],[-75.53071,5.43524],[-75.53055,5.43487],[-75.53031,5.4345],[-75.53028,5.43447],[-75.53029,5.43449],[-75.53029,5.4345],[-75.53029,5.43451],[-75.5303,5.43453],[-75.5303,5.43454],[-75.53031,5.43455],[-75.53031,5.43456],[-75.53032,5.43459],[-75.53034,5.43462],[-75.53039,5.43472],[-75.5304,5.43474],[-75.53041,5.43476],[-75.53041,5.43477],[-75.53042,5.43478],[-75.53042,5.43479],[-75.53043,5.43481],[-75.53043,5.43482],[-75.53043,5.43483],[-75.53044,5.43486],[-75.53045,5.4349],[-75.53047,5.43501],[-75.53048,5.43505],[-75.53049,5.43508],[-75.53049,5.43511],[-75.53049,5.43512],[-75.53049,5.43513],[-75.53049,5.43516],[-75.53049,5.43519],[-75.53049,5.43523],[-75.53049,5.43548],[-75.5305,5.43674],[-75.5305,5.43686],[-75.5305,5.43699],[-75.5305,5.43701],[-75.5305,5.43703],[-75.5305,5.43704],[-75.5305,5.43705],[-75.5305,5.43707],[-75.5305,5.43708],[-75.53051,5.43709],[-75.53051,5.4371],[-75.53052,5.43711],[-75.53053,5.43712],[-75.53053,5.43713],[-75.53054,5.43714],[-75.53055,5.43715],[-75.53057,5.43717],[-75.53068,5.43728],[-75.5307,5.43729],[-75.53076,5.43737],[-75.53082,5.43746],[-75.53084,5.43748],[-75.53085,5.4375],[-75.53086,5.43751],[-75.53087,5.43752],[-75.53088,5.43753],[-75.53088,5.43754],[-75.53089,5.43756],[-75.53089,5.43757],[-75.53089,5.43758],[-75.53089,5.43759],[-75.53089,5.43761],[-75.53089,5.43762],[-75.53089,5.43764],[-75.53089,5.43767],[-75.53089,5.43779],[-75.53089,5.43797],[-75.53089,5.43809],[-75.53089,5.43812],[-75.53089,5.43814],[-75.53089,5.43816],[-75.5309,5.43817],[-75.5309,5.43818],[-75.5309,5.4382],[-75.5309,5.43821],[-75.5309,5.43822],[-75.53091,5.43823],[-75.53091,5.43825],[-75.53092,5.43826],[-75.53092,5.43827],[-75.53094,5.43829],[-75.53095,5.43832],[-75.53098,5.43839],[-75.531,5.43843],[-75.53102,5.43845],[-75.53102,5.43846],[-75.53103,5.43847],[-75.53104,5.43848],[-75.53104,5.43849],[-75.53105,5.4385],[-75.53107,5.43853],[-75.53109,5.43856],[-75.53117,5.43866],[-75.53118,5.43868],[-75.5312,5.4387],[-75.53122,5.43873],[-75.53122,5.43874],[-75.53123,5.43875],[-75.53124,5.43876],[-75.53124,5.43877],[-75.53125,5.4388],[-75.5313,5.43888],[-75.53132,5.43892],[-75.53132,5.43893],[-75.53133,5.43894],[-75.53133,5.43895],[-75.53134,5.43896],[-75.53134,5.43897],[-75.53134,5.43899],[-75.53134,5.439],[-75.53134,5.43901],[-75.53133,5.43902],[-75.53133,5.43903],[-75.53132,5.43904],[-75.53131,5.43905],[-75.5313,5.43906],[-75.53129,5.43907],[-75.53127,5.43908],[-75.53124,5.43912],[-75.53122,5.43914],[-75.53121,5.43915],[-75.5312,5.43916],[-75.53119,5.43917],[-75.53118,5.43917],[-75.53117,5.43918],[-75.53116,5.43919],[-75.53114,5.43919],[-75.53113,5.43919],[-75.53112,5.4392],[-75.53111,5.4392],[-75.53109,5.4392],[-75.53107,5.4392],[-75.53104,5.4392],[-75.5309,5.4392],[-75.53061,5.4392],[-75.53056,5.4392],[-75.53053,5.4392],[-75.53052,5.4392],[-75.5305,5.4392]]]]},"properties":{"FID":0,"OBJECTID":1,"NOMBRE":"Bosque Seco Tropical","COMPOSICIO":" ","AREA_PBOT":0,"SECTOR":"RURAL","FUENTE":"CORPOCALDAS","TIPO":"ECOSISTEMAS","SHAPE_Leng":5452.97935957,"SHAPE_Area":184186.864039}},{"type":"Feature","id":1,"geometry":{"type":"MultiPolygon","coordinates":[[[[-75.53188,5.44238],[-75.53187,5.44238],[-75.53186,5.44239],[-75.53185,5.4424],[-75.53184,5.44241],[-75.53183,5.44241],[-75.53181,5.44243],[-75.53174,5.44252],[-75.5317,5.44257],[-75.53165,5.44263],[-75.53158,5.44271],[-75.53156,5.44273],[-75.53155,5.44274],[-75.53154,5.44275],[-75.53154,5.44276],[-75.53153,5.44277],[-75.53152,5.44278],[-75.53152,5.44279],[-75.53151,5.44281],[-75.53151,5.44282],[-75.53151,5.44283],[-75.53151,5.44284],[-75.5315,5.44286],[-75.5315,5.44287],[-75.5315,5.44291],[-75.5315,5.44302],[-75.53156,5.4429],[-75.5317,5.44269],[-75.53194,5.44248],[-75.53199,5.44244],[-75.53197,5.44242],[-75.53195,5.4424],[-75.53194,5.4424],[-75.53193,5.44239],[-75.53192,5.44238],[-75.5319,5.44238],[-75.53189,5.44238],[-75.53188,5.44237],[-75.53188,5.44238]]],[[[-75.53011,5.44657],[-75.53009,5.44659],[-75.53009,5.4466],[-75.53008,5.44661],[-75.53007,5.44664],[-75.53005,5.44667],[-75.52999,5.44681],[-75.52993,5.44694],[-75.52992,5.44696],[-75.52991,5.44699],[-75.5299,5.447],[-75.5299,5.44701],[-75.5299,5.44703],[-75.5299,5.44704],[-75.52989,5.44705],[-75.52989,5.44707],[-75.52989,5.44708],[-75.53011,5.4466],[-75.53012,5.44655],[-75.53011,5.44657]]],[[[-75.52865,5.45149],[-75.52861,5.45155],[-75.52857,5.45162],[-75.52856,5.45164],[-75.52855,5.45165],[-75.52854,5.45166],[-75.52854,5.45168],[-75.52853,5.45169],[-75.52853,5.4517],[-75.52853,5.45171],[-75.52853,5.45172],[-75.52853,5.45173],[-75.52853,5.45174],[-75.52853,5.45175],[-75.52854,5.45177],[-75.52855,5.45178],[-75.52855,5.45179],[-75.52856,5.4518],[-75.52857,5.45182],[-75.52863,5.4519],[-75.52866,5.45195],[-75.52869,5.45199],[-75.52872,5.45187],[-75.52875,5.45155],[-75.52874,5.45134],[-75.52865,5.45149]]],[[[-75.52689,5.45471],[-75.52679,5.45475],[-75.52668,5.4548],[-75.52666,5.45481],[-75.52664,5.45481],[-75.52663,5.45482],[-75.52662,5.45482],[-75.52661,5.45483],[-75.5266,5.45484],[-75.52659,5.45484],[-75.52658,5.45485],[-75.52657,5.45486],[-75.52656,5.45487],[-75.52655,5.45488],[-75.52654,5.45489],[-75.52653,5.45491],[-75.52647,5.455],[-75.52693,5.4547],[-75.52689,5.45471]]],[[[-75.52621,5.45628],[-75.52623,5.45648],[-75.52623,5.45652],[-75.52624,5.45654],[-75.52624,5.45656],[-75.52624,5.45657],[-75.52624,5.45658],[-75.52625,5.4566],[-75.52625,5.45661],[-75.52626,5.45664],[-75.52628,5.4567],[-75.52633,5.45683],[-75.52629,5.45651],[-75.52621,5.45613],[-75.52618,5.45603],[-75.52621,5.45628]]]]},"properties":{"FID":1,"OBJECTID":2,"NOMBRE":"Bosque Seco Tropical","COMPOSICIO":" ","AREA_PBOT":0,"SECTOR":"RURAL","FUENTE":"CORPOCALDAS","TIPO":"ECOSISTEMAS","SHAPE_Leng":779.535536905,"SHAPE_Area":2484.53941798}}]}