{"type":"FeatureCollection","name":"Areas_Con_Condicion_Riesgo_Cabecera","crs":{"type":"name","properties":{"name":"urn:ogc:def:crs:OGC:1.3:CRS84"}},"features":[{"type":"Feature","id":1,"geometry":{"type":"MultiPolygon","coordinates":[[[[-75.25933,5.28233],[-75.25934,5.28234],[-75.25934,5.28233],[-75.25934,5.28233],[-75.25933,5.28233]]],[[[-75.25916,5.28234],[-75.25916,5.28234],[-75.25916,5.28234],[-75.25916,5.28234]]],[[[-75.25974,5.28236],[-75.25974,5.28236],[-75.25974,5.28236],[-75.25974,5.28236],[-75.25974,5.28236]]],[[[-75.259,5.28243],[-75.25899,5.28242],[-75.25898,5.28243],[-75.259,5.28245],[-75.25901,5.28243],[-75.259,5.28243],[-75.25899,5.28244],[-75.25899,5.28243],[-75.259,5.28243]]],[[[-75.25968,5.28245],[-75.2597,5.28242],[-75.25969,5.28241],[-75.25968,5.28245]]],[[[-75.25922,5.28246],[-75.25922,5.28246],[-75.25923,5.28246],[-75.25923,5.28246],[-75.25922,5.28246]]],[[[-75.25917,5.2825],[-75.25917,5.2825],[-75.25917,5.2825],[-75.25917,5.2825]]],[[[-75.25968,5.28251],[-75.25969,5.28251],[-75.25968,5.28251],[-75.25968,5.28251]]],[[[-75.25919,5.28251],[-75.2592,5.28251],[-75.2592,5.28251],[-75.25919,5.28251],[-75.25919,5.28251]]],[[[-75.25969,5.28252],[-75.2597,5.28251],[-75.25969,5.28251],[-75.25969,5.28252]]],[[[-75.25903,5.28252],[-75.25904,5.28252],[-75.25903,5.28252],[-75.25903,5.28252]]],[[[-75.25954,5.28253],[-75.25954,5.28253],[-75.25954,5.28253],[-75.25954,5.28253]]],[[[-75.25931,5.28253],[-75.25931,5.28253],[-75.2593,5.28252],[-75.25931,5.28253]]],[[[-75.25914,5.28253],[-75.25914,5.28253],[-75.25915,5.28253],[-75.25915,5.28252],[-75.25914,5.28253]]],[[[-75.25951,5.28254],[-75.25952,5.28253],[-75.25952,5.28253],[-75.25951,5.28254]]],[[[-75.25906,5.28254],[-75.25907,5.28255],[-75.25907,5.28254],[-75.25906,5.28254]]],[[[-75.25922,5.28254],[-75.25924,5.28255],[-75.25923,5.28254],[-75.25922,5.28254],[-75.25922,5.28254]]],[[[-75.25908,5.28255],[-75.25908,5.28256],[-75.25908,5.28255],[-75.25908,5.28255]]],[[[-75.25912,5.28256],[-75.25913,5.28255],[-75.25912,5.28255],[-75.25912,5.28256]]],[[[-75.25946,5.28257],[-75.25948,5.28256],[-75.25948,5.28255],[-75.25948,5.28255],[-75.25946,5.28257]]],[[[-75.25926,5.28257],[-75.25926,5.28257],[-75.25926,5.28257],[-75.25926,5.28257]]],[[[-75.25934,5.28258],[-75.25934,5.28258],[-75.25933,5.28257],[-75.25934,5.28258]]],[[[-75.2596,5.28259],[-75.25961,5.28259],[-75.2596,5.28259],[-75.2596,5.28259]]],[[[-75.25963,5.28259],[-75.25963,5.28259],[-75.25968,5.28256],[-75.25966,5.28254],[-75.25963,5.28259]]],[[[-75.25935,5.28259],[-75.25936,5.2826],[-75.25936,5.28259],[-75.25935,5.28259]]],[[[-75.2593,5.2826],[-75.25931,5.2826],[-75.2593,5.2826],[-75.2593,5.2826]]],[[[-75.2594,5.28262],[-75.25941,5.28263],[-75.25945,5.28257],[-75.2594,5.28262]]],[[[-75.25938,5.28267],[-75.25938,5.28266],[-75.25938,5.28266],[-75.25938,5.28267],[-75.25938,5.28267]]],[[[-75.2584,5.28268],[-75.2584,5.28267],[-75.2584,5.28267],[-75.2584,5.28268]]],[[[-75.25822,5.28268],[-75.25822,5.28268],[-75.25824,5.28267],[-75.25824,5.28267],[-75.25822,5.28268]]],[[[-75.25938,5.28267],[-75.25938,5.28267],[-75.2594,5.28269],[-75.2594,5.28268],[-75.25938,5.28267]]],[[[-75.25941,5.2827],[-75.25942,5.28269],[-75.25941,5.28269],[-75.25941,5.2827]]],[[[-75.25838,5.28271],[-75.25836,5.28269],[-75.25834,5.28269],[-75.25838,5.28271]]],[[[-75.25798,5.28273],[-75.25799,5.28273],[-75.25799,5.28272],[-75.25798,5.28273]]],[[[-75.25841,5.28273],[-75.25842,5.28274],[-75.25841,5.28273],[-75.25841,5.28273]]],[[[-75.25981,5.28283],[-75.25982,5.28283],[-75.25981,5.28282],[-75.25981,5.28283]]],[[[-75.25986,5.28284],[-75.25986,5.28283],[-75.25986,5.28283],[-75.25986,5.28284]]],[[[-75.2586,5.28295],[-75.25861,5.28295],[-75.2586,5.28294],[-75.2586,5.28295]]],[[[-75.2586,5.28295],[-75.25859,5.28296],[-75.2586,5.28296],[-75.2586,5.28295]]],[[[-75.25937,5.28297],[-75.25938,5.28298],[-75.25938,5.28297],[-75.25938,5.28297],[-75.25937,5.28297]]],[[[-75.25943,5.28299],[-75.25943,5.28299],[-75.25943,5.28299],[-75.25943,5.28299]]],[[[-75.25903,5.283],[-75.25903,5.283],[-75.25903,5.283],[-75.25903,5.283]]],[[[-75.26004,5.28299],[-75.26005,5.283],[-75.26004,5.28299],[-75.26004,5.28299]]],[[[-75.25921,5.28301],[-75.25921,5.28301],[-75.25921,5.28301],[-75.25921,5.28301]]],[[[-75.25942,5.283],[-75.25944,5.28302],[-75.25942,5.283],[-75.25942,5.283]]],[[[-75.25922,5.28302],[-75.25923,5.28302],[-75.25922,5.28302],[-75.25922,5.28302]]],[[[-75.25923,5.28303],[-75.25924,5.28303],[-75.25923,5.28302],[-75.25923,5.28303]]],[[[-75.25876,5.28306],[-75.25876,5.28306],[-75.25876,5.28306],[-75.25876,5.28306],[-75.25876,5.28306]]],[[[-75.25853,5.28307],[-75.25853,5.28306],[-75.25853,5.28306],[-75.25853,5.28307]]],[[[-75.25867,5.28307],[-75.25866,5.28306],[-75.25866,5.28306],[-75.25867,5.28307],[-75.25867,5.28307]]],[[[-75.25867,5.28307],[-75.25867,5.28307],[-75.25868,5.28308],[-75.25868,5.28307],[-75.25867,5.28307]]],[[[-75.25951,5.28308],[-75.25948,5.28304],[-75.25946,5.28304],[-75.25951,5.28308]]],[[[-75.25955,5.28312],[-75.25955,5.28312],[-75.25955,5.28311],[-75.25955,5.28312]]],[[[-75.2584,5.28312],[-75.2584,5.28313],[-75.2584,5.28312],[-75.2584,5.28312]]],[[[-75.25958,5.28314],[-75.25958,5.28314],[-75.25957,5.28314],[-75.25958,5.28314]]],[[[-75.25934,5.28316],[-75.25934,5.28316],[-75.25934,5.28316],[-75.25934,5.28316]]],[[[-75.25845,5.28316],[-75.25845,5.28317],[-75.25845,5.28316],[-75.25845,5.28316]]],[[[-75.26022,5.28317],[-75.26022,5.28317],[-75.26022,5.28317],[-75.26022,5.28317]]],[[[-75.25932,5.28317],[-75.25933,5.28317],[-75.25933,5.28317],[-75.25933,5.28317],[-75.25932,5.28317]]],[[[-75.25961,5.28317],[-75.2596,5.28316],[-75.2596,5.28316],[-75.25961,5.28317]]],[[[-75.25881,5.28318],[-75.25881,5.28318],[-75.25881,5.28318],[-75.25881,5.28318]]],[[[-75.25962,5.28319],[-75.25962,5.28319],[-75.25962,5.28318],[-75.25962,5.28319]]],[[[-75.25931,5.28318],[-75.25932,5.28319],[-75.25932,5.28319],[-75.25931,5.28318],[-75.25931,5.28318]]],[[[-75.2593,5.2832],[-75.2593,5.2832],[-75.2593,5.28319],[-75.2593,5.2832]]],[[[-75.25879,5.28321],[-75.25879,5.28321],[-75.25879,5.28321],[-75.25879,5.28321]]],[[[-75.25965,5.28321],[-75.25964,5.2832],[-75.25964,5.28321],[-75.25965,5.28321],[-75.25965,5.28321]]],[[[-75.25878,5.28322],[-75.25878,5.28322],[-75.25878,5.28322],[-75.25878,5.28322]]],[[[-75.25844,5.28323],[-75.25844,5.28323],[-75.25844,5.28323],[-75.25844,5.28323]]],[[[-75.25852,5.28324],[-75.25852,5.28324],[-75.25851,5.28323],[-75.25852,5.28324]]],[[[-75.25965,5.28321],[-75.25965,5.28321],[-75.25968,5.28324],[-75.25968,5.28324],[-75.25967,5.28322],[-75.25965,5.28321]]],[[[-75.25968,5.28324],[-75.25969,5.28325],[-75.25969,5.28325],[-75.25969,5.28324],[-75.25968,5.28324]]],[[[-75.25876,5.28325],[-75.25876,5.28325],[-75.25877,5.28324],[-75.25876,5.28325]]],[[[-75.25799,5.28326],[-75.258,5.28326],[-75.25799,5.28325],[-75.25799,5.28326]]],[[[-75.25944,5.28328],[-75.25944,5.28327],[-75.25944,5.28327],[-75.25944,5.28327],[-75.25944,5.28328]]],[[[-75.25805,5.28328],[-75.25805,5.28328],[-75.25805,5.28328],[-75.25805,5.28328]]],[[[-75.25815,5.28329],[-75.25815,5.28328],[-75.25814,5.28328],[-75.25815,5.28329]]],[[[-75.25985,5.28328],[-75.25985,5.28328],[-75.25985,5.28328],[-75.25985,5.28328]]],[[[-75.25804,5.2833],[-75.25804,5.2833],[-75.25804,5.2833],[-75.25804,5.2833]]],[[[-75.25987,5.2833],[-75.25987,5.2833],[-75.25987,5.2833],[-75.25987,5.2833]]],[[[-75.25796,5.2833],[-75.25797,5.28331],[-75.25798,5.28328],[-75.25799,5.28326],[-75.25796,5.2833]]],[[[-75.25987,5.2833],[-75.25988,5.28331],[-75.25988,5.28331],[-75.25987,5.2833],[-75.25987,5.2833]]],[[[-75.25803,5.28331],[-75.25803,5.28331],[-75.25803,5.28331],[-75.25803,5.28331]]],[[[-75.25803,5.28333],[-75.25803,5.28333],[-75.25803,5.28333],[-75.25803,5.28333]]],[[[-75.25858,5.28336],[-75.25858,5.28336],[-75.25858,5.28336],[-75.25858,5.28336]]],[[[-75.25995,5.28336],[-75.25995,5.28336],[-75.25995,5.28336],[-75.25995,5.28336]]],[[[-75.2587,5.28337],[-75.2587,5.28337],[-75.2587,5.28337],[-75.2587,5.28337]]],[[[-75.25908,5.28337],[-75.25908,5.28337],[-75.25908,5.28337],[-75.25908,5.28337]]],[[[-75.25808,5.28338],[-75.25808,5.28338],[-75.25808,5.28338],[-75.25808,5.28338]]],[[[-75.25866,5.28338],[-75.25866,5.28338],[-75.25867,5.28338],[-75.25866,5.28338],[-75.25866,5.28338]]],[[[-75.25968,5.2834],[-75.25969,5.2834],[-75.25968,5.2834],[-75.25968,5.2834]]],[[[-75.26051,5.2834],[-75.26051,5.2834],[-75.26051,5.2834],[-75.26051,5.2834]]],[[[-75.25987,5.28342],[-75.25988,5.28341],[-75.25988,5.28341],[-75.25987,5.28342]]],[[[-75.26001,5.28341],[-75.26002,5.28342],[-75.26002,5.28341],[-75.26001,5.28341]]],[[[-75.25986,5.28342],[-75.25987,5.28343],[-75.25987,5.28342],[-75.25986,5.28342]]],[[[-75.25986,5.28344],[-75.25986,5.28344],[-75.25986,5.28344],[-75.25986,5.28344]]],[[[-75.25984,5.28345],[-75.25985,5.28345],[-75.25985,5.28345],[-75.25984,5.28345]]],[[[-75.25882,5.28345],[-75.25883,5.28346],[-75.25883,5.28345],[-75.25882,5.28345],[-75.25882,5.28345]]],[[[-75.26008,5.28346],[-75.26009,5.28346],[-75.26009,5.28346],[-75.26008,5.28345],[-75.26008,5.28346]]],[[[-75.25987,5.28348],[-75.25987,5.28347],[-75.25987,5.28347],[-75.25987,5.28348]]],[[[-75.25815,5.28348],[-75.25816,5.28349],[-75.25816,5.28348],[-75.25815,5.28348],[-75.25815,5.28348]]],[[[-75.25817,5.28349],[-75.25817,5.28349],[-75.25817,5.28349],[-75.25817,5.28349]]],[[[-75.25793,5.2835],[-75.25795,5.28349],[-75.25796,5.28346],[-75.25793,5.2835]]],[[[-75.25924,5.2835],[-75.25924,5.28349],[-75.25923,5.28349],[-75.25924,5.2835]]],[[[-75.25925,5.2835],[-75.25925,5.2835],[-75.25925,5.2835],[-75.25924,5.2835],[-75.25925,5.2835]]],[[[-75.2599,5.2835],[-75.25991,5.2835],[-75.2599,5.2835],[-75.2599,5.2835]]],[[[-75.25914,5.28351],[-75.25914,5.28351],[-75.25914,5.28351],[-75.25914,5.28351]]],[[[-75.25822,5.28352],[-75.25823,5.28351],[-75.25823,5.28351],[-75.25822,5.28352]]],[[[-75.25819,5.28351],[-75.25821,5.28353],[-75.25822,5.28352],[-75.2582,5.28352],[-75.25819,5.28351],[-75.25819,5.28351]]],[[[-75.25878,5.28353],[-75.25878,5.28353],[-75.25878,5.28352],[-75.25878,5.28352],[-75.25878,5.28353]]],[[[-75.2592,5.28354],[-75.25921,5.28353],[-75.25921,5.28353],[-75.2592,5.28354]]],[[[-75.25791,5.28354],[-75.25791,5.28354],[-75.25791,5.28354],[-75.2579,5.28354],[-75.25791,5.28355],[-75.25792,5.28354],[-75.25792,5.28352],[-75.25791,5.28354]]],[[[-75.25839,5.28355],[-75.25839,5.28355],[-75.25838,5.28355],[-75.25839,5.28355]]],[[[-75.25794,5.28356],[-75.25794,5.28355],[-75.25793,5.28356],[-75.25794,5.28356]]],[[[-75.25897,5.28356],[-75.25898,5.28356],[-75.25897,5.28355],[-75.25897,5.28356]]],[[[-75.25993,5.28356],[-75.25994,5.28356],[-75.25994,5.28356],[-75.25993,5.28356]]],[[[-75.25826,5.28356],[-75.25826,5.28357],[-75.25826,5.28355],[-75.25826,5.28356]]],[[[-75.25794,5.28356],[-75.25795,5.28357],[-75.25795,5.28356],[-75.25794,5.28356]]],[[[-75.25829,5.28358],[-75.25829,5.28356],[-75.25829,5.28358],[-75.25829,5.28358]]],[[[-75.25995,5.28358],[-75.25995,5.28357],[-75.25995,5.28357],[-75.25995,5.28358]]],[[[-75.2584,5.28357],[-75.2584,5.28358],[-75.2584,5.28358],[-75.25841,5.28357],[-75.2584,5.28357],[-75.2584,5.28357]]],[[[-75.25795,5.2836],[-75.25796,5.28359],[-75.25796,5.28358],[-75.25795,5.2836]]],[[[-75.25886,5.2836],[-75.25886,5.28359],[-75.25885,5.28359],[-75.25886,5.2836]]],[[[-75.25829,5.28358],[-75.25827,5.28357],[-75.25831,5.28361],[-75.25832,5.2836],[-75.25831,5.28359],[-75.2583,5.28358],[-75.25829,5.28358],[-75.25829,5.28359],[-75.25829,5.28358]]],[[[-75.25972,5.28361],[-75.25972,5.28361],[-75.25973,5.2836],[-75.25974,5.28361],[-75.25974,5.28361],[-75.25973,5.2836],[-75.25972,5.28361]]],[[[-75.25972,5.28361],[-75.25971,5.28361],[-75.25971,5.28362],[-75.25972,5.28361],[-75.25972,5.28361]]],[[[-75.25981,5.28362],[-75.25981,5.28362],[-75.25981,5.28362],[-75.25981,5.28362]]],[[[-75.25795,5.2836],[-75.25795,5.2836],[-75.25793,5.28363],[-75.25794,5.28364],[-75.25794,5.28363],[-75.25795,5.28361],[-75.25795,5.2836]]],[[[-75.25937,5.28367],[-75.25937,5.28367],[-75.25937,5.28366],[-75.25937,5.28367]]],[[[-75.25836,5.28363],[-75.25841,5.28368],[-75.25839,5.28366],[-75.25838,5.28364],[-75.25836,5.28363],[-75.25836,5.28363],[-75.25836,5.28363]]],[[[-75.25939,5.28367],[-75.25939,5.28367],[-75.25939,5.28367],[-75.25939,5.28367]]],[[[-75.25945,5.28372],[-75.25945,5.28371],[-75.25944,5.28371],[-75.25945,5.28372]]],[[[-75.25791,5.28374],[-75.25792,5.28375],[-75.25792,5.28374],[-75.25791,5.28374]]],[[[-75.25781,5.28375],[-75.25781,5.28375],[-75.25781,5.28375],[-75.25781,5.28375]]],[[[-75.25836,5.28377],[-75.25836,5.28377],[-75.25836,5.28377],[-75.25836,5.28377]]],[[[-75.2582,5.28378],[-75.2582,5.28378],[-75.2582,5.28377],[-75.2582,5.28378]]],[[[-75.25886,5.28379],[-75.25886,5.28378],[-75.25886,5.28378],[-75.25885,5.28377],[-75.25886,5.28379]]],[[[-75.25786,5.28379],[-75.25787,5.28379],[-75.25787,5.28379],[-75.25786,5.28379]]],[[[-75.25822,5.28379],[-75.25823,5.28379],[-75.25822,5.28379],[-75.25823,5.2838],[-75.25823,5.28379],[-75.25822,5.28378],[-75.25822,5.28379]]],[[[-75.25878,5.2838],[-75.25879,5.2838],[-75.25879,5.2838],[-75.25878,5.2838]]],[[[-75.25785,5.28381],[-75.25786,5.28381],[-75.25785,5.28381],[-75.25785,5.28381]]],[[[-75.25823,5.28381],[-75.25823,5.2838],[-75.25822,5.28381],[-75.25823,5.28381],[-75.25823,5.28381]]],[[[-75.25938,5.28381],[-75.25938,5.28381],[-75.25938,5.28381],[-75.25938,5.28381]]],[[[-75.25876,5.28382],[-75.25876,5.28381],[-75.25876,5.28381],[-75.25876,5.28382]]],[[[-75.25886,5.28381],[-75.25885,5.28382],[-75.25886,5.28383],[-75.25887,5.28381],[-75.25886,5.28381]]],[[[-75.25823,5.28381],[-75.25823,5.28381],[-75.25823,5.28381],[-75.25823,5.28381],[-75.25822,5.28383],[-75.25825,5.28382],[-75.25823,5.28381]]],[[[-75.25827,5.28384],[-75.25827,5.28383],[-75.25826,5.28384],[-75.25827,5.28384]]],[[[-75.25825,5.28386],[-75.25826,5.28385],[-75.25824,5.28384],[-75.25824,5.28385],[-75.25824,5.28385],[-75.25825,5.28386]]],[[[-75.25827,5.28384],[-75.25827,5.28386],[-75.25827,5.28385],[-75.25828,5.28386],[-75.25828,5.28384],[-75.25827,5.28384]]],[[[-75.26167,5.28385],[-75.26167,5.28385],[-75.26167,5.28385],[-75.26167,5.28385],[-75.26167,5.28385]]],[[[-75.25828,5.28386],[-75.25829,5.28387],[-75.2583,5.28386],[-75.25832,5.28385],[-75.25831,5.28384],[-75.25828,5.28386]]],[[[-75.25883,5.28388],[-75.25883,5.28388],[-75.25883,5.28388],[-75.25883,5.28388]]],[[[-75.2588,5.28392],[-75.2588,5.28392],[-75.2588,5.28392],[-75.2588,5.28392]]],[[[-75.25879,5.28393],[-75.25879,5.28393],[-75.25879,5.28392],[-75.25879,5.28393]]],[[[-75.2589,5.28394],[-75.2589,5.28394],[-75.2589,5.28394],[-75.2589,5.28394]]],[[[-75.25931,5.28397],[-75.25931,5.28396],[-75.25931,5.28396],[-75.25931,5.28397]]],[[[-75.25781,5.28398],[-75.25782,5.28397],[-75.25781,5.28397],[-75.25781,5.28398]]],[[[-75.25847,5.28398],[-75.25848,5.28398],[-75.25842,5.28394],[-75.25836,5.2839],[-75.25847,5.28398]]],[[[-75.25871,5.28399],[-75.25871,5.28399],[-75.25872,5.28398],[-75.25871,5.28398],[-75.25871,5.28399]]],[[[-75.25897,5.28399],[-75.25897,5.28399],[-75.25897,5.28399],[-75.25897,5.28399]]],[[[-75.25867,5.28399],[-75.25868,5.28399],[-75.25867,5.28398],[-75.25867,5.28399]]],[[[-75.25871,5.28399],[-75.25869,5.284],[-75.2587,5.28401],[-75.25871,5.284],[-75.25871,5.28399]]],[[[-75.25889,5.28399],[-75.25896,5.28405],[-75.25889,5.28399],[-75.25889,5.28399]]],[[[-75.25782,5.28405],[-75.25784,5.28406],[-75.25784,5.28405],[-75.25782,5.28404],[-75.25782,5.28405]]],[[[-75.25794,5.28407],[-75.25794,5.28406],[-75.25787,5.28402],[-75.25794,5.28407]]],[[[-75.25946,5.28406],[-75.25947,5.28407],[-75.25947,5.28406],[-75.25946,5.28406]]],[[[-75.25769,5.28407],[-75.25769,5.28407],[-75.2577,5.28407],[-75.2577,5.28407],[-75.2577,5.28407],[-75.25769,5.28406],[-75.25769,5.28407]]],[[[-75.25947,5.28407],[-75.25948,5.28408],[-75.25948,5.28407],[-75.25947,5.28407]]],[[[-75.25769,5.28407],[-75.25768,5.28408],[-75.25769,5.28408],[-75.25769,5.28408],[-75.25769,5.28407]]],[[[-75.25858,5.28408],[-75.25858,5.28408],[-75.25858,5.28408],[-75.25858,5.28408]]],[[[-75.25788,5.28408],[-75.25787,5.28407],[-75.25784,5.28406],[-75.25784,5.28406],[-75.25788,5.28408],[-75.25788,5.28408]]],[[[-75.25773,5.28409],[-75.25773,5.28409],[-75.25773,5.28409],[-75.25773,5.28409]]],[[[-75.25848,5.28409],[-75.25848,5.28408],[-75.25848,5.28408],[-75.25848,5.28409]]],[[[-75.25932,5.28409],[-75.25933,5.28409],[-75.25932,5.28409],[-75.25932,5.28409]]],[[[-75.25856,5.2841],[-75.25855,5.28409],[-75.25854,5.2841],[-75.25854,5.2841],[-75.25856,5.2841]]],[[[-75.25788,5.28408],[-75.25788,5.28409],[-75.25791,5.2841],[-75.25791,5.2841],[-75.25791,5.2841],[-75.25788,5.28408]]],[[[-75.25936,5.2841],[-75.25936,5.2841],[-75.25935,5.2841],[-75.25936,5.2841]]],[[[-75.25791,5.2841],[-75.25791,5.2841],[-75.25792,5.28411],[-75.25792,5.2841],[-75.25791,5.2841]]],[[[-75.25794,5.28407],[-75.25794,5.28407],[-75.25799,5.28411],[-75.258,5.28411],[-75.25794,5.28406],[-75.25794,5.28407]]],[[[-75.25856,5.2841],[-75.25856,5.28411],[-75.25857,5.2841],[-75.25856,5.2841]]],[[[-75.25794,5.28412],[-75.25795,5.28412],[-75.25794,5.28412],[-75.25794,5.28412]]],[[[-75.25907,5.28414],[-75.25907,5.28414],[-75.25905,5.28412],[-75.25907,5.28414]]],[[[-75.25804,5.28414],[-75.25804,5.28413],[-75.25803,5.28412],[-75.25804,5.28414]]],[[[-75.25797,5.28414],[-75.25797,5.28414],[-75.25797,5.28414],[-75.25797,5.28414]]],[[[-75.25929,5.28414],[-75.25929,5.28414],[-75.25929,5.28414],[-75.25929,5.28414]]],[[[-75.2595,5.28415],[-75.2595,5.28415],[-75.2595,5.28415],[-75.2595,5.28415]]],[[[-75.25942,5.28416],[-75.25943,5.28416],[-75.25943,5.28416],[-75.25942,5.28415],[-75.25942,5.28416]]],[[[-75.25925,5.28419],[-75.25926,5.28418],[-75.25925,5.28418],[-75.25925,5.28419]]],[[[-75.25919,5.28422],[-75.25919,5.28422],[-75.2592,5.28422],[-75.25919,5.28422],[-75.25919,5.28422]]],[[[-75.25753,5.28424],[-75.25753,5.28424],[-75.25753,5.28424],[-75.25753,5.28424]]],[[[-75.25744,5.28424],[-75.25744,5.28424],[-75.25746,5.28423],[-75.25746,5.28423],[-75.25744,5.28424]]],[[[-75.25742,5.28424],[-75.25743,5.28425],[-75.25743,5.28424],[-75.25742,5.28424]]],[[[-75.25737,5.28426],[-75.25738,5.28427],[-75.2574,5.28425],[-75.25737,5.28426]]],[[[-75.25916,5.28433],[-75.25917,5.28434],[-75.25917,5.28434],[-75.25916,5.28433],[-75.25916,5.28433]]],[[[-75.25836,5.28443],[-75.25836,5.28443],[-75.25836,5.28442],[-75.25836,5.28443]]],[[[-75.25835,5.28444],[-75.25835,5.28444],[-75.25835,5.28444],[-75.25835,5.28444]]],[[[-75.25836,5.28446],[-75.25836,5.28446],[-75.25836,5.28446],[-75.25836,5.28446]]],[[[-75.26027,5.28447],[-75.26027,5.28447],[-75.26027,5.28446],[-75.26027,5.28446],[-75.26027,5.28447]]],[[[-75.25823,5.28449],[-75.25823,5.28449],[-75.25823,5.28449],[-75.25823,5.28449]]],[[[-75.25825,5.28449],[-75.25828,5.2845],[-75.25828,5.28449],[-75.25826,5.28448],[-75.25825,5.28449]]],[[[-75.25941,5.2845],[-75.25941,5.2845],[-75.2594,5.2845],[-75.25941,5.2845]]],[[[-75.2582,5.2846],[-75.25821,5.2846],[-75.25821,5.28459],[-75.2582,5.28459],[-75.2582,5.2846]]],[[[-75.25998,5.28461],[-75.25999,5.2846],[-75.25998,5.2846],[-75.25998,5.28461]]],[[[-75.25814,5.28463],[-75.25815,5.28463],[-75.25817,5.28461],[-75.25814,5.28463]]],[[[-75.26036,5.28487],[-75.26036,5.28487],[-75.26036,5.28487],[-75.26035,5.28487],[-75.26036,5.28487]]],[[[-75.2599,5.28489],[-75.2599,5.2849],[-75.2599,5.28489],[-75.2599,5.28489]]],[[[-75.25991,5.28493],[-75.25991,5.28493],[-75.25991,5.28493],[-75.25991,5.28492],[-75.25991,5.28493]]],[[[-75.25992,5.28494],[-75.25992,5.28494],[-75.25992,5.28494],[-75.25992,5.28494]]],[[[-75.25995,5.28497],[-75.25995,5.28497],[-75.25995,5.28496],[-75.25994,5.28495],[-75.25995,5.28497]]],[[[-75.25997,5.28498],[-75.25997,5.28498],[-75.25997,5.28498],[-75.25997,5.28498]]],[[[-75.26003,5.28506],[-75.26003,5.28505],[-75.26002,5.28505],[-75.26002,5.28504],[-75.26001,5.28504],[-75.26001,5.28504],[-75.26003,5.28506]]],[[[-75.26017,5.28506],[-75.26017,5.28506],[-75.26017,5.28506],[-75.26017,5.28506]]],[[[-75.26015,5.28507],[-75.26015,5.28507],[-75.26015,5.28507],[-75.26015,5.28507]]],[[[-75.26009,5.28507],[-75.26009,5.28508],[-75.2601,5.28507],[-75.26009,5.28507]]],[[[-75.26019,5.28507],[-75.26019,5.28508],[-75.26019,5.28507],[-75.26019,5.28507]]],[[[-75.26005,5.28507],[-75.26005,5.28508],[-75.26006,5.28508],[-75.26006,5.28508],[-75.26006,5.28507],[-75.26005,5.28507]]],[[[-75.26008,5.28508],[-75.26008,5.28509],[-75.26009,5.28508],[-75.26008,5.28508]]],[[[-75.26007,5.28509],[-75.26007,5.2851],[-75.26008,5.28509],[-75.26007,5.28509]]],[[[-75.26019,5.28508],[-75.2602,5.28508],[-75.26018,5.2851],[-75.26019,5.2851],[-75.2602,5.28508],[-75.26019,5.28508]]],[[[-75.26017,5.28512],[-75.26018,5.28511],[-75.26018,5.2851],[-75.26017,5.28512]]],[[[-75.26021,5.28518],[-75.26022,5.28519],[-75.26023,5.28519],[-75.26021,5.28517],[-75.26021,5.28518]]],[[[-75.26023,5.28522],[-75.26024,5.28522],[-75.26023,5.28521],[-75.26023,5.28522]]],[[[-75.26025,5.28523],[-75.26025,5.28523],[-75.26025,5.28523],[-75.26025,5.28523]]],[[[-75.26026,5.28525],[-75.26026,5.28525],[-75.26026,5.28525],[-75.26026,5.28525]]],[[[-75.2603,5.28527],[-75.26031,5.28528],[-75.26031,5.28528],[-75.2603,5.28527],[-75.2603,5.28527]]],[[[-75.25919,5.28544],[-75.25924,5.28546],[-75.25925,5.28545],[-75.25919,5.28544],[-75.25919,5.28544]]],[[[-75.26049,5.28564],[-75.26049,5.28564],[-75.26049,5.28564],[-75.26049,5.28564]]],[[[-75.2619,5.28572],[-75.2619,5.28573],[-75.26189,5.28573],[-75.26189,5.28574],[-75.26188,5.28574],[-75.26187,5.28575],[-75.26185,5.28576],[-75.26185,5.28577],[-75.26184,5.28577],[-75.26185,5.28577],[-75.26191,5.28573],[-75.26191,5.28572],[-75.2619,5.28572]]],[[[-75.26183,5.28578],[-75.26183,5.28579],[-75.26183,5.28579],[-75.26183,5.28578],[-75.26183,5.28578]]],[[[-75.2604,5.2859],[-75.2604,5.28587],[-75.26038,5.2859],[-75.2604,5.2859]]],[[[-75.26052,5.2859],[-75.26053,5.2859],[-75.26052,5.28589],[-75.26052,5.2859]]],[[[-75.26048,5.2859],[-75.26048,5.2859],[-75.26049,5.2859],[-75.26049,5.28589],[-75.26048,5.2859]]],[[[-75.26045,5.2859],[-75.26045,5.2859],[-75.26046,5.2859],[-75.26045,5.2859],[-75.26045,5.2859]]],[[[-75.2604,5.2859],[-75.2604,5.28591],[-75.26041,5.28591],[-75.26041,5.2859],[-75.26041,5.2859],[-75.2604,5.2859]]],[[[-75.26038,5.2859],[-75.26037,5.2859],[-75.26038,5.28591],[-75.26038,5.2859]]],[[[-75.26036,5.28591],[-75.26036,5.28591],[-75.26036,5.2859],[-75.26036,5.28591]]],[[[-75.26034,5.28591],[-75.26033,5.2859],[-75.26033,5.28591],[-75.26034,5.28591]]],[[[-75.26034,5.28591],[-75.26034,5.28592],[-75.26034,5.28591],[-75.26034,5.28591]]],[[[-75.26033,5.28591],[-75.26032,5.28591],[-75.26032,5.28592],[-75.26033,5.28592],[-75.26033,5.28591]]],[[[-75.26026,5.28595],[-75.26026,5.28595],[-75.26026,5.28595],[-75.26027,5.28594],[-75.26026,5.28595]]],[[[-75.26051,5.28602],[-75.26051,5.28601],[-75.26051,5.28601],[-75.26051,5.28602]]],[[[-75.26048,5.28603],[-75.26048,5.28603],[-75.26049,5.28603],[-75.26048,5.28603]]],[[[-75.26184,5.28629],[-75.26184,5.28629],[-75.26184,5.28629],[-75.26184,5.28629],[-75.26184,5.28629]]],[[[-75.26182,5.2863],[-75.26182,5.2863],[-75.26182,5.2863],[-75.26182,5.2863]]],[[[-75.26197,5.28643],[-75.26197,5.28644],[-75.26198,5.28643],[-75.26198,5.28643],[-75.26197,5.28643]]],[[[-75.26198,5.28646],[-75.26198,5.28645],[-75.26198,5.28645],[-75.26198,5.28646]]]]},"properties":{"OBJECTID":1,"Tipo":" ","Area_M2":" ","SHAPE_Leng":9187.45740519,"Shape_Length":873.0137767317219,"Shape_Area":150.14723666306293}},{"type":"Feature","id":2,"geometry":{"type":"MultiPolygon","coordinates":[[[[-75.25908,5.28378],[-75.25908,5.28378],[-75.25908,5.28378],[-75.25908,5.28378]]],[[[-75.25904,5.28384],[-75.25904,5.28384],[-75.25903,5.28384],[-75.25904,5.28384]]]]},"properties":{"OBJECTID":2,"Tipo":" ","Area_M2":" ","SHAPE_Leng":64.1321714638,"Shape_Length":2.0422112051651116,"Shape_Area":0.11966299492409184}},{"type":"Feature","id":3,"geometry":{"type":"MultiPolygon","coordinates":[[[[-75.25889,5.28426],[-75.25889,5.28426],[-75.2589,5.28426],[-75.2589,5.28426],[-75.25889,5.28426]]],[[[-75.25892,5.28428],[-75.25892,5.28428],[-75.25892,5.28428],[-75.25892,5.28428]]],[[[-75.25893,5.28429],[-75.25894,5.2843],[-75.25893,5.28429],[-75.25893,5.28429]]],[[[-75.25896,5.28436],[-75.25896,5.28436],[-75.25896,5.28436],[-75.25896,5.28436]]],[[[-75.25887,5.28437],[-75.25887,5.28437],[-75.25886,5.28436],[-75.25887,5.28437]]],[[[-75.25888,5.28438],[-75.25888,5.28437],[-75.25887,5.28437],[-75.25888,5.28438]]],[[[-75.25889,5.28438],[-75.2589,5.28439],[-75.2589,5.28438],[-75.25889,5.28438],[-75.25889,5.28438]]]]},"properties":{"OBJECTID":3,"Tipo":" ","Area_M2":" ","SHAPE_Leng":61.2071589585,"Shape_Length":12.460071395974207,"Shape_Area":1.1443066206896912}},{"type":"Feature","id":4,"geometry":{"type":"Polygon","coordinates":[[[-75.25806,5.28389],[-75.25807,5.28389],[-75.25807,5.28389],[-75.25806,5.28389]]]},"properties":{"OBJECTID":4,"Tipo":" ","Area_M2":" ","SHAPE_Leng":57.7313889955,"Shape_Length":1.9492257181533128,"Shape_Area":0.08806052994680896}},{"type":"Feature","id":5,"geometry":{"type":"MultiPolygon","coordinates":[[[[-75.25801,5.28407],[-75.25802,5.28407],[-75.25802,5.28407],[-75.25802,5.28407],[-75.25801,5.28407]]],[[[-75.25803,5.28407],[-75.25803,5.28407],[-75.25803,5.28407],[-75.25803,5.28407]]]]},"properties":{"OBJECTID":5,"Tipo":" ","Area_M2":" ","SHAPE_Leng":46.4685310034,"Shape_Length":2.2743877135344297,"Shape_Area":0.19231751020733429}},{"type":"Feature","id":6,"geometry":{"type":"MultiPolygon","coordinates":[[[[-75.25796,5.28372],[-75.25796,5.28372],[-75.25796,5.28372],[-75.25796,5.28372]]],[[[-75.25795,5.28373],[-75.25795,5.28374],[-75.25795,5.28374],[-75.25795,5.28373],[-75.25795,5.28373]]],[[[-75.25799,5.28374],[-75.25799,5.28373],[-75.25799,5.28373],[-75.25799,5.28374]]],[[[-75.25798,5.28376],[-75.25798,5.28376],[-75.25798,5.28376],[-75.25798,5.28376]]]]},"properties":{"OBJECTID":6,"Tipo":" ","Area_M2":" ","SHAPE_Leng":16.6332446599,"Shape_Length":5.997601850955159,"Shape_Area":0.38414609030674385}},{"type":"Feature","id":7,"geometry":{"type":"MultiPolygon","coordinates":[[[[-75.25765,5.2839],[-75.25765,5.2839],[-75.25765,5.2839],[-75.25765,5.2839]]],[[[-75.25763,5.28394],[-75.25763,5.28395],[-75.25764,5.28394],[-75.25763,5.28394],[-75.25763,5.28394]]],[[[-75.25761,5.28398],[-75.25762,5.28398],[-75.25761,5.28397],[-75.25761,5.28398]]]]},"properties":{"OBJECTID":7,"Tipo":" ","Area_M2":" ","SHAPE_Leng":27.0999685556,"Shape_Length":7.198657604803086,"Shape_Area":1.1765610496282994}},{"type":"Feature","id":8,"geometry":{"type":"MultiPolygon","coordinates":[[[[-75.25747,5.2831],[-75.25747,5.28311],[-75.25749,5.28311],[-75.25748,5.2831],[-75.25747,5.2831]]],[[[-75.25755,5.28316],[-75.25756,5.28316],[-75.25755,5.28315],[-75.25755,5.28316]]],[[[-75.25756,5.2832],[-75.25756,5.28319],[-75.25756,5.28319],[-75.25755,5.28319],[-75.25756,5.2832]]],[[[-75.25754,5.28321],[-75.25755,5.28319],[-75.25754,5.28319],[-75.25754,5.28321]]],[[[-75.25755,5.28323],[-75.25756,5.28322],[-75.25755,5.28322],[-75.25755,5.28323]]],[[[-75.25754,5.28324],[-75.25754,5.28324],[-75.25754,5.28324],[-75.25754,5.28324]]]]},"properties":{"OBJECTID":8,"Tipo":" ","Area_M2":" ","SHAPE_Leng":57.6713989257,"Shape_Length":22.731311428211814,"Shape_Area":4.920952438057315}}]}