{"type":"FeatureCollection","name":"Condicion_AmenazaMontebonito","crs":{"type":"name","properties":{"name":"urn:ogc:def:crs:OGC:1.3:CRS84"}},"features":[{"type":"Feature","id":0,"geometry":{"type":"MultiPolygon","coordinates":[[[[-75.20255,5.16142],[-75.20255,5.16142],[-75.20255,5.16142],[-75.20254,5.16142],[-75.20254,5.16142],[-75.20255,5.16142]]],[[[-75.20255,5.16142],[-75.20255,5.16143],[-75.20256,5.16143],[-75.20256,5.16143],[-75.20256,5.16142],[-75.20255,5.16142]]],[[[-75.20255,5.16143],[-75.20254,5.16143],[-75.20254,5.16144],[-75.20255,5.16144],[-75.20255,5.16143]]],[[[-75.20263,5.16148],[-75.20263,5.16147],[-75.2026,5.16147],[-75.20263,5.16148]]],[[[-75.20264,5.16148],[-75.20264,5.16149],[-75.20265,5.16149],[-75.20265,5.16149],[-75.20264,5.16148],[-75.20264,5.16148]]],[[[-75.20258,5.16149],[-75.20259,5.16148],[-75.20258,5.16148],[-75.20258,5.16149]]],[[[-75.20263,5.16148],[-75.20263,5.16149],[-75.20263,5.16148],[-75.20263,5.16148]]],[[[-75.20267,5.16151],[-75.20267,5.1615],[-75.20267,5.1615],[-75.20266,5.1615],[-75.20265,5.1615],[-75.20267,5.16151]]],[[[-75.20267,5.16151],[-75.20267,5.16151],[-75.20268,5.16151],[-75.20268,5.16151],[-75.20268,5.16151],[-75.20267,5.16151]]],[[[-75.20268,5.16152],[-75.20269,5.16153],[-75.20271,5.16153],[-75.2027,5.16153],[-75.20269,5.16152],[-75.20268,5.16151],[-75.20268,5.16152]]],[[[-75.20268,5.16152],[-75.20267,5.16152],[-75.20267,5.16153],[-75.20268,5.16153],[-75.20268,5.16152]]],[[[-75.20271,5.16153],[-75.20271,5.16154],[-75.20272,5.16154],[-75.20272,5.16154],[-75.20271,5.16153],[-75.20271,5.16153]]],[[[-75.20273,5.16155],[-75.20273,5.16156],[-75.20274,5.16156],[-75.20274,5.16156],[-75.20274,5.16155],[-75.20273,5.16155]]],[[[-75.20273,5.16157],[-75.20272,5.16156],[-75.20272,5.16157],[-75.20273,5.16157]]],[[[-75.20272,5.16157],[-75.2027,5.16157],[-75.20272,5.16158],[-75.20272,5.16157]]],[[[-75.20278,5.16159],[-75.20278,5.16159],[-75.20277,5.16158],[-75.20277,5.16159],[-75.20278,5.16159]]],[[[-75.20278,5.16159],[-75.20278,5.1616],[-75.20279,5.1616],[-75.20279,5.16159],[-75.20278,5.16159],[-75.20278,5.16159]]],[[[-75.20275,5.16161],[-75.20276,5.16161],[-75.20276,5.16162],[-75.20277,5.16162],[-75.20276,5.16159],[-75.20275,5.16161]]],[[[-75.20282,5.16163],[-75.20282,5.16162],[-75.20282,5.16162],[-75.20282,5.16161],[-75.20282,5.16161],[-75.20281,5.16163],[-75.20282,5.16163]]],[[[-75.20282,5.16163],[-75.20282,5.16165],[-75.20283,5.16165],[-75.20283,5.16163],[-75.20282,5.16163]]],[[[-75.20281,5.16163],[-75.2028,5.16163],[-75.2028,5.16165],[-75.20281,5.16165],[-75.20281,5.16163]]],[[[-75.20282,5.16165],[-75.20281,5.16165],[-75.20282,5.16166],[-75.20282,5.16165]]],[[[-75.2029,5.16168],[-75.2029,5.16169],[-75.20291,5.16169],[-75.20291,5.16169],[-75.2029,5.16168],[-75.2029,5.16168]]],[[[-75.20287,5.16166],[-75.20287,5.16169],[-75.20288,5.16166],[-75.20288,5.16166],[-75.20287,5.16166]]],[[[-75.20294,5.1617],[-75.20294,5.1617],[-75.20293,5.1617],[-75.20293,5.1617],[-75.20294,5.1617]]],[[[-75.20294,5.1617],[-75.20294,5.16171],[-75.20295,5.16171],[-75.20295,5.16171],[-75.20294,5.1617],[-75.20294,5.1617]]],[[[-75.20295,5.16171],[-75.20295,5.16172],[-75.20296,5.16172],[-75.20296,5.16172],[-75.20296,5.16171],[-75.20295,5.16171]]],[[[-75.20291,5.16172],[-75.2029,5.16173],[-75.20291,5.16173],[-75.20291,5.16172]]],[[[-75.20305,5.16178],[-75.20305,5.16178],[-75.20304,5.16177],[-75.20304,5.16178],[-75.20305,5.16178]]],[[[-75.20302,5.16176],[-75.20303,5.16178],[-75.20303,5.16177],[-75.20303,5.16176],[-75.20302,5.16176],[-75.20302,5.16176]]],[[[-75.20247,5.16179],[-75.20247,5.1618],[-75.20248,5.1618],[-75.20248,5.16179],[-75.20247,5.16179]]],[[[-75.20262,5.16181],[-75.20262,5.16182],[-75.20263,5.16182],[-75.20263,5.16181],[-75.20262,5.16181]]],[[[-75.20305,5.16178],[-75.20305,5.1618],[-75.20301,5.16179],[-75.20302,5.16181],[-75.20307,5.16182],[-75.20306,5.16185],[-75.20308,5.16184],[-75.20309,5.16187],[-75.20311,5.16186],[-75.20312,5.16187],[-75.20312,5.16188],[-75.20312,5.16185],[-75.20311,5.16182],[-75.20309,5.16181],[-75.20308,5.1618],[-75.20307,5.1618],[-75.20307,5.16179],[-75.20306,5.16179],[-75.20305,5.16178],[-75.20305,5.16178]],[[-75.20308,5.16181],[-75.20309,5.16182],[-75.20308,5.16182],[-75.20308,5.16181]],[[-75.2031,5.16183],[-75.20311,5.16183],[-75.2031,5.16184],[-75.2031,5.16183]]],[[[-75.20308,5.16188],[-75.20309,5.16188],[-75.20308,5.16187],[-75.20308,5.16188]]],[[[-75.2031,5.16189],[-75.20311,5.16188],[-75.2031,5.16188],[-75.2031,5.16189]]],[[[-75.20314,5.16195],[-75.20314,5.16196],[-75.20315,5.16196],[-75.20315,5.16195],[-75.20314,5.16195]]],[[[-75.20315,5.16196],[-75.20315,5.16198],[-75.20316,5.16198],[-75.20316,5.16197],[-75.20315,5.16196],[-75.20315,5.16196]]],[[[-75.20342,5.162],[-75.20341,5.16201],[-75.20341,5.16201],[-75.20341,5.16202],[-75.20343,5.16201],[-75.20343,5.162],[-75.20342,5.162]]],[[[-75.20344,5.16203],[-75.20345,5.16203],[-75.20344,5.16202],[-75.20344,5.16203]]],[[[-75.20345,5.16204],[-75.20345,5.16204],[-75.20345,5.16203],[-75.20345,5.16204]]],[[[-75.20347,5.16207],[-75.20347,5.16206],[-75.20347,5.16206],[-75.20347,5.16207]]],[[[-75.20341,5.16207],[-75.20342,5.16206],[-75.20341,5.16206],[-75.20341,5.16207]]],[[[-75.20345,5.16212],[-75.20346,5.16211],[-75.20345,5.1621],[-75.20345,5.16212]]],[[[-75.20306,5.16234],[-75.20305,5.16234],[-75.20306,5.16235],[-75.20306,5.16234]]],[[[-75.20254,5.16144],[-75.20253,5.16143],[-75.20252,5.16142],[-75.2025,5.16142],[-75.20247,5.16143],[-75.20243,5.16142],[-75.2024,5.16142],[-75.2024,5.16142],[-75.2023,5.1616],[-75.20227,5.16166],[-75.2022,5.16181],[-75.2022,5.16181],[-75.2022,5.16182],[-75.20218,5.16181],[-75.20215,5.16184],[-75.20214,5.16187],[-75.20212,5.16193],[-75.20214,5.16204],[-75.20217,5.1621],[-75.20223,5.16223],[-75.20226,5.16228],[-75.20229,5.16236],[-75.20235,5.16243],[-75.20237,5.1625],[-75.20237,5.16252],[-75.20239,5.16253],[-75.20241,5.16254],[-75.20243,5.16256],[-75.20248,5.16257],[-75.2025,5.16259],[-75.20251,5.16259],[-75.20253,5.1626],[-75.20253,5.16261],[-75.20253,5.16265],[-75.20255,5.16267],[-75.20256,5.16271],[-75.20258,5.16273],[-75.20258,5.16271],[-75.20259,5.1627],[-75.20261,5.1627],[-75.20263,5.16268],[-75.20264,5.16268],[-75.20269,5.16269],[-75.2027,5.16267],[-75.20269,5.16263],[-75.20271,5.16257],[-75.2027,5.16254],[-75.20269,5.1625],[-75.20269,5.16246],[-75.20269,5.16239],[-75.20274,5.16229],[-75.20283,5.16218],[-75.20291,5.16225],[-75.20292,5.16224],[-75.20295,5.16226],[-75.20296,5.16225],[-75.20296,5.16226],[-75.20296,5.16226],[-75.20297,5.16226],[-75.20297,5.16227],[-75.20298,5.16228],[-75.20298,5.16228],[-75.20298,5.16228],[-75.20299,5.16228],[-75.203,5.16229],[-75.203,5.16229],[-75.20302,5.1623],[-75.20301,5.1623],[-75.20303,5.1623],[-75.20302,5.16231],[-75.20304,5.16233],[-75.20305,5.16232],[-75.20306,5.16234],[-75.20307,5.16234],[-75.20307,5.16233],[-75.20308,5.16233],[-75.20307,5.16234],[-75.20307,5.16235],[-75.20307,5.16236],[-75.20308,5.16235],[-75.20308,5.16236],[-75.20308,5.16236],[-75.20316,5.1623],[-75.20317,5.1623],[-75.20319,5.16229],[-75.20324,5.16225],[-75.20325,5.16225],[-75.20323,5.16222],[-75.20323,5.16222],[-75.20323,5.16223],[-75.20322,5.16222],[-75.20323,5.16222],[-75.20323,5.16222],[-75.2032,5.16216],[-75.2032,5.16216],[-75.2032,5.16216],[-75.20318,5.16215],[-75.20319,5.16214],[-75.2032,5.16216],[-75.20321,5.16215],[-75.20317,5.16202],[-75.20317,5.16201],[-75.20316,5.16202],[-75.20315,5.16201],[-75.20317,5.16201],[-75.20317,5.162],[-75.20316,5.162],[-75.20316,5.16199],[-75.20316,5.16198],[-75.20315,5.16198],[-75.20315,5.16198],[-75.20314,5.16198],[-75.20314,5.16196],[-75.20313,5.16195],[-75.20314,5.16195],[-75.20314,5.16194],[-75.20313,5.16194],[-75.20313,5.16191],[-75.20314,5.16191],[-75.20313,5.1619],[-75.20313,5.16189],[-75.20312,5.16188],[-75.20311,5.1619],[-75.20313,5.16191],[-75.20312,5.16192],[-75.20311,5.1619],[-75.20308,5.16192],[-75.20308,5.1619],[-75.20308,5.16188],[-75.20306,5.16188],[-75.20306,5.16189],[-75.20307,5.1619],[-75.20306,5.1619],[-75.20306,5.16189],[-75.20305,5.16189],[-75.20306,5.16188],[-75.20304,5.16185],[-75.20303,5.16185],[-75.20302,5.16183],[-75.20301,5.16184],[-75.20299,5.16182],[-75.20298,5.16182],[-75.20297,5.1618],[-75.20295,5.16179],[-75.20301,5.16178],[-75.20301,5.16177],[-75.203,5.16177],[-75.20299,5.16178],[-75.20299,5.16177],[-75.203,5.16177],[-75.203,5.16174],[-75.203,5.16174],[-75.20297,5.16172],[-75.20297,5.16172],[-75.20296,5.16173],[-75.20295,5.16172],[-75.20293,5.16173],[-75.20292,5.16176],[-75.20294,5.16176],[-75.20296,5.16174],[-75.20297,5.16176],[-75.20293,5.16177],[-75.20292,5.16176],[-75.20292,5.16175],[-75.20291,5.16174],[-75.20287,5.16173],[-75.2029,5.16171],[-75.20291,5.16172],[-75.20293,5.16171],[-75.20291,5.1617],[-75.20287,5.16171],[-75.20285,5.1617],[-75.20286,5.16166],[-75.20287,5.16166],[-75.20287,5.16166],[-75.20286,5.16165],[-75.20286,5.16165],[-75.20286,5.16165],[-75.20285,5.16166],[-75.20284,5.16169],[-75.20281,5.16167],[-75.2028,5.16165],[-75.20276,5.16163],[-75.20276,5.16162],[-75.20275,5.16162],[-75.20275,5.16161],[-75.20274,5.16161],[-75.20273,5.16159],[-75.20274,5.16157],[-75.20273,5.16157],[-75.20273,5.16158],[-75.20272,5.16158],[-75.20272,5.16159],[-75.2027,5.16159],[-75.2027,5.1616],[-75.20269,5.16159],[-75.2027,5.16159],[-75.20269,5.16157],[-75.20267,5.16155],[-75.20267,5.16156],[-75.20265,5.16155],[-75.20267,5.16155],[-75.20267,5.16153],[-75.20266,5.16154],[-75.20261,5.1615],[-75.20261,5.16149],[-75.20259,5.16149],[-75.20258,5.16149],[-75.20256,5.16149],[-75.20256,5.16148],[-75.20253,5.16148],[-75.20256,5.16147],[-75.20256,5.16148],[-75.20258,5.16146],[-75.20262,5.16146],[-75.20261,5.16145],[-75.2026,5.16144],[-75.20259,5.16144],[-75.20258,5.16143],[-75.20258,5.16144],[-75.20255,5.16144],[-75.20255,5.16145],[-75.20254,5.16144],[-75.20254,5.16144],[-75.20254,5.16146],[-75.20251,5.16146],[-75.20251,5.16144],[-75.20254,5.16144]],[[-75.20247,5.16143],[-75.20248,5.16144],[-75.20248,5.16144],[-75.20247,5.16143]],[[-75.20247,5.16146],[-75.20248,5.16146],[-75.20248,5.16147],[-75.20247,5.16146]],[[-75.20251,5.16147],[-75.20252,5.16147],[-75.20251,5.16148],[-75.20251,5.16147]],[[-75.20246,5.16148],[-75.20248,5.16148],[-75.20247,5.16149],[-75.20246,5.16148],[-75.20245,5.16148],[-75.20245,5.16149],[-75.20242,5.16148],[-75.20245,5.16148],[-75.20246,5.16147],[-75.20246,5.16148]],[[-75.20252,5.16149],[-75.20253,5.16149],[-75.20252,5.1615],[-75.20252,5.16149]],[[-75.20251,5.16149],[-75.2025,5.1615],[-75.2025,5.16149],[-75.20251,5.16149]],[[-75.20266,5.1616],[-75.20265,5.16159],[-75.20266,5.16159],[-75.20266,5.1616],[-75.20267,5.1616],[-75.20267,5.16161],[-75.20266,5.1616]],[[-75.20265,5.1616],[-75.20264,5.16161],[-75.20263,5.1616],[-75.20265,5.1616]],[[-75.20232,5.16161],[-75.20234,5.16162],[-75.20232,5.16163],[-75.20232,5.16161]],[[-75.20266,5.16165],[-75.20265,5.16165],[-75.20266,5.16164],[-75.20266,5.16165],[-75.20267,5.16165],[-75.20267,5.16166],[-75.20266,5.16165]],[[-75.20273,5.16166],[-75.20275,5.16166],[-75.20274,5.16167],[-75.20273,5.16166]],[[-75.20278,5.16167],[-75.20279,5.16167],[-75.20278,5.16168],[-75.20278,5.16167]],[[-75.20273,5.16169],[-75.20274,5.16168],[-75.20275,5.16168],[-75.20273,5.16169],[-75.20273,5.1617],[-75.20272,5.16169],[-75.20273,5.16169]],[[-75.20258,5.16168],[-75.20257,5.16167],[-75.20258,5.16167],[-75.20258,5.16168]],[[-75.2027,5.16166],[-75.20271,5.16166],[-75.2027,5.16167],[-75.2027,5.16166]],[[-75.20272,5.16171],[-75.20273,5.16172],[-75.20272,5.16172],[-75.20272,5.16171]],[[-75.20282,5.16173],[-75.20283,5.16172],[-75.20284,5.16173],[-75.20282,5.16173],[-75.20282,5.16174],[-75.20282,5.16174],[-75.20281,5.16175],[-75.2028,5.16174],[-75.20282,5.16174],[-75.20282,5.16173],[-75.20282,5.16173]],[[-75.20259,5.16174],[-75.20258,5.16175],[-75.20258,5.16174],[-75.20259,5.16174]],[[-75.20245,5.16176],[-75.20247,5.16176],[-75.20246,5.16177],[-75.20245,5.16176]],[[-75.20291,5.16177],[-75.20292,5.16177],[-75.20291,5.16178],[-75.20291,5.16177]],[[-75.2026,5.16179],[-75.2026,5.16177],[-75.20261,5.16179],[-75.20262,5.16179],[-75.20261,5.1618],[-75.20261,5.16179],[-75.2026,5.16179],[-75.2026,5.1618],[-75.20257,5.1618],[-75.20257,5.16179],[-75.20254,5.1618],[-75.20253,5.16178],[-75.20255,5.16178],[-75.20257,5.16177],[-75.20257,5.16179],[-75.20259,5.16178],[-75.2026,5.16179]],[[-75.20281,5.16179],[-75.20282,5.16179],[-75.20281,5.16181],[-75.20281,5.16179]],[[-75.20295,5.1618],[-75.20296,5.16181],[-75.20295,5.16181],[-75.20295,5.1618]],[[-75.20265,5.1618],[-75.20267,5.16181],[-75.20268,5.16179],[-75.2027,5.16182],[-75.20271,5.16182],[-75.20273,5.16183],[-75.20274,5.16182],[-75.20275,5.16181],[-75.20276,5.16182],[-75.20277,5.16182],[-75.20281,5.16183],[-75.20277,5.16183],[-75.20276,5.16182],[-75.20272,5.16185],[-75.20267,5.16183],[-75.20266,5.16183],[-75.20263,5.16184],[-75.20262,5.16183],[-75.20262,5.16182],[-75.2026,5.16182],[-75.20262,5.16181],[-75.20262,5.1618],[-75.20263,5.16181],[-75.20265,5.16181],[-75.20265,5.1618],[-75.20264,5.1618],[-75.20265,5.16179],[-75.20265,5.1618]],[[-75.20276,5.1618],[-75.20277,5.1618],[-75.20276,5.16181],[-75.20276,5.1618]],[[-75.20282,5.16183],[-75.20283,5.16182],[-75.20284,5.16183],[-75.20282,5.16183],[-75.20282,5.16184],[-75.20281,5.16183],[-75.20282,5.16183]],[[-75.20285,5.16183],[-75.2029,5.16184],[-75.20286,5.16184],[-75.20285,5.16183]],[[-75.20294,5.16185],[-75.20295,5.16185],[-75.20295,5.16186],[-75.20294,5.16185]],[[-75.20296,5.16186],[-75.20297,5.16186],[-75.20296,5.16187],[-75.20296,5.16186]],[[-75.20291,5.16187],[-75.2029,5.16189],[-75.2029,5.16187],[-75.20291,5.16187]],[[-75.20293,5.16188],[-75.20294,5.16188],[-75.20294,5.16189],[-75.20293,5.16188]],[[-75.20277,5.16187],[-75.20276,5.16188],[-75.20276,5.16187],[-75.20277,5.16187]],[[-75.20246,5.16186],[-75.20246,5.16184],[-75.20247,5.16185],[-75.20246,5.16186]],[[-75.20244,5.16185],[-75.20244,5.16183],[-75.20245,5.16184],[-75.20244,5.16185]],[[-75.20247,5.16181],[-75.20246,5.16183],[-75.20245,5.16182],[-75.20247,5.16181],[-75.20247,5.1618],[-75.20246,5.16179],[-75.20247,5.16179],[-75.20248,5.16177],[-75.20248,5.16179],[-75.20249,5.16179],[-75.2025,5.16181],[-75.20249,5.16182],[-75.20247,5.16181]],[[-75.20258,5.16183],[-75.20256,5.16182],[-75.20258,5.16181],[-75.20258,5.16183],[-75.20259,5.16183],[-75.20258,5.16184],[-75.20258,5.16183]],[[-75.2026,5.16183],[-75.20261,5.16183],[-75.2026,5.16184],[-75.2026,5.16183]],[[-75.20251,5.16183],[-75.2025,5.16184],[-75.2025,5.16182],[-75.20251,5.16183]],[[-75.20242,5.16182],[-75.20241,5.16182],[-75.20241,5.16181],[-75.20242,5.16182]],[[-75.20245,5.16179],[-75.20244,5.1618],[-75.20244,5.16179],[-75.20243,5.16178],[-75.20243,5.16178],[-75.20244,5.16179],[-75.20245,5.16179],[-75.20245,5.16178],[-75.20246,5.16178],[-75.20245,5.16179]],[[-75.20252,5.16177],[-75.20253,5.16177],[-75.20252,5.16178],[-75.20252,5.16177]],[[-75.20252,5.16179],[-75.20253,5.16179],[-75.20252,5.16181],[-75.20252,5.16179]],[[-75.2028,5.16185],[-75.20282,5.16185],[-75.2028,5.16186],[-75.2028,5.16185]],[[-75.20294,5.1619],[-75.20295,5.16189],[-75.20295,5.1619],[-75.20294,5.1619],[-75.20294,5.16191],[-75.20293,5.16191],[-75.20294,5.1619]],[[-75.20302,5.16189],[-75.20303,5.1619],[-75.20303,5.16191],[-75.20302,5.16189]],[[-75.20305,5.16191],[-75.20306,5.16192],[-75.20305,5.16192],[-75.20305,5.16191]],[[-75.20309,5.16192],[-75.2031,5.16192],[-75.20309,5.16193],[-75.20309,5.16192]],[[-75.2028,5.16194],[-75.20281,5.16194],[-75.2028,5.16195],[-75.2028,5.16194]],[[-75.20297,5.16197],[-75.20298,5.16197],[-75.20297,5.16198],[-75.20297,5.16197]],[[-75.20284,5.16198],[-75.20283,5.16199],[-75.20283,5.16198],[-75.20284,5.16198]],[[-75.20292,5.16198],[-75.20293,5.16199],[-75.20292,5.162],[-75.20292,5.16198]],[[-75.20285,5.162],[-75.20283,5.16201],[-75.20283,5.16199],[-75.20285,5.162]],[[-75.2029,5.162],[-75.20292,5.16201],[-75.2029,5.16201],[-75.2029,5.162]],[[-75.20313,5.16201],[-75.20314,5.16201],[-75.20313,5.16202],[-75.20313,5.16201]],[[-75.20279,5.16201],[-75.20279,5.16201],[-75.20281,5.16199],[-75.20282,5.16201],[-75.20283,5.16202],[-75.20284,5.16203],[-75.20279,5.16202],[-75.20279,5.16201],[-75.20275,5.16201],[-75.20279,5.162],[-75.20279,5.16201]],[[-75.20272,5.162],[-75.20271,5.16201],[-75.20271,5.16199],[-75.20272,5.162]],[[-75.20273,5.162],[-75.20275,5.16201],[-75.20274,5.16201],[-75.20273,5.162]],[[-75.20271,5.16202],[-75.2027,5.16202],[-75.2027,5.16201],[-75.20271,5.16202]],[[-75.20269,5.16202],[-75.20268,5.16202],[-75.20268,5.16201],[-75.20269,5.16202]],[[-75.20266,5.16202],[-75.20266,5.16203],[-75.20265,5.16202],[-75.20266,5.16202]],[[-75.2027,5.16199],[-75.2027,5.162],[-75.20269,5.16199],[-75.2027,5.16199],[-75.2027,5.16197],[-75.20271,5.16198],[-75.2027,5.16199]],[[-75.20281,5.16198],[-75.20282,5.16198],[-75.20281,5.16199],[-75.20281,5.16198]],[[-75.20277,5.16198],[-75.20277,5.162],[-75.20276,5.16198],[-75.20277,5.16198]],[[-75.20307,5.16204],[-75.20308,5.16204],[-75.20307,5.16205],[-75.20307,5.16204]],[[-75.20307,5.16206],[-75.20309,5.16206],[-75.20308,5.16208],[-75.20307,5.16206]],[[-75.20315,5.16208],[-75.20314,5.16208],[-75.20314,5.16207],[-75.20312,5.16206],[-75.20316,5.16206],[-75.20315,5.16208],[-75.20317,5.16208],[-75.20316,5.1621],[-75.20315,5.16208]],[[-75.20303,5.1621],[-75.20301,5.16208],[-75.20304,5.16209],[-75.20303,5.1621]],[[-75.20295,5.1621],[-75.20296,5.16211],[-75.20295,5.16211],[-75.20295,5.1621],[-75.20294,5.1621],[-75.20295,5.16209],[-75.20295,5.1621]],[[-75.20307,5.16211],[-75.20306,5.16211],[-75.20307,5.1621],[-75.20307,5.16211],[-75.20309,5.16212],[-75.20307,5.16213],[-75.20307,5.16211]],[[-75.2031,5.16211],[-75.20312,5.16212],[-75.2031,5.16213],[-75.2031,5.16211]],[[-75.20287,5.16213],[-75.20286,5.16212],[-75.20289,5.16212],[-75.20287,5.16213]],[[-75.20281,5.16214],[-75.20281,5.16213],[-75.20282,5.16214],[-75.20281,5.16214],[-75.2028,5.16215],[-75.2028,5.16214],[-75.20279,5.16214],[-75.2028,5.16213],[-75.2028,5.16214],[-75.20281,5.16214]],[[-75.20302,5.16214],[-75.20303,5.16214],[-75.20303,5.16215],[-75.20302,5.16214]],[[-75.20301,5.16215],[-75.203,5.16216],[-75.203,5.16215],[-75.20301,5.16215]],[[-75.20293,5.16212],[-75.20294,5.16212],[-75.20294,5.16213],[-75.20293,5.16212]],[[-75.20299,5.16212],[-75.203,5.16212],[-75.20299,5.16213],[-75.20299,5.16212]],[[-75.20304,5.16212],[-75.20304,5.16213],[-75.20303,5.16212],[-75.20304,5.16212],[-75.20304,5.16211],[-75.20305,5.16212],[-75.20304,5.16212]],[[-75.20298,5.16208],[-75.20299,5.16209],[-75.20298,5.16209],[-75.20298,5.16208]],[[-75.20305,5.16208],[-75.20305,5.16209],[-75.20304,5.16209],[-75.20305,5.16208],[-75.20305,5.16207],[-75.20306,5.16208],[-75.20305,5.16208]],[[-75.20301,5.16208],[-75.20301,5.16207],[-75.20302,5.16207],[-75.20301,5.16208]],[[-75.20302,5.16207],[-75.20303,5.16207],[-75.20303,5.16208],[-75.20302,5.16207]],[[-75.2032,5.16221],[-75.20322,5.16221],[-75.20321,5.16222],[-75.2032,5.16221]],[[-75.2032,5.16222],[-75.20318,5.16223],[-75.20318,5.16222],[-75.2032,5.16222]],[[-75.20311,5.16223],[-75.2031,5.16224],[-75.2031,5.16223],[-75.20311,5.16223]],[[-75.2032,5.16224],[-75.20322,5.16225],[-75.20319,5.16226],[-75.2032,5.16224]],[[-75.20313,5.16226],[-75.20312,5.16227],[-75.20311,5.16226],[-75.20313,5.16226]],[[-75.2031,5.16226],[-75.20309,5.16227],[-75.20309,5.16226],[-75.2031,5.16226]],[[-75.20318,5.16224],[-75.20317,5.16225],[-75.20317,5.16224],[-75.20318,5.16224]],[[-75.20316,5.16222],[-75.20317,5.16222],[-75.20316,5.16223],[-75.20316,5.16222]],[[-75.20301,5.16227],[-75.20302,5.16228],[-75.20301,5.16228],[-75.20301,5.16227]],[[-75.20316,5.16228],[-75.20317,5.16229],[-75.20316,5.16229],[-75.20316,5.16228]],[[-75.2031,5.16229],[-75.20309,5.16229],[-75.20309,5.16228],[-75.2031,5.16229]],[[-75.20304,5.1623],[-75.20306,5.1623],[-75.20305,5.16231],[-75.20304,5.1623]]],[[[-75.20143,5.16358],[-75.20141,5.16359],[-75.20141,5.16361],[-75.20144,5.16367],[-75.20147,5.16377],[-75.20153,5.16375],[-75.20158,5.16374],[-75.20156,5.16368],[-75.20159,5.16367],[-75.20165,5.16365],[-75.20159,5.16364],[-75.20155,5.16359],[-75.20151,5.16354],[-75.20143,5.16358]]],[[[-75.20179,5.16384],[-75.20182,5.16386],[-75.20189,5.1639],[-75.2019,5.16389],[-75.20187,5.16387],[-75.20191,5.16378],[-75.20194,5.16379],[-75.20194,5.16383],[-75.20193,5.16384],[-75.20201,5.16389],[-75.20205,5.16383],[-75.20202,5.16381],[-75.20199,5.16378],[-75.20194,5.16374],[-75.20194,5.16373],[-75.20182,5.16364],[-75.20181,5.16364],[-75.2017,5.16366],[-75.20167,5.16377],[-75.20168,5.16378],[-75.20172,5.1638],[-75.20176,5.16382],[-75.20178,5.16384],[-75.20179,5.16384],[-75.20179,5.16384]]],[[[-75.20114,5.16395],[-75.2011,5.16397],[-75.20113,5.16404],[-75.20118,5.16402],[-75.20117,5.16401],[-75.20116,5.16395],[-75.20115,5.16394],[-75.20114,5.16395]]],[[[-75.20201,5.16402],[-75.202,5.16403],[-75.20198,5.16407],[-75.20199,5.16407],[-75.20198,5.16408],[-75.20198,5.16409],[-75.20196,5.16411],[-75.20207,5.16414],[-75.20208,5.16407],[-75.20208,5.16404],[-75.20206,5.16403],[-75.20201,5.16402],[-75.20201,5.16402]]],[[[-75.20103,5.16415],[-75.20108,5.16414],[-75.20108,5.16413],[-75.20107,5.16409],[-75.20108,5.16408],[-75.20108,5.16407],[-75.20105,5.16401],[-75.20105,5.164],[-75.20103,5.16401],[-75.20099,5.16404],[-75.20094,5.16406],[-75.20093,5.16407],[-75.20091,5.16409],[-75.20094,5.16412],[-75.20095,5.16413],[-75.20101,5.16411],[-75.20103,5.16415]]],[[[-75.20084,5.16416],[-75.20084,5.16416],[-75.20084,5.16416],[-75.20084,5.16416]]],[[[-75.20084,5.16418],[-75.20084,5.16418],[-75.20085,5.16418],[-75.20084,5.16418]]],[[[-75.20087,5.16421],[-75.20086,5.1642],[-75.20087,5.16422],[-75.20087,5.16422],[-75.20087,5.16421]]],[[[-75.20087,5.16421],[-75.20089,5.16421],[-75.20089,5.16422],[-75.20091,5.16421],[-75.20091,5.16421],[-75.20092,5.16421],[-75.20092,5.16422],[-75.20097,5.16426],[-75.20096,5.16423],[-75.20095,5.16421],[-75.20094,5.16417],[-75.2009,5.16414],[-75.20085,5.16409],[-75.20098,5.16402],[-75.20097,5.164],[-75.20097,5.16399],[-75.20094,5.16393],[-75.20092,5.16394],[-75.20089,5.16395],[-75.20089,5.16393],[-75.20087,5.16393],[-75.20085,5.16393],[-75.20084,5.16393],[-75.20083,5.16392],[-75.20082,5.16393],[-75.20081,5.16393],[-75.2008,5.16399],[-75.20081,5.16401],[-75.20082,5.16411],[-75.20082,5.16412],[-75.20082,5.16413],[-75.20082,5.16413],[-75.20084,5.16416],[-75.20084,5.16416],[-75.20084,5.16418],[-75.20087,5.16419],[-75.20087,5.16421]],[[-75.20094,5.1642],[-75.20089,5.1642],[-75.20091,5.16419],[-75.20091,5.16419],[-75.20094,5.1642]]],[[[-75.20101,5.16428],[-75.20107,5.16425],[-75.20108,5.16426],[-75.20106,5.16421],[-75.20105,5.16421],[-75.20099,5.16423],[-75.20101,5.16428]]],[[[-75.20182,5.16473],[-75.20188,5.1647],[-75.20188,5.16469],[-75.20198,5.16467],[-75.20196,5.16459],[-75.20189,5.16462],[-75.20186,5.16461],[-75.20184,5.16462],[-75.20182,5.16461],[-75.20173,5.16464],[-75.20176,5.16472],[-75.2018,5.16469],[-75.20182,5.16473]]],[[[-75.20084,5.165],[-75.20084,5.16499],[-75.20087,5.16494],[-75.20089,5.1649],[-75.2009,5.16487],[-75.20082,5.16483],[-75.20081,5.16484],[-75.20082,5.16484],[-75.20081,5.16485],[-75.20081,5.16484],[-75.20075,5.16496],[-75.20084,5.165]],[[-75.20084,5.16496],[-75.20082,5.16497],[-75.20082,5.16495],[-75.20084,5.16496]],[[-75.20077,5.16494],[-75.20077,5.16496],[-75.20076,5.16495],[-75.20077,5.16494],[-75.20078,5.16493],[-75.20079,5.16494],[-75.20077,5.16494]],[[-75.20084,5.16491],[-75.20083,5.16492],[-75.20083,5.16491],[-75.20084,5.16491]],[[-75.20086,5.16488],[-75.20085,5.16488],[-75.20085,5.16487],[-75.20086,5.16488]]],[[[-75.19994,5.16531],[-75.19996,5.16528],[-75.19998,5.16525],[-75.19998,5.16525],[-75.19996,5.16527],[-75.19994,5.16529],[-75.19994,5.16531]]],[[[-75.19994,5.16531],[-75.19993,5.16532],[-75.19994,5.16531],[-75.19994,5.16531]]],[[[-75.19998,5.16536],[-75.19998,5.16536],[-75.19998,5.16535],[-75.19998,5.16536]]],[[[-75.19986,5.16537],[-75.19986,5.16537],[-75.19987,5.16536],[-75.19986,5.16537]]],[[[-75.19995,5.16537],[-75.19995,5.16537],[-75.19996,5.16537],[-75.19995,5.16537]]],[[[-75.20001,5.16536],[-75.20002,5.16537],[-75.20003,5.16537],[-75.20002,5.16537],[-75.20001,5.16533],[-75.2,5.16533],[-75.19999,5.16534],[-75.20001,5.16533],[-75.20001,5.16536]]],[[[-75.20005,5.16539],[-75.20005,5.1654],[-75.20006,5.1654],[-75.20003,5.16538],[-75.20005,5.16539]]],[[[-75.19988,5.16541],[-75.19991,5.1654],[-75.19993,5.16538],[-75.19988,5.16541]]],[[[-75.19978,5.16543],[-75.19978,5.16543],[-75.19978,5.16543],[-75.19978,5.16543]]],[[[-75.20006,5.16544],[-75.20006,5.16544],[-75.20006,5.16544],[-75.20006,5.16544]]],[[[-75.19992,5.1655],[-75.19992,5.1655],[-75.19992,5.1655],[-75.19992,5.1655]]],[[[-75.19957,5.16539],[-75.19955,5.16541],[-75.19953,5.16544],[-75.19951,5.16548],[-75.1995,5.16551],[-75.19954,5.16542],[-75.19958,5.16538],[-75.19957,5.16539]]],[[[-75.19947,5.16555],[-75.19948,5.16555],[-75.19949,5.16552],[-75.19947,5.16555]]],[[[-75.19911,5.1659],[-75.19912,5.16588],[-75.19912,5.16588],[-75.19911,5.1659]]],[[[-75.19906,5.16595],[-75.19903,5.16598],[-75.19902,5.16599],[-75.19905,5.16596],[-75.1991,5.16591],[-75.19906,5.16595]]],[[[-75.19894,5.16605],[-75.19895,5.16605],[-75.19897,5.16603],[-75.19894,5.16605]]],[[[-75.19944,5.1662],[-75.19944,5.16621],[-75.19944,5.1662],[-75.19944,5.1662]]],[[[-75.19869,5.16626],[-75.19869,5.16626],[-75.1987,5.16626],[-75.19869,5.16626]]],[[[-75.19864,5.16632],[-75.19863,5.16633],[-75.19865,5.16632],[-75.19865,5.16631],[-75.19864,5.16632]]]]},"properties":{"FID":0,"OBJECTID":185214,"EXPEDIENTE":" ","OCURRENCIA":0,"DETONANTE":" ","FUENTE":0,"ESTADO":0,"VERIFICADO":0,"OTRAS_ES_G":" ","T_MATER_GT":0,"CLASIF_MAT":" ","COHESION":" ","PESO_UNIT":" ","FRICCION":" ","POROSIDAD":" ","T_MATERIAL":0,"PENDIENTE":0,"N_AGUA_MAX":" ","PRECIPIT":" ","N1_COBERT":0,"N2_COBERT":0,"N3_COBERT":0,"N4_COBERT":0,"N5_COBERT":0,"N6_COBERT":0,"NOMENCLAT":" ","USO_ACT":0,"RETORNO":0,"ACC_MAX":0,"FACT_AMP":0,"FS":0,"ESCE_MM":0,"GRAD_ESTA":0,"Z_MM":0,"DES_EST_FS":" ","SUSCEP_RAN":" ","SUSCEP_MM":0,"PROB_AME":" ","AME_MM_RA":2,"AME_MM_VAL":"3","OBSERV":" ","AREA_ha":0,"Shape_Leng":8218.68925242,"Shape_Area":55534.2193461,"Condicion":"Media"}},{"type":"Feature","id":1,"geometry":{"type":"MultiPolygon","coordinates":[[[[-75.20081,5.16411],[-75.20082,5.16412],[-75.20082,5.16411],[-75.20081,5.16411]]],[[[-75.20084,5.16416],[-75.20082,5.16413],[-75.20082,5.16413],[-75.20084,5.16416],[-75.20084,5.16416]]],[[[-75.20084,5.16416],[-75.20084,5.16416],[-75.20084,5.16418],[-75.20084,5.16418],[-75.20084,5.16416],[-75.20084,5.16416]]],[[[-75.20091,5.16419],[-75.20089,5.1642],[-75.20094,5.1642],[-75.20091,5.16419],[-75.20091,5.16419]]],[[[-75.20084,5.16418],[-75.20085,5.16418],[-75.20086,5.1642],[-75.20087,5.16421],[-75.20087,5.16419],[-75.20084,5.16418]]],[[[-75.20091,5.16421],[-75.20092,5.16422],[-75.20092,5.16421],[-75.20091,5.16421]]],[[[-75.20087,5.16421],[-75.20087,5.16422],[-75.20089,5.16422],[-75.20089,5.16421],[-75.20087,5.16421]]],[[[-75.20081,5.16484],[-75.20081,5.16485],[-75.20082,5.16484],[-75.20081,5.16484],[-75.20081,5.16484]]],[[[-75.20085,5.16488],[-75.20086,5.16488],[-75.20085,5.16487],[-75.20085,5.16488]]],[[[-75.20083,5.16492],[-75.20084,5.16491],[-75.20083,5.16491],[-75.20083,5.16492]]],[[[-75.20077,5.16494],[-75.20079,5.16494],[-75.20078,5.16493],[-75.20077,5.16494]]],[[[-75.20077,5.16494],[-75.20076,5.16495],[-75.20077,5.16496],[-75.20077,5.16494]]],[[[-75.20082,5.16497],[-75.20084,5.16496],[-75.20082,5.16495],[-75.20082,5.16497]]],[[[-75.20005,5.16546],[-75.20006,5.16547],[-75.20007,5.16548],[-75.20008,5.16546],[-75.2001,5.16544],[-75.20012,5.16541],[-75.20011,5.16539],[-75.20012,5.16537],[-75.20011,5.16535],[-75.2001,5.16534],[-75.2001,5.16533],[-75.20011,5.16533],[-75.20012,5.16533],[-75.20011,5.16531],[-75.2001,5.1653],[-75.20008,5.16529],[-75.20006,5.16528],[-75.20004,5.16527],[-75.20003,5.16526],[-75.2,5.16524],[-75.19999,5.16523],[-75.19998,5.16525],[-75.19996,5.16528],[-75.19994,5.16531],[-75.19994,5.16531],[-75.19993,5.16532],[-75.19992,5.16532],[-75.1999,5.16534],[-75.19988,5.16536],[-75.19987,5.16536],[-75.19986,5.16537],[-75.19986,5.16537],[-75.19985,5.16537],[-75.19983,5.16537],[-75.19981,5.16537],[-75.19977,5.16536],[-75.19975,5.16536],[-75.19973,5.16536],[-75.19971,5.16535],[-75.19967,5.16535],[-75.19965,5.16536],[-75.19962,5.16536],[-75.19959,5.16537],[-75.19958,5.16538],[-75.19954,5.16542],[-75.1995,5.16551],[-75.19949,5.16552],[-75.19949,5.16552],[-75.19948,5.16555],[-75.19948,5.16558],[-75.19954,5.16552],[-75.19953,5.16551],[-75.19953,5.1655],[-75.19955,5.16548],[-75.19956,5.16549],[-75.19958,5.16547],[-75.19956,5.16546],[-75.19956,5.16544],[-75.19959,5.16542],[-75.1996,5.16544],[-75.19966,5.16539],[-75.19969,5.16544],[-75.19968,5.16545],[-75.19968,5.16547],[-75.1997,5.16548],[-75.19971,5.16549],[-75.19974,5.16549],[-75.19977,5.1655],[-75.19978,5.16551],[-75.1998,5.16553],[-75.19982,5.16554],[-75.19984,5.16555],[-75.19987,5.16554],[-75.19988,5.16553],[-75.19989,5.16553],[-75.19991,5.16554],[-75.19993,5.16554],[-75.19994,5.16553],[-75.19996,5.16553],[-75.19999,5.16553],[-75.20001,5.16552],[-75.20002,5.16552],[-75.20004,5.1655],[-75.20004,5.16549],[-75.20005,5.16546],[-75.20002,5.16547],[-75.2,5.16548],[-75.2,5.16549],[-75.19998,5.1655],[-75.19996,5.1655],[-75.19995,5.16549],[-75.19992,5.1655],[-75.19992,5.1655],[-75.19992,5.1655],[-75.19992,5.1655],[-75.19987,5.1655],[-75.19982,5.1655],[-75.1998,5.16549],[-75.19979,5.16546],[-75.19978,5.16543],[-75.19978,5.16543],[-75.19978,5.16543],[-75.19978,5.16543],[-75.1998,5.16541],[-75.19982,5.16542],[-75.19985,5.16542],[-75.19988,5.16541],[-75.19988,5.16541],[-75.19993,5.16538],[-75.19994,5.16538],[-75.19995,5.16537],[-75.19995,5.16537],[-75.19996,5.16537],[-75.19998,5.16536],[-75.19998,5.16535],[-75.19999,5.16534],[-75.19999,5.16534],[-75.2,5.16533],[-75.20001,5.16533],[-75.20002,5.16537],[-75.20003,5.16537],[-75.20003,5.16537],[-75.20003,5.16538],[-75.20006,5.1654],[-75.20005,5.1654],[-75.20006,5.16544],[-75.20006,5.16544],[-75.20006,5.16544],[-75.20006,5.16544],[-75.20005,5.16546]]],[[[-75.19811,5.16687],[-75.19811,5.16687],[-75.19805,5.16696],[-75.19803,5.16698],[-75.198,5.16702],[-75.19792,5.16711],[-75.19797,5.16712],[-75.19801,5.16713],[-75.1981,5.16717],[-75.19825,5.16702],[-75.19837,5.16711],[-75.1985,5.16719],[-75.19861,5.16724],[-75.19868,5.16727],[-75.19868,5.16727],[-75.19889,5.16729],[-75.19908,5.16725],[-75.19909,5.16723],[-75.1991,5.16721],[-75.19913,5.16703],[-75.19913,5.16703],[-75.19912,5.16699],[-75.19911,5.16693],[-75.19913,5.1669],[-75.19914,5.16685],[-75.19917,5.16677],[-75.19919,5.16673],[-75.19922,5.16667],[-75.19925,5.16659],[-75.19928,5.16655],[-75.19933,5.16649],[-75.19937,5.16642],[-75.1994,5.16636],[-75.19941,5.1663],[-75.19944,5.16621],[-75.19944,5.16621],[-75.19944,5.1662],[-75.19944,5.1662],[-75.19946,5.16615],[-75.19949,5.16613],[-75.19952,5.1661],[-75.19952,5.16608],[-75.19952,5.16606],[-75.1995,5.16604],[-75.1995,5.16603],[-75.19951,5.16599],[-75.19952,5.16598],[-75.19952,5.16597],[-75.1995,5.16597],[-75.19948,5.16597],[-75.19946,5.16595],[-75.19945,5.16593],[-75.19944,5.16591],[-75.19942,5.16592],[-75.19939,5.16592],[-75.19936,5.16593],[-75.19935,5.16595],[-75.19933,5.16596],[-75.19933,5.16599],[-75.19935,5.16601],[-75.19936,5.16602],[-75.19937,5.16603],[-75.19937,5.16606],[-75.19935,5.16608],[-75.19934,5.1661],[-75.19932,5.16611],[-75.19928,5.1661],[-75.19924,5.1661],[-75.19922,5.1661],[-75.19921,5.1661],[-75.19919,5.16611],[-75.19916,5.16609],[-75.19916,5.16608],[-75.19917,5.16607],[-75.19918,5.16606],[-75.19918,5.16606],[-75.19917,5.16605],[-75.19917,5.16604],[-75.19916,5.16603],[-75.19916,5.16602],[-75.19917,5.16601],[-75.19918,5.166],[-75.19918,5.16599],[-75.19918,5.16598],[-75.19917,5.16598],[-75.19916,5.16597],[-75.19915,5.16598],[-75.19915,5.16598],[-75.19913,5.16597],[-75.19912,5.16595],[-75.19912,5.16593],[-75.19912,5.16591],[-75.19912,5.1659],[-75.19912,5.16589],[-75.19912,5.16588],[-75.19911,5.1659],[-75.1991,5.1659],[-75.1991,5.16591],[-75.19905,5.16596],[-75.19902,5.16599],[-75.199,5.16601],[-75.19897,5.16603],[-75.19897,5.16603],[-75.19895,5.16605],[-75.19894,5.16605],[-75.19894,5.16605],[-75.19893,5.16606],[-75.19892,5.16607],[-75.19888,5.16609],[-75.19885,5.1661],[-75.19886,5.16612],[-75.19886,5.16612],[-75.19889,5.16618],[-75.19888,5.16619],[-75.19887,5.16621],[-75.19886,5.16622],[-75.19886,5.16623],[-75.19884,5.16624],[-75.19883,5.16624],[-75.19882,5.16625],[-75.19881,5.16624],[-75.1988,5.16625],[-75.19878,5.16626],[-75.19877,5.16627],[-75.19876,5.16629],[-75.19874,5.1663],[-75.19872,5.16629],[-75.19872,5.16627],[-75.19871,5.16625],[-75.1987,5.16626],[-75.19869,5.16626],[-75.19869,5.16626],[-75.19868,5.16627],[-75.19867,5.1663],[-75.19865,5.16631],[-75.19865,5.16632],[-75.19863,5.16633],[-75.19861,5.16634],[-75.19857,5.16636],[-75.19852,5.16637],[-75.19849,5.16638],[-75.19851,5.1664],[-75.19853,5.16638],[-75.19853,5.16639],[-75.19855,5.16638],[-75.19856,5.16639],[-75.19857,5.16641],[-75.19855,5.16643],[-75.19854,5.16644],[-75.19853,5.16647],[-75.19851,5.16649],[-75.19848,5.16653],[-75.19845,5.16651],[-75.19841,5.16647],[-75.1984,5.16647],[-75.19839,5.16647],[-75.19836,5.16653],[-75.19832,5.16657],[-75.1983,5.1666],[-75.19828,5.16662],[-75.19825,5.16665],[-75.19823,5.16666],[-75.19821,5.16669],[-75.19818,5.16672],[-75.19817,5.16675],[-75.19815,5.16678],[-75.19813,5.16681],[-75.19813,5.16683],[-75.19812,5.16686],[-75.19811,5.16687],[-75.19814,5.16688],[-75.19822,5.1669],[-75.19819,5.16699],[-75.19812,5.16696],[-75.19814,5.16688],[-75.19811,5.16687],[-75.19811,5.16687]],[[-75.19807,5.16708],[-75.19806,5.16707],[-75.19806,5.16707],[-75.19807,5.16708],[-75.19809,5.16711],[-75.19811,5.16709],[-75.19813,5.16712],[-75.19812,5.16714],[-75.1981,5.16715],[-75.19809,5.16715],[-75.19808,5.16715],[-75.19807,5.16713],[-75.19804,5.1671],[-75.19807,5.16708]],[[-75.19834,5.16666],[-75.19832,5.16668],[-75.19833,5.1667],[-75.19835,5.16671],[-75.19837,5.16672],[-75.19837,5.16672],[-75.19835,5.16674],[-75.19834,5.16676],[-75.19833,5.16676],[-75.19831,5.16674],[-75.1983,5.16675],[-75.19824,5.1667],[-75.19825,5.16668],[-75.19826,5.16667],[-75.19828,5.16664],[-75.1983,5.16666],[-75.19831,5.16663],[-75.19834,5.16666]]]]},"properties":{"FID":1,"OBJECTID":185215,"EXPEDIENTE":" ","OCURRENCIA":0,"DETONANTE":" ","FUENTE":0,"ESTADO":0,"VERIFICADO":0,"OTRAS_ES_G":" ","T_MATER_GT":0,"CLASIF_MAT":" ","COHESION":" ","PESO_UNIT":" ","FRICCION":" ","POROSIDAD":" ","T_MATERIAL":0,"PENDIENTE":0,"N_AGUA_MAX":" ","PRECIPIT":" ","N1_COBERT":0,"N2_COBERT":0,"N3_COBERT":0,"N4_COBERT":0,"N5_COBERT":0,"N6_COBERT":0,"NOMENCLAT":" ","USO_ACT":0,"RETORNO":0,"ACC_MAX":0,"FACT_AMP":0,"FS":0,"ESCE_MM":0,"GRAD_ESTA":0,"Z_MM":0,"DES_EST_FS":" ","SUSCEP_RAN":" ","SUSCEP_MM":0,"PROB_AME":" ","AME_MM_RA":1,"AME_MM_VAL":"1","OBSERV":" ","AREA_ha":0,"Shape_Leng":2938.35858119,"Shape_Area":29103.9053414,"Condicion":"Alta"}}]}