{"type":"FeatureCollection","name":"Eventos Villamaria","crs":{"type":"name","properties":{"name":"urn:ogc:def:crs:OGC:1.3:CRS84"}},"features":[{"type":"Feature","id":16735889,"geometry":{"type":"Point","coordinates":[-75.50562,5.03412]},"properties":{"codigo":"DES_215","eam_codigo":"EAM849","localizacion":"TURIN  HACIENDA CUBA","fecha":"2017-04-19","observacion_evento":"GRUPO 4","barrio":null,"municipio":"873","departamento":"17","recomendaciones_definidas":"Reforestación;Obras Bioingenieriles;Drenajes;Construir Zanjas Colectoras","recomendaciones_inmediatas":"Captación de Afloramiento de Aguas;Monitoreo Visual;Perfilado del Talud","tipo":"Deslizamiento-Flujo","subtipo":"Traslacional","cicatrices":"Si","ancho_promedio":"50 MTS","longitud_promedio":"20 MTS","espesor_promedio":"1.5 MTS","espesor_maximo":"2.5 MTS","escarpe":"Recto","forma_de_la_ladera":"Recta","suelos_fallados":"Fluidos","afloramientos":"En el cuerpo del deslizamiento","numero_de_muertes":"No","edificaciones_destruidas":"No","edificaciones_parcial_afecta":"No","viviendas_evacuadas":"No","coordenada_x":"841615.7","coordenada_y":"1048599","sue_fallados_cond_geotec":"Suelo Orgánico;Cenizas Volcánicas;Otros","factores_antropicos":"Sobrepastoreo","uso_del_suelo":"Pasto","obras_est_manejo_aguas_lluvias":null,"suelos_expuestos":"Suelo Orgánico;Cenizas Volcánicas;Otros","no_ednes_destruidas":0,"no_ednes_parcial_afectadas":0,"no_viviendas_evacuadas":0,"longitud_del_recorrido":"50 MTS","prioridad":"No Aplica","observacion":"VIAS AFECTADAS : 1 INTERNA","year":2017,"oid":16735889}},{"type":"Feature","id":16735977,"geometry":{"type":"Point","coordinates":[-75.62191,5.0404]},"properties":{"codigo":"DES_480","eam_codigo":"EAM1105","localizacion":"barrio La Floresta , calle 16A , municipio Villamaria","fecha":null,"observacion_evento":null,"barrio":null,"municipio":"873","departamento":"17","recomendaciones_definidas":"revision de las redes de alcantarillado y acueducto en ambas vias; sellamiento de grietas existentes sobre el pavimento; suspender el trafico vehicular de la via proxima a la corona del talud ya uqe no cuenta con terreno de soporte; reconstruccion de losas de pavimento afectadasy la construccion de un muro lateral de confinamiento sobre el talud inferior de la via (calle 6a)","recomendaciones_inmediatas":null,"tipo":"Deslizamiento","subtipo":null,"cicatrices":null,"ancho_promedio":"","longitud_promedio":"","espesor_promedio":"","espesor_maximo":null,"escarpe":null,"forma_de_la_ladera":null,"suelos_fallados":null,"afloramientos":null,"numero_de_muertes":"No","edificaciones_destruidas":null,"edificaciones_parcial_afecta":"Si","viviendas_evacuadas":"","coordenada_x":"828716.917","coordenada_y":"1049322.228","sue_fallados_cond_geotec":"","factores_antropicos":"fuga de aguas de la red de alcantarillado y la ausencia de muro de confinamiento sobre el talud inferior; infiltracion de aguas por las grietas del pavimento","uso_del_suelo":null,"obras_est_manejo_aguas_lluvias":null,"suelos_expuestos":null,"no_ednes_destruidas":null,"no_ednes_parcial_afectadas":null,"no_viviendas_evacuadas":null,"longitud_del_recorrido":null,"prioridad":null,"observacion":"hundimiento - Estado: Inactivo. Afectacion: pavimentos de 2 vias","year":null,"oid":16735977}},{"type":"Feature","id":16735978,"geometry":{"type":"Point","coordinates":[-75.51826,5.04825]},"properties":{"codigo":"DES_481","eam_codigo":"EAM1106","localizacion":"barrio Polideportivo, municipio Villamaria","fecha":null,"observacion_evento":null,"barrio":null,"municipio":"873","departamento":"17","recomendaciones_definidas":"sellamiento de grietas con material arcilloso, realizar cubrimiento con plastico el  area circundante; revision de los canales y bajantes instalados en los techos de las viviendas; construccion de una pantalla pasiva acompañadas con estructuras para el manejo de aguas de escorrentia superficial ; realizar monitoreo continuo al terreno ","recomendaciones_inmediatas":null,"tipo":"Deslizamiento","subtipo":null,"cicatrices":null,"ancho_promedio":"0.5","longitud_promedio":"0.8","espesor_promedio":"","espesor_maximo":null,"escarpe":null,"forma_de_la_ladera":null,"suelos_fallados":null,"afloramientos":null,"numero_de_muertes":"No","edificaciones_destruidas":null,"edificaciones_parcial_afecta":"","viviendas_evacuadas":"","coordenada_x":"840216.927","coordenada_y":"1050164.953","sue_fallados_cond_geotec":"","factores_antropicos":"saturacion del terreno, favorecida por la presencia d lluvias de alta intensidad y duracion; pendiente fuerte con cobertura vegetal de porte medio","uso_del_suelo":null,"obras_est_manejo_aguas_lluvias":null,"suelos_expuestos":null,"no_ednes_destruidas":null,"no_ednes_parcial_afectadas":null,"no_viviendas_evacuadas":null,"longitud_del_recorrido":null,"prioridad":null,"observacion":"deslizamiento superficial - Estado: Activo","year":null,"oid":16735978}},{"type":"Feature","id":16735980,"geometry":{"type":"Point","coordinates":[-75.47965,5.03181]},"properties":{"codigo":"DES_482","eam_codigo":"EAM1107","localizacion":"Crematorio Juana de Arco, Villamaria","fecha":null,"observacion_evento":null,"barrio":null,"municipio":"873","departamento":"17","recomendaciones_definidas":"monitoreo con maguera de nivel y visual del talud; la cobertura del talud expuesto  con plastico como medida preventiva temporal;mantener el manejo de aguas del sitio aislado de la edificacion; sellamiento de grietas con material impermeable o bituminoso a fin de evitar infiltracion del agua; no se recomienda la permanencia del personal en kla edificacion; reubicacion definitiva del crematorio","recomendaciones_inmediatas":null,"tipo":"Deslizamiento","subtipo":null,"cicatrices":null,"ancho_promedio":"","longitud_promedio":"","espesor_promedio":"","espesor_maximo":null,"escarpe":null,"forma_de_la_ladera":null,"suelos_fallados":null,"afloramientos":null,"numero_de_muertes":"No","edificaciones_destruidas":null,"edificaciones_parcial_afecta":"Si","viviendas_evacuadas":"","coordenada_x":"844495.934","coordenada_y":"1048336.625","sue_fallados_cond_geotec":"","factores_antropicos":"ocurrencias de lluvias de intnsidad y duracion importante","uso_del_suelo":null,"obras_est_manejo_aguas_lluvias":null,"suelos_expuestos":null,"no_ednes_destruidas":null,"no_ednes_parcial_afectadas":null,"no_viviendas_evacuadas":null,"longitud_del_recorrido":null,"prioridad":null,"observacion":"deslizamiento superficial - Afectacion: crematorio","year":null,"oid":16735980}},{"type":"Feature","id":16736047,"geometry":{"type":"Point","coordinates":[-75.49195,4.95354]},"properties":{"codigo":"DES_714","eam_codigo":"EAM1271","localizacion":null,"fecha":null,"observacion_evento":null,"barrio":null,"municipio":"873","departamento":"17","recomendaciones_definidas":null,"recomendaciones_inmediatas":null,"tipo":"Ninguno","subtipo":"Ninguno","cicatrices":null,"ancho_promedio":null,"longitud_promedio":null,"espesor_promedio":null,"espesor_maximo":null,"escarpe":"Ninguno","forma_de_la_ladera":"Ninguno","suelos_fallados":"Ninguno","afloramientos":"Ninguno","numero_de_muertes":null,"edificaciones_destruidas":null,"edificaciones_parcial_afecta":null,"viviendas_evacuadas":null,"coordenada_x":"843113","coordenada_y":"1039682","sue_fallados_cond_geotec":null,"factores_antropicos":null,"uso_del_suelo":null,"obras_est_manejo_aguas_lluvias":null,"suelos_expuestos":null,"no_ednes_destruidas":null,"no_ednes_parcial_afectadas":null,"no_viviendas_evacuadas":null,"longitud_del_recorrido":null,"prioridad":"Inmediata","observacion":null,"year":null,"oid":16736047}},{"type":"Feature","id":16736048,"geometry":{"type":"Point","coordinates":[-75.48461,4.92645]},"properties":{"codigo":"DES_716","eam_codigo":"EAM1272","localizacion":null,"fecha":null,"observacion_evento":null,"barrio":null,"municipio":"873","departamento":"17","recomendaciones_definidas":null,"recomendaciones_inmediatas":null,"tipo":"Ninguno","subtipo":"Ninguno","cicatrices":null,"ancho_promedio":null,"longitud_promedio":null,"espesor_promedio":null,"espesor_maximo":null,"escarpe":"Ninguno","forma_de_la_ladera":"Ninguno","suelos_fallados":"Ninguno","afloramientos":"Ninguno","numero_de_muertes":null,"edificaciones_destruidas":null,"edificaciones_parcial_afecta":null,"viviendas_evacuadas":null,"coordenada_x":"843920.44","coordenada_y":"1036684","sue_fallados_cond_geotec":null,"factores_antropicos":null,"uso_del_suelo":null,"obras_est_manejo_aguas_lluvias":null,"suelos_expuestos":null,"no_ednes_destruidas":null,"no_ednes_parcial_afectadas":null,"no_viviendas_evacuadas":null,"longitud_del_recorrido":null,"prioridad":"Inmediata","observacion":null,"year":null,"oid":16736048}},{"type":"Feature","id":16736096,"geometry":{"type":"Point","coordinates":[-75.52165,5.01717]},"properties":{"codigo":"DES_717","eam_codigo":"EAM1241","localizacion":null,"fecha":null,"observacion_evento":null,"barrio":null,"municipio":"873","departamento":"17","recomendaciones_definidas":null,"recomendaciones_inmediatas":null,"tipo":"Ninguno","subtipo":"Ninguno","cicatrices":null,"ancho_promedio":null,"longitud_promedio":null,"espesor_promedio":null,"espesor_maximo":null,"escarpe":"Ninguno","forma_de_la_ladera":"Ninguno","suelos_fallados":"Ninguno","afloramientos":"Ninguno","numero_de_muertes":null,"edificaciones_destruidas":null,"edificaciones_parcial_afecta":null,"viviendas_evacuadas":null,"coordenada_x":"839833.02","coordenada_y":"1046727.67","sue_fallados_cond_geotec":null,"factores_antropicos":null,"uso_del_suelo":null,"obras_est_manejo_aguas_lluvias":null,"suelos_expuestos":null,"no_ednes_destruidas":null,"no_ednes_parcial_afectadas":null,"no_viviendas_evacuadas":null,"longitud_del_recorrido":null,"prioridad":"Inmediata","observacion":null,"year":null,"oid":16736096}},{"type":"Feature","id":16736129,"geometry":{"type":"Point","coordinates":[-75.38169,4.96852]},"properties":{"codigo":"DES_718","eam_codigo":"EAM1275","localizacion":null,"fecha":null,"observacion_evento":null,"barrio":null,"municipio":"873","departamento":"17","recomendaciones_definidas":null,"recomendaciones_inmediatas":null,"tipo":"Ninguno","subtipo":"Ninguno","cicatrices":null,"ancho_promedio":null,"longitud_promedio":null,"espesor_promedio":null,"espesor_maximo":null,"escarpe":"Ninguno","forma_de_la_ladera":"Ninguno","suelos_fallados":"Ninguno","afloramientos":"Ninguno","numero_de_muertes":null,"edificaciones_destruidas":null,"edificaciones_parcial_afecta":null,"viviendas_evacuadas":null,"coordenada_x":"855348","coordenada_y":"1041314","sue_fallados_cond_geotec":null,"factores_antropicos":null,"uso_del_suelo":null,"obras_est_manejo_aguas_lluvias":null,"suelos_expuestos":null,"no_ednes_destruidas":null,"no_ednes_parcial_afectadas":null,"no_viviendas_evacuadas":null,"longitud_del_recorrido":null,"prioridad":"Inmediata","observacion":null,"year":null,"oid":16736129}},{"type":"Feature","id":16736141,"geometry":{"type":"Point","coordinates":[-75.49366,5.03411]},"properties":{"codigo":"DES_23","eam_codigo":"EAM656","localizacion":"PESEBRERA SANTACRUZ (Sector Los Molinos Villamaría)","fecha":"2011-02-04","observacion_evento":null,"barrio":null,"municipio":"873","departamento":"17","recomendaciones_definidas":"Estudio geológico geotécnico-Obras de contención-Otras","recomendaciones_inmediatas":"Cubrir con plástico (área afectada)","tipo":"Deslizamiento","subtipo":"Traslacional","cicatrices":"No","ancho_promedio":"15","longitud_promedio":"10","espesor_promedio":null,"espesor_maximo":null,"escarpe":"Recto","forma_de_la_ladera":"Recta","suelos_fallados":"Poco Humedos","afloramientos":"En el cuerpo del deslizamiento","numero_de_muertes":"No","edificaciones_destruidas":"No","edificaciones_parcial_afecta":"No","viviendas_evacuadas":"No","coordenada_x":"842941.895","coordenada_y":"1048594.576","sue_fallados_cond_geotec":"Rellenos de Cauce-Suelo Orgánico-Cenizas Volcánicas","factores_antropicos":"Otros","uso_del_suelo":"Pasto","obras_est_manejo_aguas_lluvias":null,"suelos_expuestos":"Rellenos de Cauce-Suelo Orgánico-Cenizas Volcánicas","no_ednes_destruidas":null,"no_ednes_parcial_afectadas":null,"no_viviendas_evacuadas":null,"longitud_del_recorrido":"12","prioridad":null,"observacion":null,"year":2011,"oid":16736141}},{"type":"Feature","id":16736150,"geometry":{"type":"Point","coordinates":[-75.48494,5.03843]},"properties":{"codigo":"DES_47","eam_codigo":"EAM684","localizacion":"JARDINES DE LA ESPERANZA","fecha":"2017-04-20","observacion_evento":"Grupo 4.\nSobre la vía panamericana, al frente de jardines La esperanza. Presencia de grietas.","barrio":null,"municipio":"873","departamento":"17","recomendaciones_definidas":"Obras de Contención","recomendaciones_inmediatas":"Cubrir con Plástico (Àrea Afectada);Monitoreo Visual;Señalizar","tipo":"Deslizamiento-Flujo","subtipo":"Traslacional","cicatrices":null,"ancho_promedio":"80","longitud_promedio":"15","espesor_promedio":null,"espesor_maximo":null,"escarpe":"Ninguno","forma_de_la_ladera":"Ninguno","suelos_fallados":"Ninguno","afloramientos":"Ninguno","numero_de_muertes":null,"edificaciones_destruidas":null,"edificaciones_parcial_afecta":null,"viviendas_evacuadas":null,"coordenada_x":"843910","coordenada_y":"1049070","sue_fallados_cond_geotec":"Formación Manizales","factores_antropicos":"Sobrecargas","uso_del_suelo":null,"obras_est_manejo_aguas_lluvias":null,"suelos_expuestos":"Formación Manizales","no_ednes_destruidas":null,"no_ednes_parcial_afectadas":null,"no_viviendas_evacuadas":null,"longitud_del_recorrido":null,"prioridad":"Inmediata","observacion":"Vías afectadas: 1","year":2017,"oid":16736150}},{"type":"Feature","id":16736183,"geometry":{"type":"Point","coordinates":[-75.37965,4.96965]},"properties":{"codigo":"DES_719","eam_codigo":"EAM1276","localizacion":null,"fecha":null,"observacion_evento":null,"barrio":null,"municipio":"873","departamento":"17","recomendaciones_definidas":null,"recomendaciones_inmediatas":null,"tipo":"Ninguno","subtipo":"Ninguno","cicatrices":null,"ancho_promedio":null,"longitud_promedio":null,"espesor_promedio":null,"espesor_maximo":null,"escarpe":"Ninguno","forma_de_la_ladera":"Ninguno","suelos_fallados":"Ninguno","afloramientos":"Ninguno","numero_de_muertes":null,"edificaciones_destruidas":null,"edificaciones_parcial_afecta":null,"viviendas_evacuadas":null,"coordenada_x":"855574","coordenada_y":"1041438","sue_fallados_cond_geotec":null,"factores_antropicos":null,"uso_del_suelo":null,"obras_est_manejo_aguas_lluvias":null,"suelos_expuestos":null,"no_ednes_destruidas":null,"no_ednes_parcial_afectadas":null,"no_viviendas_evacuadas":null,"longitud_del_recorrido":null,"prioridad":"Inmediata","observacion":null,"year":null,"oid":16736183}},{"type":"Feature","id":16736186,"geometry":{"type":"Point","coordinates":[-75.49223,5.03519]},"properties":{"codigo":"DES_142","eam_codigo":"EAM783","localizacion":"LOS MOLINOS ","fecha":"2017-04-19","observacion_evento":"GRUPO No. 4","barrio":null,"municipio":"873","departamento":"17","recomendaciones_definidas":"Construir Zanjas Colectoras","recomendaciones_inmediatas":"Cubrir con Plástico (Àrea Afectada)","tipo":"Movimientos Lentos","subtipo":"Traslacional","cicatrices":"Si","ancho_promedio":"2 mts","longitud_promedio":"2 mts","espesor_promedio":null,"espesor_maximo":null,"escarpe":"Ninguno","forma_de_la_ladera":"Ninguno","suelos_fallados":"Ninguno","afloramientos":"No presenta","numero_de_muertes":"No","edificaciones_destruidas":"No","edificaciones_parcial_afecta":"No","viviendas_evacuadas":"No","coordenada_x":"843100.8466","coordenada_y":"1048714.0669","sue_fallados_cond_geotec":"Suelo Orgánico","factores_antropicos":"Areas sin Pavimentar","uso_del_suelo":"Mezcla Rastrojo, Pasto, Àrboles","obras_est_manejo_aguas_lluvias":null,"suelos_expuestos":"Suelo Orgánico","no_ednes_destruidas":0,"no_ednes_parcial_afectadas":0,"no_viviendas_evacuadas":0,"longitud_del_recorrido":null,"prioridad":"Inmediata","observacion":null,"year":2017,"oid":16736186}},{"type":"Feature","id":16736187,"geometry":{"type":"Point","coordinates":[-75.49238,5.0365]},"properties":{"codigo":"DES_143","eam_codigo":"EAM784","localizacion":null,"fecha":"2017-04-19","observacion_evento":"GRUPO 4 - LOS MOLINOS VILLAMARIA ","barrio":null,"municipio":"873","departamento":"17","recomendaciones_definidas":"Instrumentación Topográfica;Reforestación;Obras Bioingenieriles;Construir Zanjas Colectoras","recomendaciones_inmediatas":"Cubrir con Plástico (Àrea Afectada);Monitoreo Visual;Perfilado del Talud","tipo":"Deslizamiento","subtipo":"Ninguno","cicatrices":"Si","ancho_promedio":"1.5 MTS","longitud_promedio":"2 MTS","espesor_promedio":"0.2 MTS","espesor_maximo":null,"escarpe":"Recto","forma_de_la_ladera":"Recta","suelos_fallados":"Poco Humedos","afloramientos":"No presenta","numero_de_muertes":"No","edificaciones_destruidas":"No","edificaciones_parcial_afecta":"No","viviendas_evacuadas":"No","coordenada_x":"843084.2122","coordenada_y":"1048858.5210","sue_fallados_cond_geotec":"Rellenos de Ladera ","factores_antropicos":"Arrojo Basuras, Residuos o Escombros","uso_del_suelo":"Rastrojo","obras_est_manejo_aguas_lluvias":null,"suelos_expuestos":"Rellenos de Ladera ;Suelo Orgánico","no_ednes_destruidas":null,"no_ednes_parcial_afectadas":null,"no_viviendas_evacuadas":null,"longitud_del_recorrido":"4 MTS","prioridad":"Inmediata","observacion":"CLAUDIA LILIANA MORALES ( MADRE COMUNITARIA - 12 NIÑOS )","year":2017,"oid":16736187}},{"type":"Feature","id":16736188,"geometry":{"type":"Point","coordinates":[-75.51793,5.01426]},"properties":{"codigo":"DES_202","eam_codigo":"EAM843","localizacion":null,"fecha":"2017-04-19","observacion_evento":null,"barrio":null,"municipio":"873","departamento":"17","recomendaciones_definidas":"Instrumentación Topográfica;Terraceo","recomendaciones_inmediatas":"Desvío Temporal de Aguas Lluvias;Monitoreo Visual;Perfilado del Talud;Señalizar","tipo":"Deslizamiento","subtipo":"Compuesto","cicatrices":"Si","ancho_promedio":"35","longitud_promedio":"35","espesor_promedio":"6M","espesor_maximo":"6M","escarpe":"Irregular","forma_de_la_ladera":"Concava","suelos_fallados":"Muy Humedos","afloramientos":"En el cuerpo del deslizamiento","numero_de_muertes":"No","edificaciones_destruidas":"No","edificaciones_parcial_afecta":"No","viviendas_evacuadas":"No","coordenada_x":"840244.5159","coordenada_y":"1046405.3032","sue_fallados_cond_geotec":"Cenizas Volcánicas","factores_antropicos":null,"uso_del_suelo":null,"obras_est_manejo_aguas_lluvias":"Terrazas","suelos_expuestos":"Suelo Orgánico;Cenizas Volcánicas","no_ednes_destruidas":null,"no_ednes_parcial_afectadas":null,"no_viviendas_evacuadas":null,"longitud_del_recorrido":"60","prioridad":"No Aplica","observacion":"VIA A LLANITOS","year":2017,"oid":16736188}},{"type":"Feature","id":16736197,"geometry":{"type":"Point","coordinates":[-75.4988,5.03864]},"properties":{"codigo":"DES_49","eam_codigo":"EAM687","localizacion":"Los Molinos Villamaría","fecha":"2017-04-20","observacion_evento":"Grupo 4\nUbicación: Los Molinos Villamaría","barrio":null,"municipio":"873","departamento":"17","recomendaciones_definidas":"Reubicación Viviendas","recomendaciones_inmediatas":"Evacuación","tipo":"Deslizamiento","subtipo":"Traslacional","cicatrices":"No","ancho_promedio":"4","longitud_promedio":"3","espesor_promedio":"1","espesor_maximo":null,"escarpe":"Recto","forma_de_la_ladera":"Concava","suelos_fallados":"Fluidos","afloramientos":"Encima del deslizamiento","numero_de_muertes":null,"edificaciones_destruidas":null,"edificaciones_parcial_afecta":null,"viviendas_evacuadas":null,"coordenada_x":"842373.377896","coordenada_y":"1049096.55623","sue_fallados_cond_geotec":"Cenizas Volcánicas","factores_antropicos":"Sobrecargas","uso_del_suelo":"Cultivos Limpios, Rastrojo, Pasto","obras_est_manejo_aguas_lluvias":null,"suelos_expuestos":"Formación Quebradagrande","no_ednes_destruidas":null,"no_ednes_parcial_afectadas":null,"no_viviendas_evacuadas":null,"longitud_del_recorrido":null,"prioridad":"No Aplica","observacion":"Familias afectadas: 4\nVías afectadas: 1","year":2017,"oid":16736197}},{"type":"Feature","id":16736201,"geometry":{"type":"Point","coordinates":[-75.36719,4.96366]},"properties":{"codigo":"DES_720","eam_codigo":"EAM1277","localizacion":null,"fecha":null,"observacion_evento":null,"barrio":null,"municipio":"873","departamento":"17","recomendaciones_definidas":null,"recomendaciones_inmediatas":null,"tipo":"Ninguno","subtipo":"Ninguno","cicatrices":null,"ancho_promedio":null,"longitud_promedio":null,"espesor_promedio":null,"espesor_maximo":null,"escarpe":"Ninguno","forma_de_la_ladera":"Ninguno","suelos_fallados":"Ninguno","afloramientos":"Ninguno","numero_de_muertes":null,"edificaciones_destruidas":null,"edificaciones_parcial_afecta":null,"viviendas_evacuadas":null,"coordenada_x":"856955","coordenada_y":"1040773","sue_fallados_cond_geotec":null,"factores_antropicos":null,"uso_del_suelo":null,"obras_est_manejo_aguas_lluvias":null,"suelos_expuestos":null,"no_ednes_destruidas":null,"no_ednes_parcial_afectadas":null,"no_viviendas_evacuadas":null,"longitud_del_recorrido":null,"prioridad":"Inmediata","observacion":null,"year":null,"oid":16736201}},{"type":"Feature","id":16736276,"geometry":{"type":"Point","coordinates":[-75.51035,5.04775]},"properties":{"codigo":"DES_331","eam_codigo":"EAM988","localizacion":"Santa Ana Calle 9 No. 192","fecha":"2017-05-03","observacion_evento":null,"barrio":null,"municipio":"873","departamento":"17","recomendaciones_definidas":null,"recomendaciones_inmediatas":null,"tipo":"Ninguno","subtipo":"Ninguno","cicatrices":null,"ancho_promedio":null,"longitud_promedio":null,"espesor_promedio":null,"espesor_maximo":null,"escarpe":"Ninguno","forma_de_la_ladera":"Ninguno","suelos_fallados":"Ninguno","afloramientos":"Ninguno","numero_de_muertes":null,"edificaciones_destruidas":null,"edificaciones_parcial_afecta":null,"viviendas_evacuadas":null,"coordenada_x":"841094","coordenada_y":"1050108","sue_fallados_cond_geotec":null,"factores_antropicos":null,"uso_del_suelo":null,"obras_est_manejo_aguas_lluvias":null,"suelos_expuestos":null,"no_ednes_destruidas":null,"no_ednes_parcial_afectadas":null,"no_viviendas_evacuadas":null,"longitud_del_recorrido":null,"prioridad":"Inmediata","observacion":"Socavación de terreno en la parte posterior de las viviendas en un talud de alta pendiente , donde en la parte superior existen viviendas. Existencia de pantallas en una de las viviendas.","year":2017,"oid":16736276}},{"type":"Feature","id":16736207,"geometry":{"type":"Point","coordinates":[-75.50752,5.03695]},"properties":{"codigo":"DES_197","eam_codigo":"EAM836","localizacion":"CARRERA 7C 1469","fecha":"2017-04-19","observacion_evento":null,"barrio":null,"municipio":"873","departamento":"17","recomendaciones_definidas":"Revegetalización;Drenajes;Construir Canales de Bajada","recomendaciones_inmediatas":"Cubrir con Plástico (Àrea Afectada);Perfilado del Talud","tipo":"Deslizamiento","subtipo":"Traslacional","cicatrices":"Si","ancho_promedio":"1,5M","longitud_promedio":"2,5M","espesor_promedio":"0,5M","espesor_maximo":"0,5M","escarpe":"Recto","forma_de_la_ladera":"Recta","suelos_fallados":"Muy Humedos","afloramientos":"No presenta","numero_de_muertes":"No","edificaciones_destruidas":"No","edificaciones_parcial_afecta":"No","viviendas_evacuadas":"No","coordenada_x":"841405.5758","coordenada_y":"1048911.9607","sue_fallados_cond_geotec":"Cenizas Volcánicas","factores_antropicos":null,"uso_del_suelo":null,"obras_est_manejo_aguas_lluvias":null,"suelos_expuestos":"Cenizas Volcánicas","no_ednes_destruidas":null,"no_ednes_parcial_afectadas":null,"no_viviendas_evacuadas":null,"longitud_del_recorrido":"2,5M","prioridad":"No Aplica","observacion":null,"year":2017,"oid":16736207}},{"type":"Feature","id":16736211,"geometry":{"type":"Point","coordinates":[-75.49595,5.03769]},"properties":{"codigo":"DES_216","eam_codigo":"EAM850","localizacion":"MOLINOS","fecha":"2017-04-19","observacion_evento":"GRUPO 4 ","barrio":null,"municipio":"873","departamento":"17","recomendaciones_definidas":"Construir Canales de Bajada","recomendaciones_inmediatas":"Monitoreo Visual","tipo":"Flujo","subtipo":"Compuesto","cicatrices":"Si","ancho_promedio":"6 MTS.","longitud_promedio":"50 MTS.","espesor_promedio":null,"espesor_maximo":null,"escarpe":"Recto","forma_de_la_ladera":"Convexa","suelos_fallados":"Muy Humedos","afloramientos":"Encima del deslizamiento","numero_de_muertes":"No","edificaciones_destruidas":"No","edificaciones_parcial_afecta":"No","viviendas_evacuadas":"No","coordenada_x":"842688.8","coordenada_y":"1048990.8","sue_fallados_cond_geotec":"Cenizas Volcánicas","factores_antropicos":"Falta de Canales y Bajantes;Cultivos Limpios","uso_del_suelo":"Cultivos Limpios","obras_est_manejo_aguas_lluvias":"Zanjas Colectoras, Acequias","suelos_expuestos":"Cenizas Volcánicas","no_ednes_destruidas":0,"no_ednes_parcial_afectadas":0,"no_viviendas_evacuadas":0,"longitud_del_recorrido":null,"prioridad":"No Aplica","observacion":"VIAS AFECTADAS : 1","year":2017,"oid":16736211}},{"type":"Feature","id":16736213,"geometry":{"type":"Point","coordinates":[-75.50948,5.04126]},"properties":{"codigo":"DES_214","eam_codigo":"EAM848","localizacion":"SECTOR TURIN  CARRERA 6 No.1455","fecha":"2017-04-19","observacion_evento":"GRUPO 4 ","barrio":null,"municipio":"873","departamento":"17","recomendaciones_definidas":"Revegetalización;Obras Bioingenieriles;Drenajes;Construir Zanjas Colectoras","recomendaciones_inmediatas":"Cubrir con Plástico (Àrea Afectada);Monitoreo Visual;Perfilado del Talud","tipo":"Derrumbes o Caidas","subtipo":"Traslacional","cicatrices":"Si","ancho_promedio":"4 MTS","longitud_promedio":"2.5 MTS","espesor_promedio":null,"espesor_maximo":null,"escarpe":"Recto","forma_de_la_ladera":"Recta","suelos_fallados":"Ninguno","afloramientos":"Ninguno","numero_de_muertes":"No","edificaciones_destruidas":"No","edificaciones_parcial_afecta":"No","viviendas_evacuadas":"No","coordenada_x":"841188.88","coordenada_y":"1049389.5","sue_fallados_cond_geotec":"Suelo Orgánico;Cenizas Volcánicas","factores_antropicos":"Excavaciones en la Base;Areas sin Pavimentar;Falta de Canales y Bajantes;Construcción en Área no Apta;Mala Calidad Construcciones Existentes","uso_del_suelo":"Pasto","obras_est_manejo_aguas_lluvias":null,"suelos_expuestos":"Suelo Orgánico;Cenizas Volcánicas","no_ednes_destruidas":0,"no_ednes_parcial_afectadas":0,"no_viviendas_evacuadas":0,"longitud_del_recorrido":null,"prioridad":"Inmediata","observacion":"EDIFICACIONES AFECTADAS PARCIALMENTE : 1","year":2017,"oid":16736213}},{"type":"Feature","id":16736219,"geometry":{"type":"Point","coordinates":[-75.36818,4.96357]},"properties":{"codigo":"DES_721","eam_codigo":"EAM1278","localizacion":null,"fecha":null,"observacion_evento":null,"barrio":null,"municipio":"873","departamento":"17","recomendaciones_definidas":null,"recomendaciones_inmediatas":null,"tipo":"Ninguno","subtipo":"Ninguno","cicatrices":null,"ancho_promedio":null,"longitud_promedio":null,"espesor_promedio":null,"espesor_maximo":null,"escarpe":"Ninguno","forma_de_la_ladera":"Ninguno","suelos_fallados":"Ninguno","afloramientos":"Ninguno","numero_de_muertes":null,"edificaciones_destruidas":null,"edificaciones_parcial_afecta":null,"viviendas_evacuadas":null,"coordenada_x":"856845","coordenada_y":"1040764","sue_fallados_cond_geotec":null,"factores_antropicos":null,"uso_del_suelo":null,"obras_est_manejo_aguas_lluvias":null,"suelos_expuestos":null,"no_ednes_destruidas":null,"no_ednes_parcial_afectadas":null,"no_viviendas_evacuadas":null,"longitud_del_recorrido":null,"prioridad":"Inmediata","observacion":null,"year":null,"oid":16736219}},{"type":"Feature","id":16736220,"geometry":{"type":"Point","coordinates":[-75.51155,5.04925]},"properties":{"codigo":"DES_226","eam_codigo":"EAM891","localizacion":"SANTA ANA","fecha":"2017-04-19","observacion_evento":"GRUPO 4","barrio":null,"municipio":"873","departamento":"17","recomendaciones_definidas":"Construir Cunetas","recomendaciones_inmediatas":"Cubrir con Plástico (Àrea Afectada)","tipo":"Deslizamiento","subtipo":"Traslacional","cicatrices":"Si","ancho_promedio":"3 MTS","longitud_promedio":"6 MTS","espesor_promedio":null,"espesor_maximo":null,"escarpe":"Recto","forma_de_la_ladera":"Convexa","suelos_fallados":"Muy Humedos","afloramientos":"Encima del deslizamiento","numero_de_muertes":"No","edificaciones_destruidas":"No","edificaciones_parcial_afecta":"No","viviendas_evacuadas":"No","coordenada_x":"840960.86","coordenada_y":"1050273.76","sue_fallados_cond_geotec":"Suelo Orgánico","factores_antropicos":"Sobrecargas;Árboles Inclinados o muy Pesados","uso_del_suelo":"Cultivos Limpios, Rastrojo, Pasto","obras_est_manejo_aguas_lluvias":null,"suelos_expuestos":"Cenizas Volcánicas","no_ednes_destruidas":0,"no_ednes_parcial_afectadas":0,"no_viviendas_evacuadas":0,"longitud_del_recorrido":null,"prioridad":"No Aplica","observacion":"EFECTOS DEL DESLIZAMIENTO: VIAS AFECTADAS 1","year":2017,"oid":16736220}},{"type":"Feature","id":16736221,"geometry":{"type":"Point","coordinates":[-75.51564,5.04282]},"properties":{"codigo":"DES_222","eam_codigo":"EAM887","localizacion":"CARRERA 8 No.950   EL PALMAR","fecha":"2017-04-19","observacion_evento":"GRUPO 4","barrio":null,"municipio":"873","departamento":"17","recomendaciones_definidas":"Obras de Contención","recomendaciones_inmediatas":"Cubrir con Plástico (Àrea Afectada)","tipo":"Deslizamiento","subtipo":"Traslacional","cicatrices":null,"ancho_promedio":"3 MTS","longitud_promedio":"6 MTS","espesor_promedio":null,"espesor_maximo":null,"escarpe":"Recto","forma_de_la_ladera":"Convexa","suelos_fallados":"Muy Humedos","afloramientos":"No presenta","numero_de_muertes":"No","edificaciones_destruidas":"No","edificaciones_parcial_afecta":"No","viviendas_evacuadas":"No","coordenada_x":"840506.32","coordenada_y":"1049563.26","sue_fallados_cond_geotec":"Cenizas Volcánicas","factores_antropicos":"Sobrecargas;Mala Calidad Construcciones Existentes","uso_del_suelo":"Àreas Urbanizadas o Construidas","obras_est_manejo_aguas_lluvias":null,"suelos_expuestos":"Cenizas Volcánicas","no_ednes_destruidas":0,"no_ednes_parcial_afectadas":0,"no_viviendas_evacuadas":0,"longitud_del_recorrido":null,"prioridad":"Inmediata","observacion":"EFECTOS DEL DESLIZAMIENTO: VIAS AFECTADAS 2  \n                                               INFRAESTRCTURAS VITALES 8","year":2017,"oid":16736221}},{"type":"Feature","id":16736222,"geometry":{"type":"Point","coordinates":[-75.49389,5.03643]},"properties":{"codigo":"DES_219","eam_codigo":"EAM855","localizacion":"LA FLORIDA  VIA LA MARINA CARRERA 1 CALLE 40","fecha":"2017-04-19","observacion_evento":"GRUPO 4","barrio":null,"municipio":"873","departamento":"17","recomendaciones_definidas":"Revegetalización;Reforestación;Obras Bioingenieriles","recomendaciones_inmediatas":"Reparación de Alcantarillado;Monitoreo Visual;Perfilado del Talud;Erradicar Àrboles (Previo Permiso)","tipo":"Deslizamiento-Flujo","subtipo":"Traslacional","cicatrices":"Si","ancho_promedio":"45 MTS","longitud_promedio":"8 MTS","espesor_promedio":"2 ","espesor_maximo":"3","escarpe":"Recto","forma_de_la_ladera":"Recta","suelos_fallados":"Muy Humedos","afloramientos":"En areas adyacentes","numero_de_muertes":"No","edificaciones_destruidas":"No","edificaciones_parcial_afecta":"No","viviendas_evacuadas":"No","coordenada_x":"842916.83","coordenada_y":"1048851.62","sue_fallados_cond_geotec":"Rellenos de Ladera ;Suelo Orgánico;Cenizas Volcánicas;Formación Casabianca","factores_antropicos":"Excavaciones en la Base;Cambios en el Uso del Suelo","uso_del_suelo":"Mezcla Rastrojo, Pasto, Àrboles","obras_est_manejo_aguas_lluvias":null,"suelos_expuestos":"Rellenos de Ladera ;Suelo Orgánico;Cenizas Volcánicas;Formación Casabianca","no_ednes_destruidas":0,"no_ednes_parcial_afectadas":0,"no_viviendas_evacuadas":0,"longitud_del_recorrido":"3 MTS ","prioridad":"No Aplica","observacion":"EFECTOS DEL DESLIZAMIENTO : VIAS AFECTADAS 1","year":2017,"oid":16736222}},{"type":"Feature","id":16736223,"geometry":{"type":"Point","coordinates":[-75.50069,5.03861]},"properties":{"codigo":"DES_218","eam_codigo":"EAM853","localizacion":"LOS MOLINOS","fecha":"2017-04-19","observacion_evento":"GRUPO 4","barrio":null,"municipio":"873","departamento":"17","recomendaciones_definidas":"Canalización Abierta;Construir Zanjas Colectoras","recomendaciones_inmediatas":"Evacuación","tipo":"Deslizamiento-Flujo","subtipo":"Compuesto","cicatrices":"No","ancho_promedio":"4 MTS","longitud_promedio":"6 MTS","espesor_promedio":null,"espesor_maximo":null,"escarpe":"Curvilineo","forma_de_la_ladera":"Concava","suelos_fallados":"Fluidos","afloramientos":"Encima del deslizamiento","numero_de_muertes":"No","edificaciones_destruidas":"No","edificaciones_parcial_afecta":"No","viviendas_evacuadas":"No","coordenada_x":"842162.81","coordenada_y":"1049094.31","sue_fallados_cond_geotec":"Formación Quebradagrande","factores_antropicos":"Sobrecargas;Interferencia de Cauces","uso_del_suelo":"Mezcla Rastrojo, Pasto, Àrboles","obras_est_manejo_aguas_lluvias":null,"suelos_expuestos":"Formación Quebradagrande","no_ednes_destruidas":0,"no_ednes_parcial_afectadas":0,"no_viviendas_evacuadas":0,"longitud_del_recorrido":null,"prioridad":"No Aplica","observacion":"EFECTOS DEL DESLIZAMIENTO : LINEAS VITALES 1 GAS","year":2017,"oid":16736223}},{"type":"Feature","id":16736224,"geometry":{"type":"Point","coordinates":[-75.49554,5.03758]},"properties":{"codigo":"DES_217","eam_codigo":"EAM851","localizacion":"MOLINOS ALTO","fecha":"2017-04-19","observacion_evento":"GRUPO 4","barrio":null,"municipio":"873","departamento":"17","recomendaciones_definidas":"Obras de Contención","recomendaciones_inmediatas":"Cubrir con Plástico (Àrea Afectada);Monitoreo Visual","tipo":"Deslizamiento","subtipo":"Traslacional","cicatrices":"Si","ancho_promedio":"20 MTS","longitud_promedio":"15 MTS","espesor_promedio":"6 MTS","espesor_maximo":null,"escarpe":"Recto","forma_de_la_ladera":"Convexa","suelos_fallados":"Muy Humedos","afloramientos":"Encima del deslizamiento","numero_de_muertes":"No","edificaciones_destruidas":"No","edificaciones_parcial_afecta":"No","viviendas_evacuadas":"No","coordenada_x":"842734.61","coordenada_y":"1048979.50","sue_fallados_cond_geotec":"Suelo Orgánico","factores_antropicos":"Sobrecargas;Areas sin Pavimentar","uso_del_suelo":"Àreas Urbanizadas o Construidas","obras_est_manejo_aguas_lluvias":null,"suelos_expuestos":"Suelo Orgánico","no_ednes_destruidas":0,"no_ednes_parcial_afectadas":0,"no_viviendas_evacuadas":0,"longitud_del_recorrido":null,"prioridad":"No Aplica","observacion":"PROBLEMA CON DESAGUE DE LA CASA VECINA. CONFORMACION DEL TERRENO EN TERRAZAS. HUMEDECIMIENTO DE PARDES POR CAPILARIDAD.","year":2017,"oid":16736224}},{"type":"Feature","id":16736230,"geometry":{"type":"Point","coordinates":[-75.517,5.03886]},"properties":{"codigo":"DES_141","eam_codigo":"EAM782","localizacion":"Altos del Portòn Calle 9 No. 11  178","fecha":"2017-04-21","observacion_evento":"Grupo 4\nVILLAMARIA","barrio":null,"municipio":"873","departamento":"17","recomendaciones_definidas":"Revegetalización;Reforestación;Obras Bioingenieriles;Drenajes","recomendaciones_inmediatas":"Cubrir con Plástico (Àrea Afectada);Captación de Afloramiento de Aguas;Monitoreo Visual;Perfilado del Talud","tipo":"Deslizamiento","subtipo":"Traslacional","cicatrices":"No","ancho_promedio":"7","longitud_promedio":"20","espesor_promedio":"0.6","espesor_maximo":null,"escarpe":"Recto","forma_de_la_ladera":"Recta","suelos_fallados":"Muy Humedos","afloramientos":"En el cuerpo del deslizamiento","numero_de_muertes":null,"edificaciones_destruidas":null,"edificaciones_parcial_afecta":null,"viviendas_evacuadas":null,"coordenada_x":"840354.240682","coordenada_y":"1049125.75367","sue_fallados_cond_geotec":"Suelo Orgánico","factores_antropicos":"Falta de Canales y Bajantes;Cultivos Limpios","uso_del_suelo":"Desnudo;Rastrojo;Mezcla Rastrojo, Pasto, Àrboles;Cultivos Limpios;Cultivos Limpios, Rastrojo, Pasto","obras_est_manejo_aguas_lluvias":null,"suelos_expuestos":"Suelo Orgánico","no_ednes_destruidas":null,"no_ednes_parcial_afectadas":null,"no_viviendas_evacuadas":null,"longitud_del_recorrido":"50","prioridad":"Inmediata","observacion":"Familias afectadas: 4\npersonas afectadas: 11\nDeslizamiento a 25 mts aproximadamente, parte superior e inferior de la vivienda.\nBlanca Celenia Toro: 3116467714","year":2017,"oid":16736230}},{"type":"Feature","id":16736231,"geometry":{"type":"Point","coordinates":[-75.50949,5.04722]},"properties":{"codigo":"DES_139","eam_codigo":"EAM780","localizacion":"Carrera 1a No. 949 ESAU CASTAÑO ROSAS","fecha":"2017-04-19","observacion_evento":"GRUPO 4\nvillamarìa","barrio":null,"municipio":"873","departamento":"17","recomendaciones_definidas":"Revegetalización;Obras Bioingenieriles;Obras de Contención;Construir Zanjas Colectoras","recomendaciones_inmediatas":"Cubrir con Plástico (Àrea Afectada)","tipo":"Deslizamiento","subtipo":"Traslacional","cicatrices":"Si","ancho_promedio":"7","longitud_promedio":"6","espesor_promedio":null,"espesor_maximo":null,"escarpe":"Recto","forma_de_la_ladera":"Recta","suelos_fallados":"Secos","afloramientos":"No presenta","numero_de_muertes":null,"edificaciones_destruidas":null,"edificaciones_parcial_afecta":"Si","viviendas_evacuadas":null,"coordenada_x":"841189.22492215","coordenada_y":"1050048.557017779","sue_fallados_cond_geotec":"Rellenos de Ladera ;Suelo Orgánico","factores_antropicos":"Falta de Canales y Bajantes;Deforestación","uso_del_suelo":"Mezcla Rastrojo, Pasto, Àrboles","obras_est_manejo_aguas_lluvias":null,"suelos_expuestos":"Rellenos de Ladera ;Suelo Orgánico","no_ednes_destruidas":null,"no_ednes_parcial_afectadas":1,"no_viviendas_evacuadas":null,"longitud_del_recorrido":null,"prioridad":"Corto Plazo","observacion":"Familias afectadas: 1\ninforme técnico 2017 - 1E - 00003260, realizada anteriormente 14 de febrero Jorge Hernandez.","year":2017,"oid":16736231}},{"type":"Feature","id":16736236,"geometry":{"type":"Point","coordinates":[-75.49837,5.03798]},"properties":{"codigo":"DES_172","eam_codigo":"EAM692","localizacion":"Molinos Villa María","fecha":"2017-04-20","observacion_evento":"Grupo 4","barrio":null,"municipio":"873","departamento":"17","recomendaciones_definidas":null,"recomendaciones_inmediatas":null,"tipo":"Deslizamiento-Flujo","subtipo":"Compuesto","cicatrices":"Si","ancho_promedio":"4","longitud_promedio":"100","espesor_promedio":"1,5","espesor_maximo":"1,5","escarpe":"Curvilineo","forma_de_la_ladera":"Concava","suelos_fallados":"Fluidos","afloramientos":"Bajo el deslizamiento","numero_de_muertes":"No","edificaciones_destruidas":"No","edificaciones_parcial_afecta":"Si","viviendas_evacuadas":"No","coordenada_x":"842420.74204","coordenada_y":"1049024.49506","sue_fallados_cond_geotec":"Suelo Orgánico;Cenizas Volcánicas","factores_antropicos":"Sobrecargas;Sobrepastoreo;Daño Acueducto;Interferencia de Cauces","uso_del_suelo":"Pasto","obras_est_manejo_aguas_lluvias":null,"suelos_expuestos":"Suelo Orgánico;Cenizas Volcánicas","no_ednes_destruidas":null,"no_ednes_parcial_afectadas":3,"no_viviendas_evacuadas":null,"longitud_del_recorrido":"150","prioridad":"Inmediata","observacion":null,"year":2017,"oid":16736236}},{"type":"Feature","id":16736263,"geometry":{"type":"Point","coordinates":[-75.50069,5.03861]},"properties":{"codigo":"DES_220","eam_codigo":"EAM854","localizacion":"CRA 1 No 2740","fecha":"2017-04-19","observacion_evento":"AFLUENTE QUEBRADA LOS MOLINOS.\nGRUPO 13","barrio":null,"municipio":"873","departamento":"17","recomendaciones_definidas":"Reforestación;Obras Bioingenieriles;Drenajes","recomendaciones_inmediatas":"Evacuación;Limpieza de Obras","tipo":"Flujo","subtipo":"Ninguno","cicatrices":"No","ancho_promedio":null,"longitud_promedio":null,"espesor_promedio":"0.50","espesor_maximo":"1.20","escarpe":"Ninguno","forma_de_la_ladera":"Ninguno","suelos_fallados":"Fluidos","afloramientos":"En el cuerpo del deslizamiento","numero_de_muertes":null,"edificaciones_destruidas":null,"edificaciones_parcial_afecta":"Si","viviendas_evacuadas":null,"coordenada_x":"842162.803","coordenada_y":"1049094.317","sue_fallados_cond_geotec":"Rellenos de Cauce;Suelo Orgánico","factores_antropicos":null,"uso_del_suelo":"Pasto;Rastrojo;Àrboles;Mezcla Rastrojo, Pasto, Àrboles","obras_est_manejo_aguas_lluvias":"Reforestación, Trinchos, Obras Ingenieriles;Cauces","suelos_expuestos":null,"no_ednes_destruidas":null,"no_ednes_parcial_afectadas":2,"no_viviendas_evacuadas":null,"longitud_del_recorrido":"50","prioridad":"No Aplica","observacion":"SITIO YA EVALUADO POR EL MUNICIPIO (ALCALDÍA), SE RECOMENDÓ MANTENER EVACUADAS LAS VIVIENDAS ADYACENTES AL FLUJO GENERADO COMO CONSECUENCIA DE LA AVENIDA TORRENCIAL REGISTRADA POR EL AFLUENTE DE LA QUEBRADA MOLINOS.\nMAQUINARIA DE LA ALCALDÍA ADELANTA LABORES DE LIMPIEZA DEL MATERIAL DEPOSITADO EN LOS PREDIOS AFECTADOS. DEFINIR POLÍGONO DE ACCIÓN Y SU PLAN DE AFECTACIÓN Y RECUPERACIÓN ACORDE CON LO QUE MANEJA EL MUNICIPIO DENTRO DE LA ATENCIÓN DE EMERGENCIA.","year":2017,"oid":16736263}},{"type":"Feature","id":16736264,"geometry":{"type":"Point","coordinates":[-75.51766,5.04906]},"properties":{"codigo":"DES_213","eam_codigo":"EAM847","localizacion":"POLIDEPORTIVO CARRERA 6 No.232","fecha":"2017-04-19","observacion_evento":"GRUPO 4","barrio":null,"municipio":"873","departamento":"17","recomendaciones_definidas":"Reubicación Viviendas;Revegetalización;Obras Bioingenieriles;Construir Zanjas Colectoras;Terraceo","recomendaciones_inmediatas":"Cubrir con Plástico (Àrea Afectada);Monitoreo Visual;Perfilado del Talud","tipo":"Deslizamiento","subtipo":"Traslacional","cicatrices":null,"ancho_promedio":"5 MTS","longitud_promedio":"7 MTS","espesor_promedio":null,"espesor_maximo":null,"escarpe":"Recto","forma_de_la_ladera":"Recta","suelos_fallados":"Ninguno","afloramientos":"Ninguno","numero_de_muertes":"No","edificaciones_destruidas":"No","edificaciones_parcial_afecta":"No","viviendas_evacuadas":"No","coordenada_x":"840283.9","coordenada_y":"1050254.3","sue_fallados_cond_geotec":"Suelo Orgánico;Otros","factores_antropicos":"Areas sin Pavimentar;Falta de Canales y Bajantes;Deforestación;Arrojo Basuras, Residuos o Escombros;Construcción en Área no Apta;Mala Calidad Construcciones Existentes","uso_del_suelo":"Mezcla Rastrojo, Pasto, Àrboles","obras_est_manejo_aguas_lluvias":null,"suelos_expuestos":"Suelo Orgánico;Otros","no_ednes_destruidas":0,"no_ednes_parcial_afectadas":0,"no_viviendas_evacuadas":0,"longitud_del_recorrido":null,"prioridad":"Inmediata","observacion":"1. DESLIZAMIENTO ANTIGUO DE APROXIMADAMENTE 2 MESES .\n2. LAS VIVIENDAS PRESENTAN ALTA VULNERABILIDAD ESTRUCTURA (DIFERENTES TIPOS Y MATERIALES DE CONSTRUCCION).\n3. SE EVIDENCIAN ASENTAMIENTOS ANTIGUOS.","year":2017,"oid":16736264}},{"type":"Feature","id":16736265,"geometry":{"type":"Point","coordinates":[-75.52351,5.04392]},"properties":{"codigo":"DES_327","eam_codigo":"EAM984","localizacion":"Los Cerezos Carrera 8 Calle 2B","fecha":"2017-05-03","observacion_evento":null,"barrio":null,"municipio":"873","departamento":"17","recomendaciones_definidas":null,"recomendaciones_inmediatas":null,"tipo":"Ninguno","subtipo":"Ninguno","cicatrices":null,"ancho_promedio":null,"longitud_promedio":null,"espesor_promedio":null,"espesor_maximo":null,"escarpe":"Ninguno","forma_de_la_ladera":"Ninguno","suelos_fallados":"Ninguno","afloramientos":"Ninguno","numero_de_muertes":null,"edificaciones_destruidas":null,"edificaciones_parcial_afecta":null,"viviendas_evacuadas":null,"coordenada_x":"839633","coordenada_y":"1049687","sue_fallados_cond_geotec":null,"factores_antropicos":null,"uso_del_suelo":null,"obras_est_manejo_aguas_lluvias":null,"suelos_expuestos":null,"no_ednes_destruidas":null,"no_ednes_parcial_afectadas":null,"no_viviendas_evacuadas":null,"longitud_del_recorrido":null,"prioridad":"Inmediata","observacion":"Hundimiento de la vía en afirmado, se logró evidenciar que la tubería existente ya no es suficiente para la evacuación de las aguas lluvias y residuales ya que el alcantarillado del municipio aun es combinado, por ende se propone realizar el cambio de tubería de aguas residuales y adicionar una tubería exclusiva para aguas lluvias. ","year":2017,"oid":16736265}},{"type":"Feature","id":16736266,"geometry":{"type":"Point","coordinates":[-75.43826,5.0106]},"properties":{"codigo":"DES_328","eam_codigo":"EAM985","localizacion":"Gallinazo","fecha":"2017-05-03","observacion_evento":null,"barrio":null,"municipio":"873","departamento":"17","recomendaciones_definidas":null,"recomendaciones_inmediatas":null,"tipo":"Deslizamiento","subtipo":"Ninguno","cicatrices":null,"ancho_promedio":null,"longitud_promedio":null,"espesor_promedio":null,"espesor_maximo":null,"escarpe":"Ninguno","forma_de_la_ladera":"Ninguno","suelos_fallados":"Ninguno","afloramientos":"Ninguno","numero_de_muertes":null,"edificaciones_destruidas":null,"edificaciones_parcial_afecta":null,"viviendas_evacuadas":null,"coordenada_x":"849082","coordenada_y":"1045981","sue_fallados_cond_geotec":null,"factores_antropicos":null,"uso_del_suelo":null,"obras_est_manejo_aguas_lluvias":null,"suelos_expuestos":null,"no_ednes_destruidas":null,"no_ednes_parcial_afectadas":null,"no_viviendas_evacuadas":null,"longitud_del_recorrido":null,"prioridad":"Inmediata","observacion":"Deslizamiento activo  por las lluvias presentado erosión, teniendo  11 metros de vía que deben ser intervenidos de manera inmediata con el fin de evitar que el carril derecho de la vía hacia termales del otoño se comprometa en su totalidad.","year":2017,"oid":16736266}},{"type":"Feature","id":16736267,"geometry":{"type":"Point","coordinates":[-75.50584,5.04165]},"properties":{"codigo":"DES_329","eam_codigo":"EAM986","localizacion":"Estación de servicio Entrada Villamaría","fecha":"2017-05-03","observacion_evento":null,"barrio":null,"municipio":"873","departamento":"17","recomendaciones_definidas":null,"recomendaciones_inmediatas":null,"tipo":"Deslizamiento","subtipo":"Ninguno","cicatrices":null,"ancho_promedio":null,"longitud_promedio":null,"espesor_promedio":null,"espesor_maximo":null,"escarpe":"Ninguno","forma_de_la_ladera":"Ninguno","suelos_fallados":"Ninguno","afloramientos":"Ninguno","numero_de_muertes":null,"edificaciones_destruidas":null,"edificaciones_parcial_afecta":null,"viviendas_evacuadas":null,"coordenada_x":"841593","coordenada_y":"1049432","sue_fallados_cond_geotec":null,"factores_antropicos":null,"uso_del_suelo":null,"obras_est_manejo_aguas_lluvias":null,"suelos_expuestos":null,"no_ednes_destruidas":null,"no_ednes_parcial_afectadas":null,"no_viviendas_evacuadas":null,"longitud_del_recorrido":null,"prioridad":"Inmediata","observacion":"Socavación en el sitio producto de la creciente de la quebrada Cuba por estrechamiento de está, se provocó un deslizamiento que puede causar posible afectación a la calzada en la cual es de suma importancia en el municipio ya que es su única vía de salida.","year":2017,"oid":16736267}},{"type":"Feature","id":16736269,"geometry":{"type":"Point","coordinates":[-75.50966,5.04129]},"properties":{"codigo":"DES_330","eam_codigo":"EAM987","localizacion":"Bellavista","fecha":"2017-05-03","observacion_evento":null,"barrio":null,"municipio":"873","departamento":"17","recomendaciones_definidas":null,"recomendaciones_inmediatas":null,"tipo":"Derrumbes o Caidas","subtipo":"Ninguno","cicatrices":null,"ancho_promedio":null,"longitud_promedio":null,"espesor_promedio":null,"espesor_maximo":null,"escarpe":"Ninguno","forma_de_la_ladera":"Ninguno","suelos_fallados":"Ninguno","afloramientos":"Ninguno","numero_de_muertes":null,"edificaciones_destruidas":null,"edificaciones_parcial_afecta":null,"viviendas_evacuadas":null,"coordenada_x":"841169","coordenada_y":"1049393","sue_fallados_cond_geotec":null,"factores_antropicos":null,"uso_del_suelo":null,"obras_est_manejo_aguas_lluvias":null,"suelos_expuestos":null,"no_ednes_destruidas":null,"no_ednes_parcial_afectadas":null,"no_viviendas_evacuadas":null,"longitud_del_recorrido":null,"prioridad":"Inmediata","observacion":"Desprendimiento de tierra que sigue un proceso erosivo por manejo inadecuado de aguas lluvia de los tejados colindantes, había perdida de la capa vegetal.","year":2017,"oid":16736269}},{"type":"Feature","id":16736277,"geometry":{"type":"Point","coordinates":[-75.51931,5.04772]},"properties":{"codigo":"DES_333","eam_codigo":"EAM989","localizacion":"El Gaitán Carrera 8B No. 1N16","fecha":"2017-05-03","observacion_evento":null,"barrio":null,"municipio":"873","departamento":"17","recomendaciones_definidas":null,"recomendaciones_inmediatas":null,"tipo":"Ninguno","subtipo":"Ninguno","cicatrices":null,"ancho_promedio":null,"longitud_promedio":null,"espesor_promedio":null,"espesor_maximo":null,"escarpe":"Ninguno","forma_de_la_ladera":"Ninguno","suelos_fallados":"Ninguno","afloramientos":"Ninguno","numero_de_muertes":null,"edificaciones_destruidas":null,"edificaciones_parcial_afecta":null,"viviendas_evacuadas":null,"coordenada_x":"840100.34","coordenada_y":"1050106.26","sue_fallados_cond_geotec":null,"factores_antropicos":null,"uso_del_suelo":null,"obras_est_manejo_aguas_lluvias":null,"suelos_expuestos":null,"no_ednes_destruidas":null,"no_ednes_parcial_afectadas":null,"no_viviendas_evacuadas":null,"longitud_del_recorrido":null,"prioridad":"Inmediata","observacion":"Hundimiento en la parte baja de la ladera donde se encuentran algunas viviendas, no se cuenta con una adecuada conducción de aguas lluvias  y  se constata que la parte baja de la ladera esta sobre una conformación de lleno con depósitos de basura.","year":2017,"oid":16736277}},{"type":"Feature","id":16736278,"geometry":{"type":"Point","coordinates":[-75.51488,5.04476]},"properties":{"codigo":"DES_334","eam_codigo":"EAM990","localizacion":"Monserrate Calle 7E No. 1469","fecha":"2017-05-03","observacion_evento":null,"barrio":null,"municipio":"873","departamento":"17","recomendaciones_definidas":null,"recomendaciones_inmediatas":null,"tipo":"Ninguno","subtipo":"Ninguno","cicatrices":null,"ancho_promedio":null,"longitud_promedio":null,"espesor_promedio":null,"espesor_maximo":null,"escarpe":"Ninguno","forma_de_la_ladera":"Ninguno","suelos_fallados":"Ninguno","afloramientos":"Ninguno","numero_de_muertes":null,"edificaciones_destruidas":null,"edificaciones_parcial_afecta":null,"viviendas_evacuadas":null,"coordenada_x":"840591.26","coordenada_y":"1049777.67","sue_fallados_cond_geotec":null,"factores_antropicos":null,"uso_del_suelo":null,"obras_est_manejo_aguas_lluvias":null,"suelos_expuestos":null,"no_ednes_destruidas":null,"no_ednes_parcial_afectadas":null,"no_viviendas_evacuadas":null,"longitud_del_recorrido":null,"prioridad":"Inmediata","observacion":"Proceso erosivo el cual fue detonado hace varios meses, donde se presentó ruptura de tubería del sistema de alcantarillado, el cual fue reparado y sustituido a tiempo. En la inspección  se evidencio  que  continúa el proceso erosivo debido a que esta desprovisto de capa vegetal.","year":2017,"oid":16736278}},{"type":"Feature","id":16736284,"geometry":{"type":"Point","coordinates":[-75.52315,5.03869]},"properties":{"codigo":"DES_319","eam_codigo":"EAM976","localizacion":"La Floresta II","fecha":"2017-05-30","observacion_evento":null,"barrio":null,"municipio":"873","departamento":"17","recomendaciones_definidas":"Reforestación;Diques;Otros","recomendaciones_inmediatas":"Monitoreo Visual;Señalizar","tipo":"Ninguno","subtipo":"Ninguno","cicatrices":"Si","ancho_promedio":"6 m","longitud_promedio":"20 m","espesor_promedio":null,"espesor_maximo":null,"escarpe":"Recto","forma_de_la_ladera":"Concava","suelos_fallados":"Ninguno","afloramientos":"Ninguno","numero_de_muertes":"No","edificaciones_destruidas":"No","edificaciones_parcial_afecta":"No","viviendas_evacuadas":"No","coordenada_x":"839672","coordenada_y":"1049109","sue_fallados_cond_geotec":"Cenizas Volcánicas;Formación Quebradagrande","factores_antropicos":"Deforestación;Daño Alcantarillado","uso_del_suelo":"Rastrojo","obras_est_manejo_aguas_lluvias":"Àreas sin Vegetación;Alcantarillado;Cauces","suelos_expuestos":"Cenizas Volcánicas;Formación Quebradagrande","no_ednes_destruidas":null,"no_ednes_parcial_afectadas":null,"no_viviendas_evacuadas":null,"longitud_del_recorrido":null,"prioridad":"Inmediata","observacion":"Carcavamiento","year":2017,"oid":16736284}},{"type":"Feature","id":16736285,"geometry":{"type":"Point","coordinates":[-75.52223,5.04172]},"properties":{"codigo":"DES_320","eam_codigo":"EAM977","localizacion":"Barrio Ciudad Jardín","fecha":"2017-05-30","observacion_evento":null,"barrio":null,"municipio":"873","departamento":"17","recomendaciones_definidas":"Revegetalización;Construir Zanjas Colectoras;Construir Canales de Bajada;Terraceo","recomendaciones_inmediatas":"Muros de Contención, Paddies;Movimientos de Tierra","tipo":"Deslizamiento","subtipo":"Traslacional","cicatrices":"Si","ancho_promedio":"6 m","longitud_promedio":"8 m","espesor_promedio":"1.0 m","espesor_maximo":"1.5 m","escarpe":"Recto","forma_de_la_ladera":"Recta","suelos_fallados":"Muy Humedos","afloramientos":"No presenta","numero_de_muertes":"No","edificaciones_destruidas":"No","edificaciones_parcial_afecta":"No","viviendas_evacuadas":"No","coordenada_x":"839774.71","coordenada_y":"1049443","sue_fallados_cond_geotec":"Suelo Orgánico;Cenizas Volcánicas","factores_antropicos":"Excavaciones en la Base;Movimientos Tierra Sin Especificaciones Técnicas;Otros","uso_del_suelo":"Mezcla Rastrojo, Pasto, Àrboles","obras_est_manejo_aguas_lluvias":null,"suelos_expuestos":"Cenizas Volcánicas","no_ednes_destruidas":null,"no_ednes_parcial_afectadas":null,"no_viviendas_evacuadas":null,"longitud_del_recorrido":"8 m","prioridad":"Inmediata","observacion":"Conformación de terrazas del talud en una longitud de 40 metros y altura de 8 metros. Construcción de zanjas colectoras y empradización.","year":2017,"oid":16736285}},{"type":"Feature","id":16736287,"geometry":{"type":"Point","coordinates":[-75.51559,5.04286]},"properties":{"codigo":"DES_324","eam_codigo":"EAM981","localizacion":"Barrio El Palmar Carrera 9 Calle 7","fecha":"2017-05-03","observacion_evento":null,"barrio":null,"municipio":"873","departamento":"17","recomendaciones_definidas":null,"recomendaciones_inmediatas":null,"tipo":"Deslizamiento","subtipo":"Ninguno","cicatrices":null,"ancho_promedio":null,"longitud_promedio":null,"espesor_promedio":null,"espesor_maximo":null,"escarpe":"Ninguno","forma_de_la_ladera":"Ninguno","suelos_fallados":"Ninguno","afloramientos":"Ninguno","numero_de_muertes":null,"edificaciones_destruidas":null,"edificaciones_parcial_afecta":null,"viviendas_evacuadas":null,"coordenada_x":"840511","coordenada_y":"1049568","sue_fallados_cond_geotec":null,"factores_antropicos":null,"uso_del_suelo":null,"obras_est_manejo_aguas_lluvias":null,"suelos_expuestos":null,"no_ednes_destruidas":null,"no_ednes_parcial_afectadas":null,"no_viviendas_evacuadas":null,"longitud_del_recorrido":null,"prioridad":"Inmediata","observacion":"Deslizamiento de tierra que afecta la parte antigua de una vivienda, construida con materiales provisionales (esterilla, guadua, madera) dicha estructura y el desprendimiento de tierra desplazaron el resto de la vivienda, la cual aunque fue construida con materiales más resistentes no se evidencia presencia de elementos estructurales. El talud presenta alta pendiente que puede seguir un proceso erosivo.","year":2017,"oid":16736287}},{"type":"Feature","id":16736288,"geometry":{"type":"Point","coordinates":[-75.5124,5.04115]},"properties":{"codigo":"DES_325","eam_codigo":"EAM982","localizacion":"Barrio La Aldea Calle 8 No. 1229","fecha":"2017-05-03","observacion_evento":null,"barrio":null,"municipio":"873","departamento":"17","recomendaciones_definidas":null,"recomendaciones_inmediatas":null,"tipo":"Derrumbes o Caidas","subtipo":"Ninguno","cicatrices":null,"ancho_promedio":null,"longitud_promedio":null,"espesor_promedio":null,"espesor_maximo":null,"escarpe":"Ninguno","forma_de_la_ladera":"Ninguno","suelos_fallados":"Ninguno","afloramientos":"Ninguno","numero_de_muertes":null,"edificaciones_destruidas":null,"edificaciones_parcial_afecta":null,"viviendas_evacuadas":null,"coordenada_x":"840865","coordenada_y":"1049378","sue_fallados_cond_geotec":null,"factores_antropicos":null,"uso_del_suelo":null,"obras_est_manejo_aguas_lluvias":null,"suelos_expuestos":null,"no_ednes_destruidas":null,"no_ednes_parcial_afectadas":null,"no_viviendas_evacuadas":null,"longitud_del_recorrido":null,"prioridad":"Inmediata","observacion":"Se evidencio un talud con alto grado de inclinación, que posteriormente desencadeno un proceso erosivo; con el fin de mitigar esta situación, se realizó una obra parcial de estabilización del talud, la saturación del suelo ocasiono un proceso erosivo que migra lateralmente y afecta a las viviendas que están en la pata del talud así como en la parte superior.","year":2017,"oid":16736288}},{"type":"Feature","id":16736289,"geometry":{"type":"Point","coordinates":[-75.52181,5.03672]},"properties":{"codigo":"DES_326","eam_codigo":"EAM983","localizacion":"Floresta II El Descache","fecha":"2017-05-03","observacion_evento":null,"barrio":null,"municipio":"873","departamento":"17","recomendaciones_definidas":null,"recomendaciones_inmediatas":null,"tipo":"Derrumbes o Caidas","subtipo":"Ninguno","cicatrices":null,"ancho_promedio":null,"longitud_promedio":null,"espesor_promedio":null,"espesor_maximo":null,"escarpe":"Ninguno","forma_de_la_ladera":"Ninguno","suelos_fallados":"Ninguno","afloramientos":"Ninguno","numero_de_muertes":null,"edificaciones_destruidas":null,"edificaciones_parcial_afecta":null,"viviendas_evacuadas":null,"coordenada_x":"839820","coordenada_y":"1048890","sue_fallados_cond_geotec":null,"factores_antropicos":null,"uso_del_suelo":null,"obras_est_manejo_aguas_lluvias":null,"suelos_expuestos":null,"no_ednes_destruidas":null,"no_ednes_parcial_afectadas":null,"no_viviendas_evacuadas":null,"longitud_del_recorrido":null,"prioridad":"Inmediata","observacion":"Debido a las fuertes lluvias se evidencio que hay arrastre de material, la defensa civil hace registro en la parte superior y no evidencia agrietamiento, además se presentan surcos naturales relacionados a estos eventos, con grietas de tensión por falta de obras.","year":2017,"oid":16736289}},{"type":"Feature","id":16736967,"geometry":{"type":"Point","coordinates":[-75.52004,5.02535]},"properties":{"codigo":"DES_702","eam_codigo":"EAM1240","localizacion":null,"fecha":null,"observacion_evento":null,"barrio":null,"municipio":"873","departamento":"17","recomendaciones_definidas":null,"recomendaciones_inmediatas":null,"tipo":"Derrumbes o Caidas","subtipo":"Ninguno","cicatrices":"No","ancho_promedio":"3","longitud_promedio":"2","espesor_promedio":null,"espesor_maximo":null,"escarpe":"Curvilineo","forma_de_la_ladera":"Ninguno","suelos_fallados":"Poco Humedos","afloramientos":"Ninguno","numero_de_muertes":null,"edificaciones_destruidas":null,"edificaciones_parcial_afecta":null,"viviendas_evacuadas":null,"coordenada_x":"840013.61","coordenada_y":"1047632.13","sue_fallados_cond_geotec":"Formación Quebradagrande","factores_antropicos":"Daño Acueducto","uso_del_suelo":"Mezcla Rastrojo, Pasto, Àrboles;Cultivos Limpios","obras_est_manejo_aguas_lluvias":null,"suelos_expuestos":"Formación Quebradagrande","no_ednes_destruidas":null,"no_ednes_parcial_afectadas":null,"no_viviendas_evacuadas":null,"longitud_del_recorrido":null,"prioridad":"Inmediata","observacion":null,"year":null,"oid":16736967}},{"type":"Feature","id":16736968,"geometry":{"type":"Point","coordinates":[-75.53238,5.00782]},"properties":{"codigo":"DES_703","eam_codigo":"EAM1242","localizacion":null,"fecha":null,"observacion_evento":null,"barrio":null,"municipio":"873","departamento":"17","recomendaciones_definidas":null,"recomendaciones_inmediatas":null,"tipo":"Deslizamiento","subtipo":"Traslacional","cicatrices":"Si","ancho_promedio":"5","longitud_promedio":"8","espesor_promedio":null,"espesor_maximo":null,"escarpe":"Ninguno","forma_de_la_ladera":"Ninguno","suelos_fallados":"Ninguno","afloramientos":"Ninguno","numero_de_muertes":null,"edificaciones_destruidas":null,"edificaciones_parcial_afecta":null,"viviendas_evacuadas":null,"coordenada_x":"838640.44","coordenada_y":"1045696.02","sue_fallados_cond_geotec":"Formación Quebradagrande","factores_antropicos":"Areas sin Pavimentar","uso_del_suelo":"Mezcla Rastrojo, Pasto, Àrboles","obras_est_manejo_aguas_lluvias":null,"suelos_expuestos":"Formación Quebradagrande","no_ednes_destruidas":null,"no_ednes_parcial_afectadas":null,"no_viviendas_evacuadas":null,"longitud_del_recorrido":null,"prioridad":"Mediano Plazo","observacion":"Deslizamiento activo","year":null,"oid":16736968}},{"type":"Feature","id":16736969,"geometry":{"type":"Point","coordinates":[-75.53333,5.00495]},"properties":{"codigo":"DES_704","eam_codigo":"EAM1243","localizacion":null,"fecha":null,"observacion_evento":null,"barrio":null,"municipio":"873","departamento":"17","recomendaciones_definidas":null,"recomendaciones_inmediatas":null,"tipo":"Deslizamiento","subtipo":"Traslacional","cicatrices":"No","ancho_promedio":"4","longitud_promedio":"12","espesor_promedio":null,"espesor_maximo":null,"escarpe":"Ninguno","forma_de_la_ladera":"Ninguno","suelos_fallados":"Muy Humedos","afloramientos":"Bajo el deslizamiento","numero_de_muertes":null,"edificaciones_destruidas":null,"edificaciones_parcial_afecta":null,"viviendas_evacuadas":null,"coordenada_x":"838534.35","coordenada_y":"1045378.78","sue_fallados_cond_geotec":"Formación Quebradagrande","factores_antropicos":"Cultivos Limpios","uso_del_suelo":"Cultivos Limpios;Cultivos Limpios, Rastrojo, Pasto","obras_est_manejo_aguas_lluvias":null,"suelos_expuestos":"Formación Quebradagrande","no_ednes_destruidas":null,"no_ednes_parcial_afectadas":null,"no_viviendas_evacuadas":null,"longitud_del_recorrido":null,"prioridad":"Mediano Plazo","observacion":"Deslizamiento suspendido-Perdida parcial de la banca","year":null,"oid":16736969}},{"type":"Feature","id":16736970,"geometry":{"type":"Point","coordinates":[-75.53488,5.00342]},"properties":{"codigo":"DES_705","eam_codigo":"EAM1244","localizacion":null,"fecha":null,"observacion_evento":null,"barrio":null,"municipio":"873","departamento":"17","recomendaciones_definidas":null,"recomendaciones_inmediatas":null,"tipo":"Ninguno","subtipo":"Ninguno","cicatrices":null,"ancho_promedio":"8m","longitud_promedio":"14m","espesor_promedio":null,"espesor_maximo":null,"escarpe":"Curvilineo","forma_de_la_ladera":"Convexa","suelos_fallados":"Muy Humedos","afloramientos":"Ninguno","numero_de_muertes":"No","edificaciones_destruidas":"No","edificaciones_parcial_afecta":"No","viviendas_evacuadas":"No","coordenada_x":"838362.03","coordenada_y":"1045209.91","sue_fallados_cond_geotec":null,"factores_antropicos":null,"uso_del_suelo":null,"obras_est_manejo_aguas_lluvias":null,"suelos_expuestos":null,"no_ednes_destruidas":null,"no_ednes_parcial_afectadas":null,"no_viviendas_evacuadas":null,"longitud_del_recorrido":null,"prioridad":"Inmediata","observacion":"Deslizamiento activo","year":null,"oid":16736970}},{"type":"Feature","id":16736971,"geometry":{"type":"Point","coordinates":[-75.53983,4.99632]},"properties":{"codigo":"DES_706","eam_codigo":"EAM1245","localizacion":null,"fecha":null,"observacion_evento":null,"barrio":null,"municipio":"873","departamento":"17","recomendaciones_definidas":null,"recomendaciones_inmediatas":null,"tipo":"Deslizamiento-Flujo","subtipo":"Traslacional","cicatrices":"Si","ancho_promedio":"7","longitud_promedio":"5","espesor_promedio":null,"espesor_maximo":null,"escarpe":"Ninguno","forma_de_la_ladera":"Ninguno","suelos_fallados":"Ninguno","afloramientos":"Ninguno","numero_de_muertes":null,"edificaciones_destruidas":null,"edificaciones_parcial_afecta":null,"viviendas_evacuadas":null,"coordenada_x":"837811.16","coordenada_y":"1044425.74","sue_fallados_cond_geotec":"Suelo residual, formación Quebradagrande","factores_antropicos":null,"uso_del_suelo":null,"obras_est_manejo_aguas_lluvias":null,"suelos_expuestos":null,"no_ednes_destruidas":null,"no_ednes_parcial_afectadas":null,"no_viviendas_evacuadas":null,"longitud_del_recorrido":null,"prioridad":"Mediano Plazo","observacion":"Deslizamiento activo","year":null,"oid":16736971}},{"type":"Feature","id":16736884,"geometry":{"type":"Point","coordinates":[-75.58857,4.97952]},"properties":{"codigo":"DES_670","eam_codigo":"EAM1216","localizacion":"Centro Educativo Bajo Chuscal.. Vía Villamaría Chinchiná- Margen izquierda de la vía departamental que conduce a la vereda Rio Claro del municipio de Villamaria","fecha":null,"observacion_evento":null,"barrio":null,"municipio":"873","departamento":"17","recomendaciones_definidas":null,"recomendaciones_inmediatas":null,"tipo":"Deslizamiento","subtipo":"Traslacional","cicatrices":null,"ancho_promedio":null,"longitud_promedio":null,"espesor_promedio":null,"espesor_maximo":null,"escarpe":"Ninguno","forma_de_la_ladera":"Ninguno","suelos_fallados":"Ninguno","afloramientos":"Ninguno","numero_de_muertes":null,"edificaciones_destruidas":null,"edificaciones_parcial_afecta":null,"viviendas_evacuadas":null,"coordenada_x":"832400","coordenada_y":"1042580","sue_fallados_cond_geotec":null,"factores_antropicos":null,"uso_del_suelo":null,"obras_est_manejo_aguas_lluvias":"Realización de un estudio geotècnico, manejo adecuado de aguas lluvia en los techos y terreno, implementacion de canales, bajantes y zanjas colectoras que conduzcan las aguas a un sistema de colector principal o hacia una obra hidraulica en la vía","suelos_expuestos":null,"no_ednes_destruidas":null,"no_ednes_parcial_afectadas":null,"no_viviendas_evacuadas":null,"longitud_del_recorrido":null,"prioridad":"Inmediata","observacion":"Sistema séptico inestable sobre talud en el que ocurre el deslizamiento, inadecuado manejo de aguas lluvias en el techo de la infraestructura así como en el terreno que se ubica la escuela ","year":null,"oid":16736884}},{"type":"Feature","id":16736972,"geometry":{"type":"Point","coordinates":[-75.43246,5.0007]},"properties":{"codigo":"DES_707","eam_codigo":"EAM1225","localizacion":null,"fecha":null,"observacion_evento":null,"barrio":null,"municipio":"873","departamento":"17","recomendaciones_definidas":null,"recomendaciones_inmediatas":null,"tipo":"Deslizamiento","subtipo":"Rotacional","cicatrices":"Si","ancho_promedio":"6","longitud_promedio":"4","espesor_promedio":null,"espesor_maximo":null,"escarpe":"Ninguno","forma_de_la_ladera":"Ninguno","suelos_fallados":"Ninguno","afloramientos":"Ninguno","numero_de_muertes":null,"edificaciones_destruidas":null,"edificaciones_parcial_afecta":null,"viviendas_evacuadas":null,"coordenada_x":"849723.38","coordenada_y":"1044884.67","sue_fallados_cond_geotec":null,"factores_antropicos":"Sobrepastoreo intenso","uso_del_suelo":"Pasttos","obras_est_manejo_aguas_lluvias":null,"suelos_expuestos":null,"no_ednes_destruidas":null,"no_ednes_parcial_afectadas":null,"no_viviendas_evacuadas":null,"longitud_del_recorrido":null,"prioridad":"Inmediata","observacion":"Deslizamiento activo","year":null,"oid":16736972}},{"type":"Feature","id":16736973,"geometry":{"type":"Point","coordinates":[-75.38363,4.97257]},"properties":{"codigo":"DES_708","eam_codigo":"EAM1226","localizacion":null,"fecha":null,"observacion_evento":null,"barrio":null,"municipio":"873","departamento":"17","recomendaciones_definidas":null,"recomendaciones_inmediatas":null,"tipo":"Deslizamiento","subtipo":"Rotacional","cicatrices":"Si","ancho_promedio":"7","longitud_promedio":"13","espesor_promedio":null,"espesor_maximo":null,"escarpe":"Recto","forma_de_la_ladera":"Recta","suelos_fallados":"Ninguno","afloramientos":"Ninguno","numero_de_muertes":"No","edificaciones_destruidas":"No","edificaciones_parcial_afecta":"No","viviendas_evacuadas":"No","coordenada_x":"855133.48","coordenada_y":"1041762.32","sue_fallados_cond_geotec":null,"factores_antropicos":null,"uso_del_suelo":null,"obras_est_manejo_aguas_lluvias":null,"suelos_expuestos":null,"no_ednes_destruidas":null,"no_ednes_parcial_afectadas":null,"no_viviendas_evacuadas":null,"longitud_del_recorrido":null,"prioridad":"Mediano Plazo","observacion":"Deslizamiento suspendido","year":null,"oid":16736973}},{"type":"Feature","id":16736902,"geometry":{"type":"Point","coordinates":[-75.51414,5.05067]},"properties":{"codigo":"DES_619","eam_codigo":"EAM1173","localizacion":"Barrio Los Sauces","fecha":null,"observacion_evento":"depositos conglomeraticos clasto-soportados, perteneciente a la unidad denominada flujos de escombros de Villamaria","barrio":null,"municipio":"873","departamento":"17","recomendaciones_definidas":null,"recomendaciones_inmediatas":null,"tipo":"Deslizamiento","subtipo":"Traslacional","cicatrices":"Si","ancho_promedio":"4","longitud_promedio":"3.5","espesor_promedio":null,"espesor_maximo":null,"escarpe":"Ninguno","forma_de_la_ladera":"Concava","suelos_fallados":"Muy Humedos","afloramientos":"No presenta","numero_de_muertes":"No","edificaciones_destruidas":"No","edificaciones_parcial_afecta":"No","viviendas_evacuadas":"No","coordenada_x":"840674.3768040433","coordenada_y":"1050431.8397471036","sue_fallados_cond_geotec":null,"factores_antropicos":null,"uso_del_suelo":null,"obras_est_manejo_aguas_lluvias":null,"suelos_expuestos":null,"no_ednes_destruidas":null,"no_ednes_parcial_afectadas":null,"no_viviendas_evacuadas":null,"longitud_del_recorrido":null,"prioridad":"Mediano Plazo","observacion":"Sobre empinamiento del talud con excavaciones realizadas de la vía de acceso; alta exposición de los materiales a las aguas lluvias las cuales no cuentan con un adecuado manejo de aguas lluvia, depósitos poco consolidados","year":null,"oid":16736902}},{"type":"Feature","id":16736903,"geometry":{"type":"Point","coordinates":[-75.50586,5.03028]},"properties":{"codigo":"DES_620","eam_codigo":"EAM1174","localizacion":"Finca La Merced","fecha":null,"observacion_evento":"ladera prolongada, fuerte pendiente, cubierta de pastos y algunas especies arbóreas de porte medio , la vivienda no cuenta con canales y bajantes, proceso de deforestacion para darle uso al suelo agropecuario, inflitracion de aguas a  grietas ","barrio":null,"municipio":"873","departamento":"17","recomendaciones_definidas":null,"recomendaciones_inmediatas":null,"tipo":"Deslizamiento","subtipo":"Rotacional","cicatrices":"No","ancho_promedio":null,"longitud_promedio":null,"espesor_promedio":null,"espesor_maximo":null,"escarpe":"Irregular","forma_de_la_ladera":"Recta","suelos_fallados":"Muy Humedos","afloramientos":"No presenta","numero_de_muertes":"No","edificaciones_destruidas":"No","edificaciones_parcial_afecta":"No","viviendas_evacuadas":"No","coordenada_x":"841587.6525511853","coordenada_y":"1048173.781507373","sue_fallados_cond_geotec":null,"factores_antropicos":null,"uso_del_suelo":null,"obras_est_manejo_aguas_lluvias":null,"suelos_expuestos":null,"no_ednes_destruidas":null,"no_ednes_parcial_afectadas":null,"no_viviendas_evacuadas":null,"longitud_del_recorrido":null,"prioridad":"Corto Plazo","observacion":"*instalar sistemas de canales                                             \n*Realizar estudi hidraulico y geotecnico                                                   \n*Cambiar el uso del suelo ","year":null,"oid":16736903}},{"type":"Feature","id":16736904,"geometry":{"type":"Point","coordinates":[-75.51866,5.02336]},"properties":{"codigo":"DES_621","eam_codigo":"EAM1175","localizacion":" Predio Las Brisas","fecha":null,"observacion_evento":"Por aporte concentrado en el terreno de agua proveniente del techo de la vivienda y  que este carece de canales y bajantes, infiltración de agua a traves de grietas generadas en el concreto","barrio":null,"municipio":"873","departamento":"17","recomendaciones_definidas":null,"recomendaciones_inmediatas":null,"tipo":"Deslizamiento","subtipo":"Traslacional","cicatrices":"Si","ancho_promedio":null,"longitud_promedio":null,"espesor_promedio":null,"espesor_maximo":null,"escarpe":"Recto","forma_de_la_ladera":"Recta","suelos_fallados":"Muy Humedos","afloramientos":"No presenta","numero_de_muertes":"No","edificaciones_destruidas":"No","edificaciones_parcial_afecta":"No","viviendas_evacuadas":"No","coordenada_x":"840166.0884017502","coordenada_y":"1047411.7891332689","sue_fallados_cond_geotec":null,"factores_antropicos":null,"uso_del_suelo":null,"obras_est_manejo_aguas_lluvias":null,"suelos_expuestos":null,"no_ednes_destruidas":null,"no_ednes_parcial_afectadas":null,"no_viviendas_evacuadas":null,"longitud_del_recorrido":null,"prioridad":"Corto Plazo","observacion":"instalar un sistema de canales y bajantes, efectuar un estudio geotecnico, restituir en su totalidad el anden perimetral.","year":null,"oid":16736904}},{"type":"Feature","id":16736905,"geometry":{"type":"Point","coordinates":[-75.55648,4.98986]},"properties":{"codigo":"DES_622","eam_codigo":"EAM1176","localizacion":"Finca Santa Rita","fecha":null,"observacion_evento":"Roca meteorizada perteneciente a la unidad geologica Complejo Quebradagrande miembro volcánico, controlado tectonicamente por el sistema de fallas Cauca-Romeral","barrio":null,"municipio":"873","departamento":"17","recomendaciones_definidas":null,"recomendaciones_inmediatas":null,"tipo":"Deslizamiento","subtipo":"Traslacional","cicatrices":"Si","ancho_promedio":null,"longitud_promedio":null,"espesor_promedio":null,"espesor_maximo":null,"escarpe":"Recto","forma_de_la_ladera":"Recta","suelos_fallados":"Muy Humedos","afloramientos":"No presenta","numero_de_muertes":"No","edificaciones_destruidas":"No","edificaciones_parcial_afecta":"No","viviendas_evacuadas":"No","coordenada_x":"835963.0375790547","coordenada_y":"1043715.6930002938","sue_fallados_cond_geotec":null,"factores_antropicos":null,"uso_del_suelo":null,"obras_est_manejo_aguas_lluvias":null,"suelos_expuestos":null,"no_ednes_destruidas":null,"no_ednes_parcial_afectadas":null,"no_viviendas_evacuadas":null,"longitud_del_recorrido":null,"prioridad":"Corto Plazo","observacion":"*Implementar adecuado manejo de aguas lluvia sobre la via carreteable.                                                                         \n*Buscar nuevos sitios para el descole de las transversales.                                                                                       \n*Construcción de obras de bioingenieria.","year":null,"oid":16736905}},{"type":"Feature","id":16736974,"geometry":{"type":"Point","coordinates":[-75.38514,4.97132]},"properties":{"codigo":"DES_709","eam_codigo":"EAM1227","localizacion":null,"fecha":null,"observacion_evento":null,"barrio":null,"municipio":"873","departamento":"17","recomendaciones_definidas":null,"recomendaciones_inmediatas":null,"tipo":"Deslizamiento-Flujo","subtipo":"Traslacional","cicatrices":"Si","ancho_promedio":"8m","longitud_promedio":"3,5","espesor_promedio":null,"espesor_maximo":null,"escarpe":"Curvilineo","forma_de_la_ladera":"Concava","suelos_fallados":"Muy Humedos","afloramientos":"Ninguno","numero_de_muertes":"No","edificaciones_destruidas":"No","edificaciones_parcial_afecta":"No","viviendas_evacuadas":"No","coordenada_x":"854965.69","coordenada_y":"1041624.39","sue_fallados_cond_geotec":null,"factores_antropicos":null,"uso_del_suelo":null,"obras_est_manejo_aguas_lluvias":null,"suelos_expuestos":null,"no_ednes_destruidas":null,"no_ednes_parcial_afectadas":null,"no_viviendas_evacuadas":null,"longitud_del_recorrido":null,"prioridad":"Inmediata","observacion":"Deslizamiento traslacional activo- obstruye parcialmente la vía","year":null,"oid":16736974}},{"type":"Feature","id":16736941,"geometry":{"type":"Point","coordinates":[-75.56128,4.93447]},"properties":{"codigo":"DES_659","eam_codigo":"EAM1209","localizacion":null,"fecha":null,"observacion_evento":null,"barrio":null,"municipio":"873","departamento":"17","recomendaciones_definidas":"Reforestación;Obras Bioingenieriles","recomendaciones_inmediatas":"Reparación de Acueducto;Monitoreo Visual;Perfilado del Talud","tipo":"Deslizamiento","subtipo":"Rotacional","cicatrices":"Si","ancho_promedio":"250","longitud_promedio":"200","espesor_promedio":"3","espesor_maximo":"3.5","escarpe":"Irregular","forma_de_la_ladera":"Concava","suelos_fallados":"Secos","afloramientos":"Ninguno","numero_de_muertes":"No","edificaciones_destruidas":"No","edificaciones_parcial_afecta":"No","viviendas_evacuadas":"No","coordenada_x":"835416","coordenada_y":"1037589","sue_fallados_cond_geotec":"Cenizas Volcánicas","factores_antropicos":"Falta de Canales y Bajantes;Daño Acueducto","uso_del_suelo":"Mezcla Rastrojo, Pasto, Àrboles","obras_est_manejo_aguas_lluvias":"Zanjas Colectoras, Acequias;Reforestación, Trinchos, Obras Ingenieriles","suelos_expuestos":"Cenizas Volcánicas","no_ednes_destruidas":null,"no_ednes_parcial_afectadas":null,"no_viviendas_evacuadas":null,"longitud_del_recorrido":"200","prioridad":"Mediano Plazo","observacion":null,"year":null,"oid":16736941}},{"type":"Feature","id":16736946,"geometry":{"type":"Point","coordinates":[-75.52253,5.03592]},"properties":{"codigo":"DES_676","eam_codigo":"EAM1223","localizacion":"Municipio Villamaria Vía Llanitos  Villamaría-Chinchiná ","fecha":null,"observacion_evento":null,"barrio":null,"municipio":"873","departamento":"17","recomendaciones_definidas":"Monitoreo periodico del talud  ","recomendaciones_inmediatas":"Construcción de una estructura de contención tipo pantalla con anclajes pasivos de 6 m de profundidad.","tipo":"Deslizamiento","subtipo":"Traslacional","cicatrices":null,"ancho_promedio":"20","longitud_promedio":"4","espesor_promedio":null,"espesor_maximo":null,"escarpe":"Ninguno","forma_de_la_ladera":"Ninguno","suelos_fallados":"Ninguno","afloramientos":"Ninguno","numero_de_muertes":null,"edificaciones_destruidas":null,"edificaciones_parcial_afecta":"Si","viviendas_evacuadas":null,"coordenada_x":"839740","coordenada_y":"1048802","sue_fallados_cond_geotec":null,"factores_antropicos":null,"uso_del_suelo":null,"obras_est_manejo_aguas_lluvias":null,"suelos_expuestos":null,"no_ednes_destruidas":null,"no_ednes_parcial_afectadas":null,"no_viviendas_evacuadas":null,"longitud_del_recorrido":null,"prioridad":"Inmediata","observacion":"Desconfinamiento de talud a causa de la ampliación de la vía","year":null,"oid":16736946}},{"type":"Feature","id":16736947,"geometry":{"type":"Point","coordinates":[-75.58859,4.9793]},"properties":{"codigo":"DES_665","eam_codigo":"EAM1212","localizacion":"Bajo Chuscal  Institución educativa Eduardo Gómez Arrubla","fecha":null,"observacion_evento":null,"barrio":null,"municipio":"873","departamento":"17","recomendaciones_definidas":"Construcción de zanjas colectoras","recomendaciones_inmediatas":"Monitoreo Permanente, Inspección detallada del sistema séptico ","tipo":"Deslizamiento","subtipo":"Traslacional","cicatrices":null,"ancho_promedio":null,"longitud_promedio":null,"espesor_promedio":null,"espesor_maximo":null,"escarpe":"Ninguno","forma_de_la_ladera":"Ninguno","suelos_fallados":"Muy Humedos","afloramientos":"Ninguno","numero_de_muertes":null,"edificaciones_destruidas":null,"edificaciones_parcial_afecta":"Si","viviendas_evacuadas":null,"coordenada_x":"832398","coordenada_y":"1042555","sue_fallados_cond_geotec":null,"factores_antropicos":"La edificación no cuenta con las obras adecuadas para manejo de aguas superficiales como zanjas","uso_del_suelo":null,"obras_est_manejo_aguas_lluvias":null,"suelos_expuestos":null,"no_ednes_destruidas":null,"no_ednes_parcial_afectadas":null,"no_viviendas_evacuadas":null,"longitud_del_recorrido":null,"prioridad":"Corto Plazo","observacion":null,"year":null,"oid":16736947}},{"type":"Feature","id":16736948,"geometry":{"type":"Point","coordinates":[-75.53659,4.99601]},"properties":{"codigo":"DES_666","eam_codigo":"EAM1213","localizacion":null,"fecha":null,"observacion_evento":"pendientes altas, procesos de potrerización  inexistencia de sistemas sépticos mal manejo de aguas de la cubierta de la vivienda","barrio":null,"municipio":"873","departamento":"17","recomendaciones_definidas":"mantenimiento permanente a la vía  garantizando el adecuado funcionamientode cunetas y transversales, con el fin de evitar que se presenten infiltraciones hacia el predio","recomendaciones_inmediatas":"Dotar la vivienda de sistema séptico, canales y bajantes   ","tipo":"Deslizamiento","subtipo":"Ninguno","cicatrices":null,"ancho_promedio":null,"longitud_promedio":null,"espesor_promedio":null,"espesor_maximo":null,"escarpe":"Ninguno","forma_de_la_ladera":"Ninguno","suelos_fallados":"Ninguno","afloramientos":"Ninguno","numero_de_muertes":null,"edificaciones_destruidas":null,"edificaciones_parcial_afecta":"Si","viviendas_evacuadas":null,"coordenada_x":"838170","coordenada_y":"1044391","sue_fallados_cond_geotec":null,"factores_antropicos":null,"uso_del_suelo":null,"obras_est_manejo_aguas_lluvias":null,"suelos_expuestos":null,"no_ednes_destruidas":null,"no_ednes_parcial_afectadas":null,"no_viviendas_evacuadas":null,"longitud_del_recorrido":null,"prioridad":"Corto Plazo","observacion":null,"year":null,"oid":16736948}},{"type":"Feature","id":16736949,"geometry":{"type":"Point","coordinates":[-75.5393,4.99387]},"properties":{"codigo":"DES_667","eam_codigo":"EAM1214","localizacion":"Vereda Llanitos;escuela la milagrosa ","fecha":null,"observacion_evento":"Deslizamiento con pendiente vertical, amenaza vivienda y vía Rio Claro","barrio":null,"municipio":"873","departamento":"17","recomendaciones_definidas":" apuntillamiento de talud mediante anclajes pasivos reforzados con varillasdeacero de 5/8´´ de diametro de 3 de profundidad espaciados cada 1m, al tresbolillo.   cobertura vegetalrastrera ","recomendaciones_inmediatas":"Eliminar negativos y depositos inestables sobre el talud, mediante un perfilado del mismo, construir zanjas colectoras.","tipo":"Deslizamiento","subtipo":"Traslacional","cicatrices":"Si","ancho_promedio":null,"longitud_promedio":null,"espesor_promedio":null,"espesor_maximo":null,"escarpe":"Ninguno","forma_de_la_ladera":"Ninguno","suelos_fallados":"Ninguno","afloramientos":"Ninguno","numero_de_muertes":null,"edificaciones_destruidas":null,"edificaciones_parcial_afecta":null,"viviendas_evacuadas":null,"coordenada_x":"837869","coordenada_y":"1044155","sue_fallados_cond_geotec":null,"factores_antropicos":null,"uso_del_suelo":null,"obras_est_manejo_aguas_lluvias":null,"suelos_expuestos":null,"no_ednes_destruidas":null,"no_ednes_parcial_afectadas":null,"no_viviendas_evacuadas":null,"longitud_del_recorrido":null,"prioridad":"Inmediata","observacion":"Presenta pendiente negativa","year":null,"oid":16736949}},{"type":"Feature","id":16736964,"geometry":{"type":"Point","coordinates":[-75.49758,5.00553]},"properties":{"codigo":"DES_699","eam_codigo":"EAM1237","localizacion":null,"fecha":null,"observacion_evento":null,"barrio":null,"municipio":"873","departamento":"17","recomendaciones_definidas":null,"recomendaciones_inmediatas":null,"tipo":"Deslizamiento","subtipo":"Traslacional","cicatrices":"No","ancho_promedio":"4","longitud_promedio":"7","espesor_promedio":null,"espesor_maximo":null,"escarpe":"Recto","forma_de_la_ladera":"Recta","suelos_fallados":"Poco Humedos","afloramientos":"Ninguno","numero_de_muertes":null,"edificaciones_destruidas":null,"edificaciones_parcial_afecta":null,"viviendas_evacuadas":null,"coordenada_x":"842500.33","coordenada_y":"1045434.26","sue_fallados_cond_geotec":"Formación Quebradagrande","factores_antropicos":"Otros","uso_del_suelo":"Àrboles;Mezcla Rastrojo, Pasto, Àrboles","obras_est_manejo_aguas_lluvias":null,"suelos_expuestos":"Formación Quebradagrande","no_ednes_destruidas":null,"no_ednes_parcial_afectadas":null,"no_viviendas_evacuadas":null,"longitud_del_recorrido":null,"prioridad":"No Aplica","observacion":null,"year":null,"oid":16736964}},{"type":"Feature","id":16736965,"geometry":{"type":"Point","coordinates":[-75.49495,4.97907]},"properties":{"codigo":"DES_700","eam_codigo":"EAM1238","localizacion":null,"fecha":null,"observacion_evento":null,"barrio":null,"municipio":"873","departamento":"17","recomendaciones_definidas":null,"recomendaciones_inmediatas":null,"tipo":"Deslizamiento","subtipo":"Traslacional","cicatrices":"Si","ancho_promedio":"7","longitud_promedio":"6","espesor_promedio":null,"espesor_maximo":null,"escarpe":"Ninguno","forma_de_la_ladera":"Ninguno","suelos_fallados":"Ninguno","afloramientos":"Ninguno","numero_de_muertes":null,"edificaciones_destruidas":null,"edificaciones_parcial_afecta":null,"viviendas_evacuadas":null,"coordenada_x":"842785.79","coordenada_y":"1042506.73","sue_fallados_cond_geotec":"Formación Quebradagrande","factores_antropicos":"Sobrepastoreo","uso_del_suelo":"Pasto","obras_est_manejo_aguas_lluvias":null,"suelos_expuestos":"Formación Quebradagrande","no_ednes_destruidas":null,"no_ednes_parcial_afectadas":null,"no_viviendas_evacuadas":null,"longitud_del_recorrido":null,"prioridad":"No Aplica","observacion":"Deslizamiento inactivo","year":null,"oid":16736965}},{"type":"Feature","id":16736966,"geometry":{"type":"Point","coordinates":[-75.48466,4.94977]},"properties":{"codigo":"DES_701","eam_codigo":"EAM1239","localizacion":null,"fecha":null,"observacion_evento":null,"barrio":null,"municipio":"873","departamento":"17","recomendaciones_definidas":null,"recomendaciones_inmediatas":null,"tipo":"Deslizamiento","subtipo":"Traslacional","cicatrices":"Si","ancho_promedio":"5","longitud_promedio":"7","espesor_promedio":null,"espesor_maximo":null,"escarpe":"Curvilineo","forma_de_la_ladera":"Recta","suelos_fallados":"Poco Humedos","afloramientos":"Ninguno","numero_de_muertes":null,"edificaciones_destruidas":null,"edificaciones_parcial_afecta":null,"viviendas_evacuadas":null,"coordenada_x":"843920.44","coordenada_y":"1039263.25","sue_fallados_cond_geotec":"Otros,Complejo Cajamarca","factores_antropicos":"Falta de Canales y Bajantes;Sobrepastoreo","uso_del_suelo":"Mezcla Rastrojo, Pasto, Àrboles","obras_est_manejo_aguas_lluvias":null,"suelos_expuestos":"Otros,Complejo Cajamarca","no_ednes_destruidas":null,"no_ednes_parcial_afectadas":null,"no_viviendas_evacuadas":null,"longitud_del_recorrido":null,"prioridad":"Inmediata","observacion":"Perdida parcial de la banca","year":null,"oid":16736966}}]}