{"type":"FeatureCollection","name":"Zonas_Susceptibles_Inundacion (IDEAM)","crs":{"type":"name","properties":{"name":"urn:ogc:def:crs:OGC:1.3:CRS84"}},"features":[{"type":"Feature","id":1,"geometry":{"type":"MultiPolygon","coordinates":[[[[-75.56691,5.52496],[-75.56157,5.543],[-75.56248,5.54931],[-75.56429,5.55472],[-75.56521,5.56373],[-75.56433,5.57094],[-75.56344,5.57545],[-75.56347,5.58627],[-75.5653,5.59889],[-75.57002,5.61739],[-75.57343,5.61904],[-75.57498,5.62367],[-75.57577,5.62985],[-75.57732,5.63603],[-75.58119,5.64297],[-75.58429,5.64914],[-75.58211,5.65648],[-75.58251,5.65638],[-75.5831,5.65618],[-75.5832,5.65615],[-75.58387,5.65578],[-75.58422,5.65551],[-75.58439,5.65526],[-75.58445,5.65488],[-75.58443,5.65431],[-75.58447,5.65381],[-75.58466,5.6533],[-75.58489,5.65287],[-75.58527,5.6525],[-75.58572,5.65214],[-75.58655,5.65177],[-75.58696,5.65149],[-75.58731,5.65108],[-75.58751,5.65073],[-75.5876,5.65035],[-75.58764,5.64971],[-75.58782,5.64911],[-75.58808,5.6486],[-75.58841,5.6481],[-75.58853,5.64784],[-75.58913,5.64546],[-75.58929,5.64463],[-75.58952,5.64202],[-75.58947,5.6411],[-75.58926,5.64012],[-75.58911,5.63964],[-75.58877,5.63882],[-75.58865,5.63833],[-75.58846,5.63711],[-75.58833,5.63691],[-75.58789,5.63651],[-75.58602,5.63527],[-75.58583,5.63507],[-75.58565,5.63463],[-75.58539,5.63286],[-75.58504,5.63172],[-75.58454,5.63068],[-75.58437,5.62997],[-75.58428,5.62879],[-75.58417,5.6284],[-75.5837,5.62747],[-75.58327,5.62674],[-75.58294,5.62605],[-75.58279,5.62531],[-75.58294,5.62409],[-75.58326,5.62324],[-75.58351,5.62277],[-75.58381,5.62203],[-75.58418,5.62016],[-75.58414,5.61939],[-75.58417,5.61829],[-75.58411,5.61772],[-75.58383,5.61637],[-75.58355,5.61551],[-75.58338,5.61515],[-75.58255,5.61406],[-75.58191,5.61245],[-75.58177,5.61179],[-75.58169,5.61103],[-75.58141,5.61012],[-75.5803,5.60775],[-75.58015,5.60705],[-75.58008,5.60631],[-75.58011,5.60563],[-75.58033,5.60492],[-75.58058,5.60434],[-75.58092,5.60371],[-75.58113,5.60323],[-75.58136,5.60237],[-75.58138,5.6014],[-75.58127,5.60062],[-75.58087,5.59883],[-75.58079,5.59828],[-75.58077,5.59734],[-75.58085,5.59564],[-75.58076,5.59338],[-75.58065,5.59277],[-75.58042,5.59203],[-75.58018,5.59143],[-75.57951,5.59025],[-75.57928,5.58965],[-75.57926,5.58894],[-75.57933,5.58878],[-75.57931,5.58845],[-75.57897,5.58737],[-75.57862,5.58653],[-75.57844,5.58627],[-75.57735,5.58523],[-75.57694,5.58476],[-75.57648,5.58406],[-75.57624,5.58346],[-75.57618,5.58267],[-75.57623,5.58226],[-75.57645,5.58159],[-75.57697,5.58045],[-75.57703,5.58013],[-75.57702,5.57992],[-75.57633,5.57854],[-75.57559,5.57676],[-75.57536,5.57596],[-75.57532,5.57536],[-75.57537,5.57464],[-75.57573,5.57239],[-75.57605,5.57099],[-75.57654,5.56803],[-75.57671,5.56615],[-75.57676,5.56461],[-75.57652,5.56245],[-75.57646,5.5616],[-75.57646,5.56083],[-75.57628,5.55942],[-75.57626,5.55857],[-75.57652,5.55623],[-75.57655,5.55551],[-75.57632,5.55349],[-75.57626,5.55264],[-75.57619,5.55169],[-75.57587,5.54941],[-75.57572,5.54884],[-75.57478,5.54674],[-75.57427,5.54597],[-75.57372,5.54537],[-75.57328,5.54483],[-75.5728,5.54434],[-75.57107,5.54327],[-75.57051,5.54261],[-75.57023,5.54221],[-75.56993,5.54168],[-75.56961,5.54082],[-75.56923,5.53925],[-75.56915,5.53874],[-75.56913,5.5382],[-75.5692,5.53758],[-75.56941,5.53681],[-75.56959,5.53591],[-75.56981,5.53414],[-75.56986,5.53307],[-75.5699,5.53293],[-75.56959,5.5318],[-75.5696,5.53038],[-75.56946,5.52936],[-75.56936,5.52827],[-75.56936,5.52788],[-75.56952,5.5269],[-75.56956,5.52642],[-75.56943,5.52555],[-75.56925,5.52468],[-75.56914,5.52358],[-75.56923,5.52326],[-75.56998,5.5217],[-75.57042,5.52116],[-75.57074,5.52084],[-75.57155,5.52026],[-75.57375,5.51898],[-75.57675,5.51694],[-75.57764,5.51618],[-75.57849,5.51592],[-75.57869,5.51592],[-75.57878,5.51596],[-75.57892,5.5161],[-75.57927,5.51717],[-75.5794,5.51744],[-75.57977,5.51785],[-75.58005,5.51805],[-75.58032,5.51818],[-75.58076,5.51833],[-75.58191,5.51858],[-75.58276,5.51869],[-75.58358,5.51873],[-75.58417,5.51857],[-75.5847,5.51835],[-75.58503,5.51832],[-75.58627,5.51846],[-75.58704,5.51844],[-75.58783,5.51835],[-75.58927,5.5181],[-75.58974,5.51813],[-75.59004,5.51822],[-75.59035,5.51837],[-75.59057,5.51853],[-75.59089,5.51933],[-75.5911,5.51955],[-75.59134,5.51972],[-75.59168,5.51983],[-75.59202,5.51983],[-75.59245,5.5197],[-75.59269,5.51955],[-75.59303,5.51907],[-75.59332,5.51879],[-75.59354,5.51871],[-75.59472,5.51875],[-75.59503,5.51869],[-75.59519,5.5186],[-75.59561,5.51821],[-75.59586,5.51807],[-75.59614,5.5181],[-75.59635,5.51827],[-75.59657,5.51901],[-75.59688,5.51963],[-75.59708,5.51982],[-75.59737,5.52002],[-75.59769,5.52019],[-75.59809,5.52028],[-75.59914,5.52039],[-75.59922,5.5204],[-75.60006,5.5192],[-75.60017,5.516],[-75.59959,5.51314],[-75.59924,5.51051],[-75.59806,5.49883],[-75.59645,5.49528],[-75.5961,5.49242],[-75.59632,5.49025],[-75.59654,5.48601],[-75.59699,5.48303],[-75.59755,5.48006],[-75.598,5.47742],[-75.59845,5.47318],[-75.59935,5.46998],[-75.59992,5.46791],[-75.60083,5.46505],[-75.60162,5.46299],[-75.60253,5.46058],[-75.60367,5.4576],[-75.60537,5.45371],[-75.60628,5.45142],[-75.60788,5.44855],[-75.60879,5.44672],[-75.60992,5.44351],[-75.61037,5.44042],[-75.61059,5.43732],[-75.61035,5.43412],[-75.61012,5.43206],[-75.61011,5.42794],[-75.6101,5.42393],[-75.61021,5.42187],[-75.61077,5.41912],[-75.61168,5.41568],[-75.6127,5.4127],[-75.61361,5.41041],[-75.6152,5.40675],[-75.61611,5.40457],[-75.61736,5.40193],[-75.61827,5.39918],[-75.61929,5.39655],[-75.61986,5.39449],[-75.61996,5.39257],[-75.62365,5.39256],[-75.6252,5.39488],[-75.62828,5.39718],[-75.63292,5.40722],[-75.63678,5.4103],[-75.63909,5.41184],[-75.64064,5.41569],[-75.64142,5.41955],[-75.64374,5.4265],[-75.64453,5.43191],[-75.64531,5.43654],[-75.64609,5.44272],[-75.64535,5.45276],[-75.6446,5.46126],[-75.64463,5.4713],[-75.64388,5.47826],[-75.6439,5.48521],[-75.64929,5.48597],[-75.65236,5.48287],[-75.65696,5.47745],[-75.66002,5.47204],[-75.66694,5.46815],[-75.67463,5.46813],[-75.68079,5.46735],[-75.68772,5.46887],[-75.69542,5.47117],[-75.70003,5.46884],[-75.70001,5.46266],[-75.69616,5.46112],[-75.69077,5.45805],[-75.68383,5.45498],[-75.67921,5.45267],[-75.67458,5.44728],[-75.67226,5.44265],[-75.67148,5.43802],[-75.66839,5.43416],[-75.66531,5.43262],[-75.66222,5.43109],[-75.65913,5.42646],[-75.65912,5.42105],[-75.65295,5.41412],[-75.65063,5.40949],[-75.64753,5.40254],[-75.64675,5.39791],[-75.6398,5.38866],[-75.63518,5.38635],[-75.62978,5.3825],[-75.62306,5.37747],[-75.619,5.3779],[-75.61208,5.37946],[-75.60669,5.37947],[-75.60438,5.37948],[-75.60186,5.37999],[-75.60131,5.38335],[-75.59748,5.38722],[-75.59441,5.39109],[-75.59212,5.39882],[-75.59061,5.40887],[-75.58985,5.41273],[-75.58832,5.41892],[-75.58603,5.4251],[-75.58451,5.43206],[-75.58144,5.43825],[-75.57991,5.44134],[-75.57916,5.44907],[-75.57764,5.4568],[-75.57766,5.46298],[-75.57382,5.46608],[-75.57306,5.46917],[-75.5723,5.47303],[-75.57153,5.47613],[-75.56967,5.47897],[-75.56591,5.48529],[-75.56682,5.4898],[-75.56414,5.49521],[-75.56326,5.50243],[-75.56598,5.51234],[-75.56691,5.52496]]],[[[-75.56459,5.67462],[-75.56551,5.68003],[-75.57018,5.68227],[-75.57675,5.68984],[-75.5794,5.69117],[-75.58205,5.69182],[-75.58868,5.69314],[-75.592,5.69712],[-75.594,5.7011],[-75.59467,5.70642],[-75.59535,5.7104],[-75.59625,5.71176],[-75.59625,5.71141],[-75.5964,5.71067],[-75.59635,5.70912],[-75.59651,5.70861],[-75.59708,5.70759],[-75.59743,5.70704],[-75.59792,5.70592],[-75.59811,5.70539],[-75.5983,5.70467],[-75.59847,5.70298],[-75.5986,5.7011],[-75.5987,5.70038],[-75.5989,5.69958],[-75.59965,5.6974],[-75.59978,5.69668],[-75.59987,5.69572],[-75.59988,5.6941],[-75.59986,5.69364],[-75.59943,5.69096],[-75.59929,5.68929],[-75.59909,5.68754],[-75.59877,5.68633],[-75.59847,5.68491],[-75.59839,5.68421],[-75.59838,5.68364],[-75.59844,5.68297],[-75.59861,5.68214],[-75.5989,5.68131],[-75.59935,5.6795],[-75.59903,5.67939],[-75.5987,5.67917],[-75.59798,5.67832],[-75.59727,5.67785],[-75.59664,5.67758],[-75.59498,5.67697],[-75.59441,5.67673],[-75.59193,5.67592],[-75.59156,5.67573],[-75.58989,5.67439],[-75.58923,5.67393],[-75.5887,5.67376],[-75.58792,5.67364],[-75.58645,5.67353],[-75.58551,5.67332],[-75.58465,5.67307],[-75.58305,5.6729],[-75.58154,5.67261],[-75.58072,5.67229],[-75.57978,5.67174],[-75.57941,5.67121],[-75.57922,5.67106],[-75.57891,5.671],[-75.5781,5.67099],[-75.57718,5.67102],[-75.57578,5.67098],[-75.57522,5.67084],[-75.57459,5.67062],[-75.57399,5.67033],[-75.57353,5.67002],[-75.57337,5.66983],[-75.57325,5.66936],[-75.57304,5.66809],[-75.5728,5.66694],[-75.57274,5.66642],[-75.57264,5.66591],[-75.57252,5.66464],[-75.57269,5.6637],[-75.57306,5.66284],[-75.57324,5.66258],[-75.57014,5.66384],[-75.56637,5.6665],[-75.56458,5.67012],[-75.56459,5.67462]]],[[[-75.59603,5.71772],[-75.59603,5.72037],[-75.59808,5.72597],[-75.59827,5.72961],[-75.5987,5.7378],[-75.5988,5.73784],[-75.5989,5.73783],[-75.59906,5.7376],[-75.59899,5.7366],[-75.59915,5.73515],[-75.59918,5.73443],[-75.59915,5.73312],[-75.59922,5.73276],[-75.5993,5.73234],[-75.59972,5.73099],[-75.59982,5.73046],[-75.59986,5.72834],[-75.59984,5.72729],[-75.59977,5.72648],[-75.59961,5.72576],[-75.59936,5.72497],[-75.5993,5.72462],[-75.59929,5.72422],[-75.5994,5.72343],[-75.59969,5.72183],[-75.60015,5.71967],[-75.60019,5.71894],[-75.60014,5.7181],[-75.60001,5.71711],[-75.59976,5.71639],[-75.59943,5.71571],[-75.59926,5.71544],[-75.59821,5.71457],[-75.59741,5.71383],[-75.59663,5.7128],[-75.59603,5.71772]]]]},"properties":{"OBJECTID_1":1,"OBJECTID":112,"SUSCEPTIBL":"Inundación","Shape_Leng":460351.397738,"Shape_Length":123627.5832867752,"Shape_Area":102479542.56721814}},{"type":"Feature","id":2,"geometry":{"type":"MultiPolygon","coordinates":[[[[-74.79102,5.69653],[-74.79444,5.69917],[-74.79529,5.70006],[-74.79669,5.70183],[-74.79846,5.69828],[-74.79653,5.69699],[-74.79266,5.69635],[-74.78235,5.69184],[-74.77786,5.69102],[-74.77821,5.69123],[-74.77961,5.69245],[-74.78062,5.69374],[-74.78141,5.6945],[-74.78188,5.69485],[-74.78256,5.69538],[-74.78325,5.69572],[-74.78373,5.69587],[-74.78736,5.69636],[-74.78776,5.69659],[-74.78827,5.69663],[-74.78877,5.69646],[-74.78879,5.69645],[-74.79032,5.6963],[-74.79102,5.69653]]],[[[-74.73466,5.70344],[-74.73246,5.70595],[-74.73293,5.70614],[-74.73439,5.70716],[-74.73523,5.70763],[-74.73578,5.7078],[-74.73632,5.70788],[-74.73691,5.70772],[-74.73762,5.7073],[-74.73825,5.70679],[-74.73926,5.70585],[-74.74074,5.70379],[-74.74083,5.70347],[-74.74077,5.70289],[-74.74012,5.70204],[-74.74008,5.70207],[-74.73917,5.70089],[-74.73902,5.70052],[-74.73902,5.70007],[-74.73941,5.69933],[-74.73983,5.69923],[-74.73998,5.69919],[-74.74042,5.69922],[-74.74085,5.69919],[-74.74169,5.69885],[-74.74339,5.6984],[-74.74487,5.69831],[-74.74543,5.69831],[-74.7477,5.69788],[-74.74921,5.69735],[-74.75158,5.69638],[-74.752,5.69616],[-74.75249,5.69596],[-74.75315,5.6958],[-74.75366,5.69579],[-74.75386,5.69585],[-74.75415,5.69589],[-74.75444,5.69597],[-74.75519,5.69597],[-74.75671,5.69595],[-74.75737,5.69571],[-74.75949,5.69455],[-74.7607,5.69418],[-74.76171,5.69409],[-74.76368,5.6943],[-74.76428,5.69421],[-74.76639,5.69347],[-74.76759,5.69288],[-74.7689,5.69194],[-74.77071,5.68998],[-74.76495,5.68926],[-74.76108,5.6899],[-74.75786,5.68668],[-74.75636,5.6838],[-74.75962,5.67793],[-74.76347,5.67408],[-74.7686,5.67216],[-74.77373,5.66959],[-74.77886,5.66767],[-74.78142,5.6651],[-74.78527,5.65997],[-74.78976,5.65741],[-74.79424,5.651],[-74.79488,5.64523],[-74.79488,5.6401],[-74.79681,5.63305],[-74.80065,5.62664],[-74.8045,5.61958],[-74.80899,5.61573],[-74.8154,5.61509],[-74.82245,5.61381],[-74.82758,5.61317],[-74.83143,5.60804],[-74.83464,5.60483],[-74.83912,5.60419],[-74.84489,5.59906],[-74.8449,5.59522],[-74.84938,5.59009],[-74.85708,5.58239],[-74.86223,5.57962],[-74.86152,5.56995],[-74.85195,5.57727],[-74.84874,5.57983],[-74.83912,5.5856],[-74.8372,5.58945],[-74.83464,5.59458],[-74.83143,5.60035],[-74.82245,5.60419],[-74.81284,5.60419],[-74.79873,5.6074],[-74.79232,5.61573],[-74.78655,5.62471],[-74.78334,5.63305],[-74.78334,5.63818],[-74.7827,5.64266],[-74.77821,5.64843],[-74.76924,5.6542],[-74.76347,5.65933],[-74.75641,5.66254],[-74.74872,5.66703],[-74.74611,5.67026],[-74.74231,5.67216],[-74.73974,5.676],[-74.73846,5.68049],[-74.73727,5.68382],[-74.73788,5.69055],[-74.73723,5.69635],[-74.73466,5.70344]]],[[[-74.7295,5.7131],[-74.7295,5.7188],[-74.72982,5.71849],[-74.73018,5.71801],[-74.73057,5.71725],[-74.7314,5.71635],[-74.73213,5.71568],[-74.73264,5.71504],[-74.7328,5.7145],[-74.73268,5.71375],[-74.73211,5.71323],[-74.73176,5.713],[-74.73016,5.71208],[-74.73012,5.71202],[-74.72992,5.71197],[-74.72974,5.71179],[-74.7297,5.71171],[-74.7295,5.7131]]],[[[-74.72563,5.7376],[-74.72499,5.7434],[-74.72241,5.74726],[-74.71725,5.75113],[-74.71565,5.75466],[-74.71572,5.7547],[-74.71659,5.75563],[-74.71678,5.75602],[-74.717,5.75664],[-74.71721,5.75707],[-74.71751,5.75755],[-74.71788,5.75791],[-74.71824,5.7581],[-74.71862,5.7582],[-74.71909,5.75826],[-74.71963,5.75819],[-74.72037,5.75787],[-74.72067,5.75761],[-74.72093,5.75724],[-74.72118,5.75667],[-74.72134,5.75609],[-74.72141,5.75427],[-74.72148,5.75332],[-74.72157,5.75288],[-74.72155,5.75275],[-74.72158,5.75229],[-74.72168,5.75172],[-74.7221,5.7503],[-74.72233,5.74978],[-74.72271,5.74907],[-74.72321,5.74849],[-74.72501,5.74675],[-74.7254,5.74647],[-74.72578,5.74627],[-74.72622,5.74597],[-74.72669,5.74547],[-74.72708,5.74494],[-74.72735,5.74443],[-74.72755,5.74384],[-74.72765,5.74209],[-74.72754,5.74101],[-74.72755,5.73966],[-74.72724,5.73801],[-74.72718,5.7374],[-74.72714,5.73742],[-74.72706,5.73695],[-74.72674,5.73575],[-74.7261,5.73387],[-74.72556,5.73199],[-74.72545,5.73144],[-74.72517,5.73005],[-74.7251,5.72879],[-74.7251,5.72877],[-74.72499,5.72922],[-74.72563,5.73373],[-74.72563,5.7376]]],[[[-74.67498,5.77428],[-74.6753,5.77451],[-74.67565,5.77482],[-74.67794,5.77746],[-74.67861,5.7781],[-74.67958,5.77873],[-74.68008,5.77884],[-74.68302,5.77894],[-74.68429,5.77885],[-74.68525,5.7787],[-74.6869,5.7778],[-74.68992,5.77564],[-74.69102,5.77477],[-74.69236,5.77388],[-74.69337,5.7731],[-74.6938,5.77292],[-74.69419,5.7728],[-74.69495,5.7727],[-74.69529,5.77275],[-74.69566,5.77293],[-74.69594,5.7733],[-74.69591,5.77391],[-74.69578,5.77508],[-74.69578,5.77574],[-74.69589,5.77665],[-74.696,5.77703],[-74.69616,5.77733],[-74.69671,5.77815],[-74.69722,5.77855],[-74.69774,5.77879],[-74.69802,5.77883],[-74.69865,5.77884],[-74.70014,5.77862],[-74.70072,5.77842],[-74.70108,5.77834],[-74.70171,5.77834],[-74.70193,5.77829],[-74.70211,5.77805],[-74.70231,5.77768],[-74.70258,5.77688],[-74.70267,5.77642],[-74.70277,5.77553],[-74.70344,5.7722],[-74.70364,5.77179],[-74.70392,5.77145],[-74.70432,5.77122],[-74.70487,5.77103],[-74.70557,5.77087],[-74.7071,5.77101],[-74.70789,5.7712],[-74.70832,5.77137],[-74.70919,5.77192],[-74.70975,5.77269],[-74.71001,5.77294],[-74.71034,5.77314],[-74.71099,5.77341],[-74.71191,5.77356],[-74.71241,5.77361],[-74.71289,5.77349],[-74.71316,5.77339],[-74.71354,5.77305],[-74.71375,5.77271],[-74.71401,5.77151],[-74.71415,5.77106],[-74.71417,5.7708],[-74.71422,5.77041],[-74.71436,5.76915],[-74.71442,5.7688],[-74.71443,5.76842],[-74.71431,5.76743],[-74.71434,5.76686],[-74.71432,5.76655],[-74.71417,5.76597],[-74.71404,5.76558],[-74.71377,5.76485],[-74.71338,5.76395],[-74.71323,5.7635],[-74.71312,5.76322],[-74.71016,5.76853],[-74.70372,5.76853],[-74.69792,5.76789],[-74.69276,5.7666],[-74.68503,5.76789],[-74.68052,5.76789],[-74.67472,5.76595],[-74.67472,5.76209],[-74.67472,5.75757],[-74.67665,5.75177],[-74.67923,5.74533],[-74.68052,5.73695],[-74.67794,5.73179],[-74.67278,5.72664],[-74.66827,5.72084],[-74.66376,5.71439],[-74.65925,5.70537],[-74.65603,5.69764],[-74.65603,5.69119],[-74.65603,5.68733],[-74.65831,5.6839],[-74.66115,5.6751],[-74.6682,5.67252],[-74.66948,5.6693],[-74.66884,5.66416],[-74.66434,5.65966],[-74.66113,5.65645],[-74.65984,5.65324],[-74.6592,5.64938],[-74.65854,5.64482],[-74.66436,5.64092],[-74.67246,5.63888],[-74.67752,5.63786],[-74.68157,5.63481],[-74.68351,5.63334],[-74.68459,5.62566],[-74.67852,5.62059],[-74.6694,5.61552],[-74.65725,5.61045],[-74.65521,5.59928],[-74.65419,5.58913],[-74.65418,5.57694],[-74.66025,5.57287],[-74.66733,5.5688],[-74.67644,5.56778],[-74.68756,5.56065],[-74.6916,5.55252],[-74.69565,5.54744],[-74.70454,5.53651],[-74.71025,5.53495],[-74.71666,5.53046],[-74.72372,5.52661],[-74.73746,5.52387],[-74.74551,5.52084],[-74.74936,5.52084],[-74.7609,5.52277],[-74.77244,5.52405],[-74.78206,5.52661],[-74.79104,5.52918],[-74.79937,5.53238],[-74.8045,5.53367],[-74.80899,5.53687],[-74.8107,5.53931],[-74.81668,5.53751],[-74.81668,5.53174],[-74.81412,5.52725],[-74.80963,5.52341],[-74.80386,5.51828],[-74.80194,5.51507],[-74.79553,5.51058],[-74.7904,5.5093],[-74.78527,5.50994],[-74.76539,5.51123],[-74.7609,5.51251],[-74.75257,5.51251],[-74.74744,5.51315],[-74.74359,5.51315],[-74.73846,5.51379],[-74.73013,5.51187],[-74.72564,5.50674],[-74.72372,5.50353],[-74.725,5.49648],[-74.725,5.49199],[-74.72832,5.48659],[-74.73023,5.47823],[-74.7328,5.47566],[-74.736,5.47244],[-74.73985,5.46986],[-74.74818,5.46728],[-74.75588,5.46599],[-74.76037,5.46662],[-74.76486,5.4679],[-74.77577,5.46661],[-74.77897,5.46532],[-74.78218,5.46081],[-74.78538,5.4563],[-74.79243,5.45244],[-74.8014,5.44857],[-74.80974,5.44599],[-74.8277,5.4421],[-74.84084,5.44146],[-74.84327,5.43656],[-74.84223,5.43189],[-74.84124,5.42742],[-74.83415,5.42642],[-74.80481,5.43255],[-74.78964,5.43764],[-74.77853,5.44984],[-74.77246,5.45696],[-74.7583,5.45799],[-74.73705,5.46208],[-74.72895,5.4631],[-74.71681,5.46413],[-74.70973,5.46414],[-74.70679,5.46808],[-74.69658,5.46923],[-74.6905,5.46416],[-74.6915,5.45299],[-74.69958,5.43673],[-74.70665,5.42656],[-74.72587,5.42146],[-74.74409,5.42144],[-74.75623,5.41737],[-74.75622,5.40721],[-74.7562,5.39604],[-74.75012,5.3869],[-74.7501,5.37065],[-74.75211,5.35237],[-74.75615,5.34424],[-74.75715,5.3351],[-74.75613,5.32494],[-74.75308,5.31276],[-74.75408,5.30463],[-74.76521,5.30462],[-74.77432,5.30968],[-74.78241,5.30968],[-74.7905,5.30662],[-74.80163,5.30661],[-74.80871,5.30761],[-74.81176,5.3137],[-74.82897,5.3279],[-74.83606,5.32993],[-74.84305,5.32898],[-74.85123,5.32788],[-74.86134,5.32279],[-74.87044,5.31769],[-74.87752,5.31362],[-74.88863,5.30548],[-74.90179,5.30547],[-74.90213,5.30239],[-74.90177,5.30224],[-74.90118,5.3017],[-74.90036,5.30059],[-74.89971,5.29994],[-74.89936,5.29967],[-74.89902,5.29949],[-74.8984,5.29931],[-74.89608,5.29923],[-74.89489,5.29906],[-74.89442,5.29894],[-74.89357,5.29851],[-74.8932,5.29837],[-74.8928,5.2983],[-74.89233,5.29831],[-74.89192,5.29855],[-74.89151,5.29887],[-74.89128,5.29927],[-74.891,5.30011],[-74.89084,5.30034],[-74.89064,5.3005],[-74.89038,5.30061],[-74.88995,5.30069],[-74.88963,5.30063],[-74.88943,5.30056],[-74.88937,5.30007],[-74.88933,5.29976],[-74.88922,5.29918],[-74.88911,5.29897],[-74.88893,5.29871],[-74.88883,5.29853],[-74.88856,5.29838],[-74.88823,5.2983],[-74.8875,5.29833],[-74.88706,5.2982],[-74.88695,5.29813],[-74.88659,5.29784],[-74.88603,5.29753],[-74.88548,5.29742],[-74.88475,5.29735],[-74.88353,5.29738],[-74.88247,5.29734],[-74.88149,5.2972],[-74.88054,5.29716],[-74.87926,5.29697],[-74.87882,5.29697],[-74.87799,5.29706],[-74.87781,5.29704],[-74.87769,5.29703],[-74.87728,5.29684],[-74.87629,5.29583],[-74.87512,5.29517],[-74.87468,5.29498],[-74.87429,5.29488],[-74.87331,5.29481],[-74.8731,5.29484],[-74.87239,5.29526],[-74.87206,5.29551],[-74.87109,5.29651],[-74.8709,5.29682],[-74.87076,5.29729],[-74.87068,5.29794],[-74.8707,5.29888],[-74.87091,5.30037],[-74.87083,5.30048],[-74.87054,5.30063],[-74.87014,5.30072],[-74.86916,5.30076],[-74.86883,5.30101],[-74.86855,5.3013],[-74.86842,5.30157],[-74.86839,5.30173],[-74.8684,5.30206],[-74.86856,5.30253],[-74.86867,5.30269],[-74.86907,5.30294],[-74.86958,5.30336],[-74.8698,5.3036],[-74.8699,5.30384],[-74.86989,5.30423],[-74.8698,5.3046],[-74.86964,5.30486],[-74.86948,5.30502],[-74.86883,5.30529],[-74.86793,5.30548],[-74.867,5.30575],[-74.86539,5.30606],[-74.86514,5.30595],[-74.86506,5.30587],[-74.8648,5.30547],[-74.8646,5.30524],[-74.8644,5.30507],[-74.86407,5.30495],[-74.86367,5.30495],[-74.86316,5.30511],[-74.86267,5.30539],[-74.86253,5.30551],[-74.86334,5.30653],[-74.86135,5.30754],[-74.86134,5.30756],[-74.86118,5.30776],[-74.86096,5.30783],[-74.86018,5.30782],[-74.85941,5.308],[-74.85918,5.30818],[-74.85806,5.30948],[-74.85761,5.30987],[-74.85725,5.31024],[-74.85697,5.31066],[-74.85678,5.31109],[-74.8566,5.31215],[-74.85654,5.31281],[-74.85644,5.31315],[-74.85629,5.31347],[-74.85607,5.31376],[-74.85582,5.31402],[-74.85541,5.31425],[-74.85505,5.31442],[-74.85471,5.3145],[-74.85416,5.31454],[-74.85364,5.31447],[-74.85289,5.3143],[-74.85258,5.31431],[-74.85206,5.3146],[-74.85154,5.31517],[-74.85076,5.31625],[-74.85047,5.31646],[-74.85017,5.31659],[-74.84909,5.31675],[-74.84887,5.31675],[-74.84835,5.31664],[-74.8481,5.31651],[-74.84743,5.31548],[-74.84706,5.31481],[-74.84695,5.31453],[-74.84678,5.31439],[-74.8466,5.31433],[-74.84633,5.31441],[-74.8458,5.31479],[-74.8454,5.31499],[-74.84481,5.31516],[-74.84428,5.3152],[-74.84387,5.31517],[-74.84355,5.31508],[-74.84329,5.31495],[-74.84302,5.31489],[-74.84271,5.31496],[-74.8424,5.31512],[-74.84213,5.31536],[-74.84173,5.31611],[-74.84152,5.31639],[-74.84124,5.3166],[-74.8409,5.31672],[-74.84033,5.31675],[-74.84013,5.3168],[-74.83974,5.31709],[-74.83956,5.31716],[-74.83887,5.31717],[-74.83853,5.31705],[-74.83795,5.31674],[-74.83767,5.31674],[-74.83716,5.31692],[-74.83576,5.31759],[-74.83541,5.31763],[-74.83506,5.31762],[-74.83454,5.31742],[-74.83412,5.31734],[-74.83383,5.31737],[-74.83294,5.31763],[-74.83266,5.31766],[-74.83224,5.31758],[-74.83189,5.31739],[-74.83167,5.31734],[-74.83147,5.31736],[-74.83118,5.31756],[-74.83091,5.31791],[-74.83058,5.31824],[-74.83025,5.31835],[-74.82977,5.31837],[-74.82923,5.31819],[-74.82911,5.31821],[-74.82893,5.31838],[-74.82866,5.31853],[-74.82837,5.31853],[-74.8281,5.31843],[-74.82758,5.31808],[-74.82666,5.31707],[-74.82652,5.31699],[-74.82622,5.31695],[-74.82558,5.31745],[-74.82525,5.31766],[-74.82476,5.31775],[-74.82433,5.31773],[-74.82308,5.31741],[-74.82233,5.31729],[-74.82138,5.31702],[-74.82101,5.3168],[-74.82035,5.31601],[-74.81991,5.31581],[-74.81986,5.3157],[-74.81925,5.31442],[-74.81914,5.31405],[-74.81893,5.31369],[-74.81874,5.31344],[-74.81837,5.31311],[-74.81785,5.31278],[-74.8172,5.31245],[-74.81609,5.31174],[-74.81546,5.31115],[-74.815,5.31055],[-74.81396,5.30901],[-74.81277,5.30773],[-74.81215,5.30721],[-74.81123,5.30678],[-74.81078,5.30664],[-74.8092,5.30641],[-74.80883,5.3063],[-74.80847,5.30611],[-74.80835,5.30597],[-74.80821,5.30561],[-74.80807,5.30496],[-74.80789,5.30449],[-74.80765,5.30409],[-74.80705,5.30367],[-74.80659,5.30355],[-74.8064,5.30355],[-74.80609,5.30369],[-74.80526,5.30375],[-74.80489,5.30361],[-74.80452,5.30362],[-74.80354,5.30378],[-74.80315,5.30393],[-74.80266,5.30426],[-74.80209,5.30479],[-74.80187,5.30489],[-74.80149,5.30491],[-74.8005,5.30467],[-74.7999,5.3046],[-74.79864,5.30463],[-74.79846,5.30458],[-74.79817,5.30442],[-74.7978,5.30401],[-74.79758,5.30355],[-74.79731,5.30286],[-74.79717,5.3023],[-74.79687,5.30175],[-74.79633,5.30104],[-74.79603,5.30078],[-74.79476,5.30021],[-74.79388,5.29978],[-74.79338,5.29937],[-74.79281,5.29903],[-74.79225,5.29887],[-74.79174,5.29882],[-74.79087,5.29889],[-74.78897,5.29925],[-74.78848,5.29926],[-74.78793,5.29918],[-74.78641,5.29873],[-74.78574,5.29856],[-74.7851,5.29857],[-74.78451,5.29872],[-74.78375,5.29904],[-74.78253,5.29974],[-74.78219,5.29989],[-74.78178,5.3],[-74.78145,5.30002],[-74.78103,5.29993],[-74.78074,5.29973],[-74.77999,5.29887],[-74.77977,5.2987],[-74.77943,5.29862],[-74.77878,5.29862],[-74.778,5.29896],[-74.77691,5.29957],[-74.77659,5.29971],[-74.77621,5.29979],[-74.7758,5.29981],[-74.77524,5.29973],[-74.77465,5.29952],[-74.77371,5.29907],[-74.77338,5.29879],[-74.77282,5.29816],[-74.77195,5.29674],[-74.77087,5.29532],[-74.7703,5.29457],[-74.76885,5.29246],[-74.76757,5.2908],[-74.76687,5.28971],[-74.76619,5.28879],[-74.76606,5.28872],[-74.76577,5.28867],[-74.76531,5.28874],[-74.7649,5.28896],[-74.76436,5.28934],[-74.76321,5.29046],[-74.7627,5.29079],[-74.76223,5.29092],[-74.76179,5.29089],[-74.76138,5.29076],[-74.76089,5.2905],[-74.7603,5.29009],[-74.76011,5.28988],[-74.7599,5.28958],[-74.75976,5.2892],[-74.75968,5.28853],[-74.75967,5.28808],[-74.76012,5.28701],[-74.76015,5.28676],[-74.76007,5.28667],[-74.75982,5.28662],[-74.75919,5.28665],[-74.75868,5.28675],[-74.7581,5.28678],[-74.75721,5.28659],[-74.75678,5.28637],[-74.75567,5.28555],[-74.755,5.28494],[-74.75422,5.28414],[-74.75407,5.28394],[-74.75373,5.28393],[-74.75333,5.28375],[-74.75283,5.28346],[-74.75231,5.28324],[-74.75175,5.28358],[-74.75073,5.28445],[-74.7498,5.28472],[-74.74903,5.2851],[-74.74886,5.28526],[-74.74873,5.28546],[-74.74857,5.28585],[-74.74837,5.28678],[-74.74821,5.28717],[-74.74786,5.2875],[-74.74738,5.28782],[-74.74651,5.28822],[-74.74627,5.2884],[-74.74605,5.28862],[-74.7455,5.28944],[-74.74513,5.28987],[-74.74482,5.29009],[-74.74451,5.29024],[-74.74421,5.29032],[-74.74373,5.29033],[-74.7434,5.2902],[-74.74302,5.2899],[-74.7427,5.28938],[-74.74258,5.28894],[-74.74259,5.28792],[-74.74254,5.28703],[-74.74242,5.28657],[-74.74218,5.28613],[-74.74196,5.28587],[-74.74153,5.28569],[-74.74112,5.28562],[-74.74051,5.28569],[-74.73981,5.28583],[-74.73848,5.28623],[-74.73824,5.28637],[-74.73802,5.28657],[-74.73734,5.2874],[-74.73695,5.28765],[-74.73676,5.28767],[-74.73661,5.28763],[-74.73645,5.28753],[-74.73625,5.28734],[-74.73554,5.28639],[-74.73522,5.28612],[-74.73492,5.28604],[-74.73445,5.28605],[-74.73432,5.28611],[-74.73422,5.28623],[-74.73411,5.2865],[-74.73405,5.28688],[-74.73399,5.28897],[-74.73369,5.29397],[-74.73359,5.29451],[-74.73321,5.29569],[-74.7329,5.29649],[-74.73264,5.29705],[-74.73233,5.2977],[-74.73096,5.30092],[-74.73058,5.30164],[-74.73015,5.30234],[-74.72808,5.30525],[-74.72755,5.30582],[-74.72675,5.30656],[-74.72594,5.30717],[-74.72456,5.30834],[-74.72375,5.30894],[-74.72294,5.30947],[-74.72211,5.31008],[-74.72156,5.31055],[-74.71944,5.31204],[-74.71843,5.31264],[-74.71755,5.31298],[-74.71664,5.31338],[-74.71606,5.31372],[-74.71585,5.31391],[-74.71539,5.31459],[-74.71448,5.31623],[-74.71378,5.31787],[-74.71363,5.31911],[-74.71355,5.31953],[-74.71332,5.32018],[-74.71297,5.32112],[-74.71256,5.3222],[-74.71213,5.32376],[-74.71123,5.32747],[-74.71097,5.32937],[-74.71066,5.3326],[-74.71015,5.33615],[-74.70965,5.33828],[-74.7089,5.34084],[-74.70872,5.34132],[-74.70828,5.34198],[-74.707,5.34345],[-74.70509,5.34592],[-74.70401,5.34745],[-74.70357,5.34823],[-74.70245,5.35113],[-74.70214,5.35218],[-74.70181,5.35401],[-74.70181,5.35453],[-74.70186,5.35513],[-74.70199,5.35586],[-74.70254,5.35751],[-74.70276,5.35796],[-74.70383,5.35963],[-74.70423,5.36049],[-74.70467,5.36132],[-74.70537,5.36238],[-74.70589,5.36334],[-74.70633,5.36439],[-74.70668,5.36561],[-74.70693,5.36666],[-74.70701,5.36739],[-74.707,5.36851],[-74.70694,5.36944],[-74.70683,5.36989],[-74.7066,5.37046],[-74.70635,5.37079],[-74.70594,5.37114],[-74.70531,5.37157],[-74.70484,5.37181],[-74.70445,5.3719],[-74.70381,5.3718],[-74.70343,5.37167],[-74.703,5.37146],[-74.70262,5.37123],[-74.70218,5.37086],[-74.70177,5.37034],[-74.70133,5.36967],[-74.7008,5.36874],[-74.70057,5.36844],[-74.70002,5.36784],[-74.69865,5.36652],[-74.69806,5.36608],[-74.69734,5.36563],[-74.69681,5.36527],[-74.69643,5.36507],[-74.69601,5.3649],[-74.69354,5.36431],[-74.6925,5.36418],[-74.69142,5.36419],[-74.69082,5.36428],[-74.68969,5.36451],[-74.6887,5.36484],[-74.68786,5.36518],[-74.68693,5.36573],[-74.68611,5.36637],[-74.68332,5.36909],[-74.68229,5.36991],[-74.68082,5.37115],[-74.68029,5.37276],[-74.67791,5.37563],[-74.67787,5.3759],[-74.67788,5.37659],[-74.67798,5.3778],[-74.67815,5.37896],[-74.67833,5.37976],[-74.67891,5.3813],[-74.67973,5.38282],[-74.68054,5.38407],[-74.68162,5.38556],[-74.68202,5.38626],[-74.68267,5.38773],[-74.68388,5.39009],[-74.68421,5.39083],[-74.68594,5.39542],[-74.68629,5.3966],[-74.68667,5.39849],[-74.68674,5.39927],[-74.68671,5.40009],[-74.68665,5.40044],[-74.68644,5.40107],[-74.68633,5.40129],[-74.68592,5.40181],[-74.68552,5.40218],[-74.68521,5.40235],[-74.68484,5.4025],[-74.6835,5.4029],[-74.68296,5.403],[-74.6811,5.40318],[-74.67957,5.40319],[-74.67858,5.40313],[-74.67759,5.40291],[-74.67675,5.40282],[-74.67593,5.40286],[-74.67527,5.40303],[-74.67449,5.40329],[-74.67262,5.4037],[-74.67174,5.40383],[-74.67119,5.4038],[-74.67054,5.40371],[-74.66864,5.40324],[-74.66825,5.40322],[-74.66759,5.40331],[-74.66739,5.40339],[-74.66699,5.40367],[-74.66669,5.404],[-74.66643,5.40441],[-74.66626,5.40495],[-74.66603,5.40589],[-74.66594,5.40674],[-74.66594,5.40762],[-74.666,5.40869],[-74.66583,5.40951],[-74.66582,5.40968],[-74.66594,5.40999],[-74.66639,5.41096],[-74.66663,5.41229],[-74.66689,5.41321],[-74.66763,5.41548],[-74.66807,5.41646],[-74.66869,5.41764],[-74.66922,5.41876],[-74.66993,5.42068],[-74.67048,5.42188],[-74.67144,5.42355],[-74.67292,5.42594],[-74.67356,5.42681],[-74.67414,5.42748],[-74.67552,5.42922],[-74.677,5.43069],[-74.67756,5.43158],[-74.67793,5.43228],[-74.67819,5.43289],[-74.67841,5.43354],[-74.67849,5.43413],[-74.67851,5.43476],[-74.67847,5.43542],[-74.67838,5.43584],[-74.67824,5.43616],[-74.67783,5.43678],[-74.67726,5.43735],[-74.6745,5.43972],[-74.67428,5.43992],[-74.67338,5.44063],[-74.67275,5.44103],[-74.67218,5.44131],[-74.67097,5.44181],[-74.66961,5.44225],[-74.66833,5.44256],[-74.66684,5.44265],[-74.66557,5.44264],[-74.66508,5.44256],[-74.66278,5.44177],[-74.66026,5.44082],[-74.65901,5.44028],[-74.65805,5.43976],[-74.65685,5.43928],[-74.65569,5.43887],[-74.6538,5.4385],[-74.65196,5.43846],[-74.6516,5.4385],[-74.65117,5.43866],[-74.65068,5.43896],[-74.65018,5.43935],[-74.64979,5.43975],[-74.64916,5.4406],[-74.64864,5.44146],[-74.64843,5.44199],[-74.6482,5.44299],[-74.64818,5.44348],[-74.64823,5.44391],[-74.64855,5.44489],[-74.64868,5.44506],[-74.64923,5.44553],[-74.64981,5.44581],[-74.65026,5.44595],[-74.65148,5.44576],[-74.65239,5.44578],[-74.65314,5.44585],[-74.65402,5.44602],[-74.65452,5.44617],[-74.65636,5.44694],[-74.65718,5.44763],[-74.65807,5.44868],[-74.65875,5.44978],[-74.65941,5.45102],[-74.6598,5.45192],[-74.66029,5.45337],[-74.66136,5.45565],[-74.66232,5.45873],[-74.66249,5.45943],[-74.66284,5.46243],[-74.66297,5.46356],[-74.66302,5.46438],[-74.66307,5.4666],[-74.66317,5.46756],[-74.66328,5.4681],[-74.66354,5.46901],[-74.66376,5.46961],[-74.66403,5.47018],[-74.66429,5.47091],[-74.6646,5.47192],[-74.66485,5.47296],[-74.66512,5.47438],[-74.66528,5.47579],[-74.66549,5.47882],[-74.66566,5.48044],[-74.66579,5.48121],[-74.66688,5.48523],[-74.66749,5.48808],[-74.66835,5.4943],[-74.66879,5.49674],[-74.6688,5.49772],[-74.66888,5.49843],[-74.66892,5.49939],[-74.66909,5.50032],[-74.66915,5.5004],[-74.66925,5.50109],[-74.66942,5.50321],[-74.66949,5.50411],[-74.66987,5.50716],[-74.66992,5.50789],[-74.6699,5.50869],[-74.66981,5.50938],[-74.66964,5.51025],[-74.66928,5.51145],[-74.66896,5.51214],[-74.66827,5.51343],[-74.66788,5.51398],[-74.66737,5.51456],[-74.66515,5.51649],[-74.66454,5.51694],[-74.66328,5.51737],[-74.66086,5.51799],[-74.66033,5.51822],[-74.65949,5.51868],[-74.65696,5.52057],[-74.65673,5.52082],[-74.65647,5.52118],[-74.65624,5.5216],[-74.65592,5.52253],[-74.65529,5.52558],[-74.65529,5.52713],[-74.65554,5.52978],[-74.65553,5.5317],[-74.65546,5.5325],[-74.65532,5.53317],[-74.65487,5.53454],[-74.65471,5.53528],[-74.65438,5.53633],[-74.65418,5.53675],[-74.65389,5.53718],[-74.65322,5.53794],[-74.65257,5.53858],[-74.65198,5.5391],[-74.64973,5.54122],[-74.64901,5.54205],[-74.64855,5.54294],[-74.64808,5.54408],[-74.64766,5.54537],[-74.64753,5.54603],[-74.64752,5.54645],[-74.64777,5.54789],[-74.64806,5.55037],[-74.64809,5.55145],[-74.6479,5.5527],[-74.64757,5.55367],[-74.64722,5.55452],[-74.64662,5.55554],[-74.64582,5.55664],[-74.64554,5.55718],[-74.64534,5.55782],[-74.64524,5.5589],[-74.64528,5.55991],[-74.64558,5.56123],[-74.6461,5.56278],[-74.64673,5.56434],[-74.64804,5.56702],[-74.64835,5.56755],[-74.64889,5.56828],[-74.64952,5.56897],[-74.65019,5.56985],[-74.65257,5.57345],[-74.65326,5.5748],[-74.6534,5.57541],[-74.65343,5.576],[-74.65332,5.57638],[-74.65275,5.57749],[-74.65244,5.57803],[-74.65167,5.57938],[-74.65107,5.58058],[-74.65054,5.58206],[-74.65,5.58338],[-74.64972,5.58436],[-74.64938,5.58536],[-74.64911,5.58629],[-74.64896,5.5873],[-74.64872,5.58887],[-74.64855,5.58978],[-74.64856,5.59068],[-74.64866,5.5915],[-74.64864,5.59263],[-74.64844,5.59308],[-74.64816,5.59344],[-74.64764,5.59399],[-74.64741,5.59442],[-74.64726,5.59517],[-74.64669,5.59627],[-74.64654,5.5968],[-74.64645,5.59741],[-74.64649,5.59814],[-74.64645,5.59867],[-74.64627,5.59907],[-74.64537,5.60073],[-74.64495,5.60176],[-74.64447,5.60315],[-74.64428,5.60442],[-74.64419,5.6056],[-74.64425,5.60649],[-74.64435,5.60747],[-74.64478,5.60934],[-74.64469,5.6104],[-74.6446,5.61101],[-74.64433,5.61284],[-74.64352,5.61586],[-74.64302,5.6171],[-74.64274,5.61751],[-74.6421,5.6182],[-74.64154,5.61867],[-74.64097,5.61902],[-74.6393,5.61977],[-74.63873,5.62003],[-74.63741,5.62056],[-74.63432,5.62188],[-74.63288,5.62232],[-74.63085,5.62287],[-74.62941,5.62345],[-74.62879,5.62385],[-74.62768,5.62492],[-74.62681,5.62599],[-74.62642,5.62657],[-74.6261,5.62726],[-74.62583,5.62803],[-74.62554,5.62942],[-74.62545,5.6303],[-74.62544,5.63089],[-74.62575,5.63416],[-74.62612,5.63636],[-74.62633,5.63703],[-74.62645,5.63719],[-74.62643,5.63724],[-74.62672,5.63861],[-74.62681,5.63959],[-74.62701,5.64102],[-74.62722,5.64161],[-74.62753,5.64214],[-74.62833,5.6431],[-74.63082,5.64587],[-74.63237,5.64766],[-74.63267,5.64823],[-74.63291,5.64886],[-74.63349,5.6507],[-74.63382,5.65224],[-74.6342,5.65425],[-74.63428,5.6568],[-74.63449,5.66069],[-74.63454,5.66284],[-74.63438,5.6651],[-74.63398,5.66917],[-74.63369,5.67111],[-74.63352,5.67188],[-74.63251,5.67583],[-74.63202,5.67695],[-74.63132,5.67869],[-74.63085,5.68009],[-74.63062,5.6805],[-74.63023,5.68101],[-74.62971,5.68249],[-74.62949,5.68345],[-74.62947,5.68359],[-74.62932,5.68453],[-74.62928,5.68511],[-74.6289,5.68734],[-74.62875,5.68772],[-74.62868,5.68818],[-74.6284,5.6893],[-74.62817,5.69089],[-74.62808,5.69244],[-74.62818,5.69391],[-74.62818,5.6944],[-74.62829,5.69489],[-74.62861,5.69601],[-74.62871,5.6966],[-74.62881,5.69763],[-74.62923,5.69942],[-74.6295,5.70018],[-74.63098,5.70324],[-74.63113,5.70368],[-74.63209,5.70586],[-74.63263,5.70674],[-74.63352,5.70805],[-74.63401,5.7085],[-74.63469,5.70891],[-74.63533,5.70919],[-74.63598,5.70942],[-74.63677,5.7096],[-74.63809,5.70974],[-74.63934,5.70977],[-74.64072,5.70965],[-74.64178,5.70946],[-74.6442,5.70889],[-74.64591,5.70827],[-74.64617,5.70826],[-74.64723,5.70785],[-74.64825,5.7075],[-74.64969,5.7074],[-74.65023,5.70742],[-74.65072,5.70752],[-74.6514,5.70773],[-74.65143,5.70774],[-74.65171,5.70793],[-74.65192,5.70825],[-74.65213,5.70881],[-74.65218,5.70906],[-74.65242,5.71034],[-74.65246,5.71042],[-74.65263,5.71166],[-74.65307,5.71403],[-74.65324,5.71569],[-74.65322,5.71595],[-74.65324,5.7162],[-74.65336,5.71803],[-74.65352,5.7194],[-74.65353,5.72101],[-74.65359,5.72154],[-74.65374,5.7221],[-74.654,5.72261],[-74.6546,5.72338],[-74.65495,5.7239],[-74.65537,5.72445],[-74.65596,5.72537],[-74.65643,5.7264],[-74.65675,5.72719],[-74.65724,5.72826],[-74.65825,5.72995],[-74.65879,5.73098],[-74.65914,5.73183],[-74.65928,5.7323],[-74.65943,5.73265],[-74.65979,5.73405],[-74.65979,5.73455],[-74.65975,5.735],[-74.65953,5.73577],[-74.65838,5.73825],[-74.65816,5.73894],[-74.65824,5.73952],[-74.65828,5.73994],[-74.65826,5.74016],[-74.65813,5.74067],[-74.65813,5.74107],[-74.65849,5.74253],[-74.65924,5.74366],[-74.65945,5.74407],[-74.6598,5.74491],[-74.66056,5.74717],[-74.66103,5.7489],[-74.66176,5.75197],[-74.6618,5.75201],[-74.66236,5.75447],[-74.66261,5.75699],[-74.66301,5.75938],[-74.66341,5.76093],[-74.66339,5.76224],[-74.66359,5.76321],[-74.66413,5.76494],[-74.66428,5.76529],[-74.66469,5.76587],[-74.66528,5.76658],[-74.66644,5.76759],[-74.66702,5.76804],[-74.66771,5.76848],[-74.66806,5.76864],[-74.66861,5.769],[-74.66907,5.76922],[-74.66946,5.76954],[-74.67055,5.77061],[-74.67155,5.77149],[-74.6722,5.77163],[-74.67237,5.77185],[-74.67498,5.77428]]]]},"properties":{"OBJECTID_1":2,"OBJECTID":140,"SUSCEPTIBL":"Inundación","Shape_Leng":13569324.8027,"Shape_Length":310495.2675219092,"Shape_Area":319287748.2617788}}]}