{"type":"FeatureCollection","name":"Infraestructura de soporte","crs":{"type":"name","properties":{"name":"urn:ogc:def:crs:OGC:1.3:CRS84"}},"features":[{"type":"Feature","id":0,"geometry":{"type":"MultiPolygon","coordinates":[[[[-75.46103,5.52645],[-75.46103,5.52645],[-75.46103,5.52645],[-75.46103,5.52645]]],[[[-75.46077,5.5265],[-75.46077,5.52652],[-75.46076,5.52652],[-75.46076,5.52652],[-75.46075,5.52652],[-75.46075,5.52653],[-75.46075,5.52654],[-75.46074,5.52656],[-75.46073,5.52661],[-75.46073,5.52661],[-75.46073,5.52663],[-75.46067,5.5267],[-75.46066,5.52674],[-75.46065,5.52675],[-75.46065,5.52676],[-75.46065,5.52676],[-75.46068,5.52681],[-75.46065,5.52682],[-75.46065,5.52687],[-75.46069,5.52685],[-75.46071,5.52685],[-75.46073,5.52689],[-75.46072,5.5269],[-75.46065,5.52693],[-75.46067,5.52697],[-75.46069,5.52696],[-75.46074,5.52694],[-75.46077,5.52699],[-75.46074,5.527],[-75.46075,5.52702],[-75.4607,5.52705],[-75.46071,5.52708],[-75.46074,5.52706],[-75.46075,5.52709],[-75.46086,5.52704],[-75.46086,5.52704],[-75.46092,5.52701],[-75.46092,5.527],[-75.46092,5.527],[-75.46095,5.52699],[-75.46092,5.52691],[-75.46097,5.52689],[-75.46096,5.52687],[-75.46101,5.52685],[-75.46102,5.52688],[-75.4611,5.52685],[-75.4611,5.52682],[-75.46111,5.52679],[-75.46104,5.52667],[-75.46104,5.52667],[-75.46106,5.52664],[-75.46106,5.52663],[-75.46103,5.52658],[-75.46097,5.52648],[-75.46096,5.52645],[-75.46095,5.52646],[-75.46095,5.52646],[-75.46094,5.52647],[-75.46093,5.52648],[-75.46093,5.52649],[-75.46092,5.5265],[-75.46092,5.52651],[-75.46092,5.52652],[-75.46087,5.52642],[-75.46084,5.52643],[-75.46086,5.52648],[-75.46083,5.52649],[-75.46084,5.52653],[-75.46083,5.52653],[-75.4608,5.52655],[-75.46077,5.5265],[-75.46077,5.5265]]]]},"properties":{"FID":0,"OBJECTID":1,"Id":0,"Shape_Leng":279.320619767,"Shape_Area":2163.2951222}},{"type":"Feature","id":1,"geometry":{"type":"Polygon","coordinates":[[[-75.45813,5.52482],[-75.45813,5.52482],[-75.45819,5.5248],[-75.45842,5.5247],[-75.4584,5.52464],[-75.45837,5.52457],[-75.45835,5.52451],[-75.45832,5.52445],[-75.45827,5.52433],[-75.45825,5.52432],[-75.45824,5.52431],[-75.45822,5.5243],[-75.45822,5.5243],[-75.45815,5.52432],[-75.45813,5.52432],[-75.45813,5.52432],[-75.45811,5.52433],[-75.45811,5.52433],[-75.45805,5.52435],[-75.45804,5.52435],[-75.45803,5.52435],[-75.45803,5.52435],[-75.458,5.52437],[-75.45799,5.52437],[-75.45808,5.52457],[-75.45804,5.52459],[-75.45803,5.5246],[-75.45801,5.5246],[-75.45804,5.52466],[-75.45805,5.52469],[-75.4581,5.52466],[-75.45812,5.5247],[-75.45808,5.52472],[-75.45808,5.52472],[-75.4581,5.52477],[-75.45812,5.52479],[-75.45813,5.52482]]]},"properties":{"FID":1,"OBJECTID":2,"Id":0,"Shape_Leng":182.891742945,"Shape_Area":1661.10196474}},{"type":"Feature","id":2,"geometry":{"type":"Polygon","coordinates":[[[-75.4604,5.52773],[-75.46031,5.52776],[-75.46026,5.52778],[-75.46028,5.52782],[-75.46029,5.52784],[-75.46029,5.52784],[-75.4603,5.52785],[-75.4603,5.52787],[-75.46032,5.5279],[-75.46032,5.5279],[-75.46033,5.52791],[-75.46033,5.52792],[-75.46035,5.52791],[-75.46036,5.52793],[-75.46037,5.52795],[-75.46037,5.52796],[-75.46048,5.52791],[-75.46051,5.52798],[-75.46054,5.52796],[-75.46054,5.52794],[-75.46057,5.52793],[-75.46058,5.52795],[-75.46062,5.52793],[-75.46061,5.52791],[-75.46063,5.5279],[-75.46066,5.52795],[-75.46079,5.52788],[-75.46084,5.52786],[-75.46082,5.52781],[-75.4608,5.52777],[-75.46078,5.52775],[-75.46079,5.52774],[-75.46079,5.52774],[-75.46075,5.52767],[-75.46074,5.52766],[-75.46072,5.52763],[-75.4607,5.52759],[-75.46068,5.52755],[-75.46063,5.52758],[-75.4606,5.52759],[-75.4606,5.52762],[-75.46059,5.52762],[-75.46059,5.52762],[-75.46057,5.52761],[-75.46056,5.5276],[-75.46055,5.52759],[-75.46055,5.5276],[-75.46054,5.5276],[-75.46054,5.52759],[-75.46054,5.52759],[-75.46054,5.52758],[-75.46052,5.52756],[-75.46046,5.52759],[-75.46046,5.52759],[-75.46045,5.52758],[-75.46045,5.52757],[-75.46045,5.52757],[-75.46045,5.52757],[-75.46044,5.52755],[-75.46043,5.52754],[-75.46043,5.52754],[-75.4604,5.52756],[-75.46033,5.52759],[-75.46034,5.52761],[-75.46031,5.52762],[-75.4603,5.52763],[-75.46027,5.52764],[-75.46029,5.52768],[-75.46031,5.52772],[-75.46031,5.52772],[-75.46031,5.52772],[-75.46038,5.52769],[-75.4604,5.52773]]]},"properties":{"FID":2,"OBJECTID":3,"Id":0,"Shape_Leng":238.154978388,"Shape_Area":2017.64839288}},{"type":"Feature","id":3,"geometry":{"type":"Polygon","coordinates":[[[-75.45991,5.52827],[-75.45991,5.52826],[-75.45986,5.52817],[-75.45984,5.52812],[-75.45997,5.52805],[-75.46001,5.52803],[-75.46001,5.52803],[-75.46001,5.52804],[-75.46002,5.52804],[-75.46006,5.52802],[-75.46005,5.52801],[-75.46005,5.52801],[-75.46005,5.52801],[-75.46004,5.52801],[-75.46004,5.52801],[-75.46003,5.52801],[-75.46003,5.52801],[-75.46002,5.52801],[-75.46001,5.528],[-75.46,5.528],[-75.45999,5.52797],[-75.45999,5.52797],[-75.46,5.52796],[-75.45997,5.5279],[-75.45997,5.5279],[-75.45997,5.5279],[-75.45996,5.5279],[-75.45996,5.5279],[-75.45995,5.5279],[-75.45994,5.5279],[-75.45996,5.52794],[-75.45996,5.52795],[-75.45996,5.52795],[-75.45992,5.52797],[-75.4599,5.52793],[-75.45989,5.52794],[-75.45985,5.52796],[-75.45983,5.52792],[-75.45983,5.52793],[-75.45974,5.52797],[-75.45975,5.52797],[-75.45974,5.52797],[-75.45972,5.52798],[-75.4597,5.52793],[-75.45969,5.52794],[-75.45965,5.52797],[-75.45964,5.52797],[-75.45965,5.528],[-75.45967,5.52804],[-75.45969,5.52808],[-75.45969,5.52809],[-75.45971,5.52813],[-75.45972,5.52815],[-75.45972,5.52816],[-75.45971,5.52817],[-75.45971,5.52818],[-75.45969,5.52819],[-75.45968,5.5282],[-75.45968,5.5282],[-75.45968,5.5282],[-75.45969,5.52821],[-75.45969,5.52821],[-75.45969,5.52821],[-75.45971,5.52821],[-75.45972,5.52821],[-75.45974,5.52821],[-75.45976,5.5282],[-75.45976,5.5282],[-75.45976,5.52821],[-75.45977,5.52821],[-75.4598,5.52819],[-75.45982,5.52822],[-75.45984,5.52825],[-75.45984,5.52825],[-75.45985,5.52826],[-75.45986,5.52826],[-75.45987,5.52826],[-75.45988,5.52826],[-75.45989,5.52827],[-75.4599,5.52827],[-75.4599,5.52827],[-75.45991,5.52827]]]},"properties":{"FID":3,"OBJECTID":4,"Id":0,"Shape_Leng":186.049919437,"Shape_Area":833.193173492}},{"type":"Feature","id":4,"geometry":{"type":"Polygon","coordinates":[[[-75.4592,5.52874],[-75.4592,5.52873],[-75.4592,5.52873],[-75.45921,5.52871],[-75.45926,5.52869],[-75.45926,5.52869],[-75.45934,5.52866],[-75.45934,5.52866],[-75.45937,5.52864],[-75.4594,5.52863],[-75.45942,5.52862],[-75.45942,5.52862],[-75.45948,5.5286],[-75.45948,5.5286],[-75.45948,5.52858],[-75.4595,5.52857],[-75.45949,5.52856],[-75.45949,5.52855],[-75.45946,5.52856],[-75.45945,5.52853],[-75.45947,5.52852],[-75.45946,5.5285],[-75.45948,5.52849],[-75.45947,5.52848],[-75.45947,5.52848],[-75.45946,5.52849],[-75.45935,5.52828],[-75.45935,5.52827],[-75.45934,5.52827],[-75.45933,5.52827],[-75.45927,5.5283],[-75.45918,5.52833],[-75.45919,5.52835],[-75.45919,5.52835],[-75.45919,5.52835],[-75.45912,5.52839],[-75.4591,5.52836],[-75.45907,5.52838],[-75.45903,5.52839],[-75.45902,5.52839],[-75.45901,5.5284],[-75.459,5.5284],[-75.45899,5.52841],[-75.45899,5.52841],[-75.45898,5.52842],[-75.45897,5.52842],[-75.45897,5.52843],[-75.45896,5.52844],[-75.45895,5.52845],[-75.45894,5.52846],[-75.45894,5.52847],[-75.45892,5.5285],[-75.45891,5.52851],[-75.4589,5.52852],[-75.45894,5.5285],[-75.45896,5.52853],[-75.45898,5.52852],[-75.45902,5.52862],[-75.45903,5.52862],[-75.45898,5.52865],[-75.45902,5.52872],[-75.45903,5.52876],[-75.45904,5.52877],[-75.45909,5.52874],[-75.4591,5.52874],[-75.4591,5.52874],[-75.45912,5.52873],[-75.45915,5.52871],[-75.45916,5.52871],[-75.4592,5.52874]]]},"properties":{"FID":4,"OBJECTID":5,"Id":0,"Shape_Leng":216.593898663,"Shape_Area":2015.31528868}},{"type":"Feature","id":5,"geometry":{"type":"Polygon","coordinates":[[[-75.45867,5.52895],[-75.45867,5.52894],[-75.45867,5.52893],[-75.45867,5.52891],[-75.45867,5.5289],[-75.45867,5.5289],[-75.45868,5.52888],[-75.45868,5.52888],[-75.45868,5.52888],[-75.45869,5.52888],[-75.45869,5.52887],[-75.4587,5.52887],[-75.4587,5.52887],[-75.45871,5.52887],[-75.45872,5.52887],[-75.45872,5.52886],[-75.45873,5.52886],[-75.45874,5.52885],[-75.45875,5.52885],[-75.45875,5.52884],[-75.45876,5.52883],[-75.45877,5.5288],[-75.45878,5.5288],[-75.45872,5.52864],[-75.45871,5.52862],[-75.45871,5.52861],[-75.45867,5.52864],[-75.45867,5.52864],[-75.45867,5.52864],[-75.45855,5.52872],[-75.45853,5.52874],[-75.45852,5.52874],[-75.45852,5.52875],[-75.45851,5.52876],[-75.4585,5.52877],[-75.45849,5.52878],[-75.45848,5.52878],[-75.45848,5.52879],[-75.45847,5.52881],[-75.45847,5.52881],[-75.45844,5.52887],[-75.45841,5.52894],[-75.45842,5.52895],[-75.45842,5.52896],[-75.45845,5.52902],[-75.45845,5.52902],[-75.45847,5.52905],[-75.45867,5.52895],[-75.45867,5.52895]]]},"properties":{"FID":5,"OBJECTID":6,"Id":0,"Shape_Leng":133.820464569,"Shape_Area":1037.83840825}},{"type":"Feature","id":6,"geometry":{"type":"Polygon","coordinates":[[[-75.45876,5.52406],[-75.45875,5.52407],[-75.45872,5.52407],[-75.45869,5.52408],[-75.45867,5.52409],[-75.45866,5.52409],[-75.45863,5.5241],[-75.45863,5.52412],[-75.45864,5.52414],[-75.45865,5.5242],[-75.45865,5.5242],[-75.45864,5.52421],[-75.45864,5.52421],[-75.45864,5.52422],[-75.45865,5.52423],[-75.45866,5.52423],[-75.45869,5.52429],[-75.45871,5.52435],[-75.45872,5.52434],[-75.45872,5.52434],[-75.45872,5.52436],[-75.45873,5.52437],[-75.45873,5.52438],[-75.4587,5.52439],[-75.4587,5.52439],[-75.45871,5.52441],[-75.45875,5.52441],[-75.45878,5.52441],[-75.45881,5.5244],[-75.45882,5.5244],[-75.4589,5.52437],[-75.4589,5.52436],[-75.45891,5.52436],[-75.45892,5.52437],[-75.45893,5.52437],[-75.45893,5.52437],[-75.45894,5.52437],[-75.45895,5.52436],[-75.45896,5.5244],[-75.45897,5.52442],[-75.45897,5.52442],[-75.45897,5.52442],[-75.45897,5.52443],[-75.45898,5.52443],[-75.45903,5.52441],[-75.45909,5.52438],[-75.45909,5.52438],[-75.45909,5.52437],[-75.45907,5.52434],[-75.45907,5.52434],[-75.45906,5.5243],[-75.45904,5.52426],[-75.45904,5.52425],[-75.45903,5.52421],[-75.45901,5.52416],[-75.459,5.52413],[-75.459,5.52413],[-75.459,5.52413],[-75.45901,5.52413],[-75.45901,5.52413],[-75.45902,5.52412],[-75.45903,5.52412],[-75.45903,5.52412],[-75.45904,5.52412],[-75.45905,5.52412],[-75.45906,5.52411],[-75.45906,5.52411],[-75.45907,5.5241],[-75.45907,5.5241],[-75.45905,5.52404],[-75.45903,5.52401],[-75.45901,5.52394],[-75.45898,5.52395],[-75.45897,5.52396],[-75.45897,5.52396],[-75.45894,5.52397],[-75.45893,5.52397],[-75.45893,5.52397],[-75.45893,5.52397],[-75.45889,5.52399],[-75.45889,5.52399],[-75.45889,5.524],[-75.4589,5.52403],[-75.4589,5.52403],[-75.45885,5.52406],[-75.45883,5.52406],[-75.45883,5.52404],[-75.45881,5.52405],[-75.45879,5.52405],[-75.45876,5.52406]]]},"properties":{"FID":6,"OBJECTID":8,"Id":0,"Shape_Leng":202.844771544,"Shape_Area":1719.88577766}},{"type":"Feature","id":7,"geometry":{"type":"Polygon","coordinates":[[[-75.45949,5.52405],[-75.45951,5.52404],[-75.45951,5.52404],[-75.45951,5.52404],[-75.45957,5.52406],[-75.45961,5.52407],[-75.45963,5.52408],[-75.45963,5.52408],[-75.45967,5.5241],[-75.45972,5.52407],[-75.45976,5.52406],[-75.45976,5.52406],[-75.45981,5.52404],[-75.45981,5.52403],[-75.45981,5.52402],[-75.45976,5.52389],[-75.45976,5.52389],[-75.45975,5.52389],[-75.45974,5.52389],[-75.45974,5.52389],[-75.45973,5.52389],[-75.45972,5.52389],[-75.4597,5.52388],[-75.45969,5.52388],[-75.45968,5.52388],[-75.45967,5.52388],[-75.45966,5.52388],[-75.45966,5.52387],[-75.45966,5.52387],[-75.45965,5.52386],[-75.45964,5.52385],[-75.45963,5.52384],[-75.45963,5.52384],[-75.45963,5.52383],[-75.45963,5.52382],[-75.45963,5.52382],[-75.45963,5.52382],[-75.45962,5.52381],[-75.45962,5.52381],[-75.45962,5.5238],[-75.45962,5.5238],[-75.45962,5.52379],[-75.45962,5.52379],[-75.45962,5.52378],[-75.45962,5.52378],[-75.45962,5.52377],[-75.45961,5.52376],[-75.45962,5.52375],[-75.45962,5.52375],[-75.45962,5.52374],[-75.45963,5.52373],[-75.45963,5.52373],[-75.45964,5.52372],[-75.45965,5.52371],[-75.45966,5.52371],[-75.45967,5.5237],[-75.45967,5.52369],[-75.45967,5.52368],[-75.45967,5.52367],[-75.45967,5.52366],[-75.45967,5.52365],[-75.45968,5.52365],[-75.45968,5.52365],[-75.45968,5.52364],[-75.45946,5.52373],[-75.45934,5.52379],[-75.4593,5.52381],[-75.4593,5.52382],[-75.45931,5.52385],[-75.45931,5.52387],[-75.45931,5.52388],[-75.45932,5.52388],[-75.45933,5.5239],[-75.45933,5.5239],[-75.45934,5.52393],[-75.45934,5.52393],[-75.45935,5.52395],[-75.45935,5.52395],[-75.45936,5.52398],[-75.45938,5.52402],[-75.45938,5.52403],[-75.45938,5.52403],[-75.45937,5.52405],[-75.45936,5.52408],[-75.45936,5.5241],[-75.45937,5.52416],[-75.45937,5.52416],[-75.4594,5.52415],[-75.4594,5.52412],[-75.45941,5.52412],[-75.45942,5.5241],[-75.45944,5.52408],[-75.45944,5.52408],[-75.45949,5.52405]]]},"properties":{"FID":7,"OBJECTID":9,"Id":0,"Shape_Leng":205.019007996,"Shape_Area":1658.41433078}},{"type":"Feature","id":8,"geometry":{"type":"Polygon","coordinates":[[[-75.45971,5.52474],[-75.45971,5.52475],[-75.45971,5.52475],[-75.45972,5.52474],[-75.45973,5.52474],[-75.45977,5.52474],[-75.45977,5.52474],[-75.45978,5.52474],[-75.45978,5.52474],[-75.45983,5.52473],[-75.45984,5.52472],[-75.45986,5.52472],[-75.45993,5.52467],[-75.45994,5.52467],[-75.45996,5.52467],[-75.45999,5.52467],[-75.45999,5.52467],[-75.46,5.52466],[-75.46001,5.52466],[-75.46002,5.52466],[-75.46003,5.52466],[-75.46003,5.52465],[-75.46004,5.52465],[-75.46005,5.52464],[-75.46007,5.52463],[-75.46008,5.52463],[-75.45996,5.52438],[-75.45996,5.52438],[-75.45996,5.52438],[-75.45995,5.52438],[-75.45994,5.52439],[-75.45994,5.52439],[-75.45993,5.5244],[-75.4599,5.5244],[-75.45986,5.5244],[-75.45984,5.5244],[-75.45983,5.5244],[-75.45982,5.5244],[-75.45982,5.5244],[-75.45976,5.52437],[-75.45975,5.52437],[-75.45962,5.52442],[-75.45963,5.52444],[-75.45965,5.52448],[-75.45966,5.52451],[-75.45969,5.52458],[-75.45968,5.52459],[-75.4597,5.52468],[-75.45971,5.52474]]]},"properties":{"FID":8,"OBJECTID":10,"Id":0,"Shape_Leng":153.232095683,"Shape_Area":1359.67527067}},{"type":"Feature","id":9,"geometry":{"type":"Polygon","coordinates":[[[-75.46119,5.52847],[-75.46119,5.52846],[-75.46118,5.52846],[-75.46116,5.52843],[-75.46116,5.52843],[-75.46113,5.52837],[-75.46112,5.52835],[-75.46112,5.52835],[-75.46112,5.52835],[-75.46111,5.52832],[-75.46107,5.5282],[-75.46106,5.5282],[-75.46104,5.52819],[-75.46101,5.52819],[-75.461,5.52819],[-75.46099,5.52819],[-75.46099,5.52819],[-75.46099,5.52819],[-75.46099,5.52819],[-75.46099,5.52819],[-75.46099,5.5282],[-75.46099,5.52821],[-75.461,5.52821],[-75.46101,5.52824],[-75.46101,5.52824],[-75.46101,5.52825],[-75.46102,5.52826],[-75.46101,5.52826],[-75.46101,5.52826],[-75.46099,5.52827],[-75.46096,5.52828],[-75.46096,5.52829],[-75.46095,5.52829],[-75.46095,5.5283],[-75.46093,5.52832],[-75.46092,5.52832],[-75.46091,5.52833],[-75.4609,5.52834],[-75.46089,5.52836],[-75.46088,5.52837],[-75.46087,5.52838],[-75.46087,5.52838],[-75.46086,5.52839],[-75.46084,5.5284],[-75.46084,5.5284],[-75.46084,5.52841],[-75.46082,5.52842],[-75.4608,5.52844],[-75.4608,5.52844],[-75.46081,5.52847],[-75.4608,5.52847],[-75.46077,5.52847],[-75.46076,5.52847],[-75.46069,5.52848],[-75.46068,5.52848],[-75.46069,5.52849],[-75.46069,5.52849],[-75.46069,5.5285],[-75.4607,5.52851],[-75.4607,5.52851],[-75.4607,5.52851],[-75.4607,5.52852],[-75.4607,5.52852],[-75.46071,5.52854],[-75.46071,5.52854],[-75.46072,5.52855],[-75.46073,5.52858],[-75.46073,5.52858],[-75.46073,5.52858],[-75.46074,5.52861],[-75.46075,5.52861],[-75.46075,5.52863],[-75.46075,5.52863],[-75.46076,5.52864],[-75.46076,5.52864],[-75.46076,5.52865],[-75.46077,5.52866],[-75.46077,5.52868],[-75.46078,5.52869],[-75.46078,5.5287],[-75.46079,5.52871],[-75.46079,5.52871],[-75.4608,5.52873],[-75.4608,5.52875],[-75.46081,5.52876],[-75.46082,5.52875],[-75.46086,5.52875],[-75.46087,5.52874],[-75.46087,5.52874],[-75.46089,5.52866],[-75.46089,5.52865],[-75.46089,5.52864],[-75.46093,5.52862],[-75.46097,5.52857],[-75.461,5.52853],[-75.46101,5.52852],[-75.46101,5.52852],[-75.46102,5.52851],[-75.46108,5.52852],[-75.46108,5.52852],[-75.4611,5.52852],[-75.46111,5.52854],[-75.46112,5.52855],[-75.46114,5.52856],[-75.46121,5.5286],[-75.46126,5.52862],[-75.46126,5.52862],[-75.46128,5.52863],[-75.46129,5.52864],[-75.46127,5.52859],[-75.46126,5.52858],[-75.46126,5.52858],[-75.46126,5.52857],[-75.46123,5.52851],[-75.46123,5.52851],[-75.46122,5.52852],[-75.46122,5.5285],[-75.4612,5.52848],[-75.46119,5.52847]]]},"properties":{"FID":9,"OBJECTID":11,"Id":0,"Shape_Leng":229.844220485,"Shape_Area":1606.07293642}},{"type":"Feature","id":10,"geometry":{"type":"Polygon","coordinates":[[[-75.46013,5.52724],[-75.46011,5.52725],[-75.46014,5.5273],[-75.46019,5.52728],[-75.46023,5.52726],[-75.46024,5.52728],[-75.46027,5.52726],[-75.46029,5.52726],[-75.46035,5.52723],[-75.46032,5.52717],[-75.46042,5.52713],[-75.46045,5.52712],[-75.46045,5.52711],[-75.46043,5.52707],[-75.46032,5.52712],[-75.46028,5.52701],[-75.46027,5.52701],[-75.46026,5.52698],[-75.4603,5.52696],[-75.46028,5.5269],[-75.46023,5.5268],[-75.46019,5.52682],[-75.46019,5.52682],[-75.46018,5.52681],[-75.46017,5.52681],[-75.46019,5.52686],[-75.46015,5.52688],[-75.46015,5.52687],[-75.46009,5.5269],[-75.46006,5.52691],[-75.46002,5.52693],[-75.46001,5.52692],[-75.45994,5.52695],[-75.45994,5.52696],[-75.45999,5.52706],[-75.46002,5.52704],[-75.46009,5.52701],[-75.46011,5.52706],[-75.46004,5.52709],[-75.4601,5.52719],[-75.4601,5.52719],[-75.46013,5.52724]]]},"properties":{"FID":10,"OBJECTID":12,"Id":0,"Shape_Leng":223.589193637,"Shape_Area":1342.02016377}},{"type":"Feature","id":11,"geometry":{"type":"Polygon","coordinates":[[[-75.46137,5.52946],[-75.46157,5.52937],[-75.46156,5.52935],[-75.46154,5.52931],[-75.4616,5.52929],[-75.46162,5.52929],[-75.4616,5.52925],[-75.46158,5.52922],[-75.46154,5.52924],[-75.46144,5.52916],[-75.46145,5.52916],[-75.4615,5.52913],[-75.46147,5.52905],[-75.46142,5.52907],[-75.46142,5.52907],[-75.46139,5.52902],[-75.46138,5.52899],[-75.46136,5.529],[-75.46133,5.52894],[-75.4613,5.52895],[-75.46118,5.52901],[-75.46119,5.52903],[-75.46114,5.52905],[-75.46107,5.52908],[-75.46106,5.52905],[-75.46098,5.52909],[-75.46097,5.52907],[-75.46095,5.52908],[-75.46097,5.52913],[-75.46098,5.52917],[-75.46101,5.52926],[-75.46103,5.5293],[-75.46101,5.52931],[-75.46102,5.52932],[-75.46104,5.52937],[-75.46105,5.52937],[-75.46106,5.52939],[-75.46109,5.52946],[-75.46109,5.52946],[-75.46111,5.52948],[-75.46112,5.52948],[-75.46115,5.52946],[-75.46119,5.52954],[-75.4612,5.52955],[-75.46122,5.52954],[-75.46125,5.52952],[-75.4613,5.5295],[-75.46133,5.52949],[-75.46136,5.52947],[-75.46137,5.52946]]]},"properties":{"FID":11,"OBJECTID":13,"Id":0,"Shape_Leng":252.558241447,"Shape_Area":2802.44992321}},{"type":"Feature","id":12,"geometry":{"type":"Polygon","coordinates":[[[-75.45826,5.52694],[-75.45829,5.52692],[-75.45833,5.52701],[-75.45834,5.52704],[-75.45834,5.52704],[-75.45841,5.52701],[-75.45846,5.52712],[-75.45847,5.52715],[-75.45852,5.52727],[-75.45855,5.52733],[-75.45859,5.52731],[-75.45859,5.52731],[-75.45861,5.52735],[-75.4586,5.52735],[-75.45861,5.52738],[-75.45866,5.52736],[-75.45866,5.52735],[-75.45861,5.52725],[-75.4586,5.52723],[-75.45864,5.52721],[-75.45865,5.52721],[-75.45865,5.52721],[-75.45871,5.52718],[-75.45874,5.52717],[-75.45873,5.52715],[-75.45871,5.5271],[-75.45879,5.5271],[-75.45877,5.52705],[-75.45874,5.52707],[-75.45872,5.52704],[-75.45869,5.52698],[-75.45866,5.5269],[-75.45865,5.52689],[-75.45864,5.52687],[-75.45869,5.52684],[-75.45869,5.52684],[-75.45867,5.52681],[-75.45867,5.52681],[-75.45865,5.52676],[-75.45862,5.52672],[-75.45862,5.52672],[-75.45861,5.52673],[-75.45861,5.52673],[-75.45856,5.52675],[-75.45852,5.52677],[-75.4585,5.52678],[-75.45845,5.52681],[-75.45842,5.52682],[-75.45842,5.52682],[-75.45841,5.52681],[-75.4584,5.52682],[-75.45841,5.52683],[-75.45836,5.52685],[-75.45836,5.52685],[-75.45836,5.52685],[-75.45831,5.52687],[-75.45831,5.52687],[-75.45828,5.52688],[-75.45824,5.5269],[-75.45826,5.52694]]]},"properties":{"FID":12,"OBJECTID":14,"Id":0,"Shape_Leng":246.555916833,"Shape_Area":1852.71288439}},{"type":"Feature","id":13,"geometry":{"type":"Polygon","coordinates":[[[-75.45792,5.52407],[-75.45799,5.52406],[-75.458,5.52405],[-75.458,5.52405],[-75.45801,5.52405],[-75.45803,5.52404],[-75.45806,5.52403],[-75.45814,5.52399],[-75.45815,5.52399],[-75.45814,5.52396],[-75.45812,5.52391],[-75.45812,5.52391],[-75.45813,5.52391],[-75.45811,5.52387],[-75.45808,5.52383],[-75.45805,5.52377],[-75.45802,5.52371],[-75.458,5.52367],[-75.458,5.52367],[-75.45798,5.52361],[-75.458,5.5236],[-75.45797,5.52353],[-75.45793,5.52354],[-75.4579,5.52355],[-75.45783,5.52359],[-75.45784,5.5236],[-75.45786,5.52367],[-75.45786,5.52367],[-75.45782,5.52369],[-75.45778,5.52371],[-75.45778,5.52372],[-75.45769,5.52377],[-75.4577,5.5238],[-75.45773,5.52386],[-75.45774,5.52387],[-75.45775,5.52388],[-75.45772,5.52389],[-75.45774,5.52395],[-75.45777,5.52393],[-75.45779,5.524],[-75.45775,5.52402],[-75.45775,5.52402],[-75.45774,5.52402],[-75.45775,5.52403],[-75.45776,5.52406],[-75.45776,5.52406],[-75.45778,5.52409],[-75.45779,5.52408],[-75.4578,5.52412],[-75.45786,5.5241],[-75.45788,5.52408],[-75.45792,5.52407]]]},"properties":{"FID":13,"OBJECTID":15,"Id":0,"Shape_Leng":204.436461928,"Shape_Area":1852.86093562}},{"type":"Feature","id":14,"geometry":{"type":"Polygon","coordinates":[[[-75.45739,5.52327],[-75.45742,5.52326],[-75.45751,5.52322],[-75.45754,5.5232],[-75.45767,5.52315],[-75.45774,5.52312],[-75.45772,5.52306],[-75.4577,5.52302],[-75.4577,5.52302],[-75.45775,5.523],[-75.45772,5.52295],[-75.45771,5.52291],[-75.4577,5.52287],[-75.45768,5.52284],[-75.45761,5.52286],[-75.45758,5.52288],[-75.45758,5.52288],[-75.45758,5.52288],[-75.45751,5.5229],[-75.45749,5.52291],[-75.45745,5.52293],[-75.45746,5.52295],[-75.45746,5.52296],[-75.45748,5.52299],[-75.45748,5.52299],[-75.45743,5.52299],[-75.45742,5.52305],[-75.45742,5.52307],[-75.45741,5.52312],[-75.4574,5.52314],[-75.4574,5.5232],[-75.4574,5.5232],[-75.45739,5.52327],[-75.45739,5.52327]]]},"properties":{"FID":14,"OBJECTID":16,"Id":0,"Shape_Leng":152.236522523,"Shape_Area":1142.16444987}},{"type":"Feature","id":15,"geometry":{"type":"Polygon","coordinates":[[[-75.45917,5.52673],[-75.45922,5.5267],[-75.45927,5.52668],[-75.45932,5.52665],[-75.45938,5.52663],[-75.45932,5.52651],[-75.45931,5.52651],[-75.4593,5.52652],[-75.4593,5.52652],[-75.45927,5.52646],[-75.45925,5.5264],[-75.45917,5.52643],[-75.45916,5.52644],[-75.45911,5.52646],[-75.4591,5.52649],[-75.4591,5.52649],[-75.4591,5.52649],[-75.45908,5.52649],[-75.45905,5.5265],[-75.45907,5.52655],[-75.4591,5.5266],[-75.45912,5.52664],[-75.45916,5.52671],[-75.45917,5.52673]]]},"properties":{"FID":15,"OBJECTID":17,"Id":0,"Shape_Leng":112.175706572,"Shape_Area":716.364052663}},{"type":"Feature","id":16,"geometry":{"type":"Polygon","coordinates":[[[-75.46036,5.53165],[-75.46038,5.53164],[-75.46038,5.53164],[-75.46039,5.53164],[-75.46043,5.53161],[-75.46048,5.53159],[-75.4605,5.53158],[-75.46053,5.53157],[-75.46055,5.53156],[-75.46053,5.53152],[-75.46052,5.5315],[-75.46049,5.53144],[-75.46048,5.53143],[-75.46046,5.53138],[-75.46045,5.53139],[-75.46044,5.53139],[-75.46044,5.53138],[-75.46038,5.53141],[-75.46036,5.53142],[-75.46032,5.53144],[-75.4603,5.53145],[-75.46033,5.53152],[-75.4603,5.53154],[-75.46031,5.53156],[-75.46033,5.53159],[-75.46033,5.53159],[-75.46034,5.5316],[-75.46035,5.53164],[-75.46036,5.53165]]]},"properties":{"FID":16,"OBJECTID":18,"Id":0,"Shape_Leng":91.7383687558,"Shape_Area":487.853841969}},{"type":"Feature","id":17,"geometry":{"type":"MultiPolygon","coordinates":[[[[-75.46065,5.5313],[-75.46066,5.53133],[-75.46067,5.53135],[-75.46069,5.53137],[-75.46069,5.53138],[-75.46075,5.53135],[-75.46076,5.53139],[-75.46077,5.53139],[-75.46078,5.53141],[-75.4608,5.5314],[-75.46083,5.53139],[-75.46086,5.53138],[-75.46089,5.53136],[-75.46088,5.53135],[-75.46087,5.53133],[-75.46086,5.5313],[-75.46084,5.53127],[-75.46083,5.53125],[-75.46083,5.53124],[-75.46082,5.53123],[-75.46082,5.53123],[-75.46077,5.53125],[-75.46071,5.53128],[-75.46071,5.53128],[-75.46067,5.53129],[-75.46065,5.5313]]],[[[-75.46078,5.53141],[-75.46078,5.53141],[-75.46078,5.53142],[-75.46078,5.53141]]]]},"properties":{"FID":17,"OBJECTID":19,"Id":0,"Shape_Leng":77.4492629506,"Shape_Area":296.562728962}},{"type":"Feature","id":18,"geometry":{"type":"Polygon","coordinates":[[[-75.46018,5.53128],[-75.46021,5.53127],[-75.46024,5.53125],[-75.46023,5.53125],[-75.46023,5.53124],[-75.46028,5.53121],[-75.46027,5.53118],[-75.46033,5.53115],[-75.46031,5.53113],[-75.46031,5.53112],[-75.4603,5.5311],[-75.46027,5.53104],[-75.46011,5.53113],[-75.46013,5.53117],[-75.46013,5.53118],[-75.46015,5.53121],[-75.46016,5.53124],[-75.46017,5.53127],[-75.46018,5.53128]]]},"properties":{"FID":18,"OBJECTID":20,"Id":0,"Shape_Leng":79.2059502546,"Shape_Area":340.687826783}},{"type":"Feature","id":19,"geometry":{"type":"Polygon","coordinates":[[[-75.46007,5.52886],[-75.46004,5.52888],[-75.46004,5.52889],[-75.46006,5.52893],[-75.45998,5.52896],[-75.46,5.52902],[-75.46,5.52903],[-75.46003,5.52902],[-75.46006,5.529],[-75.46006,5.52902],[-75.46007,5.52903],[-75.46008,5.52905],[-75.46009,5.52908],[-75.46009,5.52909],[-75.46011,5.52912],[-75.46017,5.5291],[-75.46016,5.52907],[-75.46015,5.52905],[-75.46019,5.52903],[-75.46023,5.52912],[-75.46024,5.52913],[-75.46029,5.52911],[-75.46035,5.52909],[-75.46034,5.52907],[-75.46038,5.52906],[-75.46039,5.52906],[-75.46043,5.52904],[-75.46046,5.52903],[-75.4605,5.52902],[-75.46051,5.52901],[-75.46051,5.52902],[-75.46052,5.52901],[-75.46052,5.52901],[-75.4605,5.52896],[-75.46046,5.52897],[-75.46045,5.52892],[-75.46044,5.52891],[-75.46042,5.52886],[-75.46043,5.52885],[-75.4604,5.52878],[-75.46039,5.52874],[-75.46038,5.52873],[-75.46042,5.5287],[-75.46044,5.5287],[-75.46043,5.52866],[-75.46042,5.52864],[-75.46041,5.52864],[-75.46033,5.52868],[-75.46029,5.5287],[-75.46029,5.52869],[-75.46029,5.52868],[-75.46026,5.52869],[-75.46025,5.52866],[-75.46021,5.52858],[-75.46013,5.5286],[-75.46007,5.52863],[-75.46004,5.52864],[-75.46003,5.52865],[-75.46,5.52867],[-75.46,5.52868],[-75.45999,5.52869],[-75.45999,5.52869],[-75.46001,5.52873],[-75.46003,5.52878],[-75.46005,5.52882],[-75.46006,5.52885],[-75.46007,5.52886],[-75.46007,5.52886]]]},"properties":{"FID":19,"OBJECTID":21,"Id":0,"Shape_Leng":254.499217595,"Shape_Area":2216.77469946}},{"type":"Feature","id":20,"geometry":{"type":"Polygon","coordinates":[[[-75.4597,5.52932],[-75.45978,5.52928],[-75.45976,5.52924],[-75.45979,5.52923],[-75.4598,5.52922],[-75.45976,5.52914],[-75.45973,5.52915],[-75.45972,5.52912],[-75.45968,5.52903],[-75.45967,5.52901],[-75.45968,5.52901],[-75.4597,5.529],[-75.45969,5.52897],[-75.45966,5.52891],[-75.45963,5.52884],[-75.45959,5.52887],[-75.45955,5.52889],[-75.45946,5.52896],[-75.45941,5.52899],[-75.45941,5.52899],[-75.45941,5.52899],[-75.45938,5.529],[-75.45933,5.52902],[-75.45934,5.52904],[-75.45929,5.52906],[-75.45927,5.52907],[-75.45928,5.52908],[-75.45923,5.5291],[-75.45923,5.52909],[-75.45918,5.52912],[-75.45919,5.52914],[-75.4592,5.52916],[-75.45921,5.52919],[-75.45922,5.5292],[-75.45924,5.52919],[-75.45926,5.52923],[-75.45928,5.52922],[-75.45928,5.52924],[-75.45928,5.52924],[-75.4593,5.52927],[-75.45931,5.5293],[-75.45933,5.52934],[-75.45935,5.52936],[-75.45937,5.5294],[-75.45939,5.52945],[-75.45941,5.52944],[-75.45944,5.52943],[-75.45947,5.52942],[-75.45948,5.52942],[-75.4595,5.52941],[-75.45953,5.52939],[-75.45955,5.52938],[-75.45962,5.52935],[-75.45966,5.52933],[-75.4597,5.52932]]]},"properties":{"FID":20,"OBJECTID":22,"Id":0,"Shape_Leng":221.766916169,"Shape_Area":2459.67444646}},{"type":"Feature","id":21,"geometry":{"type":"Polygon","coordinates":[[[-75.45936,5.52518],[-75.4594,5.52516],[-75.45945,5.52514],[-75.45946,5.52513],[-75.45942,5.52507],[-75.4595,5.52503],[-75.45949,5.52499],[-75.45944,5.52491],[-75.45943,5.52488],[-75.45942,5.52487],[-75.45939,5.5248],[-75.45938,5.52477],[-75.45935,5.52478],[-75.45927,5.52462],[-75.45922,5.52464],[-75.45924,5.52468],[-75.4592,5.52469],[-75.45915,5.52471],[-75.45915,5.52471],[-75.45914,5.52468],[-75.4591,5.5247],[-75.45905,5.52472],[-75.45905,5.52472],[-75.45904,5.52472],[-75.45902,5.52473],[-75.45899,5.52474],[-75.45893,5.52477],[-75.45894,5.52478],[-75.45893,5.52479],[-75.45894,5.5248],[-75.45898,5.52489],[-75.459,5.52493],[-75.459,5.52494],[-75.45902,5.52497],[-75.459,5.52497],[-75.45901,5.52499],[-75.459,5.52499],[-75.45901,5.52503],[-75.45902,5.52503],[-75.45905,5.52502],[-75.45905,5.52502],[-75.45908,5.525],[-75.45911,5.52506],[-75.45911,5.52507],[-75.45908,5.52508],[-75.4591,5.52512],[-75.45914,5.52521],[-75.45916,5.5252],[-75.45921,5.52518],[-75.45921,5.52518],[-75.45922,5.52519],[-75.45927,5.52517],[-75.45931,5.52516],[-75.45935,5.52515],[-75.45936,5.52517],[-75.45936,5.52518]]]},"properties":{"FID":21,"OBJECTID":23,"Id":0,"Shape_Leng":234.631420403,"Shape_Area":2390.13476179}},{"type":"Feature","id":22,"geometry":{"type":"Polygon","coordinates":[[[-75.45963,5.52536],[-75.45963,5.52536],[-75.45961,5.52537],[-75.45958,5.52538],[-75.45955,5.5254],[-75.45953,5.52541],[-75.45946,5.52544],[-75.45948,5.52549],[-75.45945,5.5255],[-75.45941,5.52552],[-75.45941,5.52552],[-75.45936,5.52555],[-75.4593,5.52558],[-75.45929,5.52558],[-75.45931,5.52563],[-75.45932,5.52563],[-75.45934,5.52568],[-75.45935,5.52568],[-75.45937,5.52572],[-75.45933,5.52574],[-75.45934,5.52577],[-75.45936,5.52575],[-75.45939,5.52582],[-75.45942,5.52585],[-75.45943,5.52585],[-75.45943,5.52585],[-75.45949,5.52583],[-75.45949,5.52582],[-75.45955,5.5258],[-75.45959,5.52578],[-75.45959,5.52577],[-75.45963,5.52575],[-75.45974,5.5257],[-75.45977,5.52569],[-75.45978,5.52569],[-75.45978,5.52569],[-75.45977,5.52566],[-75.45976,5.52563],[-75.45973,5.52557],[-75.45974,5.52556],[-75.45972,5.52552],[-75.45969,5.52545],[-75.45967,5.52542],[-75.45965,5.52539],[-75.45963,5.52536]]]},"properties":{"FID":22,"OBJECTID":24,"Id":0,"Shape_Leng":180.938406028,"Shape_Area":1661.93698329}},{"type":"Feature","id":23,"geometry":{"type":"Polygon","coordinates":[[[-75.45896,5.52615],[-75.45902,5.52611],[-75.45903,5.52611],[-75.45908,5.52609],[-75.45908,5.5261],[-75.45911,5.52609],[-75.45913,5.52608],[-75.45911,5.52605],[-75.4591,5.52603],[-75.45909,5.52601],[-75.45908,5.52597],[-75.45906,5.52598],[-75.45905,5.52597],[-75.45901,5.52588],[-75.459,5.52588],[-75.45899,5.52589],[-75.45899,5.52589],[-75.45896,5.52583],[-75.45895,5.52583],[-75.45894,5.52584],[-75.45892,5.52585],[-75.45884,5.52589],[-75.45884,5.52595],[-75.45886,5.52597],[-75.45887,5.52599],[-75.45888,5.52602],[-75.45887,5.52605],[-75.45892,5.52607],[-75.45895,5.52613],[-75.45896,5.52615]]]},"properties":{"FID":23,"OBJECTID":25,"Id":0,"Shape_Leng":110.192219551,"Shape_Area":617.073831686}},{"type":"Feature","id":24,"geometry":{"type":"Polygon","coordinates":[[[-75.46005,5.52969],[-75.46003,5.52963],[-75.46,5.52957],[-75.45999,5.52955],[-75.45998,5.52955],[-75.45998,5.52955],[-75.45994,5.52956],[-75.45994,5.52956],[-75.4599,5.52957],[-75.4599,5.52957],[-75.45989,5.52954],[-75.45988,5.52953],[-75.45982,5.52956],[-75.45977,5.52958],[-75.45974,5.52959],[-75.45972,5.52961],[-75.45968,5.52963],[-75.45969,5.52964],[-75.4597,5.52966],[-75.45971,5.52968],[-75.45969,5.52969],[-75.45966,5.5297],[-75.45961,5.52973],[-75.45955,5.52975],[-75.45952,5.52977],[-75.45953,5.52978],[-75.45955,5.52982],[-75.45956,5.52981],[-75.45958,5.52985],[-75.45958,5.52985],[-75.4596,5.52989],[-75.45961,5.52989],[-75.45963,5.52992],[-75.45964,5.52992],[-75.45966,5.52991],[-75.45968,5.52996],[-75.45965,5.52997],[-75.45967,5.53001],[-75.45968,5.53001],[-75.45968,5.53001],[-75.45973,5.52998],[-75.45976,5.53005],[-75.45979,5.5301],[-75.45981,5.53009],[-75.45986,5.53007],[-75.45985,5.53004],[-75.45984,5.53003],[-75.45989,5.53001],[-75.45997,5.52995],[-75.45999,5.53002],[-75.46004,5.53],[-75.46009,5.52998],[-75.46009,5.52999],[-75.46017,5.52996],[-75.46018,5.52996],[-75.46022,5.52994],[-75.46022,5.52994],[-75.46021,5.52992],[-75.46018,5.52993],[-75.46015,5.52988],[-75.46015,5.52987],[-75.46014,5.52984],[-75.46009,5.52975],[-75.46009,5.52974],[-75.46008,5.52975],[-75.46006,5.52971],[-75.46005,5.52969]]]},"properties":{"FID":24,"OBJECTID":26,"Id":0,"Shape_Leng":256.730988292,"Shape_Area":2568.41443619}},{"type":"Feature","id":25,"geometry":{"type":"Polygon","coordinates":[[[-75.458,5.52824],[-75.45802,5.52823],[-75.45804,5.52822],[-75.45808,5.5282],[-75.45816,5.52818],[-75.45825,5.52816],[-75.45837,5.52816],[-75.45837,5.52816],[-75.45838,5.52815],[-75.4584,5.52814],[-75.45834,5.528],[-75.45833,5.52798],[-75.45825,5.52787],[-75.45821,5.52779],[-75.45818,5.52781],[-75.458,5.52791],[-75.45796,5.52793],[-75.45799,5.528],[-75.4579,5.52805],[-75.4579,5.52805],[-75.45792,5.5281],[-75.45794,5.52813],[-75.45795,5.52812],[-75.458,5.52824]]]},"properties":{"FID":25,"OBJECTID":27,"Id":0,"Shape_Leng":168.044633415,"Shape_Area":1547.24519365}},{"type":"Feature","id":26,"geometry":{"type":"Polygon","coordinates":[[[-75.46018,5.52567],[-75.46022,5.52565],[-75.46021,5.52563],[-75.46023,5.52562],[-75.46022,5.52559],[-75.46027,5.52556],[-75.46029,5.52559],[-75.4603,5.52558],[-75.46033,5.52557],[-75.46034,5.52556],[-75.46034,5.52556],[-75.46038,5.52554],[-75.46039,5.52555],[-75.46041,5.52554],[-75.46047,5.52551],[-75.46048,5.5255],[-75.46053,5.52548],[-75.46052,5.52546],[-75.4605,5.52542],[-75.4605,5.52543],[-75.46045,5.52545],[-75.46044,5.52543],[-75.46042,5.5254],[-75.46045,5.52539],[-75.46043,5.52534],[-75.46041,5.52532],[-75.46039,5.52533],[-75.46037,5.52528],[-75.46041,5.52527],[-75.46037,5.52519],[-75.46034,5.52521],[-75.46032,5.52519],[-75.4603,5.52515],[-75.46028,5.52516],[-75.46026,5.52511],[-75.46027,5.5251],[-75.46027,5.5251],[-75.46026,5.52509],[-75.46018,5.52512],[-75.46016,5.52513],[-75.46014,5.5251],[-75.46015,5.5251],[-75.46014,5.52508],[-75.46013,5.52506],[-75.46009,5.52508],[-75.46008,5.52506],[-75.46008,5.52506],[-75.46005,5.52507],[-75.46007,5.52511],[-75.46005,5.52511],[-75.46005,5.5251],[-75.46,5.52512],[-75.45999,5.52512],[-75.46,5.52515],[-75.46,5.52516],[-75.46003,5.52521],[-75.46003,5.52522],[-75.46004,5.52522],[-75.46,5.52524],[-75.45996,5.52515],[-75.45995,5.52516],[-75.45993,5.52517],[-75.4599,5.52518],[-75.4599,5.52518],[-75.45987,5.5252],[-75.45985,5.5252],[-75.45987,5.52524],[-75.45986,5.52524],[-75.45989,5.5253],[-75.4599,5.5253],[-75.45991,5.52529],[-75.45993,5.52532],[-75.45991,5.52533],[-75.45988,5.52535],[-75.45987,5.52537],[-75.45988,5.52538],[-75.45989,5.52541],[-75.4599,5.52541],[-75.45991,5.52545],[-75.45994,5.52544],[-75.45996,5.52543],[-75.45998,5.52547],[-75.45999,5.52546],[-75.46,5.52546],[-75.46003,5.52544],[-75.46004,5.52544],[-75.46006,5.52547],[-75.46002,5.52549],[-75.45998,5.52551],[-75.46,5.52556],[-75.46001,5.52555],[-75.46005,5.52554],[-75.46008,5.5256],[-75.46006,5.52561],[-75.46005,5.52562],[-75.46009,5.52571],[-75.4601,5.52571],[-75.46011,5.5257],[-75.46018,5.52567]]]},"properties":{"FID":26,"OBJECTID":28,"Id":0,"Shape_Leng":340.377764747,"Shape_Area":2850.31120797}},{"type":"Feature","id":27,"geometry":{"type":"Polygon","coordinates":[[[-75.45787,5.52502],[-75.45787,5.525],[-75.45785,5.52496],[-75.45786,5.52495],[-75.45784,5.52492],[-75.45781,5.52493],[-75.45779,5.52489],[-75.4578,5.52489],[-75.45776,5.52477],[-75.45774,5.52473],[-75.4577,5.52462],[-75.45767,5.52463],[-75.45765,5.52459],[-75.45763,5.52455],[-75.4576,5.52457],[-75.45758,5.52454],[-75.45751,5.52458],[-75.45748,5.52459],[-75.45748,5.52459],[-75.45744,5.52461],[-75.45738,5.52464],[-75.45738,5.52464],[-75.45741,5.5247],[-75.45743,5.52474],[-75.45747,5.5249],[-75.45748,5.52492],[-75.45749,5.52496],[-75.45749,5.52498],[-75.45748,5.52499],[-75.45746,5.52499],[-75.45749,5.52507],[-75.45751,5.52512],[-75.45753,5.52517],[-75.45761,5.52513],[-75.45765,5.52511],[-75.45766,5.52512],[-75.45775,5.52508],[-75.45776,5.52508],[-75.45776,5.52507],[-75.45779,5.52506],[-75.45783,5.52504],[-75.45787,5.52502]]]},"properties":{"FID":27,"OBJECTID":29,"Id":0,"Shape_Leng":208.932913143,"Shape_Area":2133.09117542}},{"type":"Feature","id":28,"geometry":{"type":"MultiPolygon","coordinates":[[[[-75.45797,5.52534],[-75.45797,5.52534],[-75.45796,5.52533],[-75.45797,5.52534]]],[[[-75.45811,5.52568],[-75.45809,5.52564],[-75.45809,5.52564],[-75.45806,5.52556],[-75.45805,5.52556],[-75.45804,5.52553],[-75.45804,5.52551],[-75.458,5.52545],[-75.45799,5.52545],[-75.45797,5.5254],[-75.45799,5.5254],[-75.45797,5.52534],[-75.4579,5.52537],[-75.45776,5.52543],[-75.45769,5.52547],[-75.45763,5.52549],[-75.45765,5.52554],[-75.45769,5.52564],[-75.4577,5.52569],[-75.45773,5.52581],[-75.45774,5.52585],[-75.45774,5.52585],[-75.45777,5.52591],[-75.45794,5.52582],[-75.45794,5.52582],[-75.45797,5.5258],[-75.45797,5.5258],[-75.45796,5.52578],[-75.45795,5.52577],[-75.45803,5.52572],[-75.45811,5.52568]]]]},"properties":{"FID":28,"OBJECTID":30,"Id":0,"Shape_Leng":187.523242986,"Shape_Area":1894.63335845}},{"type":"Feature","id":29,"geometry":{"type":"Polygon","coordinates":[[[-75.45851,5.52557],[-75.45852,5.52557],[-75.45857,5.52555],[-75.45859,5.52554],[-75.4586,5.52554],[-75.45863,5.52552],[-75.45865,5.52552],[-75.45866,5.52551],[-75.45863,5.52546],[-75.45865,5.52545],[-75.45868,5.52544],[-75.45869,5.52544],[-75.45871,5.52543],[-75.45871,5.52543],[-75.45871,5.52543],[-75.45873,5.52542],[-75.45874,5.52542],[-75.45874,5.52542],[-75.4587,5.52534],[-75.45871,5.52534],[-75.45873,5.52533],[-75.45871,5.52529],[-75.4587,5.52525],[-75.4587,5.52525],[-75.45866,5.52527],[-75.45849,5.52535],[-75.45849,5.52535],[-75.45847,5.52536],[-75.45846,5.52534],[-75.45841,5.52536],[-75.45846,5.52546],[-75.45848,5.52549],[-75.45851,5.52557]]]},"properties":{"FID":29,"OBJECTID":31,"Id":0,"Shape_Leng":121.343808833,"Shape_Area":681.447224893}},{"type":"Feature","id":30,"geometry":{"type":"Polygon","coordinates":[[[-75.46058,5.52585],[-75.46058,5.52584],[-75.46056,5.52579],[-75.46055,5.52578],[-75.46049,5.52581],[-75.46048,5.52577],[-75.46045,5.52578],[-75.46045,5.5258],[-75.46042,5.52582],[-75.46037,5.52585],[-75.46033,5.52587],[-75.46028,5.52589],[-75.46026,5.5259],[-75.46027,5.52593],[-75.46029,5.52598],[-75.4603,5.52599],[-75.46033,5.52606],[-75.46039,5.52616],[-75.46039,5.52616],[-75.46043,5.52621],[-75.46043,5.52622],[-75.46048,5.52631],[-75.46048,5.52631],[-75.46058,5.52627],[-75.46064,5.52625],[-75.46063,5.52624],[-75.46063,5.52624],[-75.46074,5.52619],[-75.46075,5.52619],[-75.46069,5.52604],[-75.46068,5.52601],[-75.46058,5.52585]]]},"properties":{"FID":30,"OBJECTID":32,"Id":0,"Shape_Leng":176.250213972,"Shape_Area":1817.26304253}},{"type":"Feature","id":31,"geometry":{"type":"Polygon","coordinates":[[[-75.45988,5.52628],[-75.45988,5.52627],[-75.45991,5.52635],[-75.45993,5.52638],[-75.45995,5.52643],[-75.45997,5.52648],[-75.45998,5.52649],[-75.46,5.52654],[-75.46012,5.52647],[-75.46013,5.52649],[-75.46018,5.52645],[-75.46018,5.52645],[-75.46013,5.52639],[-75.46008,5.52631],[-75.46005,5.52628],[-75.46005,5.52627],[-75.46004,5.52627],[-75.46001,5.5262],[-75.45997,5.52612],[-75.45991,5.52614],[-75.45989,5.52616],[-75.45988,5.52614],[-75.45982,5.52616],[-75.45982,5.52616],[-75.45981,5.52616],[-75.45973,5.5262],[-75.45968,5.52623],[-75.45963,5.52625],[-75.4596,5.52627],[-75.45959,5.52627],[-75.45962,5.52632],[-75.45965,5.52635],[-75.45967,5.52638],[-75.45967,5.52638],[-75.45984,5.5263],[-75.45988,5.52628]]]},"properties":{"FID":31,"OBJECTID":33,"Id":0,"Shape_Leng":189.723346106,"Shape_Area":1217.71352722}},{"type":"Feature","id":32,"geometry":{"type":"Polygon","coordinates":[[[-75.45817,5.52324],[-75.45819,5.52324],[-75.4584,5.52315],[-75.45839,5.52314],[-75.45836,5.52307],[-75.45841,5.52306],[-75.4585,5.52302],[-75.45851,5.52302],[-75.45847,5.52292],[-75.45833,5.52258],[-75.45829,5.52259],[-75.4582,5.52262],[-75.4582,5.5226],[-75.45811,5.52264],[-75.45812,5.52267],[-75.45806,5.5227],[-75.45804,5.52271],[-75.45804,5.52269],[-75.45802,5.52269],[-75.458,5.5227],[-75.45794,5.52273],[-75.45804,5.52293],[-75.45806,5.52299],[-75.45806,5.52299],[-75.45807,5.52302],[-75.45809,5.52306],[-75.4581,5.5231],[-75.45811,5.5231],[-75.45813,5.52314],[-75.45817,5.52324]]]},"properties":{"FID":32,"OBJECTID":34,"Id":0,"Shape_Leng":224.349939983,"Shape_Area":2649.60583281}},{"type":"Feature","id":33,"geometry":{"type":"Polygon","coordinates":[[[-75.46121,5.52773],[-75.46158,5.52752],[-75.46148,5.52737],[-75.46147,5.52737],[-75.46143,5.52729],[-75.46141,5.52728],[-75.46138,5.52723],[-75.46132,5.52718],[-75.46129,5.52719],[-75.46123,5.52722],[-75.4612,5.52716],[-75.46107,5.52721],[-75.46103,5.52724],[-75.46101,5.52721],[-75.46093,5.52726],[-75.4609,5.52728],[-75.46095,5.52736],[-75.46095,5.52737],[-75.46101,5.52744],[-75.46104,5.52748],[-75.46114,5.52763],[-75.46116,5.52766],[-75.46116,5.52767],[-75.46118,5.52771],[-75.46119,5.52771],[-75.46121,5.52773]]]},"properties":{"FID":33,"OBJECTID":35,"Id":0,"Shape_Leng":214.121550507,"Shape_Area":2627.64516538}},{"type":"Feature","id":34,"geometry":{"type":"Polygon","coordinates":[[[-75.46184,5.52739],[-75.46185,5.52739],[-75.46186,5.52742],[-75.46186,5.52742],[-75.46191,5.52739],[-75.46192,5.5274],[-75.46198,5.52738],[-75.46201,5.52736],[-75.46199,5.52733],[-75.46197,5.52734],[-75.46197,5.52732],[-75.46196,5.52731],[-75.46194,5.52728],[-75.46197,5.52726],[-75.46196,5.52726],[-75.46195,5.52723],[-75.46194,5.52721],[-75.46191,5.52723],[-75.46189,5.52719],[-75.4619,5.52719],[-75.46188,5.52716],[-75.46188,5.52715],[-75.46185,5.5271],[-75.46185,5.52709],[-75.46184,5.52709],[-75.46181,5.52704],[-75.46183,5.52703],[-75.4618,5.52697],[-75.46181,5.52697],[-75.46178,5.52691],[-75.46178,5.52691],[-75.46176,5.52688],[-75.46173,5.52689],[-75.46173,5.52689],[-75.46175,5.52692],[-75.46172,5.52693],[-75.46169,5.52695],[-75.46168,5.52693],[-75.46162,5.52696],[-75.4616,5.52697],[-75.46163,5.52703],[-75.46163,5.52703],[-75.46166,5.52709],[-75.46168,5.52708],[-75.46169,5.52712],[-75.4617,5.52715],[-75.4617,5.52715],[-75.46173,5.52721],[-75.46172,5.52722],[-75.46175,5.52728],[-75.46174,5.52728],[-75.46177,5.52734],[-75.46181,5.5274],[-75.46181,5.5274],[-75.46184,5.52739]]]},"properties":{"FID":34,"OBJECTID":37,"Id":0,"Shape_Leng":188.636794511,"Shape_Area":1115.63721451}},{"type":"Feature","id":35,"geometry":{"type":"Polygon","coordinates":[[[-75.46037,5.53018],[-75.46035,5.5302],[-75.46034,5.5302],[-75.46033,5.53019],[-75.4603,5.5302],[-75.46025,5.53023],[-75.46023,5.53024],[-75.46023,5.53025],[-75.46021,5.53027],[-75.46017,5.53028],[-75.46018,5.5303],[-75.46016,5.53032],[-75.46014,5.53029],[-75.46008,5.53032],[-75.46003,5.53035],[-75.45999,5.53036],[-75.46,5.53038],[-75.45997,5.53039],[-75.45997,5.53039],[-75.45994,5.53041],[-75.45991,5.53043],[-75.45989,5.53044],[-75.4599,5.53046],[-75.45987,5.53048],[-75.4599,5.53054],[-75.45991,5.53057],[-75.45995,5.53065],[-75.45998,5.53072],[-75.46002,5.5308],[-75.46004,5.53085],[-75.46007,5.5309],[-75.46024,5.53083],[-75.46027,5.53082],[-75.46034,5.53078],[-75.46043,5.53074],[-75.46051,5.5307],[-75.46053,5.53069],[-75.46058,5.53066],[-75.46055,5.5306],[-75.46054,5.53058],[-75.46037,5.53018]]]},"properties":{"FID":35,"OBJECTID":38,"Id":0,"Shape_Leng":251.503439289,"Shape_Area":3656.09130786}},{"type":"Feature","id":36,"geometry":{"type":"Polygon","coordinates":[[[-75.45866,5.52377],[-75.45883,5.52371],[-75.45881,5.52366],[-75.45879,5.52361],[-75.45879,5.5236],[-75.45876,5.52354],[-75.45875,5.52353],[-75.45873,5.52355],[-75.45865,5.52358],[-75.45862,5.5236],[-75.4586,5.52355],[-75.45855,5.52345],[-75.45851,5.52337],[-75.4585,5.52336],[-75.45849,5.52333],[-75.45826,5.52342],[-75.45829,5.52346],[-75.45832,5.52352],[-75.45831,5.52352],[-75.45832,5.52354],[-75.45834,5.52359],[-75.45836,5.52364],[-75.45839,5.5237],[-75.4584,5.52369],[-75.4584,5.5237],[-75.4584,5.52371],[-75.45838,5.52371],[-75.45839,5.52373],[-75.45841,5.52377],[-75.45841,5.52377],[-75.45842,5.52378],[-75.4584,5.52378],[-75.45841,5.52381],[-75.45844,5.52387],[-75.45846,5.52386],[-75.45853,5.52383],[-75.45866,5.52377]]]},"properties":{"FID":36,"OBJECTID":39,"Id":0,"Shape_Leng":208.075946626,"Shape_Area":1840.46904408}},{"type":"Feature","id":37,"geometry":{"type":"Polygon","coordinates":[[[-75.45931,5.53066],[-75.45927,5.53067],[-75.45925,5.53068],[-75.45919,5.53071],[-75.45922,5.53077],[-75.45921,5.53077],[-75.45921,5.53078],[-75.45923,5.53081],[-75.45925,5.53086],[-75.45927,5.53089],[-75.45928,5.53093],[-75.45934,5.53108],[-75.45951,5.53102],[-75.45955,5.53101],[-75.45958,5.531],[-75.45961,5.53098],[-75.45962,5.53098],[-75.45963,5.53098],[-75.45965,5.53097],[-75.45971,5.53095],[-75.4597,5.53094],[-75.45964,5.53079],[-75.45962,5.53074],[-75.45958,5.53066],[-75.45961,5.53064],[-75.45959,5.53058],[-75.45958,5.53058],[-75.45956,5.53052],[-75.45935,5.53063],[-75.45934,5.53063],[-75.45935,5.53065],[-75.45932,5.53066],[-75.45931,5.53066]]]},"properties":{"FID":37,"OBJECTID":40,"Id":0,"Shape_Leng":190.964233753,"Shape_Area":2037.79908026}},{"type":"Feature","id":38,"geometry":{"type":"Polygon","coordinates":[[[-75.45909,5.52945],[-75.45906,5.5294],[-75.45906,5.52939],[-75.45904,5.52935],[-75.45902,5.52932],[-75.45901,5.5293],[-75.45893,5.52915],[-75.45891,5.52916],[-75.45889,5.52918],[-75.45886,5.52919],[-75.45889,5.52925],[-75.45883,5.52928],[-75.45872,5.52933],[-75.45866,5.52935],[-75.45862,5.52927],[-75.45861,5.52924],[-75.45861,5.52924],[-75.45859,5.52921],[-75.45857,5.52922],[-75.45848,5.52927],[-75.45845,5.52929],[-75.45844,5.52933],[-75.45844,5.52934],[-75.45843,5.52936],[-75.45842,5.52938],[-75.45838,5.5294],[-75.45841,5.52946],[-75.45843,5.52951],[-75.45849,5.52948],[-75.45855,5.52945],[-75.45859,5.52953],[-75.4586,5.52955],[-75.45862,5.52959],[-75.45864,5.52962],[-75.45862,5.52963],[-75.45859,5.52965],[-75.45864,5.52972],[-75.45864,5.52971],[-75.4587,5.52969],[-75.4587,5.52969],[-75.45875,5.52967],[-75.45877,5.52966],[-75.45879,5.52965],[-75.45884,5.52963],[-75.45891,5.52961],[-75.45891,5.52961],[-75.45897,5.52958],[-75.45899,5.52957],[-75.45898,5.52955],[-75.45899,5.52954],[-75.459,5.52954],[-75.45909,5.5295],[-75.45911,5.52949],[-75.45909,5.52945]]]},"properties":{"FID":38,"OBJECTID":41,"Id":0,"Shape_Leng":263.420789167,"Shape_Area":2519.3146713}},{"type":"Feature","id":39,"geometry":{"type":"Polygon","coordinates":[[[-75.46169,5.52956],[-75.46163,5.52959],[-75.46157,5.52961],[-75.46156,5.52962],[-75.46153,5.52964],[-75.4615,5.52965],[-75.46151,5.52967],[-75.46138,5.52973],[-75.46132,5.52975],[-75.46132,5.52976],[-75.46125,5.52979],[-75.46125,5.52979],[-75.46128,5.52985],[-75.46126,5.52986],[-75.4613,5.52993],[-75.46131,5.52996],[-75.46133,5.52999],[-75.46132,5.52999],[-75.46136,5.53006],[-75.46138,5.53005],[-75.4614,5.53009],[-75.46144,5.53018],[-75.46146,5.53021],[-75.46148,5.5302],[-75.46148,5.5302],[-75.46152,5.53018],[-75.46152,5.53019],[-75.4616,5.53015],[-75.46165,5.53012],[-75.46184,5.53001],[-75.46186,5.53],[-75.46185,5.52998],[-75.46185,5.52998],[-75.4619,5.52995],[-75.46184,5.52986],[-75.46182,5.52983],[-75.46177,5.52977],[-75.46175,5.52972],[-75.46172,5.52969],[-75.46169,5.52962],[-75.46171,5.52962],[-75.46169,5.52956]]]},"properties":{"FID":39,"OBJECTID":42,"Id":0,"Shape_Leng":227.596971536,"Shape_Area":2867.57534416}},{"type":"Feature","id":40,"geometry":{"type":"Polygon","coordinates":[[[-75.45836,5.52646],[-75.45843,5.52642],[-75.45846,5.52641],[-75.45847,5.52641],[-75.45849,5.5264],[-75.45852,5.52637],[-75.45853,5.52636],[-75.4585,5.52629],[-75.45849,5.52628],[-75.45841,5.52632],[-75.45839,5.52627],[-75.45842,5.52626],[-75.45845,5.52624],[-75.4585,5.52622],[-75.45846,5.52614],[-75.45846,5.52614],[-75.45845,5.52612],[-75.45843,5.52608],[-75.45841,5.52609],[-75.45838,5.5261],[-75.45833,5.52612],[-75.45832,5.5261],[-75.45831,5.52608],[-75.45833,5.52608],[-75.45831,5.52603],[-75.45823,5.52605],[-75.4582,5.52607],[-75.45821,5.52609],[-75.45818,5.52611],[-75.45816,5.52612],[-75.45814,5.52613],[-75.45812,5.52614],[-75.45811,5.52613],[-75.4581,5.5261],[-75.45809,5.52609],[-75.45809,5.52609],[-75.45806,5.5261],[-75.45805,5.52606],[-75.45801,5.52608],[-75.45801,5.52608],[-75.45799,5.52604],[-75.45793,5.52607],[-75.45792,5.52608],[-75.45791,5.52608],[-75.45785,5.52611],[-75.45786,5.52614],[-75.45788,5.5262],[-75.45789,5.52621],[-75.45792,5.52629],[-75.45793,5.52631],[-75.45796,5.52629],[-75.45804,5.52625],[-75.45808,5.52623],[-75.45809,5.52623],[-75.45813,5.52623],[-75.45816,5.52624],[-75.45822,5.52624],[-75.45824,5.52624],[-75.45825,5.52627],[-75.45825,5.52627],[-75.45828,5.52634],[-75.45832,5.52641],[-75.45833,5.52645],[-75.45834,5.52646],[-75.45834,5.52646],[-75.45836,5.52646]]]},"properties":{"FID":40,"OBJECTID":43,"Id":0,"Shape_Leng":264.830744068,"Shape_Area":1682.7799317}},{"type":"Feature","id":41,"geometry":{"type":"Polygon","coordinates":[[[-75.46068,5.52922],[-75.46067,5.52922],[-75.46065,5.52923],[-75.46056,5.52929],[-75.46051,5.52931],[-75.46052,5.52932],[-75.46052,5.52933],[-75.46052,5.52934],[-75.46054,5.52937],[-75.46054,5.52937],[-75.46046,5.5294],[-75.46046,5.52939],[-75.46044,5.52935],[-75.46035,5.52938],[-75.46031,5.52939],[-75.46028,5.52941],[-75.4603,5.52944],[-75.4603,5.52945],[-75.46032,5.52948],[-75.46032,5.52948],[-75.46033,5.5295],[-75.46035,5.5295],[-75.46035,5.52952],[-75.46039,5.52961],[-75.46039,5.5296],[-75.46041,5.52965],[-75.46037,5.52967],[-75.4604,5.52975],[-75.46042,5.52979],[-75.46038,5.52981],[-75.46039,5.52983],[-75.46042,5.5299],[-75.46043,5.52993],[-75.46046,5.52992],[-75.46051,5.5299],[-75.46061,5.52985],[-75.46063,5.52985],[-75.46062,5.52982],[-75.4606,5.52977],[-75.46064,5.52975],[-75.46066,5.52974],[-75.46067,5.52976],[-75.46068,5.5298],[-75.46074,5.52977],[-75.46086,5.5297],[-75.46086,5.52969],[-75.46086,5.52969],[-75.46084,5.52965],[-75.46083,5.52962],[-75.46082,5.52961],[-75.4608,5.52956],[-75.46082,5.52955],[-75.46083,5.52954],[-75.46084,5.52954],[-75.46081,5.52949],[-75.46079,5.52944],[-75.46076,5.52945],[-75.46072,5.52947],[-75.4607,5.52942],[-75.46072,5.52942],[-75.46071,5.5294],[-75.46075,5.52938],[-75.46075,5.52936],[-75.46073,5.52931],[-75.46072,5.52929],[-75.46071,5.52929],[-75.46069,5.52925],[-75.46068,5.52922]]]},"properties":{"FID":41,"OBJECTID":44,"Id":0,"Shape_Leng":282.850172243,"Shape_Area":2746.97443982}},{"type":"Feature","id":42,"geometry":{"type":"Polygon","coordinates":[[[-75.46077,5.53053],[-75.46079,5.53052],[-75.46085,5.53049],[-75.46092,5.53046],[-75.46099,5.53042],[-75.46107,5.53038],[-75.46108,5.5304],[-75.46115,5.53036],[-75.46121,5.53033],[-75.46119,5.53028],[-75.46117,5.53024],[-75.46113,5.53027],[-75.4611,5.53028],[-75.46108,5.53024],[-75.46111,5.53022],[-75.46116,5.53019],[-75.46116,5.53018],[-75.46114,5.53013],[-75.46113,5.53014],[-75.46111,5.5301],[-75.46109,5.53007],[-75.46108,5.53007],[-75.46107,5.53008],[-75.46106,5.53006],[-75.46105,5.53004],[-75.46105,5.53004],[-75.46103,5.53],[-75.46102,5.53],[-75.46099,5.52994],[-75.46101,5.52993],[-75.46099,5.52988],[-75.46098,5.52988],[-75.4609,5.52992],[-75.46085,5.52994],[-75.46077,5.52998],[-75.46054,5.53007],[-75.46066,5.53031],[-75.46069,5.53036],[-75.46077,5.53053]]]},"properties":{"FID":42,"OBJECTID":45,"Id":0,"Shape_Leng":247.949021105,"Shape_Area":2947.2972293}}]}