{"type":"FeatureCollection","name":"Relictos_Guadua","crs":{"type":"name","properties":{"name":"urn:ogc:def:crs:OGC:1.3:CRS84"}},"features":[{"type":"Feature","id":0,"geometry":{"type":"Polygon","coordinates":[[[-74.78737,5.63278],[-74.78685,5.63365],[-74.787,5.63347],[-74.78715,5.63327],[-74.78732,5.63293],[-74.78737,5.63278]]]},"properties":{"FID":0,"OBJECTID":1,"ID_RGUA":1,"CODSUELO":"1738000","CODRGUA":"1","CLASE":"Guaduales","AREA":438.241584778,"PERIMETER":224.840079518,"Shape_Leng":224.840076283,"Shape_Area":438.240987495}},{"type":"Feature","id":1,"geometry":{"type":"Polygon","coordinates":[[[-74.76429,5.66224],[-74.76407,5.66215],[-74.76277,5.6623],[-74.76243,5.66239],[-74.7601,5.66357],[-74.75584,5.6654],[-74.75628,5.66533],[-74.75877,5.66416],[-74.75995,5.66364],[-74.76057,5.66339],[-74.76114,5.66309],[-74.76169,5.66287],[-74.76217,5.66261],[-74.76253,5.6625],[-74.76287,5.66241],[-74.76319,5.66242],[-74.76355,5.66238],[-74.7639,5.66227],[-74.76429,5.66224]]]},"properties":{"FID":1,"OBJECTID":2,"ID_RGUA":2,"CODSUELO":"1738000","CODRGUA":"2","CLASE":"Guaduales","AREA":7434.7988739,"PERIMETER":2021.64988789,"Shape_Leng":2021.64988521,"Shape_Area":7434.79568748}},{"type":"Feature","id":2,"geometry":{"type":"Polygon","coordinates":[[[-74.75447,5.66546],[-74.75447,5.66543],[-74.75416,5.66527],[-74.75325,5.66478],[-74.75317,5.66493],[-74.7522,5.66601],[-74.75447,5.66546]]]},"properties":{"FID":2,"OBJECTID":3,"ID_RGUA":3,"CODSUELO":"1738000","CODRGUA":"3","CLASE":"Guaduales","AREA":13353.5643311,"PERIMETER":594.126433938,"Shape_Leng":594.126438611,"Shape_Area":13353.5654125}},{"type":"Feature","id":3,"geometry":{"type":"Polygon","coordinates":[[[-74.76549,5.66222],[-74.7657,5.66225],[-74.76629,5.66221],[-74.76677,5.66196],[-74.76704,5.66145],[-74.76715,5.66088],[-74.76553,5.66148],[-74.76527,5.66169],[-74.76515,5.66184],[-74.76549,5.66222]]]},"properties":{"FID":3,"OBJECTID":4,"ID_RGUA":4,"CODSUELO":"1738000","CODRGUA":"4","CLASE":"Guaduales","AREA":18777.9034271,"PERIMETER":582.595846661,"Shape_Leng":582.595812827,"Shape_Area":18777.902525}},{"type":"Feature","id":4,"geometry":{"type":"Polygon","coordinates":[[[-74.76912,5.6567],[-74.76913,5.65671],[-74.76944,5.65621],[-74.76982,5.65582],[-74.77002,5.65563],[-74.77027,5.65546],[-74.77043,5.65525],[-74.77056,5.65507],[-74.76986,5.65525],[-74.76912,5.6567]]]},"properties":{"FID":4,"OBJECTID":5,"ID_RGUA":5,"CODSUELO":"1738000","CODRGUA":"5","CLASE":"Guaduales","AREA":4661.24853897,"PERIMETER":504.786645856,"Shape_Leng":504.786642942,"Shape_Area":4661.24732492}},{"type":"Feature","id":5,"geometry":{"type":"Polygon","coordinates":[[[-74.77131,5.65273],[-74.77089,5.65339],[-74.7704,5.65322],[-74.7704,5.65343],[-74.77013,5.6539],[-74.76992,5.65476],[-74.77005,5.65476],[-74.77104,5.65432],[-74.77144,5.65352],[-74.77131,5.65273]]]},"properties":{"FID":5,"OBJECTID":6,"ID_RGUA":6,"CODSUELO":"1738000","CODRGUA":"6","CLASE":"Guaduales","AREA":17905.5747528,"PERIMETER":644.973638978,"Shape_Leng":644.973641878,"Shape_Area":17905.5725375}},{"type":"Feature","id":6,"geometry":{"type":"Polygon","coordinates":[[[-74.74329,5.69363],[-74.74421,5.69363],[-74.7449,5.69368],[-74.74529,5.69367],[-74.74582,5.69365],[-74.74617,5.69357],[-74.74343,5.69336],[-74.74292,5.69349],[-74.74329,5.69363]]]},"properties":{"FID":6,"OBJECTID":7,"ID_RGUA":7,"CODSUELO":"1738000","CODRGUA":"7","CLASE":"Guaduales","AREA":6997.24504852,"PERIMETER":725.33148007,"Shape_Leng":725.331522636,"Shape_Area":6997.2452375}},{"type":"Feature","id":7,"geometry":{"type":"Polygon","coordinates":[[[-74.75113,5.69225],[-74.75025,5.69308],[-74.74939,5.69327],[-74.7498,5.69324],[-74.75013,5.69319],[-74.75049,5.693],[-74.7508,5.69273],[-74.75096,5.69253],[-74.75113,5.69225]]]},"properties":{"FID":7,"OBJECTID":8,"ID_RGUA":8,"CODSUELO":"1738000","CODRGUA":"8","CLASE":"Guaduales","AREA":1850.96569824,"PERIMETER":469.994291434,"Shape_Leng":469.994283485,"Shape_Area":1850.96625}},{"type":"Feature","id":8,"geometry":{"type":"Polygon","coordinates":[[[-74.74282,5.69254],[-74.7437,5.69275],[-74.74459,5.69298],[-74.74574,5.69306],[-74.74789,5.69325],[-74.74711,5.69277],[-74.7453,5.69258],[-74.74395,5.69226],[-74.74282,5.69254]]]},"properties":{"FID":8,"OBJECTID":9,"ID_RGUA":9,"CODSUELO":"1738000","CODRGUA":"9","CLASE":"Guaduales","AREA":24241.9996567,"PERIMETER":1156.0564103,"Shape_Leng":1156.05637002,"Shape_Area":24241.9990125}},{"type":"Feature","id":9,"geometry":{"type":"Polygon","coordinates":[[[-74.74363,5.68558],[-74.74333,5.68596],[-74.74374,5.68614],[-74.74422,5.68621],[-74.74426,5.68568],[-74.74363,5.68558]]]},"properties":{"FID":9,"OBJECTID":10,"ID_RGUA":10,"CODSUELO":"1738000","CODRGUA":"10","CLASE":"Guaduales","AREA":4993.74367523,"PERIMETER":285.915649428,"Shape_Leng":285.91566475,"Shape_Area":4993.7441125}},{"type":"Feature","id":10,"geometry":{"type":"Polygon","coordinates":[[[-74.74464,5.68574],[-74.74508,5.68591],[-74.74536,5.68616],[-74.74558,5.68592],[-74.74555,5.6859],[-74.74514,5.68583],[-74.74499,5.68581],[-74.74497,5.6858],[-74.74464,5.68574]]]},"properties":{"FID":10,"OBJECTID":11,"ID_RGUA":11,"CODSUELO":"1738000","CODRGUA":"11","CLASE":"Guaduales","AREA":1302.41578674,"PERIMETER":237.526215689,"Shape_Leng":237.526178504,"Shape_Area":1302.415475}},{"type":"Feature","id":11,"geometry":{"type":"Polygon","coordinates":[[[-74.72432,5.73128],[-74.72454,5.73385],[-74.72506,5.73484],[-74.72519,5.73573],[-74.7257,5.73636],[-74.72629,5.73857],[-74.72673,5.7394],[-74.72576,5.73509],[-74.72473,5.73282],[-74.72432,5.73128]]]},"properties":{"FID":11,"OBJECTID":12,"ID_RGUA":12,"CODSUELO":"1738000","CODRGUA":"12","CLASE":"Guaduales","AREA":36862.6779785,"PERIMETER":1896.15568018,"Shape_Leng":1896.15566805,"Shape_Area":36862.6782875}},{"type":"Feature","id":12,"geometry":{"type":"Polygon","coordinates":[[[-74.72896,5.71199],[-74.72925,5.71302],[-74.72894,5.71336],[-74.72829,5.71357],[-74.72753,5.71325],[-74.72698,5.71338],[-74.72614,5.71307],[-74.72517,5.71201],[-74.72413,5.71121],[-74.72312,5.71121],[-74.72268,5.71096],[-74.7219,5.71115],[-74.72201,5.71142],[-74.72344,5.71174],[-74.72441,5.71176],[-74.7254,5.7129],[-74.72626,5.71357],[-74.72917,5.7142],[-74.7301,5.71365],[-74.73029,5.71315],[-74.72984,5.71302],[-74.72896,5.71199]]]},"properties":{"FID":12,"OBJECTID":13,"ID_RGUA":13,"CODSUELO":"1738000","CODRGUA":"13","CLASE":"Guaduales","AREA":60011.9170837,"PERIMETER":2360.38592881,"Shape_Leng":2360.38595562,"Shape_Area":60011.9137125}},{"type":"Feature","id":13,"geometry":{"type":"Polygon","coordinates":[[[-74.73512,5.70662],[-74.73546,5.70681],[-74.73656,5.70698],[-74.73643,5.70694],[-74.73748,5.70698],[-74.73733,5.70666],[-74.73769,5.70674],[-74.73816,5.70645],[-74.73822,5.70594],[-74.73721,5.70596],[-74.7366,5.70626],[-74.73582,5.70613],[-74.73548,5.70588],[-74.73525,5.70588],[-74.735,5.70622],[-74.73512,5.70662]]]},"properties":{"FID":13,"OBJECTID":14,"ID_RGUA":14,"CODSUELO":"1738000","CODRGUA":"14","CLASE":"Guaduales","AREA":29611.5552673,"PERIMETER":933.950376926,"Shape_Leng":933.950339172,"Shape_Area":29611.5551625}},{"type":"Feature","id":14,"geometry":{"type":"Polygon","coordinates":[[[-74.73548,5.70504],[-74.7355,5.70533],[-74.73611,5.70537],[-74.73676,5.70569],[-74.73697,5.70558],[-74.7371,5.70514],[-74.73683,5.70495],[-74.73666,5.70459],[-74.73636,5.70453],[-74.73548,5.70504]]]},"properties":{"FID":14,"OBJECTID":15,"ID_RGUA":15,"CODSUELO":"1738000","CODRGUA":"15","CLASE":"Guaduales","AREA":13384.390625,"PERIMETER":484.82648345,"Shape_Leng":484.826454378,"Shape_Area":13384.390625}},{"type":"Feature","id":15,"geometry":{"type":"Polygon","coordinates":[[[-74.74997,5.66734],[-74.74997,5.66717],[-74.74972,5.66704],[-74.74816,5.668],[-74.74791,5.66829],[-74.74717,5.67055],[-74.74713,5.67135],[-74.74709,5.67217],[-74.74701,5.67272],[-74.74669,5.6734],[-74.74686,5.6757],[-74.74703,5.67625],[-74.74678,5.67736],[-74.74686,5.67768],[-74.7471,5.67744],[-74.74707,5.67715],[-74.74708,5.6768],[-74.74712,5.67655],[-74.74721,5.67633],[-74.74742,5.67605],[-74.74765,5.6759],[-74.74758,5.67523],[-74.74779,5.67481],[-74.74743,5.67354],[-74.74781,5.67249],[-74.74772,5.67192],[-74.7478,5.67082],[-74.74781,5.67079],[-74.74779,5.67021],[-74.7478,5.6699],[-74.74784,5.66981],[-74.748,5.66959],[-74.74803,5.66935],[-74.74862,5.66835],[-74.74997,5.66734]]]},"properties":{"FID":15,"OBJECTID":16,"ID_RGUA":16,"CODSUELO":"1738000","CODRGUA":"16","CLASE":"Guaduales","AREA":81352.6230011,"PERIMETER":2659.56416797,"Shape_Leng":2659.56417878,"Shape_Area":81352.624775}},{"type":"Feature","id":16,"geometry":{"type":"Polygon","coordinates":[[[-74.74857,5.67235],[-74.74865,5.67308],[-74.74911,5.67432],[-74.74962,5.67489],[-74.74971,5.67469],[-74.74968,5.67422],[-74.74936,5.673],[-74.74915,5.67286],[-74.74894,5.6727],[-74.74857,5.67235]]]},"properties":{"FID":16,"OBJECTID":17,"ID_RGUA":17,"CODSUELO":"1738000","CODRGUA":"17","CLASE":"Guaduales","AREA":15631.1874008,"PERIMETER":641.531210873,"Shape_Leng":641.531220275,"Shape_Area":15631.1895375}},{"type":"Feature","id":17,"geometry":{"type":"Polygon","coordinates":[[[-74.79787,5.61045],[-74.7963,5.61158],[-74.79396,5.61258],[-74.79348,5.61323],[-74.79283,5.61376],[-74.79163,5.61437],[-74.79119,5.6144],[-74.78984,5.61366],[-74.78958,5.61351],[-74.78988,5.61419],[-74.79104,5.61482],[-74.79146,5.61488],[-74.79175,5.61471],[-74.79224,5.61467],[-74.79356,5.61342],[-74.79491,5.61256],[-74.79803,5.61102],[-74.79795,5.61091],[-74.79786,5.61061],[-74.79787,5.61045]]]},"properties":{"FID":17,"OBJECTID":18,"ID_RGUA":18,"CODSUELO":"1738000","CODRGUA":"18","CLASE":"Guaduales","AREA":44236.3995514,"PERIMETER":2278.85736515,"Shape_Leng":2278.85738427,"Shape_Area":44236.39935}},{"type":"Feature","id":18,"geometry":{"type":"Polygon","coordinates":[[[-74.74232,5.68535],[-74.74253,5.68545],[-74.74255,5.6854],[-74.74242,5.68538],[-74.74232,5.68535]]]},"properties":{"FID":18,"OBJECTID":19,"ID_RGUA":19,"CODSUELO":"1738000","CODRGUA":"19","CLASE":"Guaduales","AREA":63.9834899902,"PERIMETER":57.8750223281,"Shape_Leng":57.8750512102,"Shape_Area":63.9836500012}},{"type":"Feature","id":19,"geometry":{"type":"Polygon","coordinates":[[[-74.74076,5.68496],[-74.74091,5.68505],[-74.74148,5.68513],[-74.74113,5.68507],[-74.74076,5.68496]]]},"properties":{"FID":19,"OBJECTID":20,"ID_RGUA":20,"CODSUELO":"1738000","CODRGUA":"20","CLASE":"Guaduales","AREA":119.03042984,"PERIMETER":164.783449321,"Shape_Leng":164.783475022,"Shape_Area":119.030337506}},{"type":"Feature","id":20,"geometry":{"type":"Polygon","coordinates":[[[-74.73892,5.67786],[-74.73848,5.67815],[-74.73819,5.6787],[-74.7381,5.67974],[-74.73817,5.6802],[-74.73848,5.68083],[-74.73863,5.68239],[-74.73912,5.68306],[-74.73902,5.68249],[-74.73911,5.68193],[-74.73912,5.6819],[-74.73886,5.68134],[-74.73893,5.68081],[-74.73876,5.67984],[-74.73892,5.67786]]]},"properties":{"FID":20,"OBJECTID":21,"ID_RGUA":21,"CODSUELO":"1738000","CODRGUA":"21","CLASE":"Guaduales","AREA":30449.1622009,"PERIMETER":1222.96787611,"Shape_Leng":1222.96784375,"Shape_Area":30449.1625375}}]}