{"type":"FeatureCollection","name":"Cerros_Tutelares","crs":{"type":"name","properties":{"name":"urn:ogc:def:crs:OGC:1.3:CRS84"}},"features":[{"type":"Feature","id":0,"geometry":{"type":"Polygon","coordinates":[[[-74.75321,5.31618],[-74.75311,5.31656],[-74.75307,5.31706],[-74.75341,5.31809],[-74.75356,5.31826],[-74.75381,5.31887],[-74.75411,5.31904],[-74.75433,5.31904],[-74.75447,5.31894],[-74.75471,5.31855],[-74.75505,5.31823],[-74.75562,5.31817],[-74.75617,5.31799],[-74.75677,5.31732],[-74.75751,5.31717],[-74.75807,5.31682],[-74.75914,5.31648],[-74.76036,5.31632],[-74.76073,5.31609],[-74.76117,5.316],[-74.76149,5.31606],[-74.76187,5.31627],[-74.76224,5.31629],[-74.76323,5.31593],[-74.76353,5.31569],[-74.76424,5.31536],[-74.76542,5.31547],[-74.76653,5.31518],[-74.76689,5.3149],[-74.76725,5.31448],[-74.76756,5.31434],[-74.76788,5.31411],[-74.76854,5.31414],[-74.76912,5.31383],[-74.76943,5.31354],[-74.77007,5.31366],[-74.77029,5.31352],[-74.77105,5.31235],[-74.7718,5.31177],[-74.77212,5.31139],[-74.77254,5.31072],[-74.77319,5.31043],[-74.7736,5.31005],[-74.7739,5.3099],[-74.77415,5.30984],[-74.77454,5.30986],[-74.7751,5.30964],[-74.77534,5.30944],[-74.77547,5.30916],[-74.77543,5.30884],[-74.77523,5.30858],[-74.77475,5.30826],[-74.77407,5.30797],[-74.77368,5.30791],[-74.77262,5.30804],[-74.77208,5.30824],[-74.77097,5.30906],[-74.77015,5.30994],[-74.76974,5.31002],[-74.76936,5.30991],[-74.76906,5.30971],[-74.76876,5.30961],[-74.76821,5.30959],[-74.7679,5.30942],[-74.76771,5.30938],[-74.76695,5.30944],[-74.76531,5.30909],[-74.76498,5.30892],[-74.76434,5.30887],[-74.76413,5.30854],[-74.76392,5.30804],[-74.76355,5.30773],[-74.76324,5.30728],[-74.76283,5.30688],[-74.76242,5.30663],[-74.76089,5.30589],[-74.76027,5.30568],[-74.75953,5.30529],[-74.75924,5.30484],[-74.75845,5.30399],[-74.75809,5.30379],[-74.75744,5.30375],[-74.75685,5.30382],[-74.75617,5.30368],[-74.75484,5.30371],[-74.75463,5.30403],[-74.75448,5.30464],[-74.75437,5.3047],[-74.75374,5.3045],[-74.75328,5.30459],[-74.75265,5.30515],[-74.75229,5.30535],[-74.75204,5.30557],[-74.75208,5.30584],[-74.75233,5.30641],[-74.75259,5.30755],[-74.75307,5.30779],[-74.75322,5.30779],[-74.75382,5.3073],[-74.75437,5.30704],[-74.75488,5.30706],[-74.7554,5.30715],[-74.75577,5.30712],[-74.75636,5.30726],[-74.75667,5.30709],[-74.75701,5.30698],[-74.75738,5.30702],[-74.75763,5.30688],[-74.7578,5.30686],[-74.75812,5.30709],[-74.75842,5.30716],[-74.75876,5.30704],[-74.75919,5.30709],[-74.75981,5.30733],[-74.7599,5.30759],[-74.7594,5.30773],[-74.75916,5.30799],[-74.75884,5.30845],[-74.75866,5.30845],[-74.7585,5.3086],[-74.75805,5.30858],[-74.75754,5.30895],[-74.75735,5.30899],[-74.75712,5.30924],[-74.75671,5.30925],[-74.75603,5.30962],[-74.75585,5.30981],[-74.75571,5.3103],[-74.75555,5.3106],[-74.75522,5.31102],[-74.75517,5.3115],[-74.75529,5.31169],[-74.75562,5.31182],[-74.75645,5.31155],[-74.75809,5.31155],[-74.75962,5.3119],[-74.76005,5.31225],[-74.76033,5.31236],[-74.76082,5.31219],[-74.76144,5.31244],[-74.76197,5.31228],[-74.76239,5.3123],[-74.76263,5.31239],[-74.76255,5.31282],[-74.76243,5.31297],[-74.76196,5.31328],[-74.76116,5.31361],[-74.76101,5.31385],[-74.76008,5.31412],[-74.75971,5.31435],[-74.75926,5.31438],[-74.75888,5.31455],[-74.75846,5.31453],[-74.75816,5.3147],[-74.75761,5.31467],[-74.75729,5.31489],[-74.75708,5.31502],[-74.75673,5.31528],[-74.75612,5.31581],[-74.75502,5.31506],[-74.75478,5.31498],[-74.75439,5.31499],[-74.75419,5.31508],[-74.75341,5.31584],[-74.75321,5.31618]]]},"properties":{"FID":0,"OBJECTID":1,"ID_CERRO":1,"CODMPO":"17380","CODCERRO":"1","NOMBRE":"Cerro Los Burros","AREA":1640102.45,"PERIMETER":10277.3647012,"Shape_Leng":10277.3647012,"Shape_Area":1640102.45}},{"type":"Feature","id":1,"geometry":{"type":"Polygon","coordinates":[[[-74.71545,5.34163],[-74.71566,5.34173],[-74.71567,5.34175],[-74.71572,5.34178],[-74.71593,5.3419],[-74.71605,5.34199],[-74.71621,5.34212],[-74.7163,5.34221],[-74.71667,5.3423],[-74.71685,5.34244],[-74.71714,5.34274],[-74.71732,5.34295],[-74.71751,5.34314],[-74.71791,5.34342],[-74.71863,5.34389],[-74.71888,5.34397],[-74.71933,5.34404],[-74.71976,5.34405],[-74.72393,5.34506],[-74.72451,5.34542],[-74.72482,5.34551],[-74.72579,5.34532],[-74.72651,5.34506],[-74.72694,5.34479],[-74.72707,5.34448],[-74.72713,5.3438],[-74.72713,5.34312],[-74.72701,5.34276],[-74.72656,5.34211],[-74.72614,5.34171],[-74.72554,5.34143],[-74.72391,5.34119],[-74.72241,5.34121],[-74.72165,5.34139],[-74.7214,5.34139],[-74.72122,5.34127],[-74.72073,5.3404],[-74.72022,5.33979],[-74.71928,5.33913],[-74.71725,5.33827],[-74.71566,5.33799],[-74.7155,5.33805],[-74.71491,5.33865],[-74.71445,5.3397],[-74.71431,5.34035],[-74.71431,5.34062],[-74.71442,5.34085],[-74.71455,5.34101],[-74.71457,5.34101],[-74.71473,5.34108],[-74.71478,5.3411],[-74.71491,5.34117],[-74.71501,5.34128],[-74.7151,5.34135],[-74.71545,5.34163]]]},"properties":{"FID":1,"OBJECTID":2,"ID_CERRO":2,"CODMPO":"17380","CODCERRO":"2","NOMBRE":"Cerro Berrocal","AREA":598888.35,"PERIMETER":3610.88671175,"Shape_Leng":3610.88671175,"Shape_Area":598888.35}},{"type":"Feature","id":2,"geometry":{"type":"Polygon","coordinates":[[[-74.76103,5.34304],[-74.7615,5.34371],[-74.76206,5.34432],[-74.76367,5.34501],[-74.76399,5.34552],[-74.76412,5.34577],[-74.76405,5.34632],[-74.7654,5.34766],[-74.76544,5.34794],[-74.76575,5.34836],[-74.76609,5.34856],[-74.76636,5.34849],[-74.76667,5.34825],[-74.76705,5.34778],[-74.76738,5.34747],[-74.76809,5.34708],[-74.76894,5.34687],[-74.76913,5.34668],[-74.76915,5.34629],[-74.76901,5.34586],[-74.76803,5.34451],[-74.7679,5.34415],[-74.76786,5.34377],[-74.76791,5.34356],[-74.76833,5.34315],[-74.76869,5.34295],[-74.76935,5.34237],[-74.77055,5.3416],[-74.77136,5.34119],[-74.77199,5.34067],[-74.7725,5.34041],[-74.77319,5.33988],[-74.77429,5.33878],[-74.77532,5.33799],[-74.77646,5.33738],[-74.77672,5.33713],[-74.77677,5.33662],[-74.77668,5.33624],[-74.77648,5.33603],[-74.775,5.33568],[-74.77477,5.33571],[-74.77452,5.33587],[-74.77375,5.33684],[-74.77346,5.33706],[-74.77286,5.33787],[-74.77248,5.33821],[-74.77218,5.33834],[-74.77143,5.33819],[-74.77095,5.33825],[-74.7701,5.33871],[-74.76777,5.34039],[-74.76661,5.34141],[-74.76499,5.34253],[-74.76428,5.34281],[-74.76392,5.3429],[-74.76366,5.3429],[-74.76209,5.34236],[-74.76165,5.34227],[-74.7614,5.34228],[-74.7611,5.34247],[-74.76099,5.34269],[-74.76103,5.34304]]]},"properties":{"FID":2,"OBJECTID":3,"ID_CERRO":3,"CODMPO":"17380","CODCERRO":"3","NOMBRE":"Cerro El Galilludo","AREA":656002.9,"PERIMETER":5104.28516702,"Shape_Leng":5104.28516702,"Shape_Area":656002.9}},{"type":"Feature","id":3,"geometry":{"type":"Polygon","coordinates":[[[-74.78535,5.3672],[-74.78349,5.36863],[-74.7832,5.36938],[-74.78336,5.37016],[-74.78365,5.37028],[-74.78492,5.36987],[-74.78547,5.36947],[-74.78577,5.36938],[-74.78632,5.36908],[-74.78659,5.36873],[-74.78672,5.36756],[-74.7865,5.36693],[-74.7862,5.36688],[-74.78535,5.3672]]]},"properties":{"FID":3,"OBJECTID":4,"ID_CERRO":4,"CODMPO":"17380","CODCERRO":"4","NOMBRE":"Cerro El Español","AREA":86273.8500001,"PERIMETER":1186.78855289,"Shape_Leng":1186.78855289,"Shape_Area":86273.8500001}},{"type":"Feature","id":4,"geometry":{"type":"Polygon","coordinates":[[[-74.73313,5.40648],[-74.73328,5.40673],[-74.73386,5.40714],[-74.73377,5.406],[-74.73386,5.40554],[-74.73417,5.40496],[-74.7345,5.40473],[-74.735,5.40472],[-74.73557,5.40481],[-74.73642,5.40472],[-74.73651,5.40463],[-74.73684,5.4039],[-74.73702,5.40366],[-74.73724,5.40356],[-74.73741,5.40356],[-74.73754,5.40366],[-74.73781,5.40399],[-74.73799,5.40405],[-74.73831,5.40464],[-74.73861,5.40504],[-74.73866,5.4062],[-74.73872,5.40617],[-74.73942,5.4053],[-74.73954,5.40528],[-74.74015,5.40564],[-74.74024,5.40545],[-74.74018,5.40495],[-74.74008,5.40483],[-74.73963,5.40465],[-74.73923,5.40471],[-74.73912,5.40452],[-74.73915,5.40422],[-74.73964,5.40333],[-74.73979,5.40259],[-74.74,5.40232],[-74.74022,5.40181],[-74.74064,5.40125],[-74.74084,5.4011],[-74.74132,5.40116],[-74.74149,5.40084],[-74.74147,5.40066],[-74.74132,5.40052],[-74.74004,5.39982],[-74.73993,5.39968],[-74.73989,5.39889],[-74.7398,5.39836],[-74.73951,5.39805],[-74.73929,5.39808],[-74.7392,5.39819],[-74.73899,5.39866],[-74.73874,5.39875],[-74.73826,5.3991],[-74.73771,5.39962],[-74.73741,5.39979],[-74.73659,5.39982],[-74.73631,5.39959],[-74.73626,5.39942],[-74.73631,5.39909],[-74.73614,5.39899],[-74.73596,5.39856],[-74.7358,5.39851],[-74.73553,5.39868],[-74.73546,5.39913],[-74.7355,5.39973],[-74.73562,5.40006],[-74.7353,5.4003],[-74.73506,5.40097],[-74.73491,5.40122],[-74.73455,5.40102],[-74.73438,5.40079],[-74.73407,5.40012],[-74.73371,5.3996],[-74.73341,5.39944],[-74.73311,5.39943],[-74.73197,5.40115],[-74.73139,5.40135],[-74.73124,5.4015],[-74.73133,5.40176],[-74.73108,5.40207],[-74.73108,5.40234],[-74.73124,5.40267],[-74.73129,5.40295],[-74.73123,5.40305],[-74.73078,5.40326],[-74.73053,5.40324],[-74.73026,5.40306],[-74.72984,5.40301],[-74.72874,5.40305],[-74.7286,5.4029],[-74.7285,5.40223],[-74.72829,5.40179],[-74.72832,5.40097],[-74.72817,5.40079],[-74.72802,5.40073],[-74.7276,5.40082],[-74.72739,5.40094],[-74.72739,5.40133],[-74.72744,5.40156],[-74.72799,5.4022],[-74.72819,5.40269],[-74.72823,5.4033],[-74.72816,5.40353],[-74.72792,5.40389],[-74.72785,5.40415],[-74.72796,5.40438],[-74.72815,5.40459],[-74.72817,5.40481],[-74.72808,5.40499],[-74.72734,5.40544],[-74.72682,5.4059],[-74.72678,5.40612],[-74.72687,5.40627],[-74.72707,5.40642],[-74.72793,5.40689],[-74.72827,5.40697],[-74.72882,5.40694],[-74.72908,5.40701],[-74.72937,5.40701],[-74.72963,5.40693],[-74.72986,5.40693],[-74.73016,5.40702],[-74.73058,5.40705],[-74.73082,5.40696],[-74.73088,5.4067],[-74.73103,5.40641],[-74.73133,5.40622],[-74.73152,5.40624],[-74.73192,5.40648],[-74.73289,5.40635],[-74.73313,5.40648]]]},"properties":{"FID":4,"OBJECTID":5,"ID_CERRO":5,"CODMPO":"17380","CODCERRO":"5","NOMBRE":"Cerro Los Truenos","AREA":787371.9,"PERIMETER":6426.5790808,"Shape_Leng":6426.5790808,"Shape_Area":787371.9}},{"type":"Feature","id":5,"geometry":{"type":"Polygon","coordinates":[[[-74.73815,5.43572],[-74.73871,5.43578],[-74.73922,5.43603],[-74.73953,5.4361],[-74.73961,5.43595],[-74.73967,5.43531],[-74.73972,5.43525],[-74.73988,5.43534],[-74.7401,5.43565],[-74.74028,5.43562],[-74.74052,5.43527],[-74.7405,5.43496],[-74.74041,5.43487],[-74.74018,5.43487],[-74.73984,5.4347],[-74.73982,5.43458],[-74.73988,5.43434],[-74.73987,5.43409],[-74.73971,5.43351],[-74.73971,5.43326],[-74.73994,5.43231],[-74.74045,5.43136],[-74.74167,5.42981],[-74.74351,5.4282],[-74.74396,5.42793],[-74.74469,5.42779],[-74.74529,5.42717],[-74.74602,5.4272],[-74.74648,5.42662],[-74.74671,5.42647],[-74.74711,5.4256],[-74.74704,5.42545],[-74.7469,5.42532],[-74.74625,5.42504],[-74.74605,5.42508],[-74.74537,5.42504],[-74.74512,5.42513],[-74.74454,5.42494],[-74.74421,5.42499],[-74.74406,5.4251],[-74.74376,5.42505],[-74.74357,5.42496],[-74.74306,5.4253],[-74.74272,5.42523],[-74.74241,5.42528],[-74.74224,5.42518],[-74.74204,5.42488],[-74.74149,5.42511],[-74.74117,5.42546],[-74.7411,5.42541],[-74.74092,5.42541],[-74.74066,5.42554],[-74.74063,5.42611],[-74.7399,5.42618],[-74.73971,5.42631],[-74.73932,5.42643],[-74.73911,5.4268],[-74.73847,5.42709],[-74.73817,5.42754],[-74.73815,5.42788],[-74.73826,5.42828],[-74.73861,5.42867],[-74.73845,5.42873],[-74.73828,5.42895],[-74.73825,5.42943],[-74.73848,5.43027],[-74.73891,5.431],[-74.73891,5.43118],[-74.73849,5.43182],[-74.73845,5.43254],[-74.73831,5.43266],[-74.73772,5.43248],[-74.73758,5.43266],[-74.73743,5.43272],[-74.73737,5.43269],[-74.73695,5.43467],[-74.73724,5.43557],[-74.7374,5.43566],[-74.73793,5.43563],[-74.73815,5.43572]]]},"properties":{"FID":5,"OBJECTID":6,"ID_CERRO":6,"CODMPO":"17380","CODCERRO":"6","NOMBRE":"Cerro Rayero","AREA":512978.75,"PERIMETER":4323.40446417,"Shape_Leng":4323.40446417,"Shape_Area":512978.75}},{"type":"Feature","id":6,"geometry":{"type":"Polygon","coordinates":[[[-74.71904,5.45882],[-74.7196,5.45948],[-74.71993,5.45949],[-74.72099,5.45893],[-74.72257,5.4575],[-74.72301,5.45738],[-74.72347,5.45741],[-74.72405,5.4571],[-74.72441,5.45704],[-74.72479,5.45706],[-74.72545,5.45683],[-74.72581,5.45665],[-74.72611,5.45634],[-74.72648,5.45625],[-74.72673,5.45656],[-74.72704,5.45676],[-74.72746,5.45639],[-74.72761,5.45639],[-74.72788,5.45651],[-74.72816,5.45644],[-74.72852,5.45614],[-74.72905,5.45635],[-74.72956,5.45647],[-74.72987,5.45631],[-74.7301,5.45552],[-74.73054,5.45563],[-74.7308,5.45594],[-74.73105,5.45603],[-74.73114,5.45578],[-74.73148,5.45533],[-74.73167,5.45487],[-74.73197,5.45461],[-74.73208,5.45467],[-74.73224,5.45504],[-74.73238,5.45513],[-74.7326,5.45504],[-74.73295,5.45405],[-74.73332,5.45377],[-74.73344,5.45344],[-74.73337,5.45297],[-74.73269,5.4516],[-74.73238,5.45141],[-74.7315,5.45143],[-74.73134,5.45137],[-74.7314,5.45113],[-74.73125,5.45085],[-74.73084,5.45073],[-74.7302,5.45074],[-74.72937,5.45058],[-74.72875,5.45016],[-74.72862,5.44989],[-74.72867,5.44945],[-74.72936,5.44832],[-74.72943,5.44768],[-74.72941,5.44718],[-74.72955,5.44666],[-74.7299,5.44622],[-74.73066,5.44567],[-74.73089,5.44519],[-74.73119,5.44481],[-74.73141,5.4443],[-74.73181,5.44407],[-74.73188,5.44398],[-74.73174,5.44362],[-74.73152,5.44338],[-74.73091,5.44316],[-74.73078,5.44317],[-74.73055,5.44359],[-74.73041,5.44409],[-74.73004,5.4443],[-74.72928,5.44523],[-74.72873,5.44555],[-74.72829,5.44598],[-74.72792,5.44658],[-74.72705,5.44756],[-74.72645,5.44776],[-74.72604,5.44808],[-74.72578,5.44817],[-74.72535,5.44811],[-74.72498,5.44826],[-74.72484,5.44867],[-74.72486,5.44909],[-74.72472,5.44931],[-74.72439,5.44949],[-74.72371,5.44957],[-74.72323,5.44935],[-74.72301,5.44899],[-74.7228,5.4484],[-74.72252,5.44794],[-74.72221,5.44768],[-74.72196,5.44756],[-74.72181,5.44759],[-74.72158,5.44792],[-74.72151,5.44838],[-74.72154,5.44866],[-74.72145,5.44885],[-74.72103,5.44906],[-74.72052,5.44925],[-74.72031,5.4494],[-74.71976,5.44957],[-74.71887,5.44957],[-74.71768,5.44924],[-74.71713,5.44873],[-74.71671,5.44864],[-74.71649,5.4488],[-74.71616,5.44888],[-74.71568,5.44877],[-74.714,5.44897],[-74.71378,5.44912],[-74.71364,5.4493],[-74.7137,5.44955],[-74.71398,5.44979],[-74.71455,5.44987],[-74.71522,5.45015],[-74.7167,5.45105],[-74.71685,5.4513],[-74.71707,5.45142],[-74.7175,5.45197],[-74.71768,5.45203],[-74.71785,5.45221],[-74.71783,5.45234],[-74.71748,5.45243],[-74.71622,5.45222],[-74.71583,5.45223],[-74.71528,5.45212],[-74.7145,5.45208],[-74.71396,5.45186],[-74.7135,5.45179],[-74.71244,5.45204],[-74.71214,5.45188],[-74.71182,5.45195],[-74.71147,5.45215],[-74.71125,5.45208],[-74.71113,5.45215],[-74.71086,5.45218],[-74.7107,5.45187],[-74.71063,5.45156],[-74.71046,5.45125],[-74.71028,5.4511],[-74.70955,5.45117],[-74.70898,5.45106],[-74.70866,5.4509],[-74.70829,5.4509],[-74.70795,5.45073],[-74.70749,5.45039],[-74.70688,5.45015],[-74.70652,5.44994],[-74.70614,5.44982],[-74.70533,5.44979],[-74.70502,5.4497],[-74.7046,5.44977],[-74.7043,5.45001],[-74.70409,5.45036],[-74.70357,5.45045],[-74.70326,5.45061],[-74.70292,5.45052],[-74.70265,5.45056],[-74.70218,5.45114],[-74.70202,5.45154],[-74.70183,5.45314],[-74.70155,5.45322],[-74.70087,5.45301],[-74.70026,5.45259],[-74.70009,5.45222],[-74.69975,5.45183],[-74.69964,5.45178],[-74.69943,5.4519],[-74.69881,5.45264],[-74.69764,5.45129],[-74.69739,5.45063],[-74.6973,5.45007],[-74.69717,5.44989],[-74.69694,5.44984],[-74.69675,5.45024],[-74.69668,5.45081],[-74.69716,5.45176],[-74.69727,5.45212],[-74.69722,5.45345],[-74.69726,5.45388],[-74.6972,5.45412],[-74.69708,5.4543],[-74.69674,5.45439],[-74.6966,5.45415],[-74.6967,5.45299],[-74.69658,5.45266],[-74.69631,5.4526],[-74.69576,5.45296],[-74.6956,5.45282],[-74.69502,5.45301],[-74.69485,5.45301],[-74.69479,5.45295],[-74.69481,5.45254],[-74.695,5.4522],[-74.69505,5.45196],[-74.69496,5.45184],[-74.69475,5.45194],[-74.69451,5.4524],[-74.69421,5.45267],[-74.69375,5.45267],[-74.6933,5.45286],[-74.69314,5.45311],[-74.69336,5.45381],[-74.69306,5.45375],[-74.69257,5.45395],[-74.69242,5.45441],[-74.6923,5.45448],[-74.69175,5.45395],[-74.69136,5.45422],[-74.69121,5.45505],[-74.69049,5.45546],[-74.6903,5.45564],[-74.69042,5.45591],[-74.69074,5.45613],[-74.69104,5.4556],[-74.6913,5.45535],[-74.69155,5.4556],[-74.69191,5.45565],[-74.69231,5.45547],[-74.69249,5.45575],[-74.69245,5.45663],[-74.69254,5.45707],[-74.69288,5.45728],[-74.69318,5.45725],[-74.69358,5.45748],[-74.69414,5.45822],[-74.69438,5.45873],[-74.69449,5.45879],[-74.69479,5.45831],[-74.69479,5.45803],[-74.69452,5.45773],[-74.69437,5.45717],[-74.69422,5.45694],[-74.69432,5.45634],[-74.69408,5.45602],[-74.6942,5.45511],[-74.69414,5.45482],[-74.69425,5.4546],[-74.69471,5.45442],[-74.69513,5.45456],[-74.69517,5.45496],[-74.69512,5.45537],[-74.69526,5.45589],[-74.69545,5.4561],[-74.69584,5.45582],[-74.6963,5.45578],[-74.69664,5.45583],[-74.6967,5.4559],[-74.6964,5.45668],[-74.69643,5.45695],[-74.69677,5.45704],[-74.69689,5.45722],[-74.6969,5.45755],[-74.69695,5.45764],[-74.69761,5.45791],[-74.69791,5.45799],[-74.69807,5.45825],[-74.69837,5.45852],[-74.69873,5.45865],[-74.69882,5.45852],[-74.69873,5.45797],[-74.69855,5.45755],[-74.69842,5.45674],[-74.69856,5.45656],[-74.69877,5.45668],[-74.69897,5.4571],[-74.69927,5.45732],[-74.69957,5.4571],[-74.69982,5.4568],[-74.70009,5.45692],[-74.70048,5.45679],[-74.70109,5.45697],[-74.70124,5.45693],[-74.7017,5.45659],[-74.70203,5.45671],[-74.70292,5.45655],[-74.70334,5.45661],[-74.70347,5.45613],[-74.70364,5.45593],[-74.70357,5.45542],[-74.70361,5.4551],[-74.7037,5.45496],[-74.70405,5.45478],[-74.70467,5.45476],[-74.7048,5.45498],[-74.70432,5.45578],[-74.70434,5.45615],[-74.70459,5.45652],[-74.7048,5.45661],[-74.7047,5.45721],[-74.70472,5.45758],[-74.70491,5.45786],[-74.70504,5.45834],[-74.70522,5.45872],[-74.70541,5.45895],[-74.70559,5.45893],[-74.70633,5.45822],[-74.70656,5.45814],[-74.70667,5.45787],[-74.70709,5.4576],[-74.70746,5.4576],[-74.7075,5.45741],[-74.70792,5.45704],[-74.70822,5.45702],[-74.70842,5.45621],[-74.70839,5.45553],[-74.70873,5.45541],[-74.70924,5.45544],[-74.70994,5.45592],[-74.71031,5.45625],[-74.71062,5.45632],[-74.71092,5.45621],[-74.71154,5.45642],[-74.71228,5.45609],[-74.71246,5.45646],[-74.71293,5.4563],[-74.71291,5.45669],[-74.71306,5.45716],[-74.71342,5.45714],[-74.7137,5.45666],[-74.71413,5.45631],[-74.71452,5.4562],[-74.71497,5.45634],[-74.71505,5.45675],[-74.71507,5.45734],[-74.71517,5.45794],[-74.71541,5.45836],[-74.71585,5.45868],[-74.71628,5.45877],[-74.71709,5.45855],[-74.71755,5.45868],[-74.71789,5.45901],[-74.71868,5.45864],[-74.71904,5.45882]]]},"properties":{"FID":6,"OBJECTID":7,"ID_CERRO":7,"CODMPO":"17380","CODCERRO":"7","NOMBRE":"Cerro San Pedro","AREA":3284768.05,"PERIMETER":18082.8061169,"Shape_Leng":18082.8061169,"Shape_Area":3284768.05}}]}