{"type":"FeatureCollection","name":"Drenaje Sencillo Risaralda","crs":{"type":"name","properties":{"name":"urn:ogc:def:crs:OGC:1.3:CRS84"}},"features":[{"type":"Feature","id":1,"geometry":{"type":"LineString","coordinates":[[-75.76648,5.16091],[-75.76632,5.16085],[-75.76616,5.16083]]},"properties":{"OBJECTID":31105,"ID_DS":88,"CODDEP":" ","CODCUENCA":"2615","CODDS":88,"TIPO":" ","NOMBRE":"Quebrada Sarciri","ORDEN":" ","N_ORDEN":5,"FP":15,"Shape_Leng":36.9566872647,"ORD_STRAHL":2,"FR_STRAHLE":15,"ZPHAMIN":10,"ZPSMIN":5,"OBJECTID_1":1,"Shape_Length":36.95413277498258}},{"type":"Feature","id":2,"geometry":{"type":"LineString","coordinates":[[-75.76755,5.16212],[-75.76726,5.16195],[-75.76713,5.16184],[-75.76697,5.16165],[-75.76662,5.16109],[-75.76648,5.16091]]},"properties":{"OBJECTID":31108,"ID_DS":88,"CODDEP":" ","CODCUENCA":"2615","CODDS":88,"TIPO":" ","NOMBRE":"Quebrada Sarciri","ORDEN":" ","N_ORDEN":6,"FP":15,"Shape_Leng":181.199604932,"ORD_STRAHL":1,"FR_STRAHLE":15,"ZPHAMIN":10,"ZPSMIN":5,"OBJECTID_1":2,"Shape_Length":181.18685401637617}},{"type":"Feature","id":3,"geometry":{"type":"LineString","coordinates":[[-75.77015,5.16293],[-75.77017,5.16296],[-75.77032,5.16304],[-75.77038,5.16309],[-75.7706,5.16336],[-75.77095,5.16364],[-75.77104,5.16378]]},"properties":{"OBJECTID":31109,"ID_DS":88,"CODDEP":" ","CODCUENCA":"2615","CODDS":88,"TIPO":" ","NOMBRE":"Quebrada Lazaro","ORDEN":" ","N_ORDEN":4,"FP":20,"Shape_Leng":138.647521378,"ORD_STRAHL":1,"FR_STRAHLE":15,"ZPHAMIN":10,"ZPSMIN":5,"OBJECTID_1":3,"Shape_Length":138.63777565524478}},{"type":"Feature","id":4,"geometry":{"type":"LineString","coordinates":[[-75.76549,5.1647],[-75.76507,5.16453],[-75.76493,5.16446],[-75.76488,5.16441],[-75.76478,5.16415],[-75.7647,5.16406]]},"properties":{"OBJECTID":31111,"ID_DS":88,"CODDEP":" ","CODCUENCA":"2615","CODDS":88,"TIPO":" ","NOMBRE":"Quebrada Sarciri","ORDEN":" ","N_ORDEN":6,"FP":15,"Shape_Leng":119.711559283,"ORD_STRAHL":1,"FR_STRAHLE":15,"ZPHAMIN":10,"ZPSMIN":5,"OBJECTID_1":4,"Shape_Length":119.70318611178902}},{"type":"Feature","id":5,"geometry":{"type":"LineString","coordinates":[[-75.76522,5.16605],[-75.76488,5.16595],[-75.76448,5.16587],[-75.76408,5.1657],[-75.76386,5.16566],[-75.76349,5.16549],[-75.76336,5.16537],[-75.76329,5.16527]]},"properties":{"OBJECTID":31113,"ID_DS":88,"CODDEP":" ","CODCUENCA":"2615","CODDS":88,"TIPO":" ","NOMBRE":"Quebrada Sarciri","ORDEN":" ","N_ORDEN":6,"FP":15,"Shape_Leng":235.137667967,"ORD_STRAHL":1,"FR_STRAHLE":15,"ZPHAMIN":10,"ZPSMIN":5,"OBJECTID_1":5,"Shape_Length":235.12102232083225}},{"type":"Feature","id":6,"geometry":{"type":"LineString","coordinates":[[-75.76761,5.16914],[-75.76761,5.16914],[-75.76761,5.16915],[-75.7676,5.16915],[-75.7676,5.16914],[-75.76758,5.16914],[-75.76756,5.16915],[-75.76755,5.16915],[-75.76755,5.16915],[-75.76754,5.16914],[-75.76754,5.16914],[-75.76752,5.16914],[-75.7675,5.16914],[-75.76749,5.16914],[-75.76747,5.16913],[-75.76745,5.16913],[-75.76744,5.16912],[-75.76742,5.16911],[-75.76742,5.1691],[-75.7674,5.1691],[-75.76739,5.1691],[-75.76739,5.1691],[-75.76738,5.1691],[-75.76737,5.1691],[-75.76734,5.1691],[-75.76733,5.1691],[-75.76733,5.1691],[-75.76732,5.16911],[-75.76732,5.16911],[-75.76732,5.16912],[-75.76731,5.16912],[-75.76731,5.16912],[-75.7673,5.16912],[-75.76729,5.16911],[-75.76729,5.16911],[-75.76728,5.16912],[-75.76728,5.16913],[-75.76728,5.16913],[-75.76727,5.16913],[-75.76726,5.16914],[-75.76726,5.16914],[-75.76725,5.16914],[-75.76723,5.16915],[-75.76721,5.16914],[-75.7672,5.16915],[-75.7672,5.16915],[-75.76719,5.16917],[-75.76716,5.1692],[-75.76715,5.16921],[-75.76714,5.16921],[-75.76713,5.16921],[-75.76713,5.16921],[-75.76712,5.1692],[-75.76712,5.16921],[-75.76711,5.1692],[-75.7671,5.1692],[-75.76708,5.1692],[-75.76707,5.1692],[-75.76707,5.1692],[-75.76706,5.16921],[-75.76706,5.16921],[-75.76706,5.16922],[-75.76705,5.16923],[-75.76704,5.16923],[-75.76703,5.16923],[-75.76701,5.16923],[-75.76702,5.16925],[-75.76702,5.16925],[-75.76701,5.16925],[-75.76699,5.16925],[-75.76698,5.16925],[-75.76697,5.16924],[-75.76697,5.16924],[-75.76696,5.16924],[-75.76696,5.16924],[-75.76695,5.16924],[-75.76693,5.16924],[-75.76691,5.16921],[-75.7669,5.16921],[-75.76687,5.1692],[-75.76686,5.1692],[-75.76686,5.1692],[-75.76685,5.1692],[-75.76684,5.16922],[-75.76684,5.16922],[-75.76683,5.16923],[-75.76683,5.16923],[-75.7668,5.16922],[-75.76678,5.16922],[-75.76677,5.16923],[-75.76675,5.16926],[-75.76674,5.16926],[-75.76672,5.16927],[-75.76671,5.16928],[-75.76669,5.16929]]},"properties":{"OBJECTID":0,"ID_DS":0,"CODDEP":" ","CODCUENCA":" ","CODDS":0,"TIPO":" ","NOMBRE":" ","ORDEN":" ","N_ORDEN":0,"FP":0,"Shape_Leng":0,"ORD_STRAHL":1,"FR_STRAHLE":15,"ZPHAMIN":10,"ZPSMIN":5,"OBJECTID_1":6,"Shape_Length":123.84931199307114}},{"type":"Feature","id":7,"geometry":{"type":"LineString","coordinates":[[-75.76803,5.16646],[-75.76802,5.16646]]},"properties":{"OBJECTID":0,"ID_DS":0,"CODDEP":" ","CODCUENCA":" ","CODDS":0,"TIPO":" ","NOMBRE":" ","ORDEN":" ","N_ORDEN":0,"FP":0,"Shape_Leng":0,"ORD_STRAHL":1,"FR_STRAHLE":15,"ZPHAMIN":10,"ZPSMIN":5,"OBJECTID_1":7,"Shape_Length":1.118035799964833}},{"type":"Feature","id":8,"geometry":{"type":"LineString","coordinates":[[-75.76803,5.16646],[-75.76802,5.16645]]},"properties":{"OBJECTID":0,"ID_DS":0,"CODDEP":" ","CODCUENCA":" ","CODDS":0,"TIPO":" ","NOMBRE":" ","ORDEN":" ","N_ORDEN":0,"FP":0,"Shape_Leng":0,"ORD_STRAHL":1,"FR_STRAHLE":15,"ZPHAMIN":10,"ZPSMIN":5,"OBJECTID_1":8,"Shape_Length":1.1180354202494533}},{"type":"Feature","id":9,"geometry":{"type":"LineString","coordinates":[[-75.76802,5.16646],[-75.76802,5.16645]]},"properties":{"OBJECTID":0,"ID_DS":0,"CODDEP":" ","CODCUENCA":" ","CODDS":0,"TIPO":" ","NOMBRE":" ","ORDEN":" ","N_ORDEN":0,"FP":0,"Shape_Leng":0,"ORD_STRAHL":1,"FR_STRAHLE":15,"ZPHAMIN":10,"ZPSMIN":5,"OBJECTID_1":9,"Shape_Length":0.7068956709290728}},{"type":"Feature","id":10,"geometry":{"type":"LineString","coordinates":[[-75.76863,5.16501],[-75.76862,5.165],[-75.76861,5.165],[-75.76861,5.16499],[-75.76861,5.16498],[-75.76861,5.16497],[-75.76861,5.16497],[-75.76859,5.16496],[-75.76859,5.16496],[-75.76859,5.16494],[-75.76858,5.16493],[-75.76856,5.16492],[-75.76854,5.16491],[-75.76854,5.16491],[-75.76854,5.1649],[-75.76854,5.16489],[-75.76853,5.16488],[-75.76851,5.16487],[-75.7685,5.16486],[-75.76849,5.16484],[-75.76849,5.16483],[-75.76848,5.16483],[-75.76847,5.16483],[-75.76846,5.16483],[-75.76845,5.16481],[-75.76845,5.16481],[-75.76843,5.1648],[-75.76841,5.16479],[-75.7684,5.16479],[-75.76839,5.16479],[-75.76839,5.16479],[-75.76838,5.16479],[-75.76837,5.16479],[-75.76835,5.16479],[-75.76834,5.16479],[-75.76832,5.16477],[-75.76831,5.16477],[-75.76831,5.16476],[-75.76831,5.16475],[-75.7683,5.16475],[-75.76828,5.16474],[-75.76827,5.16473],[-75.76825,5.16471],[-75.76825,5.1647],[-75.76825,5.16469],[-75.76825,5.16467],[-75.76825,5.16466],[-75.76824,5.16465],[-75.76822,5.16464],[-75.76822,5.16463],[-75.76822,5.16462],[-75.76821,5.1646],[-75.7682,5.16459]]},"properties":{"OBJECTID":0,"ID_DS":0,"CODDEP":" ","CODCUENCA":" ","CODDS":0,"TIPO":" ","NOMBRE":" ","ORDEN":" ","N_ORDEN":0,"FP":0,"Shape_Leng":0,"ORD_STRAHL":1,"FR_STRAHLE":15,"ZPHAMIN":10,"ZPSMIN":5,"OBJECTID_1":10,"Shape_Length":75.19254285052912}},{"type":"Feature","id":11,"geometry":{"type":"LineString","coordinates":[[-75.76868,5.16501],[-75.76867,5.165],[-75.76867,5.16498],[-75.76866,5.16497],[-75.76866,5.16496],[-75.76867,5.16495],[-75.76868,5.16494],[-75.76868,5.16493],[-75.76868,5.16492],[-75.76868,5.16491],[-75.76868,5.16491],[-75.76867,5.1649],[-75.76866,5.16489],[-75.76867,5.16488],[-75.76868,5.16487],[-75.76868,5.16485],[-75.76869,5.16484],[-75.76868,5.16483],[-75.76868,5.16483],[-75.76868,5.16483],[-75.76868,5.16482],[-75.76867,5.16481],[-75.76866,5.1648],[-75.76867,5.16478],[-75.76867,5.16478],[-75.76867,5.16477],[-75.76867,5.16477],[-75.76866,5.16476],[-75.76865,5.16476],[-75.76864,5.16476],[-75.76864,5.16475],[-75.76864,5.16475],[-75.76863,5.16474],[-75.76863,5.16474],[-75.76864,5.16474],[-75.76864,5.16473],[-75.76864,5.16472],[-75.76864,5.16471],[-75.76863,5.16471],[-75.76862,5.1647],[-75.76861,5.1647],[-75.7686,5.1647],[-75.76859,5.16469],[-75.76858,5.16468],[-75.76857,5.16468],[-75.76857,5.16467],[-75.76858,5.16463],[-75.76858,5.16462],[-75.76858,5.16462],[-75.76856,5.1646],[-75.76856,5.1646],[-75.76856,5.16458],[-75.76856,5.16458],[-75.76855,5.16458],[-75.76855,5.16457],[-75.76854,5.16456],[-75.76854,5.16455],[-75.76854,5.16453],[-75.76853,5.16453],[-75.76853,5.16453],[-75.76852,5.16453],[-75.76851,5.16454],[-75.76849,5.16454],[-75.76849,5.16455],[-75.76847,5.16455],[-75.76846,5.16455],[-75.76845,5.16454],[-75.76844,5.16453],[-75.76844,5.16452],[-75.76844,5.16451],[-75.76844,5.16451],[-75.76843,5.1645],[-75.76842,5.16449],[-75.76843,5.16448],[-75.76843,5.16448]]},"properties":{"OBJECTID":0,"ID_DS":0,"CODDEP":" ","CODCUENCA":" ","CODDS":0,"TIPO":" ","NOMBRE":" ","ORDEN":" ","N_ORDEN":0,"FP":0,"Shape_Leng":0,"ORD_STRAHL":1,"FR_STRAHLE":15,"ZPHAMIN":10,"ZPSMIN":5,"OBJECTID_1":11,"Shape_Length":84.29544099110763}},{"type":"Feature","id":12,"geometry":{"type":"LineString","coordinates":[[-75.77011,5.1638],[-75.7701,5.16379],[-75.77011,5.16378],[-75.77011,5.16378],[-75.77012,5.16377],[-75.77012,5.16376],[-75.77011,5.16376],[-75.77012,5.16375],[-75.77012,5.16374],[-75.77013,5.16374],[-75.77014,5.16373],[-75.77015,5.16371],[-75.77015,5.1637],[-75.77015,5.16369],[-75.77014,5.16369],[-75.77014,5.16368],[-75.77015,5.16368],[-75.77014,5.16367],[-75.77015,5.16365],[-75.77014,5.16363],[-75.77014,5.16362],[-75.77013,5.16361],[-75.77013,5.16361],[-75.77014,5.16361],[-75.77013,5.1636],[-75.77012,5.16359],[-75.77011,5.16359],[-75.7701,5.16358],[-75.7701,5.16357],[-75.77009,5.16354],[-75.77009,5.16353],[-75.77009,5.16352],[-75.7701,5.16351],[-75.77011,5.16351],[-75.7701,5.1635],[-75.7701,5.16349]]},"properties":{"OBJECTID":0,"ID_DS":0,"CODDEP":" ","CODCUENCA":" ","CODDS":0,"TIPO":" ","NOMBRE":" ","ORDEN":" ","N_ORDEN":0,"FP":0,"Shape_Leng":0,"ORD_STRAHL":1,"FR_STRAHLE":15,"ZPHAMIN":10,"ZPSMIN":5,"OBJECTID_1":12,"Shape_Length":41.77835779450412}},{"type":"Feature","id":13,"geometry":{"type":"LineString","coordinates":[[-75.76643,5.16988],[-75.76641,5.16989],[-75.76638,5.16989],[-75.76636,5.16988],[-75.76634,5.16988],[-75.76633,5.16986],[-75.76632,5.16985],[-75.76631,5.16986],[-75.7663,5.16986],[-75.7663,5.16985],[-75.76628,5.16983],[-75.76627,5.16982],[-75.76626,5.16982],[-75.76624,5.16982],[-75.76623,5.16982],[-75.76622,5.16982],[-75.76622,5.16983],[-75.76621,5.16983],[-75.7662,5.16982],[-75.76619,5.16983],[-75.76619,5.16983],[-75.76617,5.16983],[-75.76617,5.16983],[-75.76616,5.16983],[-75.76616,5.16982],[-75.76614,5.16983],[-75.76614,5.16983],[-75.76612,5.16981],[-75.76611,5.16981],[-75.7661,5.16981],[-75.7661,5.16981],[-75.76609,5.1698],[-75.76608,5.1698],[-75.76607,5.16981],[-75.76606,5.16981],[-75.76606,5.16981],[-75.76606,5.16981],[-75.76605,5.16981],[-75.76604,5.16981],[-75.76604,5.16981],[-75.76603,5.16983],[-75.76602,5.16983],[-75.76601,5.16983],[-75.76601,5.16983],[-75.766,5.16983],[-75.76598,5.16984],[-75.76597,5.16985],[-75.76597,5.16985],[-75.76596,5.16984],[-75.76594,5.16984],[-75.76593,5.16983],[-75.76592,5.16983],[-75.76591,5.16984],[-75.7659,5.16985],[-75.76588,5.16985],[-75.76587,5.16986],[-75.76585,5.16985],[-75.76584,5.16985],[-75.76584,5.16984],[-75.76583,5.16985],[-75.76582,5.16985],[-75.76582,5.16984],[-75.76581,5.16984],[-75.7658,5.16984],[-75.76579,5.16984],[-75.76578,5.16984],[-75.76578,5.16984],[-75.76577,5.16986],[-75.76576,5.16986],[-75.76575,5.16986],[-75.76575,5.16986],[-75.76574,5.16984],[-75.76573,5.16984],[-75.76571,5.16984],[-75.76569,5.16984],[-75.76568,5.16985],[-75.76567,5.16984],[-75.76566,5.16983],[-75.76565,5.16983],[-75.76565,5.16983],[-75.76564,5.16984],[-75.76564,5.16985],[-75.76563,5.16985],[-75.76562,5.16984],[-75.76561,5.16984],[-75.76561,5.16983],[-75.7656,5.16981],[-75.76559,5.16981],[-75.76558,5.16981],[-75.76557,5.16981],[-75.76557,5.16981],[-75.76556,5.16981],[-75.76555,5.16981],[-75.76553,5.16981],[-75.76552,5.1698],[-75.76551,5.16979],[-75.7655,5.16979],[-75.7655,5.16979],[-75.76548,5.1698],[-75.76548,5.1698],[-75.76547,5.16979],[-75.76547,5.16979],[-75.76547,5.16979],[-75.76544,5.16979],[-75.76543,5.16979],[-75.76543,5.16979],[-75.76542,5.16979],[-75.76541,5.1698],[-75.7654,5.1698],[-75.76539,5.1698],[-75.76538,5.16978],[-75.76537,5.16978],[-75.76536,5.16978],[-75.76531,5.16979],[-75.7653,5.16979],[-75.76529,5.16979],[-75.76528,5.16978],[-75.76528,5.16977],[-75.76527,5.16977],[-75.76526,5.16978],[-75.76525,5.16977],[-75.76524,5.16977],[-75.76522,5.16976],[-75.76521,5.16976],[-75.76519,5.16976],[-75.76518,5.16977],[-75.76517,5.16977],[-75.76516,5.16977],[-75.76515,5.16978],[-75.76515,5.16978],[-75.76514,5.16978],[-75.76512,5.16977],[-75.76512,5.16977],[-75.76511,5.16978],[-75.76511,5.16978],[-75.7651,5.16977],[-75.7651,5.16977],[-75.7651,5.16978],[-75.76509,5.16979],[-75.76508,5.16979],[-75.76506,5.16979],[-75.76505,5.1698],[-75.76505,5.16981],[-75.76504,5.1698],[-75.76502,5.1698],[-75.76502,5.1698],[-75.76501,5.1698],[-75.765,5.1698],[-75.765,5.1698],[-75.76499,5.16979],[-75.76498,5.16979],[-75.76496,5.16979],[-75.76493,5.16979],[-75.76491,5.1698],[-75.7649,5.1698]]},"properties":{"OBJECTID":0,"ID_DS":0,"CODDEP":" ","CODCUENCA":" ","CODDS":0,"TIPO":" ","NOMBRE":" ","ORDEN":" ","N_ORDEN":0,"FP":0,"Shape_Leng":0,"ORD_STRAHL":1,"FR_STRAHLE":15,"ZPHAMIN":10,"ZPSMIN":5,"OBJECTID_1":13,"Shape_Length":195.24551355734437}},{"type":"Feature","id":14,"geometry":{"type":"MultiLineString","coordinates":[[[-75.76873,5.16652],[-75.76871,5.16652],[-75.76868,5.16652],[-75.76868,5.16652],[-75.76865,5.16652],[-75.76864,5.16652],[-75.76863,5.1665],[-75.76862,5.1665],[-75.76861,5.1665],[-75.7686,5.1665],[-75.76859,5.1665],[-75.76858,5.1665],[-75.76857,5.1665],[-75.76855,5.16653],[-75.76855,5.16653],[-75.76854,5.16653],[-75.76853,5.16653],[-75.76853,5.16653],[-75.76853,5.16653],[-75.76852,5.16653],[-75.76851,5.16653],[-75.76851,5.16653],[-75.7685,5.16652],[-75.76849,5.16651],[-75.76848,5.16651],[-75.76843,5.16652],[-75.76842,5.16653],[-75.76841,5.16653],[-75.7684,5.16652],[-75.76839,5.16651],[-75.76839,5.16651],[-75.76838,5.16651],[-75.76837,5.16651],[-75.76835,5.16651],[-75.76834,5.16651],[-75.76833,5.16652],[-75.76832,5.16652],[-75.7683,5.16653],[-75.7683,5.16653],[-75.7683,5.16653],[-75.7683,5.16653],[-75.76829,5.16654],[-75.76829,5.16655],[-75.76828,5.16656],[-75.76827,5.16656],[-75.76826,5.16655],[-75.76825,5.16655],[-75.76825,5.16656],[-75.76824,5.16656],[-75.76823,5.16657],[-75.76822,5.16657],[-75.76822,5.16656],[-75.76821,5.16655],[-75.7682,5.16655],[-75.7682,5.16654],[-75.76818,5.16655],[-75.76818,5.16655],[-75.76817,5.16654],[-75.76816,5.16654],[-75.76815,5.16654],[-75.76814,5.16654],[-75.76814,5.16653],[-75.76813,5.16651],[-75.76813,5.16651],[-75.76813,5.16651],[-75.76812,5.16652],[-75.76812,5.16652],[-75.76811,5.16651],[-75.76811,5.16651],[-75.7681,5.16651],[-75.76809,5.16651],[-75.76809,5.16651],[-75.76808,5.1665],[-75.76807,5.16651],[-75.76807,5.1665],[-75.76806,5.16649],[-75.76804,5.16648],[-75.76803,5.16647],[-75.76803,5.16646]],[[-75.76684,5.16634],[-75.76698,5.16641],[-75.76716,5.16647],[-75.7674,5.16646],[-75.76747,5.16649],[-75.76748,5.16646],[-75.76749,5.16645],[-75.7675,5.16644],[-75.76751,5.16644],[-75.76752,5.16644],[-75.76753,5.16646],[-75.76753,5.16646],[-75.76756,5.16646],[-75.76756,5.16647],[-75.76757,5.16647],[-75.76757,5.16648],[-75.76758,5.16649],[-75.76758,5.16649],[-75.76759,5.16648],[-75.7676,5.16648],[-75.76761,5.16648],[-75.76762,5.16647],[-75.76763,5.16646],[-75.76763,5.16647],[-75.76764,5.16647],[-75.76765,5.16649],[-75.76766,5.16649],[-75.76768,5.16649],[-75.7677,5.16649],[-75.76772,5.16647],[-75.76772,5.16647],[-75.76773,5.16647],[-75.76775,5.16647],[-75.76776,5.16647],[-75.76777,5.16648],[-75.76778,5.1665],[-75.76779,5.1665],[-75.76781,5.1665],[-75.76781,5.1665],[-75.76781,5.1665],[-75.76782,5.16651],[-75.76783,5.16651],[-75.76784,5.16651],[-75.76785,5.1665],[-75.76786,5.1665],[-75.76787,5.16648],[-75.76788,5.16648],[-75.76789,5.16648],[-75.7679,5.16647],[-75.76791,5.16646],[-75.76792,5.16645],[-75.76793,5.16645],[-75.76794,5.16645],[-75.76796,5.16645],[-75.76797,5.16645],[-75.76798,5.16645],[-75.76799,5.16645],[-75.768,5.16646],[-75.76802,5.16646]]]},"properties":{"OBJECTID":31114,"ID_DS":88,"CODDEP":" ","CODCUENCA":"2615","CODDS":88,"TIPO":" ","NOMBRE":"Quebrada Lazaro","ORDEN":" ","N_ORDEN":4,"FP":20,"Shape_Leng":287.545584371,"ORD_STRAHL":1,"FR_STRAHLE":15,"ZPHAMIN":10,"ZPSMIN":5,"OBJECTID_1":14,"Shape_Length":240.0494164883776}},{"type":"Feature","id":15,"geometry":{"type":"LineString","coordinates":[[-75.76873,5.16652],[-75.76873,5.16654],[-75.76872,5.16655],[-75.76872,5.16656],[-75.76871,5.16656],[-75.7687,5.16656],[-75.76869,5.16657],[-75.76868,5.16657],[-75.76868,5.16658],[-75.76868,5.16658],[-75.76868,5.16658],[-75.76869,5.16659],[-75.76868,5.1666],[-75.76868,5.16661],[-75.76868,5.16662],[-75.76866,5.16664],[-75.76865,5.16664],[-75.76864,5.16665],[-75.76865,5.16665],[-75.76865,5.16666],[-75.76865,5.16666],[-75.76864,5.16667],[-75.76861,5.16669],[-75.76861,5.1667],[-75.7686,5.16671],[-75.76859,5.16671],[-75.76857,5.16673],[-75.76856,5.16674],[-75.76855,5.16674],[-75.76855,5.16674],[-75.76855,5.16674],[-75.76854,5.16674],[-75.76852,5.16677],[-75.76851,5.16677],[-75.76851,5.16677],[-75.7685,5.16676],[-75.76849,5.16677],[-75.76848,5.16677],[-75.76847,5.16677],[-75.76846,5.16676],[-75.76844,5.16677],[-75.76843,5.16677],[-75.76841,5.16677],[-75.7684,5.16677],[-75.76838,5.16679],[-75.76837,5.16679],[-75.76836,5.16679],[-75.76835,5.16679],[-75.76834,5.16681],[-75.76834,5.16681],[-75.76833,5.16681],[-75.76831,5.16681],[-75.7683,5.16681],[-75.76829,5.16682],[-75.76828,5.16682],[-75.76827,5.16684],[-75.76827,5.16683],[-75.76826,5.16683],[-75.76826,5.16683],[-75.76825,5.16683],[-75.76824,5.16683],[-75.76824,5.16683],[-75.76823,5.16685],[-75.76823,5.16686],[-75.76821,5.16687],[-75.7682,5.16687],[-75.76817,5.16687],[-75.76816,5.16687],[-75.76815,5.16688],[-75.76814,5.16688],[-75.76813,5.16688],[-75.76813,5.16689],[-75.76812,5.16689],[-75.76811,5.16688],[-75.7681,5.16688],[-75.7681,5.16687],[-75.7681,5.16687],[-75.76809,5.16687],[-75.76808,5.16688],[-75.76807,5.1669],[-75.76806,5.1669],[-75.76805,5.1669],[-75.76804,5.16689],[-75.76803,5.16689],[-75.76803,5.1669],[-75.76803,5.1669]]},"properties":{"OBJECTID":0,"ID_DS":0,"CODDEP":" ","CODCUENCA":" ","CODDS":0,"TIPO":" ","NOMBRE":" ","ORDEN":" ","N_ORDEN":0,"FP":0,"Shape_Leng":0,"ORD_STRAHL":1,"FR_STRAHLE":15,"ZPHAMIN":10,"ZPSMIN":5,"OBJECTID_1":15,"Shape_Length":106.10220225082968}},{"type":"Feature","id":16,"geometry":{"type":"LineString","coordinates":[[-75.76709,5.16521],[-75.76725,5.16517],[-75.76743,5.16509],[-75.76763,5.16504],[-75.76765,5.16504],[-75.76765,5.16505],[-75.76765,5.16505],[-75.76765,5.16505],[-75.76766,5.16505],[-75.76768,5.16505],[-75.76768,5.16505],[-75.76769,5.16505],[-75.7677,5.16504],[-75.7677,5.16503],[-75.7677,5.16503],[-75.76771,5.16503],[-75.76772,5.16503],[-75.76772,5.16503],[-75.76773,5.16502],[-75.76774,5.16502],[-75.76775,5.16502],[-75.76776,5.16502],[-75.76777,5.16501],[-75.76778,5.16501],[-75.76779,5.16501],[-75.76779,5.165],[-75.7678,5.165],[-75.7678,5.165],[-75.7678,5.165],[-75.76781,5.165],[-75.76782,5.16499],[-75.76782,5.16498],[-75.76784,5.16499],[-75.76784,5.16499],[-75.76785,5.16498],[-75.76785,5.16498],[-75.76786,5.16498],[-75.76787,5.16498],[-75.76788,5.16498],[-75.76789,5.16499],[-75.7679,5.165],[-75.76791,5.16501],[-75.76792,5.16501],[-75.76793,5.16501],[-75.76797,5.165],[-75.76797,5.165],[-75.76798,5.16501],[-75.76799,5.16501],[-75.768,5.16501],[-75.76801,5.16502],[-75.76801,5.16502],[-75.76802,5.16502],[-75.76804,5.16502],[-75.76804,5.16502],[-75.76804,5.16501],[-75.76805,5.16501],[-75.76806,5.16501],[-75.76806,5.16501],[-75.76807,5.165],[-75.76807,5.16499],[-75.76808,5.16499],[-75.76808,5.16499],[-75.76809,5.16498],[-75.7681,5.16498],[-75.76811,5.16497],[-75.76812,5.16497],[-75.76813,5.16498],[-75.76814,5.16499],[-75.76815,5.16499],[-75.76818,5.16499],[-75.76821,5.165],[-75.76822,5.165],[-75.76823,5.16501],[-75.76824,5.16503],[-75.76825,5.16503],[-75.76826,5.16503],[-75.76826,5.16503],[-75.76827,5.16504],[-75.76827,5.16505],[-75.76829,5.16505],[-75.7683,5.16505],[-75.76831,5.16506],[-75.76834,5.1651],[-75.76834,5.1651],[-75.76835,5.16511],[-75.76838,5.16511],[-75.7684,5.16512],[-75.76842,5.16511],[-75.76844,5.16511],[-75.76845,5.16509],[-75.76846,5.16509],[-75.76846,5.16509],[-75.76847,5.16509],[-75.76848,5.16509],[-75.76848,5.16508],[-75.76849,5.16507],[-75.76851,5.16506],[-75.76852,5.16505],[-75.76853,5.16506],[-75.76853,5.16506],[-75.76853,5.16506],[-75.76854,5.16505],[-75.76855,5.16505],[-75.76856,5.16505],[-75.76856,5.16505],[-75.76857,5.16505],[-75.76857,5.16506],[-75.76857,5.16506],[-75.76858,5.16505],[-75.76859,5.16503],[-75.76859,5.16502],[-75.76861,5.16502],[-75.76862,5.16502],[-75.76863,5.16501]]},"properties":{"OBJECTID":31112,"ID_DS":88,"CODDEP":" ","CODCUENCA":"2615","CODDS":88,"TIPO":" ","NOMBRE":"Quebrada Lazaro","ORDEN":" ","N_ORDEN":4,"FP":20,"Shape_Leng":333.096385618,"ORD_STRAHL":1,"FR_STRAHLE":15,"ZPHAMIN":10,"ZPSMIN":5,"OBJECTID_1":16,"Shape_Length":197.92619149889057}},{"type":"Feature","id":17,"geometry":{"type":"LineString","coordinates":[[-75.77018,5.16409],[-75.77017,5.16408],[-75.77015,5.16408],[-75.77012,5.16408],[-75.77009,5.16408],[-75.77003,5.16409],[-75.77001,5.16409],[-75.76998,5.16409],[-75.76996,5.16409],[-75.76994,5.16408],[-75.76993,5.16407],[-75.76991,5.16406],[-75.76991,5.16405],[-75.7699,5.16405],[-75.76989,5.16406],[-75.76988,5.16405],[-75.76987,5.16404],[-75.76986,5.16404],[-75.76986,5.16404],[-75.76985,5.16403],[-75.76985,5.16403],[-75.76984,5.16403],[-75.76983,5.16403],[-75.76982,5.16403],[-75.76981,5.16402],[-75.7698,5.16402],[-75.76979,5.16402],[-75.76979,5.16402],[-75.76978,5.16403],[-75.76977,5.16403],[-75.76976,5.16402],[-75.76975,5.16402],[-75.76975,5.16401],[-75.76974,5.164],[-75.76975,5.16399],[-75.76975,5.16398],[-75.76974,5.16397],[-75.76973,5.16397],[-75.76971,5.16397],[-75.7697,5.16397],[-75.76969,5.16396],[-75.76968,5.16395],[-75.76967,5.16394],[-75.76967,5.16393],[-75.76967,5.16392],[-75.76967,5.16392],[-75.76966,5.16392],[-75.76966,5.16391],[-75.76965,5.16392],[-75.76964,5.16393],[-75.76964,5.16395],[-75.76964,5.16396],[-75.76963,5.16396],[-75.76963,5.16398],[-75.76963,5.16399],[-75.76963,5.164],[-75.76962,5.16401],[-75.76961,5.16402],[-75.76961,5.16402],[-75.7696,5.16402],[-75.76957,5.16402],[-75.76955,5.16402],[-75.76954,5.16404],[-75.76953,5.16404],[-75.76952,5.16404],[-75.76951,5.16405],[-75.76951,5.16405],[-75.7695,5.16405],[-75.7695,5.16405],[-75.76949,5.16405],[-75.76949,5.16405],[-75.76947,5.16405]]},"properties":{"OBJECTID":0,"ID_DS":0,"CODDEP":" ","CODCUENCA":" ","CODDS":0,"TIPO":" ","NOMBRE":" ","ORDEN":" ","N_ORDEN":0,"FP":0,"Shape_Leng":0,"ORD_STRAHL":1,"FR_STRAHLE":15,"ZPHAMIN":10,"ZPSMIN":5,"OBJECTID_1":17,"Shape_Length":100.1564369528033}},{"type":"Feature","id":18,"geometry":{"type":"LineString","coordinates":[[-75.7693,5.16342],[-75.76938,5.16347],[-75.76938,5.16347],[-75.76939,5.16349],[-75.76939,5.1635],[-75.76941,5.1635],[-75.76941,5.1635],[-75.76942,5.16351],[-75.76943,5.16353],[-75.76944,5.16354],[-75.76945,5.16354],[-75.76946,5.16355],[-75.76947,5.16355],[-75.76949,5.16357],[-75.76951,5.16358],[-75.76952,5.16358],[-75.76953,5.16358],[-75.76954,5.16359],[-75.76955,5.16359],[-75.76956,5.1636],[-75.76956,5.1636],[-75.76957,5.16359],[-75.76958,5.16359],[-75.76958,5.16359],[-75.76959,5.1636],[-75.7696,5.1636],[-75.76961,5.1636],[-75.76961,5.1636],[-75.76961,5.16361],[-75.76962,5.16361],[-75.76963,5.16361],[-75.76963,5.16362],[-75.76964,5.16363],[-75.76965,5.16363],[-75.76966,5.16363],[-75.76967,5.16363],[-75.76967,5.16363],[-75.76968,5.16362],[-75.7697,5.16363],[-75.76971,5.16363],[-75.76971,5.16363],[-75.76971,5.16363],[-75.76972,5.16363],[-75.76972,5.16363],[-75.76974,5.16363],[-75.76975,5.16364],[-75.76975,5.16364],[-75.76977,5.16363],[-75.76977,5.16363],[-75.76978,5.16364],[-75.7698,5.16364],[-75.76981,5.16365],[-75.76983,5.16365],[-75.76983,5.16366],[-75.76984,5.16366],[-75.76985,5.16366],[-75.76988,5.16367],[-75.76989,5.16368],[-75.76991,5.16368],[-75.76992,5.16368],[-75.76993,5.1637],[-75.76994,5.1637],[-75.76994,5.1637],[-75.76994,5.16369],[-75.76995,5.16369],[-75.76995,5.1637],[-75.76996,5.16371],[-75.76997,5.16371],[-75.76997,5.16371],[-75.76998,5.1637],[-75.76998,5.1637],[-75.76999,5.16371],[-75.76999,5.16371],[-75.77001,5.16371],[-75.77001,5.16371],[-75.77002,5.16371],[-75.77003,5.16374],[-75.77004,5.16375],[-75.77006,5.16375],[-75.77006,5.16376],[-75.77007,5.16377],[-75.77008,5.16378],[-75.77009,5.16379],[-75.77009,5.1638],[-75.77009,5.16381],[-75.77009,5.16381],[-75.7701,5.16381],[-75.77011,5.1638]]},"properties":{"OBJECTID":31110,"ID_DS":88,"CODDEP":" ","CODCUENCA":"2615","CODDS":88,"TIPO":" ","NOMBRE":"Quebrada Lazaro","ORDEN":" ","N_ORDEN":4,"FP":20,"Shape_Leng":215.890408847,"ORD_STRAHL":1,"FR_STRAHLE":15,"ZPHAMIN":10,"ZPSMIN":5,"OBJECTID_1":18,"Shape_Length":114.73758146765773}},{"type":"Feature","id":19,"geometry":{"type":"LineString","coordinates":[[-75.76741,5.16084],[-75.76742,5.16082],[-75.76742,5.16081],[-75.76743,5.1608],[-75.76744,5.16079],[-75.76745,5.16078],[-75.76745,5.16077],[-75.76746,5.16076],[-75.76746,5.16075],[-75.76745,5.16074],[-75.76745,5.16074],[-75.76746,5.16073],[-75.76746,5.16072],[-75.76746,5.16071],[-75.76747,5.16071],[-75.76746,5.1607],[-75.76746,5.16069],[-75.76746,5.16068],[-75.76747,5.16067],[-75.76749,5.16065],[-75.7675,5.16063],[-75.7675,5.16062],[-75.76751,5.16061],[-75.76752,5.16061],[-75.76753,5.1606],[-75.76754,5.16059],[-75.76754,5.16057],[-75.76754,5.16056],[-75.76756,5.16055],[-75.76757,5.16054],[-75.76757,5.16052],[-75.76758,5.16051],[-75.7676,5.16051],[-75.7676,5.16051],[-75.76761,5.1605],[-75.76763,5.16048],[-75.76763,5.16047],[-75.76764,5.16047],[-75.76765,5.16048],[-75.76766,5.16047],[-75.76766,5.16047],[-75.76767,5.16045],[-75.76768,5.16045],[-75.76769,5.16044],[-75.76769,5.16043],[-75.76769,5.16041],[-75.76769,5.16041],[-75.76769,5.1604],[-75.7677,5.1604],[-75.76771,5.1604],[-75.76772,5.16039],[-75.76773,5.16038],[-75.76773,5.16038],[-75.76774,5.16038],[-75.76774,5.16037],[-75.76775,5.16037],[-75.76776,5.16037],[-75.76777,5.16037],[-75.76778,5.16036],[-75.76779,5.16035],[-75.76779,5.16035],[-75.76778,5.16034],[-75.76778,5.16033],[-75.76778,5.16033],[-75.7678,5.16032],[-75.76781,5.16032],[-75.76782,5.1603],[-75.76783,5.16029],[-75.76783,5.16028],[-75.76783,5.16027],[-75.76784,5.16027],[-75.76785,5.16026]]},"properties":{"OBJECTID":0,"ID_DS":0,"CODDEP":" ","CODCUENCA":" ","CODDS":0,"TIPO":" ","NOMBRE":" ","ORDEN":" ","N_ORDEN":0,"FP":0,"Shape_Leng":0,"ORD_STRAHL":1,"FR_STRAHLE":15,"ZPHAMIN":10,"ZPSMIN":5,"OBJECTID_1":19,"Shape_Length":93.10978179648826}},{"type":"Feature","id":20,"geometry":{"type":"LineString","coordinates":[[-75.76832,5.16143],[-75.76805,5.16123],[-75.76775,5.16112],[-75.76774,5.16112],[-75.76773,5.16112],[-75.76772,5.16111],[-75.76772,5.1611],[-75.76772,5.16109],[-75.76772,5.16108],[-75.76771,5.16106],[-75.76769,5.16105],[-75.76768,5.16105],[-75.76766,5.16105],[-75.76765,5.16104],[-75.76764,5.16103],[-75.76762,5.16102],[-75.76761,5.16101],[-75.76758,5.161],[-75.76756,5.16098],[-75.76754,5.16096],[-75.76753,5.16094],[-75.76753,5.16093],[-75.76753,5.16091],[-75.76753,5.1609],[-75.76752,5.1609],[-75.76753,5.16089],[-75.76753,5.16088],[-75.76753,5.16087],[-75.76752,5.16087],[-75.76752,5.16086],[-75.76751,5.16086],[-75.76749,5.16086],[-75.76746,5.16086],[-75.76744,5.16085],[-75.76743,5.16084]]},"properties":{"OBJECTID":31107,"ID_DS":88,"CODDEP":" ","CODCUENCA":"2615","CODDS":88,"TIPO":" ","NOMBRE":"Quebrada Sarciri","ORDEN":" ","N_ORDEN":5,"FP":15,"Shape_Leng":228.777709056,"ORD_STRAHL":1,"FR_STRAHLE":15,"ZPHAMIN":10,"ZPSMIN":5,"OBJECTID_1":20,"Shape_Length":126.49568141843719}},{"type":"Feature","id":21,"geometry":{"type":"LineString","coordinates":[[-75.76824,5.1607],[-75.76824,5.16069],[-75.76823,5.16069],[-75.76821,5.16068],[-75.76821,5.16067],[-75.7682,5.16066],[-75.76819,5.16067],[-75.76818,5.16066],[-75.76818,5.16066],[-75.76817,5.16066],[-75.76817,5.16067],[-75.76816,5.16066],[-75.76815,5.16066],[-75.76814,5.16066],[-75.76813,5.16066],[-75.76813,5.16067],[-75.76812,5.16068],[-75.76813,5.16069],[-75.76811,5.16072],[-75.76809,5.16073],[-75.76808,5.16073],[-75.76807,5.16074],[-75.76805,5.16074],[-75.76803,5.16074],[-75.76801,5.16074],[-75.76792,5.16072],[-75.76788,5.16071],[-75.76786,5.16071],[-75.76785,5.16071],[-75.76783,5.16072],[-75.76782,5.16072],[-75.7678,5.16074],[-75.7678,5.16074],[-75.76779,5.16074],[-75.76778,5.16073],[-75.76774,5.16072],[-75.76772,5.16071],[-75.76771,5.16071],[-75.76769,5.16071],[-75.76768,5.16072],[-75.76768,5.16072],[-75.76768,5.16073],[-75.76768,5.16073],[-75.76768,5.16074],[-75.76767,5.16074],[-75.76765,5.16073],[-75.76765,5.16073],[-75.76764,5.16073],[-75.76763,5.16075],[-75.76762,5.16075],[-75.76762,5.16075],[-75.76761,5.16075],[-75.76761,5.16075],[-75.76758,5.16076],[-75.76756,5.16076],[-75.76755,5.16076],[-75.76754,5.16077],[-75.76754,5.16078],[-75.76752,5.16078],[-75.76752,5.16078],[-75.76751,5.16079],[-75.7675,5.16079],[-75.76749,5.16078],[-75.76749,5.16078],[-75.76748,5.16079],[-75.76746,5.16083],[-75.76745,5.16084],[-75.76744,5.16084],[-75.76743,5.16084]]},"properties":{"OBJECTID":0,"ID_DS":0,"CODDEP":" ","CODCUENCA":" ","CODDS":0,"TIPO":" ","NOMBRE":" ","ORDEN":" ","N_ORDEN":0,"FP":0,"Shape_Leng":0,"ORD_STRAHL":1,"FR_STRAHLE":15,"ZPHAMIN":10,"ZPSMIN":5,"OBJECTID_1":21,"Shape_Length":107.78057469425094}},{"type":"Feature","id":22,"geometry":{"type":"LineString","coordinates":[[-75.76877,5.16652],[-75.76876,5.16653],[-75.76876,5.16653],[-75.76875,5.16652],[-75.76875,5.16652],[-75.76874,5.16652],[-75.76874,5.16653],[-75.76873,5.16652]]},"properties":{"OBJECTID":0,"ID_DS":0,"CODDEP":" ","CODCUENCA":" ","CODDS":0,"TIPO":" ","NOMBRE":" ","ORDEN":" ","N_ORDEN":0,"FP":0,"Shape_Leng":0,"ORD_STRAHL":2,"FR_STRAHLE":15,"ZPHAMIN":10,"ZPSMIN":5,"OBJECTID_1":22,"Shape_Length":5.9755047117673925}},{"type":"Feature","id":23,"geometry":{"type":"LineString","coordinates":[[-75.76935,5.16535],[-75.76934,5.16534],[-75.76933,5.16534],[-75.7693,5.16535],[-75.7693,5.16535],[-75.76929,5.16534],[-75.76929,5.16533],[-75.76929,5.16533],[-75.76929,5.16532],[-75.76927,5.16531],[-75.76926,5.1653],[-75.76924,5.1653],[-75.76923,5.1653],[-75.76917,5.16531],[-75.76916,5.16531],[-75.76915,5.1653],[-75.76913,5.16529],[-75.76912,5.16529],[-75.76911,5.16529],[-75.76911,5.16528],[-75.7691,5.16528],[-75.7691,5.16527],[-75.7691,5.16525],[-75.76908,5.16522],[-75.76908,5.16521],[-75.76908,5.16519],[-75.76908,5.16518],[-75.76907,5.16517],[-75.76907,5.16516],[-75.76907,5.16514],[-75.76907,5.16514],[-75.76906,5.16513],[-75.76905,5.16512],[-75.76904,5.16512],[-75.76903,5.16512],[-75.76902,5.16511],[-75.76901,5.1651],[-75.76901,5.1651],[-75.769,5.1651],[-75.76899,5.1651],[-75.76897,5.16509],[-75.76896,5.16509],[-75.76894,5.16509],[-75.76891,5.1651],[-75.7689,5.1651],[-75.76888,5.16513],[-75.76888,5.16513],[-75.76887,5.16514],[-75.76886,5.16514],[-75.76885,5.16514],[-75.76884,5.16513],[-75.76883,5.16513],[-75.76881,5.1651],[-75.7688,5.16509],[-75.7688,5.16508],[-75.76879,5.16508],[-75.76878,5.16508],[-75.76877,5.16507],[-75.76876,5.16506],[-75.76875,5.16505],[-75.76873,5.16505],[-75.76873,5.16504],[-75.76872,5.16504],[-75.76872,5.16503],[-75.76872,5.16502],[-75.76872,5.16502],[-75.76871,5.16501],[-75.76871,5.16501],[-75.7687,5.165],[-75.76868,5.16501]]},"properties":{"OBJECTID":0,"ID_DS":0,"CODDEP":" ","CODCUENCA":" ","CODDS":0,"TIPO":" ","NOMBRE":" ","ORDEN":" ","N_ORDEN":0,"FP":0,"Shape_Leng":0,"ORD_STRAHL":2,"FR_STRAHLE":15,"ZPHAMIN":10,"ZPSMIN":5,"OBJECTID_1":23,"Shape_Length":103.32297955595135}},{"type":"Feature","id":24,"geometry":{"type":"LineString","coordinates":[[-75.76868,5.16501],[-75.76868,5.16501],[-75.76867,5.16501],[-75.76866,5.165],[-75.76865,5.165],[-75.76864,5.165],[-75.76863,5.16501]]},"properties":{"OBJECTID":0,"ID_DS":0,"CODDEP":" ","CODCUENCA":" ","CODDS":0,"TIPO":" ","NOMBRE":" ","ORDEN":" ","N_ORDEN":0,"FP":0,"Shape_Leng":0,"ORD_STRAHL":2,"FR_STRAHLE":15,"ZPHAMIN":10,"ZPSMIN":5,"OBJECTID_1":24,"Shape_Length":6.927618309497302}},{"type":"Feature","id":25,"geometry":{"type":"LineString","coordinates":[[-75.77027,5.16422],[-75.77027,5.16421],[-75.77026,5.16421],[-75.77026,5.16421],[-75.77025,5.1642],[-75.77024,5.16418],[-75.77023,5.16417],[-75.77023,5.16415],[-75.77022,5.16414],[-75.77021,5.16413],[-75.77021,5.16413],[-75.7702,5.16412],[-75.77018,5.16411],[-75.77018,5.1641],[-75.77018,5.16409]]},"properties":{"OBJECTID":0,"ID_DS":0,"CODDEP":" ","CODCUENCA":" ","CODDS":0,"TIPO":" ","NOMBRE":" ","ORDEN":" ","N_ORDEN":0,"FP":0,"Shape_Leng":0,"ORD_STRAHL":2,"FR_STRAHLE":15,"ZPHAMIN":10,"ZPSMIN":5,"OBJECTID_1":25,"Shape_Length":18.910646214220563}},{"type":"Feature","id":26,"geometry":{"type":"LineString","coordinates":[[-75.77018,5.16409],[-75.77017,5.16408],[-75.77017,5.16407],[-75.77018,5.16404],[-75.77018,5.16403],[-75.77017,5.16403],[-75.77017,5.16402],[-75.77017,5.16401],[-75.77016,5.164],[-75.77017,5.16399],[-75.77017,5.16398],[-75.77017,5.16397],[-75.77017,5.16396],[-75.77016,5.16396],[-75.77017,5.16394],[-75.77016,5.16394],[-75.77016,5.16393],[-75.77016,5.16393],[-75.77017,5.16391],[-75.77016,5.16391],[-75.77016,5.1639],[-75.77016,5.1639],[-75.77016,5.16389],[-75.77015,5.16387],[-75.77015,5.16387],[-75.77015,5.16385],[-75.77015,5.16385],[-75.77015,5.16383],[-75.77014,5.16383],[-75.77014,5.16384],[-75.77013,5.16384],[-75.77012,5.16383],[-75.77011,5.16382],[-75.77011,5.1638]]},"properties":{"OBJECTID":0,"ID_DS":0,"CODDEP":" ","CODCUENCA":" ","CODDS":0,"TIPO":" ","NOMBRE":" ","ORDEN":" ","N_ORDEN":0,"FP":0,"Shape_Leng":0,"ORD_STRAHL":2,"FR_STRAHLE":15,"ZPHAMIN":10,"ZPSMIN":5,"OBJECTID_1":26,"Shape_Length":37.31441482222514}},{"type":"Feature","id":27,"geometry":{"type":"LineString","coordinates":[[-75.76743,5.16084],[-75.76741,5.16084]]},"properties":{"OBJECTID":0,"ID_DS":0,"CODDEP":" ","CODCUENCA":" ","CODDS":0,"TIPO":" ","NOMBRE":" ","ORDEN":" ","N_ORDEN":0,"FP":0,"Shape_Leng":0,"ORD_STRAHL":2,"FR_STRAHLE":15,"ZPHAMIN":10,"ZPSMIN":5,"OBJECTID_1":27,"Shape_Length":1.7148451585263922}},{"type":"Feature","id":28,"geometry":{"type":"MultiLineString","coordinates":[[[-75.76724,5.16083],[-75.76703,5.16085],[-75.76694,5.16084],[-75.76677,5.16087],[-75.76662,5.16092],[-75.76655,5.16093],[-75.76648,5.16091]],[[-75.76741,5.16084],[-75.76738,5.16085],[-75.76736,5.16086],[-75.76734,5.16087],[-75.76731,5.16087],[-75.76729,5.16087],[-75.76728,5.16086],[-75.76726,5.16085],[-75.76724,5.16084],[-75.76724,5.16083]]]},"properties":{"OBJECTID":31107,"ID_DS":88,"CODDEP":" ","CODCUENCA":"2615","CODDS":88,"TIPO":" ","NOMBRE":"Quebrada Sarciri","ORDEN":" ","N_ORDEN":5,"FP":15,"Shape_Leng":228.777709056,"ORD_STRAHL":2,"FR_STRAHLE":15,"ZPHAMIN":10,"ZPSMIN":5,"OBJECTID_1":28,"Shape_Length":105.81827547286217}}]}