{"type":"FeatureCollection","name":"Drenaje Sencillo Samana","crs":{"type":"name","properties":{"name":"urn:ogc:def:crs:OGC:1.3:CRS84"}},"features":[{"type":"Feature","id":1,"geometry":{"type":"LineString","coordinates":[[-74.99134,5.41739],[-74.99123,5.41731],[-74.99114,5.41722],[-74.99108,5.41712],[-74.99109,5.41692],[-74.99119,5.41675],[-74.9912,5.41668],[-74.99122,5.41658],[-74.99122,5.41652],[-74.99122,5.41645],[-74.99121,5.41634],[-74.99121,5.4162],[-74.99123,5.41607],[-74.99125,5.41593],[-74.99127,5.41581],[-74.99127,5.41572],[-74.99133,5.41562],[-74.99136,5.41551],[-74.99138,5.41541],[-74.99149,5.41527],[-74.99156,5.4152],[-74.99165,5.41515],[-74.99171,5.41513],[-74.99177,5.41512],[-74.99187,5.4151],[-74.99201,5.41503],[-74.99208,5.415]]},"properties":{"OBJECTID":32584,"ID_DS":20107,"CODDEP":"17","CODCUENCA":"2305","CODDS":20106,"TIPO":" ","NOMBRE":" ","ORDEN":"2305-001-071-021-16-02","N_ORDEN":6,"FP":30,"Shape_Leng":0,"ORD_STRAHL":1,"FR_STRAHLE":15,"ZPHAMIN":10,"ZPSMIN":5,"OBJECTID_1":1,"Shape_Length":329.78029471750784}},{"type":"Feature","id":2,"geometry":{"type":"LineString","coordinates":[[-74.99253,5.41731],[-74.99254,5.41724],[-74.99254,5.41718],[-74.99251,5.41707],[-74.99251,5.41703],[-74.99251,5.41698],[-74.99247,5.41693],[-74.99245,5.41684],[-74.99243,5.4168],[-74.99243,5.41678],[-74.99243,5.41674],[-74.99243,5.41671],[-74.99244,5.41667],[-74.99245,5.41665],[-74.99245,5.41663],[-74.99245,5.41661],[-74.99244,5.41658],[-74.99244,5.41657],[-74.99245,5.41655],[-74.99246,5.41653],[-74.99248,5.41652],[-74.9925,5.4165],[-74.99255,5.41645],[-74.99257,5.41644],[-74.9926,5.41637],[-74.99261,5.41628],[-74.99262,5.4162],[-74.99264,5.41616],[-74.99266,5.41608],[-74.99265,5.41602],[-74.99262,5.416],[-74.99258,5.41596],[-74.99258,5.41593],[-74.99257,5.41586],[-74.99258,5.41578],[-74.99258,5.41573],[-74.99258,5.4157],[-74.99258,5.4156],[-74.99236,5.41516],[-74.99208,5.415]]},"properties":{"OBJECTID":32587,"ID_DS":20106,"CODDEP":"17","CODCUENCA":"2305","CODDS":20106,"TIPO":" ","NOMBRE":" ","ORDEN":"2305-001-071-021-16","N_ORDEN":5,"FP":30,"Shape_Leng":0,"ORD_STRAHL":1,"FR_STRAHLE":15,"ZPHAMIN":10,"ZPSMIN":5,"OBJECTID_1":2,"Shape_Length":294.15281466892264}},{"type":"Feature","id":3,"geometry":{"type":"LineString","coordinates":[[-74.98866,5.41474],[-74.98868,5.41461],[-74.98869,5.41453],[-74.98868,5.41438],[-74.98866,5.41429],[-74.98864,5.41418],[-74.98861,5.41408],[-74.98862,5.41379],[-74.9887,5.41352],[-74.98875,5.4134],[-74.98887,5.41317],[-74.98888,5.41306],[-74.98889,5.41302],[-74.98889,5.41298],[-74.98889,5.41293],[-74.98887,5.4129],[-74.98881,5.4128],[-74.98874,5.4127],[-74.98862,5.41261]]},"properties":{"OBJECTID":32586,"ID_DS":20108,"CODDEP":"17","CODCUENCA":"2305","CODDS":20106,"TIPO":" ","NOMBRE":" ","ORDEN":"2305-001-071-021-16-01","N_ORDEN":6,"FP":30,"Shape_Leng":0,"ORD_STRAHL":1,"FR_STRAHLE":15,"ZPHAMIN":10,"ZPSMIN":5,"OBJECTID_1":3,"Shape_Length":254.495638014615}},{"type":"Feature","id":4,"geometry":{"type":"LineString","coordinates":[[-74.98862,5.41261],[-74.98857,5.41261],[-74.98855,5.41258],[-74.98852,5.41253],[-74.98847,5.41247],[-74.9884,5.41227],[-74.98836,5.41222],[-74.98833,5.41221],[-74.98831,5.41222],[-74.98827,5.41222],[-74.98824,5.41219],[-74.9882,5.41217],[-74.98814,5.41216],[-74.98808,5.41215],[-74.98798,5.41211],[-74.98791,5.41205],[-74.98788,5.41202],[-74.98785,5.41195],[-74.98782,5.41189],[-74.9878,5.41186],[-74.98778,5.41183],[-74.98774,5.41181],[-74.98769,5.41182],[-74.98763,5.41184]]},"properties":{"OBJECTID":32585,"ID_DS":20106,"CODDEP":"17","CODCUENCA":"2305","CODDS":20106,"TIPO":" ","NOMBRE":" ","ORDEN":"2305-001-071-021-16","N_ORDEN":5,"FP":30,"Shape_Leng":0,"ORD_STRAHL":2,"FR_STRAHLE":15,"ZPHAMIN":10,"ZPSMIN":5,"OBJECTID_1":4,"Shape_Length":156.45619899678584}},{"type":"Feature","id":5,"geometry":{"type":"LineString","coordinates":[[-74.99208,5.415],[-74.99173,5.41478],[-74.99148,5.41475],[-74.99125,5.41465],[-74.99112,5.41467],[-74.99092,5.41468],[-74.99079,5.41468],[-74.99068,5.41465],[-74.99056,5.41461],[-74.99048,5.41457],[-74.99038,5.41453],[-74.99033,5.41451],[-74.9903,5.41449],[-74.9903,5.41445],[-74.9903,5.41442],[-74.9903,5.41436],[-74.99028,5.41428],[-74.99028,5.41418],[-74.99031,5.41414],[-74.99038,5.41407],[-74.9904,5.41404],[-74.99041,5.41401],[-74.99042,5.41397],[-74.9904,5.41391],[-74.99042,5.41385],[-74.99043,5.41376],[-74.99037,5.41367],[-74.99039,5.41358],[-74.99042,5.41342],[-74.99041,5.41301],[-74.99035,5.41289],[-74.99022,5.41273],[-74.99019,5.41247],[-74.99004,5.41241],[-74.98999,5.41238],[-74.98993,5.41231],[-74.98985,5.4122],[-74.98964,5.41209],[-74.98944,5.41207],[-74.98922,5.4121],[-74.9891,5.41218],[-74.9891,5.41237],[-74.98891,5.41256],[-74.98869,5.4126],[-74.98862,5.41261]]},"properties":{"OBJECTID":32585,"ID_DS":20106,"CODDEP":"17","CODCUENCA":"2305","CODDS":20106,"TIPO":" ","NOMBRE":" ","ORDEN":"2305-001-071-021-16","N_ORDEN":5,"FP":30,"Shape_Leng":0,"ORD_STRAHL":2,"FR_STRAHLE":15,"ZPHAMIN":10,"ZPSMIN":5,"OBJECTID_1":5,"Shape_Length":672.2222865874104}},{"type":"Feature","id":6,"geometry":{"type":"LineString","coordinates":[[-74.99578,5.41604],[-74.9957,5.41597],[-74.99565,5.41592],[-74.9956,5.41585],[-74.9955,5.4157],[-74.99548,5.41555],[-74.99544,5.41536],[-74.99541,5.41524],[-74.9954,5.41518],[-74.99537,5.41507],[-74.99533,5.415],[-74.99528,5.4149],[-74.99517,5.41472],[-74.99509,5.41455],[-74.99499,5.4144],[-74.99491,5.41425],[-74.99488,5.41421],[-74.99481,5.41417],[-74.99471,5.41408],[-74.99466,5.41402],[-74.99461,5.41395],[-74.9946,5.41391],[-74.99459,5.41381],[-74.9946,5.41376],[-74.9946,5.41372],[-74.99463,5.41369],[-74.99469,5.41366],[-74.99477,5.41365],[-74.99482,5.41365],[-74.99491,5.41363],[-74.99495,5.41362],[-74.99499,5.41361],[-74.99506,5.41358],[-74.99514,5.41351],[-74.9952,5.41347],[-74.99523,5.41344],[-74.99524,5.4134],[-74.99524,5.41335],[-74.99523,5.41326],[-74.99522,5.41322],[-74.99519,5.4132],[-74.99517,5.41319],[-74.99513,5.41318],[-74.99505,5.41319],[-74.99498,5.41318],[-74.99494,5.41316],[-74.9949,5.41313],[-74.99488,5.41311],[-74.99486,5.41307],[-74.99485,5.41303],[-74.99482,5.41296],[-74.99477,5.41291],[-74.99474,5.41289],[-74.99473,5.41287],[-74.99472,5.41284],[-74.99471,5.41276],[-74.9947,5.4126],[-74.9947,5.41252],[-74.99467,5.41242],[-74.9946,5.41221],[-74.99456,5.4121],[-74.99452,5.41203],[-74.99446,5.412],[-74.99441,5.41197],[-74.99434,5.41196],[-74.99426,5.41198],[-74.99421,5.412],[-74.99415,5.41202],[-74.99408,5.41202],[-74.99404,5.41201],[-74.99398,5.41199],[-74.99393,5.41194],[-74.99391,5.41182],[-74.99391,5.41178],[-74.99386,5.41174],[-74.99381,5.41174],[-74.99375,5.41172],[-74.9937,5.4117],[-74.99369,5.41167],[-74.99369,5.41162],[-74.9937,5.4116],[-74.99374,5.41154],[-74.99378,5.41151],[-74.99379,5.41148],[-74.99379,5.41143],[-74.99376,5.41142],[-74.99374,5.41139],[-74.99373,5.41137],[-74.99373,5.41135],[-74.99375,5.41132],[-74.99379,5.41132],[-74.99383,5.41132],[-74.99387,5.41131],[-74.99389,5.41129],[-74.99397,5.41121],[-74.99401,5.41115],[-74.99404,5.41109],[-74.99407,5.41103],[-74.99411,5.41095],[-74.99414,5.41094],[-74.99418,5.41091],[-74.99422,5.41086],[-74.99424,5.41082],[-74.99426,5.41078],[-74.99429,5.41073]]},"properties":{"OBJECTID":0,"ID_DS":0,"CODDEP":"17","CODCUENCA":"2305","CODDS":20106,"TIPO":" ","NOMBRE":" ","ORDEN":" ","N_ORDEN":3,"FP":20,"Shape_Leng":3,"ORD_STRAHL":3,"FR_STRAHLE":20,"ZPHAMIN":15,"ZPSMIN":5,"OBJECTID_1":6,"Shape_Length":829.095799509103}},{"type":"Feature","id":7,"geometry":{"type":"LineString","coordinates":[[-74.99354,5.41051],[-74.99346,5.41046],[-74.99342,5.41037],[-74.99339,5.41025],[-74.99339,5.41017],[-74.99339,5.41008],[-74.99334,5.40993],[-74.99334,5.40981],[-74.99334,5.40972],[-74.99329,5.40957],[-74.99325,5.4094],[-74.99325,5.40931],[-74.99325,5.40926],[-74.99325,5.40921],[-74.99321,5.40912],[-74.99316,5.40902],[-74.99312,5.40891],[-74.99312,5.40886],[-74.99312,5.40868],[-74.99308,5.40862],[-74.99305,5.4085],[-74.99297,5.40839],[-74.99289,5.40832],[-74.9928,5.40821],[-74.99261,5.40814],[-74.99242,5.40814],[-74.99218,5.40817],[-74.99203,5.40825],[-74.99189,5.40837],[-74.99181,5.40851],[-74.9917,5.40865],[-74.99161,5.40873],[-74.9915,5.40873],[-74.99135,5.4087],[-74.99127,5.40859],[-74.9912,5.40833],[-74.99112,5.40821],[-74.99107,5.40805],[-74.99091,5.40796],[-74.99079,5.40792],[-74.9906,5.40783],[-74.99048,5.40777],[-74.99031,5.40765],[-74.99019,5.40744],[-74.98996,5.40723],[-74.98963,5.40713],[-74.98943,5.40707],[-74.98926,5.40709],[-74.98903,5.40708],[-74.98895,5.40703],[-74.98891,5.40696],[-74.98878,5.40695],[-74.98864,5.40685],[-74.98862,5.40683],[-74.9885,5.40678],[-74.98836,5.40673],[-74.98832,5.40673],[-74.9883,5.40663],[-74.98826,5.40659],[-74.98817,5.40658],[-74.98811,5.40658],[-74.98808,5.40658],[-74.98805,5.40652],[-74.98799,5.40648],[-74.98784,5.40647],[-74.98778,5.40645],[-74.98773,5.40639],[-74.98768,5.40638],[-74.98762,5.40637],[-74.98759,5.4062],[-74.98761,5.40609],[-74.98754,5.40598],[-74.98747,5.40595],[-74.98741,5.40592],[-74.98741,5.40585],[-74.98747,5.40582],[-74.98749,5.40576],[-74.98748,5.40571],[-74.98754,5.40567],[-74.9876,5.40565],[-74.98766,5.40559],[-74.98776,5.40548],[-74.98784,5.4054],[-74.98785,5.40533],[-74.98784,5.40527],[-74.98781,5.40522]]},"properties":{"OBJECTID":0,"ID_DS":0,"CODDEP":"17","CODCUENCA":"2305","CODDS":20106,"TIPO":" ","NOMBRE":" ","ORDEN":" ","N_ORDEN":3,"FP":20,"Shape_Leng":3,"ORD_STRAHL":3,"FR_STRAHLE":20,"ZPHAMIN":15,"ZPSMIN":5,"OBJECTID_1":7,"Shape_Length":1162.0740305113488}},{"type":"Feature","id":8,"geometry":{"type":"LineString","coordinates":[[-74.99318,5.41078],[-74.99322,5.41075],[-74.99323,5.41075],[-74.99324,5.41075],[-74.99325,5.41074],[-74.99326,5.41074],[-74.99327,5.41074],[-74.99327,5.41073],[-74.99327,5.41072],[-74.99327,5.41072],[-74.99328,5.41071],[-74.99331,5.4107],[-74.99332,5.41069],[-74.99332,5.41069],[-74.99332,5.41067],[-74.99333,5.41067],[-74.99335,5.41066],[-74.99335,5.41065],[-74.99336,5.41064],[-74.99336,5.41064],[-74.99338,5.41064],[-74.99339,5.41064],[-74.9934,5.41063],[-74.99342,5.41059],[-74.99343,5.41058],[-74.99344,5.41057],[-74.99345,5.41057],[-74.99346,5.41057],[-74.99346,5.41056],[-74.99347,5.41056],[-74.99348,5.41056],[-74.99349,5.41055],[-74.9935,5.41055],[-74.9935,5.41054],[-74.9935,5.41053],[-74.99349,5.41053],[-74.99348,5.41052],[-74.99346,5.41051],[-74.99345,5.4105],[-74.99345,5.4105],[-74.99345,5.41048],[-74.99345,5.41048],[-74.99346,5.41047],[-74.99346,5.41047],[-74.99345,5.41046],[-74.99346,5.41046],[-74.99346,5.41045]]},"properties":{"OBJECTID":0,"ID_DS":0,"CODDEP":"17","CODCUENCA":"2305","CODDS":20106,"TIPO":" ","NOMBRE":" ","ORDEN":" ","N_ORDEN":0,"FP":0,"Shape_Leng":0,"ORD_STRAHL":1,"FR_STRAHLE":0,"ZPHAMIN":10,"ZPSMIN":5,"OBJECTID_1":8,"Shape_Length":61.83272909991451}},{"type":"Feature","id":9,"geometry":{"type":"LineString","coordinates":[[-74.99898,5.41289],[-74.99897,5.41288],[-74.99897,5.41287],[-74.99896,5.41287],[-74.99896,5.41288],[-74.99895,5.41288],[-74.99895,5.41288],[-74.99891,5.41288],[-74.9989,5.41288],[-74.9989,5.41288],[-74.99888,5.4129],[-74.99887,5.4129],[-74.99884,5.4129],[-74.99884,5.4129],[-74.99883,5.4129],[-74.99883,5.4129],[-74.99882,5.41291],[-74.99881,5.41291],[-74.99879,5.41292],[-74.99877,5.41291],[-74.99871,5.4129],[-74.99869,5.4129],[-74.99867,5.4129],[-74.99865,5.41292],[-74.99861,5.41295],[-74.9986,5.41296],[-74.99859,5.41297],[-74.99857,5.41297],[-74.99853,5.41296],[-74.99851,5.41295],[-74.9985,5.41296],[-74.99847,5.41297],[-74.99842,5.41297],[-74.99832,5.41299],[-74.99811,5.41301],[-74.99801,5.41295],[-74.99797,5.41285],[-74.99792,5.41268],[-74.99789,5.41254],[-74.99778,5.41239],[-74.99777,5.41239],[-74.99776,5.41238],[-74.99776,5.41238],[-74.99775,5.41238],[-74.99773,5.41238],[-74.99772,5.41238],[-74.99772,5.41238],[-74.99771,5.41237],[-74.99769,5.41236],[-74.99768,5.41236],[-74.99767,5.41236],[-74.99765,5.41236],[-74.99764,5.41236],[-74.9976,5.41238],[-74.9976,5.41236],[-74.99759,5.41235],[-74.99758,5.41234],[-74.99757,5.41234],[-74.99756,5.41233],[-74.99754,5.41233],[-74.99754,5.41233],[-74.99753,5.41233],[-74.99752,5.41231],[-74.99751,5.41231],[-74.9975,5.41231],[-74.99749,5.41231],[-74.99749,5.41229],[-74.99748,5.41229],[-74.99746,5.41229],[-74.99745,5.41229],[-74.99744,5.41227],[-74.99742,5.41227],[-74.99741,5.41226],[-74.99739,5.41225],[-74.99736,5.41221],[-74.99735,5.4122],[-74.99732,5.41217],[-74.99732,5.41217],[-74.99732,5.41216],[-74.99732,5.41215],[-74.9973,5.41214],[-74.99729,5.41213],[-74.99728,5.41211],[-74.99727,5.4121],[-74.99727,5.41208],[-74.99727,5.41207],[-74.99727,5.41207],[-74.99723,5.41205],[-74.99723,5.41204],[-74.99723,5.41203],[-74.99723,5.41202],[-74.99723,5.41201],[-74.99724,5.412],[-74.99724,5.41199],[-74.99724,5.41198],[-74.99724,5.41197],[-74.99723,5.41196],[-74.99722,5.41196],[-74.99722,5.41195],[-74.99721,5.41194],[-74.99721,5.41194],[-74.99721,5.41194],[-74.99721,5.41193],[-74.9972,5.41193],[-74.9972,5.41192],[-74.9972,5.41192],[-74.9972,5.41189],[-74.9972,5.41189],[-74.9972,5.41188],[-74.99719,5.41187],[-74.99718,5.41186],[-74.99718,5.41184],[-74.99717,5.41184],[-74.99718,5.41183],[-74.99718,5.41182],[-74.99718,5.41181],[-74.99715,5.41179],[-74.99714,5.41179],[-74.99714,5.41178],[-74.99714,5.41177],[-74.99714,5.41176],[-74.99715,5.41175],[-74.99715,5.41175],[-74.99715,5.41174],[-74.99715,5.41173],[-74.99714,5.41173],[-74.99711,5.41171],[-74.9971,5.4117],[-74.99709,5.41167],[-74.99709,5.41166],[-74.99707,5.41165],[-74.99706,5.41164],[-74.99706,5.41163],[-74.99705,5.41162],[-74.99705,5.41162],[-74.99706,5.41161],[-74.99706,5.41161],[-74.99705,5.4116],[-74.99704,5.4116],[-74.99704,5.41159],[-74.99705,5.41158],[-74.99706,5.41157],[-74.99691,5.41142],[-74.99677,5.41144],[-74.99663,5.41153],[-74.99649,5.41162],[-74.9964,5.41165],[-74.99632,5.41167],[-74.99623,5.41165],[-74.99616,5.41162],[-74.9961,5.4116],[-74.99604,5.4116],[-74.99598,5.4116],[-74.99589,5.41161],[-74.99579,5.41162],[-74.99569,5.41164],[-74.9956,5.41167],[-74.99555,5.4117],[-74.99549,5.41171],[-74.99544,5.41171],[-74.99539,5.41169],[-74.99533,5.41164],[-74.9953,5.41162],[-74.99528,5.41158],[-74.99526,5.41154],[-74.99524,5.41152],[-74.99521,5.41151],[-74.99515,5.41149],[-74.99511,5.41147],[-74.99503,5.41143],[-74.9949,5.41138],[-74.99485,5.41137],[-74.99483,5.41135],[-74.99482,5.41134],[-74.99482,5.41129],[-74.99482,5.41127],[-74.99484,5.41125],[-74.99486,5.41123],[-74.99489,5.41121],[-74.99491,5.41118],[-74.99493,5.41115],[-74.99493,5.41111],[-74.99493,5.41105],[-74.99492,5.41097],[-74.99492,5.41091],[-74.99492,5.41088],[-74.99491,5.41085],[-74.99487,5.41079],[-74.99483,5.41076],[-74.99477,5.41074],[-74.99475,5.41074],[-74.99472,5.41074],[-74.99468,5.41075],[-74.99464,5.41077],[-74.9946,5.41079],[-74.99457,5.4108],[-74.99455,5.41082],[-74.99452,5.41084],[-74.99448,5.41084],[-74.99443,5.41085],[-74.99441,5.41085],[-74.99438,5.41084],[-74.99435,5.41082],[-74.99434,5.4108],[-74.99433,5.41078],[-74.99429,5.41073]]},"properties":{"OBJECTID":0,"ID_DS":0,"CODDEP":"17","CODCUENCA":"2305","CODDS":20106,"TIPO":" ","NOMBRE":" ","ORDEN":" ","N_ORDEN":4,"FP":20,"Shape_Leng":0,"ORD_STRAHL":3,"FR_STRAHLE":15,"ZPHAMIN":15,"ZPSMIN":5,"OBJECTID_1":9,"Shape_Length":750.8458007221393}},{"type":"Feature","id":10,"geometry":{"type":"LineString","coordinates":[[-74.98784,5.41247],[-74.98783,5.41246],[-74.98783,5.41245],[-74.98781,5.41244],[-74.98781,5.41244],[-74.9878,5.41243],[-74.98781,5.41241],[-74.98781,5.4124],[-74.98781,5.4124],[-74.9878,5.41239],[-74.98778,5.41238],[-74.98777,5.41237],[-74.98776,5.41236],[-74.98776,5.41236],[-74.98775,5.41236],[-74.98774,5.41235],[-74.98773,5.41233],[-74.98772,5.41233],[-74.98771,5.41233],[-74.9877,5.41233],[-74.9877,5.41234],[-74.98768,5.41235],[-74.98768,5.41235],[-74.98767,5.41235],[-74.98765,5.41235],[-74.98764,5.41234],[-74.98763,5.41233],[-74.98763,5.41233],[-74.98763,5.41232],[-74.98763,5.41231],[-74.98761,5.41229],[-74.98761,5.41228],[-74.98761,5.41227],[-74.9876,5.41227],[-74.9876,5.41227],[-74.98761,5.41224],[-74.98761,5.41223],[-74.98761,5.41223],[-74.9876,5.41222],[-74.9876,5.4122],[-74.9876,5.41219],[-74.98759,5.41218],[-74.98758,5.41217],[-74.98755,5.41215],[-74.98755,5.41215],[-74.98755,5.41214],[-74.98755,5.41214],[-74.98755,5.41213],[-74.98753,5.41212],[-74.98752,5.41211],[-74.98751,5.41211],[-74.9875,5.41212],[-74.9875,5.41212],[-74.98749,5.41213],[-74.98748,5.41216],[-74.98747,5.41217],[-74.98746,5.41218],[-74.98746,5.41219],[-74.98746,5.4122],[-74.98745,5.4122],[-74.98744,5.4122],[-74.98743,5.41219],[-74.98742,5.41219],[-74.98741,5.41218],[-74.98741,5.41218],[-74.98741,5.41217],[-74.9874,5.41216],[-74.98739,5.41214],[-74.98738,5.41212],[-74.98737,5.41212],[-74.98736,5.41211],[-74.98734,5.4121],[-74.98732,5.4121],[-74.9873,5.4121]]},"properties":{"OBJECTID":0,"ID_DS":0,"CODDEP":"17","CODCUENCA":"2305","CODDS":20106,"TIPO":" ","NOMBRE":" ","ORDEN":" ","N_ORDEN":0,"FP":0,"Shape_Leng":0,"ORD_STRAHL":1,"FR_STRAHLE":0,"ZPHAMIN":10,"ZPSMIN":5,"OBJECTID_1":10,"Shape_Length":100.4371521863671}},{"type":"Feature","id":11,"geometry":{"type":"LineString","coordinates":[[-74.98841,5.41079],[-74.98839,5.41079],[-74.98839,5.4108],[-74.98837,5.41081],[-74.98837,5.41082],[-74.98836,5.41082],[-74.98835,5.41081],[-74.98833,5.4108],[-74.98833,5.41079],[-74.98831,5.41078],[-74.98829,5.41078],[-74.98828,5.41078],[-74.98827,5.41077],[-74.98826,5.41074],[-74.98825,5.41074],[-74.98825,5.41074],[-74.98824,5.41074],[-74.98823,5.41073],[-74.98822,5.41073],[-74.98821,5.41072],[-74.98821,5.41072],[-74.98821,5.41071],[-74.9882,5.41071],[-74.9882,5.41071],[-74.98819,5.41071],[-74.98818,5.4107],[-74.98817,5.41068],[-74.98817,5.41066],[-74.98816,5.41066],[-74.98816,5.41065],[-74.98815,5.41065],[-74.98814,5.41065],[-74.98814,5.41064],[-74.98814,5.41063],[-74.98813,5.41063],[-74.98812,5.41062],[-74.98811,5.41063],[-74.98811,5.41063],[-74.9881,5.41063],[-74.98809,5.41063],[-74.98808,5.41062],[-74.98807,5.4106],[-74.98806,5.4106],[-74.98806,5.41059],[-74.98806,5.41059],[-74.98805,5.4106],[-74.98805,5.4106],[-74.98804,5.41059],[-74.98803,5.41059],[-74.98802,5.41058],[-74.988,5.41058],[-74.98799,5.41057],[-74.98798,5.41057],[-74.98796,5.41057],[-74.98795,5.41056],[-74.98795,5.41056],[-74.98792,5.41053],[-74.98791,5.41052],[-74.9879,5.41051],[-74.98789,5.41051],[-74.98788,5.41052],[-74.98787,5.41052],[-74.98786,5.41051],[-74.98785,5.4105],[-74.98785,5.4105],[-74.98785,5.41049],[-74.98785,5.41049],[-74.98784,5.41048],[-74.98784,5.41046],[-74.98784,5.41045],[-74.98783,5.41045],[-74.98782,5.41045],[-74.98781,5.41044],[-74.98779,5.41043],[-74.98778,5.41041],[-74.98777,5.41041],[-74.98775,5.41041],[-74.98774,5.41041],[-74.98774,5.4104],[-74.98773,5.41041],[-74.98772,5.41041],[-74.98771,5.4104],[-74.98767,5.41039],[-74.98766,5.41039],[-74.98764,5.41038],[-74.98763,5.41037],[-74.98761,5.41037],[-74.98759,5.41038],[-74.98758,5.41038],[-74.98757,5.41037],[-74.98756,5.41037],[-74.98755,5.41036],[-74.98754,5.41036],[-74.98753,5.41035],[-74.98753,5.41035],[-74.98752,5.41035],[-74.98751,5.41036],[-74.98751,5.41038],[-74.98751,5.41038],[-74.98751,5.41038],[-74.9875,5.41039],[-74.98748,5.41039],[-74.98747,5.41039],[-74.98746,5.41039],[-74.98746,5.41039],[-74.98746,5.4104],[-74.98746,5.4104],[-74.98746,5.41041],[-74.98746,5.41042],[-74.98745,5.41041],[-74.98744,5.41042],[-74.98744,5.41042],[-74.98743,5.41042],[-74.98741,5.41042],[-74.9874,5.41042],[-74.98737,5.41043],[-74.98736,5.41043],[-74.98735,5.41043],[-74.98734,5.41043],[-74.98734,5.41042],[-74.98733,5.41041],[-74.98733,5.41041],[-74.98732,5.41041],[-74.98731,5.41042],[-74.9873,5.41042],[-74.9873,5.41042],[-74.98728,5.4104],[-74.98727,5.4104],[-74.98727,5.4104],[-74.98727,5.41039],[-74.98727,5.41039],[-74.98726,5.41039],[-74.98724,5.41039],[-74.98721,5.4104],[-74.9872,5.4104],[-74.98719,5.41039],[-74.98718,5.41039],[-74.98718,5.41038],[-74.98716,5.41038],[-74.98715,5.41038],[-74.98713,5.41037],[-74.98713,5.41037],[-74.9871,5.41037],[-74.98709,5.41036],[-74.98706,5.41035],[-74.98704,5.41032],[-74.98702,5.4103]]},"properties":{"OBJECTID":0,"ID_DS":0,"CODDEP":"17","CODCUENCA":"2305","CODDS":20106,"TIPO":" ","NOMBRE":" ","ORDEN":" ","N_ORDEN":0,"FP":0,"Shape_Leng":0,"ORD_STRAHL":1,"FR_STRAHLE":0,"ZPHAMIN":10,"ZPSMIN":5,"OBJECTID_1":11,"Shape_Length":195.61954772861577}},{"type":"Feature","id":12,"geometry":{"type":"LineString","coordinates":[[-74.98885,5.41157],[-74.98883,5.41158],[-74.98882,5.41158],[-74.98881,5.41157],[-74.98881,5.41157],[-74.9888,5.41156],[-74.9888,5.41155],[-74.98879,5.41156],[-74.98878,5.41155],[-74.98878,5.41155],[-74.98877,5.41155],[-74.98875,5.41156],[-74.98874,5.41156],[-74.98873,5.41155],[-74.98872,5.41155],[-74.98872,5.41156],[-74.98872,5.41157],[-74.98871,5.41157],[-74.98869,5.41157],[-74.98867,5.41156],[-74.98866,5.41156],[-74.98865,5.41156],[-74.98864,5.41154],[-74.98864,5.41154],[-74.98862,5.41154],[-74.98862,5.41154],[-74.98862,5.41153],[-74.98861,5.41153],[-74.9886,5.41153],[-74.98859,5.41152],[-74.98858,5.41152],[-74.98858,5.41151],[-74.98858,5.41151],[-74.98857,5.41151],[-74.98854,5.41151],[-74.98854,5.41151],[-74.98854,5.41151],[-74.98853,5.4115],[-74.98852,5.4115],[-74.98851,5.4115],[-74.98851,5.4115],[-74.9885,5.41151],[-74.9885,5.41151],[-74.9885,5.41151],[-74.9885,5.41152],[-74.98849,5.41152],[-74.98847,5.41152],[-74.98847,5.41153],[-74.98846,5.41153],[-74.98845,5.41152],[-74.98844,5.41152],[-74.98844,5.41153],[-74.98843,5.41153],[-74.98842,5.41151],[-74.98841,5.41151],[-74.9884,5.41151],[-74.98839,5.41152],[-74.98839,5.41152],[-74.98838,5.41151],[-74.98836,5.41152],[-74.98835,5.41152],[-74.98834,5.41152],[-74.98834,5.41151],[-74.98833,5.41151],[-74.98833,5.4115],[-74.98833,5.4115],[-74.98832,5.4115],[-74.98832,5.41149],[-74.98832,5.41148],[-74.98832,5.41148],[-74.98829,5.41148],[-74.98828,5.41147],[-74.98827,5.41146],[-74.98826,5.41146],[-74.98825,5.41146],[-74.98824,5.41146],[-74.98823,5.41148],[-74.98821,5.41149],[-74.9882,5.41149],[-74.98818,5.4115],[-74.98818,5.4115],[-74.98817,5.41149],[-74.98816,5.41149],[-74.98815,5.41149],[-74.98815,5.41149],[-74.98813,5.41147],[-74.98812,5.41146],[-74.98812,5.41146],[-74.98811,5.41147],[-74.98811,5.41147],[-74.98809,5.41145],[-74.98809,5.41145],[-74.98808,5.41146],[-74.98808,5.41146],[-74.98806,5.41146],[-74.98806,5.41146],[-74.98804,5.41147],[-74.98804,5.41148],[-74.98803,5.41148],[-74.98803,5.41148],[-74.98802,5.41147],[-74.988,5.41147],[-74.988,5.41147],[-74.98799,5.41147],[-74.98799,5.41147],[-74.98799,5.41147],[-74.98798,5.41147],[-74.98797,5.41146],[-74.98796,5.41146],[-74.98795,5.41146],[-74.98795,5.41147],[-74.98794,5.41147],[-74.98794,5.41147],[-74.98793,5.41147],[-74.98792,5.41146],[-74.98791,5.41145],[-74.98789,5.41145],[-74.98788,5.41146],[-74.98783,5.41147],[-74.98782,5.41147],[-74.98781,5.41147],[-74.98781,5.41147],[-74.98781,5.41146],[-74.9878,5.41146],[-74.9878,5.41145]]},"properties":{"OBJECTID":0,"ID_DS":0,"CODDEP":"17","CODCUENCA":"2305","CODDS":20106,"TIPO":" ","NOMBRE":" ","ORDEN":" ","N_ORDEN":0,"FP":0,"Shape_Leng":0,"ORD_STRAHL":1,"FR_STRAHLE":0,"ZPHAMIN":10,"ZPSMIN":5,"OBJECTID_1":12,"Shape_Length":140.4767084391652}},{"type":"Feature","id":13,"geometry":{"type":"LineString","coordinates":[[-74.99429,5.41073],[-74.99431,5.41069],[-74.99435,5.41061],[-74.99437,5.41056],[-74.99441,5.41051],[-74.99438,5.41041],[-74.99435,5.41037],[-74.99425,5.41034],[-74.99403,5.41032],[-74.99383,5.4104],[-74.9937,5.4105],[-74.99364,5.41051],[-74.99354,5.41051]]},"properties":{"OBJECTID":0,"ID_DS":0,"CODDEP":"17","CODCUENCA":"2305","CODDS":20106,"TIPO":" ","NOMBRE":" ","ORDEN":" ","N_ORDEN":3,"FP":20,"Shape_Leng":3,"ORD_STRAHL":3,"FR_STRAHLE":20,"ZPHAMIN":15,"ZPSMIN":5,"OBJECTID_1":13,"Shape_Length":139.9328105940254}}]}