{"type":"FeatureCollection","name":"Drenaje Sencillo Supia","crs":{"type":"name","properties":{"name":"urn:ogc:def:crs:OGC:1.3:CRS84"}},"features":[{"type":"Feature","id":1,"geometry":{"type":"LineString","coordinates":[[-75.64787,5.43928],[-75.6478,5.43933],[-75.64777,5.43936],[-75.64774,5.43938],[-75.64771,5.4394],[-75.64769,5.43942],[-75.64767,5.43944],[-75.64764,5.43945],[-75.64761,5.43946],[-75.64759,5.43947],[-75.64758,5.43949],[-75.64757,5.43952],[-75.64757,5.43955],[-75.64756,5.43958],[-75.64755,5.43958],[-75.64753,5.4396],[-75.64751,5.43962],[-75.64748,5.43966],[-75.64746,5.43969],[-75.64744,5.43973],[-75.64743,5.43976],[-75.64742,5.43979],[-75.64741,5.43983],[-75.64741,5.43986],[-75.64742,5.43989],[-75.64741,5.43992],[-75.6474,5.43995],[-75.64736,5.43998],[-75.64734,5.44],[-75.64732,5.44002],[-75.6473,5.44003],[-75.64727,5.44003],[-75.64724,5.44002],[-75.6472,5.44001],[-75.64716,5.44],[-75.64714,5.44],[-75.6471,5.43999],[-75.64705,5.44],[-75.64699,5.44],[-75.64697,5.44],[-75.64695,5.44],[-75.64689,5.44]]},"properties":{"OBJECTID":31727,"ID_DS":88,"CODDEP":" ","CODCUENCA":"2615","CODDS":88,"TIPO":" ","NOMBRE":" ","ORDEN":" ","N_ORDEN":4,"FP":20,"Shape_Leng":156.712191782,"ORD_STRAHL":1,"FR_STRAHLE":15,"ZPHA":10,"ZPS":15,"OBJECTID_1":1,"Shape_Length":156.6950597067093}},{"type":"Feature","id":2,"geometry":{"type":"LineString","coordinates":[[-75.65358,5.453],[-75.65362,5.45309]]},"properties":{"OBJECTID":31825,"ID_DS":88,"CODDEP":" ","CODCUENCA":"2615","CODDS":88,"TIPO":" ","NOMBRE":"Río Supia","ORDEN":" ","N_ORDEN":3,"FP":20,"Shape_Leng":10.2264093929,"ORD_STRAHL":2,"FR_STRAHLE":15,"ZPHA":10,"ZPS":15,"OBJECTID_1":2,"Shape_Length":10.225373699022553}},{"type":"Feature","id":3,"geometry":{"type":"LineString","coordinates":[[-75.65409,5.45953],[-75.65408,5.45955],[-75.65406,5.45957],[-75.65404,5.45958],[-75.65403,5.45959],[-75.65401,5.45959],[-75.65397,5.4596],[-75.65393,5.45961],[-75.6539,5.45962],[-75.65388,5.45964],[-75.65386,5.45966],[-75.65384,5.45967],[-75.65382,5.4597],[-75.65378,5.45972],[-75.65371,5.45978],[-75.65366,5.45987],[-75.65364,5.45996],[-75.6536,5.46004],[-75.65355,5.46018],[-75.65353,5.46027],[-75.65347,5.46036],[-75.65344,5.46045],[-75.65338,5.46057],[-75.65332,5.46074],[-75.65331,5.46081],[-75.65327,5.46093],[-75.65327,5.46095]]},"properties":{"OBJECTID":31843,"ID_DS":88,"CODDEP":" ","CODCUENCA":"2615","CODDS":88,"TIPO":" ","NOMBRE":"Q. Grande, Rodas","ORDEN":" ","N_ORDEN":4,"FP":20,"Shape_Leng":190.866230576,"ORD_STRAHL":2,"FR_STRAHLE":15,"ZPHA":10,"ZPS":15,"OBJECTID_1":3,"Shape_Length":190.84556942737518}},{"type":"Feature","id":4,"geometry":{"type":"LineString","coordinates":[[-75.65094,5.46269],[-75.65098,5.46258],[-75.65105,5.46251],[-75.6511,5.46241],[-75.65113,5.46235],[-75.65126,5.46226],[-75.65132,5.46222],[-75.65136,5.4622],[-75.65142,5.46214],[-75.65155,5.46212],[-75.6517,5.46207],[-75.65178,5.46203],[-75.65195,5.46195],[-75.652,5.46189],[-75.65207,5.46185],[-75.6522,5.46177],[-75.65223,5.4617],[-75.65232,5.46166],[-75.65244,5.46166]]},"properties":{"OBJECTID":31852,"ID_DS":88,"CODDEP":" ","CODCUENCA":"2615","CODDS":88,"TIPO":" ","NOMBRE":"Q. Grande, Rodas","ORDEN":" ","N_ORDEN":5,"FP":15,"Shape_Leng":213.014566178,"ORD_STRAHL":1,"FR_STRAHLE":15,"ZPHA":10,"ZPS":15,"OBJECTID_1":4,"Shape_Length":212.99131843785142}},{"type":"Feature","id":5,"geometry":{"type":"LineString","coordinates":[[-75.65194,5.4627],[-75.652,5.46261],[-75.65204,5.46252],[-75.65208,5.46241],[-75.65209,5.46233],[-75.65211,5.46224],[-75.65213,5.46212],[-75.65218,5.46199],[-75.65222,5.4619],[-75.65226,5.4618],[-75.65234,5.46176],[-75.65244,5.46166]]},"properties":{"OBJECTID":31851,"ID_DS":88,"CODDEP":" ","CODCUENCA":"2615","CODDS":88,"TIPO":" ","NOMBRE":" ","ORDEN":" ","N_ORDEN":6,"FP":15,"Shape_Leng":132.238637803,"ORD_STRAHL":1,"FR_STRAHLE":15,"ZPHA":10,"ZPS":15,"OBJECTID_1":5,"Shape_Length":132.22413692684927}},{"type":"Feature","id":6,"geometry":{"type":"LineString","coordinates":[[-75.65244,5.46166],[-75.65246,5.46164],[-75.65257,5.46169],[-75.65261,5.46173],[-75.65266,5.46177],[-75.65265,5.46177]]},"properties":{"OBJECTID":31849,"ID_DS":88,"CODDEP":" ","CODCUENCA":"2615","CODDS":88,"TIPO":" ","NOMBRE":"Q. Grande, Rodas","ORDEN":" ","N_ORDEN":5,"FP":15,"Shape_Leng":29.8040341071,"ORD_STRAHL":2,"FR_STRAHLE":15,"ZPHA":10,"ZPS":15,"OBJECTID_1":6,"Shape_Length":29.800935335091438}},{"type":"Feature","id":7,"geometry":{"type":"LineString","coordinates":[[-75.65203,5.46376],[-75.65223,5.46353],[-75.65225,5.46338],[-75.6523,5.4631],[-75.65237,5.46286],[-75.65241,5.46242],[-75.65247,5.46217],[-75.65254,5.46198],[-75.65265,5.46177]]},"properties":{"OBJECTID":31850,"ID_DS":88,"CODDEP":" ","CODCUENCA":"2615","CODDS":88,"TIPO":" ","NOMBRE":"Q. Grande, Rodas","ORDEN":" ","N_ORDEN":4,"FP":20,"Shape_Leng":235.792644091,"ORD_STRAHL":1,"FR_STRAHLE":15,"ZPHA":10,"ZPS":15,"OBJECTID_1":7,"Shape_Length":235.76709840768234}},{"type":"Feature","id":8,"geometry":{"type":"LineString","coordinates":[[-75.65265,5.46177],[-75.65271,5.46175],[-75.65276,5.4617],[-75.65283,5.4616],[-75.6529,5.4615],[-75.65296,5.46141],[-75.653,5.46133],[-75.65305,5.46128],[-75.65309,5.46122],[-75.65315,5.46115],[-75.65321,5.4611],[-75.65322,5.46106],[-75.65325,5.46099],[-75.65327,5.46095]]},"properties":{"OBJECTID":31846,"ID_DS":88,"CODDEP":" ","CODCUENCA":"2615","CODDS":88,"TIPO":" ","NOMBRE":" Q. Grande, Rodas","ORDEN":" ","N_ORDEN":4,"FP":20,"Shape_Leng":115.604917761,"ORD_STRAHL":2,"FR_STRAHLE":15,"ZPHA":10,"ZPS":15,"OBJECTID_1":8,"Shape_Length":115.59253387373435}},{"type":"Feature","id":9,"geometry":{"type":"LineString","coordinates":[[-75.65337,5.46216],[-75.65336,5.46172],[-75.65336,5.46158],[-75.65336,5.46139],[-75.65334,5.46127],[-75.6533,5.46108],[-75.65329,5.461],[-75.65327,5.46095]]},"properties":{"OBJECTID":31847,"ID_DS":88,"CODDEP":" ","CODCUENCA":"2615","CODDS":88,"TIPO":" ","NOMBRE":" ","ORDEN":" ","N_ORDEN":5,"FP":15,"Shape_Leng":134.449614285,"ORD_STRAHL":1,"FR_STRAHLE":15,"ZPHA":10,"ZPS":15,"OBJECTID_1":9,"Shape_Length":134.43502175390344}},{"type":"Feature","id":10,"geometry":{"type":"LineString","coordinates":[[-75.65458,5.46193],[-75.65472,5.46172],[-75.65472,5.46162],[-75.65472,5.46153],[-75.65463,5.46148],[-75.6546,5.46144],[-75.65454,5.46141],[-75.65446,5.46134],[-75.65443,5.46129],[-75.65433,5.46111],[-75.65432,5.46107],[-75.65428,5.46098],[-75.65419,5.46086],[-75.65411,5.4608],[-75.65396,5.46072],[-75.65388,5.46068],[-75.65383,5.46065],[-75.65377,5.46055],[-75.65377,5.46053],[-75.65376,5.4605],[-75.65376,5.46047],[-75.65376,5.46043],[-75.65378,5.4604],[-75.65381,5.46039],[-75.65388,5.46037],[-75.65394,5.46038],[-75.65401,5.46038],[-75.65407,5.46036],[-75.6541,5.46035],[-75.65416,5.46032],[-75.6542,5.46027],[-75.6542,5.46026],[-75.6542,5.46022],[-75.65421,5.46017],[-75.6542,5.46009],[-75.6542,5.46008],[-75.65417,5.46004],[-75.65417,5.45994],[-75.65417,5.45986],[-75.65417,5.45985],[-75.65417,5.45981],[-75.65417,5.45979],[-75.65416,5.45975],[-75.65413,5.45964],[-75.6541,5.45956],[-75.65409,5.45953]]},"properties":{"OBJECTID":207,"ID_DS":0,"CODDEP":" ","CODCUENCA":" ","CODDS":0,"TIPO":" ","NOMBRE":" ","ORDEN":"3","N_ORDEN":3,"FP":20,"Shape_Leng":357.706963139,"ORD_STRAHL":3,"FR_STRAHLE":20,"ZPHA":15,"ZPS":20,"OBJECTID_1":10,"Shape_Length":357.6680989240858}},{"type":"Feature","id":11,"geometry":{"type":"LineString","coordinates":[[-75.65409,5.45953],[-75.65404,5.45931],[-75.65404,5.45928],[-75.65407,5.45919],[-75.65413,5.45911],[-75.65415,5.45906],[-75.65417,5.459],[-75.65418,5.45893],[-75.65418,5.45887],[-75.65416,5.45881],[-75.65412,5.45874],[-75.65409,5.45871],[-75.65406,5.45868]]},"properties":{"OBJECTID":207,"ID_DS":0,"CODDEP":" ","CODCUENCA":" ","CODDS":0,"TIPO":" ","NOMBRE":" ","ORDEN":"3","N_ORDEN":3,"FP":20,"Shape_Leng":102.994001774,"ORD_STRAHL":3,"FR_STRAHLE":20,"ZPHA":15,"ZPS":20,"OBJECTID_1":11,"Shape_Length":102.98291932706597}},{"type":"Feature","id":12,"geometry":{"type":"LineString","coordinates":[[-75.65536,5.4585],[-75.65481,5.45862],[-75.65447,5.45867],[-75.65428,5.4587],[-75.65406,5.45868]]},"properties":{"OBJECTID":213,"ID_DS":0,"CODDEP":" ","CODCUENCA":"2617","CODDS":0,"TIPO":" ","NOMBRE":" ","ORDEN":"2","N_ORDEN":2,"FP":30,"Shape_Leng":146.209952172,"ORD_STRAHL":5,"FR_STRAHLE":30,"ZPHA":20,"ZPS":30,"OBJECTID_1":12,"Shape_Length":146.19419574552126}},{"type":"Feature","id":13,"geometry":{"type":"LineString","coordinates":[[-75.65406,5.45868],[-75.65397,5.45867],[-75.65386,5.45864],[-75.65379,5.45857],[-75.65372,5.45848]]},"properties":{"OBJECTID":213,"ID_DS":0,"CODDEP":" ","CODCUENCA":"2617","CODDS":0,"TIPO":" ","NOMBRE":" ","ORDEN":"2","N_ORDEN":2,"FP":30,"Shape_Leng":45.9218169956,"ORD_STRAHL":5,"FR_STRAHLE":30,"ZPHA":20,"ZPS":30,"OBJECTID_1":13,"Shape_Length":45.91689903319812}},{"type":"Feature","id":14,"geometry":{"type":"LineString","coordinates":[[-75.64764,5.46614],[-75.64766,5.46604],[-75.64768,5.46599],[-75.64772,5.46596],[-75.64777,5.46594],[-75.64787,5.46594],[-75.64796,5.46596],[-75.64806,5.46596],[-75.64811,5.46594],[-75.64816,5.46589],[-75.64816,5.46581],[-75.64816,5.46565],[-75.64821,5.46551],[-75.64827,5.46541],[-75.64842,5.46527],[-75.64853,5.46523],[-75.64864,5.46517],[-75.64884,5.46511],[-75.64896,5.46505],[-75.64904,5.465],[-75.64908,5.46494],[-75.64913,5.4649],[-75.64914,5.46487],[-75.64915,5.46481],[-75.64913,5.46472],[-75.64913,5.46455],[-75.64918,5.46444],[-75.6492,5.4644],[-75.64924,5.46438],[-75.64928,5.46439],[-75.64932,5.46439],[-75.64936,5.46438],[-75.64947,5.46433],[-75.64955,5.46429],[-75.64958,5.46425],[-75.64961,5.46417],[-75.64965,5.46401],[-75.6497,5.46392],[-75.64976,5.4638],[-75.6499,5.46362],[-75.64999,5.46356],[-75.65005,5.46353],[-75.65014,5.4635],[-75.65021,5.46346],[-75.65025,5.46341],[-75.65026,5.46339],[-75.6503,5.46323],[-75.65029,5.46299],[-75.65028,5.46278],[-75.65022,5.46272],[-75.65014,5.46268],[-75.65006,5.46261],[-75.65002,5.46252],[-75.64999,5.46244],[-75.65,5.46241],[-75.65009,5.46236],[-75.65016,5.4623],[-75.65026,5.46228],[-75.65037,5.46227],[-75.65043,5.46226],[-75.65048,5.46224],[-75.65052,5.4622],[-75.65057,5.46209],[-75.65058,5.462],[-75.65051,5.46182],[-75.65045,5.46175],[-75.65039,5.46166],[-75.65038,5.4616],[-75.65038,5.46156],[-75.65039,5.4615],[-75.65044,5.46146],[-75.65056,5.46139],[-75.65066,5.46134],[-75.65075,5.46134],[-75.65089,5.46141],[-75.65102,5.46147],[-75.65109,5.46148],[-75.65116,5.46146],[-75.65119,5.46143],[-75.65122,5.46139],[-75.65122,5.46133],[-75.65121,5.46128],[-75.65117,5.46122],[-75.65114,5.46115],[-75.65114,5.46109],[-75.65116,5.46101],[-75.65122,5.46092],[-75.65134,5.46085],[-75.65155,5.46081],[-75.6518,5.46085],[-75.65198,5.46087],[-75.65209,5.46082],[-75.65215,5.46068],[-75.65216,5.46055],[-75.65217,5.46043],[-75.65221,5.46028],[-75.65221,5.46027],[-75.65226,5.46006],[-75.65235,5.45988],[-75.65244,5.45976],[-75.65256,5.45966],[-75.65264,5.45963],[-75.65277,5.4596],[-75.65292,5.45955],[-75.65309,5.45943],[-75.65318,5.45935],[-75.65321,5.45931],[-75.65323,5.45924],[-75.65327,5.45909],[-75.65329,5.45905],[-75.65333,5.45902],[-75.65339,5.45897],[-75.65354,5.45884],[-75.65359,5.45879],[-75.65363,5.45877],[-75.65366,5.45874],[-75.65368,5.45869],[-75.65367,5.45866],[-75.65367,5.45862],[-75.65368,5.45859],[-75.6537,5.45857],[-75.65372,5.45848]]},"properties":{"OBJECTID":208,"ID_DS":0,"CODDEP":" ","CODCUENCA":"2617","CODDS":0,"TIPO":" ","NOMBRE":" ","ORDEN":"3","N_ORDEN":3,"FP":0,"Shape_Leng":1347.69533525,"ORD_STRAHL":4,"FR_STRAHLE":20,"ZPHA":15,"ZPS":20,"OBJECTID_1":14,"Shape_Length":1347.5483787937223}},{"type":"Feature","id":15,"geometry":{"type":"LineString","coordinates":[[-75.65471,5.45345],[-75.65457,5.45341],[-75.65452,5.45338],[-75.65443,5.45334],[-75.65432,5.4533],[-75.65426,5.45328],[-75.6542,5.45323],[-75.65417,5.45319],[-75.65412,5.45313],[-75.65406,5.45307],[-75.65402,5.45304],[-75.65388,5.453],[-75.6538,5.45301],[-75.65371,5.45302]]},"properties":{"OBJECTID":31826,"ID_DS":88,"CODDEP":" ","CODCUENCA":"2615","CODDS":88,"TIPO":" ","NOMBRE":" ","ORDEN":" ","N_ORDEN":4,"FP":20,"Shape_Leng":126.387794145,"ORD_STRAHL":1,"FR_STRAHLE":15,"ZPHA":10,"ZPS":15,"OBJECTID_1":15,"Shape_Length":126.37431214179952}},{"type":"Feature","id":16,"geometry":{"type":"LineString","coordinates":[[-75.65371,5.45302],[-75.6537,5.45296],[-75.6537,5.45289],[-75.65369,5.4528],[-75.65365,5.45266]]},"properties":{"OBJECTID":31827,"ID_DS":88,"CODDEP":" ","CODCUENCA":"2615","CODDS":88,"TIPO":" ","NOMBRE":" ","ORDEN":" ","N_ORDEN":3,"FP":20,"Shape_Leng":41.1242165642,"ORD_STRAHL":2,"FR_STRAHLE":15,"ZPHA":10,"ZPS":15,"OBJECTID_1":16,"Shape_Length":41.11980036821595}},{"type":"Feature","id":17,"geometry":{"type":"LineString","coordinates":[[-75.65498,5.45414],[-75.65473,5.45405],[-75.65455,5.45405],[-75.6544,5.45399],[-75.65424,5.45394],[-75.65399,5.45385],[-75.65385,5.45377],[-75.65385,5.45369],[-75.65381,5.45357],[-75.6538,5.45333],[-75.65376,5.45322],[-75.65373,5.4531],[-75.65372,5.45305],[-75.65371,5.45302]]},"properties":{"OBJECTID":31827,"ID_DS":88,"CODDEP":" ","CODCUENCA":"2615","CODDS":88,"TIPO":" ","NOMBRE":" ","ORDEN":" ","N_ORDEN":3,"FP":20,"Shape_Leng":217.716994722,"ORD_STRAHL":1,"FR_STRAHLE":15,"ZPHA":10,"ZPS":15,"OBJECTID_1":17,"Shape_Length":217.69356230259774}},{"type":"Feature","id":18,"geometry":{"type":"LineString","coordinates":[[-75.65372,5.45848],[-75.65366,5.45841],[-75.65358,5.45823],[-75.65352,5.45806],[-75.65352,5.45806],[-75.65347,5.45783],[-75.65348,5.4575],[-75.65353,5.45733],[-75.65378,5.457],[-75.6539,5.45682],[-75.65394,5.45673],[-75.65395,5.45669],[-75.65396,5.45661],[-75.65395,5.45653],[-75.65389,5.45646],[-75.6538,5.45638],[-75.65366,5.45627],[-75.65357,5.4562],[-75.6534,5.45601],[-75.65339,5.45599],[-75.65332,5.45586],[-75.65325,5.45569],[-75.65322,5.45552],[-75.65321,5.45544],[-75.65317,5.45512],[-75.65314,5.45456],[-75.65318,5.45443],[-75.65327,5.45423],[-75.65331,5.45407],[-75.65332,5.45402],[-75.65339,5.45391],[-75.65342,5.45377],[-75.65346,5.45363],[-75.65355,5.45327],[-75.65358,5.45316],[-75.65363,5.45292],[-75.65364,5.45285],[-75.65365,5.45266]]},"properties":{"OBJECTID":213,"ID_DS":0,"CODDEP":" ","CODCUENCA":"2617","CODDS":0,"TIPO":" ","NOMBRE":" ","ORDEN":"2","N_ORDEN":2,"FP":30,"Shape_Leng":705.771169089,"ORD_STRAHL":5,"FR_STRAHLE":30,"ZPHA":20,"ZPS":30,"OBJECTID_1":18,"Shape_Length":705.6951068504153}},{"type":"Feature","id":19,"geometry":{"type":"LineString","coordinates":[[-75.65365,5.45266],[-75.65373,5.45225],[-75.65385,5.45192],[-75.65401,5.45154],[-75.65438,5.45092],[-75.65452,5.45071],[-75.65465,5.45047],[-75.65468,5.4503],[-75.65468,5.4503],[-75.65466,5.45015],[-75.65453,5.45006],[-75.65436,5.45],[-75.65427,5.44997],[-75.65399,5.44983],[-75.65383,5.44971],[-75.65381,5.44969],[-75.6536,5.44953],[-75.65345,5.44932],[-75.65342,5.44923],[-75.65339,5.44915],[-75.65336,5.44875],[-75.65331,5.44842],[-75.65328,5.44806],[-75.65329,5.44793],[-75.6533,5.44787],[-75.65332,5.44768],[-75.65333,5.44756],[-75.6533,5.4474],[-75.65328,5.44731]]},"properties":{"OBJECTID":213,"ID_DS":0,"CODDEP":" ","CODCUENCA":"2617","CODDS":0,"TIPO":" ","NOMBRE":" ","ORDEN":"2","N_ORDEN":2,"FP":30,"Shape_Leng":694.593513074,"ORD_STRAHL":5,"FR_STRAHLE":30,"ZPHA":20,"ZPS":30,"OBJECTID_1":19,"Shape_Length":694.5186955279828}},{"type":"Feature","id":20,"geometry":{"type":"LineString","coordinates":[[-75.65407,5.45057],[-75.65392,5.45027],[-75.65383,5.45013],[-75.65366,5.44994],[-75.65353,5.44975],[-75.65345,5.44964],[-75.65337,5.44954],[-75.65334,5.44946],[-75.65328,5.4494]]},"properties":{"OBJECTID":31820,"ID_DS":88,"CODDEP":" ","CODCUENCA":"2615","CODDS":88,"TIPO":" ","NOMBRE":" ","ORDEN":" ","N_ORDEN":4,"FP":20,"Shape_Leng":157.300099331,"ORD_STRAHL":1,"FR_STRAHLE":15,"ZPHA":10,"ZPS":15,"OBJECTID_1":20,"Shape_Length":157.28309383070547}},{"type":"Feature","id":21,"geometry":{"type":"LineString","coordinates":[[-75.65326,5.45183],[-75.65317,5.4514],[-75.65315,5.45115],[-75.65313,5.45079],[-75.65311,5.4504],[-75.65319,5.45019],[-75.65322,5.44985],[-75.65322,5.44976],[-75.65325,5.44967],[-75.65328,5.44951],[-75.6533,5.44946],[-75.65328,5.4494]]},"properties":{"OBJECTID":31824,"ID_DS":88,"CODDEP":" ","CODCUENCA":"2615","CODDS":88,"TIPO":" ","NOMBRE":" ","ORDEN":" ","N_ORDEN":3,"FP":20,"Shape_Leng":273.501968759,"ORD_STRAHL":1,"FR_STRAHLE":15,"ZPHA":10,"ZPS":15,"OBJECTID_1":21,"Shape_Length":273.4724923758826}},{"type":"Feature","id":22,"geometry":{"type":"LineString","coordinates":[[-75.65328,5.4494],[-75.65294,5.44885],[-75.65282,5.44874],[-75.65279,5.44853],[-75.65279,5.44844],[-75.65282,5.44832],[-75.65284,5.44822],[-75.65285,5.44812],[-75.65294,5.44793],[-75.65294,5.44782],[-75.65303,5.44766],[-75.65309,5.44753],[-75.65316,5.44744],[-75.65328,5.44731]]},"properties":{"OBJECTID":31784,"ID_DS":88,"CODDEP":" ","CODCUENCA":"2615","CODDS":88,"TIPO":" ","NOMBRE":" ","ORDEN":" ","N_ORDEN":3,"FP":20,"Shape_Leng":261.676797604,"ORD_STRAHL":2,"FR_STRAHLE":15,"ZPHA":10,"ZPS":15,"OBJECTID_1":22,"Shape_Length":261.64859637548983}},{"type":"Feature","id":23,"geometry":{"type":"LineString","coordinates":[[-75.65328,5.44731],[-75.65325,5.44721],[-75.65311,5.44674],[-75.65307,5.44658],[-75.65298,5.44626],[-75.65295,5.44604],[-75.65293,5.44591],[-75.65296,5.44564],[-75.65299,5.44523],[-75.65307,5.44491],[-75.65307,5.44476],[-75.65305,5.44459],[-75.65299,5.4445],[-75.6527,5.44433],[-75.65224,5.44411],[-75.65204,5.44396],[-75.65192,5.44385],[-75.6518,5.44365],[-75.65166,5.44338],[-75.65158,5.44307],[-75.65156,5.44276],[-75.65155,5.44269],[-75.65161,5.44235],[-75.65163,5.44225],[-75.65165,5.44215],[-75.65173,5.442],[-75.6518,5.44191],[-75.65186,5.44181],[-75.65188,5.44172],[-75.65185,5.44164],[-75.65168,5.44148],[-75.6514,5.44114],[-75.65128,5.44098],[-75.65111,5.44073],[-75.65095,5.4405],[-75.65072,5.43994],[-75.65063,5.43972],[-75.65059,5.43948],[-75.65057,5.4392],[-75.65057,5.43911],[-75.65058,5.43888],[-75.65063,5.43847],[-75.65074,5.43819],[-75.65088,5.43791],[-75.65097,5.4378],[-75.65106,5.43774],[-75.65133,5.43763],[-75.65162,5.43752],[-75.65168,5.43749],[-75.65175,5.43746],[-75.65182,5.43738],[-75.65182,5.43728],[-75.65183,5.43701],[-75.65186,5.43667],[-75.65198,5.43613],[-75.65209,5.4356],[-75.65214,5.43522],[-75.65216,5.43496],[-75.65216,5.43496],[-75.65218,5.43464],[-75.65218,5.43451],[-75.65214,5.4344],[-75.65207,5.43428],[-75.65199,5.4342],[-75.65187,5.43409],[-75.65166,5.43392],[-75.65144,5.43366],[-75.6512,5.43327],[-75.65097,5.4329],[-75.65088,5.43264],[-75.65084,5.43225],[-75.65089,5.43187],[-75.6509,5.43178],[-75.65092,5.43163],[-75.65098,5.43137],[-75.65098,5.43121],[-75.65097,5.43106],[-75.65095,5.43093],[-75.65091,5.43088]]},"properties":{"OBJECTID":213,"ID_DS":0,"CODDEP":" ","CODCUENCA":"2617","CODDS":0,"TIPO":" ","NOMBRE":" ","ORDEN":"2","N_ORDEN":2,"FP":30,"Shape_Leng":2079.08586947,"ORD_STRAHL":5,"FR_STRAHLE":30,"ZPHA":20,"ZPS":30,"OBJECTID_1":23,"Shape_Length":2078.8602927483507}},{"type":"Feature","id":24,"geometry":{"type":"LineString","coordinates":[[-75.65456,5.43959],[-75.65449,5.43945],[-75.65445,5.43937],[-75.65439,5.43927],[-75.65438,5.43922],[-75.65436,5.43915],[-75.65432,5.43906],[-75.65425,5.43899],[-75.6542,5.43897],[-75.65411,5.439],[-75.65409,5.43901],[-75.65405,5.43902],[-75.654,5.43901],[-75.65394,5.43898],[-75.65392,5.43896],[-75.6539,5.43894],[-75.6539,5.43892],[-75.65391,5.4389],[-75.65392,5.43887],[-75.65392,5.43884],[-75.65392,5.43882],[-75.65391,5.43878],[-75.65387,5.43875],[-75.65385,5.43874],[-75.65382,5.43874],[-75.6538,5.43871],[-75.65381,5.43869],[-75.65384,5.43867],[-75.65384,5.43864],[-75.65384,5.43861],[-75.65384,5.43856],[-75.65386,5.43852],[-75.65383,5.43848],[-75.65379,5.43847],[-75.65377,5.43849],[-75.65373,5.4385],[-75.6537,5.43847],[-75.65368,5.43844],[-75.65363,5.43841],[-75.6536,5.43841],[-75.65356,5.4384],[-75.65355,5.43839],[-75.65355,5.43836],[-75.6535,5.43826],[-75.65348,5.43818],[-75.65347,5.43814],[-75.6535,5.43805],[-75.6535,5.43802],[-75.6535,5.438],[-75.65342,5.438],[-75.65337,5.43802],[-75.65335,5.43805],[-75.65333,5.43809],[-75.65328,5.4381],[-75.65324,5.43807],[-75.65321,5.43803],[-75.65319,5.43799],[-75.65319,5.43796],[-75.65322,5.43794],[-75.65326,5.43791],[-75.65329,5.43788],[-75.6533,5.43786],[-75.6533,5.43783],[-75.6533,5.43778],[-75.65334,5.43773],[-75.6534,5.4377],[-75.65343,5.43769],[-75.65345,5.43764],[-75.65346,5.4376],[-75.65348,5.43756],[-75.65349,5.43753],[-75.6535,5.43749],[-75.6535,5.43745],[-75.65347,5.43744],[-75.65343,5.43743],[-75.65341,5.4374],[-75.65339,5.43737],[-75.65333,5.43726],[-75.65329,5.43715],[-75.65329,5.43706],[-75.65327,5.43698],[-75.65324,5.43681],[-75.65325,5.43676],[-75.65327,5.43669],[-75.65328,5.43665],[-75.65328,5.43659],[-75.65331,5.43651],[-75.65332,5.43648],[-75.65331,5.43645],[-75.65328,5.43644],[-75.65324,5.43645],[-75.65321,5.43643],[-75.65318,5.43635],[-75.65315,5.43626],[-75.65315,5.43621],[-75.65313,5.43617],[-75.6531,5.43612],[-75.65302,5.43605],[-75.65294,5.436],[-75.6529,5.43598],[-75.65287,5.43596],[-75.65287,5.43594],[-75.65287,5.43593],[-75.6529,5.43593],[-75.65295,5.43592],[-75.65302,5.43593],[-75.65308,5.43593],[-75.65315,5.43592],[-75.6532,5.4359],[-75.65321,5.43589],[-75.65326,5.43585],[-75.6533,5.43581],[-75.65337,5.43574],[-75.6534,5.43572],[-75.65343,5.43571],[-75.65347,5.4357],[-75.65354,5.43564],[-75.65362,5.43555],[-75.65363,5.43552],[-75.65363,5.43548],[-75.65364,5.4354],[-75.65367,5.43536],[-75.65371,5.43537],[-75.65375,5.43542],[-75.65379,5.43544],[-75.65384,5.43546],[-75.65388,5.43543],[-75.65388,5.43539],[-75.65386,5.43534],[-75.65384,5.4353],[-75.65383,5.43526],[-75.65384,5.43522],[-75.65384,5.43519],[-75.65382,5.43513],[-75.6538,5.43509],[-75.65382,5.43505],[-75.65392,5.43506],[-75.654,5.4351],[-75.65404,5.43512],[-75.65409,5.43512],[-75.65409,5.43505],[-75.65408,5.43502],[-75.65408,5.435],[-75.65409,5.43498],[-75.6541,5.43496],[-75.6541,5.43495],[-75.65409,5.43493],[-75.65408,5.43491],[-75.65406,5.43491],[-75.65403,5.43491],[-75.65402,5.43491],[-75.654,5.43489],[-75.65398,5.43485],[-75.65396,5.43481],[-75.65396,5.43476],[-75.65398,5.43473],[-75.654,5.4347],[-75.65401,5.4347],[-75.65403,5.4347],[-75.65406,5.4347],[-75.65408,5.4347],[-75.6541,5.43468],[-75.65411,5.43465],[-75.65411,5.43463],[-75.6541,5.4346],[-75.65405,5.4346],[-75.65403,5.43459],[-75.65399,5.43458],[-75.65394,5.43457],[-75.65391,5.43453],[-75.65387,5.43449],[-75.65385,5.43444],[-75.65385,5.43442],[-75.65388,5.43439],[-75.65389,5.43437],[-75.6539,5.43433],[-75.6539,5.43431],[-75.65392,5.43426],[-75.65397,5.43424],[-75.65399,5.43421],[-75.65401,5.43419],[-75.65403,5.43417],[-75.65409,5.43414],[-75.65419,5.43413],[-75.65422,5.43413],[-75.65427,5.43413],[-75.65428,5.4341],[-75.65429,5.43407],[-75.65427,5.43401],[-75.65425,5.43393],[-75.65424,5.4339],[-75.65424,5.43385],[-75.65424,5.43375],[-75.65425,5.43364],[-75.6542,5.43356],[-75.65419,5.43354],[-75.65419,5.43348],[-75.6542,5.43342],[-75.6542,5.43337],[-75.65419,5.43332],[-75.65416,5.43328],[-75.6541,5.43326],[-75.65407,5.43326],[-75.65402,5.43325],[-75.65388,5.43322],[-75.65359,5.43311],[-75.65343,5.43303],[-75.65319,5.43293],[-75.65311,5.43289],[-75.65301,5.43283],[-75.65279,5.43275],[-75.65271,5.43271],[-75.65262,5.43266],[-75.6526,5.4326],[-75.65259,5.43253],[-75.65258,5.43249],[-75.65255,5.43243],[-75.65243,5.43234],[-75.6524,5.43231],[-75.65239,5.43225],[-75.6524,5.43217],[-75.65239,5.43213],[-75.65238,5.43207],[-75.65236,5.43204],[-75.65235,5.43201],[-75.65234,5.43199]]},"properties":{"OBJECTID":214,"ID_DS":0,"CODDEP":" ","CODCUENCA":" ","CODDS":0,"TIPO":" ","NOMBRE":" ","ORDEN":" ","N_ORDEN":3,"FP":20,"Shape_Leng":1356.44272829,"ORD_STRAHL":3,"FR_STRAHLE":20,"ZPHA":15,"ZPS":20,"OBJECTID_1":24,"Shape_Length":1356.2967670035769}},{"type":"Feature","id":25,"geometry":{"type":"LineString","coordinates":[[-75.65408,5.43207],[-75.654,5.43199],[-75.65391,5.43193],[-75.65377,5.43188],[-75.65367,5.43187],[-75.65358,5.43188],[-75.65348,5.43192],[-75.65339,5.4319],[-75.65325,5.43186],[-75.65309,5.43182],[-75.65296,5.43179],[-75.65289,5.43179],[-75.65277,5.43182],[-75.6526,5.43191],[-75.65248,5.43194],[-75.65234,5.43199]]},"properties":{"OBJECTID":0,"ID_DS":0,"CODDEP":" ","CODCUENCA":" ","CODDS":0,"TIPO":" ","NOMBRE":" ","ORDEN":" ","N_ORDEN":0,"FP":0,"Shape_Leng":206.078972768,"ORD_STRAHL":3,"FR_STRAHLE":20,"ZPHA":15,"ZPS":20,"OBJECTID_1":25,"Shape_Length":206.05692098053945}},{"type":"Feature","id":26,"geometry":{"type":"LineString","coordinates":[[-75.65234,5.43199],[-75.65226,5.43197],[-75.65218,5.43186],[-75.65215,5.43171],[-75.6521,5.43138],[-75.65207,5.43129],[-75.65202,5.43123],[-75.65187,5.43111],[-75.65171,5.431],[-75.65159,5.43091],[-75.65154,5.43085],[-75.65145,5.43078],[-75.65141,5.43076],[-75.65134,5.43073],[-75.65127,5.43073],[-75.65116,5.43077],[-75.65103,5.43082],[-75.65091,5.43088]]},"properties":{"OBJECTID":214,"ID_DS":0,"CODDEP":" ","CODCUENCA":" ","CODDS":0,"TIPO":" ","NOMBRE":" ","ORDEN":" ","N_ORDEN":3,"FP":20,"Shape_Leng":242.608550141,"ORD_STRAHL":3,"FR_STRAHLE":20,"ZPHA":15,"ZPS":20,"OBJECTID_1":26,"Shape_Length":242.5821947681118}},{"type":"Feature","id":27,"geometry":{"type":"LineString","coordinates":[[-75.65091,5.43088],[-75.65076,5.43085],[-75.6506,5.43086],[-75.65041,5.4309],[-75.65023,5.43097],[-75.65001,5.43105],[-75.64994,5.43108],[-75.64982,5.43108],[-75.64976,5.43104],[-75.64962,5.43096],[-75.64943,5.43077],[-75.64934,5.43063],[-75.64909,5.4303],[-75.64898,5.43007],[-75.64895,5.43001],[-75.64887,5.42977],[-75.64879,5.42957],[-75.64868,5.42921],[-75.64864,5.42901],[-75.64863,5.42871]]},"properties":{"OBJECTID":213,"ID_DS":0,"CODDEP":" ","CODCUENCA":"2617","CODDS":0,"TIPO":" ","NOMBRE":" ","ORDEN":"2","N_ORDEN":2,"FP":30,"Shape_Leng":430.500269603,"ORD_STRAHL":5,"FR_STRAHLE":30,"ZPHA":20,"ZPS":30,"OBJECTID_1":27,"Shape_Length":430.4531041053921}},{"type":"Feature","id":28,"geometry":{"type":"LineString","coordinates":[[-75.64863,5.42871],[-75.64861,5.42848]]},"properties":{"OBJECTID":213,"ID_DS":0,"CODDEP":" ","CODCUENCA":"2617","CODDS":0,"TIPO":" ","NOMBRE":" ","ORDEN":"2","N_ORDEN":2,"FP":30,"Shape_Leng":25.5717029747,"ORD_STRAHL":6,"FR_STRAHLE":30,"ZPHA":20,"ZPS":30,"OBJECTID_1":28,"Shape_Length":25.568832692660944}},{"type":"Feature","id":29,"geometry":{"type":"LineString","coordinates":[[-75.64431,5.43576],[-75.64441,5.43575],[-75.64453,5.43569],[-75.64459,5.43561],[-75.64461,5.43555],[-75.64463,5.43551],[-75.64472,5.43551],[-75.64482,5.43551],[-75.64504,5.4354],[-75.6452,5.43526],[-75.6452,5.43512],[-75.64519,5.43503],[-75.64521,5.43494],[-75.64534,5.43491],[-75.64545,5.43494],[-75.64554,5.43496],[-75.64563,5.43488],[-75.64563,5.43486],[-75.64566,5.43474],[-75.64571,5.43465],[-75.6458,5.43463],[-75.64599,5.43467],[-75.64611,5.43469],[-75.64619,5.43469],[-75.64625,5.43467],[-75.64626,5.4346],[-75.64635,5.43458],[-75.64639,5.43454],[-75.64639,5.43449],[-75.64644,5.43445],[-75.64651,5.43442],[-75.64651,5.43441],[-75.64661,5.43434],[-75.64669,5.43426],[-75.64675,5.43416]]},"properties":{"OBJECTID":0,"ID_DS":0,"CODDEP":" ","CODCUENCA":" ","CODDS":0,"TIPO":" ","NOMBRE":" ","ORDEN":" ","N_ORDEN":0,"FP":0,"Shape_Leng":381.383255731,"ORD_STRAHL":1,"FR_STRAHLE":15,"ZPHA":10,"ZPS":15,"OBJECTID_1":29,"Shape_Length":381.34132607231953}},{"type":"Feature","id":30,"geometry":{"type":"LineString","coordinates":[[-75.64675,5.43416],[-75.64675,5.43404],[-75.64677,5.43396],[-75.6468,5.43389],[-75.64685,5.43383],[-75.64688,5.4338],[-75.64691,5.43378],[-75.64692,5.43378],[-75.64694,5.43377],[-75.64701,5.43377],[-75.64705,5.43379],[-75.64708,5.43383],[-75.6471,5.43387],[-75.64711,5.43391],[-75.64713,5.43395],[-75.64716,5.43399],[-75.64719,5.43402],[-75.64722,5.43405],[-75.64726,5.43407],[-75.64729,5.43407],[-75.64733,5.43406],[-75.64736,5.43403],[-75.64738,5.43398],[-75.64739,5.43397],[-75.6474,5.43394],[-75.64741,5.4339],[-75.64742,5.43385],[-75.64742,5.43377],[-75.64742,5.4337],[-75.64742,5.43365],[-75.64739,5.43354],[-75.64739,5.43346],[-75.6474,5.43336],[-75.64739,5.43328],[-75.64739,5.43325],[-75.64739,5.43322],[-75.64738,5.43318],[-75.64737,5.43313],[-75.64736,5.4331],[-75.64735,5.43304],[-75.64735,5.43301],[-75.64735,5.433],[-75.64734,5.43298],[-75.64732,5.43295],[-75.64729,5.43287],[-75.64728,5.43284],[-75.64725,5.43276],[-75.64723,5.43272],[-75.64723,5.43268],[-75.64724,5.43265],[-75.64726,5.43262],[-75.64727,5.43259],[-75.64727,5.43257],[-75.64727,5.43254],[-75.64725,5.4325],[-75.64724,5.43248],[-75.64724,5.43247],[-75.64723,5.43245],[-75.64724,5.43242],[-75.64723,5.43238],[-75.64721,5.43235],[-75.64719,5.43231],[-75.64716,5.43225],[-75.64714,5.43222],[-75.64714,5.43219],[-75.64714,5.43216],[-75.64715,5.43213],[-75.64719,5.43211],[-75.64723,5.4321],[-75.64728,5.43213],[-75.64734,5.43219],[-75.64738,5.43224],[-75.64742,5.43228],[-75.64747,5.43231],[-75.64751,5.43232],[-75.64756,5.43232],[-75.6476,5.4323],[-75.64764,5.43228],[-75.64768,5.43224],[-75.64776,5.43216],[-75.64779,5.43211],[-75.64783,5.43205],[-75.64797,5.43194],[-75.6481,5.4319],[-75.64822,5.43182],[-75.64829,5.43177],[-75.64832,5.43171],[-75.64836,5.43165],[-75.64838,5.43159],[-75.64838,5.43155],[-75.64837,5.4315],[-75.64834,5.43143],[-75.64828,5.4313],[-75.64823,5.4312],[-75.64819,5.43113],[-75.64815,5.43102],[-75.64813,5.43091],[-75.64813,5.43087],[-75.64814,5.4308],[-75.64815,5.43077],[-75.64817,5.43075],[-75.64821,5.43072],[-75.64827,5.43068],[-75.64834,5.43064],[-75.64839,5.4306],[-75.64842,5.43057],[-75.64845,5.43052],[-75.64846,5.43048],[-75.64846,5.43045],[-75.64842,5.43039],[-75.64836,5.43035],[-75.64828,5.43031],[-75.64822,5.43026],[-75.64811,5.43021],[-75.64809,5.43018],[-75.64809,5.43014],[-75.64812,5.4301],[-75.64812,5.43009],[-75.64821,5.43005],[-75.64824,5.43003],[-75.64831,5.42995],[-75.64835,5.4299],[-75.64835,5.42984],[-75.64833,5.42978],[-75.64832,5.42969],[-75.64831,5.42964],[-75.64832,5.42957],[-75.64834,5.4295],[-75.64837,5.42941],[-75.64843,5.42932],[-75.64846,5.42928],[-75.6485,5.42919],[-75.64851,5.42915],[-75.64851,5.42908],[-75.6485,5.42902],[-75.64849,5.42892],[-75.64852,5.42882],[-75.64863,5.42871]]},"properties":{"OBJECTID":187,"ID_DS":0,"CODDEP":" ","CODCUENCA":" ","CODDS":0,"TIPO":" ","NOMBRE":" ","ORDEN":"3","N_ORDEN":3,"FP":20,"Shape_Leng":904.089785057,"ORD_STRAHL":5,"FR_STRAHLE":20,"ZPHA":20,"ZPS":30,"OBJECTID_1":30,"Shape_Length":903.9903506562314}},{"type":"Feature","id":31,"geometry":{"type":"LineString","coordinates":[[-75.64434,5.4413],[-75.64439,5.4412],[-75.64451,5.44109],[-75.64458,5.44102],[-75.64467,5.44097],[-75.64469,5.44094],[-75.64469,5.44091],[-75.64475,5.44077],[-75.64484,5.44066],[-75.64498,5.44054],[-75.64505,5.44044],[-75.64508,5.44038],[-75.64513,5.4403],[-75.64527,5.44024],[-75.64538,5.44017],[-75.64555,5.44005],[-75.64563,5.43999],[-75.6458,5.43986],[-75.64582,5.43982],[-75.64589,5.43974],[-75.646,5.43962],[-75.64614,5.43957],[-75.64627,5.43954],[-75.64634,5.43952],[-75.64642,5.43947],[-75.64661,5.43937],[-75.64669,5.43933],[-75.64677,5.43925],[-75.64684,5.43917],[-75.64685,5.43912],[-75.64686,5.43908],[-75.64689,5.43892],[-75.64693,5.43882],[-75.64696,5.43875],[-75.64702,5.43868],[-75.64705,5.43864],[-75.6471,5.43863],[-75.64715,5.43863],[-75.64723,5.43865],[-75.64733,5.43869],[-75.64738,5.4387],[-75.64743,5.4387],[-75.64746,5.43867],[-75.64748,5.43864],[-75.64748,5.43858],[-75.64746,5.43852],[-75.64745,5.43848],[-75.64743,5.43844],[-75.6474,5.43836],[-75.64739,5.43831],[-75.64734,5.43825],[-75.64732,5.43819],[-75.6473,5.43814],[-75.6473,5.43807],[-75.6473,5.43803],[-75.64732,5.43798],[-75.64735,5.43795],[-75.64741,5.43789],[-75.64743,5.43786],[-75.64744,5.43783],[-75.64745,5.43778],[-75.64744,5.43774],[-75.64742,5.4377]]},"properties":{"OBJECTID":0,"ID_DS":0,"CODDEP":" ","CODCUENCA":" ","CODDS":0,"TIPO":" ","NOMBRE":" ","ORDEN":" ","N_ORDEN":0,"FP":0,"Shape_Leng":604.70219015,"ORD_STRAHL":1,"FR_STRAHLE":15,"ZPHA":10,"ZPS":15,"OBJECTID_1":31,"Shape_Length":604.6352289822229}},{"type":"Feature","id":32,"geometry":{"type":"LineString","coordinates":[[-75.64742,5.4377],[-75.64736,5.43768],[-75.6473,5.43767],[-75.64722,5.43768],[-75.64715,5.4377],[-75.64706,5.43774],[-75.64694,5.43776],[-75.64686,5.43777],[-75.64676,5.43777],[-75.6467,5.43776],[-75.64664,5.43774],[-75.64659,5.43772],[-75.64655,5.43769],[-75.64654,5.43767],[-75.64652,5.43765],[-75.64652,5.43763],[-75.64653,5.4376],[-75.64655,5.43758],[-75.64657,5.43756],[-75.6466,5.43754],[-75.64662,5.43753],[-75.64665,5.43753],[-75.64668,5.43753],[-75.6467,5.43753],[-75.64673,5.43753],[-75.64675,5.43752],[-75.64681,5.43747],[-75.64685,5.43741],[-75.64689,5.43736],[-75.64692,5.4373],[-75.64694,5.43727],[-75.64694,5.43724],[-75.64694,5.43721],[-75.64693,5.43718],[-75.64693,5.43715],[-75.64694,5.43711],[-75.64695,5.43706],[-75.64695,5.43702],[-75.64695,5.43695],[-75.64697,5.43684],[-75.64697,5.43676],[-75.64696,5.4367],[-75.64695,5.43664],[-75.64695,5.43659],[-75.64695,5.43656],[-75.64695,5.43651],[-75.64695,5.43641],[-75.64695,5.43633],[-75.64695,5.43623],[-75.64698,5.43615],[-75.64702,5.43609],[-75.64705,5.43605],[-75.64713,5.43597],[-75.64717,5.4359],[-75.6472,5.43583],[-75.64722,5.43574],[-75.64721,5.43565],[-75.64722,5.4356],[-75.64721,5.43545],[-75.6472,5.4354],[-75.64716,5.43532],[-75.64713,5.43531],[-75.6471,5.43533],[-75.64707,5.43536],[-75.64706,5.43539],[-75.64701,5.4355],[-75.64697,5.43557],[-75.64691,5.43564],[-75.64686,5.43568],[-75.64679,5.4357],[-75.64674,5.4357],[-75.64669,5.43569],[-75.64666,5.43566],[-75.64661,5.43563],[-75.64656,5.43558],[-75.64653,5.43551],[-75.64653,5.43543],[-75.64654,5.43538],[-75.64658,5.43535],[-75.64665,5.43532],[-75.64668,5.43527],[-75.6467,5.43521],[-75.64672,5.43514],[-75.64672,5.43509],[-75.64673,5.43501],[-75.64675,5.43491],[-75.64677,5.43483],[-75.6468,5.43474],[-75.6468,5.43463],[-75.6468,5.43453],[-75.64679,5.43447],[-75.64679,5.43443],[-75.64678,5.43439],[-75.64676,5.43435],[-75.64676,5.4343],[-75.64675,5.43416]]},"properties":{"OBJECTID":187,"ID_DS":0,"CODDEP":" ","CODCUENCA":" ","CODDS":0,"TIPO":" ","NOMBRE":" ","ORDEN":"3","N_ORDEN":3,"FP":20,"Shape_Leng":662.421802848,"ORD_STRAHL":5,"FR_STRAHLE":20,"ZPHA":20,"ZPS":30,"OBJECTID_1":32,"Shape_Length":662.3489443846154}},{"type":"Feature","id":33,"geometry":{"type":"LineString","coordinates":[[-75.64787,5.43928],[-75.64786,5.43925],[-75.64785,5.43923],[-75.64784,5.43921],[-75.64784,5.43918],[-75.64784,5.43916],[-75.64784,5.43911],[-75.64785,5.43908],[-75.64785,5.43906],[-75.64787,5.43904],[-75.64788,5.43902],[-75.64788,5.439],[-75.64788,5.43897],[-75.64788,5.43896],[-75.6479,5.43891],[-75.64791,5.4389],[-75.64793,5.43887],[-75.64794,5.43883],[-75.64795,5.4388],[-75.64796,5.43878],[-75.64796,5.43876],[-75.64796,5.43874],[-75.64795,5.43871],[-75.64793,5.43868],[-75.64792,5.43865],[-75.64791,5.43862],[-75.6479,5.4386],[-75.64789,5.43858],[-75.64789,5.43855],[-75.6479,5.43853],[-75.6479,5.43852],[-75.6479,5.4385],[-75.6479,5.43849],[-75.6479,5.43848],[-75.6479,5.43847],[-75.64791,5.43844],[-75.64792,5.43842],[-75.64792,5.43841],[-75.64792,5.43838],[-75.64792,5.43836],[-75.6479,5.43833],[-75.64788,5.43832],[-75.64785,5.43831],[-75.64783,5.4383],[-75.64779,5.4383],[-75.64775,5.4383],[-75.64769,5.43831],[-75.64766,5.43831],[-75.64764,5.43831],[-75.64762,5.43832],[-75.6476,5.43832],[-75.64758,5.43832],[-75.64756,5.43831],[-75.64755,5.4383],[-75.64754,5.43829],[-75.64753,5.43828],[-75.64752,5.43826],[-75.6475,5.43824],[-75.64746,5.43821],[-75.64744,5.4382],[-75.64743,5.43818],[-75.64744,5.43811],[-75.64744,5.43808],[-75.64745,5.43799],[-75.64747,5.43793],[-75.64749,5.43789],[-75.64752,5.43787],[-75.64755,5.43784],[-75.64755,5.43782],[-75.64754,5.43779],[-75.64752,5.43776],[-75.64742,5.4377]]},"properties":{"OBJECTID":187,"ID_DS":0,"CODDEP":" ","CODCUENCA":" ","CODDS":0,"TIPO":" ","NOMBRE":" ","ORDEN":"3","N_ORDEN":3,"FP":20,"Shape_Leng":235.46970538,"ORD_STRAHL":5,"FR_STRAHLE":20,"ZPHA":20,"ZPS":30,"OBJECTID_1":33,"Shape_Length":235.44368918572707}},{"type":"Feature","id":34,"geometry":{"type":"LineString","coordinates":[[-75.64523,5.44309],[-75.64539,5.44292],[-75.64555,5.44284],[-75.64562,5.44278],[-75.64575,5.4426],[-75.64584,5.44235],[-75.6459,5.44228],[-75.64597,5.44224],[-75.6461,5.4422],[-75.64621,5.44214],[-75.64643,5.44205],[-75.64648,5.44197],[-75.64657,5.44189],[-75.64666,5.44186],[-75.64673,5.44187]]},"properties":{"OBJECTID":31739,"ID_DS":88,"CODDEP":" ","CODCUENCA":"2615","CODDS":88,"TIPO":" ","NOMBRE":" ","ORDEN":" ","N_ORDEN":4,"FP":20,"Shape_Leng":226.329996832,"ORD_STRAHL":1,"FR_STRAHLE":15,"ZPHA":10,"ZPS":15,"OBJECTID_1":34,"Shape_Length":226.30500558117356}},{"type":"Feature","id":35,"geometry":{"type":"LineString","coordinates":[[-75.64673,5.44187],[-75.64673,5.44181],[-75.64673,5.44172],[-75.64675,5.44165],[-75.64676,5.4416],[-75.64677,5.44157],[-75.64676,5.4415],[-75.64677,5.44145],[-75.64676,5.44141],[-75.64674,5.44136],[-75.64674,5.44134],[-75.64675,5.44127],[-75.64675,5.44119],[-75.64676,5.44115],[-75.64676,5.44097],[-75.64677,5.44093],[-75.64675,5.44082],[-75.64674,5.44076],[-75.64674,5.44069],[-75.64676,5.44057],[-75.64679,5.44047],[-75.64681,5.44043],[-75.64683,5.4404],[-75.64686,5.44038],[-75.64694,5.44037],[-75.64699,5.44037],[-75.64703,5.4404],[-75.64705,5.44044],[-75.64704,5.44049],[-75.64704,5.4405],[-75.64706,5.44053],[-75.6471,5.44058],[-75.64713,5.44061],[-75.64718,5.44062],[-75.6472,5.44061],[-75.64721,5.4406],[-75.64721,5.44058],[-75.6472,5.44055],[-75.64718,5.44052],[-75.64717,5.4405],[-75.64718,5.44048],[-75.6472,5.44045],[-75.64722,5.44043],[-75.64725,5.44042],[-75.64728,5.44042],[-75.6473,5.44041],[-75.64731,5.44039],[-75.64732,5.44036],[-75.64731,5.44033],[-75.64732,5.44028],[-75.64732,5.44025],[-75.64734,5.44024],[-75.64737,5.44023],[-75.64743,5.44021],[-75.64747,5.44021],[-75.64753,5.44022],[-75.64758,5.44022],[-75.64767,5.44021],[-75.64774,5.4402],[-75.64781,5.44018],[-75.64786,5.44015],[-75.64793,5.44008],[-75.64794,5.44003],[-75.64793,5.44001],[-75.6479,5.43998],[-75.64786,5.43996],[-75.64782,5.43989],[-75.64779,5.43985],[-75.64779,5.43985],[-75.64778,5.43979],[-75.64783,5.43975],[-75.64784,5.43968],[-75.64787,5.43961],[-75.64788,5.43956],[-75.64788,5.4395],[-75.64788,5.4395],[-75.64789,5.43943],[-75.64789,5.43938],[-75.64789,5.43934],[-75.64788,5.43932],[-75.64788,5.4393],[-75.64787,5.43928]]},"properties":{"OBJECTID":187,"ID_DS":0,"CODDEP":" ","CODCUENCA":" ","CODDS":0,"TIPO":" ","NOMBRE":" ","ORDEN":"3","N_ORDEN":3,"FP":20,"Shape_Leng":447.35977398,"ORD_STRAHL":5,"FR_STRAHLE":20,"ZPHA":20,"ZPS":30,"OBJECTID_1":35,"Shape_Length":447.3106425267218}},{"type":"Feature","id":36,"geometry":{"type":"LineString","coordinates":[[-75.64675,5.44467],[-75.64673,5.44456],[-75.64676,5.44446],[-75.64676,5.44437],[-75.64673,5.44425],[-75.64667,5.44416],[-75.64661,5.44408],[-75.64655,5.44397],[-75.64657,5.44372],[-75.64662,5.44367],[-75.64677,5.44367],[-75.6469,5.44361],[-75.6469,5.44355],[-75.64688,5.44346],[-75.64691,5.44334],[-75.64684,5.44324],[-75.64674,5.44315],[-75.64672,5.44309],[-75.64667,5.44302],[-75.64669,5.44295],[-75.64672,5.44285],[-75.64679,5.44276],[-75.64685,5.44271],[-75.6469,5.44263],[-75.64693,5.44257]]},"properties":{"OBJECTID":31741,"ID_DS":88,"CODDEP":" ","CODCUENCA":" 2615","CODDS":88,"TIPO":" ","NOMBRE":" ","ORDEN":" ","N_ORDEN":4,"FP":20,"Shape_Leng":287.551536928,"ORD_STRAHL":1,"FR_STRAHLE":15,"ZPHA":10,"ZPS":15,"OBJECTID_1":36,"Shape_Length":287.5197723520583}},{"type":"Feature","id":37,"geometry":{"type":"LineString","coordinates":[[-75.64693,5.44257],[-75.64692,5.44255],[-75.64693,5.44252],[-75.64693,5.44249],[-75.64692,5.44246],[-75.64689,5.4424],[-75.64685,5.44234],[-75.64683,5.44229],[-75.6468,5.44223],[-75.64678,5.44217],[-75.64675,5.44211],[-75.64674,5.44207],[-75.64673,5.44202],[-75.64673,5.44194],[-75.64673,5.44187]]},"properties":{"OBJECTID":187,"ID_DS":0,"CODDEP":" ","CODCUENCA":" ","CODDS":0,"TIPO":" ","NOMBRE":" ","ORDEN":"3","N_ORDEN":3,"FP":20,"Shape_Leng":82.6324264056,"ORD_STRAHL":5,"FR_STRAHLE":20,"ZPHA":20,"ZPS":30,"OBJECTID_1":37,"Shape_Length":82.62330568428409}},{"type":"Feature","id":38,"geometry":{"type":"LineString","coordinates":[[-75.64701,5.44675],[-75.64711,5.44679],[-75.64725,5.44684],[-75.64737,5.44689],[-75.6475,5.44692],[-75.64757,5.44691],[-75.64767,5.44688],[-75.64771,5.44686],[-75.64776,5.44683],[-75.64786,5.4468],[-75.64792,5.44678],[-75.64794,5.44672],[-75.648,5.44666],[-75.64812,5.44668],[-75.64823,5.44666],[-75.64831,5.44657],[-75.64836,5.44653],[-75.64839,5.44651]]},"properties":{"OBJECTID":31752,"ID_DS":88,"CODDEP":" ","CODCUENCA":"2615","CODDS":88,"TIPO":" ","NOMBRE":" ","ORDEN":" ","N_ORDEN":4,"FP":20,"Shape_Leng":173.67266236,"ORD_STRAHL":1,"FR_STRAHLE":15,"ZPHA":10,"ZPS":15,"OBJECTID_1":38,"Shape_Length":173.6534754032881}},{"type":"Feature","id":39,"geometry":{"type":"LineString","coordinates":[[-75.64839,5.44651],[-75.64839,5.44647],[-75.64836,5.44632],[-75.64835,5.44625],[-75.64833,5.44611],[-75.64828,5.44601],[-75.64827,5.44594],[-75.64824,5.44575],[-75.64822,5.44564],[-75.64822,5.44544],[-75.64825,5.44535],[-75.64827,5.44528],[-75.6483,5.44519],[-75.6483,5.44509],[-75.64828,5.44499],[-75.64827,5.44491],[-75.64824,5.44487],[-75.64822,5.44483],[-75.64821,5.44479],[-75.6482,5.44475],[-75.64819,5.44471],[-75.64813,5.44466],[-75.64808,5.44464],[-75.64807,5.44462],[-75.64806,5.44459],[-75.64804,5.44453],[-75.648,5.44444],[-75.64798,5.44435],[-75.64795,5.44428],[-75.64791,5.44422],[-75.64789,5.44417],[-75.64786,5.44411],[-75.64772,5.44401],[-75.64767,5.44395],[-75.64763,5.44389],[-75.64763,5.44388],[-75.64763,5.44385],[-75.64762,5.44379],[-75.64762,5.44372],[-75.64761,5.44365],[-75.6476,5.4436],[-75.64759,5.44356],[-75.64757,5.44353],[-75.64755,5.44349],[-75.64754,5.44346],[-75.6475,5.44342],[-75.64747,5.44339],[-75.64745,5.44337],[-75.64743,5.44334],[-75.64742,5.44332],[-75.6474,5.4433],[-75.64735,5.44324],[-75.6473,5.4432],[-75.64729,5.44316],[-75.64727,5.44311],[-75.64721,5.44307],[-75.64718,5.44304],[-75.64713,5.44301],[-75.64708,5.44297],[-75.64706,5.4429],[-75.64705,5.44285],[-75.64701,5.44271],[-75.64699,5.44263],[-75.64695,5.4426],[-75.64693,5.44257]]},"properties":{"OBJECTID":187,"ID_DS":0,"CODDEP":" ","CODCUENCA":" ","CODDS":0,"TIPO":" ","NOMBRE":" ","ORDEN":"3","N_ORDEN":3,"FP":20,"Shape_Leng":491.839771378,"ORD_STRAHL":5,"FR_STRAHLE":20,"ZPHA":20,"ZPS":30,"OBJECTID_1":39,"Shape_Length":491.78592192029294}},{"type":"Feature","id":40,"geometry":{"type":"LineString","coordinates":[[-75.64763,5.45091],[-75.64772,5.45094],[-75.64795,5.45101],[-75.64818,5.45106],[-75.64836,5.45106],[-75.64867,5.451],[-75.64885,5.45097],[-75.64898,5.4509],[-75.64899,5.4509]]},"properties":{"OBJECTID":31821,"ID_DS":88,"CODDEP":" ","CODCUENCA":"2615","CODDS":88,"TIPO":" ","NOMBRE":" ","ORDEN":" ","N_ORDEN":4,"FP":20,"Shape_Leng":156.111604198,"ORD_STRAHL":1,"FR_STRAHLE":15,"ZPHA":10,"ZPS":15,"OBJECTID_1":40,"Shape_Length":156.09440397167486}},{"type":"Feature","id":41,"geometry":{"type":"LineString","coordinates":[[-75.64726,5.45171],[-75.64762,5.45164],[-75.64783,5.45154],[-75.64796,5.45149],[-75.64811,5.45143],[-75.64828,5.45141],[-75.64861,5.45135],[-75.6488,5.45127],[-75.64886,5.4512],[-75.64893,5.45113]]},"properties":{"OBJECTID":31822,"ID_DS":88,"CODDEP":" ","CODCUENCA":"2615","CODDS":88,"TIPO":" ","NOMBRE":" ","ORDEN":" ","N_ORDEN":4,"FP":20,"Shape_Leng":199.265188339,"ORD_STRAHL":1,"FR_STRAHLE":15,"ZPHA":10,"ZPS":15,"OBJECTID_1":41,"Shape_Length":199.24343241505764}},{"type":"Feature","id":42,"geometry":{"type":"LineString","coordinates":[[-75.64812,5.45212],[-75.64837,5.45198],[-75.64862,5.45181],[-75.64871,5.4517],[-75.6488,5.45156],[-75.64886,5.45141],[-75.64893,5.45113]]},"properties":{"OBJECTID":31823,"ID_DS":88,"CODDEP":" ","CODCUENCA":"2615","CODDS":88,"TIPO":" ","NOMBRE":" ","ORDEN":" ","N_ORDEN":4,"FP":20,"Shape_Leng":148.667750219,"ORD_STRAHL":1,"FR_STRAHLE":15,"ZPHA":10,"ZPS":15,"OBJECTID_1":42,"Shape_Length":148.65167641296006}},{"type":"Feature","id":43,"geometry":{"type":"LineString","coordinates":[[-75.64893,5.45113],[-75.64899,5.45097],[-75.64899,5.45092],[-75.64899,5.4509]]},"properties":{"OBJECTID":31823,"ID_DS":88,"CODDEP":" ","CODCUENCA":"2615","CODDS":88,"TIPO":" ","NOMBRE":" ","ORDEN":" ","N_ORDEN":4,"FP":20,"Shape_Leng":26.2132048304,"ORD_STRAHL":1,"FR_STRAHLE":15,"ZPHA":10,"ZPS":15,"OBJECTID_1":43,"Shape_Length":26.210234842792353}},{"type":"Feature","id":44,"geometry":{"type":"LineString","coordinates":[[-75.6473,5.44751],[-75.6475,5.44761],[-75.64758,5.44777],[-75.64765,5.44785],[-75.64772,5.4479],[-75.64784,5.44797],[-75.64804,5.44801],[-75.64824,5.44801],[-75.64846,5.44796],[-75.64864,5.4479],[-75.64879,5.44791],[-75.64887,5.44796],[-75.64895,5.44804],[-75.64912,5.44802]]},"properties":{"OBJECTID":31758,"ID_DS":88,"CODDEP":" ","CODCUENCA":"2615","CODDS":88,"TIPO":" ","NOMBRE":" ","ORDEN":" ","N_ORDEN":5,"FP":15,"Shape_Leng":230.540593136,"ORD_STRAHL":1,"FR_STRAHLE":15,"ZPHA":10,"ZPS":15,"OBJECTID_1":44,"Shape_Length":230.5153884523561}},{"type":"Feature","id":45,"geometry":{"type":"LineString","coordinates":[[-75.64928,5.44798],[-75.6492,5.44784],[-75.6492,5.44783],[-75.64915,5.44771],[-75.64911,5.44759],[-75.64908,5.44756],[-75.64907,5.44755],[-75.64892,5.44713],[-75.64887,5.44702],[-75.64882,5.44696],[-75.64872,5.44689],[-75.64863,5.44683],[-75.64853,5.44676],[-75.64849,5.4467],[-75.64842,5.44657],[-75.64841,5.44655],[-75.6484,5.44654],[-75.64839,5.44651]]},"properties":{"OBJECTID":187,"ID_DS":0,"CODDEP":" ","CODCUENCA":" ","CODDS":0,"TIPO":" ","NOMBRE":" ","ORDEN":"3","N_ORDEN":3,"FP":20,"Shape_Leng":195.406235192,"ORD_STRAHL":5,"FR_STRAHLE":20,"ZPHA":20,"ZPS":30,"OBJECTID_1":45,"Shape_Length":195.3847264886963}},{"type":"Feature","id":46,"geometry":{"type":"LineString","coordinates":[[-75.64912,5.44802],[-75.64921,5.44799],[-75.64928,5.44798]]},"properties":{"OBJECTID":31757,"ID_DS":88,"CODDEP":" ","CODCUENCA":"2615","CODDS":88,"TIPO":" ","NOMBRE":" ","ORDEN":" ","N_ORDEN":4,"FP":20,"Shape_Leng":19.0971556326,"ORD_STRAHL":2,"FR_STRAHLE":15,"ZPHA":10,"ZPS":15,"OBJECTID_1":46,"Shape_Length":19.09505861830903}},{"type":"Feature","id":47,"geometry":{"type":"LineString","coordinates":[[-75.64899,5.4509],[-75.64898,5.45087],[-75.64898,5.45084],[-75.64898,5.45067],[-75.649,5.45056],[-75.64897,5.45046],[-75.64894,5.45038],[-75.64888,5.45023],[-75.64888,5.4501],[-75.64884,5.45001],[-75.64887,5.44988],[-75.64892,5.44961],[-75.64899,5.44921],[-75.64901,5.44886],[-75.64905,5.44875],[-75.64911,5.44864],[-75.6491,5.44855],[-75.64909,5.44852],[-75.64911,5.44836],[-75.64908,5.44823],[-75.64905,5.44807],[-75.64912,5.44802]]},"properties":{"OBJECTID":31759,"ID_DS":88,"CODDEP":" ","CODCUENCA":"2615","CODDS":88,"TIPO":" ","NOMBRE":" ","ORDEN":" ","N_ORDEN":4,"FP":20,"Shape_Leng":331.012531234,"ORD_STRAHL":2,"FR_STRAHLE":15,"ZPHA":10,"ZPS":15,"OBJECTID_1":47,"Shape_Length":330.97653824310777}},{"type":"Feature","id":48,"geometry":{"type":"LineString","coordinates":[[-75.64533,5.45224],[-75.64539,5.45226],[-75.64542,5.45226],[-75.64547,5.45222],[-75.6455,5.4522],[-75.64563,5.45218],[-75.64569,5.45217],[-75.64584,5.45217],[-75.64597,5.45218],[-75.64608,5.4522],[-75.64621,5.45225],[-75.6463,5.45232],[-75.64634,5.4524],[-75.64643,5.45247],[-75.64651,5.45251],[-75.64662,5.45253],[-75.64681,5.45248],[-75.64691,5.45242],[-75.64695,5.45239],[-75.64701,5.45239],[-75.64707,5.45242],[-75.64718,5.45246],[-75.64728,5.45248],[-75.64733,5.45247],[-75.64742,5.45249],[-75.64751,5.45254],[-75.64759,5.45258],[-75.64765,5.45263],[-75.64775,5.45267],[-75.64782,5.45272],[-75.64787,5.45275],[-75.64792,5.45275],[-75.648,5.45274],[-75.64806,5.45273],[-75.6481,5.4527],[-75.64815,5.45269],[-75.64816,5.45268],[-75.64818,5.45264],[-75.6482,5.45261],[-75.64824,5.45264],[-75.64826,5.45267],[-75.64831,5.45268],[-75.64838,5.45268],[-75.64842,5.45269],[-75.64845,5.4527],[-75.64848,5.45273],[-75.64855,5.45278],[-75.64857,5.45282],[-75.64861,5.45294],[-75.64865,5.45301],[-75.64873,5.45312],[-75.64878,5.45314],[-75.64882,5.45314],[-75.64884,5.45313],[-75.64884,5.45311],[-75.64887,5.4531],[-75.64891,5.4531],[-75.64895,5.4531],[-75.64898,5.45312],[-75.64905,5.45319],[-75.6491,5.4532],[-75.64915,5.45322],[-75.64918,5.45325],[-75.6492,5.45327],[-75.64923,5.45326],[-75.64925,5.45324],[-75.64928,5.45323],[-75.64931,5.45321],[-75.64934,5.4532],[-75.64939,5.45318]]},"properties":{"OBJECTID":31828,"ID_DS":88,"CODDEP":" ","CODCUENCA":"2615","CODDS":88,"TIPO":" ","NOMBRE":" ","ORDEN":" ","N_ORDEN":4,"FP":20,"Shape_Leng":527.042017578,"ORD_STRAHL":1,"FR_STRAHLE":15,"ZPHA":10,"ZPS":15,"OBJECTID_1":48,"Shape_Length":526.9842017534628}},{"type":"Feature","id":49,"geometry":{"type":"LineString","coordinates":[[-75.64939,5.45318],[-75.64943,5.45314],[-75.64947,5.45309],[-75.64952,5.45305],[-75.64958,5.45303],[-75.64966,5.453],[-75.64974,5.45299],[-75.64984,5.45298],[-75.64988,5.453],[-75.64993,5.45301],[-75.64997,5.453],[-75.65,5.45297],[-75.65001,5.45294],[-75.65004,5.45292],[-75.65012,5.4529],[-75.65021,5.45283],[-75.65033,5.45274],[-75.65044,5.45269],[-75.65053,5.45266],[-75.6506,5.45261],[-75.65063,5.45251],[-75.65063,5.45242],[-75.65063,5.45237],[-75.65062,5.45231],[-75.65058,5.45222],[-75.65055,5.45218],[-75.65053,5.45215],[-75.6505,5.45213],[-75.65046,5.45212],[-75.65043,5.45211],[-75.65041,5.45209],[-75.65038,5.45205],[-75.65037,5.45201],[-75.65038,5.45199],[-75.65038,5.45195],[-75.65042,5.45192],[-75.65051,5.4519],[-75.65056,5.45189],[-75.65062,5.45185],[-75.65066,5.45183],[-75.65068,5.45179],[-75.65068,5.45175],[-75.65067,5.45173],[-75.65066,5.45169],[-75.65063,5.45161],[-75.65063,5.45155],[-75.65064,5.45147],[-75.65065,5.45138],[-75.65064,5.45128],[-75.65064,5.45118],[-75.65063,5.45113],[-75.6505,5.45084],[-75.65044,5.45065],[-75.65032,5.45033],[-75.65023,5.45008],[-75.65021,5.44995],[-75.65017,5.44983],[-75.6502,5.44974],[-75.65021,5.4497],[-75.6502,5.44963],[-75.65021,5.4496],[-75.6502,5.4495],[-75.65017,5.44944],[-75.65013,5.44938],[-75.65003,5.44932],[-75.64997,5.44928],[-75.64994,5.44927],[-75.64993,5.44925],[-75.64993,5.44922],[-75.64994,5.4492],[-75.64997,5.44917],[-75.64998,5.44914],[-75.64998,5.44913],[-75.64997,5.44911],[-75.64996,5.44909],[-75.64988,5.44903],[-75.64985,5.449],[-75.64982,5.44897],[-75.6498,5.44892],[-75.64978,5.44888],[-75.64977,5.44879],[-75.64974,5.44874],[-75.64973,5.44871],[-75.64971,5.4487],[-75.64969,5.44869],[-75.64966,5.44868],[-75.64965,5.44866],[-75.64963,5.44862],[-75.64961,5.44858],[-75.64959,5.44853],[-75.64955,5.44847],[-75.64951,5.44842],[-75.64949,5.44839],[-75.64947,5.44837],[-75.64945,5.44834],[-75.64944,5.44831],[-75.64942,5.44825],[-75.64941,5.4482],[-75.64941,5.44817],[-75.64939,5.44813],[-75.64938,5.4481],[-75.64936,5.44806],[-75.64934,5.44804],[-75.64931,5.44802],[-75.6493,5.448],[-75.64929,5.44799],[-75.64928,5.44798]]},"properties":{"OBJECTID":187,"ID_DS":0,"CODDEP":" ","CODCUENCA":" ","CODDS":0,"TIPO":" ","NOMBRE":" ","ORDEN":" 3","N_ORDEN":3,"FP":20,"Shape_Leng":756.865980651,"ORD_STRAHL":5,"FR_STRAHLE":20,"ZPHA":20,"ZPS":30,"OBJECTID_1":49,"Shape_Length":756.7834042719371}},{"type":"Feature","id":50,"geometry":{"type":"LineString","coordinates":[[-75.64528,5.45414],[-75.64545,5.45407],[-75.6455,5.45404],[-75.64561,5.45401],[-75.64575,5.45394],[-75.64589,5.45386]]},"properties":{"OBJECTID":31831,"ID_DS":88,"CODDEP":" ","CODCUENCA":"2615","CODDS":88,"TIPO":" ","NOMBRE":" ","ORDEN":" ","N_ORDEN":5,"FP":15,"Shape_Leng":74.8644626674,"ORD_STRAHL":1,"FR_STRAHLE":15,"ZPHA":10,"ZPS":15,"OBJECTID_1":50,"Shape_Length":74.85618885769283}},{"type":"Feature","id":51,"geometry":{"type":"LineString","coordinates":[[-75.64535,5.45354],[-75.64546,5.45364],[-75.64553,5.4537],[-75.6456,5.45374],[-75.64589,5.45386]]},"properties":{"OBJECTID":31830,"ID_DS":88,"CODDEP":" ","CODCUENCA":" 2615","CODDS":88,"TIPO":" ","NOMBRE":" ","ORDEN":" ","N_ORDEN":6,"FP":15,"Shape_Leng":70.1472044743,"ORD_STRAHL":1,"FR_STRAHLE":15,"ZPHA":10,"ZPS":15,"OBJECTID_1":51,"Shape_Length":70.1393246874357}},{"type":"Feature","id":52,"geometry":{"type":"LineString","coordinates":[[-75.64589,5.45386],[-75.64593,5.45393],[-75.646,5.45398],[-75.64612,5.45404],[-75.64622,5.45407],[-75.64639,5.45406],[-75.64672,5.45401],[-75.64688,5.45402],[-75.64704,5.45413],[-75.64724,5.45425],[-75.64741,5.45434],[-75.6475,5.45436],[-75.64762,5.4544]]},"properties":{"OBJECTID":31834,"ID_DS":88,"CODDEP":" ","CODCUENCA":"2615","CODDS":88,"TIPO":" ","NOMBRE":" ","ORDEN":" ","N_ORDEN":5,"FP":15,"Shape_Leng":210.539421351,"ORD_STRAHL":2,"FR_STRAHLE":15,"ZPHA":10,"ZPS":15,"OBJECTID_1":52,"Shape_Length":210.51632997820818}},{"type":"Feature","id":53,"geometry":{"type":"LineString","coordinates":[[-75.64575,5.45516],[-75.64587,5.45521],[-75.64604,5.45525],[-75.64624,5.45525],[-75.64644,5.45522],[-75.64671,5.45505],[-75.64685,5.45494],[-75.64706,5.45478],[-75.64721,5.4546],[-75.64739,5.4545],[-75.64749,5.45448],[-75.64756,5.45443],[-75.64762,5.4544]]},"properties":{"OBJECTID":31835,"ID_DS":88,"CODDEP":" ","CODCUENCA":"2615","CODDS":88,"TIPO":" ","NOMBRE":" ","ORDEN":" ","N_ORDEN":4,"FP":20,"Shape_Leng":239.83625026,"ORD_STRAHL":1,"FR_STRAHLE":15,"ZPHA":10,"ZPS":15,"OBJECTID_1":53,"Shape_Length":239.80981412621054}},{"type":"Feature","id":54,"geometry":{"type":"LineString","coordinates":[[-75.64762,5.4544],[-75.64768,5.45435],[-75.64778,5.45428],[-75.64786,5.45424],[-75.64793,5.4542],[-75.64802,5.45414]]},"properties":{"OBJECTID":31833,"ID_DS":88,"CODDEP":" ","CODCUENCA":"2615","CODDS":88,"TIPO":" ","NOMBRE":" ","ORDEN":" ","N_ORDEN":4,"FP":20,"Shape_Leng":53.0202581627,"ORD_STRAHL":2,"FR_STRAHLE":15,"ZPHA":10,"ZPS":15,"OBJECTID_1":54,"Shape_Length":53.01435005988864}},{"type":"Feature","id":55,"geometry":{"type":"LineString","coordinates":[[-75.64672,5.45356],[-75.64685,5.45367],[-75.64693,5.45375],[-75.64702,5.45383],[-75.64709,5.45386],[-75.64723,5.45388],[-75.64735,5.45392],[-75.64748,5.45396],[-75.64762,5.45399],[-75.64772,5.45404],[-75.6478,5.45406],[-75.6479,5.4541],[-75.64795,5.45412],[-75.64802,5.45414]]},"properties":{"OBJECTID":31832,"ID_DS":88,"CODDEP":" ","CODCUENCA":"2615","CODDS":88,"TIPO":" ","NOMBRE":" ","ORDEN":" ","N_ORDEN":5,"FP":15,"Shape_Leng":161.841272866,"ORD_STRAHL":1,"FR_STRAHLE":15,"ZPHA":10,"ZPS":15,"OBJECTID_1":55,"Shape_Length":161.82343503158393}},{"type":"Feature","id":56,"geometry":{"type":"LineString","coordinates":[[-75.64802,5.45414],[-75.64805,5.45414],[-75.64814,5.45411],[-75.64822,5.4541],[-75.64826,5.45402],[-75.6483,5.45396],[-75.64837,5.45396],[-75.64846,5.45396],[-75.64859,5.45404],[-75.64865,5.45403],[-75.64873,5.45401],[-75.64881,5.45401],[-75.6489,5.454],[-75.64898,5.45401],[-75.64909,5.454]]},"properties":{"OBJECTID":31829,"ID_DS":88,"CODDEP":" ","CODCUENCA":"2615","CODDS":88,"TIPO":" ","NOMBRE":" ","ORDEN":" ","N_ORDEN":4,"FP":20,"Shape_Leng":130.750851368,"ORD_STRAHL":2,"FR_STRAHLE":15,"ZPHA":10,"ZPS":15,"OBJECTID_1":56,"Shape_Length":130.73664581479963}},{"type":"Feature","id":57,"geometry":{"type":"LineString","coordinates":[[-75.64909,5.454],[-75.64913,5.45396],[-75.64915,5.45387],[-75.64916,5.4538],[-75.64918,5.45363],[-75.6492,5.4535],[-75.6493,5.45335],[-75.64937,5.45324],[-75.64939,5.45318]]},"properties":{"OBJECTID":187,"ID_DS":0,"CODDEP":" ","CODCUENCA":" ","CODDS":0,"TIPO":" ","NOMBRE":" ","ORDEN":"3","N_ORDEN":3,"FP":20,"Shape_Leng":99.0362382167,"ORD_STRAHL":5,"FR_STRAHLE":20,"ZPHA":20,"ZPS":30,"OBJECTID_1":57,"Shape_Length":99.02559855667604}},{"type":"Feature","id":58,"geometry":{"type":"LineString","coordinates":[[-75.64454,5.45831],[-75.64455,5.45822],[-75.64459,5.45815],[-75.64473,5.45814],[-75.6448,5.45809],[-75.64487,5.45807],[-75.64497,5.45805],[-75.64501,5.45806],[-75.64511,5.45815],[-75.64526,5.45828],[-75.64544,5.45834],[-75.64559,5.45836],[-75.64575,5.4584],[-75.64584,5.45839],[-75.64595,5.4584],[-75.64606,5.45843],[-75.64616,5.45843],[-75.64625,5.45837],[-75.64627,5.45831],[-75.64643,5.45829],[-75.64654,5.45828],[-75.64664,5.45823],[-75.64671,5.45819],[-75.6469,5.45826],[-75.647,5.45821],[-75.64705,5.45819],[-75.64709,5.45817]]},"properties":{"OBJECTID":31839,"ID_DS":88,"CODDEP":" ","CODCUENCA":"2615","CODDS":88,"TIPO":" ","NOMBRE":" ","ORDEN":" ","N_ORDEN":4,"FP":20,"Shape_Leng":323.612403531,"ORD_STRAHL":3,"FR_STRAHLE":20,"ZPHA":15,"ZPS":20,"OBJECTID_1":58,"Shape_Length":323.57646562771777}},{"type":"Feature","id":59,"geometry":{"type":"LineString","coordinates":[[-75.64626,5.45932],[-75.64631,5.45923],[-75.64634,5.45917],[-75.64636,5.45913],[-75.64637,5.45911],[-75.64639,5.45906],[-75.64641,5.45901],[-75.64644,5.45896],[-75.64648,5.45891],[-75.64654,5.45885],[-75.64655,5.45879],[-75.64656,5.45873],[-75.64661,5.4587],[-75.6467,5.45867],[-75.6468,5.45864],[-75.64691,5.45863],[-75.64695,5.45859],[-75.64698,5.45854],[-75.64701,5.45847],[-75.64701,5.45845],[-75.64704,5.45831],[-75.64706,5.45827],[-75.64709,5.45823],[-75.64709,5.4582],[-75.64709,5.45817]]},"properties":{"OBJECTID":31840,"ID_DS":88,"CODDEP":" ","CODCUENCA":"2615","CODDS":88,"TIPO":" ","NOMBRE":" ","ORDEN":" ","N_ORDEN":5,"FP":15,"Shape_Leng":171.89321213,"ORD_STRAHL":1,"FR_STRAHLE":15,"ZPHA":10,"ZPS":15,"OBJECTID_1":59,"Shape_Length":171.87400514309735}},{"type":"Feature","id":60,"geometry":{"type":"LineString","coordinates":[[-75.64709,5.45817],[-75.6471,5.45816],[-75.64718,5.45813],[-75.64728,5.45816],[-75.64737,5.45822],[-75.64755,5.45833],[-75.64778,5.45837],[-75.64788,5.45832],[-75.64798,5.45826],[-75.6481,5.45816]]},"properties":{"OBJECTID":31842,"ID_DS":88,"CODDEP":" ","CODCUENCA":"2615","CODDS":88,"TIPO":" ","NOMBRE":" ","ORDEN":" ","N_ORDEN":4,"FP":20,"Shape_Leng":125.812012435,"ORD_STRAHL":3,"FR_STRAHLE":20,"ZPHA":15,"ZPS":20,"OBJECTID_1":60,"Shape_Length":125.79831463651935}},{"type":"Feature","id":61,"geometry":{"type":"LineString","coordinates":[[-75.64592,5.4575],[-75.64604,5.45751],[-75.64608,5.4575],[-75.6461,5.45745],[-75.64615,5.45737],[-75.6462,5.45734],[-75.64628,5.45732],[-75.64639,5.45736],[-75.64647,5.45739],[-75.6465,5.45743],[-75.64655,5.45748],[-75.64662,5.45747],[-75.64666,5.45744],[-75.6467,5.45733],[-75.64673,5.45728],[-75.64681,5.45725],[-75.64696,5.45727],[-75.64712,5.45725],[-75.64719,5.4572],[-75.64722,5.45714],[-75.64724,5.45712],[-75.64728,5.45706]]},"properties":{"OBJECTID":31837,"ID_DS":88,"CODDEP":" ","CODCUENCA":"2615","CODDS":88,"TIPO":" ","NOMBRE":" ","ORDEN":" ","N_ORDEN":5,"FP":15,"Shape_Leng":191.481634873,"ORD_STRAHL":2,"FR_STRAHLE":15,"ZPHA":10,"ZPS":15,"OBJECTID_1":61,"Shape_Length":191.4601909700537}},{"type":"Feature","id":62,"geometry":{"type":"LineString","coordinates":[[-75.64728,5.45706],[-75.64732,5.45708],[-75.64732,5.45708],[-75.64733,5.45709],[-75.64738,5.45716],[-75.64739,5.45717],[-75.64744,5.45724],[-75.64746,5.45727],[-75.64747,5.4573],[-75.64749,5.45735],[-75.6475,5.45737],[-75.6475,5.45744],[-75.64751,5.45749],[-75.64751,5.45749],[-75.64754,5.45755],[-75.64758,5.45758],[-75.64759,5.45759],[-75.64762,5.45763],[-75.64763,5.45765],[-75.64765,5.45768],[-75.64766,5.45769],[-75.64765,5.45774],[-75.64765,5.45777],[-75.64764,5.45786],[-75.64763,5.45791],[-75.64763,5.45799],[-75.64765,5.45804],[-75.64768,5.45808],[-75.64771,5.45809],[-75.64772,5.45809],[-75.64772,5.4581],[-75.64778,5.4581],[-75.64781,5.4581],[-75.64785,5.45811],[-75.64786,5.45811],[-75.64791,5.45811],[-75.64797,5.45812],[-75.648,5.45814],[-75.64805,5.45816],[-75.6481,5.45816]]},"properties":{"OBJECTID":31841,"ID_DS":88,"CODDEP":" ","CODCUENCA":" 2615","CODDS":88,"TIPO":" ","NOMBRE":" ","ORDEN":" ","N_ORDEN":5,"FP":15,"Shape_Leng":176.697168222,"ORD_STRAHL":3,"FR_STRAHLE":20,"ZPHA":15,"ZPS":20,"OBJECTID_1":62,"Shape_Length":176.67769554310115}},{"type":"Feature","id":63,"geometry":{"type":"LineString","coordinates":[[-75.64617,5.4571],[-75.64624,5.45707],[-75.64631,5.45707],[-75.64633,5.45711],[-75.64637,5.45712],[-75.64643,5.45711],[-75.64651,5.45713],[-75.64664,5.45713],[-75.64669,5.45711],[-75.64675,5.45707],[-75.64681,5.45703],[-75.64684,5.457],[-75.64685,5.45699],[-75.64687,5.45699],[-75.64689,5.45699],[-75.6469,5.457],[-75.64694,5.457],[-75.64695,5.45699],[-75.647,5.45698],[-75.64704,5.457],[-75.64708,5.45702],[-75.64711,5.45704],[-75.64713,5.45705],[-75.6472,5.45704],[-75.64726,5.45704],[-75.64728,5.45706]]},"properties":{"OBJECTID":31836,"ID_DS":88,"CODDEP":" ","CODCUENCA":"2615","CODDS":88,"TIPO":" ","NOMBRE":" ","ORDEN":" ","N_ORDEN":6,"FP":15,"Shape_Leng":135.174279164,"ORD_STRAHL":2,"FR_STRAHLE":15,"ZPHA":10,"ZPS":15,"OBJECTID_1":63,"Shape_Length":135.1596480914835}},{"type":"Feature","id":64,"geometry":{"type":"LineString","coordinates":[[-75.6481,5.45816],[-75.64814,5.45813],[-75.64815,5.45812],[-75.64818,5.45801],[-75.64818,5.45793],[-75.64821,5.45786]]},"properties":{"OBJECTID":31838,"ID_DS":88,"CODDEP":" ","CODCUENCA":"2615","CODDS":88,"TIPO":" ","NOMBRE":" ","ORDEN":" ","N_ORDEN":4,"FP":20,"Shape_Leng":37.8778306454,"ORD_STRAHL":4,"FR_STRAHLE":20,"ZPHA":15,"ZPS":20,"OBJECTID_1":64,"Shape_Length":37.8736527876238}},{"type":"Feature","id":65,"geometry":{"type":"LineString","coordinates":[[-75.64821,5.45786],[-75.64825,5.45778],[-75.64831,5.45772],[-75.64834,5.45769],[-75.64841,5.4576],[-75.64844,5.45756],[-75.64849,5.4575],[-75.64852,5.45742],[-75.64853,5.45735],[-75.64853,5.45728],[-75.64852,5.45722],[-75.6485,5.45717],[-75.64849,5.45716],[-75.64846,5.45711],[-75.64841,5.45701],[-75.6484,5.45698],[-75.64839,5.45696],[-75.64836,5.45691],[-75.64835,5.45679],[-75.64832,5.45671],[-75.64832,5.45668],[-75.64833,5.45663],[-75.64833,5.45654],[-75.64833,5.45653],[-75.64831,5.45649],[-75.64827,5.45639],[-75.64826,5.45637],[-75.64823,5.45628],[-75.64822,5.45619],[-75.64826,5.4561],[-75.64832,5.45603],[-75.64836,5.45591],[-75.64837,5.4559],[-75.64837,5.45585],[-75.64837,5.45575],[-75.64835,5.45569],[-75.64833,5.4556],[-75.6483,5.45554],[-75.64829,5.45549],[-75.64828,5.45545],[-75.64828,5.4554],[-75.64829,5.45537],[-75.64832,5.45527],[-75.64833,5.45527],[-75.64834,5.45523],[-75.64834,5.45523],[-75.64836,5.45521],[-75.64839,5.4552],[-75.64844,5.45515],[-75.64851,5.45511],[-75.64855,5.45508],[-75.64859,5.45504],[-75.64863,5.45493],[-75.64864,5.45483],[-75.64866,5.45474],[-75.64866,5.45472],[-75.64866,5.45472],[-75.64869,5.4546],[-75.64872,5.45449],[-75.64876,5.4544],[-75.64883,5.45427],[-75.64889,5.4542],[-75.64896,5.45413],[-75.64905,5.45404],[-75.64909,5.454]]},"properties":{"OBJECTID":187,"ID_DS":0,"CODDEP":" ","CODCUENCA":" ","CODDS":0,"TIPO":" ","NOMBRE":" ","ORDEN":"3","N_ORDEN":3,"FP":20,"Shape_Leng":483.802785415,"ORD_STRAHL":5,"FR_STRAHLE":20,"ZPHA":20,"ZPS":30,"OBJECTID_1":65,"Shape_Length":483.7496026479513}},{"type":"Feature","id":66,"geometry":{"type":"LineString","coordinates":[[-75.64672,5.46026],[-75.64692,5.46032],[-75.64713,5.46036],[-75.64732,5.46031],[-75.64746,5.46029],[-75.64765,5.46025],[-75.64781,5.46014],[-75.64788,5.46001],[-75.64795,5.45977],[-75.64804,5.45958],[-75.64815,5.45945],[-75.64823,5.45945],[-75.64828,5.45943],[-75.64834,5.45937],[-75.64832,5.45931],[-75.6483,5.45926],[-75.64829,5.45924],[-75.6483,5.45919],[-75.64833,5.45913],[-75.64837,5.4591],[-75.64838,5.45909],[-75.64838,5.45908],[-75.64839,5.45905],[-75.64839,5.45904]]},"properties":{"OBJECTID":31845,"ID_DS":88,"CODDEP":" ","CODCUENCA":"2615","CODDS":88,"TIPO":" ","NOMBRE":" ","ORDEN":" ","N_ORDEN":4,"FP":20,"Shape_Leng":277.844970912,"ORD_STRAHL":1,"FR_STRAHLE":15,"ZPHA":10,"ZPS":15,"OBJECTID_1":66,"Shape_Length":277.81459309959797}},{"type":"Feature","id":67,"geometry":{"type":"LineString","coordinates":[[-75.64839,5.45904],[-75.64838,5.45903],[-75.64839,5.45902],[-75.64838,5.45899],[-75.64837,5.45897],[-75.64837,5.45896],[-75.64837,5.45893],[-75.64836,5.45889],[-75.64836,5.45889],[-75.64834,5.45884],[-75.64834,5.45883],[-75.64833,5.45879],[-75.64833,5.45875],[-75.64833,5.45872],[-75.64832,5.45871],[-75.64832,5.45871],[-75.64832,5.45869],[-75.64832,5.45865],[-75.64831,5.45862],[-75.64829,5.45859],[-75.64828,5.45854],[-75.64828,5.45852],[-75.64827,5.4585],[-75.64826,5.45847],[-75.64825,5.45847],[-75.64823,5.45843],[-75.64821,5.4584],[-75.64821,5.45838],[-75.64822,5.45836],[-75.64822,5.4583],[-75.64822,5.45829],[-75.64822,5.45826],[-75.64822,5.45822],[-75.64821,5.4582],[-75.64823,5.45816],[-75.64823,5.45812],[-75.64823,5.45809],[-75.64822,5.45806],[-75.64822,5.45805],[-75.64821,5.45801],[-75.6482,5.45794],[-75.64821,5.45786]]},"properties":{"OBJECTID":187,"ID_DS":0,"CODDEP":" ","CODCUENCA":" ","CODDS":0,"TIPO":" ","NOMBRE":" ","ORDEN":"3","N_ORDEN":3,"FP":20,"Shape_Leng":135.862129947,"ORD_STRAHL":4,"FR_STRAHLE":20,"ZPHA":15,"ZPS":20,"OBJECTID_1":67,"Shape_Length":135.847346751184}},{"type":"Feature","id":68,"geometry":{"type":"LineString","coordinates":[[-75.64539,5.46104],[-75.64551,5.46105],[-75.64566,5.46109],[-75.64582,5.46111],[-75.64592,5.46113],[-75.64606,5.46116],[-75.64619,5.46117],[-75.64626,5.4612],[-75.64638,5.46126],[-75.6465,5.46124],[-75.64666,5.46119],[-75.64673,5.46118],[-75.64685,5.46119],[-75.64692,5.46126],[-75.64697,5.4613],[-75.64702,5.46133],[-75.6472,5.46133],[-75.64726,5.46128],[-75.64732,5.46124],[-75.64739,5.46122],[-75.64746,5.46122],[-75.64754,5.46123],[-75.64775,5.46127],[-75.64785,5.46132],[-75.64802,5.46133]]},"properties":{"OBJECTID":31848,"ID_DS":88,"CODDEP":" ","CODCUENCA":"2615","CODDS":88,"TIPO":" ","NOMBRE":" ","ORDEN":" ","N_ORDEN":4,"FP":20,"Shape_Leng":307.398156988,"ORD_STRAHL":1,"FR_STRAHLE":15,"ZPHA":10,"ZPS":15,"OBJECTID_1":68,"Shape_Length":307.364103573724}},{"type":"Feature","id":69,"geometry":{"type":"LineString","coordinates":[[-75.64802,5.46133],[-75.64801,5.46123],[-75.64803,5.46114],[-75.64807,5.46108],[-75.64814,5.461],[-75.64818,5.46098],[-75.64821,5.46093],[-75.64825,5.46088],[-75.64825,5.46079],[-75.64825,5.46074],[-75.64828,5.46072],[-75.64833,5.46073],[-75.64838,5.46071],[-75.64841,5.46067],[-75.64854,5.46061],[-75.64857,5.46057],[-75.64858,5.46052],[-75.64858,5.46044],[-75.64859,5.46037],[-75.64859,5.46032],[-75.6486,5.46028],[-75.64861,5.46026],[-75.6486,5.46024],[-75.64859,5.46022],[-75.64862,5.46013],[-75.64866,5.46009],[-75.64868,5.46004],[-75.64869,5.46001],[-75.64869,5.45997],[-75.64868,5.45985],[-75.64866,5.4598],[-75.64864,5.45978],[-75.64863,5.45975],[-75.64865,5.45969],[-75.64865,5.45964],[-75.64865,5.4596],[-75.64864,5.45959],[-75.64863,5.45955],[-75.64864,5.45951],[-75.64866,5.45945],[-75.64866,5.45942],[-75.64863,5.45938],[-75.64859,5.45934],[-75.64855,5.4593],[-75.64851,5.45929],[-75.6485,5.45928],[-75.64849,5.45927],[-75.64849,5.45925],[-75.64848,5.4592],[-75.64847,5.45918],[-75.64847,5.45914],[-75.64847,5.45913],[-75.64845,5.4591],[-75.64843,5.45908],[-75.64841,5.45905],[-75.64839,5.45904],[-75.64839,5.45904]]},"properties":{"OBJECTID":187,"ID_DS":0,"CODDEP":" ","CODCUENCA":" ","CODDS":0,"TIPO":" ","NOMBRE":" ","ORDEN":"3","N_ORDEN":3,"FP":20,"Shape_Leng":305.783249274,"ORD_STRAHL":4,"FR_STRAHLE":20,"ZPHA":15,"ZPS":20,"OBJECTID_1":69,"Shape_Length":305.7497742812398}},{"type":"Feature","id":70,"geometry":{"type":"LineString","coordinates":[[-75.64601,5.46327],[-75.64612,5.46325],[-75.64623,5.46326],[-75.64633,5.46331],[-75.64649,5.46329],[-75.6466,5.46329],[-75.64667,5.46329],[-75.64682,5.46327],[-75.64689,5.46321],[-75.64711,5.46301]]},"properties":{"OBJECTID":31857,"ID_DS":88,"CODDEP":" ","CODCUENCA":"2615","CODDS":88,"TIPO":" ","NOMBRE":" ","ORDEN":" ","N_ORDEN":4,"FP":20,"Shape_Leng":135.28349482,"ORD_STRAHL":2,"FR_STRAHLE":15,"ZPHA":10,"ZPS":15,"OBJECTID_1":70,"Shape_Length":135.26868221350117}},{"type":"Feature","id":71,"geometry":{"type":"LineString","coordinates":[[-75.64668,5.46405],[-75.64678,5.46391],[-75.647,5.46359],[-75.64705,5.46347],[-75.64709,5.46333],[-75.6471,5.46323],[-75.64711,5.46301]]},"properties":{"OBJECTID":31858,"ID_DS":88,"CODDEP":" ","CODCUENCA":"2615","CODDS":88,"TIPO":" ","NOMBRE":" ","ORDEN":" ","N_ORDEN":4,"FP":20,"Shape_Leng":127.332888986,"ORD_STRAHL":1,"FR_STRAHLE":15,"ZPHA":10,"ZPS":15,"OBJECTID_1":71,"Shape_Length":127.31895326242717}},{"type":"Feature","id":72,"geometry":{"type":"LineString","coordinates":[[-75.64711,5.46301],[-75.64736,5.4628],[-75.64745,5.46254],[-75.64763,5.46227],[-75.64773,5.46218],[-75.64771,5.46211],[-75.64768,5.46209],[-75.64766,5.46206],[-75.64761,5.46196],[-75.64769,5.4618],[-75.64778,5.4617],[-75.6479,5.46167],[-75.64797,5.46164],[-75.64803,5.46155],[-75.64805,5.46148],[-75.64802,5.46133]]},"properties":{"OBJECTID":187,"ID_DS":0,"CODDEP":" ","CODCUENCA":" ","CODDS":0,"TIPO":" ","NOMBRE":" ","ORDEN":"3","N_ORDEN":3,"FP":20,"Shape_Leng":239.145775056,"ORD_STRAHL":4,"FR_STRAHLE":20,"ZPHA":15,"ZPS":20,"OBJECTID_1":72,"Shape_Length":239.119525548489}}]}