{"type":"FeatureCollection","name":"Puntos_Modificaciones_cartograficas","crs":{"type":"name","properties":{"name":"urn:ogc:def:crs:OGC:1.3:CRS84"}},"features":[{"type":"Feature","id":1,"geometry":{"type":"Point","coordinates":[-75.48603,5.09006]},"properties":{"Nombre":"FAJAS","OBJECTID":1,"Resolucion":" ","Observacio":"2022-II-00011439"}},{"type":"Feature","id":2,"geometry":{"type":"Point","coordinates":[-75.45821,5.0358]},"properties":{"Nombre":"FAJA","OBJECTID":2,"Resolucion":"0217-2022","Observacio":"2022-II-00004841"}},{"type":"Feature","id":3,"geometry":{"type":"Point","coordinates":[-75.4742,5.03779]},"properties":{"Nombre":"CAUCE INTERVENIDO","OBJECTID":3,"Resolucion":"0041-2022","Observacio":" "}},{"type":"Feature","id":4,"geometry":{"type":"Point","coordinates":[-75.52505,5.05843]},"properties":{"Nombre":"ATG","OBJECTID":4,"Resolucion":"0087-2021","Observacio":" "}},{"type":"Feature","id":5,"geometry":{"type":"Point","coordinates":[-75.47708,5.03858]},"properties":{"Nombre":"CORREDOR CONECTIVIDAD","OBJECTID":5,"Resolucion":"0476-2021","Observacio":"Desafectación área del corredor"}},{"type":"Feature","id":6,"geometry":{"type":"Point","coordinates":[-75.48163,5.03912]},"properties":{"Nombre":"CORREDOR CONECTIVIDAD","OBJECTID":6,"Resolucion":"0476-2021","Observacio":"Desafectación área del corredor"}},{"type":"Feature","id":7,"geometry":{"type":"Point","coordinates":[-75.48057,5.05323]},"properties":{"Nombre":"ATG","OBJECTID":7,"Resolucion":"0507-2021","Observacio":"'NOTA: VERIFICAR CAMBIOSDE LA ATG EN VISOR DEL POT"}},{"type":"Feature","id":8,"geometry":{"type":"Point","coordinates":[-75.54312,5.05671]},"properties":{"Nombre":"FAJAS","OBJECTID":8,"Resolucion":"0364-2021","Observacio":"2021-II-00008099 El Arenillo"}},{"type":"Feature","id":9,"geometry":{"type":"Point","coordinates":[-75.51504,5.06233]},"properties":{"Nombre":"FAJAS","OBJECTID":9,"Resolucion":"2220-19","Observacio":" "}},{"type":"Feature","id":10,"geometry":{"type":"Point","coordinates":[-75.52633,5.10307]},"properties":{"Nombre":"FAJAS","OBJECTID":10,"Resolucion":"SIN RESOLUCION","Observacio":"2020-EI-00013542 La Palma"}},{"type":"Feature","id":11,"geometry":{"type":"Point","coordinates":[-75.47719,5.06841]},"properties":{"Nombre":"FAJAS","OBJECTID":11,"Resolucion":"PIP RES 003-2015","Observacio":" "}},{"type":"Feature","id":12,"geometry":{"type":"Point","coordinates":[-75.45141,5.03154]},"properties":{"Nombre":"FAJAS","OBJECTID":12,"Resolucion":"0754-2020","Observacio":" "}},{"type":"Feature","id":13,"geometry":{"type":"Point","coordinates":[-75.52731,5.06276]},"properties":{"Nombre":"ATG","OBJECTID":13,"Resolucion":"1622-2017","Observacio":"'NOTA: VERIFICAR CAMBIOSDE LA ATG EN VISOR DEL POT"}},{"type":"Feature","id":14,"geometry":{"type":"Point","coordinates":[-75.4915,5.07297]},"properties":{"Nombre":"FAJAS","OBJECTID":14,"Resolucion":"1610-2017","Observacio":" "}},{"type":"Feature","id":15,"geometry":{"type":"Point","coordinates":[-75.48598,5.06061]},"properties":{"Nombre":"FAJAS","OBJECTID":15,"Resolucion":"1476-2017","Observacio":" "}},{"type":"Feature","id":16,"geometry":{"type":"Point","coordinates":[-75.50525,5.06835]},"properties":{"Nombre":"FAJAS","OBJECTID":16,"Resolucion":"2143-2017","Observacio":" "}},{"type":"Feature","id":17,"geometry":{"type":"Point","coordinates":[-75.51918,5.06294]},"properties":{"Nombre":"ATG","OBJECTID":17,"Resolucion":"2111-2017","Observacio":"'NOTA: VERIFICAR CAMBIOSDE LA ATG EN VISOR DEL POT"}},{"type":"Feature","id":18,"geometry":{"type":"Point","coordinates":[-75.47184,5.05616]},"properties":{"Nombre":"ATG","OBJECTID":18,"Resolucion":"0493-2018","Observacio":"'NOTA: VERIFICAR CAMBIOSDE LA ATG EN VISOR DEL POT"}},{"type":"Feature","id":19,"geometry":{"type":"Point","coordinates":[-75.47293,5.03283]},"properties":{"Nombre":"FAJAS","OBJECTID":19,"Resolucion":"1219-2432-2018 y 1726-2019","Observacio":" "}},{"type":"Feature","id":20,"geometry":{"type":"Point","coordinates":[-75.47457,5.05957]},"properties":{"Nombre":"FAJAS","OBJECTID":20,"Resolucion":"2278-2018","Observacio":" "}},{"type":"Feature","id":21,"geometry":{"type":"Point","coordinates":[-75.52905,5.0717]},"properties":{"Nombre":"FAJAS","OBJECTID":21,"Resolucion":"1618-2019","Observacio":" "}},{"type":"Feature","id":22,"geometry":{"type":"Point","coordinates":[-75.48701,5.06247]},"properties":{"Nombre":"FAJAS","OBJECTID":22,"Resolucion":"0411-2018","Observacio":" "}},{"type":"Feature","id":23,"geometry":{"type":"Point","coordinates":[-75.47836,5.06167]},"properties":{"Nombre":"FAJAS","OBJECTID":23,"Resolucion":"2426-2018","Observacio":" "}},{"type":"Feature","id":24,"geometry":{"type":"Point","coordinates":[-75.45803,5.03845]},"properties":{"Nombre":"FAJAS","OBJECTID":24,"Resolucion":"1994-2018","Observacio":" "}},{"type":"Feature","id":25,"geometry":{"type":"Point","coordinates":[-75.50162,5.07632]},"properties":{"Nombre":"FAJAS","OBJECTID":25,"Resolucion":"1711-2017","Observacio":" "}},{"type":"Feature","id":26,"geometry":{"type":"Point","coordinates":[-75.4251,5.03917]},"properties":{"Nombre":"FAJAS","OBJECTID":26,"Resolucion":"1912-2018","Observacio":" "}},{"type":"Feature","id":27,"geometry":{"type":"Point","coordinates":[-75.52811,5.09566]},"properties":{"Nombre":"FAJAS","OBJECTID":27,"Resolucion":"0783-2328-2018","Observacio":" "}},{"type":"Feature","id":28,"geometry":{"type":"Point","coordinates":[-75.47808,5.0431]},"properties":{"Nombre":"FAJAS","OBJECTID":28,"Resolucion":"0972-2018","Observacio":" "}},{"type":"Feature","id":29,"geometry":{"type":"Point","coordinates":[-75.43557,5.04285]},"properties":{"Nombre":"FAJAS","OBJECTID":29,"Resolucion":"0979-2018","Observacio":" "}},{"type":"Feature","id":30,"geometry":{"type":"Point","coordinates":[-75.52475,5.05783]},"properties":{"Nombre":"FAJAS","OBJECTID":30,"Resolucion":"1876-2018","Observacio":" "}},{"type":"Feature","id":31,"geometry":{"type":"Point","coordinates":[-75.45652,5.04213]},"properties":{"Nombre":"FAJAS","OBJECTID":31,"Resolucion":"1950-2018","Observacio":" "}},{"type":"Feature","id":32,"geometry":{"type":"Point","coordinates":[-75.50194,5.06851]},"properties":{"Nombre":"ATG","OBJECTID":32,"Resolucion":"2219-2017","Observacio":"'NOTA: VERIFICAR CAMBIOSDE LA ATG EN VISOR DEL POT"}},{"type":"Feature","id":33,"geometry":{"type":"Point","coordinates":[-75.48402,5.04581]},"properties":{"Nombre":"ATG","OBJECTID":33,"Resolucion":"1608-2019","Observacio":"'NOTA: VERIFICAR CAMBIOSDE LA ATG EN VISOR DEL POT"}},{"type":"Feature","id":34,"geometry":{"type":"Point","coordinates":[-75.47107,5.06462]},"properties":{"Nombre":"ATG","OBJECTID":34,"Resolucion":"2139-2018","Observacio":"'NOTA: VERIFICAR CAMBIOSDE LA ATG EN VISOR DEL POT"}},{"type":"Feature","id":35,"geometry":{"type":"Point","coordinates":[-75.57309,5.04978]},"properties":{"Nombre":" MICROCUENCAS","OBJECTID":35,"Resolucion":"0791-2017","Observacio":" "}},{"type":"Feature","id":36,"geometry":{"type":"Point","coordinates":[-75.54192,5.01665]},"properties":{"Nombre":" MICROCUENCAS","OBJECTID":36,"Resolucion":"0976-2016","Observacio":" "}},{"type":"Feature","id":37,"geometry":{"type":"Point","coordinates":[-75.49247,5.06663]},"properties":{"Nombre":"FAJAS","OBJECTID":37,"Resolucion":"2412-2019","Observacio":" "}},{"type":"Feature","id":38,"geometry":{"type":"Point","coordinates":[-75.49022,5.08354]},"properties":{"Nombre":"FAJAS","OBJECTID":38,"Resolucion":"2463-2019","Observacio":" "}},{"type":"Feature","id":39,"geometry":{"type":"Point","coordinates":[-75.54879,5.09303]},"properties":{"Nombre":"FAJAS","OBJECTID":39,"Resolucion":"1979-2019","Observacio":" "}},{"type":"Feature","id":40,"geometry":{"type":"Point","coordinates":[-75.47396,5.06703]},"properties":{"Nombre":"FAJAS","OBJECTID":40,"Resolucion":"0147-2020","Observacio":" "}},{"type":"Feature","id":41,"geometry":{"type":"Point","coordinates":[-75.47442,5.03782]},"properties":{"Nombre":"FAJAS","OBJECTID":41,"Resolucion":"2276-2019","Observacio":" "}},{"type":"Feature","id":42,"geometry":{"type":"Point","coordinates":[-75.46867,5.06301]},"properties":{"Nombre":"FAJAS","OBJECTID":42,"Resolucion":"0119-2020","Observacio":" "}},{"type":"Feature","id":43,"geometry":{"type":"Point","coordinates":[-75.51057,5.0606]},"properties":{"Nombre":"FAJAS","OBJECTID":43,"Resolucion":"2533-2019","Observacio":" "}},{"type":"Feature","id":44,"geometry":{"type":"Point","coordinates":[-75.48801,5.0879]},"properties":{"Nombre":"FAJAS","OBJECTID":44,"Resolucion":"0268-2020","Observacio":" "}},{"type":"Feature","id":45,"geometry":{"type":"Point","coordinates":[-75.50657,5.05739]},"properties":{"Nombre":"FAJAS","OBJECTID":45,"Resolucion":"2287-2019","Observacio":" "}},{"type":"Feature","id":46,"geometry":{"type":"Point","coordinates":[-75.51161,5.05383]},"properties":{"Nombre":"FAJAS","OBJECTID":46,"Resolucion":"2532-2019","Observacio":" "}},{"type":"Feature","id":47,"geometry":{"type":"Point","coordinates":[-75.46904,5.03299]},"properties":{"Nombre":"FAJAS","OBJECTID":47,"Resolucion":"1127-2064-2019","Observacio":" "}},{"type":"Feature","id":48,"geometry":{"type":"Point","coordinates":[-75.45434,5.03589]},"properties":{"Nombre":"FAJAS","OBJECTID":48,"Resolucion":"1611-2018 y 2392-2019","Observacio":" "}},{"type":"Feature","id":49,"geometry":{"type":"Point","coordinates":[-75.4296,5.03874]},"properties":{"Nombre":"FAJAS","OBJECTID":49,"Resolucion":"0133-2020","Observacio":" "}},{"type":"Feature","id":50,"geometry":{"type":"Point","coordinates":[-75.46643,5.06315]},"properties":{"Nombre":"FAJAS","OBJECTID":50,"Resolucion":"0825-2020","Observacio":"2020-II-00015611"}},{"type":"Feature","id":51,"geometry":{"type":"Point","coordinates":[-75.46892,5.0586]},"properties":{"Nombre":"FAJAS","OBJECTID":51,"Resolucion":"0846-2020","Observacio":"2020-II-00019327 Bosques de Niza"}},{"type":"Feature","id":52,"geometry":{"type":"Point","coordinates":[-75.47411,5.06524]},"properties":{"Nombre":"FAJAS","OBJECTID":52,"Resolucion":"0755-2020","Observacio":"2020-II-000146000_ La Cumbre"}},{"type":"Feature","id":53,"geometry":{"type":"Point","coordinates":[-75.47132,5.03325]},"properties":{"Nombre":"FAJAS","OBJECTID":53,"Resolucion":"1004-2020","Observacio":"2020-II-00013828 Urbanización El Pinar-San Marcel"}},{"type":"Feature","id":54,"geometry":{"type":"Point","coordinates":[-75.45716,5.04284]},"properties":{"Nombre":"FAJAS","OBJECTID":54,"Resolucion":"1064-2020","Observacio":"lote 48C de cerros de la Alhambra"}},{"type":"Feature","id":55,"geometry":{"type":"Point","coordinates":[-75.47885,5.06703]},"properties":{"Nombre":"FAJAS","OBJECTID":55,"Resolucion":"0833-2020","Observacio":" "}},{"type":"Feature","id":56,"geometry":{"type":"Point","coordinates":[-75.5011,5.07677]},"properties":{"Nombre":"FAJAS","OBJECTID":56,"Resolucion":"0872-2020","Observacio":" "}},{"type":"Feature","id":57,"geometry":{"type":"Point","coordinates":[-75.50728,5.04687]},"properties":{"Nombre":"FAJAS","OBJECTID":57,"Resolucion":"0665-2020","Observacio":" "}},{"type":"Feature","id":58,"geometry":{"type":"Point","coordinates":[-75.47222,5.06694]},"properties":{"Nombre":"FAJAS","OBJECTID":58,"Resolucion":"0855-2020","Observacio":" "}},{"type":"Feature","id":59,"geometry":{"type":"Point","coordinates":[-75.48339,5.04241]},"properties":{"Nombre":"FAJAS","OBJECTID":59,"Resolucion":"0322-2020","Observacio":" "}},{"type":"Feature","id":60,"geometry":{"type":"Point","coordinates":[-75.48156,5.039]},"properties":{"Nombre":"FAJAS","OBJECTID":60,"Resolucion":"0536-2020","Observacio":" "}},{"type":"Feature","id":61,"geometry":{"type":"Point","coordinates":[-75.46148,5.03778]},"properties":{"Nombre":"FAJAS","OBJECTID":61,"Resolucion":"0650-2020","Observacio":" "}},{"type":"Feature","id":62,"geometry":{"type":"Point","coordinates":[-75.52704,5.06723]},"properties":{"Nombre":"PREEXISTENCIAS","OBJECTID":62,"Resolucion":"SIN RESOLUCION","Observacio":"Calle 5A 21-04, Alcazares"}},{"type":"Feature","id":63,"geometry":{"type":"Point","coordinates":[-75.55573,5.09217]},"properties":{"Nombre":"FAJAS","OBJECTID":63,"Resolucion":"1115-2020","Observacio":"2020-II-00027181"}},{"type":"Feature","id":64,"geometry":{"type":"Point","coordinates":[-75.59444,5.01016]},"properties":{"Nombre":"FAJAS","OBJECTID":64,"Resolucion":"1120-2020","Observacio":"2020-II-00023576 EL CHAQUIRO_EL ROSARIO"}},{"type":"Feature","id":65,"geometry":{"type":"Point","coordinates":[-75.54129,5.05786]},"properties":{"Nombre":"FAJAS","OBJECTID":65,"Resolucion":"0046-2021","Observacio":"2021-II-00000152 EL ARENILLO"}},{"type":"Feature","id":66,"geometry":{"type":"Point","coordinates":[-75.44987,5.03874]},"properties":{"Nombre":"FAJAS","OBJECTID":66,"Resolucion":"0611-2020","Observacio":" "}},{"type":"Feature","id":67,"geometry":{"type":"Point","coordinates":[-75.47707,5.04238]},"properties":{"Nombre":"FAJAS","OBJECTID":67,"Resolucion":"0050-2021","Observacio":"ALTO EL PERRO"}},{"type":"Feature","id":68,"geometry":{"type":"Point","coordinates":[-75.53454,5.06646]},"properties":{"Nombre":"FAJAS","OBJECTID":68,"Resolucion":"0461-2021","Observacio":"2021-II-00004891, LA FRANCIA"}},{"type":"Feature","id":69,"geometry":{"type":"Point","coordinates":[-75.43479,5.03623]},"properties":{"Nombre":"FAJAS","OBJECTID":69,"Resolucion":"0259-2021","Observacio":"2021-II-00006169  Juanchito"}},{"type":"Feature","id":70,"geometry":{"type":"Point","coordinates":[-75.47787,5.06172]},"properties":{"Nombre":"FAJAS","OBJECTID":70,"Resolucion":"0675-2020","Observacio":"La Toscana"}},{"type":"Feature","id":71,"geometry":{"type":"Point","coordinates":[-75.47942,5.04195]},"properties":{"Nombre":"FAJAS","OBJECTID":71,"Resolucion":"0550-2020","Observacio":"El Trebol"}},{"type":"Feature","id":72,"geometry":{"type":"Point","coordinates":[-75.47424,5.05872]},"properties":{"Nombre":"FAJAS","OBJECTID":72,"Resolucion":"1531-2019","Observacio":"La Sultana"}},{"type":"Feature","id":73,"geometry":{"type":"Point","coordinates":[-75.58272,5.02662]},"properties":{"Nombre":"FAJAS","OBJECTID":73,"Resolucion":"1005-2020","Observacio":"El Rosario"}},{"type":"Feature","id":74,"geometry":{"type":"Point","coordinates":[-75.47133,5.06894]},"properties":{"Nombre":"FAJAS","OBJECTID":74,"Resolucion":"0566-2021","Observacio":"2021-II-00013583 , La Cumbre"}},{"type":"Feature","id":75,"geometry":{"type":"Point","coordinates":[-75.47785,5.03838]},"properties":{"Nombre":"CORREDOR CONECTIVIDAD","OBJECTID":75,"Resolucion":"0431-2021","Observacio":"Desafectación área del corredor"}},{"type":"Feature","id":76,"geometry":{"type":"Point","coordinates":[-75.47684,5.0386]},"properties":{"Nombre":"CORREDOR CONECTIVIDAD","OBJECTID":76,"Resolucion":"0431-2021","Observacio":"Desafectación área del corredor"}},{"type":"Feature","id":77,"geometry":{"type":"Point","coordinates":[-75.4764,5.05966]},"properties":{"Nombre":"ATG","OBJECTID":77,"Resolucion":"0148-2019","Observacio":"'NOTA: VERIFICAR CAMBIOSDE LA ATG EN VISOR DEL POT"}},{"type":"Feature","id":78,"geometry":{"type":"Point","coordinates":[-75.4963,5.05176]},"properties":{"Nombre":"ATG","OBJECTID":78,"Resolucion":"1097-2020","Observacio":"NOTA: VERIFICAR CAMBIOSDE LA ATG EN VISOR DEL POT"}},{"type":"Feature","id":79,"geometry":{"type":"Point","coordinates":[-75.54402,5.07151]},"properties":{"Nombre":"FAJAS","OBJECTID":79,"Resolucion":"0085-2021","Observacio":"2021-IE-00003178"}},{"type":"Feature","id":80,"geometry":{"type":"Point","coordinates":[-75.4579,5.03481]},"properties":{"Nombre":"FAJAS","OBJECTID":80,"Resolucion":"0982-2021","Observacio":"2021-II-00024821-2021-EI-00015917"}},{"type":"Feature","id":81,"geometry":{"type":"Point","coordinates":[-75.52704,5.08036]},"properties":{"Nombre":"CORREDOR CONECTIVIDAD","OBJECTID":81,"Resolucion":"0918-2021","Observacio":" "}},{"type":"Feature","id":82,"geometry":{"type":"Point","coordinates":[-75.47279,5.04238]},"properties":{"Nombre":"FAJAS","OBJECTID":82,"Resolucion":"0130-2022","Observacio":"Ocupación cauce EXPOFERIAS"}},{"type":"Feature","id":83,"geometry":{"type":"Point","coordinates":[-75.45262,5.02901]},"properties":{"Nombre":"AIA TESORITO","OBJECTID":83,"Resolucion":"1269-2021","Observacio":"Areas interes Ambiental Tesorito"}},{"type":"Feature","id":84,"geometry":{"type":"Point","coordinates":[-75.60818,5.08403]},"properties":{"Nombre":"FAJAS","OBJECTID":84,"Resolucion":" ","Observacio":"2022-II-00002152"}},{"type":"Feature","id":85,"geometry":{"type":"Point","coordinates":[-75.45816,5.0358]},"properties":{"Nombre":"RIESGO","OBJECTID":85,"Resolucion":"0047-2022","Observacio":"Amenaza y riesgo Inundación"}},{"type":"Feature","id":86,"geometry":{"type":"Point","coordinates":[-75.57949,5.03689]},"properties":{"Nombre":"RIESGO","OBJECTID":86,"Resolucion":"0039 -2022","Observacio":"Amenaza y riesgo Inundación"}},{"type":"Feature","id":87,"geometry":{"type":"Point","coordinates":[-75.53709,5.06462]},"properties":{"Nombre":"FAJAS","OBJECTID":87,"Resolucion":"0406-2022","Observacio":"2022-II-00005828"}},{"type":"Feature","id":88,"geometry":{"type":"Point","coordinates":[-75.46454,5.05082]},"properties":{"Nombre":"FAJAS","OBJECTID":88,"Resolucion":" ","Observacio":"2022-II-00008985"}},{"type":"Feature","id":89,"geometry":{"type":"Point","coordinates":[-75.47694,5.03043]},"properties":{"Nombre":"CORREDOR CONECTIVIDAD","OBJECTID":89,"Resolucion":"0333-2022","Observacio":"2022-IE-00006491"}},{"type":"Feature","id":90,"geometry":{"type":"Point","coordinates":[-75.48121,5.12928]},"properties":{"Nombre":"FAJAS","OBJECTID":90,"Resolucion":" ","Observacio":"2022-II-00010539"}},{"type":"Feature","id":91,"geometry":{"type":"Point","coordinates":[-75.68628,5.08556]},"properties":{"Nombre":"FAJAS","OBJECTID":91,"Resolucion":null,"Observacio":"2022-II-00022594"}},{"type":"Feature","id":93,"geometry":{"type":"Point","coordinates":[-75.48137,5.06017]},"properties":{"Nombre":null,"OBJECTID":93,"Resolucion":null,"Observacio":null}},{"type":"Feature","id":94,"geometry":{"type":"Point","coordinates":[-75.46816,5.0601]},"properties":{"Nombre":"FAJA","OBJECTID":94,"Resolucion":"1201-2022","Observacio":null}},{"type":"Feature","id":95,"geometry":{"type":"Point","coordinates":[-75.42837,5.04012]},"properties":{"Nombre":"FAJAS","OBJECTID":95,"Resolucion":"1242-2022","Observacio":null}},{"type":"Feature","id":96,"geometry":{"type":"Point","coordinates":[-75.46867,5.06115]},"properties":{"Nombre":null,"OBJECTID":96,"Resolucion":"1351-2022","Observacio":null}},{"type":"Feature","id":97,"geometry":{"type":"Point","coordinates":[-75.49218,5.0539]},"properties":{"Nombre":null,"OBJECTID":97,"Resolucion":"1487-2022","Observacio":null}},{"type":"Feature","id":98,"geometry":{"type":"Point","coordinates":[-75.49372,5.05347]},"properties":{"Nombre":null,"OBJECTID":98,"Resolucion":"1486-2022","Observacio":null}},{"type":"Feature","id":99,"geometry":{"type":"Point","coordinates":[-75.47421,5.06184]},"properties":{"Nombre":null,"OBJECTID":99,"Resolucion":"1480-2022","Observacio":null}},{"type":"Feature","id":100,"geometry":{"type":"Point","coordinates":[-75.59621,5.04884]},"properties":{"Nombre":null,"OBJECTID":100,"Resolucion":"1478-2022","Observacio":null}},{"type":"Feature","id":101,"geometry":{"type":"Point","coordinates":[-75.53312,5.06974]},"properties":{"Nombre":null,"OBJECTID":101,"Resolucion":"1488-2022","Observacio":null}},{"type":"Feature","id":102,"geometry":{"type":"Point","coordinates":[-75.60736,5.09045]},"properties":{"Nombre":"FAJAS","OBJECTID":102,"Resolucion":"0651 de Junio 27 de 2023","Observacio":"2023-II-00007913"}},{"type":"Feature","id":103,"geometry":{"type":"Point","coordinates":[-75.45867,5.03779]},"properties":{"Nombre":"FAJAS","OBJECTID":103,"Resolucion":null,"Observacio":"Modificación 2022-II-00034529"}},{"type":"Feature","id":104,"geometry":{"type":"Point","coordinates":[-75.57298,5.05137]},"properties":{"Nombre":"FAJA - NACIMIENTO","OBJECTID":104,"Resolucion":"0650 del 27 de Junio de 2023","Observacio":"2023-IE-00012679 - Se añadió nacimiento"}},{"type":"Feature","id":105,"geometry":{"type":"Point","coordinates":[-75.47769,5.06207]},"properties":{"Nombre":"FAJAS","OBJECTID":105,"Resolucion":"0272-2022","Observacio":"0272-2022"}},{"type":"Feature","id":106,"geometry":{"type":"Point","coordinates":[-75.47902,5.06113]},"properties":{"Nombre":"FAJAS","OBJECTID":106,"Resolucion":null,"Observacio":"2023-II-00019778 - Carabineros"}},{"type":"Feature","id":107,"geometry":{"type":"Point","coordinates":[-75.41159,5.0299]},"properties":{"Nombre":"FAJAS- NACIMIENTO","OBJECTID":107,"Resolucion":null,"Observacio":"2023-II-00022701"}},{"type":"Feature","id":108,"geometry":{"type":"Point","coordinates":[-75.46605,5.03782]},"properties":{"Nombre":"FAJAS","OBJECTID":108,"Resolucion":null,"Observacio":"2023-II-00027760"}},{"type":"Feature","id":109,"geometry":{"type":"Point","coordinates":[-75.54383,5.09407]},"properties":{"Nombre":"FAJAS- NACIMIENTO","OBJECTID":109,"Resolucion":null,"Observacio":"2023-II-00025119"}},{"type":"Feature","id":110,"geometry":{"type":"Point","coordinates":[-75.48691,5.0749]},"properties":{"Nombre":"FAJAS","OBJECTID":110,"Resolucion":null,"Observacio":"2023-II-00028133 "}},{"type":"Feature","id":111,"geometry":{"type":"Point","coordinates":[-75.5014,5.07716]},"properties":{"Nombre":"FAJAS","OBJECTID":111,"Resolucion":null,"Observacio":"2023-II-00031502"}},{"type":"Feature","id":112,"geometry":{"type":"Point","coordinates":[-75.58024,5.03494]},"properties":{"Nombre":"FAJAS- NACIMIENTO","OBJECTID":112,"Resolucion":null,"Observacio":"2023-II-00032105"}},{"type":"Feature","id":113,"geometry":{"type":"Point","coordinates":[-75.60164,5.08945]},"properties":{"Nombre":"FAJAS","OBJECTID":113,"Resolucion":"0444 del 22 de Mayo de 2024","Observacio":"2023-II-00032324"}},{"type":"Feature","id":114,"geometry":{"type":"Point","coordinates":[-75.59074,5.0454]},"properties":{"Nombre":"FAJAS- NACIMIENTO","OBJECTID":114,"Resolucion":null,"Observacio":"2023-II-00034250"}},{"type":"Feature","id":115,"geometry":{"type":"Point","coordinates":[-75.47871,4.95218]},"properties":{"Nombre":"FAJAS","OBJECTID":115,"Resolucion":null,"Observacio":"2023-II-00031568"}},{"type":"Feature","id":116,"geometry":{"type":"Point","coordinates":[-75.59826,5.05118]},"properties":{"Nombre":"FAJAS - NACIMIENTO","OBJECTID":116,"Resolucion":null,"Observacio":"2023-II-00033625"}},{"type":"Feature","id":117,"geometry":{"type":"Point","coordinates":[-75.58901,5.13066]},"properties":{"Nombre":"FAJAS","OBJECTID":117,"Resolucion":null,"Observacio":"2024-II-00002385"}},{"type":"Feature","id":118,"geometry":{"type":"Point","coordinates":[-75.63426,5.06736]},"properties":{"Nombre":"FAJAS - NACIMIENTO","OBJECTID":118,"Resolucion":null,"Observacio":"2024-II-00004402"}},{"type":"Feature","id":119,"geometry":{"type":"Point","coordinates":[-75.52547,5.06883]},"properties":{"Nombre":"FAJAS","OBJECTID":119,"Resolucion":null,"Observacio":"2024-II-00014857"}},{"type":"Feature","id":120,"geometry":{"type":"Point","coordinates":[-75.5562,5.09499]},"properties":{"Nombre":"FAJAS - NACIMIENTO","OBJECTID":120,"Resolucion":"0721-2024","Observacio":"2024-II-00015549"}},{"type":"Feature","id":121,"geometry":{"type":"Point","coordinates":[-75.59148,5.04528]},"properties":{"Nombre":"FAJAS - NACIMIENTO","OBJECTID":121,"Resolucion":null,"Observacio":"2024-II-00014934"}},{"type":"Feature","id":122,"geometry":{"type":"Point","coordinates":[-75.5467,5.01343]},"properties":{"Nombre":"FAJAS - NACIMIENTO","OBJECTID":122,"Resolucion":"0937-2024","Observacio":"2024-II-00019850"}},{"type":"Feature","id":123,"geometry":{"type":"Point","coordinates":[-75.53184,5.05847]},"properties":{"Nombre":"FAJAS - NACIMIENTO","OBJECTID":123,"Resolucion":null,"Observacio":"2024-II-00020639"}},{"type":"Feature","id":124,"geometry":{"type":"Point","coordinates":[-75.60156,5.0904]},"properties":{"Nombre":"FAJAS - NACIMIENTO","OBJECTID":124,"Resolucion":null,"Observacio":"2024-II-00023418"}},{"type":"Feature","id":125,"geometry":{"type":"Point","coordinates":[-75.65375,5.15584]},"properties":{"Nombre":"FAJAS","OBJECTID":125,"Resolucion":null,"Observacio":"2024-II-00024234"}},{"type":"Feature","id":126,"geometry":{"type":"Point","coordinates":[-75.63792,5.08957]},"properties":{"Nombre":"FAJAS - NACIMIENTO","OBJECTID":126,"Resolucion":null,"Observacio":"2024-II-00023638"}},{"type":"Feature","id":127,"geometry":{"type":"Point","coordinates":[-75.52844,5.06096]},"properties":{"Nombre":"ZPHA","OBJECTID":127,"Resolucion":null,"Observacio":"2024-II-00028264"}},{"type":"Feature","id":128,"geometry":{"type":"Point","coordinates":[-75.52379,5.05692]},"properties":{"Nombre":"ZPHA - RETIRO PENDIENTES","OBJECTID":128,"Resolucion":null,"Observacio":"2025-II-00008037"}},{"type":"Feature","id":129,"geometry":{"type":"Point","coordinates":[-75.5485,5.07481]},"properties":{"Nombre":"FAJAS - NACIMIENTO","OBJECTID":129,"Resolucion":null,"Observacio":"2025-II-00011335"}},{"type":"Feature","id":130,"geometry":{"type":"Point","coordinates":[-75.63978,5.07474]},"properties":{"Nombre":"FAJA - NACIMIENTO","OBJECTID":130,"Resolucion":"0587-2024","Observacio":"2024-II-00013981"}},{"type":"Feature","id":131,"geometry":{"type":"Point","coordinates":[-75.46873,5.06221]},"properties":{"Nombre":"ZPHA","OBJECTID":131,"Resolucion":null,"Observacio":"2023-II-00003214"}},{"type":"Feature","id":132,"geometry":{"type":"Point","coordinates":[-75.5351,5.09434]},"properties":{"Nombre":"FAJAS-NACIMIENTO","OBJECTID":132,"Resolucion":null,"Observacio":"2023-II-00014414"}},{"type":"Feature","id":133,"geometry":{"type":"Point","coordinates":[-75.62523,5.08247]},"properties":{"Nombre":"NACIMIENTO","OBJECTID":133,"Resolucion":null,"Observacio":"2023-II-00037880"}},{"type":"Feature","id":134,"geometry":{"type":"Point","coordinates":[-75.59932,5.06187]},"properties":{"Nombre":"FAJAS","OBJECTID":134,"Resolucion":null,"Observacio":"2024-II-00001330"}},{"type":"Feature","id":135,"geometry":{"type":"Point","coordinates":[-75.54853,5.09648]},"properties":{"Nombre":"ZPHA","OBJECTID":135,"Resolucion":null,"Observacio":"2024-II-00002508"}},{"type":"Feature","id":136,"geometry":{"type":"Point","coordinates":[-75.43317,5.03914]},"properties":{"Nombre":"ZPHA","OBJECTID":136,"Resolucion":null,"Observacio":"2024-II-00012068"}},{"type":"Feature","id":137,"geometry":{"type":"Point","coordinates":[-75.52265,5.10202]},"properties":{"Nombre":"Nacimiento","OBJECTID":137,"Resolucion":null,"Observacio":"2024-II-00032950"}},{"type":"Feature","id":138,"geometry":{"type":"Point","coordinates":[-75.65354,5.15953]},"properties":{"Nombre":"FAJAS-NACIMIENTO","OBJECTID":138,"Resolucion":null,"Observacio":"2025-II-00017144"}},{"type":"Feature","id":139,"geometry":{"type":"Point","coordinates":[-75.55683,5.07633]},"properties":{"Nombre":"FAJA-NACIMIENTO","OBJECTID":139,"Resolucion":"RES#1029-2026","Observacio":"2025-II-00020267"}},{"type":"Feature","id":140,"geometry":{"type":"Point","coordinates":[-75.53986,5.07165]},"properties":{"Nombre":"FAJAS-NACIMIENTO","OBJECTID":140,"Resolucion":"RES#1029-2026","Observacio":"2025-II-00015587  "}},{"type":"Feature","id":141,"geometry":{"type":"Point","coordinates":[-75.5834,5.03007]},"properties":{"Nombre":"FAJAS-NACIMIENTOS","OBJECTID":141,"Resolucion":"RES#1029-2026","Observacio":"2025-II-00004997"}},{"type":"Feature","id":142,"geometry":{"type":"Point","coordinates":[-75.5814,5.13538]},"properties":{"Nombre":"NACIMIENTO","OBJECTID":142,"Resolucion":null,"Observacio":"2025-II-00021886"}},{"type":"Feature","id":143,"geometry":{"type":"Point","coordinates":[-75.50763,5.05624]},"properties":{"Nombre":"ZPHA","OBJECTID":143,"Resolucion":"RES#1029-2026","Observacio":"2025-II-00024011"}},{"type":"Feature","id":144,"geometry":{"type":"Point","coordinates":[-75.49746,5.06954]},"properties":{"Nombre":"ZPHA","OBJECTID":144,"Resolucion":"RES#1029-2026","Observacio":"2025-II-00031920"}},{"type":"Feature","id":145,"geometry":{"type":"Point","coordinates":[-75.53905,5.07259]},"properties":{"Nombre":"FAJAS-NACIMIENTOS","OBJECTID":145,"Resolucion":"RES#1029-2026","Observacio":"2025-II-00029238"}},{"type":"Feature","id":146,"geometry":{"type":"Point","coordinates":[-75.62667,5.08097]},"properties":{"Nombre":"FAJAS-NACIMIENTO","OBJECTID":146,"Resolucion":"RES#1029-2026","Observacio":"2025-II-00026538"}},{"type":"Feature","id":147,"geometry":{"type":"Point","coordinates":[-75.5253,5.06716]},"properties":{"Nombre":"ZPHA","OBJECTID":147,"Resolucion":"RES#1029-2026","Observacio":"2025-II-00032664"}},{"type":"Feature","id":148,"geometry":{"type":"Point","coordinates":[-75.48072,5.0605]},"properties":{"Nombre":"ZPHA","OBJECTID":148,"Resolucion":"RES#1453-2025","Observacio":"2025-II-00036531"}},{"type":"Feature","id":149,"geometry":{"type":"Point","coordinates":[-75.43676,5.04317]},"properties":{"Nombre":"ZPHA","OBJECTID":149,"Resolucion":"RES#1029-2026","Observacio":"2025-II-00039521"}},{"type":"Feature","id":150,"geometry":{"type":"Point","coordinates":[-75.4932,5.05332]},"properties":{"Nombre":"ZPHA","OBJECTID":150,"Resolucion":"RES#1029-2026","Observacio":"2025-II-00025514  "}},{"type":"Feature","id":151,"geometry":{"type":"Point","coordinates":[-75.58506,5.05908]},"properties":{"Nombre":"FAJAS-NACIMIENTO","OBJECTID":151,"Resolucion":"RES#1029-2026","Observacio":"2025-II-00030170"}},{"type":"Feature","id":152,"geometry":{"type":"Point","coordinates":[-75.50052,5.0703]},"properties":{"Nombre":"ZPHA","OBJECTID":152,"Resolucion":"RES#1029-2026","Observacio":"2025-II-00034847"}},{"type":"Feature","id":153,"geometry":{"type":"Point","coordinates":[-75.56621,5.04868]},"properties":{"Nombre":"NACIMIENTO","OBJECTID":153,"Resolucion":"RES#1029-2026","Observacio":"2025-II-00032294"}},{"type":"Feature","id":154,"geometry":{"type":"Point","coordinates":[-75.6305,5.08139]},"properties":{"Nombre":"FAJAS-NACIMIENTOS","OBJECTID":154,"Resolucion":"RES#1029-2026","Observacio":"2025-II-00045343"}},{"type":"Feature","id":155,"geometry":{"type":"Point","coordinates":[-75.54811,5.078]},"properties":{"Nombre":"Fajas - Nacimiento","OBJECTID":155,"Resolucion":"RES#1029-2026","Observacio":"2025-II-00044604"}},{"type":"Feature","id":156,"geometry":{"type":"Point","coordinates":[-75.42608,5.03537]},"properties":{"Nombre":"ZPHA","OBJECTID":156,"Resolucion":"2025-II-00035726","Observacio":"2025-II-00035726"}},{"type":"Feature","id":157,"geometry":{"type":"Point","coordinates":[-75.50878,5.05502]},"properties":{"Nombre":"ZPHA","OBJECTID":157,"Resolucion":"RES#1029-2026","Observacio":"2025-II-00045647"}},{"type":"Feature","id":158,"geometry":{"type":"Point","coordinates":[-75.4463,5.05301]},"properties":{"Nombre":"FAJAS - NACIMIENTO","OBJECTID":158,"Resolucion":"RES#1029-2026","Observacio":"2025-II-00042422"}},{"type":"Feature","id":159,"geometry":{"type":"Point","coordinates":[-75.52306,5.07834]},"properties":{"Nombre":"ZPHA","OBJECTID":159,"Resolucion":"RES#1029-2026","Observacio":"2025-II-00035341"}},{"type":"Feature","id":160,"geometry":{"type":"Point","coordinates":[-75.49287,5.06675]},"properties":{"Nombre":"ZPHA","OBJECTID":160,"Resolucion":"RES#1029-2026","Observacio":"2026-II-00005413"}},{"type":"Feature","id":163,"geometry":{"type":"Point","coordinates":[-75.63766,5.07525]},"properties":{"Nombre":"NACIMIENTO","OBJECTID":163,"Resolucion":null,"Observacio":"2025-II-00038695"}},{"type":"Feature","id":164,"geometry":{"type":"Point","coordinates":[-75.55904,5.02649]},"properties":{"Nombre":"FAJAS","OBJECTID":164,"Resolucion":"RES#1029-2026","Observacio":"2026-II-00007141"}},{"type":"Feature","id":165,"geometry":{"type":"Point","coordinates":[-75.5421,5.02096]},"properties":{"Nombre":"FAJAS","OBJECTID":165,"Resolucion":"RES#1029-2026","Observacio":"2025-II-00031406"}},{"type":"Feature","id":166,"geometry":{"type":"Point","coordinates":[-75.65996,5.15919]},"properties":{"Nombre":"FAJAS","OBJECTID":166,"Resolucion":"RES#1029-2026","Observacio":"2025-II-00035400"}},{"type":"Feature","id":167,"geometry":{"type":"Point","coordinates":[-75.54339,5.05478]},"properties":{"Nombre":"FAJAS-NACIMIENTO","OBJECTID":167,"Resolucion":"RES#1029-2026","Observacio":"2026-II-00004051"}},{"type":"Feature","id":168,"geometry":{"type":"Point","coordinates":[-75.41403,5.04466]},"properties":{"Nombre":"FAJAS-NACIMIENTOS","OBJECTID":168,"Resolucion":"RES#1029-2026","Observacio":"2026-II-00013913"}},{"type":"Feature","id":169,"geometry":{"type":"Point","coordinates":[-75.6023,5.05434]},"properties":{"Nombre":"FAJAS-NACIMIENTOS","OBJECTID":169,"Resolucion":"RES#1029-2026","Observacio":"2026-II-00008189"}},{"type":"Feature","id":170,"geometry":{"type":"Point","coordinates":[-75.58306,5.05083]},"properties":{"Nombre":"FAJAS-NACIMIENTO","OBJECTID":170,"Resolucion":"RES#1029-2026","Observacio":"2026-II-00017031"}},{"type":"Feature","id":171,"geometry":{"type":"Point","coordinates":[-75.53807,5.09449]},"properties":{"Nombre":"FAJAS","OBJECTID":171,"Resolucion":"RES#1029-2026","Observacio":"2026-II-00017728"}},{"type":"Feature","id":172,"geometry":{"type":"Point","coordinates":[-75.47189,5.07354]},"properties":{"Nombre":"ZPHA-RETIRO PENDIENTES","OBJECTID":172,"Resolucion":"RES#1029-2026","Observacio":"2026-II-00015111"}},{"type":"Feature","id":173,"geometry":{"type":"Point","coordinates":[-75.56187,5.02731]},"properties":{"Nombre":"FAJAS-NACIMIENTOS","OBJECTID":173,"Resolucion":"RES#1029-2026","Observacio":"2026-II-00007980"}},{"type":"Feature","id":174,"geometry":{"type":"Point","coordinates":[-75.4463,5.05292]},"properties":{"Nombre":"FAJAS-NACIMIENTO","OBJECTID":174,"Resolucion":"RES#1029-2026","Observacio":"2026-II-00015901"}},{"type":"Feature","id":175,"geometry":{"type":"Point","coordinates":[-75.43706,5.03461]},"properties":{"Nombre":"ZPHA","OBJECTID":175,"Resolucion":"RES#1029-2026","Observacio":"2026-II-00005543"}},{"type":"Feature","id":176,"geometry":{"type":"Point","coordinates":[-75.53338,5.07428]},"properties":{"Nombre":"FAJAS-NACIMIENTO-ZPHA","OBJECTID":176,"Resolucion":"RES#1029-2026","Observacio":"2026-II-00018903"}},{"type":"Feature","id":177,"geometry":{"type":"Point","coordinates":[-75.53826,5.05448]},"properties":{"Nombre":"FAJAS-NACIMIENTO","OBJECTID":177,"Resolucion":null,"Observacio":"2026-II-00018490"}},{"type":"Feature","id":178,"geometry":{"type":"Point","coordinates":[-75.57986,5.04382]},"properties":{"Nombre":"FAJAS-NACIMIENTOS","OBJECTID":178,"Resolucion":null,"Observacio":"2026-II-00008612"}},{"type":"Feature","id":179,"geometry":{"type":"Point","coordinates":[-75.54661,5.03937]},"properties":{"Nombre":"FAJAS-NACIMIENTO","OBJECTID":179,"Resolucion":null,"Observacio":"2026-II-00022587"}},{"type":"Feature","id":180,"geometry":{"type":"Point","coordinates":[-75.56575,5.05302]},"properties":{"Nombre":"FAJAS","OBJECTID":180,"Resolucion":"RES#1029-2026","Observacio":"2025-II-00028498"}},{"type":"Feature","id":181,"geometry":{"type":"Point","coordinates":[-75.45135,5.05212]},"properties":{"Nombre":"FAJAS-NACIMIENTO","OBJECTID":181,"Resolucion":"RES#1029-2026","Observacio":"2025-II-00029870"}},{"type":"Feature","id":182,"geometry":{"type":"Point","coordinates":[-75.48128,5.09669]},"properties":{"Nombre":"FAJAS-NACIMIENTO","OBJECTID":182,"Resolucion":"RES#1029-2026","Observacio":"2025-II-00036239"}},{"type":"Feature","id":183,"geometry":{"type":"Point","coordinates":[-75.58484,5.04139]},"properties":{"Nombre":"FAJAS-NACIMIENTO","OBJECTID":183,"Resolucion":null,"Observacio":"2026-II-00018692"}}]}