{"type":"FeatureCollection","name":"Drenaje Sencillo Anserma","crs":{"type":"name","properties":{"name":"urn:ogc:def:crs:OGC:1.3:CRS84"}},"features":[{"type":"Feature","id":1,"geometry":{"type":"LineString","coordinates":[[-75.78788,5.22266],[-75.78788,5.22264],[-75.78786,5.22258],[-75.78784,5.22252],[-75.78783,5.22249],[-75.78782,5.22246],[-75.7878,5.22242],[-75.78779,5.22238],[-75.78777,5.22233],[-75.78775,5.22228],[-75.78774,5.22224],[-75.78773,5.22219],[-75.78771,5.22215],[-75.78769,5.22212],[-75.78766,5.22207],[-75.78761,5.22202],[-75.78757,5.22199],[-75.78751,5.22195],[-75.78747,5.22191],[-75.78743,5.22188],[-75.78739,5.22185],[-75.78734,5.22181],[-75.78731,5.22178],[-75.78729,5.22175],[-75.78726,5.22172],[-75.78723,5.22168],[-75.7872,5.22163],[-75.78714,5.22158]]},"properties":{"OBJECTID":31131,"ID_DS":88,"CODDEP":" ","CODCUENCA":"2615","CODDS":88,"TIPO":" ","NOMBRE":"Quebrada Cauya","ORDEN":" ","N_ORDEN":5,"FP":15,"Shape_Leng":149.920828137,"ORD_STRAHL":1,"FR_STRAHLE":15,"OBJECTID_1":1,"ZPHA":10,"ZPS":5,"Shape_Length":149.91143997483903}},{"type":"Feature","id":2,"geometry":{"type":"LineString","coordinates":[[-75.78923,5.2244],[-75.78923,5.22438],[-75.78925,5.22436],[-75.78927,5.22434],[-75.78929,5.22431],[-75.7893,5.22428],[-75.78933,5.22425],[-75.78935,5.22422],[-75.78938,5.2242],[-75.78942,5.22416],[-75.78945,5.22413],[-75.78947,5.22412],[-75.78949,5.22409],[-75.78952,5.22406],[-75.78954,5.22405],[-75.78954,5.22403],[-75.78955,5.22399],[-75.78956,5.22396],[-75.78957,5.22393],[-75.7896,5.2239],[-75.78961,5.22388],[-75.78963,5.22385],[-75.78966,5.22382],[-75.78968,5.22379],[-75.7897,5.22376],[-75.78972,5.22372],[-75.78975,5.22368],[-75.78978,5.22364],[-75.78981,5.22361],[-75.78983,5.22359],[-75.78988,5.22356],[-75.78991,5.22354],[-75.78995,5.22353],[-75.78999,5.22352],[-75.79003,5.2235],[-75.79006,5.2235],[-75.79008,5.2235],[-75.79011,5.22349],[-75.79017,5.22348],[-75.79021,5.22348],[-75.79026,5.22347],[-75.79031,5.22346],[-75.79034,5.22345],[-75.79041,5.22343],[-75.79045,5.22342],[-75.79049,5.2234],[-75.79054,5.22339],[-75.79058,5.22338],[-75.79063,5.22336],[-75.79068,5.22334],[-75.79074,5.22331],[-75.7908,5.22329]]},"properties":{"OBJECTID":31132,"ID_DS":88,"CODDEP":" ","CODCUENCA":"2615","CODDS":88,"TIPO":" ","NOMBRE":"Quebrada Cauya","ORDEN":" ","N_ORDEN":5,"FP":15,"Shape_Leng":226.493798457,"ORD_STRAHL":1,"FR_STRAHLE":15,"OBJECTID_1":2,"ZPHA":10,"ZPS":5,"Shape_Length":226.47974563227865}},{"type":"Feature","id":3,"geometry":{"type":"LineString","coordinates":[[-75.78566,5.22601],[-75.78563,5.226],[-75.78559,5.22598],[-75.78552,5.22595],[-75.78548,5.22594],[-75.78543,5.22591],[-75.78538,5.22588],[-75.78536,5.22586],[-75.78532,5.22585],[-75.78527,5.22584],[-75.78524,5.22582],[-75.78521,5.2258],[-75.78519,5.22578],[-75.78518,5.22575],[-75.78517,5.22571],[-75.78514,5.22567],[-75.78513,5.22563],[-75.7851,5.22559],[-75.78507,5.22555],[-75.78504,5.22552],[-75.785,5.22548],[-75.78496,5.22545],[-75.78492,5.22543],[-75.78488,5.2254],[-75.78483,5.22537],[-75.78479,5.22536],[-75.78472,5.22534],[-75.78467,5.22532],[-75.78459,5.2253],[-75.78453,5.2253],[-75.78448,5.22531],[-75.78444,5.22531],[-75.7844,5.22532],[-75.78436,5.22533],[-75.7843,5.22535],[-75.78427,5.22536],[-75.78424,5.22537],[-75.7842,5.22538],[-75.78416,5.22538],[-75.78415,5.22539],[-75.78412,5.22539],[-75.7841,5.22537]]},"properties":{"OBJECTID":31133,"ID_DS":88,"CODDEP":" ","CODCUENCA":"2615","CODDS":88,"TIPO":" ","NOMBRE":"Quebrada Cauya","ORDEN":" ","N_ORDEN":5,"FP":15,"Shape_Leng":204.716544492,"ORD_STRAHL":1,"FR_STRAHLE":15,"OBJECTID_1":3,"ZPHA":10,"ZPS":5,"Shape_Length":204.7035106314878}},{"type":"Feature","id":4,"geometry":{"type":"LineString","coordinates":[[-75.78436,5.22615],[-75.78427,5.22604],[-75.78424,5.22601],[-75.78421,5.22598],[-75.78417,5.22597],[-75.78414,5.22595],[-75.7841,5.22593],[-75.78406,5.22591],[-75.78403,5.2259],[-75.784,5.22589],[-75.78395,5.22587],[-75.78391,5.22585],[-75.78385,5.22581],[-75.7838,5.22577],[-75.78377,5.22574],[-75.78372,5.22572]]},"properties":{"OBJECTID":31134,"ID_DS":88,"CODDEP":" ","CODCUENCA":"2615","CODDS":88,"TIPO":" ","NOMBRE":"Quebrada Cauya","ORDEN":" ","N_ORDEN":5,"FP":15,"Shape_Leng":86.3624817009,"ORD_STRAHL":2,"FR_STRAHLE":15,"OBJECTID_1":4,"ZPHA":10,"ZPS":5,"Shape_Length":86.35692663791072}},{"type":"Feature","id":5,"geometry":{"type":"LineString","coordinates":[[-75.78436,5.22615],[-75.78447,5.22613],[-75.7845,5.22613],[-75.78453,5.22613],[-75.78455,5.22614],[-75.7846,5.22615],[-75.78462,5.22616],[-75.78466,5.22617],[-75.78469,5.22619],[-75.7847,5.2262],[-75.78473,5.22622],[-75.78474,5.22623],[-75.78477,5.22624],[-75.78481,5.22625],[-75.78483,5.22626],[-75.78486,5.22627],[-75.78488,5.22628],[-75.7849,5.2263],[-75.78492,5.22632],[-75.78494,5.22635],[-75.78496,5.22638]]},"properties":{"OBJECTID":31135,"ID_DS":88,"CODDEP":" ","CODCUENCA":"2615","CODDS":88,"TIPO":" ","NOMBRE":"Quebrada Cauya","ORDEN":" ","N_ORDEN":6,"FP":15,"Shape_Leng":74.9905670707,"ORD_STRAHL":1,"FR_STRAHLE":15,"OBJECTID_1":5,"ZPHA":10,"ZPS":5,"Shape_Length":74.9856950782801}},{"type":"Feature","id":6,"geometry":{"type":"LineString","coordinates":[[-75.78563,5.22684],[-75.78562,5.22684],[-75.7856,5.22685],[-75.78557,5.22686],[-75.78555,5.22688],[-75.78552,5.2269],[-75.7855,5.22693],[-75.78549,5.22695],[-75.78547,5.22697],[-75.78545,5.22698],[-75.78542,5.22699],[-75.7854,5.227],[-75.78538,5.22702],[-75.78536,5.22704],[-75.78534,5.22706],[-75.78532,5.22708],[-75.78529,5.22709],[-75.78524,5.22709],[-75.7852,5.22709],[-75.78518,5.22709],[-75.78513,5.22708],[-75.78509,5.22708],[-75.78505,5.22708],[-75.78501,5.22708],[-75.78498,5.22708],[-75.78496,5.22708],[-75.78494,5.22707],[-75.78493,5.22705],[-75.78492,5.22704],[-75.78491,5.22702],[-75.78489,5.227],[-75.78486,5.22698],[-75.78484,5.22697],[-75.78481,5.22695],[-75.78481,5.22692],[-75.7848,5.22689],[-75.7848,5.22686],[-75.78481,5.22683],[-75.78481,5.22681],[-75.78481,5.22677],[-75.78481,5.22673],[-75.7848,5.22669],[-75.78478,5.22666],[-75.78477,5.22664],[-75.78473,5.22661],[-75.7847,5.22658],[-75.78468,5.22656],[-75.78465,5.22653],[-75.78463,5.22649],[-75.78461,5.22646],[-75.78459,5.22644],[-75.78456,5.22641],[-75.78454,5.22639],[-75.78452,5.22636],[-75.78451,5.22634],[-75.78448,5.22631],[-75.78446,5.22628],[-75.78443,5.22625],[-75.78441,5.22621],[-75.78439,5.22619],[-75.78437,5.22616],[-75.78436,5.22615]]},"properties":{"OBJECTID":31136,"ID_DS":88,"CODDEP":" ","CODCUENCA":"2615","CODDS":88,"TIPO":" ","NOMBRE":"Quebrada Cauya","ORDEN":" ","N_ORDEN":5,"FP":15,"Shape_Leng":213.964385553,"ORD_STRAHL":1,"FR_STRAHLE":15,"OBJECTID_1":6,"ZPHA":10,"ZPS":5,"Shape_Length":213.9505813569753}},{"type":"Feature","id":7,"geometry":{"type":"LineString","coordinates":[[-75.78327,5.22723],[-75.78319,5.22723],[-75.7831,5.22718],[-75.78307,5.22717],[-75.78303,5.22716],[-75.783,5.22715],[-75.78296,5.22715],[-75.7829,5.22714],[-75.78287,5.22713],[-75.78284,5.22713],[-75.78281,5.22713],[-75.78275,5.22712],[-75.78271,5.2271],[-75.78266,5.22709],[-75.78262,5.22709],[-75.78258,5.22709],[-75.78251,5.22708],[-75.78247,5.22708],[-75.78241,5.22708],[-75.78237,5.22708],[-75.78234,5.22709],[-75.78231,5.22709],[-75.78228,5.22709],[-75.78223,5.22708],[-75.78219,5.22707],[-75.78216,5.22705],[-75.78211,5.22703],[-75.78207,5.22701],[-75.78204,5.22699],[-75.78199,5.22696],[-75.78195,5.22694],[-75.78192,5.22691],[-75.78191,5.2269],[-75.78189,5.22688],[-75.78185,5.22685],[-75.7818,5.22684],[-75.78176,5.22683],[-75.78173,5.22681],[-75.7817,5.2268],[-75.78165,5.22679],[-75.78159,5.22678],[-75.78155,5.22677],[-75.7815,5.22674],[-75.78147,5.22673],[-75.78141,5.22672],[-75.78137,5.2267],[-75.78131,5.22667],[-75.78127,5.22667],[-75.78123,5.22665]]},"properties":{"OBJECTID":31137,"ID_DS":88,"CODDEP":" ","CODCUENCA":"2615","CODDS":88,"TIPO":" ","NOMBRE":"Quebrada Cauya","ORDEN":" ","N_ORDEN":5,"FP":15,"Shape_Leng":239.75326437,"ORD_STRAHL":2,"FR_STRAHLE":15,"OBJECTID_1":7,"ZPHA":10,"ZPS":5,"Shape_Length":239.7375876252319}},{"type":"Feature","id":8,"geometry":{"type":"LineString","coordinates":[[-75.784,5.22829],[-75.78399,5.22827],[-75.78398,5.22825],[-75.78397,5.22822],[-75.78394,5.2282],[-75.78392,5.22818],[-75.78389,5.22818],[-75.78386,5.22817],[-75.78382,5.22816],[-75.7838,5.22815],[-75.78377,5.22812],[-75.78376,5.2281],[-75.78375,5.22808],[-75.78373,5.22806],[-75.78372,5.22804],[-75.78369,5.228],[-75.78366,5.22796],[-75.78363,5.22792],[-75.7836,5.2279],[-75.78357,5.22786],[-75.78354,5.22782],[-75.78352,5.22779],[-75.7835,5.22777],[-75.78349,5.22773],[-75.78348,5.22769],[-75.78347,5.22765],[-75.78346,5.22761],[-75.78344,5.22757],[-75.78343,5.22753],[-75.78341,5.2275],[-75.78338,5.22746],[-75.78336,5.22743],[-75.78333,5.2274],[-75.78331,5.22737],[-75.78327,5.22723]]},"properties":{"OBJECTID":31138,"ID_DS":88,"CODDEP":" ","CODCUENCA":"2615","CODDS":88,"TIPO":" ","NOMBRE":"Quebrada Cauya","ORDEN":" ","N_ORDEN":6,"FP":15,"Shape_Leng":149.148174956,"ORD_STRAHL":1,"FR_STRAHLE":15,"OBJECTID_1":8,"ZPHA":10,"ZPS":5,"Shape_Length":149.13830198129608}},{"type":"Feature","id":9,"geometry":{"type":"MultiLineString","coordinates":[[[-75.78327,5.22723],[-75.7833,5.22724],[-75.78334,5.22725],[-75.78338,5.22725],[-75.78342,5.22726],[-75.78345,5.22726],[-75.78349,5.22726],[-75.78353,5.22727],[-75.78356,5.22727],[-75.78361,5.22728],[-75.78364,5.22729],[-75.78369,5.2273],[-75.78373,5.22733],[-75.78376,5.22735],[-75.78382,5.22738],[-75.78385,5.2274],[-75.78388,5.22742],[-75.78393,5.22745],[-75.78398,5.22748],[-75.78401,5.2275],[-75.78405,5.22753],[-75.78411,5.22756],[-75.78414,5.22758],[-75.78419,5.2276],[-75.78424,5.22763],[-75.78429,5.22766],[-75.78437,5.2277],[-75.78443,5.22772],[-75.78448,5.22776],[-75.78451,5.22778],[-75.78455,5.22781],[-75.78459,5.22786],[-75.78463,5.22789],[-75.78467,5.22792],[-75.78472,5.22798],[-75.78479,5.22804],[-75.78484,5.22808],[-75.78488,5.22813],[-75.78492,5.22818],[-75.78495,5.22822],[-75.78496,5.22824],[-75.78498,5.22826],[-75.78501,5.2283],[-75.78505,5.22833],[-75.78509,5.22837],[-75.78513,5.22841],[-75.78518,5.22845],[-75.7852,5.22848],[-75.78524,5.22852],[-75.78527,5.22858],[-75.7853,5.22863],[-75.78534,5.22869],[-75.78535,5.22875],[-75.78538,5.22887]],[[-75.78538,5.22887],[-75.78537,5.22886],[-75.78537,5.22885]],[[-75.78559,5.2296],[-75.78557,5.22958],[-75.78555,5.22954],[-75.78552,5.2295],[-75.7855,5.22946],[-75.78549,5.22944],[-75.78547,5.2294],[-75.78546,5.22936],[-75.78545,5.22933],[-75.78545,5.22931],[-75.78544,5.22926],[-75.78542,5.2292],[-75.78542,5.22916],[-75.78542,5.22912],[-75.78541,5.22907],[-75.7854,5.22902],[-75.7854,5.22898],[-75.7854,5.22896],[-75.78539,5.22892],[-75.78538,5.22889],[-75.78538,5.22887]]]},"properties":{"OBJECTID":31141,"ID_DS":88,"CODDEP":" ","CODCUENCA":"2615","CODDS":88,"TIPO":" ","NOMBRE":"Quebrada Cauya","ORDEN":" ","N_ORDEN":5,"FP":15,"Shape_Leng":398.200850467,"ORD_STRAHL":1,"FR_STRAHLE":15,"OBJECTID_1":9,"ZPHA":10,"ZPS":5,"Shape_Length":398.17539964612536}},{"type":"Feature","id":10,"geometry":{"type":"LineString","coordinates":[[-75.79141,5.22914],[-75.79138,5.22914],[-75.79134,5.22913],[-75.79131,5.22911],[-75.79127,5.2291],[-75.79124,5.22908],[-75.79121,5.22905],[-75.79118,5.22903],[-75.79116,5.229],[-75.79115,5.22897],[-75.79113,5.22895],[-75.7911,5.22891],[-75.79106,5.22887],[-75.79102,5.22885],[-75.79097,5.22883],[-75.79093,5.22881],[-75.79089,5.22879],[-75.79084,5.22878],[-75.79078,5.22874],[-75.79075,5.22872],[-75.79072,5.22871],[-75.79068,5.22867],[-75.79064,5.22865],[-75.79058,5.22863],[-75.79054,5.2286],[-75.79049,5.22858],[-75.79046,5.22857],[-75.79042,5.22855],[-75.79036,5.22852],[-75.79032,5.22851],[-75.7903,5.22849],[-75.79028,5.22847],[-75.79025,5.22844],[-75.79023,5.22842],[-75.79021,5.2284],[-75.79018,5.22837],[-75.79014,5.22837]]},"properties":{"OBJECTID":31142,"ID_DS":88,"CODDEP":" ","CODCUENCA":"2615","CODDS":88,"TIPO":" ","NOMBRE":"Quebrada San Pedro","ORDEN":" ","N_ORDEN":4,"FP":20,"Shape_Leng":168.718537774,"ORD_STRAHL":1,"FR_STRAHLE":15,"OBJECTID_1":10,"ZPHA":10,"ZPS":5,"Shape_Length":168.70814720733546}},{"type":"Feature","id":11,"geometry":{"type":"LineString","coordinates":[[-75.78352,5.23052],[-75.78347,5.23051],[-75.78343,5.2305],[-75.78338,5.23049],[-75.78334,5.23048],[-75.78329,5.23047],[-75.78325,5.23046],[-75.78319,5.23046],[-75.78315,5.23045],[-75.7831,5.23045],[-75.78308,5.23045],[-75.78306,5.23045],[-75.78304,5.23044],[-75.783,5.23042],[-75.78298,5.2304],[-75.78296,5.23038],[-75.78287,5.23028],[-75.78284,5.23025],[-75.7828,5.23021],[-75.78274,5.23018],[-75.78267,5.23012],[-75.78262,5.23008],[-75.78254,5.23],[-75.78251,5.22997],[-75.78246,5.22992],[-75.78243,5.22989],[-75.78241,5.22987],[-75.78238,5.22984],[-75.78236,5.22982],[-75.78234,5.2298],[-75.7823,5.22978],[-75.78227,5.22975],[-75.78223,5.22971],[-75.78221,5.22969],[-75.78216,5.22966],[-75.78215,5.22965],[-75.78213,5.22964],[-75.78208,5.22962],[-75.78204,5.22961],[-75.78198,5.22962],[-75.78193,5.22962],[-75.78189,5.22962],[-75.78185,5.22962],[-75.7818,5.22962],[-75.78174,5.22962],[-75.78169,5.22962],[-75.78164,5.22961],[-75.78158,5.2296],[-75.78154,5.22959],[-75.7815,5.22957],[-75.78145,5.22956],[-75.78141,5.22955],[-75.78137,5.22954],[-75.78134,5.22954],[-75.78131,5.22953],[-75.78127,5.22952],[-75.78123,5.22951],[-75.7812,5.2295],[-75.78115,5.2295],[-75.78111,5.22949],[-75.78109,5.22948],[-75.78106,5.22946],[-75.78104,5.22943],[-75.78101,5.22939],[-75.781,5.22936],[-75.78098,5.22932],[-75.78096,5.22928],[-75.78094,5.22923],[-75.78092,5.2292],[-75.7809,5.22916],[-75.78089,5.22913],[-75.78088,5.22911],[-75.78086,5.22906],[-75.78084,5.22905],[-75.78082,5.22903],[-75.78078,5.229],[-75.78075,5.22899],[-75.78069,5.22896],[-75.78065,5.22894],[-75.78061,5.22892],[-75.78057,5.2289],[-75.78053,5.22886],[-75.78051,5.22884],[-75.78047,5.22882],[-75.78045,5.2288],[-75.78042,5.22877],[-75.78038,5.22874],[-75.78036,5.22872]]},"properties":{"OBJECTID":31145,"ID_DS":88,"CODDEP":" ","CODCUENCA":"2615","CODDS":88,"TIPO":" ","NOMBRE":"Quebrada Cauya","ORDEN":" ","N_ORDEN":4,"FP":20,"Shape_Leng":471.027912374,"ORD_STRAHL":1,"FR_STRAHLE":15,"OBJECTID_1":11,"ZPHA":10,"ZPS":5,"Shape_Length":427.27445078755767}},{"type":"Feature","id":12,"geometry":{"type":"LineString","coordinates":[[-75.78044,5.23034],[-75.78032,5.23026],[-75.78028,5.23023],[-75.78025,5.23021],[-75.78022,5.23017],[-75.7802,5.23014],[-75.78019,5.23011],[-75.78018,5.23006],[-75.78017,5.23001],[-75.78014,5.22997],[-75.7801,5.22992],[-75.78003,5.22987],[-75.77999,5.22985],[-75.77992,5.22983]]},"properties":{"OBJECTID":31146,"ID_DS":88,"CODDEP":" ","CODCUENCA":"2615","CODDS":88,"TIPO":" ","NOMBRE":"Quebrada Cauya","ORDEN":" ","N_ORDEN":3,"FP":20,"Shape_Leng":84.8078753377,"ORD_STRAHL":2,"FR_STRAHLE":15,"OBJECTID_1":12,"ZPHA":10,"ZPS":5,"Shape_Length":84.80220340669713}},{"type":"Feature","id":13,"geometry":{"type":"LineString","coordinates":[[-75.78328,5.232],[-75.78326,5.23198],[-75.78323,5.23195],[-75.7832,5.23193],[-75.78317,5.23191],[-75.78315,5.23189],[-75.78311,5.23188],[-75.78307,5.23186],[-75.78303,5.23185],[-75.78299,5.23183],[-75.78296,5.2318],[-75.78292,5.23179],[-75.7829,5.23178],[-75.78288,5.23178],[-75.78286,5.23177],[-75.78283,5.23176],[-75.7828,5.23176],[-75.78277,5.23174],[-75.78275,5.23173],[-75.78272,5.23173],[-75.78268,5.23173],[-75.78266,5.23173],[-75.78263,5.23173],[-75.7826,5.23174],[-75.78257,5.23174],[-75.78253,5.23173],[-75.78248,5.23171],[-75.78244,5.2317],[-75.78239,5.23168],[-75.78235,5.23166],[-75.78231,5.23165],[-75.78226,5.23163],[-75.78223,5.23162],[-75.78219,5.23159],[-75.78217,5.23157],[-75.78213,5.23154],[-75.78211,5.23151],[-75.78208,5.23148],[-75.78206,5.23146],[-75.78205,5.23144],[-75.78197,5.2314],[-75.78195,5.23139],[-75.78192,5.23138],[-75.78187,5.23137],[-75.78184,5.23136],[-75.78181,5.23135],[-75.78179,5.23134],[-75.78177,5.23133],[-75.78175,5.23131],[-75.78172,5.23129],[-75.78169,5.23126],[-75.78167,5.23124],[-75.78163,5.23122],[-75.78159,5.23119],[-75.78156,5.23117],[-75.78153,5.23116],[-75.7815,5.23114],[-75.78147,5.23113],[-75.78145,5.23111],[-75.78142,5.23109],[-75.7814,5.23106],[-75.78138,5.23103],[-75.78137,5.23099],[-75.78137,5.23095],[-75.78137,5.23093],[-75.78138,5.2309],[-75.78139,5.23088],[-75.7814,5.23085],[-75.78141,5.23082],[-75.78141,5.23079],[-75.7814,5.23075],[-75.78139,5.23072],[-75.78137,5.23069],[-75.78135,5.23067],[-75.78132,5.23065],[-75.78128,5.23062],[-75.78125,5.2306],[-75.7812,5.23058],[-75.78118,5.23056],[-75.78114,5.23055],[-75.7811,5.23054],[-75.78108,5.23052],[-75.78103,5.23052],[-75.781,5.23051],[-75.78097,5.23049],[-75.78092,5.23048],[-75.78087,5.23047],[-75.78082,5.23045],[-75.78077,5.23043],[-75.78072,5.23041],[-75.78067,5.23039],[-75.78063,5.23038],[-75.78057,5.23037],[-75.78052,5.23036],[-75.78049,5.23034],[-75.78044,5.23034]]},"properties":{"OBJECTID":31148,"ID_DS":88,"CODDEP":" ","CODCUENCA":"2615","CODDS":88,"TIPO":" ","NOMBRE":"Quebrada Cauya","ORDEN":" ","N_ORDEN":4,"FP":20,"Shape_Leng":395.373643083,"ORD_STRAHL":1,"FR_STRAHLE":15,"OBJECTID_1":13,"ZPHA":10,"ZPS":5,"Shape_Length":395.3477810537111}},{"type":"Feature","id":14,"geometry":{"type":"LineString","coordinates":[[-75.78157,5.23219],[-75.78152,5.23206],[-75.78152,5.23203],[-75.78151,5.23201],[-75.78152,5.23199],[-75.78152,5.23196],[-75.78152,5.23194],[-75.78151,5.23191],[-75.78143,5.23176],[-75.78142,5.23174],[-75.7814,5.23172],[-75.78138,5.23169],[-75.78135,5.23165],[-75.78131,5.23162],[-75.78128,5.23158],[-75.78126,5.23155],[-75.78121,5.23148],[-75.78118,5.23145],[-75.78113,5.23143],[-75.78109,5.23139],[-75.78104,5.23136],[-75.78098,5.23134],[-75.78094,5.2313],[-75.78091,5.23126],[-75.78088,5.23122],[-75.78084,5.23118],[-75.78082,5.23113],[-75.7808,5.23109],[-75.78076,5.23105],[-75.78071,5.231],[-75.78068,5.23097],[-75.78066,5.23095],[-75.78065,5.23091],[-75.78065,5.23087],[-75.78065,5.23083],[-75.78066,5.2308],[-75.78066,5.23076],[-75.78066,5.23074],[-75.78066,5.23071],[-75.78066,5.23069],[-75.78065,5.23066],[-75.78063,5.23062],[-75.78062,5.23059],[-75.7806,5.23057],[-75.78056,5.23053],[-75.78054,5.2305],[-75.78052,5.23047],[-75.78044,5.23034]]},"properties":{"OBJECTID":31149,"ID_DS":88,"CODDEP":" ","CODCUENCA":"2615","CODDS":88,"TIPO":" ","NOMBRE":"Quebrada Cauya","ORDEN":" ","N_ORDEN":3,"FP":20,"Shape_Leng":253.512560421,"ORD_STRAHL":2,"FR_STRAHLE":15,"OBJECTID_1":14,"ZPHA":10,"ZPS":5,"Shape_Length":253.49607910966756}},{"type":"Feature","id":15,"geometry":{"type":"LineString","coordinates":[[-75.79054,5.23178],[-75.79052,5.23176],[-75.79049,5.23174],[-75.79045,5.23171],[-75.79041,5.23169],[-75.79036,5.23166],[-75.79032,5.23163],[-75.79028,5.23162],[-75.79021,5.23159],[-75.79019,5.23158],[-75.79016,5.23156],[-75.79013,5.23154],[-75.7901,5.2315],[-75.79006,5.23148],[-75.79004,5.23146],[-75.79001,5.23144],[-75.78997,5.23142],[-75.78993,5.23141],[-75.78989,5.23139],[-75.78985,5.23139],[-75.7898,5.23139],[-75.78977,5.23139],[-75.78972,5.2314],[-75.78966,5.23141],[-75.78963,5.23142],[-75.78959,5.23142],[-75.78953,5.23141],[-75.78948,5.2314],[-75.78944,5.2314],[-75.78938,5.23139],[-75.78935,5.23138],[-75.78931,5.23137],[-75.78927,5.23136]]},"properties":{"OBJECTID":31150,"ID_DS":88,"CODDEP":" ","CODCUENCA":"2615","CODDS":88,"TIPO":" ","NOMBRE":"Quebrada San Pedro","ORDEN":" ","N_ORDEN":4,"FP":20,"Shape_Leng":154.568227079,"ORD_STRAHL":1,"FR_STRAHLE":15,"OBJECTID_1":15,"ZPHA":10,"ZPS":5,"Shape_Length":154.558527051236}},{"type":"Feature","id":16,"geometry":{"type":"LineString","coordinates":[[-75.78157,5.23219],[-75.7817,5.23223],[-75.78173,5.23226],[-75.78177,5.23229],[-75.78179,5.23231],[-75.78183,5.23232],[-75.78187,5.23232],[-75.78191,5.23231],[-75.78194,5.2323],[-75.78197,5.23231],[-75.78201,5.23232],[-75.78204,5.23233],[-75.78208,5.23234],[-75.78211,5.23236],[-75.78218,5.23239],[-75.78223,5.23242],[-75.78227,5.23244],[-75.7823,5.23245],[-75.78234,5.23247],[-75.78237,5.23248],[-75.78242,5.23249],[-75.78246,5.23249],[-75.7825,5.23249],[-75.78254,5.23249],[-75.78258,5.23249],[-75.78259,5.23248],[-75.78262,5.23248],[-75.78264,5.23248],[-75.78269,5.23248],[-75.78274,5.23249],[-75.78278,5.2325],[-75.78284,5.23251],[-75.78288,5.23252],[-75.78291,5.23253],[-75.78293,5.23253],[-75.78296,5.23253],[-75.78298,5.23253],[-75.783,5.23253]]},"properties":{"OBJECTID":31153,"ID_DS":88,"CODDEP":" ","CODCUENCA":"2615","CODDS":88,"TIPO":" ","NOMBRE":"Quebrada Cauya","ORDEN":" ","N_ORDEN":4,"FP":20,"Shape_Leng":167.180807599,"ORD_STRAHL":1,"FR_STRAHLE":15,"OBJECTID_1":16,"ZPHA":10,"ZPS":5,"Shape_Length":167.1699469494169}},{"type":"Feature","id":17,"geometry":{"type":"LineString","coordinates":[[-75.78263,5.23338],[-75.78261,5.23335],[-75.78259,5.23332],[-75.78257,5.23329],[-75.78255,5.23326],[-75.78252,5.23323],[-75.78248,5.23319],[-75.78245,5.23316],[-75.7824,5.23314],[-75.78236,5.23311],[-75.78234,5.23309],[-75.7823,5.23306],[-75.78226,5.23304],[-75.78222,5.23302],[-75.78219,5.23301],[-75.78215,5.23299],[-75.78211,5.23298],[-75.78209,5.23297],[-75.78207,5.23295],[-75.78205,5.23292],[-75.78204,5.23289],[-75.78203,5.23286],[-75.78202,5.23283],[-75.782,5.2328],[-75.78199,5.23278],[-75.78196,5.23277],[-75.78195,5.23275],[-75.78193,5.23272],[-75.78192,5.2327],[-75.78192,5.23269],[-75.78191,5.23267],[-75.78189,5.23265],[-75.78188,5.23263],[-75.78186,5.23261],[-75.78183,5.2326],[-75.78181,5.23258],[-75.7818,5.23256],[-75.78178,5.23254],[-75.78178,5.23251],[-75.78176,5.23249],[-75.78174,5.23247],[-75.78171,5.23245],[-75.78168,5.23243],[-75.78165,5.2324],[-75.78163,5.23238],[-75.78162,5.23237],[-75.78161,5.23235],[-75.7816,5.23233],[-75.7816,5.23232],[-75.7816,5.2323],[-75.7816,5.23229],[-75.7816,5.23227],[-75.78159,5.23225],[-75.78159,5.23224],[-75.78159,5.23222],[-75.78158,5.23221],[-75.78157,5.23219]]},"properties":{"OBJECTID":31154,"ID_DS":88,"CODDEP":" ","CODCUENCA":"2615","CODDS":88,"TIPO":" ","NOMBRE":"Quebrada Cauya","ORDEN":" ","N_ORDEN":3,"FP":20,"Shape_Leng":183.13542212,"ORD_STRAHL":1,"FR_STRAHLE":15,"OBJECTID_1":17,"ZPHA":10,"ZPS":5,"Shape_Length":183.12350537062218}},{"type":"Feature","id":18,"geometry":{"type":"LineString","coordinates":[[-75.78991,5.23373],[-75.78989,5.23371],[-75.78987,5.23369],[-75.78983,5.23366],[-75.7898,5.23364],[-75.78977,5.23362],[-75.78976,5.23361],[-75.78973,5.23359],[-75.78971,5.23358],[-75.78967,5.23356],[-75.78963,5.23354],[-75.78961,5.23353],[-75.78958,5.23351],[-75.78956,5.23349],[-75.78951,5.23347],[-75.78946,5.23345],[-75.78943,5.23344],[-75.7894,5.23343],[-75.78936,5.23342],[-75.78933,5.2334],[-75.78929,5.23339],[-75.78926,5.23338],[-75.78924,5.23335],[-75.78921,5.23334],[-75.78919,5.23333],[-75.78916,5.23332],[-75.78915,5.23331],[-75.78913,5.2333],[-75.7891,5.23328],[-75.78908,5.23327],[-75.78903,5.23326],[-75.78901,5.23325],[-75.78898,5.23324],[-75.78894,5.23323],[-75.7889,5.23323],[-75.78887,5.23323],[-75.78885,5.23323],[-75.78882,5.23322],[-75.78878,5.23321],[-75.78873,5.23319],[-75.78869,5.23319],[-75.78865,5.23317],[-75.78862,5.23317],[-75.78859,5.23316],[-75.78854,5.23317],[-75.78851,5.23318]]},"properties":{"OBJECTID":31155,"ID_DS":88,"CODDEP":" ","CODCUENCA":"2615","CODDS":88,"TIPO":" ","NOMBRE":"Quebrada San Pedro","ORDEN":" ","N_ORDEN":4,"FP":20,"Shape_Leng":171.210934174,"ORD_STRAHL":1,"FR_STRAHLE":15,"OBJECTID_1":18,"ZPHA":10,"ZPS":5,"Shape_Length":171.20028262421067}},{"type":"Feature","id":19,"geometry":{"type":"LineString","coordinates":[[-75.78976,5.23382],[-75.78973,5.23382],[-75.78971,5.23383],[-75.78968,5.23384],[-75.78966,5.23386],[-75.78963,5.23387],[-75.7896,5.23387],[-75.78957,5.23387],[-75.78953,5.23387],[-75.78949,5.23387],[-75.78946,5.23386],[-75.78942,5.23385],[-75.7894,5.23385],[-75.78937,5.23385],[-75.78933,5.23384],[-75.7893,5.23384],[-75.78925,5.23384],[-75.78922,5.23384],[-75.78918,5.23383],[-75.78915,5.23383],[-75.78913,5.23384],[-75.7891,5.23384],[-75.78906,5.23385],[-75.78902,5.23387],[-75.78898,5.23388],[-75.78895,5.2339],[-75.78892,5.2339],[-75.78889,5.23392],[-75.78885,5.23393],[-75.78884,5.23393],[-75.7888,5.23394],[-75.78877,5.23395],[-75.78873,5.23397],[-75.78871,5.23398],[-75.78868,5.23401],[-75.78866,5.23404],[-75.78864,5.23405],[-75.78862,5.23406],[-75.78859,5.23407],[-75.78857,5.23407],[-75.78855,5.23406],[-75.78851,5.23405],[-75.78848,5.23404],[-75.78845,5.23403],[-75.78842,5.23402],[-75.7884,5.23402],[-75.78836,5.23401],[-75.78834,5.234],[-75.78831,5.234],[-75.78829,5.23401],[-75.78826,5.23401],[-75.78823,5.23402],[-75.7882,5.23403],[-75.78818,5.23403],[-75.78813,5.23403],[-75.7881,5.23403],[-75.78808,5.23402],[-75.78807,5.23401],[-75.78806,5.23399],[-75.78804,5.23398],[-75.78803,5.23396],[-75.78799,5.23394],[-75.78797,5.23393],[-75.78796,5.23393],[-75.78795,5.23392],[-75.78792,5.23391],[-75.7879,5.23391],[-75.78788,5.2339],[-75.78784,5.23389],[-75.78779,5.23388],[-75.78777,5.23387],[-75.78775,5.23387]]},"properties":{"OBJECTID":31156,"ID_DS":88,"CODDEP":" ","CODCUENCA":"2615","CODDS":88,"TIPO":" ","NOMBRE":"Quebrada San Pedro","ORDEN":" ","N_ORDEN":4,"FP":20,"Shape_Leng":237.024589289,"ORD_STRAHL":1,"FR_STRAHLE":15,"OBJECTID_1":19,"ZPHA":10,"ZPS":5,"Shape_Length":237.00970949358054}},{"type":"Feature","id":20,"geometry":{"type":"LineString","coordinates":[[-75.78216,5.23423],[-75.78213,5.23422],[-75.78209,5.23422],[-75.78205,5.23421],[-75.782,5.2342],[-75.78196,5.2342],[-75.78192,5.23419],[-75.78188,5.23419],[-75.78183,5.23419],[-75.78179,5.23418],[-75.78175,5.23417],[-75.78172,5.23417],[-75.78169,5.23418],[-75.78165,5.23418],[-75.7816,5.23417],[-75.78157,5.23417],[-75.78154,5.23417],[-75.7815,5.23416],[-75.78147,5.23415],[-75.78143,5.23414],[-75.7814,5.23413],[-75.78136,5.23411],[-75.78133,5.23409],[-75.7813,5.23406],[-75.78129,5.23405],[-75.78128,5.23404],[-75.78126,5.23401],[-75.78124,5.23398],[-75.78121,5.23395],[-75.78119,5.23392],[-75.78117,5.23388],[-75.78115,5.23384],[-75.78114,5.23382],[-75.78112,5.2338],[-75.7811,5.23377],[-75.78108,5.23374],[-75.78105,5.23372],[-75.78102,5.2337],[-75.78099,5.23369],[-75.78097,5.23367],[-75.78093,5.23367],[-75.78091,5.23367],[-75.78088,5.23367],[-75.78086,5.23366],[-75.78084,5.23367],[-75.78083,5.23368],[-75.78081,5.23368],[-75.78079,5.23369],[-75.78077,5.2337],[-75.78074,5.2337],[-75.78071,5.2337],[-75.78067,5.23369],[-75.78065,5.23368],[-75.78061,5.23366],[-75.78057,5.23366],[-75.78054,5.23364],[-75.7805,5.23363],[-75.78046,5.23362],[-75.78043,5.23362],[-75.7804,5.23361],[-75.78038,5.2336],[-75.78034,5.23358],[-75.7803,5.23357],[-75.78027,5.23356],[-75.78024,5.23355],[-75.78022,5.23354],[-75.7802,5.23353],[-75.78018,5.23352],[-75.78016,5.23351],[-75.78015,5.23351],[-75.78012,5.23351],[-75.78009,5.2335],[-75.78005,5.23347],[-75.78001,5.23346],[-75.77999,5.23345],[-75.77995,5.23344],[-75.77992,5.23343],[-75.77989,5.23342],[-75.77987,5.23342],[-75.77984,5.23342],[-75.77981,5.23341],[-75.7798,5.23341],[-75.77978,5.2334],[-75.77975,5.23341]]},"properties":{"OBJECTID":31157,"ID_DS":88,"CODDEP":" ","CODCUENCA":"2615","CODDS":88,"TIPO":" ","NOMBRE":"Quebrada Cauya","ORDEN":" ","N_ORDEN":4,"FP":20,"Shape_Leng":298.22797893,"ORD_STRAHL":1,"FR_STRAHLE":15,"OBJECTID_1":20,"ZPHA":10,"ZPS":5,"Shape_Length":298.2082818013628}},{"type":"Feature","id":21,"geometry":{"type":"LineString","coordinates":[[-75.77755,5.23578],[-75.77743,5.23563],[-75.77742,5.23562],[-75.77741,5.2356],[-75.77738,5.23551],[-75.77736,5.2355],[-75.77733,5.23549],[-75.77729,5.23548],[-75.77725,5.23548],[-75.77722,5.23549],[-75.77719,5.2355],[-75.77715,5.23551],[-75.77714,5.23552]]},"properties":{"OBJECTID":31158,"ID_DS":88,"CODDEP":" ","CODCUENCA":"2615","CODDS":88,"TIPO":" ","NOMBRE":"Quebrada Cauya","ORDEN":" ","N_ORDEN":4,"FP":20,"Shape_Leng":63.576564539,"ORD_STRAHL":2,"FR_STRAHLE":15,"OBJECTID_1":21,"ZPHA":10,"ZPS":5,"Shape_Length":63.57239166217181}},{"type":"Feature","id":22,"geometry":{"type":"LineString","coordinates":[[-75.78027,5.23556],[-75.78011,5.2355],[-75.78007,5.23549],[-75.78003,5.23549],[-75.78,5.23548],[-75.77997,5.23547],[-75.77993,5.23546],[-75.7799,5.23545]]},"properties":{"OBJECTID":31159,"ID_DS":88,"CODDEP":" ","CODCUENCA":"2615","CODDS":88,"TIPO":" ","NOMBRE":"Quebrada Cauya","ORDEN":" ","N_ORDEN":5,"FP":15,"Shape_Leng":43.2346650702,"ORD_STRAHL":2,"FR_STRAHLE":15,"OBJECTID_1":22,"ZPHA":10,"ZPS":5,"Shape_Length":43.23173638301794}},{"type":"Feature","id":23,"geometry":{"type":"LineString","coordinates":[[-75.77755,5.23578],[-75.77755,5.2359]]},"properties":{"OBJECTID":31161,"ID_DS":88,"CODDEP":" ","CODCUENCA":"2615","CODDS":88,"TIPO":" ","NOMBRE":"Quebrada Cauya","ORDEN":" ","N_ORDEN":5,"FP":15,"Shape_Leng":13.3646993305,"ORD_STRAHL":1,"FR_STRAHLE":15,"OBJECTID_1":23,"ZPHA":10,"ZPS":5,"Shape_Length":13.363848030928802}},{"type":"Feature","id":24,"geometry":{"type":"LineString","coordinates":[[-75.77825,5.23593],[-75.77838,5.23589],[-75.7784,5.23589],[-75.77842,5.23588],[-75.77846,5.23587],[-75.77848,5.23586],[-75.7785,5.23584],[-75.77853,5.23584],[-75.77857,5.23583],[-75.77861,5.23581],[-75.77864,5.2358],[-75.77869,5.2358],[-75.77873,5.2358],[-75.77875,5.23579],[-75.77878,5.23579],[-75.7788,5.23578],[-75.77883,5.23577],[-75.77887,5.23576],[-75.77889,5.23575]]},"properties":{"OBJECTID":31162,"ID_DS":88,"CODDEP":" ","CODCUENCA":"2615","CODDS":88,"TIPO":" ","NOMBRE":"Quebrada Cauya","ORDEN":" ","N_ORDEN":5,"FP":15,"Shape_Leng":73.9264362934,"ORD_STRAHL":1,"FR_STRAHLE":15,"OBJECTID_1":24,"ZPHA":10,"ZPS":5,"Shape_Length":73.92143331050657}},{"type":"Feature","id":25,"geometry":{"type":"LineString","coordinates":[[-75.77825,5.23593],[-75.77812,5.23592],[-75.7781,5.23591],[-75.77809,5.2359],[-75.77807,5.23589],[-75.77806,5.23589],[-75.77805,5.23589],[-75.77803,5.23588],[-75.77802,5.23588],[-75.77801,5.23588],[-75.77799,5.23588],[-75.77798,5.23589],[-75.77796,5.23589],[-75.77795,5.23588],[-75.77793,5.23587],[-75.77791,5.23586],[-75.77789,5.23585],[-75.77788,5.23584],[-75.77786,5.23584],[-75.77784,5.23584],[-75.7778,5.23583],[-75.77778,5.23582],[-75.77774,5.2358],[-75.77771,5.23579],[-75.77768,5.23579],[-75.77765,5.23579],[-75.77763,5.23578],[-75.77761,5.23578],[-75.77758,5.23577],[-75.77757,5.23577],[-75.77755,5.23578]]},"properties":{"OBJECTID":31163,"ID_DS":88,"CODDEP":" ","CODCUENCA":"2615","CODDS":88,"TIPO":" ","NOMBRE":"Quebrada Cauya","ORDEN":" ","N_ORDEN":4,"FP":20,"Shape_Leng":82.8925898593,"ORD_STRAHL":2,"FR_STRAHLE":15,"OBJECTID_1":25,"ZPHA":10,"ZPS":5,"Shape_Length":82.88721192930461}},{"type":"Feature","id":26,"geometry":{"type":"LineString","coordinates":[[-75.78375,5.23706],[-75.78373,5.23705],[-75.78371,5.23705],[-75.78367,5.23705],[-75.78364,5.23704],[-75.7836,5.23703],[-75.78357,5.23703],[-75.78355,5.23703],[-75.78352,5.23701],[-75.78349,5.237],[-75.78346,5.23698],[-75.78344,5.23697],[-75.78342,5.23697],[-75.7834,5.23696],[-75.78338,5.23696],[-75.78335,5.23696],[-75.78333,5.23696],[-75.7833,5.23696],[-75.78328,5.23697],[-75.78325,5.23697],[-75.78322,5.23697],[-75.78318,5.23697],[-75.78315,5.23697],[-75.78311,5.23697],[-75.78308,5.23697],[-75.78305,5.23697],[-75.78301,5.23698],[-75.78297,5.23698],[-75.78293,5.23698],[-75.78292,5.23697],[-75.78289,5.23697],[-75.78285,5.23697],[-75.7828,5.23695],[-75.78276,5.23695],[-75.78271,5.23695],[-75.78267,5.23695],[-75.78264,5.23696],[-75.78262,5.23696],[-75.78259,5.23696],[-75.78255,5.23695],[-75.78251,5.23695],[-75.78247,5.23695],[-75.78243,5.23696],[-75.7824,5.23697],[-75.78235,5.23698],[-75.78232,5.237],[-75.78228,5.23701],[-75.78224,5.23703],[-75.78221,5.23703],[-75.7822,5.23702],[-75.78216,5.237],[-75.78213,5.23699],[-75.78209,5.23697],[-75.78206,5.23696],[-75.78202,5.23694],[-75.782,5.23692],[-75.78197,5.23691],[-75.78193,5.23689],[-75.78189,5.23687],[-75.78185,5.23686],[-75.78181,5.23684],[-75.78179,5.23683],[-75.78178,5.23682],[-75.78174,5.23681],[-75.7817,5.2368],[-75.78166,5.23677],[-75.78163,5.23676],[-75.7816,5.23675],[-75.78157,5.23674],[-75.78155,5.23673],[-75.78152,5.23672],[-75.7815,5.2367],[-75.78148,5.23669],[-75.78146,5.23667],[-75.78145,5.23665],[-75.78143,5.23663],[-75.78141,5.23661],[-75.78139,5.23658],[-75.78138,5.23657],[-75.78137,5.23655],[-75.78135,5.23652],[-75.78132,5.23648],[-75.7813,5.23645],[-75.78128,5.23643],[-75.78126,5.2364],[-75.78124,5.23638],[-75.78123,5.23636],[-75.78121,5.23635],[-75.7812,5.23633],[-75.78119,5.23631],[-75.78117,5.23629],[-75.78116,5.23626],[-75.78114,5.23624],[-75.78113,5.23621],[-75.78111,5.23617],[-75.78109,5.23613],[-75.78109,5.23611],[-75.78107,5.23609],[-75.78106,5.23607],[-75.78105,5.23605],[-75.78105,5.23603],[-75.78104,5.236],[-75.78103,5.23598],[-75.78102,5.23596],[-75.781,5.23592],[-75.78099,5.23589],[-75.78096,5.23586],[-75.78095,5.23584],[-75.78093,5.23581],[-75.78092,5.23578],[-75.7809,5.23575],[-75.78088,5.23572],[-75.78087,5.2357],[-75.78084,5.23566],[-75.78081,5.23563],[-75.78078,5.2356],[-75.78076,5.23559],[-75.78072,5.23557],[-75.78069,5.23555],[-75.78067,5.23554],[-75.78064,5.23553],[-75.78061,5.23552],[-75.78057,5.23553],[-75.78052,5.23553],[-75.78046,5.23553],[-75.78042,5.23554],[-75.78039,5.23554],[-75.78027,5.23556]]},"properties":{"OBJECTID":31164,"ID_DS":88,"CODDEP":" ","CODCUENCA":"2615","CODDS":88,"TIPO":" ","NOMBRE":"Quebrada Cauya","ORDEN":" ","N_ORDEN":5,"FP":15,"Shape_Leng":467.602704954,"ORD_STRAHL":1,"FR_STRAHLE":15,"OBJECTID_1":26,"ZPHA":10,"ZPS":5,"Shape_Length":467.5721011413037}},{"type":"Feature","id":27,"geometry":{"type":"LineString","coordinates":[[-75.78162,5.23765],[-75.78154,5.23754],[-75.78151,5.2375],[-75.78148,5.23747],[-75.78146,5.23745],[-75.78144,5.23742],[-75.78143,5.2374],[-75.7814,5.23738],[-75.78138,5.23735],[-75.78135,5.23732],[-75.78131,5.23729],[-75.78128,5.23726],[-75.78125,5.23724],[-75.78124,5.23721],[-75.78122,5.23718],[-75.78121,5.23716],[-75.78119,5.23713],[-75.78118,5.23711],[-75.78116,5.23709],[-75.78115,5.23706],[-75.78114,5.23703],[-75.78112,5.23701],[-75.7811,5.23699],[-75.78107,5.23697],[-75.78105,5.23695],[-75.78103,5.23694],[-75.781,5.23691],[-75.78098,5.23689],[-75.78096,5.23687],[-75.78094,5.23685],[-75.78093,5.23683],[-75.7809,5.2368],[-75.78088,5.23678],[-75.78087,5.23675],[-75.78085,5.23673],[-75.78084,5.23671],[-75.78082,5.23668],[-75.7808,5.23666],[-75.78078,5.23664],[-75.78077,5.23662],[-75.78076,5.23659],[-75.78074,5.23658],[-75.78073,5.23655],[-75.78071,5.23652],[-75.78071,5.2365],[-75.7807,5.23648],[-75.7807,5.23646],[-75.78069,5.23644],[-75.78069,5.23641],[-75.78069,5.23639],[-75.78069,5.23638],[-75.78069,5.23637],[-75.78069,5.23635],[-75.78069,5.23634],[-75.78069,5.23631],[-75.78069,5.23629],[-75.78068,5.23627],[-75.78067,5.23624],[-75.78066,5.23622],[-75.78065,5.23619],[-75.78063,5.23617],[-75.78062,5.23615],[-75.78062,5.23613],[-75.78062,5.23612],[-75.78061,5.2361],[-75.78061,5.23609],[-75.78061,5.23607],[-75.7806,5.23605],[-75.78059,5.23602],[-75.78058,5.23599],[-75.78056,5.23596],[-75.78055,5.23594],[-75.78053,5.23591],[-75.78051,5.23588],[-75.78048,5.23586],[-75.78045,5.23584],[-75.78043,5.23582],[-75.7804,5.2358],[-75.78038,5.23578],[-75.78037,5.23576],[-75.78035,5.23574],[-75.78034,5.23573],[-75.78033,5.23571],[-75.78032,5.23569],[-75.78032,5.23567],[-75.78032,5.23565],[-75.78031,5.23563],[-75.7803,5.23562],[-75.78029,5.2356],[-75.78029,5.23559],[-75.78028,5.23557],[-75.78027,5.23556]]},"properties":{"OBJECTID":31165,"ID_DS":88,"CODDEP":" ","CODCUENCA":"2615","CODDS":88,"TIPO":" ","NOMBRE":"Quebrada Cauya","ORDEN":" ","N_ORDEN":6,"FP":15,"Shape_Leng":284.280989573,"ORD_STRAHL":2,"FR_STRAHLE":15,"OBJECTID_1":27,"ZPHA":10,"ZPS":5,"Shape_Length":284.2624961439095}},{"type":"Feature","id":28,"geometry":{"type":"LineString","coordinates":[[-75.78162,5.23765],[-75.78165,5.23777],[-75.78166,5.23779],[-75.78168,5.23781],[-75.78169,5.23783],[-75.7817,5.23785],[-75.7817,5.23787],[-75.7817,5.2379],[-75.7817,5.23791],[-75.78169,5.23793],[-75.78168,5.23796],[-75.78166,5.23798],[-75.78166,5.238],[-75.78166,5.23803],[-75.78166,5.23806],[-75.78167,5.23808],[-75.78168,5.2381],[-75.78169,5.23812],[-75.7817,5.23814],[-75.78171,5.23815],[-75.78173,5.23817],[-75.78174,5.23818],[-75.78174,5.23819],[-75.78175,5.2382],[-75.78175,5.23821],[-75.78175,5.23822],[-75.78174,5.23823],[-75.78173,5.23823],[-75.7817,5.23824],[-75.78168,5.23824],[-75.78166,5.23824],[-75.78164,5.23824],[-75.78163,5.23825],[-75.78162,5.23826],[-75.78162,5.23829],[-75.78161,5.23831],[-75.78162,5.23833],[-75.78162,5.23835],[-75.78162,5.23839],[-75.78163,5.23842]]},"properties":{"OBJECTID":31166,"ID_DS":88,"CODDEP":" ","CODCUENCA":"2615","CODDS":88,"TIPO":" ","NOMBRE":"Quebrada Cauya","ORDEN":" ","N_ORDEN":7,"FP":15,"Shape_Leng":104.122824917,"ORD_STRAHL":2,"FR_STRAHLE":15,"OBJECTID_1":28,"ZPHA":10,"ZPS":5,"Shape_Length":104.11562827260936}},{"type":"Feature","id":29,"geometry":{"type":"LineString","coordinates":[[-75.78851,5.23827],[-75.7885,5.23826],[-75.78847,5.23826],[-75.78843,5.23825],[-75.7884,5.23825],[-75.78837,5.23825],[-75.78828,5.23826],[-75.78824,5.23826],[-75.7882,5.23827],[-75.78815,5.23828],[-75.78812,5.23828],[-75.78808,5.23826],[-75.78804,5.23824],[-75.788,5.23823],[-75.78796,5.23821],[-75.7879,5.23818],[-75.78785,5.23816],[-75.7878,5.23813],[-75.78776,5.23812],[-75.78769,5.2381]]},"properties":{"OBJECTID":31167,"ID_DS":88,"CODDEP":" ","CODCUENCA":"2615","CODDS":88,"TIPO":" ","NOMBRE":"Quebrada San Pedro","ORDEN":" ","N_ORDEN":4,"FP":20,"Shape_Leng":96.138214117,"ORD_STRAHL":1,"FR_STRAHLE":15,"OBJECTID_1":29,"ZPHA":10,"ZPS":5,"Shape_Length":96.13204033645123}},{"type":"Feature","id":30,"geometry":{"type":"LineString","coordinates":[[-75.78163,5.23842],[-75.78176,5.23856],[-75.78177,5.23859],[-75.78178,5.23862],[-75.78179,5.23864],[-75.78179,5.23867],[-75.78179,5.2387],[-75.78179,5.23873],[-75.78179,5.23875],[-75.78179,5.23877],[-75.7818,5.23879],[-75.78181,5.23883],[-75.78182,5.23885],[-75.78183,5.23886],[-75.78184,5.23888],[-75.78185,5.23889],[-75.78186,5.23891],[-75.78189,5.23894],[-75.78191,5.23895],[-75.78197,5.23897],[-75.782,5.239],[-75.78202,5.23901],[-75.78204,5.23903],[-75.78206,5.23905],[-75.78207,5.23908],[-75.78208,5.2391],[-75.78209,5.23913],[-75.78209,5.23914],[-75.7821,5.23918],[-75.78211,5.23919],[-75.78213,5.23922],[-75.78215,5.23925]]},"properties":{"OBJECTID":31168,"ID_DS":88,"CODDEP":" ","CODCUENCA":"2615","CODDS":88,"TIPO":" ","NOMBRE":"Quebrada Cauya","ORDEN":" ","N_ORDEN":7,"FP":15,"Shape_Leng":113.610824956,"ORD_STRAHL":2,"FR_STRAHLE":15,"OBJECTID_1":30,"ZPHA":10,"ZPS":5,"Shape_Length":113.60347442239758}},{"type":"Feature","id":31,"geometry":{"type":"LineString","coordinates":[[-75.78163,5.23842],[-75.78163,5.23856],[-75.78163,5.23857],[-75.78163,5.23859],[-75.78162,5.23861],[-75.78162,5.23865],[-75.78161,5.23867],[-75.7816,5.2387],[-75.7816,5.23871],[-75.7816,5.23872],[-75.7816,5.23873],[-75.7816,5.23876],[-75.7816,5.23879]]},"properties":{"OBJECTID":31169,"ID_DS":88,"CODDEP":" ","CODCUENCA":"2615","CODDS":88,"TIPO":" ","NOMBRE":"Quebrada Cauya","ORDEN":" ","N_ORDEN":8,"FP":15,"Shape_Leng":41.4810216168,"ORD_STRAHL":1,"FR_STRAHLE":15,"OBJECTID_1":31,"ZPHA":10,"ZPS":5,"Shape_Length":41.47831152643905}},{"type":"Feature","id":32,"geometry":{"type":"LineString","coordinates":[[-75.78042,5.23853],[-75.78041,5.2385],[-75.78039,5.23848],[-75.78038,5.23847],[-75.78035,5.23845],[-75.78034,5.23844],[-75.78031,5.2384],[-75.78029,5.23838],[-75.78026,5.23836],[-75.78024,5.23834],[-75.78022,5.23832],[-75.78021,5.2383],[-75.78018,5.23828],[-75.78016,5.23827],[-75.78014,5.23826],[-75.7801,5.23825],[-75.78007,5.23824],[-75.78005,5.23824],[-75.78003,5.23824],[-75.78001,5.23824],[-75.77998,5.23823],[-75.77995,5.23823],[-75.77992,5.23823],[-75.77989,5.23822],[-75.77987,5.2382],[-75.77985,5.23818],[-75.77984,5.23817],[-75.77983,5.23815],[-75.77982,5.23813],[-75.77981,5.23811],[-75.7798,5.23808],[-75.7798,5.23807],[-75.77979,5.23805],[-75.77979,5.23802],[-75.77979,5.238],[-75.77979,5.23797],[-75.77979,5.23795],[-75.77979,5.23793],[-75.77979,5.23791],[-75.77979,5.23789],[-75.77979,5.23787],[-75.77979,5.23784],[-75.77979,5.23781],[-75.77978,5.23778],[-75.77976,5.23774],[-75.77976,5.23773],[-75.77974,5.2377],[-75.77973,5.23768],[-75.77972,5.23765],[-75.77971,5.23762],[-75.77969,5.23759],[-75.77967,5.23756],[-75.77966,5.23755],[-75.77964,5.23751],[-75.77962,5.23749],[-75.77959,5.23746],[-75.77957,5.23745],[-75.77955,5.23744],[-75.77951,5.23742],[-75.77948,5.2374],[-75.77945,5.23739],[-75.77943,5.23737],[-75.7794,5.23736],[-75.77937,5.23733],[-75.77935,5.2373],[-75.77933,5.23728],[-75.77931,5.23724],[-75.77928,5.2372],[-75.77927,5.23717],[-75.77925,5.23712],[-75.77924,5.23708],[-75.77921,5.23702],[-75.7792,5.23699],[-75.77919,5.23695],[-75.77918,5.23691],[-75.77915,5.23686],[-75.77914,5.23683],[-75.77913,5.23682],[-75.77911,5.2368],[-75.77908,5.23675],[-75.77907,5.23672],[-75.77903,5.23666],[-75.77901,5.23663],[-75.77896,5.23657],[-75.77892,5.23654],[-75.77889,5.23649],[-75.77884,5.23643],[-75.77881,5.23639],[-75.77877,5.23633],[-75.77874,5.23631],[-75.77871,5.23627],[-75.77867,5.23623],[-75.77864,5.2362],[-75.77861,5.23617],[-75.77857,5.23615],[-75.77852,5.23611],[-75.7785,5.2361],[-75.77846,5.23608],[-75.77841,5.23604],[-75.77837,5.23601],[-75.77835,5.236],[-75.77831,5.23597],[-75.77828,5.23595],[-75.77825,5.23593]]},"properties":{"OBJECTID":31170,"ID_DS":88,"CODDEP":" ","CODCUENCA":"2615","CODDS":88,"TIPO":" ","NOMBRE":"Quebrada Cauya","ORDEN":" ","N_ORDEN":4,"FP":20,"Shape_Leng":397.364851308,"ORD_STRAHL":1,"FR_STRAHLE":15,"OBJECTID_1":32,"ZPHA":10,"ZPS":5,"Shape_Length":397.33856148291926}},{"type":"Feature","id":33,"geometry":{"type":"LineString","coordinates":[[-75.78339,5.23892],[-75.78338,5.2389],[-75.78337,5.23888],[-75.78336,5.23887],[-75.78334,5.23884],[-75.78333,5.23882],[-75.7833,5.23881],[-75.78327,5.23879],[-75.78324,5.23877],[-75.78321,5.23875],[-75.78319,5.23873],[-75.78317,5.23872],[-75.78316,5.23871],[-75.78313,5.23871],[-75.78311,5.2387],[-75.78307,5.23869],[-75.78305,5.23868],[-75.78303,5.23867],[-75.783,5.23865],[-75.78298,5.23864],[-75.78296,5.23862],[-75.78294,5.2386],[-75.78292,5.23858],[-75.7829,5.23856],[-75.78289,5.23854],[-75.78288,5.23853],[-75.78287,5.23851],[-75.78286,5.23849],[-75.78285,5.23848],[-75.78283,5.23845],[-75.78281,5.23844],[-75.7828,5.23842],[-75.78279,5.23841],[-75.78277,5.23839],[-75.78275,5.23838],[-75.78273,5.23837],[-75.78272,5.23836],[-75.78269,5.23836],[-75.78267,5.23835],[-75.78265,5.23835],[-75.78263,5.23835],[-75.7826,5.23833],[-75.78259,5.23832],[-75.78256,5.23831],[-75.78254,5.23829],[-75.78253,5.23826],[-75.78251,5.23824],[-75.78249,5.23821],[-75.78249,5.23819],[-75.78248,5.23817],[-75.78247,5.23815],[-75.78245,5.2381],[-75.78244,5.23808],[-75.78243,5.23805],[-75.78242,5.23804],[-75.78241,5.23802],[-75.78238,5.23801],[-75.78237,5.23799],[-75.78235,5.23798],[-75.78234,5.23796],[-75.78233,5.23794],[-75.78232,5.23792],[-75.78231,5.2379],[-75.7823,5.23787],[-75.78228,5.23784],[-75.78227,5.23782],[-75.78226,5.23779],[-75.78225,5.23776],[-75.78223,5.23774],[-75.78221,5.23772],[-75.78219,5.23769],[-75.78217,5.23767],[-75.78215,5.23765],[-75.78213,5.23763],[-75.7821,5.23762],[-75.78209,5.23761],[-75.78206,5.2376],[-75.78204,5.2376],[-75.78202,5.2376],[-75.78199,5.23761],[-75.78196,5.23762],[-75.78193,5.23763],[-75.78191,5.23765],[-75.78188,5.23766],[-75.78185,5.23766],[-75.78182,5.23766],[-75.7818,5.23767],[-75.78178,5.23768],[-75.78176,5.23768],[-75.78173,5.23768],[-75.7817,5.23768],[-75.78167,5.23767],[-75.78165,5.23766],[-75.78163,5.23766],[-75.78162,5.23765]]},"properties":{"OBJECTID":31171,"ID_DS":88,"CODDEP":" ","CODCUENCA":"2615","CODDS":88,"TIPO":" ","NOMBRE":"Quebrada Cauya","ORDEN":" ","N_ORDEN":6,"FP":15,"Shape_Leng":268.887624573,"ORD_STRAHL":1,"FR_STRAHLE":15,"OBJECTID_1":33,"ZPHA":10,"ZPS":5,"Shape_Length":268.87008984433726}},{"type":"Feature","id":34,"geometry":{"type":"LineString","coordinates":[[-75.78215,5.23925],[-75.78217,5.23926],[-75.7822,5.23927],[-75.78224,5.23929],[-75.78227,5.23931],[-75.7823,5.23932],[-75.78234,5.23933],[-75.78236,5.23934],[-75.7824,5.23934]]},"properties":{"OBJECTID":31173,"ID_DS":88,"CODDEP":" ","CODCUENCA":"2615","CODDS":88,"TIPO":" ","NOMBRE":"Quebrada Cauya","ORDEN":" ","N_ORDEN":8,"FP":15,"Shape_Leng":29.6082609711,"ORD_STRAHL":1,"FR_STRAHLE":15,"OBJECTID_1":34,"ZPHA":10,"ZPS":5,"Shape_Length":29.60639642444315}},{"type":"Feature","id":35,"geometry":{"type":"LineString","coordinates":[[-75.78817,5.23928],[-75.78815,5.23927],[-75.78811,5.23925],[-75.78808,5.23924],[-75.788,5.23922],[-75.78796,5.23921],[-75.78791,5.23919],[-75.78787,5.23918],[-75.78782,5.23916],[-75.78777,5.23915],[-75.78774,5.23915],[-75.78772,5.23914],[-75.78769,5.23913],[-75.78766,5.23912],[-75.78762,5.23911],[-75.78759,5.23911],[-75.78757,5.2391],[-75.78753,5.23909],[-75.7875,5.23907],[-75.78747,5.23905],[-75.78745,5.23904],[-75.78742,5.23904],[-75.78739,5.23904],[-75.78736,5.23903]]},"properties":{"OBJECTID":31174,"ID_DS":88,"CODDEP":" ","CODCUENCA":"2615","CODDS":88,"TIPO":" ","NOMBRE":"Quebrada San Pedro","ORDEN":" ","N_ORDEN":4,"FP":20,"Shape_Leng":95.005966859,"ORD_STRAHL":1,"FR_STRAHLE":15,"OBJECTID_1":35,"ZPHA":10,"ZPS":5,"Shape_Length":94.99984855215457}},{"type":"Feature","id":36,"geometry":{"type":"LineString","coordinates":[[-75.78233,5.23973],[-75.78233,5.23971],[-75.78232,5.23967],[-75.78231,5.23965],[-75.7823,5.23962],[-75.78228,5.23958],[-75.78226,5.23954],[-75.78225,5.23952],[-75.78224,5.23947],[-75.78223,5.23944],[-75.78222,5.23942],[-75.7822,5.23939],[-75.78219,5.23937],[-75.78218,5.23935],[-75.78218,5.23933],[-75.78217,5.23932],[-75.78217,5.2393],[-75.78216,5.23928],[-75.78215,5.23926],[-75.78215,5.23925]]},"properties":{"OBJECTID":31175,"ID_DS":88,"CODDEP":" ","CODCUENCA":"2615","CODDS":88,"TIPO":" ","NOMBRE":"Quebrada Cauya","ORDEN":" ","N_ORDEN":8,"FP":15,"Shape_Leng":57.2211868652,"ORD_STRAHL":1,"FR_STRAHLE":15,"OBJECTID_1":36,"ZPHA":10,"ZPS":5,"Shape_Length":57.21739670205586}},{"type":"Feature","id":37,"geometry":{"type":"LineString","coordinates":[[-75.78729,5.24198],[-75.78727,5.24198],[-75.78723,5.242],[-75.7872,5.24201],[-75.78718,5.24202],[-75.78716,5.24203],[-75.78713,5.24204],[-75.78711,5.24205],[-75.78708,5.24205],[-75.78706,5.24205],[-75.78703,5.24204],[-75.78701,5.24203],[-75.78699,5.24203],[-75.78697,5.24203]]},"properties":{"OBJECTID":31179,"ID_DS":88,"CODDEP":" ","CODCUENCA":"2615","CODDS":88,"TIPO":" ","NOMBRE":"Quebrada San Pedro","ORDEN":" ","N_ORDEN":4,"FP":20,"Shape_Leng":37.1813736701,"ORD_STRAHL":1,"FR_STRAHLE":15,"OBJECTID_1":37,"ZPHA":10,"ZPS":5,"Shape_Length":37.178924693642735}},{"type":"Feature","id":38,"geometry":{"type":"LineString","coordinates":[[-75.78733,5.24289],[-75.78731,5.24287],[-75.78727,5.24284],[-75.78723,5.24281],[-75.78719,5.24279],[-75.78714,5.24277],[-75.78709,5.24274],[-75.78707,5.24273],[-75.78704,5.24272],[-75.787,5.24271],[-75.78697,5.2427],[-75.78693,5.24268],[-75.7869,5.24267],[-75.7869,5.24267],[-75.78687,5.24266],[-75.78685,5.24265],[-75.78679,5.24263],[-75.78675,5.24261],[-75.78671,5.24261],[-75.78666,5.2426],[-75.7866,5.24258]]},"properties":{"OBJECTID":31181,"ID_DS":88,"CODDEP":" ","CODCUENCA":"2615","CODDS":88,"TIPO":" ","NOMBRE":"Quebrada San Pedro","ORDEN":" ","N_ORDEN":4,"FP":20,"Shape_Leng":88.3709419679,"ORD_STRAHL":1,"FR_STRAHLE":15,"OBJECTID_1":38,"ZPHA":10,"ZPS":5,"Shape_Length":88.36541736375365}},{"type":"Feature","id":39,"geometry":{"type":"LineString","coordinates":[[-75.78733,5.24388],[-75.78729,5.24385],[-75.78727,5.24383],[-75.78724,5.24382],[-75.78719,5.24379],[-75.78716,5.24378],[-75.78712,5.24377],[-75.78709,5.24376],[-75.78704,5.24375],[-75.78701,5.24375],[-75.78697,5.24374],[-75.78694,5.24373],[-75.78689,5.24372],[-75.78685,5.24372],[-75.78682,5.24371],[-75.78679,5.24371],[-75.78676,5.2437],[-75.78674,5.2437],[-75.78673,5.2437],[-75.78671,5.24369],[-75.78669,5.24368],[-75.78668,5.24368]]},"properties":{"OBJECTID":31184,"ID_DS":88,"CODDEP":" ","CODCUENCA":"2615","CODDS":88,"TIPO":" ","NOMBRE":"Quebrada San Pedro","ORDEN":" ","N_ORDEN":5,"FP":15,"Shape_Leng":76.6841634008,"ORD_STRAHL":1,"FR_STRAHLE":15,"OBJECTID_1":39,"ZPHA":10,"ZPS":5,"Shape_Length":76.67918700766513}},{"type":"Feature","id":40,"geometry":{"type":"LineString","coordinates":[[-75.78739,5.24391],[-75.78737,5.2439],[-75.78735,5.24389],[-75.78734,5.24388],[-75.78733,5.24388]]},"properties":{"OBJECTID":31186,"ID_DS":88,"CODDEP":" ","CODCUENCA":"2615","CODDS":88,"TIPO":" ","NOMBRE":"Quebrada San Pedro","ORDEN":" ","N_ORDEN":4,"FP":20,"Shape_Leng":7.82259803295,"ORD_STRAHL":2,"FR_STRAHLE":15,"OBJECTID_1":40,"ZPHA":10,"ZPS":5,"Shape_Length":7.822180571832014}},{"type":"Feature","id":41,"geometry":{"type":"LineString","coordinates":[[-75.78733,5.24388],[-75.78729,5.24388],[-75.78726,5.24388],[-75.78723,5.24387],[-75.7872,5.24386],[-75.78716,5.24385],[-75.78712,5.24384],[-75.7871,5.24383],[-75.78707,5.24382],[-75.78705,5.24382],[-75.78703,5.24382],[-75.78701,5.24382],[-75.78699,5.24383],[-75.78698,5.24385],[-75.78697,5.24388],[-75.78697,5.2439],[-75.78698,5.24391],[-75.78699,5.24392],[-75.787,5.24393],[-75.787,5.24393],[-75.787,5.24394],[-75.787,5.24396],[-75.787,5.24398],[-75.78697,5.24401],[-75.78695,5.24402],[-75.78694,5.24404],[-75.78692,5.24405],[-75.7869,5.24406],[-75.78689,5.24406],[-75.78687,5.24406],[-75.78686,5.24406],[-75.78683,5.24406],[-75.7868,5.24406],[-75.78676,5.24405],[-75.78674,5.24406],[-75.78672,5.24406],[-75.78669,5.24407],[-75.78666,5.24407],[-75.78663,5.24407],[-75.7866,5.24407],[-75.78656,5.24406],[-75.78652,5.24405],[-75.78648,5.24404],[-75.78645,5.24404],[-75.78642,5.24403],[-75.78637,5.24402],[-75.78635,5.24401],[-75.78633,5.24399],[-75.78631,5.24398],[-75.78628,5.24397],[-75.78625,5.24397],[-75.78621,5.24397],[-75.78618,5.24396],[-75.78615,5.24397],[-75.78612,5.24397],[-75.7861,5.24397],[-75.78608,5.24397],[-75.78604,5.24397],[-75.786,5.24397],[-75.78598,5.24396],[-75.78593,5.24395],[-75.7859,5.24395],[-75.78587,5.24394],[-75.78583,5.24392],[-75.78581,5.2439],[-75.78579,5.24389],[-75.78577,5.24387],[-75.78572,5.24385],[-75.78569,5.24383],[-75.78567,5.24382],[-75.78565,5.2438],[-75.78563,5.24379],[-75.78561,5.24377],[-75.78559,5.24376],[-75.78556,5.24373],[-75.78553,5.24371],[-75.78549,5.24368],[-75.78547,5.24366],[-75.78545,5.24365],[-75.78542,5.24362],[-75.78539,5.2436],[-75.78537,5.24357],[-75.78535,5.24355],[-75.78534,5.24353],[-75.78533,5.24352],[-75.78532,5.2435],[-75.78531,5.24349],[-75.78531,5.24348],[-75.78531,5.24346],[-75.7853,5.24345],[-75.78529,5.24344],[-75.78528,5.24343],[-75.78527,5.24342],[-75.78525,5.24341],[-75.78523,5.24341],[-75.7852,5.24341],[-75.78518,5.24341],[-75.78514,5.24342],[-75.78512,5.24342],[-75.7851,5.24342],[-75.78507,5.2434],[-75.78504,5.24338],[-75.78502,5.24335],[-75.78501,5.24331],[-75.785,5.24329],[-75.785,5.24326],[-75.78501,5.24323],[-75.78503,5.24321],[-75.78504,5.24319],[-75.78505,5.24316],[-75.78507,5.24313],[-75.78507,5.2431],[-75.78508,5.24306],[-75.78509,5.24304],[-75.7851,5.243],[-75.78511,5.24297],[-75.78511,5.24295],[-75.78512,5.24293],[-75.78513,5.2429],[-75.78513,5.2429],[-75.78513,5.24288],[-75.78514,5.24286],[-75.78514,5.24283],[-75.78513,5.24279],[-75.78512,5.24276],[-75.7851,5.24274],[-75.78509,5.24272],[-75.78505,5.2427],[-75.78502,5.24268],[-75.78499,5.24267],[-75.78495,5.24266],[-75.78492,5.24265],[-75.78488,5.24264],[-75.78486,5.24263],[-75.78483,5.24262],[-75.78482,5.24261],[-75.7848,5.24258],[-75.78479,5.24256],[-75.78478,5.24252],[-75.78477,5.24249],[-75.78476,5.24246],[-75.78474,5.24243],[-75.78472,5.24241],[-75.7847,5.24238],[-75.78468,5.24236],[-75.78465,5.24232],[-75.78462,5.2423],[-75.78458,5.24228],[-75.78452,5.24224],[-75.78449,5.24222],[-75.78444,5.24221],[-75.78438,5.24219],[-75.78432,5.24219],[-75.78427,5.24218],[-75.78423,5.24218],[-75.78418,5.24218],[-75.78412,5.24219],[-75.78405,5.2422],[-75.78401,5.24221],[-75.78394,5.24222],[-75.78391,5.24223],[-75.78389,5.24224],[-75.78386,5.24225]]},"properties":{"OBJECTID":31187,"ID_DS":88,"CODDEP":" ","CODCUENCA":"2615","CODDS":88,"TIPO":" ","NOMBRE":"Quebrada San Pedro","ORDEN":" ","N_ORDEN":4,"FP":20,"Shape_Leng":546.647958766,"ORD_STRAHL":1,"FR_STRAHLE":15,"OBJECTID_1":41,"ZPHA":10,"ZPS":5,"Shape_Length":546.6128039572418}},{"type":"Feature","id":42,"geometry":{"type":"LineString","coordinates":[[-75.78739,5.2445],[-75.78737,5.24451],[-75.78736,5.24452],[-75.78734,5.24453],[-75.7873,5.24454],[-75.78726,5.24455],[-75.78722,5.24455],[-75.78719,5.24456],[-75.78715,5.24458],[-75.78712,5.2446],[-75.78709,5.24462],[-75.78705,5.24463],[-75.78701,5.24464],[-75.78697,5.24465],[-75.78693,5.24466],[-75.78689,5.24467],[-75.78685,5.24468],[-75.7868,5.2447],[-75.78677,5.24471],[-75.78671,5.24473],[-75.78667,5.24474],[-75.78664,5.24475],[-75.7866,5.24476],[-75.78659,5.24476],[-75.78654,5.24477],[-75.7865,5.24478],[-75.78647,5.24479],[-75.78643,5.24481],[-75.78639,5.24483],[-75.78634,5.24488],[-75.78631,5.2449],[-75.78628,5.24492],[-75.78627,5.24493],[-75.78625,5.24495],[-75.78622,5.24498],[-75.7862,5.245],[-75.78618,5.24505],[-75.78615,5.24508],[-75.78612,5.24512],[-75.78609,5.24515],[-75.78606,5.24518],[-75.78603,5.24521],[-75.78599,5.24523],[-75.78592,5.24527],[-75.78587,5.24529],[-75.78581,5.24531],[-75.78571,5.24535],[-75.78566,5.24537],[-75.78563,5.24539],[-75.78557,5.24543],[-75.78552,5.24546],[-75.78548,5.24547],[-75.78544,5.24551],[-75.7854,5.24554],[-75.78536,5.24556],[-75.78533,5.24559],[-75.78529,5.24561],[-75.78525,5.24563],[-75.78522,5.24565],[-75.78516,5.24566],[-75.7851,5.24566],[-75.78505,5.24566],[-75.78501,5.24567],[-75.78497,5.24566],[-75.78494,5.24566],[-75.78491,5.24566],[-75.78488,5.24565],[-75.7848,5.24564],[-75.78476,5.24564],[-75.78471,5.24563],[-75.78467,5.24563],[-75.78464,5.24564],[-75.78461,5.24564],[-75.78455,5.24563],[-75.78451,5.24563],[-75.78447,5.24564],[-75.78443,5.24564],[-75.78439,5.24565],[-75.78434,5.24567],[-75.7843,5.24568],[-75.78427,5.24571],[-75.78425,5.24574],[-75.78422,5.24577],[-75.78421,5.24578],[-75.78419,5.2458],[-75.78416,5.24581],[-75.78413,5.24581],[-75.78408,5.24579],[-75.78405,5.24578],[-75.78402,5.24577],[-75.784,5.24576],[-75.78397,5.24575],[-75.78394,5.24574],[-75.78391,5.24574],[-75.78387,5.24573],[-75.78385,5.24573],[-75.78383,5.24574],[-75.78381,5.24574],[-75.78379,5.24573],[-75.78375,5.24573],[-75.78373,5.24572],[-75.78371,5.24571],[-75.78368,5.24569],[-75.78363,5.24567],[-75.7836,5.24565],[-75.78356,5.24563],[-75.78354,5.24562],[-75.78351,5.24561],[-75.78347,5.24559],[-75.78345,5.24558],[-75.78342,5.24555],[-75.7834,5.24554],[-75.78335,5.24552],[-75.78331,5.24551],[-75.78328,5.2455],[-75.78324,5.24548],[-75.78319,5.24546],[-75.78315,5.24546],[-75.78312,5.24546],[-75.78308,5.24546],[-75.78305,5.24547],[-75.78303,5.24547],[-75.78298,5.24548],[-75.78293,5.24547],[-75.7829,5.24546],[-75.78287,5.24545],[-75.78283,5.24544],[-75.7828,5.24542],[-75.78277,5.24541],[-75.78275,5.2454],[-75.78273,5.2454],[-75.78268,5.24538],[-75.78265,5.24536],[-75.78261,5.24535],[-75.78257,5.24533],[-75.78254,5.24532],[-75.7825,5.2453],[-75.78247,5.24529],[-75.78245,5.24527],[-75.78243,5.24525],[-75.7824,5.24522],[-75.78238,5.2452],[-75.78236,5.24519],[-75.78235,5.24518],[-75.78233,5.24517],[-75.78232,5.24517]]},"properties":{"OBJECTID":31189,"ID_DS":88,"CODDEP":" ","CODCUENCA":"2615","CODDS":88,"TIPO":" ","NOMBRE":"Quebrada San Pedro","ORDEN":" ","N_ORDEN":4,"FP":20,"Shape_Leng":625.296649058,"ORD_STRAHL":2,"FR_STRAHLE":15,"OBJECTID_1":42,"ZPHA":10,"ZPS":5,"Shape_Length":625.2565353609625}},{"type":"Feature","id":43,"geometry":{"type":"LineString","coordinates":[[-75.78232,5.24517],[-75.7823,5.24511],[-75.7823,5.24508],[-75.78229,5.24504],[-75.78229,5.245],[-75.78228,5.24496],[-75.78228,5.24494],[-75.78227,5.24489],[-75.78225,5.24485],[-75.78223,5.24481],[-75.7822,5.24478],[-75.78218,5.24474],[-75.78215,5.24471],[-75.7821,5.24467],[-75.78206,5.24465],[-75.78202,5.24463],[-75.78198,5.24461],[-75.78196,5.2446],[-75.78194,5.2446],[-75.78191,5.24459],[-75.78188,5.24459]]},"properties":{"OBJECTID":31190,"ID_DS":88,"CODDEP":" ","CODCUENCA":"2615","CODDS":88,"TIPO":" ","NOMBRE":"Quebrada San Pedro","ORDEN":" ","N_ORDEN":4,"FP":20,"Shape_Leng":88.6979079615,"ORD_STRAHL":1,"FR_STRAHLE":15,"OBJECTID_1":43,"ZPHA":10,"ZPS":5,"Shape_Length":88.69224098510648}},{"type":"Feature","id":44,"geometry":{"type":"LineString","coordinates":[[-75.78232,5.24517],[-75.78223,5.24515],[-75.78218,5.24515],[-75.78214,5.24516],[-75.7821,5.24516],[-75.78206,5.24516],[-75.78201,5.24516],[-75.78195,5.24517],[-75.78191,5.24517],[-75.78189,5.24517],[-75.78182,5.24519],[-75.78178,5.2452],[-75.78173,5.2452],[-75.78169,5.2452],[-75.78164,5.24521],[-75.78158,5.24522],[-75.78155,5.24522],[-75.78153,5.24522]]},"properties":{"OBJECTID":31191,"ID_DS":88,"CODDEP":" ","CODCUENCA":"2615","CODDS":88,"TIPO":" ","NOMBRE":"Quebrada San Pedro","ORDEN":" ","N_ORDEN":5,"FP":15,"Shape_Leng":88.7704636284,"ORD_STRAHL":1,"FR_STRAHLE":15,"OBJECTID_1":44,"ZPHA":10,"ZPS":5,"Shape_Length":88.76490909075056}},{"type":"Feature","id":45,"geometry":{"type":"LineString","coordinates":[[-75.77764,5.24712],[-75.77762,5.24711],[-75.77756,5.24707],[-75.77753,5.24704],[-75.77749,5.24701],[-75.77743,5.24699],[-75.77736,5.24696],[-75.7773,5.24694],[-75.77726,5.24693],[-75.77722,5.24691],[-75.77721,5.24687],[-75.77719,5.24682],[-75.77715,5.24676],[-75.77713,5.24673],[-75.7771,5.24669],[-75.77706,5.24668],[-75.77704,5.24668],[-75.77702,5.24668],[-75.777,5.24668],[-75.777,5.24668],[-75.77698,5.24665],[-75.77696,5.24663],[-75.77694,5.2466],[-75.77689,5.24657],[-75.77685,5.24657],[-75.77681,5.24658],[-75.77677,5.24659],[-75.77673,5.24659],[-75.77671,5.24659],[-75.77669,5.24658],[-75.77667,5.24655],[-75.77665,5.24652],[-75.77661,5.24649],[-75.77659,5.24643],[-75.77658,5.24637],[-75.77657,5.2463],[-75.77655,5.24624],[-75.77654,5.24619],[-75.77651,5.24615],[-75.7765,5.24613],[-75.77651,5.24611],[-75.77651,5.24609],[-75.77651,5.24605],[-75.77647,5.24601],[-75.77645,5.24597],[-75.77642,5.24593],[-75.77635,5.24591],[-75.77631,5.2459],[-75.77625,5.24587],[-75.77623,5.24585],[-75.77623,5.24584],[-75.77625,5.24581],[-75.77625,5.24578],[-75.77625,5.24574],[-75.77625,5.24569],[-75.77625,5.24566],[-75.77624,5.24563],[-75.77621,5.24559],[-75.7762,5.24556],[-75.77616,5.24551],[-75.77614,5.24547],[-75.77613,5.24545],[-75.77611,5.24539],[-75.77609,5.24536],[-75.77608,5.24533],[-75.77605,5.24529],[-75.77604,5.24525],[-75.77602,5.24521],[-75.77601,5.24515],[-75.77599,5.24511],[-75.77598,5.2451],[-75.77596,5.24505],[-75.77595,5.245],[-75.77593,5.24495],[-75.7759,5.24489],[-75.77588,5.24483],[-75.77587,5.24477],[-75.77586,5.24475],[-75.77585,5.2447],[-75.77584,5.24468],[-75.77582,5.24463],[-75.7758,5.24459],[-75.77578,5.24456],[-75.77577,5.24452],[-75.77576,5.24448],[-75.77574,5.24445],[-75.77573,5.2444],[-75.77572,5.24437],[-75.7757,5.24432],[-75.77569,5.24427],[-75.77567,5.24423],[-75.77566,5.24419],[-75.77566,5.24413],[-75.77567,5.2441],[-75.77569,5.24405],[-75.77571,5.24401],[-75.77573,5.24395],[-75.77574,5.24392],[-75.77575,5.24389],[-75.77576,5.24382],[-75.77578,5.24374],[-75.77578,5.24372],[-75.77578,5.2437],[-75.77577,5.24366],[-75.77577,5.24361],[-75.77577,5.24357],[-75.77577,5.24351],[-75.77576,5.24346],[-75.77576,5.24341],[-75.77575,5.24334],[-75.77574,5.24325],[-75.77573,5.24321],[-75.77572,5.24314],[-75.77572,5.24307],[-75.77572,5.24302],[-75.77573,5.24298],[-75.77572,5.24297],[-75.77572,5.24294],[-75.77573,5.2429],[-75.77574,5.24286],[-75.77574,5.24285],[-75.77574,5.24283],[-75.77574,5.24278],[-75.77574,5.24274],[-75.77575,5.2427],[-75.77575,5.24266],[-75.77574,5.2426],[-75.77574,5.24258],[-75.77575,5.24254],[-75.77576,5.2425],[-75.77577,5.24245],[-75.77578,5.24243],[-75.7758,5.2424],[-75.77582,5.24236],[-75.77584,5.24233],[-75.77586,5.2423],[-75.77592,5.24216],[-75.77594,5.2421],[-75.77595,5.24204],[-75.77596,5.242],[-75.77598,5.24191],[-75.776,5.24181],[-75.77601,5.24177],[-75.77601,5.24174],[-75.77603,5.24169],[-75.77603,5.24164],[-75.77603,5.24158],[-75.77602,5.24151],[-75.77602,5.24144],[-75.77601,5.24138],[-75.77599,5.24134],[-75.77598,5.24129],[-75.77597,5.24126],[-75.77596,5.24119],[-75.77594,5.24115],[-75.77591,5.24111],[-75.77591,5.24109],[-75.77588,5.24102],[-75.77587,5.24098],[-75.77584,5.24092],[-75.77578,5.24083],[-75.77576,5.24081],[-75.77574,5.24077],[-75.7757,5.24069],[-75.77568,5.24066],[-75.77565,5.24062],[-75.77562,5.24059],[-75.77562,5.24057],[-75.77562,5.24055],[-75.77563,5.24051],[-75.77563,5.24048],[-75.77563,5.24043],[-75.77563,5.24038],[-75.77562,5.24034],[-75.77562,5.24033],[-75.77562,5.2403],[-75.77562,5.24027],[-75.77563,5.24023],[-75.77564,5.24019],[-75.77565,5.24016],[-75.77567,5.24012],[-75.77568,5.2401],[-75.77569,5.24007]]},"properties":{"OBJECTID":31192,"ID_DS":88,"CODDEP":" ","CODCUENCA":"2615","CODDS":88,"TIPO":" ","NOMBRE":"Quebrada Cauya","ORDEN":" ","N_ORDEN":4,"FP":20,"Shape_Leng":910.120124933,"ORD_STRAHL":1,"FR_STRAHLE":15,"OBJECTID_1":45,"ZPHA":10,"ZPS":5,"Shape_Length":910.058819040921}},{"type":"Feature","id":46,"geometry":{"type":"LineString","coordinates":[[-75.77901,5.24294],[-75.77871,5.24282],[-75.7786,5.24274],[-75.77833,5.24243],[-75.77817,5.24232]]},"properties":{"OBJECTID":0,"ID_DS":0,"CODDEP":" ","CODCUENCA":" ","CODDS":0,"TIPO":" ","NOMBRE":" ","ORDEN":" ","N_ORDEN":0,"FP":0,"Shape_Leng":0,"ORD_STRAHL":1,"FR_STRAHLE":0,"OBJECTID_1":46,"ZPHA":10,"ZPS":5,"Shape_Length":118.97806666560165}},{"type":"Feature","id":47,"geometry":{"type":"LineString","coordinates":[[-75.77823,5.24339],[-75.77798,5.24321],[-75.77783,5.24313],[-75.7777,5.24302]]},"properties":{"OBJECTID":0,"ID_DS":0,"CODDEP":" ","CODCUENCA":" ","CODDS":0,"TIPO":" ","NOMBRE":" ","ORDEN":" ","N_ORDEN":0,"FP":0,"Shape_Leng":0,"ORD_STRAHL":1,"FR_STRAHLE":0,"OBJECTID_1":47,"ZPHA":10,"ZPS":5,"Shape_Length":72.26709090312478}},{"type":"Feature","id":48,"geometry":{"type":"LineString","coordinates":[[-75.7777,5.24302],[-75.77753,5.24292]]},"properties":{"OBJECTID":0,"ID_DS":0,"CODDEP":" ","CODCUENCA":" ","CODDS":0,"TIPO":" ","NOMBRE":" ","ORDEN":" ","N_ORDEN":0,"FP":0,"Shape_Leng":0,"ORD_STRAHL":1,"FR_STRAHLE":0,"OBJECTID_1":48,"ZPHA":10,"ZPS":5,"Shape_Length":22.052927044931163}},{"type":"Feature","id":50,"geometry":{"type":"LineString","coordinates":[[-75.77913,5.24113],[-75.77895,5.24107],[-75.77878,5.24105],[-75.77871,5.24102],[-75.77866,5.24098],[-75.77865,5.24093],[-75.77851,5.24083],[-75.77842,5.24077],[-75.7782,5.24067],[-75.778,5.24062],[-75.77793,5.24058],[-75.77784,5.24053],[-75.77772,5.24043],[-75.77763,5.24028],[-75.77754,5.24023],[-75.77738,5.24014],[-75.77723,5.24013],[-75.77713,5.24013],[-75.77708,5.24012],[-75.77701,5.24007],[-75.77696,5.24],[-75.77693,5.23995],[-75.77689,5.23987],[-75.77685,5.23975],[-75.7768,5.2397],[-75.7767,5.23964],[-75.7766,5.23958],[-75.77656,5.23955],[-75.77648,5.2395]]},"properties":{"OBJECTID":0,"ID_DS":0,"CODDEP":" ","CODCUENCA":" ","CODDS":0,"TIPO":" ","NOMBRE":" ","ORDEN":" ","N_ORDEN":0,"FP":0,"Shape_Leng":0,"ORD_STRAHL":1,"FR_STRAHLE":0,"OBJECTID_1":50,"ZPHA":10,"ZPS":5,"Shape_Length":363.9767308208806}},{"type":"Feature","id":51,"geometry":{"type":"LineString","coordinates":[[-75.77577,5.24383],[-75.77578,5.24385],[-75.7758,5.24387],[-75.77581,5.24389],[-75.77583,5.24391],[-75.77585,5.24393],[-75.7759,5.24396],[-75.776,5.24401],[-75.77604,5.24403],[-75.77607,5.24406],[-75.7761,5.24408],[-75.77612,5.2441],[-75.77616,5.24415],[-75.77617,5.24417],[-75.77619,5.24418],[-75.77621,5.24418],[-75.77626,5.24419],[-75.77627,5.24419],[-75.77628,5.2442],[-75.77629,5.2442],[-75.77632,5.24423],[-75.77634,5.24424],[-75.77636,5.24425],[-75.77638,5.24426],[-75.7764,5.24426],[-75.77643,5.24426],[-75.77644,5.24426],[-75.77644,5.24426],[-75.77645,5.24427],[-75.77645,5.24429],[-75.77646,5.2443],[-75.77647,5.24431],[-75.77653,5.24433],[-75.77654,5.24434],[-75.77659,5.24437],[-75.77661,5.24439],[-75.77662,5.2444],[-75.77663,5.24442],[-75.77664,5.24446],[-75.77665,5.24448],[-75.77668,5.24452],[-75.77669,5.24454],[-75.7767,5.24459],[-75.77671,5.24463],[-75.77672,5.24467],[-75.77674,5.2447],[-75.77676,5.24472],[-75.7768,5.24475],[-75.77681,5.24477],[-75.77683,5.2448],[-75.77684,5.24482],[-75.77686,5.24484],[-75.77691,5.24487],[-75.77693,5.24489],[-75.77694,5.24491],[-75.77696,5.24493],[-75.77698,5.24501],[-75.777,5.24504],[-75.77701,5.24506],[-75.77702,5.24507],[-75.77703,5.24508],[-75.77706,5.24509],[-75.77708,5.24511],[-75.7771,5.24513],[-75.77711,5.24515],[-75.77715,5.24522],[-75.77716,5.24524],[-75.77717,5.24525],[-75.77722,5.24531],[-75.77725,5.24533],[-75.77727,5.24534],[-75.77729,5.24536],[-75.77731,5.24537],[-75.77738,5.24539],[-75.77741,5.2454],[-75.77749,5.24542],[-75.77753,5.24543],[-75.77755,5.24544],[-75.77758,5.24546],[-75.77766,5.24552],[-75.77769,5.24554],[-75.77777,5.24558],[-75.77786,5.24562],[-75.77794,5.24566],[-75.77797,5.24567],[-75.77801,5.24568],[-75.77809,5.24573],[-75.77821,5.2458],[-75.77827,5.24589],[-75.77835,5.24599],[-75.77835,5.24607],[-75.77835,5.24615],[-75.77832,5.24623],[-75.77839,5.2463]]},"properties":{"OBJECTID":null,"ID_DS":null,"CODDEP":null,"CODCUENCA":null,"CODDS":null,"TIPO":null,"NOMBRE":null,"ORDEN":null,"N_ORDEN":null,"FP":null,"Shape_Leng":null,"ORD_STRAHL":null,"FR_STRAHLE":null,"OBJECTID_1":51,"ZPHA":null,"ZPS":null,"Shape_Length":429.9791083585568}},{"type":"Feature","id":54,"geometry":{"type":"LineString","coordinates":[[-75.78352,5.23052],[-75.78352,5.23052],[-75.78352,5.23052],[-75.78353,5.23052],[-75.78356,5.23053],[-75.78357,5.23053],[-75.78363,5.23054],[-75.78372,5.23054],[-75.78381,5.23055],[-75.78389,5.23057]]},"properties":{"OBJECTID":null,"ID_DS":null,"CODDEP":null,"CODCUENCA":null,"CODDS":null,"TIPO":null,"NOMBRE":null,"ORDEN":null,"N_ORDEN":null,"FP":null,"Shape_Leng":null,"ORD_STRAHL":null,"FR_STRAHLE":null,"OBJECTID_1":54,"ZPHA":null,"ZPS":null,"Shape_Length":42.21814358197501}},{"type":"Feature","id":55,"geometry":{"type":"LineString","coordinates":[[-75.77868,5.23911],[-75.77858,5.23905],[-75.77857,5.23902],[-75.77854,5.239],[-75.77852,5.23898],[-75.7785,5.23897],[-75.77847,5.23895],[-75.77845,5.23893],[-75.77843,5.23891],[-75.77841,5.23888],[-75.77838,5.23886],[-75.77837,5.23883],[-75.77833,5.23879],[-75.77832,5.23878],[-75.7783,5.23876],[-75.77828,5.23874],[-75.77826,5.23872],[-75.77824,5.23869],[-75.77811,5.23863],[-75.77809,5.23862]]},"properties":{"OBJECTID":31172,"ID_DS":88,"CODDEP":" ","CODCUENCA":"2615","CODDS":88,"TIPO":" ","NOMBRE":"Quebrada Cauya","ORDEN":" ","N_ORDEN":4,"FP":20,"Shape_Leng":0,"ORD_STRAHL":1,"FR_STRAHLE":15,"OBJECTID_1":55,"ZPHA":10,"ZPS":5,"Shape_Length":87.11636334744236}}]}