{"type":"FeatureCollection","name":"Drenaje Sencillo Belalcazar","crs":{"type":"name","properties":{"name":"urn:ogc:def:crs:OGC:1.3:CRS84"}},"features":[{"type":"Feature","id":1,"geometry":{"type":"LineString","coordinates":[[-75.8128,4.98578],[-75.8128,4.98576],[-75.8128,4.98573],[-75.8128,4.98571],[-75.81283,4.98548],[-75.81281,4.98532],[-75.81282,4.98509],[-75.81287,4.98496],[-75.81291,4.98482],[-75.81285,4.98453],[-75.81288,4.98429],[-75.81276,4.98411],[-75.81269,4.98397],[-75.81269,4.98386],[-75.81257,4.98362],[-75.81254,4.98356],[-75.81242,4.98344],[-75.81238,4.9833],[-75.81232,4.98315],[-75.8123,4.98313],[-75.8122,4.98298],[-75.81199,4.9829],[-75.8118,4.98288],[-75.81172,4.98275],[-75.8116,4.98264],[-75.81148,4.98236]]},"properties":{"OBJECTID":30675,"ID_DS":88,"CODDEP":" ","CODCUENCA":"2615","CODDS":88,"TIPO":" ","NOMBRE":"Q.  La Turquesa, Montevideo,  Pedregosa,  Beltran","ORDEN":" ","N_ORDEN":5,"FP":15,"Shape_Leng":88.7317225958,"ORD_STRAHL":1,"FR_STRAHLE":15,"ZPHAMIN":10,"ZPSMIN":5,"OBJECTID_1":1,"Shape_Length":448.8182600732177}},{"type":"Feature","id":2,"geometry":{"type":"LineString","coordinates":[[-75.81397,4.98601],[-75.81404,4.98608],[-75.81417,4.98615],[-75.81431,4.9862],[-75.81438,4.98626],[-75.81446,4.98632],[-75.81453,4.98638],[-75.81461,4.98647],[-75.81469,4.98656],[-75.81475,4.98663],[-75.81485,4.98676]]},"properties":{"OBJECTID":30680,"ID_DS":88,"CODDEP":" ","CODCUENCA":"2615","CODDS":88,"TIPO":" ","NOMBRE":"Quebrada La Betulia","ORDEN":" ","N_ORDEN":8,"FP":15,"Shape_Leng":132.902800515,"ORD_STRAHL":1,"FR_STRAHLE":15,"ZPHAMIN":10,"ZPSMIN":5,"OBJECTID_1":2,"Shape_Length":130.28082839492117}},{"type":"Feature","id":3,"geometry":{"type":"LineString","coordinates":[[-75.81407,4.98632],[-75.81412,4.98637],[-75.81419,4.9864],[-75.81423,4.98645],[-75.81429,4.98646],[-75.81434,4.98649],[-75.81442,4.98651],[-75.81449,4.98655],[-75.81455,4.98659],[-75.81458,4.98662],[-75.81468,4.98665],[-75.81475,4.98669],[-75.81485,4.98676]]},"properties":{"OBJECTID":30685,"ID_DS":88,"CODDEP":" ","CODCUENCA":"2615","CODDS":88,"TIPO":" ","NOMBRE":"Quebrada La Betulia","ORDEN":" ","N_ORDEN":8,"FP":15,"Shape_Leng":108.106338777,"ORD_STRAHL":1,"FR_STRAHLE":15,"ZPHAMIN":10,"ZPSMIN":5,"OBJECTID_1":3,"Shape_Length":100.50742197105005}},{"type":"Feature","id":4,"geometry":{"type":"LineString","coordinates":[[-75.81389,4.98716],[-75.81451,4.98759],[-75.81453,4.98761],[-75.81456,4.98764],[-75.81461,4.9877]]},"properties":{"OBJECTID":30697,"ID_DS":88,"CODDEP":" ","CODCUENCA":"2615","CODDS":88,"TIPO":" ","NOMBRE":"Quebrada La Betulia","ORDEN":" ","N_ORDEN":7,"FP":15,"Shape_Leng":148.698923251,"ORD_STRAHL":1,"FR_STRAHLE":15,"ZPHAMIN":10,"ZPSMIN":5,"OBJECTID_1":4,"Shape_Length":100.31464446226387}},{"type":"Feature","id":5,"geometry":{"type":"LineString","coordinates":[[-75.81323,4.98775],[-75.81325,4.98778],[-75.81328,4.98779],[-75.81331,4.98782],[-75.81335,4.98784],[-75.81342,4.98784],[-75.81351,4.98784],[-75.81352,4.98784],[-75.81355,4.98784],[-75.81359,4.98782],[-75.81362,4.98782],[-75.81366,4.98784],[-75.81379,4.98781],[-75.81398,4.98784],[-75.81411,4.98785],[-75.8142,4.98785],[-75.81427,4.98785],[-75.81437,4.98785],[-75.81445,4.98781],[-75.81456,4.98779],[-75.81464,4.98773]]},"properties":{"OBJECTID":30701,"ID_DS":88,"CODDEP":" ","CODCUENCA":"2615","CODDS":88,"TIPO":" ","NOMBRE":"Quebrada La Betulia","ORDEN":" ","N_ORDEN":7,"FP":15,"Shape_Leng":164.109693024,"ORD_STRAHL":1,"FR_STRAHLE":15,"ZPHAMIN":10,"ZPSMIN":5,"OBJECTID_1":5,"Shape_Length":164.44135093095957}},{"type":"Feature","id":6,"geometry":{"type":"LineString","coordinates":[[-75.81461,4.9877],[-75.81464,4.98773],[-75.81467,4.98776],[-75.8147,4.98779],[-75.81472,4.98782],[-75.81476,4.98785],[-75.8148,4.98789],[-75.81483,4.98792],[-75.81486,4.98797],[-75.81489,4.98798],[-75.81492,4.98801],[-75.81494,4.98803],[-75.81497,4.98803],[-75.815,4.98805],[-75.81502,4.98807],[-75.81503,4.98808],[-75.81505,4.9881],[-75.81508,4.98811]]},"properties":{"OBJECTID":30702,"ID_DS":88,"CODDEP":" ","CODCUENCA":"2615","CODDS":88,"TIPO":" ","NOMBRE":"Quebrada La Betulia","ORDEN":" ","N_ORDEN":7,"FP":15,"Shape_Leng":70.6829626941,"ORD_STRAHL":2,"FR_STRAHLE":15,"ZPHAMIN":10,"ZPSMIN":5,"OBJECTID_1":6,"Shape_Length":70.6791170555722}},{"type":"Feature","id":7,"geometry":{"type":"LineString","coordinates":[[-75.81186,4.98838],[-75.81185,4.98845],[-75.81182,4.98861],[-75.81174,4.98878],[-75.81167,4.98887],[-75.81164,4.98897],[-75.81156,4.98902],[-75.81149,4.98909],[-75.81131,4.98919],[-75.81119,4.98926],[-75.81098,4.9893],[-75.81084,4.98933],[-75.81072,4.98934],[-75.81053,4.98936],[-75.81036,4.98934],[-75.81027,4.98932],[-75.81023,4.98932]]},"properties":{"OBJECTID":30706,"ID_DS":88,"CODDEP":" ","CODCUENCA":"2615","CODDS":88,"TIPO":" ","NOMBRE":"Q.  La Turquesa, Montevideo,  Pedregosa,  Beltran","ORDEN":" ","N_ORDEN":4,"FP":20,"Shape_Leng":183.952741555,"ORD_STRAHL":1,"FR_STRAHLE":15,"ZPHAMIN":10,"ZPSMIN":5,"OBJECTID_1":7,"Shape_Length":237.75028039301233}},{"type":"Feature","id":8,"geometry":{"type":"LineString","coordinates":[[-75.81331,4.98969],[-75.8135,4.98968],[-75.81362,4.98964],[-75.81372,4.98957],[-75.81376,4.9895],[-75.81381,4.98947],[-75.81386,4.98942],[-75.81392,4.98938],[-75.81398,4.98936],[-75.81402,4.98935],[-75.81407,4.98934],[-75.81411,4.98935],[-75.81416,4.98938],[-75.81421,4.98939],[-75.81427,4.98941],[-75.81431,4.98943],[-75.81437,4.98946],[-75.8144,4.9895],[-75.81443,4.98953],[-75.81454,4.98958],[-75.81459,4.98961],[-75.81462,4.98965],[-75.81462,4.98979]]},"properties":{"OBJECTID":30710,"ID_DS":88,"CODDEP":" ","CODCUENCA":"2615","CODDS":88,"TIPO":" ","NOMBRE":"Quebrada La Betulia","ORDEN":" ","N_ORDEN":8,"FP":15,"Shape_Leng":168.350052325,"ORD_STRAHL":1,"FR_STRAHLE":15,"ZPHAMIN":10,"ZPSMIN":5,"OBJECTID_1":8,"Shape_Length":185.24856550584627}},{"type":"Feature","id":9,"geometry":{"type":"LineString","coordinates":[[-75.81201,4.98962],[-75.81194,4.98969],[-75.81181,4.98975],[-75.81162,4.98978],[-75.81147,4.98983],[-75.81138,4.98984],[-75.81119,4.98988]]},"properties":{"OBJECTID":30711,"ID_DS":88,"CODDEP":" ","CODCUENCA":"2615","CODDS":88,"TIPO":" ","NOMBRE":"Q.  La Turquesa, Montevideo,  Pedregosa,  Beltran","ORDEN":" ","N_ORDEN":4,"FP":20,"Shape_Leng":97.6908576569,"ORD_STRAHL":1,"FR_STRAHLE":15,"ZPHAMIN":10,"ZPSMIN":5,"OBJECTID_1":9,"Shape_Length":97.40610457023172}},{"type":"Feature","id":10,"geometry":{"type":"LineString","coordinates":[[-75.81462,4.98979],[-75.81465,4.98976],[-75.81468,4.98975],[-75.81471,4.98972],[-75.81474,4.9897],[-75.81478,4.9897],[-75.81485,4.9897],[-75.81491,4.98972],[-75.81495,4.98971],[-75.81498,4.98972],[-75.81503,4.98972],[-75.81507,4.98973],[-75.81512,4.98973],[-75.81518,4.98976],[-75.81523,4.98976],[-75.81526,4.98976],[-75.81533,4.98976],[-75.81542,4.98978]]},"properties":{"OBJECTID":30712,"ID_DS":88,"CODDEP":" ","CODCUENCA":"2615","CODDS":88,"TIPO":" ","NOMBRE":"Quebrada La Betulia","ORDEN":" ","N_ORDEN":7,"FP":15,"Shape_Leng":94.6844042064,"ORD_STRAHL":2,"FR_STRAHLE":15,"ZPHAMIN":10,"ZPSMIN":5,"OBJECTID_1":10,"Shape_Length":94.67940470573684}},{"type":"Feature","id":11,"geometry":{"type":"LineString","coordinates":[[-75.81119,4.98988],[-75.81114,4.98989],[-75.8111,4.98989],[-75.81107,4.9899],[-75.81105,4.98989],[-75.811,4.98988],[-75.81097,4.98986],[-75.81095,4.98986],[-75.81092,4.98984],[-75.8109,4.98983],[-75.81087,4.98982],[-75.81085,4.98982],[-75.81082,4.9898],[-75.81081,4.9898],[-75.81079,4.9898],[-75.81077,4.98979],[-75.81076,4.98979],[-75.81071,4.98977],[-75.81069,4.98976],[-75.81067,4.98975],[-75.81064,4.98974],[-75.81061,4.98972],[-75.81058,4.98971],[-75.81053,4.98971]]},"properties":{"OBJECTID":30713,"ID_DS":88,"CODDEP":" ","CODCUENCA":"2615","CODDS":88,"TIPO":" ","NOMBRE":"Q.  La Turquesa, Montevideo,  Pedregosa,  Beltran","ORDEN":" ","N_ORDEN":4,"FP":20,"Shape_Leng":77.5968235548,"ORD_STRAHL":2,"FR_STRAHLE":15,"ZPHAMIN":10,"ZPSMIN":5,"OBJECTID_1":11,"Shape_Length":77.59262394482126}},{"type":"Feature","id":12,"geometry":{"type":"LineString","coordinates":[[-75.81181,4.99005],[-75.8118,4.99005],[-75.81177,4.99005],[-75.81172,4.99006],[-75.81167,4.99008],[-75.81163,4.99008],[-75.8116,4.99009],[-75.81157,4.99009],[-75.81152,4.99012],[-75.81148,4.99012],[-75.81143,4.99012],[-75.81138,4.99012],[-75.81135,4.99011],[-75.81134,4.99011],[-75.81132,4.99009],[-75.81128,4.99008],[-75.81125,4.99005],[-75.81122,4.99003],[-75.81119,4.98988]]},"properties":{"OBJECTID":30717,"ID_DS":88,"CODDEP":" ","CODCUENCA":"2615","CODDS":88,"TIPO":" ","NOMBRE":"Q.  La Turquesa, Montevideo,  Pedregosa,  Beltran","ORDEN":" ","N_ORDEN":5,"FP":15,"Shape_Leng":88.1949420818,"ORD_STRAHL":1,"FR_STRAHLE":15,"ZPHAMIN":10,"ZPSMIN":5,"OBJECTID_1":12,"Shape_Length":88.19009548837758}},{"type":"Feature","id":13,"geometry":{"type":"LineString","coordinates":[[-75.81364,4.99056],[-75.81375,4.99049],[-75.81382,4.99046],[-75.81388,4.99042],[-75.81394,4.99039],[-75.81416,4.99032],[-75.81423,4.99029],[-75.81428,4.99023],[-75.8143,4.99019],[-75.81434,4.99012]]},"properties":{"OBJECTID":30722,"ID_DS":88,"CODDEP":" ","CODCUENCA":"2615","CODDS":88,"TIPO":" ","NOMBRE":"Quebrada La Betulia","ORDEN":" ","N_ORDEN":7,"FP":15,"Shape_Leng":140.109547865,"ORD_STRAHL":1,"FR_STRAHLE":15,"ZPHAMIN":10,"ZPSMIN":5,"OBJECTID_1":13,"Shape_Length":94.92750669783503}},{"type":"Feature","id":14,"geometry":{"type":"LineString","coordinates":[[-75.81009,4.99119],[-75.80998,4.99111]]},"properties":{"OBJECTID":30727,"ID_DS":88,"CODDEP":" ","CODCUENCA":"2615","CODDS":88,"TIPO":" ","NOMBRE":"Q.  La Turquesa, Montevideo,  Pedregosa,  Beltran","ORDEN":" ","N_ORDEN":5,"FP":15,"Shape_Leng":14.5496823085,"ORD_STRAHL":2,"FR_STRAHLE":15,"ZPHAMIN":10,"ZPSMIN":5,"OBJECTID_1":14,"Shape_Length":14.548937940771118}},{"type":"Feature","id":15,"geometry":{"type":"LineString","coordinates":[[-75.81378,4.9918],[-75.81384,4.99179],[-75.81392,4.99177],[-75.81399,4.99177],[-75.81407,4.99178],[-75.81416,4.99177],[-75.81424,4.99178],[-75.81431,4.99178],[-75.81448,4.99173],[-75.81457,4.99169],[-75.81463,4.99166],[-75.81475,4.99161],[-75.81484,4.99159],[-75.81491,4.99164],[-75.81502,4.99169],[-75.81505,4.99174],[-75.81514,4.99184]]},"properties":{"OBJECTID":30733,"ID_DS":88,"CODDEP":" ","CODCUENCA":"2615","CODDS":88,"TIPO":" ","NOMBRE":"Quebrada La Betulia","ORDEN":" ","N_ORDEN":8,"FP":15,"Shape_Leng":180.979590775,"ORD_STRAHL":1,"FR_STRAHLE":15,"ZPHAMIN":10,"ZPSMIN":5,"OBJECTID_1":15,"Shape_Length":165.85472202610615}},{"type":"Feature","id":16,"geometry":{"type":"LineString","coordinates":[[-75.81198,4.99181],[-75.81195,4.9918],[-75.81193,4.9918],[-75.81188,4.99179],[-75.81185,4.99179],[-75.81181,4.99181],[-75.81173,4.99182],[-75.8117,4.99182],[-75.81166,4.99181],[-75.81163,4.99181],[-75.81158,4.99179],[-75.81156,4.99177],[-75.81149,4.99173],[-75.81146,4.9917],[-75.81143,4.99168],[-75.81141,4.99167],[-75.81138,4.99165],[-75.81137,4.99162],[-75.81134,4.99161],[-75.81131,4.99159],[-75.81127,4.99158],[-75.81123,4.99154],[-75.81121,4.99153],[-75.81118,4.9915],[-75.81115,4.99148],[-75.81112,4.99145],[-75.81108,4.99142],[-75.81105,4.99141],[-75.81102,4.99139],[-75.81097,4.99136],[-75.81092,4.99135],[-75.81085,4.99134],[-75.8108,4.99134],[-75.81076,4.99133],[-75.8107,4.99134],[-75.81063,4.99136],[-75.81059,4.99136],[-75.81056,4.99136],[-75.81051,4.99136],[-75.81047,4.99134],[-75.81044,4.99133],[-75.81039,4.99131],[-75.81036,4.9913],[-75.81035,4.99128],[-75.81028,4.99127],[-75.81025,4.99125],[-75.81022,4.99124],[-75.81019,4.99124],[-75.81016,4.99122],[-75.81013,4.99121],[-75.8101,4.99119],[-75.81009,4.99119]]},"properties":{"OBJECTID":30734,"ID_DS":88,"CODDEP":" ","CODCUENCA":"2615","CODDS":88,"TIPO":" ","NOMBRE":"Q.  La Turquesa, Montevideo,  Pedregosa,  Beltran","ORDEN":" ","N_ORDEN":5,"FP":15,"Shape_Leng":232.428925461,"ORD_STRAHL":1,"FR_STRAHLE":15,"ZPHAMIN":10,"ZPSMIN":5,"OBJECTID_1":16,"Shape_Length":232.41579088862665}},{"type":"Feature","id":17,"geometry":{"type":"LineString","coordinates":[[-75.81514,4.99184],[-75.81518,4.99181],[-75.8152,4.9918],[-75.81522,4.99179],[-75.81529,4.99173],[-75.81537,4.99171],[-75.8154,4.99167],[-75.81547,4.99164],[-75.8155,4.99161],[-75.81554,4.99158],[-75.8156,4.99154]]},"properties":{"OBJECTID":30735,"ID_DS":88,"CODDEP":" ","CODCUENCA":"2615","CODDS":88,"TIPO":" ","NOMBRE":"Quebrada La Betulia","ORDEN":" ","N_ORDEN":8,"FP":15,"Shape_Leng":50.5219367167,"ORD_STRAHL":2,"FR_STRAHLE":15,"ZPHAMIN":10,"ZPSMIN":5,"OBJECTID_1":17,"Shape_Length":62.06306630360782}},{"type":"Feature","id":18,"geometry":{"type":"LineString","coordinates":[[-75.81103,4.99217],[-75.81101,4.99216],[-75.81091,4.99209],[-75.81082,4.99203],[-75.81076,4.992],[-75.81069,4.99196],[-75.81065,4.99193],[-75.8106,4.99188],[-75.81056,4.99185],[-75.81053,4.9918],[-75.8105,4.99177],[-75.81045,4.99174],[-75.81044,4.99173],[-75.81042,4.9917],[-75.81038,4.99163],[-75.81033,4.9916],[-75.81027,4.99154],[-75.81025,4.99153],[-75.81022,4.9915],[-75.81021,4.99147],[-75.81018,4.99144],[-75.81016,4.99142],[-75.81015,4.99139],[-75.81013,4.99136],[-75.81012,4.99134],[-75.81012,4.9913],[-75.8101,4.99127],[-75.81009,4.99119]]},"properties":{"OBJECTID":30736,"ID_DS":88,"CODDEP":" ","CODCUENCA":"2615","CODDS":88,"TIPO":" ","NOMBRE":"Q.  La Turquesa, Montevideo,  Pedregosa,  Beltran","ORDEN":" ","N_ORDEN":6,"FP":15,"Shape_Leng":156.465815476,"ORD_STRAHL":1,"FR_STRAHLE":15,"ZPHAMIN":10,"ZPSMIN":5,"OBJECTID_1":18,"Shape_Length":156.45716281333952}},{"type":"Feature","id":19,"geometry":{"type":"LineString","coordinates":[[-75.81461,4.99227],[-75.81464,4.99224],[-75.81467,4.99224],[-75.8147,4.99222],[-75.81472,4.99221],[-75.81475,4.99219],[-75.81482,4.99214],[-75.81489,4.99209],[-75.81494,4.99205],[-75.81497,4.99202],[-75.815,4.99199],[-75.81503,4.99193],[-75.81505,4.99191],[-75.81508,4.99186],[-75.81514,4.99184]]},"properties":{"OBJECTID":30737,"ID_DS":88,"CODDEP":" ","CODCUENCA":"2615","CODDS":88,"TIPO":" ","NOMBRE":"Quebrada La Betulia","ORDEN":" ","N_ORDEN":8,"FP":15,"Shape_Leng":69.3710449192,"ORD_STRAHL":1,"FR_STRAHLE":15,"ZPHAMIN":10,"ZPSMIN":5,"OBJECTID_1":19,"Shape_Length":76.89725611335611}},{"type":"Feature","id":20,"geometry":{"type":"LineString","coordinates":[[-75.8119,4.9933],[-75.81185,4.99341],[-75.81184,4.99346],[-75.81182,4.99351],[-75.81179,4.99356],[-75.81172,4.99359],[-75.81168,4.99362],[-75.81159,4.99363],[-75.81148,4.99364],[-75.81135,4.99363],[-75.81124,4.99359],[-75.81119,4.99359],[-75.81116,4.99359],[-75.8111,4.99359],[-75.81106,4.99359],[-75.81103,4.99361],[-75.81098,4.99361],[-75.81095,4.99361],[-75.81092,4.99362],[-75.81089,4.99364],[-75.81087,4.99367],[-75.81086,4.99368],[-75.81084,4.99371],[-75.81083,4.99375],[-75.8108,4.99378],[-75.81077,4.99381],[-75.81075,4.99381],[-75.81072,4.99381],[-75.81071,4.99381],[-75.81066,4.99382],[-75.81063,4.99385],[-75.8106,4.99388],[-75.81055,4.9939],[-75.81052,4.99393],[-75.81049,4.99394],[-75.81048,4.99397],[-75.81045,4.99402],[-75.81043,4.99405],[-75.8104,4.9941],[-75.81036,4.99413],[-75.81031,4.99416],[-75.81028,4.99417],[-75.81025,4.99419],[-75.81022,4.9942],[-75.81019,4.9942]]},"properties":{"OBJECTID":30744,"ID_DS":88,"CODDEP":" ","CODCUENCA":"2615","CODDS":88,"TIPO":" ","NOMBRE":"Q.  La Turquesa, Montevideo,  Pedregosa,  Beltran","ORDEN":" ","N_ORDEN":4,"FP":20,"Shape_Leng":235.334006503,"ORD_STRAHL":1,"FR_STRAHLE":15,"ZPHAMIN":10,"ZPSMIN":5,"OBJECTID_1":20,"Shape_Length":239.48038570186642}},{"type":"Feature","id":21,"geometry":{"type":"LineString","coordinates":[[-75.81394,4.99345],[-75.81397,4.99346],[-75.81399,4.99348],[-75.81404,4.9935],[-75.8141,4.99352],[-75.81416,4.9936],[-75.81417,4.99365],[-75.8142,4.99371],[-75.81422,4.99377],[-75.81423,4.99382],[-75.81423,4.99385],[-75.81424,4.99388],[-75.81424,4.99393],[-75.81423,4.99398],[-75.81422,4.99408],[-75.81421,4.99414],[-75.81419,4.99417],[-75.81419,4.99423],[-75.81419,4.99427],[-75.81419,4.99432],[-75.81417,4.99436],[-75.81422,4.99443],[-75.81426,4.99449],[-75.81437,4.99452],[-75.81438,4.99457],[-75.8144,4.99463],[-75.81445,4.99466],[-75.81448,4.99467],[-75.81454,4.9947],[-75.81457,4.99473],[-75.81461,4.99476],[-75.81466,4.99479],[-75.81469,4.99483],[-75.81481,4.99484]]},"properties":{"OBJECTID":30746,"ID_DS":88,"CODDEP":" ","CODCUENCA":"2615","CODDS":88,"TIPO":" ","NOMBRE":"Quebrada La Betulia","ORDEN":" ","N_ORDEN":8,"FP":15,"Shape_Leng":147.447420944,"ORD_STRAHL":1,"FR_STRAHLE":15,"ZPHAMIN":10,"ZPSMIN":5,"OBJECTID_1":21,"Shape_Length":212.56378767694042}},{"type":"Feature","id":22,"geometry":{"type":"LineString","coordinates":[[-75.81019,4.9942],[-75.81016,4.9942],[-75.81013,4.9942],[-75.81011,4.9942],[-75.81009,4.9942],[-75.81008,4.9942],[-75.81006,4.9942],[-75.81003,4.99419],[-75.81,4.99419],[-75.80999,4.9942],[-75.80994,4.9942],[-75.80991,4.99422],[-75.80988,4.99422],[-75.80984,4.99422],[-75.80979,4.99423],[-75.80975,4.99423],[-75.8097,4.99423],[-75.80963,4.99422],[-75.80957,4.99421],[-75.80953,4.99421],[-75.8095,4.9942],[-75.80946,4.99419],[-75.80943,4.99418],[-75.80941,4.99418],[-75.80939,4.99417],[-75.80936,4.99417],[-75.80935,4.99417],[-75.8093,4.99417]]},"properties":{"OBJECTID":30756,"ID_DS":88,"CODDEP":" ","CODCUENCA":"2615","CODDS":88,"TIPO":" ","NOMBRE":"Q.  La Turquesa, Montevideo,  Pedregosa,  Beltran","ORDEN":" ","N_ORDEN":4,"FP":20,"Shape_Leng":100.611521514,"ORD_STRAHL":2,"FR_STRAHLE":15,"ZPHAMIN":10,"ZPSMIN":5,"OBJECTID_1":22,"Shape_Length":100.60592450103016}},{"type":"Feature","id":23,"geometry":{"type":"LineString","coordinates":[[-75.81338,4.99426],[-75.8134,4.99429],[-75.81341,4.99432],[-75.81344,4.99437],[-75.81347,4.9944],[-75.81353,4.99443],[-75.81357,4.99445],[-75.81364,4.99448],[-75.81372,4.99451],[-75.8138,4.99454],[-75.81388,4.9946],[-75.81395,4.99463],[-75.81401,4.99469],[-75.81405,4.99474],[-75.81411,4.9948],[-75.81414,4.99486],[-75.81419,4.99491],[-75.81422,4.99494],[-75.81423,4.99498],[-75.81428,4.99503],[-75.81431,4.99507],[-75.81433,4.9951],[-75.81431,4.99522]]},"properties":{"OBJECTID":30762,"ID_DS":88,"CODDEP":" ","CODCUENCA":"2615","CODDS":88,"TIPO":" ","NOMBRE":"Quebrada La Betulia","ORDEN":" ","N_ORDEN":7,"FP":15,"Shape_Leng":160.790437006,"ORD_STRAHL":1,"FR_STRAHLE":15,"ZPHAMIN":10,"ZPSMIN":5,"OBJECTID_1":23,"Shape_Length":158.4876884655898}},{"type":"Feature","id":24,"geometry":{"type":"LineString","coordinates":[[-75.81109,4.99466],[-75.81096,4.99459],[-75.81093,4.99457],[-75.8109,4.99454],[-75.81083,4.99451],[-75.81081,4.99449],[-75.81078,4.99448],[-75.81075,4.99446],[-75.81072,4.99445],[-75.81069,4.99443],[-75.81066,4.99443],[-75.81063,4.99443],[-75.81061,4.99443],[-75.81057,4.9944],[-75.81052,4.99439],[-75.81049,4.99437],[-75.81045,4.99437],[-75.8104,4.99436],[-75.81031,4.99432],[-75.81019,4.9942]]},"properties":{"OBJECTID":30773,"ID_DS":88,"CODDEP":" ","CODCUENCA":"2615","CODDS":88,"TIPO":" ","NOMBRE":"Q.  La Turquesa, Montevideo,  Pedregosa,  Beltran","ORDEN":" ","N_ORDEN":5,"FP":15,"Shape_Leng":114.846376479,"ORD_STRAHL":1,"FR_STRAHLE":15,"ZPHAMIN":10,"ZPSMIN":5,"OBJECTID_1":24,"Shape_Length":114.83982819708802}},{"type":"Feature","id":25,"geometry":{"type":"LineString","coordinates":[[-75.81481,4.99484],[-75.81499,4.99482],[-75.81511,4.99482],[-75.81522,4.99478],[-75.81535,4.99481],[-75.81543,4.99485],[-75.81547,4.9949],[-75.8155,4.99495],[-75.81554,4.99501]]},"properties":{"OBJECTID":30779,"ID_DS":88,"CODDEP":" ","CODCUENCA":"2615","CODDS":88,"TIPO":" ","NOMBRE":"Quebrada La Betulia","ORDEN":" ","N_ORDEN":6,"FP":15,"Shape_Leng":48.3982070469,"ORD_STRAHL":2,"FR_STRAHLE":20,"ZPHAMIN":10,"ZPSMIN":5,"OBJECTID_1":25,"Shape_Length":92.8057322782331}},{"type":"Feature","id":26,"geometry":{"type":"LineString","coordinates":[[-75.8098,4.99516],[-75.80979,4.99515],[-75.80979,4.99507],[-75.80977,4.99501],[-75.80976,4.99495],[-75.80976,4.99489],[-75.80974,4.99484],[-75.80974,4.99481],[-75.80973,4.99477],[-75.80973,4.99473],[-75.80971,4.99471],[-75.8097,4.99464],[-75.80968,4.99458],[-75.80965,4.99455],[-75.80964,4.99454],[-75.80959,4.99449],[-75.80956,4.99448],[-75.80953,4.99445],[-75.8095,4.99443],[-75.80949,4.99442],[-75.80946,4.9944],[-75.80941,4.9944],[-75.80938,4.9944],[-75.80935,4.9944],[-75.80932,4.9944],[-75.80927,4.99441],[-75.8092,4.99442]]},"properties":{"OBJECTID":30780,"ID_DS":88,"CODDEP":" ","CODCUENCA":"2615","CODDS":88,"TIPO":" ","NOMBRE":"Q.  La Turquesa, Montevideo,  Pedregosa,  Beltran","ORDEN":" ","N_ORDEN":5,"FP":15,"Shape_Leng":127.725879239,"ORD_STRAHL":2,"FR_STRAHLE":15,"ZPHAMIN":10,"ZPSMIN":5,"OBJECTID_1":26,"Shape_Length":127.71887388816816}},{"type":"Feature","id":27,"geometry":{"type":"LineString","coordinates":[[-75.81431,4.99522],[-75.81441,4.99521],[-75.81447,4.99514],[-75.81455,4.99513],[-75.81462,4.99509],[-75.81465,4.99506],[-75.81468,4.99502],[-75.81471,4.99497],[-75.81471,4.99495],[-75.81476,4.99487],[-75.81479,4.99485],[-75.81481,4.99484]]},"properties":{"OBJECTID":30781,"ID_DS":88,"CODDEP":" ","CODCUENCA":"2615","CODDS":88,"TIPO":" ","NOMBRE":"Quebrada La Betulia","ORDEN":" ","N_ORDEN":6,"FP":15,"Shape_Leng":92.4197027057,"ORD_STRAHL":2,"FR_STRAHLE":15,"ZPHAMIN":10,"ZPSMIN":5,"OBJECTID_1":27,"Shape_Length":75.90844516817874}},{"type":"Feature","id":28,"geometry":{"type":"LineString","coordinates":[[-75.81092,4.99546],[-75.81087,4.99543],[-75.81084,4.9954],[-75.81072,4.99535],[-75.81069,4.99533],[-75.81064,4.9953],[-75.81063,4.9953],[-75.8106,4.99529],[-75.81057,4.99527],[-75.81049,4.99524],[-75.81046,4.99523],[-75.81043,4.99521],[-75.8104,4.9952],[-75.81037,4.9952],[-75.81034,4.99521],[-75.81028,4.99521],[-75.81023,4.99523],[-75.81017,4.99523],[-75.81014,4.99523],[-75.81011,4.99523],[-75.81006,4.99522],[-75.81003,4.99521],[-75.81,4.9952],[-75.80997,4.99518],[-75.8098,4.99516]]},"properties":{"OBJECTID":30783,"ID_DS":88,"CODDEP":" ","CODCUENCA":"2615","CODDS":88,"TIPO":" ","NOMBRE":"Q.  La Turquesa, Montevideo,  Pedregosa,  Beltran","ORDEN":" ","N_ORDEN":6,"FP":15,"Shape_Leng":132.610090481,"ORD_STRAHL":1,"FR_STRAHLE":15,"ZPHAMIN":10,"ZPSMIN":5,"OBJECTID_1":28,"Shape_Length":132.60269840537626}},{"type":"Feature","id":29,"geometry":{"type":"LineString","coordinates":[[-75.81244,4.99569],[-75.8127,4.99568],[-75.81284,4.99567],[-75.81293,4.99565],[-75.81303,4.99565],[-75.81315,4.99562],[-75.81319,4.99559],[-75.81325,4.99553],[-75.81328,4.99548],[-75.81332,4.99546],[-75.81337,4.99543],[-75.81343,4.99543],[-75.81351,4.99543],[-75.81358,4.99546],[-75.8137,4.99549],[-75.81378,4.99549],[-75.81388,4.99545],[-75.81397,4.99539],[-75.81402,4.99536],[-75.81409,4.9953],[-75.81416,4.99526],[-75.81421,4.99525],[-75.81431,4.99522]]},"properties":{"OBJECTID":30785,"ID_DS":88,"CODDEP":" ","CODCUENCA":"2615","CODDS":88,"TIPO":" ","NOMBRE":"Quebrada La Betulia","ORDEN":" ","N_ORDEN":6,"FP":15,"Shape_Leng":199.202006057,"ORD_STRAHL":1,"FR_STRAHLE":15,"ZPHAMIN":10,"ZPSMIN":5,"OBJECTID_1":29,"Shape_Length":224.72934990069237}},{"type":"Feature","id":30,"geometry":{"type":"LineString","coordinates":[[-75.81067,4.99619],[-75.81064,4.99618],[-75.81061,4.99618],[-75.81056,4.99616],[-75.8105,4.99613],[-75.81046,4.99611],[-75.8104,4.99608],[-75.81034,4.99604],[-75.81029,4.99601],[-75.81025,4.99598],[-75.8102,4.99593],[-75.81015,4.9959],[-75.81012,4.99588],[-75.81011,4.99587],[-75.81006,4.99582],[-75.81005,4.99579],[-75.81003,4.99576],[-75.81002,4.99575],[-75.81,4.99572],[-75.80999,4.99569],[-75.80999,4.99565],[-75.80997,4.99561],[-75.80997,4.99555],[-75.80996,4.99551],[-75.80996,4.99547],[-75.80994,4.99544],[-75.80994,4.99543],[-75.80993,4.99539],[-75.80993,4.99535],[-75.80991,4.99532],[-75.80991,4.99531],[-75.8099,4.9953],[-75.80989,4.99529],[-75.80987,4.99529],[-75.80985,4.99527],[-75.80983,4.99524],[-75.80982,4.99521],[-75.8098,4.99516]]},"properties":{"OBJECTID":30788,"ID_DS":88,"CODDEP":" ","CODCUENCA":"2615","CODDS":88,"TIPO":" ","NOMBRE":"Q.  La Turquesa, Montevideo,  Pedregosa,  Beltran","ORDEN":" ","N_ORDEN":5,"FP":15,"Shape_Leng":162.300174803,"ORD_STRAHL":1,"FR_STRAHLE":15,"ZPHAMIN":10,"ZPSMIN":5,"OBJECTID_1":30,"Shape_Length":162.29106199070787}},{"type":"Feature","id":31,"geometry":{"type":"LineString","coordinates":[[-75.80938,4.9963],[-75.80935,4.9963],[-75.8093,4.99631],[-75.80925,4.99631],[-75.80922,4.9963],[-75.80921,4.99628],[-75.80919,4.99626],[-75.80916,4.99625],[-75.80914,4.99622],[-75.80912,4.9962],[-75.80911,4.99618],[-75.80909,4.99616],[-75.80909,4.99614],[-75.80906,4.99611],[-75.80904,4.9961],[-75.80903,4.99608],[-75.80899,4.99605],[-75.80896,4.99602],[-75.80896,4.99598],[-75.80893,4.99593],[-75.80893,4.99591],[-75.80892,4.99588],[-75.80891,4.99586],[-75.80892,4.99584],[-75.80892,4.99581],[-75.80892,4.99577],[-75.80892,4.99574],[-75.80892,4.9957],[-75.80893,4.99565],[-75.80895,4.99562],[-75.80897,4.99559],[-75.80897,4.99555],[-75.80898,4.9955],[-75.80899,4.99546],[-75.80901,4.99542],[-75.80903,4.99538],[-75.80903,4.99535],[-75.80904,4.9953],[-75.80904,4.99529],[-75.80906,4.99526],[-75.80906,4.99522],[-75.80907,4.99518],[-75.80909,4.99516],[-75.8091,4.99512],[-75.80912,4.99509],[-75.80912,4.99506],[-75.80912,4.99504],[-75.80912,4.99503],[-75.80912,4.99501]]},"properties":{"OBJECTID":30789,"ID_DS":88,"CODDEP":" ","CODCUENCA":"2615","CODDS":88,"TIPO":" ","NOMBRE":"Q.  La Turquesa, Montevideo,  Pedregosa,  Beltran","ORDEN":" ","N_ORDEN":3,"FP":20,"Shape_Leng":177.411935734,"ORD_STRAHL":2,"FR_STRAHLE":15,"ZPHAMIN":10,"ZPSMIN":5,"OBJECTID_1":31,"Shape_Length":177.40183662061892}},{"type":"Feature","id":32,"geometry":{"type":"LineString","coordinates":[[-75.81379,4.99693],[-75.81381,4.99692],[-75.81393,4.99686],[-75.81408,4.99679],[-75.81414,4.99667],[-75.81421,4.99651],[-75.8143,4.99642],[-75.81449,4.99622],[-75.81466,4.99612],[-75.81475,4.99602],[-75.81481,4.99596],[-75.81524,4.99561],[-75.81536,4.99549],[-75.81539,4.99539],[-75.81542,4.99534],[-75.81545,4.99524],[-75.81549,4.99512],[-75.81554,4.99501]]},"properties":{"OBJECTID":30790,"ID_DS":88,"CODDEP":" ","CODCUENCA":"2615","CODDS":88,"TIPO":" ","NOMBRE":"Quebrada La Betulia","ORDEN":" ","N_ORDEN":8,"FP":15,"Shape_Leng":261.023979634,"ORD_STRAHL":1,"FR_STRAHLE":15,"ZPHAMIN":10,"ZPSMIN":5,"OBJECTID_1":32,"Shape_Length":297.69654094522144}},{"type":"Feature","id":33,"geometry":{"type":"LineString","coordinates":[[-75.81035,4.99696],[-75.81032,4.99695],[-75.81029,4.99695],[-75.81026,4.99694],[-75.81023,4.99694],[-75.81019,4.99694],[-75.81015,4.99692],[-75.81011,4.99692],[-75.81008,4.99691],[-75.81005,4.99691],[-75.81001,4.99689],[-75.80999,4.99686],[-75.80996,4.99683],[-75.80992,4.99681],[-75.80991,4.99678],[-75.80988,4.99676],[-75.80985,4.99675],[-75.80983,4.99674],[-75.8098,4.99672],[-75.80978,4.9967],[-75.80976,4.99668],[-75.80973,4.99666],[-75.80969,4.99665],[-75.80968,4.99663],[-75.80966,4.99662],[-75.80965,4.9966],[-75.80962,4.99657],[-75.80961,4.99656],[-75.8096,4.99654],[-75.80958,4.99651],[-75.80956,4.99649],[-75.80956,4.99648],[-75.80954,4.99645],[-75.80954,4.99643],[-75.80953,4.9964],[-75.80951,4.99639],[-75.8095,4.99637],[-75.80948,4.99636],[-75.80947,4.99634],[-75.80945,4.99633],[-75.80944,4.99631],[-75.80942,4.9963],[-75.80938,4.9963]]},"properties":{"OBJECTID":30791,"ID_DS":88,"CODDEP":" ","CODCUENCA":"2615","CODDS":88,"TIPO":" ","NOMBRE":"Q.  La Turquesa, Montevideo,  Pedregosa,  Beltran","ORDEN":" ","N_ORDEN":3,"FP":20,"Shape_Leng":140.692295768,"ORD_STRAHL":1,"FR_STRAHLE":15,"ZPHAMIN":10,"ZPSMIN":5,"OBJECTID_1":33,"Shape_Length":140.68435228065664}},{"type":"Feature","id":34,"geometry":{"type":"LineString","coordinates":[[-75.81289,4.99756],[-75.81294,4.99754],[-75.81297,4.99753],[-75.813,4.99754],[-75.81303,4.99754],[-75.81305,4.99754],[-75.81309,4.99753],[-75.81312,4.99753],[-75.81317,4.99754],[-75.81319,4.99754],[-75.81321,4.99754],[-75.81325,4.99756],[-75.81328,4.99757],[-75.81331,4.99759],[-75.81334,4.9976],[-75.81338,4.99763],[-75.81343,4.99766],[-75.81344,4.99769],[-75.81346,4.99771],[-75.81347,4.99774],[-75.81349,4.99777],[-75.8135,4.9978],[-75.81351,4.99782],[-75.81352,4.99786],[-75.81353,4.99789],[-75.81356,4.99797],[-75.81357,4.99802],[-75.81358,4.99804],[-75.81361,4.99806],[-75.81364,4.99808],[-75.81366,4.99809],[-75.81367,4.99811],[-75.81371,4.99813],[-75.81375,4.99818],[-75.81378,4.99821],[-75.81381,4.99829],[-75.81384,4.99834],[-75.81386,4.99839],[-75.81392,4.99845],[-75.81398,4.99848],[-75.81405,4.99851],[-75.81408,4.99854],[-75.81409,4.99856],[-75.8141,4.99861],[-75.81411,4.99864],[-75.81413,4.99868],[-75.81421,4.99881],[-75.81427,4.99887],[-75.81429,4.99889],[-75.81432,4.99892],[-75.81434,4.99897],[-75.81443,4.99906],[-75.81448,4.99912],[-75.81453,4.9992],[-75.81456,4.99924],[-75.81458,4.99928],[-75.8146,4.99939],[-75.81461,4.99945],[-75.81463,4.9995],[-75.81466,4.99956],[-75.81466,4.99965],[-75.81465,4.99972],[-75.81465,4.99977],[-75.81466,4.99982],[-75.81467,4.99988],[-75.81469,5.00002],[-75.8147,5.00007],[-75.8147,5.0001],[-75.81469,5.00012],[-75.81469,5.00016],[-75.81467,5.00021]]},"properties":{"OBJECTID":30792,"ID_DS":88,"CODDEP":" ","CODCUENCA":"2615","CODDS":88,"TIPO":" ","NOMBRE":"Quebrada del Guamo","ORDEN":" ","N_ORDEN":6,"FP":15,"Shape_Leng":396.734391369,"ORD_STRAHL":1,"FR_STRAHLE":15,"ZPHAMIN":10,"ZPSMIN":5,"OBJECTID_1":34,"Shape_Length":396.7126887200194}},{"type":"Feature","id":35,"geometry":{"type":"LineString","coordinates":[[-75.80857,4.99771],[-75.80858,4.99767],[-75.80862,4.99757],[-75.80864,4.99749],[-75.80866,4.99743],[-75.80867,4.99738],[-75.80867,4.99736],[-75.80867,4.99735],[-75.80867,4.99732],[-75.80869,4.99723],[-75.80869,4.9972],[-75.80869,4.99715],[-75.8087,4.99712],[-75.8087,4.99709],[-75.80872,4.99704],[-75.80872,4.99701],[-75.80873,4.99697],[-75.80875,4.99694],[-75.80877,4.99691],[-75.80878,4.99686],[-75.80881,4.99683],[-75.80884,4.9968],[-75.80889,4.99677],[-75.80892,4.99675],[-75.80895,4.99675],[-75.80896,4.99674],[-75.80898,4.99672],[-75.80899,4.99672],[-75.80901,4.99671],[-75.80904,4.99668],[-75.80907,4.99666],[-75.80909,4.99665],[-75.80912,4.9966],[-75.80915,4.99657],[-75.80916,4.99654],[-75.80918,4.99651],[-75.80919,4.99648],[-75.80919,4.99646],[-75.80921,4.99645],[-75.80922,4.99642],[-75.80922,4.9964],[-75.80924,4.99639],[-75.80938,4.9963]]},"properties":{"OBJECTID":30793,"ID_DS":88,"CODDEP":" ","CODCUENCA":"2615","CODDS":88,"TIPO":" ","NOMBRE":"Q.  La Turquesa, Montevideo,  Pedregosa,  Beltran","ORDEN":" ","N_ORDEN":4,"FP":20,"Shape_Leng":193.84556726,"ORD_STRAHL":2,"FR_STRAHLE":15,"ZPHAMIN":10,"ZPSMIN":5,"OBJECTID_1":35,"Shape_Length":193.83482333927745}},{"type":"Feature","id":36,"geometry":{"type":"LineString","coordinates":[[-75.80857,4.99771],[-75.8086,4.99778],[-75.8086,4.99791],[-75.80859,4.99795],[-75.80859,4.99801],[-75.80859,4.99802],[-75.80858,4.99805],[-75.80858,4.9981],[-75.80858,4.99814],[-75.80858,4.99819],[-75.80856,4.99825],[-75.80856,4.99827],[-75.80856,4.9983],[-75.80855,4.99833]]},"properties":{"OBJECTID":30794,"ID_DS":88,"CODDEP":" ","CODCUENCA":"2615","CODDS":88,"TIPO":" ","NOMBRE":"Q.  La Turquesa, Montevideo,  Pedregosa,  Beltran","ORDEN":" ","N_ORDEN":5,"FP":15,"Shape_Leng":69.4785860659,"ORD_STRAHL":1,"FR_STRAHLE":15,"ZPHAMIN":10,"ZPSMIN":5,"OBJECTID_1":36,"Shape_Length":69.47471241901613}},{"type":"Feature","id":37,"geometry":{"type":"LineString","coordinates":[[-75.815,4.99811],[-75.81504,4.99817],[-75.81508,4.99822],[-75.81511,4.99828],[-75.81516,4.99833],[-75.81521,4.9984],[-75.81525,4.99845],[-75.81532,4.99849],[-75.81535,4.99851],[-75.81556,4.99858],[-75.81585,4.99861],[-75.81611,4.99862],[-75.81626,4.99864],[-75.81645,4.99866],[-75.81663,4.99869],[-75.81693,4.99878],[-75.81707,4.99888],[-75.81721,4.99896],[-75.8174,4.99909]]},"properties":{"OBJECTID":30795,"ID_DS":88,"CODDEP":" ","CODCUENCA":"2615","CODDS":88,"TIPO":" ","NOMBRE":"Quebrada del Guamo","ORDEN":" ","N_ORDEN":6,"FP":15,"Shape_Leng":59.4467373017,"ORD_STRAHL":1,"FR_STRAHLE":15,"ZPHAMIN":10,"ZPSMIN":5,"OBJECTID_1":37,"Shape_Length":300.83371585107517}},{"type":"Feature","id":38,"geometry":{"type":"LineString","coordinates":[[-75.8083,4.99816],[-75.80832,4.99813],[-75.80834,4.9981],[-75.80835,4.99807],[-75.80838,4.99804],[-75.8084,4.99801],[-75.8084,4.99799],[-75.80841,4.99794],[-75.80843,4.99793],[-75.80844,4.99791],[-75.80846,4.99788],[-75.80847,4.99785],[-75.8085,4.99782],[-75.80852,4.99779],[-75.80853,4.99778],[-75.80855,4.99775],[-75.80856,4.99772],[-75.80857,4.99771]]},"properties":{"OBJECTID":30796,"ID_DS":88,"CODDEP":" ","CODCUENCA":"2615","CODDS":88,"TIPO":" ","NOMBRE":"Q.  La Turquesa, Montevideo,  Pedregosa,  Beltran","ORDEN":" ","N_ORDEN":4,"FP":20,"Shape_Leng":57.9360440157,"ORD_STRAHL":1,"FR_STRAHLE":15,"ZPHAMIN":10,"ZPSMIN":5,"OBJECTID_1":38,"Shape_Length":57.93271696115592}},{"type":"Feature","id":39,"geometry":{"type":"LineString","coordinates":[[-75.81018,4.99853],[-75.81026,4.99862],[-75.8103,4.99871],[-75.8103,4.99874],[-75.81033,4.99879],[-75.81036,4.99883],[-75.81038,4.99888],[-75.81038,4.99894],[-75.81039,4.99899],[-75.81041,4.99902],[-75.81045,4.99905],[-75.81048,4.99905],[-75.81053,4.99905],[-75.81057,4.99906],[-75.81062,4.99913],[-75.81065,4.99916],[-75.81068,4.99917],[-75.81071,4.9992],[-75.81074,4.99922],[-75.81082,4.99925],[-75.81088,4.99926],[-75.81091,4.99928],[-75.81103,4.99936],[-75.81106,4.9994],[-75.81109,4.99944],[-75.81112,4.99948],[-75.81115,4.99949],[-75.81118,4.9995],[-75.8112,4.99951],[-75.81127,4.9995],[-75.81132,4.99948],[-75.81137,4.99948]]},"properties":{"OBJECTID":30797,"ID_DS":88,"CODDEP":" ","CODCUENCA":"2615","CODDS":88,"TIPO":" ","NOMBRE":"Quebrada del Guamo","ORDEN":" ","N_ORDEN":6,"FP":15,"Shape_Leng":187.971455505,"ORD_STRAHL":1,"FR_STRAHLE":15,"ZPHAMIN":10,"ZPSMIN":5,"OBJECTID_1":39,"Shape_Length":187.9608026956655}},{"type":"Feature","id":40,"geometry":{"type":"LineString","coordinates":[[-75.81161,4.99856],[-75.81163,4.99866],[-75.81167,4.99872],[-75.81168,4.99873],[-75.81172,4.99878],[-75.81175,4.99881],[-75.81176,4.99882],[-75.81177,4.99885],[-75.81179,4.99888],[-75.81179,4.99891],[-75.81181,4.99898],[-75.81182,4.99904],[-75.81185,4.99911],[-75.8119,4.99918],[-75.81192,4.99925],[-75.8119,4.99932],[-75.8119,4.99939],[-75.81192,4.99944],[-75.81197,4.99949],[-75.812,4.99955],[-75.81201,4.99976],[-75.81201,4.99978],[-75.81202,4.99985],[-75.81206,4.99993],[-75.81207,4.99995],[-75.8121,5.00002],[-75.81212,5.00008],[-75.81214,5.00011],[-75.81222,5.00031]]},"properties":{"OBJECTID":30798,"ID_DS":88,"CODDEP":" ","CODCUENCA":"2615","CODDS":88,"TIPO":" ","NOMBRE":"Quebrada del Guamo","ORDEN":" ","N_ORDEN":7,"FP":15,"Shape_Leng":210.332297658,"ORD_STRAHL":1,"FR_STRAHLE":15,"ZPHAMIN":10,"ZPSMIN":5,"OBJECTID_1":40,"Shape_Length":210.32071020732658}},{"type":"Feature","id":41,"geometry":{"type":"LineString","coordinates":[[-75.81115,4.99884],[-75.8112,4.99892],[-75.81121,4.99896],[-75.81126,4.999],[-75.81134,4.99907],[-75.81139,4.99913],[-75.81139,4.99925],[-75.81138,4.99935],[-75.81137,4.9994],[-75.81137,4.99948]]},"properties":{"OBJECTID":30799,"ID_DS":88,"CODDEP":" ","CODCUENCA":"2615","CODDS":88,"TIPO":" ","NOMBRE":"Quebrada del Guamo","ORDEN":" ","N_ORDEN":7,"FP":15,"Shape_Leng":76.2734587167,"ORD_STRAHL":1,"FR_STRAHLE":15,"ZPHAMIN":10,"ZPSMIN":5,"OBJECTID_1":41,"Shape_Length":81.62071284352413}},{"type":"Feature","id":42,"geometry":{"type":"LineString","coordinates":[[-75.81137,4.99948],[-75.81138,4.99949],[-75.81141,4.9995],[-75.81143,4.99951],[-75.81144,4.99952],[-75.81146,4.99954],[-75.81148,4.9996],[-75.81147,4.99975],[-75.81149,4.99991],[-75.8115,4.99995],[-75.8115,5.00001],[-75.81149,5.00006],[-75.81149,5.00009],[-75.81152,5.00017],[-75.81159,5.00027],[-75.81164,5.00029],[-75.81168,5.00032],[-75.81172,5.00034],[-75.81175,5.00035]]},"properties":{"OBJECTID":30800,"ID_DS":88,"CODDEP":" ","CODCUENCA":"2615","CODDS":88,"TIPO":" ","NOMBRE":"Quebrada del Guamo","ORDEN":" ","N_ORDEN":6,"FP":15,"Shape_Leng":116.848455943,"ORD_STRAHL":2,"FR_STRAHLE":15,"ZPHAMIN":10,"ZPSMIN":5,"OBJECTID_1":42,"Shape_Length":116.84200107795999}},{"type":"Feature","id":43,"geometry":{"type":"LineString","coordinates":[[-75.81576,4.99631],[-75.81587,4.9962],[-75.81589,4.99609],[-75.81599,4.99587],[-75.8161,4.9957],[-75.81616,4.9956],[-75.8163,4.99551],[-75.81635,4.99547],[-75.81638,4.99542],[-75.8164,4.99536],[-75.81644,4.99529],[-75.81647,4.99524]]},"properties":{"OBJECTID":0,"ID_DS":0,"CODDEP":" ","CODCUENCA":" ","CODDS":0,"TIPO":" ","NOMBRE":" ","ORDEN":" ","N_ORDEN":0,"FP":0,"Shape_Leng":0,"ORD_STRAHL":1,"FR_STRAHLE":0,"ZPHAMIN":10,"ZPSMIN":5,"OBJECTID_1":43,"Shape_Length":146.5127566704269}},{"type":"Feature","id":44,"geometry":{"type":"LineString","coordinates":[[-75.81645,4.99571],[-75.81659,4.99556],[-75.81661,4.99549],[-75.81661,4.99539],[-75.81662,4.99533],[-75.81663,4.99527]]},"properties":{"OBJECTID":0,"ID_DS":0,"CODDEP":" ","CODCUENCA":" ","CODDS":0,"TIPO":" ","NOMBRE":" ","ORDEN":" ","N_ORDEN":0,"FP":0,"Shape_Leng":0,"ORD_STRAHL":1,"FR_STRAHLE":0,"ZPHAMIN":10,"ZPSMIN":5,"OBJECTID_1":44,"Shape_Length":54.98402793717047}},{"type":"Feature","id":45,"geometry":{"type":"LineString","coordinates":[[-75.81294,4.9952],[-75.81303,4.99524],[-75.81315,4.99528],[-75.81322,4.99531],[-75.81328,4.99533],[-75.8133,4.99534],[-75.81335,4.99539],[-75.81337,4.99543]]},"properties":{"OBJECTID":0,"ID_DS":0,"CODDEP":" ","CODCUENCA":" ","CODDS":0,"TIPO":" ","NOMBRE":" ","ORDEN":" ","N_ORDEN":0,"FP":0,"Shape_Leng":0,"ORD_STRAHL":1,"FR_STRAHLE":0,"ZPHAMIN":10,"ZPSMIN":5,"OBJECTID_1":45,"Shape_Length":56.05757184543707}},{"type":"Feature","id":46,"geometry":{"type":"LineString","coordinates":[[-75.81393,4.99018],[-75.81405,4.99015],[-75.8141,4.99015],[-75.81417,4.99014],[-75.81423,4.99012],[-75.81428,4.99011],[-75.81434,4.99012]]},"properties":{"OBJECTID":0,"ID_DS":0,"CODDEP":" ","CODCUENCA":" ","CODDS":0,"TIPO":" ","NOMBRE":" ","ORDEN":" ","N_ORDEN":0,"FP":0,"Shape_Leng":0,"ORD_STRAHL":1,"FR_STRAHLE":0,"ZPHAMIN":10,"ZPSMIN":5,"OBJECTID_1":46,"Shape_Length":47.099310185878096}},{"type":"Feature","id":47,"geometry":{"type":"LineString","coordinates":[[-75.81434,4.99012],[-75.81436,4.99009],[-75.81439,4.99004],[-75.81446,4.98995],[-75.81448,4.98989],[-75.81451,4.98985],[-75.81458,4.98979],[-75.81462,4.98979]]},"properties":{"OBJECTID":30722,"ID_DS":88,"CODDEP":" ","CODCUENCA":"2615","CODDS":88,"TIPO":" ","NOMBRE":"Quebrada La Betulia","ORDEN":" ","N_ORDEN":7,"FP":15,"Shape_Leng":140.109547865,"ORD_STRAHL":2,"FR_STRAHLE":15,"ZPHAMIN":10,"ZPSMIN":5,"OBJECTID_1":47,"Shape_Length":49.220227587306994}},{"type":"Feature","id":48,"geometry":{"type":"LineString","coordinates":[[-75.81576,4.98183],[-75.81578,4.98185],[-75.81579,4.98186],[-75.8158,4.98187],[-75.8158,4.98189],[-75.8158,4.98189],[-75.81581,4.98189],[-75.81582,4.98189],[-75.81582,4.98189],[-75.81583,4.98189],[-75.81584,4.9819],[-75.81584,4.9819],[-75.81587,4.98189],[-75.81587,4.9819],[-75.81588,4.98191],[-75.8159,4.98191],[-75.8159,4.98191],[-75.8159,4.98191],[-75.81591,4.9819],[-75.81592,4.9819],[-75.81592,4.98191],[-75.81593,4.98192],[-75.81594,4.98193],[-75.81595,4.98192],[-75.81596,4.98193],[-75.81598,4.98193],[-75.81598,4.98193],[-75.81599,4.98195],[-75.81599,4.98195],[-75.81601,4.98195],[-75.81601,4.98195],[-75.81601,4.98195],[-75.81601,4.98197],[-75.81601,4.98197],[-75.81601,4.98198],[-75.81604,4.98199],[-75.81604,4.982],[-75.81605,4.98202],[-75.81605,4.98202],[-75.81606,4.98203],[-75.81607,4.98204],[-75.81606,4.98205],[-75.81607,4.98205],[-75.81608,4.98206],[-75.81608,4.98207],[-75.81608,4.98207],[-75.81608,4.98207],[-75.81609,4.98209],[-75.81609,4.98209],[-75.81618,4.98217],[-75.81627,4.98219]]},"properties":{"OBJECTID":0,"ID_DS":0,"CODDEP":" ","CODCUENCA":" ","CODDS":0,"TIPO":" ","NOMBRE":" ","ORDEN":" ","N_ORDEN":0,"FP":0,"Shape_Leng":0,"ORD_STRAHL":1,"FR_STRAHLE":0,"ZPHAMIN":10,"ZPSMIN":5,"OBJECTID_1":48,"Shape_Length":80.712816922083}},{"type":"Feature","id":49,"geometry":{"type":"LineString","coordinates":[[-75.81658,4.98189],[-75.81665,4.98192],[-75.81668,4.98196],[-75.81673,4.982],[-75.8168,4.98206]]},"properties":{"OBJECTID":0,"ID_DS":0,"CODDEP":" ","CODCUENCA":" ","CODDS":0,"TIPO":" ","NOMBRE":" ","ORDEN":" ","N_ORDEN":0,"FP":0,"Shape_Leng":0,"ORD_STRAHL":1,"FR_STRAHLE":0,"ZPHAMIN":10,"ZPSMIN":5,"OBJECTID_1":49,"Shape_Length":31.36652068525691}},{"type":"Feature","id":50,"geometry":{"type":"LineString","coordinates":[[-75.81726,4.98191],[-75.81736,4.98205],[-75.81734,4.98214],[-75.81734,4.98223]]},"properties":{"OBJECTID":0,"ID_DS":0,"CODDEP":" ","CODCUENCA":" ","CODDS":0,"TIPO":" ","NOMBRE":" ","ORDEN":" ","N_ORDEN":0,"FP":0,"Shape_Leng":0,"ORD_STRAHL":1,"FR_STRAHLE":0,"ZPHAMIN":10,"ZPSMIN":5,"OBJECTID_1":50,"Shape_Length":39.214940359709814}},{"type":"Feature","id":51,"geometry":{"type":"LineString","coordinates":[[-75.81785,4.98175],[-75.81791,4.98187],[-75.81798,4.98189],[-75.81811,4.98199],[-75.8182,4.98203],[-75.81827,4.98208],[-75.81834,4.98211],[-75.81843,4.98218],[-75.81849,4.98224],[-75.81853,4.98227],[-75.81859,4.98228],[-75.81862,4.98234]]},"properties":{"OBJECTID":0,"ID_DS":0,"CODDEP":" ","CODCUENCA":" ","CODDS":0,"TIPO":" ","NOMBRE":" ","ORDEN":" ","N_ORDEN":0,"FP":0,"Shape_Leng":0,"ORD_STRAHL":1,"FR_STRAHLE":0,"ZPHAMIN":10,"ZPSMIN":5,"OBJECTID_1":51,"Shape_Length":111.35336085460737}},{"type":"Feature","id":52,"geometry":{"type":"LineString","coordinates":[[-75.81882,4.98197],[-75.81889,4.98208],[-75.81896,4.98218],[-75.81897,4.98229],[-75.81902,4.98238]]},"properties":{"OBJECTID":0,"ID_DS":0,"CODDEP":" ","CODCUENCA":" ","CODDS":0,"TIPO":" ","NOMBRE":" ","ORDEN":" ","N_ORDEN":0,"FP":0,"Shape_Leng":0,"ORD_STRAHL":1,"FR_STRAHLE":0,"ZPHAMIN":10,"ZPSMIN":5,"OBJECTID_1":52,"Shape_Length":51.19977401419564}},{"type":"Feature","id":53,"geometry":{"type":"LineString","coordinates":[[-75.81537,4.98258],[-75.81557,4.9825],[-75.81557,4.9825],[-75.81574,4.9824],[-75.81574,4.9824],[-75.81577,4.98241],[-75.81578,4.98241],[-75.81578,4.98241],[-75.8158,4.9824],[-75.81581,4.9824],[-75.81582,4.9824],[-75.81582,4.9824],[-75.81582,4.9824],[-75.81584,4.98239],[-75.81585,4.98239],[-75.81587,4.98239],[-75.81588,4.98239],[-75.81589,4.98239],[-75.8159,4.98237],[-75.81591,4.98237],[-75.81591,4.98237],[-75.81592,4.98236],[-75.81593,4.98236],[-75.81593,4.98236],[-75.81596,4.98237],[-75.81596,4.98237],[-75.81597,4.98236],[-75.81597,4.98237],[-75.81598,4.98237],[-75.81599,4.98237],[-75.81599,4.98236],[-75.816,4.98235],[-75.81601,4.98235],[-75.81602,4.98235],[-75.81602,4.98235],[-75.81603,4.98234],[-75.81604,4.98234],[-75.81605,4.98234],[-75.81605,4.98234],[-75.81606,4.98234],[-75.81606,4.98234],[-75.81606,4.98233],[-75.81607,4.98233],[-75.81607,4.98233],[-75.81608,4.98233],[-75.81609,4.98232],[-75.81609,4.98232],[-75.8161,4.98231],[-75.8161,4.9823],[-75.81611,4.9823],[-75.81612,4.98229],[-75.81613,4.98229],[-75.81616,4.98229],[-75.81618,4.98229],[-75.81619,4.98228],[-75.8162,4.98227],[-75.81621,4.98226],[-75.81622,4.98226],[-75.81622,4.98225],[-75.81622,4.98225],[-75.81623,4.98224],[-75.81624,4.98223],[-75.81624,4.98222],[-75.81624,4.98222],[-75.81624,4.98221],[-75.81624,4.9822],[-75.81625,4.9822],[-75.81625,4.98219],[-75.81627,4.98219]]},"properties":{"OBJECTID":0,"ID_DS":0,"CODDEP":" ","CODCUENCA":" ","CODDS":0,"TIPO":" ","NOMBRE":" ","ORDEN":" ","N_ORDEN":0,"FP":0,"Shape_Leng":0,"ORD_STRAHL":1,"FR_STRAHLE":0,"ZPHAMIN":10,"ZPSMIN":5,"OBJECTID_1":53,"Shape_Length":119.34370724588436}},{"type":"Feature","id":54,"geometry":{"type":"LineString","coordinates":[[-75.81627,4.98219],[-75.81628,4.98219],[-75.81628,4.98219],[-75.81629,4.9822],[-75.81629,4.9822],[-75.81629,4.9822],[-75.8163,4.98218],[-75.81631,4.98217],[-75.81632,4.98217],[-75.81632,4.98217],[-75.81633,4.98218],[-75.81633,4.98218],[-75.81635,4.98218],[-75.81636,4.98218],[-75.81637,4.98219],[-75.81637,4.9822],[-75.81638,4.9822],[-75.81639,4.98219],[-75.8164,4.98218],[-75.8164,4.98217],[-75.81642,4.98217],[-75.81643,4.98217],[-75.81643,4.98216],[-75.81644,4.98216],[-75.81644,4.98216],[-75.81645,4.98216],[-75.81648,4.98215],[-75.8165,4.98214],[-75.81651,4.98214],[-75.81652,4.98213],[-75.81652,4.98213],[-75.81653,4.98214],[-75.81653,4.98214],[-75.81654,4.98213],[-75.81655,4.98212],[-75.81656,4.98212],[-75.81657,4.98212],[-75.81657,4.98212],[-75.81658,4.98212],[-75.81658,4.98212],[-75.81659,4.98212],[-75.8166,4.98212],[-75.81661,4.98213],[-75.81661,4.98213],[-75.81661,4.98212],[-75.81662,4.98212],[-75.81663,4.98212],[-75.81663,4.98213],[-75.81664,4.98213],[-75.81665,4.98213],[-75.81666,4.98212],[-75.81666,4.98211],[-75.81666,4.98211],[-75.81668,4.9821],[-75.81668,4.98209],[-75.81668,4.98208],[-75.81669,4.98207],[-75.8167,4.98207],[-75.81671,4.98208],[-75.81672,4.98208],[-75.81672,4.98207],[-75.81673,4.98207],[-75.81674,4.98207],[-75.81678,4.98208],[-75.81679,4.98207],[-75.8168,4.98207],[-75.8168,4.98206]]},"properties":{"OBJECTID":0,"ID_DS":0,"CODDEP":" ","CODCUENCA":" ","CODDS":0,"TIPO":" ","NOMBRE":" ","ORDEN":" ","N_ORDEN":0,"FP":0,"Shape_Leng":0,"ORD_STRAHL":2,"FR_STRAHLE":0,"ZPHAMIN":10,"ZPSMIN":5,"OBJECTID_1":54,"Shape_Length":72.05778345779318}},{"type":"Feature","id":55,"geometry":{"type":"LineString","coordinates":[[-75.8168,4.98206],[-75.81681,4.98206],[-75.81682,4.98207],[-75.81683,4.98206],[-75.81684,4.98206],[-75.81684,4.98205],[-75.81685,4.98205],[-75.81685,4.98205],[-75.81686,4.98205],[-75.81687,4.98205],[-75.81687,4.98207],[-75.81688,4.98207],[-75.81689,4.98207],[-75.8169,4.98208],[-75.8169,4.98208],[-75.81691,4.98207],[-75.81692,4.98207],[-75.81693,4.98206],[-75.81694,4.98207],[-75.81695,4.98207],[-75.81696,4.98208],[-75.81696,4.98208],[-75.81698,4.98208],[-75.81699,4.98208],[-75.81699,4.9821],[-75.817,4.9821],[-75.81701,4.9821],[-75.81702,4.9821],[-75.81702,4.98212],[-75.81703,4.98212],[-75.81704,4.98211],[-75.81704,4.98212],[-75.81704,4.98212],[-75.81705,4.98212],[-75.81706,4.98212],[-75.81707,4.98211],[-75.81707,4.98211],[-75.81708,4.98211],[-75.81708,4.98213],[-75.81709,4.98214],[-75.81709,4.98215],[-75.81708,4.98217],[-75.81708,4.98217],[-75.81708,4.98217],[-75.81709,4.98218],[-75.81709,4.98218],[-75.81709,4.9822],[-75.81719,4.9822],[-75.8172,4.9822],[-75.81723,4.9822],[-75.81724,4.9822],[-75.81725,4.98219],[-75.81727,4.98219],[-75.81728,4.98219],[-75.81729,4.9822],[-75.81729,4.9822],[-75.8173,4.9822],[-75.81731,4.9822],[-75.81732,4.98221],[-75.81733,4.98221],[-75.81734,4.98223]]},"properties":{"OBJECTID":0,"ID_DS":0,"CODDEP":" ","CODCUENCA":" ","CODDS":0,"TIPO":" ","NOMBRE":" ","ORDEN":" ","N_ORDEN":0,"FP":0,"Shape_Leng":0,"ORD_STRAHL":2,"FR_STRAHLE":0,"ZPHAMIN":10,"ZPSMIN":5,"OBJECTID_1":55,"Shape_Length":77.95406735361925}},{"type":"Feature","id":56,"geometry":{"type":"LineString","coordinates":[[-75.81734,4.98223],[-75.81734,4.98224],[-75.81735,4.98225],[-75.81736,4.98226],[-75.81737,4.98227],[-75.81738,4.98227],[-75.8174,4.98227],[-75.81741,4.98227],[-75.81742,4.98227],[-75.81744,4.9823],[-75.81745,4.98231],[-75.81746,4.98231],[-75.81748,4.98231],[-75.81749,4.98231],[-75.8175,4.98232],[-75.8175,4.98233],[-75.81751,4.98232],[-75.81752,4.98232],[-75.81835,4.98245],[-75.81836,4.98246],[-75.81837,4.98247],[-75.81838,4.98247],[-75.81838,4.98247],[-75.81841,4.98245],[-75.81842,4.98244],[-75.81845,4.98244],[-75.81846,4.98243],[-75.81847,4.98243],[-75.81848,4.98243],[-75.81862,4.98234]]},"properties":{"OBJECTID":0,"ID_DS":0,"CODDEP":" ","CODCUENCA":" ","CODDS":0,"TIPO":" ","NOMBRE":" ","ORDEN":" ","N_ORDEN":0,"FP":0,"Shape_Leng":0,"ORD_STRAHL":2,"FR_STRAHLE":0,"ZPHAMIN":10,"ZPSMIN":5,"OBJECTID_1":56,"Shape_Length":153.34638024494436}},{"type":"Feature","id":57,"geometry":{"type":"LineString","coordinates":[[-75.81902,4.98237],[-75.81904,4.98239],[-75.81905,4.9824],[-75.81906,4.98241],[-75.81907,4.98241],[-75.81907,4.98242],[-75.81908,4.98242],[-75.81909,4.98243],[-75.8191,4.98244],[-75.81911,4.98245],[-75.81911,4.98245],[-75.81912,4.98245],[-75.81916,4.98245],[-75.81917,4.98245],[-75.81919,4.98246],[-75.8192,4.98246],[-75.81921,4.98245],[-75.81922,4.98244],[-75.81923,4.98243]]},"properties":{"OBJECTID":0,"ID_DS":0,"CODDEP":" ","CODCUENCA":" ","CODDS":0,"TIPO":" ","NOMBRE":" ","ORDEN":" ","N_ORDEN":0,"FP":0,"Shape_Leng":0,"ORD_STRAHL":2,"FR_STRAHLE":0,"ZPHAMIN":10,"ZPSMIN":5,"OBJECTID_1":57,"Shape_Length":27.93695810239967}},{"type":"Feature","id":58,"geometry":{"type":"LineString","coordinates":[[-75.81862,4.98234],[-75.81863,4.98234],[-75.81863,4.98234],[-75.81864,4.98235],[-75.81866,4.98235],[-75.81867,4.98235],[-75.81868,4.98234],[-75.81869,4.98234],[-75.81869,4.98234],[-75.8187,4.98234],[-75.81871,4.98234],[-75.81872,4.98235],[-75.81873,4.98236],[-75.81873,4.98236],[-75.81874,4.98236],[-75.81875,4.98236],[-75.81876,4.98235],[-75.81876,4.98235],[-75.81876,4.98235],[-75.81877,4.98235],[-75.81877,4.98234],[-75.81878,4.98234],[-75.81878,4.98234],[-75.81878,4.98234],[-75.81879,4.98233],[-75.81881,4.98232],[-75.81882,4.98232],[-75.81883,4.98233],[-75.81883,4.98233],[-75.81884,4.98232],[-75.81885,4.98231],[-75.81886,4.9823],[-75.81887,4.98229],[-75.81889,4.98229],[-75.8189,4.98229],[-75.81902,4.98237]]},"properties":{"OBJECTID":0,"ID_DS":0,"CODDEP":" ","CODCUENCA":" ","CODDS":0,"TIPO":" ","NOMBRE":" ","ORDEN":" ","N_ORDEN":0,"FP":0,"Shape_Leng":0,"ORD_STRAHL":2,"FR_STRAHLE":0,"ZPHAMIN":10,"ZPSMIN":5,"OBJECTID_1":58,"Shape_Length":53.595466995451474}},{"type":"Feature","id":59,"geometry":{"type":"LineString","coordinates":[[-75.81689,4.9792],[-75.81701,4.97922],[-75.81706,4.97928],[-75.81718,4.9793],[-75.81734,4.97933],[-75.8175,4.97932],[-75.81768,4.9793],[-75.81777,4.97934],[-75.81788,4.97931],[-75.81795,4.97922],[-75.81803,4.97921],[-75.81819,4.97916],[-75.81834,4.9792],[-75.81846,4.97919],[-75.81862,4.97913],[-75.8189,4.9791],[-75.81906,4.9791],[-75.81923,4.97913],[-75.81945,4.9792],[-75.81971,4.97921],[-75.81987,4.97925],[-75.82004,4.9793],[-75.82022,4.97929],[-75.82036,4.97913],[-75.82053,4.97901],[-75.82083,4.97885]]},"properties":{"OBJECTID":0,"ID_DS":0,"CODDEP":" ","CODCUENCA":" ","CODDS":0,"TIPO":" ","NOMBRE":" ","ORDEN":" ","N_ORDEN":0,"FP":0,"Shape_Leng":0,"ORD_STRAHL":1,"FR_STRAHLE":0,"ZPHAMIN":10,"ZPSMIN":5,"OBJECTID_1":59,"Shape_Length":470.0445232728985}},{"type":"Feature","id":60,"geometry":{"type":"LineString","coordinates":[[-75.81554,4.99501],[-75.81557,4.99497],[-75.81569,4.99495],[-75.81578,4.99495],[-75.81593,4.99493],[-75.81606,4.99495],[-75.81625,4.99509],[-75.81633,4.99517],[-75.81647,4.99524]]},"properties":{"OBJECTID":30790,"ID_DS":88,"CODDEP":" ","CODCUENCA":"2615","CODDS":88,"TIPO":" ","NOMBRE":"Quebrada La Betulia","ORDEN":" ","N_ORDEN":8,"FP":15,"Shape_Leng":261.023979634,"ORD_STRAHL":2,"FR_STRAHLE":15,"ZPHAMIN":10,"ZPSMIN":5,"OBJECTID_1":60,"Shape_Length":115.52312477872695}},{"type":"Feature","id":61,"geometry":{"type":"LineString","coordinates":[[-75.81647,4.99524],[-75.81655,4.99527],[-75.81663,4.99527]]},"properties":{"OBJECTID":30790,"ID_DS":88,"CODDEP":" ","CODCUENCA":"2615","CODDS":88,"TIPO":" ","NOMBRE":"Quebrada La Betulia","ORDEN":" ","N_ORDEN":8,"FP":15,"Shape_Leng":261.023979634,"ORD_STRAHL":2,"FR_STRAHLE":15,"ZPHAMIN":10,"ZPSMIN":5,"OBJECTID_1":61,"Shape_Length":18.988021213566874}},{"type":"Feature","id":62,"geometry":{"type":"LineString","coordinates":[[-75.81663,4.99527],[-75.81668,4.99527],[-75.81675,4.99521],[-75.81689,4.99512],[-75.81702,4.99503],[-75.81716,4.99493]]},"properties":{"OBJECTID":30790,"ID_DS":88,"CODDEP":" ","CODCUENCA":"2615","CODDS":88,"TIPO":" ","NOMBRE":"Quebrada La Betulia","ORDEN":" ","N_ORDEN":8,"FP":15,"Shape_Leng":261.023979634,"ORD_STRAHL":2,"FR_STRAHLE":15,"ZPHAMIN":10,"ZPSMIN":5,"OBJECTID_1":62,"Shape_Length":70.83589534173223}}]}