{"type":"FeatureCollection","name":"Retiro Pendientes Belalcazar","crs":{"type":"name","properties":{"name":"urn:ogc:def:crs:OGC:1.3:CRS84"}},"features":[{"type":"Feature","id":1,"geometry":{"type":"Polygon","coordinates":[[[-75.81158,5.00047],[-75.8116,5.00048],[-75.8116,5.00048],[-75.81163,5.0005],[-75.81166,5.00051],[-75.81168,5.00052],[-75.81172,5.00053],[-75.81175,5.00053],[-75.81189,5.00058],[-75.81193,5.00055],[-75.81196,5.00052],[-75.81198,5.00048],[-75.81199,5.00046],[-75.81201,5.00047],[-75.81204,5.00051],[-75.81207,5.00053],[-75.81211,5.00056],[-75.81215,5.00057],[-75.8122,5.00058],[-75.81224,5.00058],[-75.81228,5.00048],[-75.81231,5.00046],[-75.81233,5.00044],[-75.81236,5.00042],[-75.81237,5.0004],[-75.81239,5.00037],[-75.8124,5.00034],[-75.8124,5.00031],[-75.81247,5.00022],[-75.81247,5.0002],[-75.81238,5.0],[-75.81237,4.99997],[-75.81235,4.99992],[-75.81233,4.99986],[-75.81231,4.99982],[-75.8123,4.9998],[-75.81228,4.99977],[-75.81228,4.99975],[-75.81228,4.99974],[-75.81228,4.99972],[-75.81228,4.99955],[-75.81227,4.99952],[-75.81227,4.99948],[-75.81225,4.99945],[-75.81208,4.99935],[-75.81209,4.99928],[-75.8121,4.99926],[-75.81209,4.99923],[-75.81209,4.99921],[-75.81207,4.99913],[-75.81206,4.9991],[-75.81205,4.99908],[-75.81202,4.99903],[-75.812,4.99898],[-75.81198,4.99893],[-75.81197,4.99888],[-75.81197,4.99885],[-75.81196,4.99882],[-75.81195,4.99879],[-75.81194,4.99877],[-75.81193,4.99876],[-75.81193,4.99875],[-75.81192,4.99875],[-75.81191,4.99872],[-75.8119,4.99871],[-75.81189,4.99869],[-75.81188,4.99868],[-75.81185,4.99866],[-75.81182,4.99862],[-75.81181,4.99861],[-75.8118,4.99859],[-75.81179,4.99852],[-75.81178,4.9985],[-75.81177,4.99847],[-75.81175,4.99845],[-75.81173,4.99842],[-75.8117,4.99841],[-75.81167,4.99839],[-75.81164,4.99838],[-75.81161,4.99838],[-75.81158,4.99838],[-75.81155,4.99839],[-75.81152,4.99841],[-75.8115,4.99842],[-75.81147,4.99845],[-75.81146,4.99847],[-75.81144,4.9985],[-75.81143,4.99853],[-75.81143,4.99856],[-75.81143,4.99859],[-75.81144,4.9986],[-75.81146,4.9987],[-75.81146,4.99872],[-75.81148,4.99875],[-75.81149,4.99877],[-75.81151,4.99881],[-75.81153,4.99883],[-75.81154,4.99884],[-75.81155,4.99885],[-75.81158,4.99889],[-75.81159,4.9989],[-75.81161,4.99892],[-75.81161,4.99893],[-75.81162,4.99894],[-75.81162,4.99895],[-75.81162,4.99896],[-75.81163,4.99902],[-75.81165,4.99908],[-75.81166,4.9991],[-75.81166,4.9991],[-75.81169,4.99918],[-75.8117,4.9992],[-75.8117,4.99921],[-75.81173,4.99925],[-75.81173,4.99926],[-75.81173,4.99929],[-75.81172,4.99931],[-75.81172,4.99937],[-75.81161,4.99944],[-75.81159,4.99942],[-75.81158,4.9994],[-75.81156,4.99938],[-75.81156,4.99937],[-75.81157,4.99927],[-75.81157,4.99925],[-75.81157,4.99913],[-75.81157,4.99911],[-75.81156,4.99908],[-75.81155,4.99906],[-75.81154,4.99904],[-75.81153,4.99902],[-75.81148,4.99895],[-75.81145,4.99893],[-75.81138,4.99887],[-75.81137,4.99886],[-75.81137,4.99886],[-75.81135,4.99883],[-75.8113,4.99875],[-75.81129,4.99872],[-75.81127,4.9987],[-75.81124,4.99868],[-75.81121,4.99867],[-75.81118,4.99866],[-75.81115,4.99866],[-75.81112,4.99866],[-75.81109,4.99867],[-75.81106,4.99868],[-75.81103,4.9987],[-75.81101,4.99872],[-75.81099,4.99875],[-75.81098,4.99878],[-75.81097,4.99881],[-75.81097,4.99884],[-75.81097,4.99887],[-75.81098,4.9989],[-75.811,4.99893],[-75.81103,4.99898],[-75.81103,4.99899],[-75.81104,4.99902],[-75.81105,4.99905],[-75.81107,4.99908],[-75.81109,4.9991],[-75.81109,4.9991],[-75.81115,4.99915],[-75.81121,4.9992],[-75.81121,4.9992],[-75.81121,4.99924],[-75.81121,4.99929],[-75.81118,4.99926],[-75.81117,4.99924],[-75.81115,4.99922],[-75.81113,4.9992],[-75.81101,4.99913],[-75.811,4.99912],[-75.81099,4.99912],[-75.81096,4.9991],[-75.81094,4.99909],[-75.81092,4.99909],[-75.81087,4.99908],[-75.81082,4.99905],[-75.81081,4.99904],[-75.81079,4.99903],[-75.81076,4.99901],[-75.81076,4.99901],[-75.81072,4.99896],[-75.81071,4.99895],[-75.81069,4.99893],[-75.81066,4.99891],[-75.81064,4.99889],[-75.81063,4.99889],[-75.81059,4.99888],[-75.81056,4.99887],[-75.81055,4.99885],[-75.81046,4.99885],[-75.81044,4.9988],[-75.81039,4.9988],[-75.81037,4.99876],[-75.81035,4.99873],[-75.81035,4.99871],[-75.81035,4.99871],[-75.81034,4.9987],[-75.81034,4.99869],[-75.8103,4.9986],[-75.81029,4.9986],[-75.81029,4.99859],[-75.81027,4.9985],[-75.81025,4.99847],[-75.81027,4.99837],[-75.81024,4.99836],[-75.81021,4.99835],[-75.81011,4.99827],[-75.81007,4.99828],[-75.81003,4.9983],[-75.81,4.99833],[-75.80997,4.99836],[-75.80994,4.9984],[-75.80992,4.99844],[-75.80991,4.99849],[-75.80991,4.99853],[-75.80991,4.99857],[-75.80992,4.99862],[-75.80994,4.99866],[-75.80997,4.9987],[-75.80997,4.9987],[-75.81003,4.99877],[-75.81003,4.99878],[-75.81004,4.99882],[-75.81006,4.99886],[-75.81008,4.99889],[-75.81011,4.99894],[-75.81011,4.99899],[-75.81012,4.99903],[-75.81014,4.99908],[-75.81015,4.99911],[-75.81016,4.99914],[-75.81018,4.99917],[-75.8102,4.9992],[-75.81023,4.99922],[-75.81026,4.99924],[-75.8103,4.99928],[-75.81033,4.99929],[-75.81036,4.99931],[-75.8104,4.99931],[-75.81043,4.99932],[-75.81046,4.99935],[-75.81049,4.99937],[-75.81052,4.99939],[-75.81055,4.99942],[-75.81059,4.99945],[-75.81075,4.99942],[-75.81076,4.99942],[-75.81077,4.99942],[-75.81082,4.99943],[-75.81082,4.99944],[-75.8109,4.99949],[-75.81091,4.9995],[-75.81091,4.99951],[-75.81094,4.99954],[-75.81095,4.99955],[-75.81097,4.99959],[-75.81099,4.99972],[-75.81103,4.99974],[-75.81105,4.99974],[-75.81105,4.99975],[-75.81108,4.99976],[-75.81111,4.99977],[-75.81113,4.99977],[-75.81118,4.99978],[-75.8112,4.99978],[-75.8112,4.99979],[-75.81122,4.99994],[-75.81123,4.99995],[-75.81123,4.99996],[-75.81123,4.99998],[-75.81123,5.0],[-75.81122,5.00004],[-75.81122,5.00007],[-75.81122,5.0001],[-75.81123,5.00014],[-75.81124,5.00018],[-75.81125,5.00022],[-75.81137,5.00027],[-75.81145,5.00038],[-75.81146,5.00039],[-75.81148,5.00041],[-75.8115,5.00043],[-75.81153,5.00044],[-75.81154,5.00045],[-75.81156,5.00045],[-75.81158,5.00047]],[[-75.81165,4.99975],[-75.81166,4.99965],[-75.81184,4.99982],[-75.81184,4.99987],[-75.81186,4.99993],[-75.81191,5.00003],[-75.81184,5.00009],[-75.81177,5.00005],[-75.81168,5.00001],[-75.81168,4.99992],[-75.81166,4.99982],[-75.81165,4.99975]]]},"properties":{"Id":0,"OBJECTID":1,"Shape_Length":1387.571905939897,"Shape_Area":30854.029610705067,"Municipio":"Belalcazar"}},{"type":"Feature","id":2,"geometry":{"type":"Polygon","coordinates":[[[-75.81288,4.99737],[-75.81278,4.99742],[-75.81276,4.99744],[-75.81274,4.99747],[-75.81273,4.99749],[-75.81272,4.99752],[-75.81271,4.99756],[-75.81272,4.99759],[-75.81273,4.99762],[-75.81274,4.99765],[-75.81276,4.99767],[-75.81278,4.99769],[-75.8128,4.99771],[-75.81292,4.99783],[-75.81296,4.99782],[-75.81298,4.99781],[-75.81299,4.99781],[-75.813,4.99781],[-75.81303,4.99781],[-75.81305,4.99781],[-75.81307,4.99781],[-75.81311,4.9978],[-75.81325,4.99776],[-75.81328,4.99778],[-75.81329,4.99779],[-75.81331,4.99781],[-75.81332,4.99783],[-75.81332,4.99784],[-75.81333,4.99785],[-75.81334,4.99787],[-75.81334,4.99789],[-75.81335,4.99792],[-75.81336,4.99794],[-75.81336,4.99796],[-75.81338,4.99801],[-75.81339,4.99806],[-75.8134,4.99808],[-75.8134,4.9981],[-75.81342,4.99812],[-75.81343,4.99815],[-75.81345,4.99817],[-75.81347,4.99819],[-75.81349,4.9982],[-75.81352,4.99822],[-75.81352,4.99822],[-75.81353,4.99822],[-75.81353,4.99823],[-75.81354,4.99824],[-75.81356,4.99825],[-75.81358,4.99826],[-75.81359,4.99827],[-75.81361,4.99829],[-75.81362,4.9983],[-75.81363,4.99851],[-75.81365,4.99855],[-75.81367,4.99857],[-75.81373,4.99863],[-75.81375,4.99866],[-75.81378,4.99868],[-75.8138,4.99869],[-75.81385,4.99871],[-75.81385,4.99873],[-75.81387,4.99877],[-75.81389,4.99881],[-75.8139,4.99881],[-75.8139,4.99883],[-75.81398,4.99895],[-75.814,4.99898],[-75.81402,4.999],[-75.81408,4.99906],[-75.81409,4.99907],[-75.81409,4.99907],[-75.81411,4.9991],[-75.81413,4.99913],[-75.81415,4.99916],[-75.81418,4.99919],[-75.8143,4.99918],[-75.81433,4.99922],[-75.81437,4.99929],[-75.81437,4.99929],[-75.81438,4.99931],[-75.8144,4.99934],[-75.81442,4.99942],[-75.81443,4.99947],[-75.81443,4.9995],[-75.81444,4.99952],[-75.81445,4.99955],[-75.81447,4.99958],[-75.81448,4.99959],[-75.81448,4.99965],[-75.81447,4.9997],[-75.81447,4.99971],[-75.81447,4.99976],[-75.81447,4.99977],[-75.81447,4.9998],[-75.81448,4.99985],[-75.81448,4.99987],[-75.8145,4.99991],[-75.81451,5.00004],[-75.81451,5.00005],[-75.81452,5.00008],[-75.81452,5.00008],[-75.81452,5.00009],[-75.81451,5.0001],[-75.8145,5.00013],[-75.8145,5.00014],[-75.81449,5.00018],[-75.81449,5.00021],[-75.81449,5.00024],[-75.8145,5.00027],[-75.81451,5.0003],[-75.81453,5.00032],[-75.81455,5.00034],[-75.81458,5.00036],[-75.8146,5.00038],[-75.81463,5.00038],[-75.81467,5.00039],[-75.8147,5.00038],[-75.81473,5.00038],[-75.81476,5.00036],[-75.81478,5.00034],[-75.8148,5.00032],[-75.81482,5.0003],[-75.81483,5.00028],[-75.81485,5.00023],[-75.81486,5.00022],[-75.81486,5.00019],[-75.81487,5.00017],[-75.81487,5.00016],[-75.81488,5.00013],[-75.81488,5.0001],[-75.81488,5.00007],[-75.81488,5.00003],[-75.81487,5.00001],[-75.81487,4.99998],[-75.81485,4.99986],[-75.81485,4.99985],[-75.81485,4.99984],[-75.81484,4.99978],[-75.81483,4.99976],[-75.81483,4.99973],[-75.81484,4.99967],[-75.81484,4.99965],[-75.81484,4.99955],[-75.81484,4.99953],[-75.81483,4.99951],[-75.81482,4.99949],[-75.8148,4.99943],[-75.81479,4.9994],[-75.81479,4.9994],[-75.81478,4.99939],[-75.81478,4.99937],[-75.81478,4.99936],[-75.81467,4.99927],[-75.81466,4.99925],[-75.81466,4.99925],[-75.81464,4.99921],[-75.81464,4.9992],[-75.81463,4.99919],[-75.8146,4.99915],[-75.81456,4.99907],[-75.81456,4.99907],[-75.81455,4.99906],[-75.8145,4.999],[-75.8145,4.99899],[-75.8145,4.99887],[-75.8145,4.99886],[-75.81449,4.99884],[-75.81447,4.99881],[-75.81445,4.99879],[-75.81442,4.99876],[-75.81441,4.99875],[-75.81442,4.99864],[-75.81437,4.99855],[-75.81436,4.99854],[-75.81436,4.9985],[-75.81434,4.99847],[-75.81433,4.99844],[-75.81432,4.9984],[-75.8143,4.99837],[-75.81427,4.99835],[-75.81424,4.99831],[-75.81422,4.9983],[-75.8142,4.99828],[-75.81418,4.99827],[-75.81415,4.99825],[-75.81409,4.99823],[-75.81408,4.99821],[-75.81406,4.99819],[-75.81405,4.99816],[-75.81403,4.99811],[-75.81401,4.99809],[-75.814,4.99806],[-75.81398,4.99802],[-75.81396,4.99801],[-75.81378,4.99796],[-75.81377,4.99795],[-75.81376,4.99794],[-75.81373,4.99792],[-75.81371,4.99785],[-75.8137,4.99783],[-75.8137,4.99781],[-75.81369,4.99781],[-75.81369,4.9978],[-75.81369,4.99777],[-75.81368,4.99775],[-75.81367,4.99773],[-75.81366,4.9977],[-75.81365,4.99768],[-75.81364,4.99767],[-75.81363,4.99765],[-75.81362,4.99764],[-75.81362,4.99762],[-75.8136,4.9976],[-75.81359,4.99759],[-75.81359,4.99758],[-75.81357,4.99756],[-75.81355,4.99753],[-75.81353,4.99751],[-75.81348,4.99748],[-75.81343,4.99734],[-75.8134,4.99733],[-75.81337,4.99731],[-75.81334,4.9973],[-75.81331,4.99729],[-75.81328,4.99728],[-75.81325,4.99727],[-75.81323,4.99727],[-75.81322,4.99727],[-75.81321,4.99727],[-75.81317,4.99726],[-75.81312,4.99725],[-75.81309,4.99725],[-75.81305,4.99726],[-75.81301,4.99727],[-75.81296,4.99726],[-75.81294,4.99726],[-75.81291,4.99727],[-75.81288,4.99737]]]},"properties":{"Id":0,"OBJECTID":2,"Shape_Length":953.3643902798366,"Shape_Area":19693.805279393484,"Municipio":"Belalcazar"}},{"type":"Feature","id":3,"geometry":{"type":"Polygon","coordinates":[[[-75.81485,4.99788],[-75.81482,4.99791],[-75.81479,4.99794],[-75.81476,4.99798],[-75.81475,4.99802],[-75.81474,4.99806],[-75.81473,4.99811],[-75.81474,4.99815],[-75.81475,4.9982],[-75.81476,4.99824],[-75.81479,4.99827],[-75.81482,4.99831],[-75.81495,4.99837],[-75.81496,4.99839],[-75.81498,4.99841],[-75.815,4.99843],[-75.81503,4.99845],[-75.81506,4.9985],[-75.81507,4.99852],[-75.81508,4.99853],[-75.81512,4.99857],[-75.81514,4.99859],[-75.81516,4.9986],[-75.81522,4.99864],[-75.81525,4.99866],[-75.81526,4.99866],[-75.81529,4.99868],[-75.8155,4.99875],[-75.81553,4.99876],[-75.81554,4.99876],[-75.81583,4.99879],[-75.81584,4.99879],[-75.81609,4.9988],[-75.81623,4.99882],[-75.81624,4.99882],[-75.81643,4.99884],[-75.81657,4.99896],[-75.8168,4.99903],[-75.81691,4.99911],[-75.81692,4.99911],[-75.81694,4.99912],[-75.81707,4.99919],[-75.81725,4.99931],[-75.81725,4.99932],[-75.81729,4.99934],[-75.81733,4.99935],[-75.81738,4.99936],[-75.81742,4.99936],[-75.81747,4.99935],[-75.81751,4.99934],[-75.81755,4.99932],[-75.81758,4.99929],[-75.81761,4.99926],[-75.81758,4.99912],[-75.81758,4.99909],[-75.81758,4.99906],[-75.81757,4.99903],[-75.81755,4.999],[-75.81754,4.99897],[-75.81751,4.99895],[-75.8175,4.99894],[-75.81731,4.99881],[-75.8173,4.9988],[-75.81716,4.99873],[-75.81701,4.99852],[-75.81671,4.99843],[-75.8167,4.99843],[-75.81667,4.99842],[-75.8166,4.99841],[-75.81641,4.99848],[-75.81628,4.99846],[-75.81613,4.99844],[-75.81612,4.99844],[-75.81587,4.99843],[-75.8156,4.9984],[-75.81543,4.99834],[-75.81541,4.99833],[-75.81541,4.99833],[-75.81537,4.99831],[-75.81536,4.99829],[-75.81532,4.99823],[-75.8153,4.99821],[-75.81527,4.99819],[-75.81525,4.99817],[-75.81524,4.99814],[-75.81523,4.99814],[-75.8152,4.99808],[-75.81519,4.99806],[-75.81515,4.998],[-75.81514,4.99799],[-75.81512,4.99797],[-75.81509,4.99795],[-75.81506,4.99794],[-75.81485,4.99788]]]},"properties":{"Id":0,"OBJECTID":3,"Shape_Length":777.9800741334496,"Shape_Area":15913.54773063474,"Municipio":"Belalcazar"}},{"type":"Feature","id":4,"geometry":{"type":"Polygon","coordinates":[[[-75.81361,4.99713],[-75.81376,4.99711],[-75.81379,4.99711],[-75.81382,4.99711],[-75.81385,4.9971],[-75.81388,4.99709],[-75.81391,4.99707],[-75.81419,4.99703],[-75.81423,4.99701],[-75.81426,4.99698],[-75.81429,4.99695],[-75.81432,4.99692],[-75.81438,4.99679],[-75.81438,4.99678],[-75.81444,4.99667],[-75.81449,4.99662],[-75.8145,4.99661],[-75.81467,4.99644],[-75.81475,4.99628],[-75.81477,4.99626],[-75.81479,4.99625],[-75.81488,4.99615],[-75.815,4.99615],[-75.81541,4.99582],[-75.81542,4.9958],[-75.81554,4.99569],[-75.81557,4.99567],[-75.81559,4.99564],[-75.81561,4.9956],[-75.81562,4.99557],[-75.81564,4.9955],[-75.81566,4.99547],[-75.81567,4.99544],[-75.81568,4.99541],[-75.81571,4.99533],[-75.81574,4.99523],[-75.81575,4.99522],[-75.81578,4.99522],[-75.8158,4.99522],[-75.81592,4.99521],[-75.81596,4.99521],[-75.81608,4.9953],[-75.81609,4.99532],[-75.81601,4.99537],[-75.81598,4.9954],[-75.81595,4.99543],[-75.81592,4.99546],[-75.81586,4.99556],[-75.81576,4.99572],[-75.81575,4.99574],[-75.81574,4.99576],[-75.81564,4.99598],[-75.81563,4.996],[-75.81562,4.99605],[-75.8156,4.99622],[-75.81559,4.99625],[-75.81558,4.99628],[-75.81558,4.99631],[-75.81558,4.99634],[-75.81559,4.99637],[-75.8156,4.9964],[-75.81562,4.99643],[-75.81564,4.99645],[-75.81567,4.99647],[-75.8157,4.99648],[-75.81573,4.99649],[-75.81576,4.99649],[-75.81579,4.99649],[-75.81582,4.99648],[-75.81585,4.99647],[-75.81588,4.99645],[-75.81589,4.99644],[-75.816,4.99633],[-75.81602,4.99631],[-75.81603,4.99629],[-75.81604,4.99626],[-75.81605,4.99623],[-75.81606,4.99614],[-75.81615,4.99595],[-75.81619,4.9959],[-75.81628,4.99592],[-75.8163,4.99594],[-75.81634,4.99596],[-75.81638,4.99597],[-75.81643,4.99598],[-75.81647,4.99598],[-75.81652,4.99597],[-75.81656,4.99596],[-75.8166,4.99594],[-75.81663,4.99591],[-75.81665,4.99589],[-75.81678,4.99575],[-75.81681,4.99571],[-75.81683,4.99568],[-75.81685,4.99564],[-75.81687,4.99556],[-75.81687,4.99553],[-75.81688,4.9955],[-75.81688,4.99546],[-75.81692,4.99543],[-75.81704,4.99534],[-75.81717,4.99526],[-75.81718,4.99525],[-75.81732,4.99514],[-75.81734,4.99512],[-75.81733,4.99499],[-75.81733,4.99496],[-75.81734,4.99493],[-75.81733,4.99489],[-75.81733,4.99486],[-75.81731,4.99483],[-75.81729,4.99481],[-75.81727,4.99479],[-75.81725,4.99477],[-75.81722,4.99476],[-75.81719,4.99475],[-75.81716,4.99474],[-75.81713,4.99475],[-75.81709,4.99476],[-75.81707,4.99477],[-75.81705,4.99478],[-75.81693,4.99475],[-75.81686,4.99481],[-75.81674,4.99489],[-75.8166,4.99498],[-75.81659,4.995],[-75.81657,4.99499],[-75.81657,4.99499],[-75.81649,4.99495],[-75.81644,4.9949],[-75.81643,4.99489],[-75.81641,4.99487],[-75.81622,4.99473],[-75.81618,4.99471],[-75.81614,4.99469],[-75.8161,4.99468],[-75.81597,4.99467],[-75.81595,4.99466],[-75.81591,4.99466],[-75.81577,4.99468],[-75.81569,4.99468],[-75.81567,4.99468],[-75.81565,4.99468],[-75.81564,4.99468],[-75.81563,4.99466],[-75.81539,4.99464],[-75.81526,4.99461],[-75.81524,4.9946],[-75.81521,4.9946],[-75.81518,4.99461],[-75.81516,4.99461],[-75.81508,4.99464],[-75.81499,4.99464],[-75.81498,4.99464],[-75.81481,4.99466],[-75.81477,4.99465],[-75.81476,4.99464],[-75.81471,4.99461],[-75.81468,4.99459],[-75.81466,4.99458],[-75.81464,4.99456],[-75.81462,4.99454],[-75.81456,4.99451],[-75.81455,4.99451],[-75.81455,4.99449],[-75.81454,4.99446],[-75.81453,4.99443],[-75.81451,4.9944],[-75.81449,4.99438],[-75.81446,4.99436],[-75.81443,4.99435],[-75.81442,4.99435],[-75.81437,4.99433],[-75.81437,4.99433],[-75.81437,4.99432],[-75.81437,4.99427],[-75.81437,4.99423],[-75.81437,4.99421],[-75.81438,4.9942],[-75.81438,4.99417],[-75.81439,4.99411],[-75.8144,4.99411],[-75.81441,4.99401],[-75.81441,4.994],[-75.81442,4.99394],[-75.81442,4.99393],[-75.81442,4.99389],[-75.81442,4.99388],[-75.81442,4.99386],[-75.81441,4.99384],[-75.81441,4.99381],[-75.81441,4.99378],[-75.81441,4.99376],[-75.81439,4.99372],[-75.81438,4.99367],[-75.81437,4.99365],[-75.81437,4.99363],[-75.81434,4.99358],[-75.81433,4.99354],[-75.81432,4.99352],[-75.81431,4.99351],[-75.8143,4.99349],[-75.8142,4.99328],[-75.81415,4.99325],[-75.81412,4.99324],[-75.8141,4.99323],[-75.81408,4.99321],[-75.81405,4.9932],[-75.81391,4.99327],[-75.81388,4.99328],[-75.81385,4.99329],[-75.81382,4.99331],[-75.8138,4.99333],[-75.81378,4.99336],[-75.81377,4.99338],[-75.81376,4.99342],[-75.81376,4.99345],[-75.81376,4.99348],[-75.81377,4.99351],[-75.81378,4.99354],[-75.8138,4.99356],[-75.81382,4.99359],[-75.81384,4.9936],[-75.81387,4.99362],[-75.81388,4.99362],[-75.81388,4.99362],[-75.81391,4.99364],[-75.81391,4.99364],[-75.81396,4.99366],[-75.81397,4.99367],[-75.81399,4.99367],[-75.814,4.99369],[-75.814,4.9937],[-75.814,4.99371],[-75.81401,4.99373],[-75.81403,4.99377],[-75.81404,4.99381],[-75.81405,4.99383],[-75.81405,4.99385],[-75.81405,4.99385],[-75.81406,4.99387],[-75.81406,4.99389],[-75.81406,4.99392],[-75.81405,4.99396],[-75.81404,4.99404],[-75.81404,4.99407],[-75.81403,4.99408],[-75.81402,4.9941],[-75.81401,4.99412],[-75.81401,4.99414],[-75.81401,4.99417],[-75.81401,4.99423],[-75.81401,4.99427],[-75.81401,4.99428],[-75.814,4.99429],[-75.81399,4.99433],[-75.81399,4.99436],[-75.81399,4.99439],[-75.814,4.99442],[-75.81402,4.99445],[-75.81402,4.99446],[-75.81403,4.99447],[-75.81403,4.99447],[-75.81398,4.99444],[-75.8139,4.99439],[-75.81389,4.99438],[-75.81386,4.99437],[-75.81378,4.99434],[-75.81371,4.99431],[-75.81364,4.99428],[-75.81364,4.99428],[-75.8136,4.99426],[-75.81358,4.99425],[-75.81357,4.99423],[-75.81356,4.99421],[-75.81354,4.99418],[-75.81354,4.99417],[-75.81352,4.99415],[-75.8135,4.99412],[-75.81347,4.9941],[-75.81344,4.99409],[-75.81341,4.99408],[-75.81338,4.99408],[-75.81335,4.99408],[-75.81332,4.99409],[-75.81329,4.99411],[-75.81327,4.99412],[-75.81324,4.99415],[-75.81323,4.99417],[-75.81321,4.9942],[-75.8132,4.99423],[-75.81313,4.99435],[-75.81314,4.99438],[-75.81316,4.99441],[-75.81317,4.99444],[-75.81318,4.99445],[-75.81319,4.99448],[-75.81322,4.99452],[-75.81323,4.99454],[-75.81325,4.99456],[-75.81346,4.9946],[-75.8135,4.99461],[-75.81357,4.99464],[-75.81365,4.99467],[-75.81365,4.99468],[-75.81371,4.9947],[-75.81378,4.99475],[-75.81379,4.99476],[-75.8138,4.99476],[-75.81384,4.99478],[-75.81388,4.99482],[-75.81392,4.99486],[-75.81396,4.99491],[-75.81398,4.99494],[-75.814,4.99496],[-75.81402,4.99499],[-75.81406,4.99503],[-75.81406,4.99504],[-75.81407,4.99506],[-75.81408,4.99507],[-75.81409,4.99509],[-75.81395,4.99505],[-75.81396,4.99506],[-75.81395,4.99507],[-75.81394,4.99507],[-75.81391,4.9951],[-75.81385,4.99514],[-75.81383,4.99516],[-75.81376,4.9952],[-75.81373,4.99521],[-75.81366,4.9952],[-75.81361,4.99518],[-75.81343,4.99521],[-75.81341,4.9952],[-75.81338,4.99518],[-75.81338,4.99508],[-75.81338,4.99508],[-75.81332,4.99506],[-75.81331,4.99505],[-75.81324,4.99503],[-75.8131,4.99507],[-75.81301,4.99504],[-75.813,4.99503],[-75.81297,4.99502],[-75.81294,4.99502],[-75.81291,4.99502],[-75.81288,4.99503],[-75.81285,4.99505],[-75.81282,4.99506],[-75.8128,4.99509],[-75.81278,4.99511],[-75.81277,4.99514],[-75.81276,4.99517],[-75.81276,4.9952],[-75.81276,4.99523],[-75.81277,4.99526],[-75.81278,4.99529],[-75.8128,4.99532],[-75.81282,4.99534],[-75.81285,4.99536],[-75.81287,4.99537],[-75.81296,4.99541],[-75.81297,4.99541],[-75.81307,4.99545],[-75.81307,4.99545],[-75.81301,4.99547],[-75.81293,4.99547],[-75.8129,4.99547],[-75.81281,4.99549],[-75.81268,4.9955],[-75.81259,4.99551],[-75.81233,4.99555],[-75.8123,4.99557],[-75.81229,4.9956],[-75.81227,4.99563],[-75.81226,4.99566],[-75.81226,4.99569],[-75.81226,4.99572],[-75.81227,4.99575],[-75.81229,4.99578],[-75.8123,4.99581],[-75.81233,4.99583],[-75.81235,4.99585],[-75.81238,4.99586],[-75.81241,4.99587],[-75.81244,4.99587],[-75.81245,4.99587],[-75.8127,4.99586],[-75.81272,4.99586],[-75.81286,4.99584],[-75.81287,4.99584],[-75.81294,4.99583],[-75.81303,4.99583],[-75.81311,4.99591],[-75.81322,4.99588],[-75.81325,4.99587],[-75.81328,4.99586],[-75.8133,4.99584],[-75.81335,4.99581],[-75.81337,4.99579],[-75.81343,4.99574],[-75.81343,4.99573],[-75.81346,4.9957],[-75.81348,4.99571],[-75.81352,4.99572],[-75.81364,4.99575],[-75.81368,4.99576],[-75.8137,4.99576],[-75.81378,4.99576],[-75.81394,4.99562],[-75.81397,4.9956],[-75.81406,4.99555],[-75.81407,4.99554],[-75.81412,4.99551],[-75.81414,4.9955],[-75.81414,4.99549],[-75.81419,4.99545],[-75.81423,4.99543],[-75.81425,4.99542],[-75.81433,4.9954],[-75.81434,4.9954],[-75.81435,4.9954],[-75.81443,4.99539],[-75.81444,4.99539],[-75.81447,4.99538],[-75.8145,4.99537],[-75.81452,4.99535],[-75.81455,4.99533],[-75.81456,4.99531],[-75.81456,4.99531],[-75.81459,4.99531],[-75.81461,4.9953],[-75.81464,4.99529],[-75.81471,4.99525],[-75.81474,4.99523],[-75.81475,4.99522],[-75.81478,4.99519],[-75.81479,4.99518],[-75.81482,4.99514],[-75.81484,4.99511],[-75.81485,4.9951],[-75.81487,4.99505],[-75.81488,4.99504],[-75.81488,4.99502],[-75.81488,4.99501],[-75.815,4.995],[-75.81511,4.995],[-75.81514,4.995],[-75.81517,4.99499],[-75.81523,4.99497],[-75.81529,4.99499],[-75.81532,4.995],[-75.81533,4.99502],[-75.81534,4.99503],[-75.81533,4.99504],[-75.81532,4.99506],[-75.81528,4.99518],[-75.81528,4.99519],[-75.81526,4.99526],[-75.81523,4.9953],[-75.81522,4.99533],[-75.81522,4.99535],[-75.8152,4.9954],[-75.81512,4.99547],[-75.81495,4.99561],[-75.81479,4.99562],[-75.81464,4.99575],[-75.81463,4.99576],[-75.81462,4.9959],[-75.81454,4.99598],[-75.8146,4.99605],[-75.81445,4.99615],[-75.81444,4.99616],[-75.81443,4.99616],[-75.81432,4.99628],[-75.81418,4.99629],[-75.81409,4.99638],[-75.81397,4.99639],[-75.81389,4.99655],[-75.81388,4.99659],[-75.81381,4.99662],[-75.8137,4.99667],[-75.81367,4.99668],[-75.81364,4.9967],[-75.81362,4.99672],[-75.8136,4.99674],[-75.81358,4.99677],[-75.81355,4.9968],[-75.81354,4.99684],[-75.81352,4.99689],[-75.81352,4.99693],[-75.81353,4.99698],[-75.81354,4.99702],[-75.81355,4.99706],[-75.81358,4.9971],[-75.81361,4.99713]],[[-75.81445,4.99496],[-75.81435,4.99481],[-75.81453,4.99493],[-75.81445,4.99496]]]},"properties":{"Id":0,"OBJECTID":4,"Shape_Length":2931.5776948656257,"Shape_Area":71628.30956675916,"Municipio":"Belalcazar"}},{"type":"Feature","id":5,"geometry":{"type":"Polygon","coordinates":[[[-75.8136,4.99177],[-75.81362,4.99189],[-75.81364,4.99192],[-75.81366,4.99194],[-75.81369,4.99196],[-75.81372,4.99197],[-75.81375,4.99198],[-75.81378,4.99198],[-75.81381,4.99198],[-75.81382,4.99198],[-75.81387,4.99196],[-75.81394,4.99195],[-75.81398,4.99195],[-75.81405,4.99196],[-75.81407,4.99196],[-75.81408,4.99196],[-75.81416,4.99195],[-75.81423,4.99196],[-75.8143,4.99196],[-75.81432,4.99196],[-75.81434,4.99196],[-75.81437,4.99195],[-75.81454,4.9919],[-75.81454,4.9919],[-75.81456,4.99189],[-75.81465,4.99185],[-75.8147,4.99182],[-75.8148,4.99179],[-75.81481,4.99178],[-75.81482,4.99179],[-75.81488,4.99182],[-75.81487,4.99184],[-75.81487,4.99185],[-75.81485,4.99189],[-75.81484,4.99189],[-75.81482,4.99191],[-75.81478,4.99194],[-75.81471,4.992],[-75.81466,4.99204],[-75.81464,4.99204],[-75.81463,4.99205],[-75.81462,4.99206],[-75.81461,4.99206],[-75.81458,4.99207],[-75.81455,4.99208],[-75.81453,4.9921],[-75.81452,4.99211],[-75.81449,4.99214],[-75.81447,4.99215],[-75.81446,4.99218],[-75.81444,4.99221],[-75.81444,4.99224],[-75.81443,4.99227],[-75.81444,4.9923],[-75.81444,4.99233],[-75.81446,4.99236],[-75.81448,4.99238],[-75.8145,4.99241],[-75.81452,4.99242],[-75.81455,4.99244],[-75.81458,4.99245],[-75.81461,4.99245],[-75.81464,4.99244],[-75.81468,4.99244],[-75.8147,4.99242],[-75.81472,4.99241],[-75.81474,4.99241],[-75.81475,4.9924],[-75.81478,4.99238],[-75.81498,4.99236],[-75.81505,4.99231],[-75.81506,4.9923],[-75.81511,4.99225],[-75.81513,4.99224],[-75.81513,4.99224],[-75.81516,4.99221],[-75.81523,4.992],[-75.81524,4.99199],[-75.81525,4.99198],[-75.81528,4.99197],[-75.81528,4.99196],[-75.8153,4.99195],[-75.81532,4.99194],[-75.81534,4.99193],[-75.81538,4.99189],[-75.81541,4.99188],[-75.81544,4.99187],[-75.81546,4.99186],[-75.81549,4.99184],[-75.81551,4.99182],[-75.81551,4.99182],[-75.81555,4.9918],[-75.81556,4.99179],[-75.81557,4.99178],[-75.81561,4.99175],[-75.81565,4.99173],[-75.8157,4.99168],[-75.81571,4.99168],[-75.81574,4.99165],[-75.81575,4.99163],[-75.81577,4.9916],[-75.81577,4.99157],[-75.81578,4.99154],[-75.81577,4.99151],[-75.81577,4.99148],[-75.81575,4.99145],[-75.81573,4.99142],[-75.81571,4.9914],[-75.81569,4.99138],[-75.81566,4.99137],[-75.81563,4.99136],[-75.8156,4.99136],[-75.81557,4.99136],[-75.81554,4.99137],[-75.81551,4.99138],[-75.81549,4.99139],[-75.81543,4.99144],[-75.8154,4.99146],[-75.81537,4.99148],[-75.81532,4.99151],[-75.8153,4.99152],[-75.81528,4.99153],[-75.81527,4.99155],[-75.81524,4.99155],[-75.81521,4.99156],[-75.81519,4.99158],[-75.81517,4.99159],[-75.81516,4.99158],[-75.81514,4.99157],[-75.81513,4.99155],[-75.8151,4.99154],[-75.815,4.99148],[-75.81493,4.99143],[-75.8149,4.99142],[-75.81487,4.99141],[-75.81484,4.99141],[-75.8148,4.99141],[-75.81479,4.99142],[-75.81471,4.99144],[-75.81469,4.99144],[-75.81457,4.99149],[-75.81455,4.99149],[-75.8145,4.99152],[-75.81442,4.99156],[-75.81429,4.9916],[-75.81425,4.9916],[-75.81424,4.99159],[-75.81416,4.99159],[-75.81416,4.99159],[-75.81415,4.99159],[-75.81407,4.9916],[-75.814,4.99159],[-75.81399,4.99159],[-75.81392,4.99159],[-75.81389,4.9916],[-75.81381,4.99161],[-75.81379,4.99161],[-75.81373,4.99163],[-75.81371,4.99163],[-75.81369,4.99165],[-75.81366,4.99166],[-75.81364,4.99169],[-75.8136,4.99177]]]},"properties":{"Id":0,"OBJECTID":5,"Shape_Length":720.9905181039219,"Shape_Area":13680.75049083259,"Municipio":"Belalcazar"}},{"type":"Feature","id":6,"geometry":{"type":"Polygon","coordinates":[[[-75.81348,4.99065],[-75.8135,4.99067],[-75.81352,4.99069],[-75.81355,4.99071],[-75.81358,4.99073],[-75.81361,4.99073],[-75.81364,4.99074],[-75.81367,4.99073],[-75.8137,4.99073],[-75.81386,4.99074],[-75.81392,4.99072],[-75.81395,4.9907],[-75.81398,4.99068],[-75.81403,4.99065],[-75.81405,4.99064],[-75.81424,4.99057],[-75.81427,4.99057],[-75.81434,4.99053],[-75.81438,4.99051],[-75.81441,4.99049],[-75.81444,4.99046],[-75.81449,4.9904],[-75.8145,4.99039],[-75.81451,4.99037],[-75.8145,4.99021],[-75.81451,4.99018],[-75.81454,4.99014],[-75.8146,4.99007],[-75.81461,4.99004],[-75.81463,4.99001],[-75.81464,4.98999],[-75.81464,4.98998],[-75.81466,4.98997],[-75.81468,4.98996],[-75.8147,4.98995],[-75.81472,4.98994],[-75.81474,4.98992],[-75.81475,4.98991],[-75.81476,4.98991],[-75.81478,4.9899],[-75.8148,4.98988],[-75.81482,4.98988],[-75.81486,4.98989],[-75.81489,4.9899],[-75.81492,4.9899],[-75.81495,4.9899],[-75.81497,4.9899],[-75.81498,4.9899],[-75.815,4.9899],[-75.81502,4.9899],[-75.81504,4.98991],[-75.81508,4.98991],[-75.8151,4.98992],[-75.81513,4.98994],[-75.81515,4.98994],[-75.81518,4.98994],[-75.81523,4.98994],[-75.81526,4.98994],[-75.81532,4.98994],[-75.81539,4.98996],[-75.81543,4.98996],[-75.81546,4.98996],[-75.81549,4.98995],[-75.81552,4.98994],[-75.81554,4.98992],[-75.81556,4.98989],[-75.81558,4.98987],[-75.81559,4.98984],[-75.8156,4.98981],[-75.81561,4.98978],[-75.8156,4.98975],[-75.81559,4.98972],[-75.81558,4.98969],[-75.81556,4.98966],[-75.81554,4.98964],[-75.81551,4.98962],[-75.81549,4.98961],[-75.81546,4.9896],[-75.81536,4.98959],[-75.81533,4.98958],[-75.81526,4.98958],[-75.81523,4.98958],[-75.8152,4.98957],[-75.81518,4.98956],[-75.81515,4.98955],[-75.81512,4.98955],[-75.8151,4.98955],[-75.81509,4.98955],[-75.81506,4.98954],[-75.81503,4.98954],[-75.81499,4.98954],[-75.81496,4.98953],[-75.81495,4.98953],[-75.81494,4.98953],[-75.81492,4.98953],[-75.81489,4.98953],[-75.81488,4.98952],[-75.81485,4.98952],[-75.81479,4.98952],[-75.81474,4.98952],[-75.81473,4.98951],[-75.81472,4.98949],[-75.8147,4.98947],[-75.81469,4.98946],[-75.81464,4.98943],[-75.81463,4.98942],[-75.81461,4.98941],[-75.81454,4.98938],[-75.81452,4.98936],[-75.8145,4.98933],[-75.81448,4.98931],[-75.81445,4.98929],[-75.81439,4.98926],[-75.81437,4.98926],[-75.81437,4.98925],[-75.81432,4.98924],[-75.81431,4.98923],[-75.81426,4.98922],[-75.81424,4.98922],[-75.81421,4.9892],[-75.81419,4.98918],[-75.81416,4.98917],[-75.81412,4.98916],[-75.81409,4.98916],[-75.81407,4.98915],[-75.81405,4.98916],[-75.81402,4.98916],[-75.81398,4.98917],[-75.81397,4.98918],[-75.81393,4.98919],[-75.81387,4.9892],[-75.81385,4.98921],[-75.81383,4.98922],[-75.8138,4.98924],[-75.81375,4.98928],[-75.81375,4.98928],[-75.81371,4.98932],[-75.81367,4.98934],[-75.81367,4.98934],[-75.81364,4.98936],[-75.81362,4.98938],[-75.8136,4.98941],[-75.8136,4.98941],[-75.81358,4.98945],[-75.81353,4.98948],[-75.81347,4.9895],[-75.81346,4.9895],[-75.8133,4.98942],[-75.81329,4.98942],[-75.81324,4.98943],[-75.8132,4.98944],[-75.81316,4.98947],[-75.81313,4.98949],[-75.81313,4.98966],[-75.81313,4.98969],[-75.81313,4.98972],[-75.81314,4.98976],[-75.81315,4.98978],[-75.81317,4.98981],[-75.81328,4.98987],[-75.81331,4.98987],[-75.81332,4.98987],[-75.81351,4.98986],[-75.81354,4.98986],[-75.81356,4.98985],[-75.81368,4.98982],[-75.81371,4.9898],[-75.81373,4.98979],[-75.81383,4.98971],[-75.81385,4.9897],[-75.81386,4.98968],[-75.81387,4.98966],[-75.81389,4.98963],[-75.81389,4.98963],[-75.8139,4.98962],[-75.81393,4.9896],[-75.81398,4.98956],[-75.814,4.98954],[-75.81402,4.98954],[-75.81403,4.98954],[-75.81406,4.98953],[-75.81408,4.98954],[-75.8141,4.98955],[-75.81415,4.98957],[-75.81416,4.98957],[-75.81422,4.98958],[-75.81424,4.98959],[-75.81425,4.9896],[-75.81425,4.9896],[-75.81427,4.98962],[-75.81428,4.98963],[-75.81431,4.98966],[-75.81432,4.98968],[-75.81434,4.98969],[-75.81436,4.9897],[-75.8144,4.98971],[-75.81439,4.98972],[-75.81438,4.98974],[-75.81434,4.98978],[-75.81432,4.9898],[-75.81431,4.98983],[-75.8143,4.98986],[-75.81425,4.98992],[-75.81424,4.98993],[-75.8142,4.98994],[-75.81418,4.98995],[-75.81413,4.98996],[-75.81408,4.98997],[-75.81404,4.98997],[-75.81402,4.98998],[-75.81401,4.98998],[-75.81388,4.99001],[-75.81386,4.99001],[-75.81384,4.99003],[-75.81381,4.99005],[-75.81379,4.99007],[-75.81377,4.99009],[-75.81376,4.99012],[-75.81375,4.99015],[-75.81375,4.99018],[-75.81375,4.99022],[-75.81376,4.99025],[-75.81377,4.99028],[-75.81373,4.9903],[-75.81368,4.99033],[-75.81366,4.99034],[-75.81355,4.9904],[-75.81352,4.99042],[-75.8135,4.99044],[-75.81348,4.99047],[-75.81347,4.99049],[-75.81348,4.99065]]]},"properties":{"Id":0,"OBJECTID":6,"Shape_Length":978.5736734869602,"Shape_Area":20107.766699705197,"Municipio":"Belalcazar"}},{"type":"Feature","id":7,"geometry":{"type":"Polygon","coordinates":[[[-75.81311,4.98762],[-75.81309,4.98764],[-75.81307,4.98766],[-75.81306,4.98769],[-75.81305,4.98772],[-75.81305,4.98776],[-75.81305,4.98779],[-75.81306,4.98782],[-75.81307,4.98785],[-75.81309,4.98787],[-75.8131,4.98789],[-75.81313,4.98791],[-75.81322,4.98808],[-75.81326,4.98809],[-75.81329,4.9881],[-75.81332,4.98811],[-75.81335,4.98811],[-75.81342,4.98811],[-75.81351,4.98811],[-75.81352,4.98811],[-75.81355,4.98811],[-75.81358,4.98811],[-75.81361,4.98801],[-75.81363,4.98802],[-75.81366,4.98802],[-75.81368,4.98802],[-75.8137,4.98801],[-75.8138,4.98799],[-75.81395,4.98802],[-75.81397,4.98802],[-75.8141,4.98803],[-75.81411,4.98803],[-75.8142,4.98803],[-75.81427,4.98803],[-75.81437,4.98803],[-75.8144,4.98803],[-75.81442,4.98802],[-75.81445,4.98801],[-75.81451,4.98798],[-75.81459,4.98797],[-75.81461,4.98796],[-75.81464,4.98799],[-75.81467,4.98802],[-75.81469,4.98804],[-75.8147,4.98806],[-75.81472,4.98808],[-75.81473,4.9881],[-75.81475,4.98811],[-75.81477,4.98813],[-75.81479,4.98813],[-75.8148,4.98814],[-75.8148,4.98815],[-75.81481,4.98816],[-75.81483,4.98817],[-75.81485,4.98818],[-75.81487,4.98819],[-75.8149,4.9882],[-75.8149,4.98821],[-75.81492,4.98822],[-75.81493,4.98823],[-75.81495,4.98824],[-75.81496,4.98825],[-75.81498,4.98827],[-75.81499,4.98827],[-75.81502,4.98828],[-75.81505,4.98829],[-75.81508,4.98829],[-75.81511,4.98829],[-75.81514,4.98828],[-75.81517,4.98827],[-75.81519,4.98825],[-75.81522,4.98823],[-75.81523,4.9882],[-75.81525,4.98817],[-75.81526,4.98814],[-75.81526,4.98811],[-75.81525,4.98808],[-75.81525,4.98805],[-75.81523,4.98802],[-75.81522,4.988],[-75.81519,4.98797],[-75.81517,4.98796],[-75.81515,4.98795],[-75.81515,4.98794],[-75.81514,4.98794],[-75.81513,4.98792],[-75.81512,4.98791],[-75.8151,4.9879],[-75.81507,4.98788],[-75.81504,4.98787],[-75.81502,4.98786],[-75.81501,4.98785],[-75.815,4.98785],[-75.81499,4.98783],[-75.81497,4.98781],[-75.81496,4.98779],[-75.81492,4.98776],[-75.81488,4.98772],[-75.81487,4.98771],[-75.81485,4.98769],[-75.81484,4.98768],[-75.81483,4.98767],[-75.81483,4.98767],[-75.81482,4.98753],[-75.81482,4.98753],[-75.81478,4.98747],[-75.81477,4.98747],[-75.81475,4.98745],[-75.81472,4.98742],[-75.81471,4.9874],[-75.8147,4.98739],[-75.81467,4.98737],[-75.81462,4.98733],[-75.81442,4.98731],[-75.81434,4.98725],[-75.81429,4.98711],[-75.81404,4.98693],[-75.81403,4.98693],[-75.81399,4.98691],[-75.81395,4.98689],[-75.81391,4.98689],[-75.81386,4.98689],[-75.81382,4.98689],[-75.81378,4.98691],[-75.81374,4.98693],[-75.8137,4.98696],[-75.81367,4.98699],[-75.81365,4.98703],[-75.81363,4.98707],[-75.81362,4.98711],[-75.81362,4.98716],[-75.81362,4.9872],[-75.81363,4.98725],[-75.81365,4.98729],[-75.81367,4.98732],[-75.8137,4.98736],[-75.81373,4.98738],[-75.8138,4.98742],[-75.81401,4.98746],[-75.81431,4.98767],[-75.81427,4.98767],[-75.8142,4.98767],[-75.81412,4.98767],[-75.814,4.98766],[-75.81382,4.98763],[-75.8138,4.98763],[-75.81377,4.98763],[-75.81375,4.98763],[-75.81367,4.98765],[-75.81365,4.98764],[-75.81362,4.98764],[-75.81359,4.98764],[-75.81356,4.98764],[-75.81354,4.98765],[-75.81351,4.98766],[-75.81351,4.98766],[-75.81342,4.98766],[-75.81341,4.98766],[-75.8134,4.98766],[-75.81338,4.98764],[-75.81336,4.98763],[-75.81335,4.98763],[-75.81334,4.98762],[-75.81332,4.9876],[-75.81329,4.98758],[-75.81326,4.98758],[-75.81323,4.98757],[-75.8132,4.98758],[-75.81317,4.98758],[-75.81311,4.98762]]]},"properties":{"Id":0,"OBJECTID":7,"Shape_Length":826.5010779249355,"Shape_Area":16731.81346607674,"Municipio":"Belalcazar"}},{"type":"Feature","id":8,"geometry":{"type":"Polygon","coordinates":[[[-75.81392,4.98621],[-75.81381,4.98628],[-75.8138,4.98632],[-75.81381,4.98637],[-75.81382,4.98641],[-75.81383,4.98645],[-75.81386,4.98649],[-75.81389,4.98652],[-75.8139,4.98653],[-75.81395,4.98658],[-75.81398,4.98659],[-75.81398,4.9866],[-75.81403,4.98662],[-75.81405,4.98665],[-75.81408,4.98667],[-75.81412,4.98669],[-75.81416,4.98671],[-75.8142,4.98672],[-75.81424,4.98673],[-75.81426,4.98674],[-75.81431,4.98676],[-75.81435,4.98678],[-75.81438,4.9868],[-75.81441,4.98683],[-75.81444,4.98685],[-75.81448,4.98687],[-75.81451,4.98688],[-75.81457,4.9869],[-75.81465,4.98684],[-75.81474,4.9869],[-75.81476,4.98691],[-75.81476,4.98692],[-75.81479,4.98693],[-75.81482,4.98694],[-75.81485,4.98694],[-75.81489,4.98694],[-75.81492,4.98693],[-75.81494,4.98692],[-75.81497,4.9869],[-75.81499,4.98688],[-75.81501,4.98685],[-75.81502,4.98682],[-75.81503,4.98679],[-75.81503,4.98676],[-75.81503,4.98673],[-75.81502,4.9867],[-75.81501,4.98667],[-75.81499,4.98664],[-75.81488,4.98651],[-75.81483,4.98645],[-75.81475,4.98636],[-75.81467,4.98626],[-75.81465,4.98624],[-75.81464,4.98623],[-75.81457,4.98618],[-75.81449,4.98611],[-75.81442,4.98606],[-75.8144,4.98605],[-75.81438,4.98603],[-75.81425,4.98598],[-75.81415,4.98593],[-75.8141,4.98588],[-75.81409,4.98587],[-75.81406,4.98585],[-75.81404,4.98584],[-75.81401,4.98583],[-75.81397,4.98583],[-75.81394,4.98583],[-75.81391,4.98584],[-75.81388,4.98585],[-75.81386,4.98587],[-75.81384,4.98589],[-75.81382,4.98592],[-75.8138,4.98595],[-75.8138,4.98598],[-75.81379,4.98601],[-75.8138,4.98604],[-75.81381,4.98607],[-75.81382,4.9861],[-75.81384,4.98612],[-75.81385,4.98614],[-75.81392,4.98621]]]},"properties":{"Id":0,"OBJECTID":8,"Shape_Length":419.3122482023209,"Shape_Area":9561.588446029655,"Municipio":"Belalcazar"}},{"type":"Feature","id":9,"geometry":{"type":"Polygon","coordinates":[[[-75.81518,4.98258],[-75.81521,4.98267],[-75.81523,4.9827],[-75.81525,4.98272],[-75.81528,4.98274],[-75.8153,4.98275],[-75.81533,4.98276],[-75.81537,4.98276],[-75.8154,4.98276],[-75.81543,4.98275],[-75.81543,4.98275],[-75.81562,4.98267],[-75.81563,4.98267],[-75.81566,4.98265],[-75.81585,4.98267],[-75.81589,4.98266],[-75.8159,4.98266],[-75.81593,4.98266],[-75.81594,4.98266],[-75.81597,4.98265],[-75.816,4.98264],[-75.81602,4.98263],[-75.81602,4.98263],[-75.81605,4.98263],[-75.8161,4.98261],[-75.8161,4.98261],[-75.81611,4.98261],[-75.81612,4.98261],[-75.81614,4.9826],[-75.81614,4.9826],[-75.81617,4.98259],[-75.81618,4.98258],[-75.81624,4.98255],[-75.81628,4.98254],[-75.81632,4.98251],[-75.81634,4.9825],[-75.81635,4.9825],[-75.81636,4.98249],[-75.81637,4.98248],[-75.81639,4.98247],[-75.8164,4.98247],[-75.81642,4.98246],[-75.81643,4.98246],[-75.81647,4.98245],[-75.8165,4.98244],[-75.81651,4.98243],[-75.81653,4.98242],[-75.81653,4.98242],[-75.81656,4.98241],[-75.8166,4.9824],[-75.81661,4.9824],[-75.81665,4.9824],[-75.81668,4.9824],[-75.81669,4.9824],[-75.81673,4.98239],[-75.81677,4.98237],[-75.81678,4.98237],[-75.81681,4.98235],[-75.81681,4.98235],[-75.81683,4.98234],[-75.81683,4.98234],[-75.81687,4.98235],[-75.81688,4.98237],[-75.81691,4.9824],[-75.81694,4.98243],[-75.81698,4.98245],[-75.81703,4.98246],[-75.81707,4.98247],[-75.81708,4.98247],[-75.81717,4.98247],[-75.8172,4.98247],[-75.81722,4.98249],[-75.81724,4.9825],[-75.81725,4.98251],[-75.81727,4.98252],[-75.81729,4.98252],[-75.81732,4.98254],[-75.81736,4.98256],[-75.8174,4.98257],[-75.81743,4.98258],[-75.81746,4.98259],[-75.81749,4.9826],[-75.81752,4.9826],[-75.81825,4.98271],[-75.81827,4.98272],[-75.8183,4.98273],[-75.81833,4.98273],[-75.81833,4.98274],[-75.81837,4.98274],[-75.81841,4.98274],[-75.81845,4.98273],[-75.81846,4.98273],[-75.81849,4.98271],[-75.81851,4.9827],[-75.81856,4.98269],[-75.81857,4.98268],[-75.81859,4.98267],[-75.81862,4.98266],[-75.81868,4.98262],[-75.81871,4.98263],[-75.81873,4.98263],[-75.81874,4.98263],[-75.81877,4.98263],[-75.8188,4.98263],[-75.81883,4.98262],[-75.81883,4.98262],[-75.81884,4.98261],[-75.81885,4.98261],[-75.81887,4.9826],[-75.81888,4.98261],[-75.81888,4.98261],[-75.8189,4.98263],[-75.81891,4.98264],[-75.81893,4.98266],[-75.81897,4.98268],[-75.819,4.9827],[-75.81901,4.9827],[-75.81905,4.98271],[-75.81908,4.98272],[-75.81909,4.98272],[-75.8191,4.98272],[-75.81914,4.98272],[-75.81917,4.98273],[-75.81921,4.98273],[-75.81922,4.98273],[-75.81926,4.98272],[-75.81929,4.98271],[-75.81932,4.9827],[-75.81933,4.98269],[-75.81937,4.98267],[-75.8194,4.98264],[-75.81941,4.98263],[-75.81943,4.98261],[-75.81944,4.98259],[-75.81945,4.98258],[-75.81946,4.98256],[-75.81948,4.98252],[-75.81949,4.98247],[-75.8195,4.98243],[-75.81949,4.98238],[-75.81948,4.98234],[-75.81946,4.9823],[-75.81944,4.98226],[-75.81941,4.98223],[-75.81937,4.9822],[-75.81933,4.98218],[-75.81929,4.98217],[-75.81925,4.98216],[-75.81923,4.98216],[-75.81922,4.98215],[-75.81922,4.98211],[-75.8192,4.98207],[-75.81919,4.98204],[-75.81912,4.98194],[-75.81905,4.98182],[-75.81903,4.9818],[-75.819,4.98177],[-75.81897,4.98174],[-75.81893,4.98172],[-75.81889,4.98171],[-75.81884,4.9817],[-75.8188,4.9817],[-75.81875,4.98171],[-75.81871,4.98172],[-75.81867,4.98174],[-75.81864,4.98177],[-75.81861,4.9818],[-75.81858,4.98184],[-75.81856,4.98188],[-75.81855,4.98193],[-75.81855,4.98193],[-75.81853,4.9819],[-75.81849,4.98188],[-75.81846,4.98186],[-75.81843,4.98185],[-75.81839,4.98184],[-75.81834,4.98181],[-75.81832,4.98179],[-75.81825,4.98176],[-75.81813,4.98167],[-75.81812,4.98167],[-75.8181,4.98165],[-75.81809,4.98163],[-75.81809,4.98162],[-75.81806,4.98159],[-75.81803,4.98155],[-75.818,4.98153],[-75.81796,4.98151],[-75.81791,4.98149],[-75.81787,4.98148],[-75.81783,4.98148],[-75.81778,4.98149],[-75.81774,4.98151],[-75.8177,4.98153],[-75.81766,4.98156],[-75.81763,4.98159],[-75.81761,4.98163],[-75.81759,4.98167],[-75.81758,4.98171],[-75.81758,4.98176],[-75.81758,4.9818],[-75.81759,4.98184],[-75.81761,4.98188],[-75.81767,4.98199],[-75.81769,4.98202],[-75.81771,4.98205],[-75.81774,4.98208],[-75.81763,4.98206],[-75.81763,4.98204],[-75.81763,4.982],[-75.81762,4.98196],[-75.8176,4.98192],[-75.81758,4.98189],[-75.81748,4.98175],[-75.81747,4.98174],[-75.81744,4.98171],[-75.81741,4.98168],[-75.81737,4.98166],[-75.81733,4.98164],[-75.81728,4.98164],[-75.81724,4.98164],[-75.81719,4.98164],[-75.81715,4.98166],[-75.81711,4.98168],[-75.81708,4.98171],[-75.81705,4.98174],[-75.81702,4.98178],[-75.81701,4.9818],[-75.81697,4.9818],[-75.81696,4.98179],[-75.81695,4.98179],[-75.81693,4.98179],[-75.81692,4.98179],[-75.81691,4.98178],[-75.81688,4.98178],[-75.81688,4.98177],[-75.81687,4.98175],[-75.81683,4.98172],[-75.8168,4.98169],[-75.81676,4.98167],[-75.81675,4.98167],[-75.81667,4.98164],[-75.81665,4.98163],[-75.8166,4.98162],[-75.81656,4.98162],[-75.81651,4.98163],[-75.81647,4.98165],[-75.81643,4.98167],[-75.8164,4.98169],[-75.81637,4.98173],[-75.81634,4.98177],[-75.81632,4.98181],[-75.81631,4.98185],[-75.81631,4.98189],[-75.81631,4.9819],[-75.8163,4.9819],[-75.81629,4.98188],[-75.81627,4.98185],[-75.81625,4.98183],[-75.81625,4.98182],[-75.81623,4.98178],[-75.81619,4.98175],[-75.81616,4.98172],[-75.81614,4.98171],[-75.81613,4.98171],[-75.81611,4.98169],[-75.81609,4.98168],[-75.81607,4.98167],[-75.81606,4.98167],[-75.81603,4.98166],[-75.81601,4.98165],[-75.81598,4.98164],[-75.81595,4.98164],[-75.81576,4.98165],[-75.81573,4.98165],[-75.8157,4.98166],[-75.81567,4.98168],[-75.81565,4.98169],[-75.81563,4.98172],[-75.81561,4.98174],[-75.81559,4.98177],[-75.81559,4.9818],[-75.81558,4.98183],[-75.81559,4.98186],[-75.81559,4.98189],[-75.81561,4.98192],[-75.81563,4.98195],[-75.81563,4.98195],[-75.81563,4.98195],[-75.81564,4.98198],[-75.81566,4.982],[-75.81567,4.98201],[-75.81568,4.98202],[-75.8157,4.98204],[-75.81572,4.98205],[-75.81575,4.98206],[-75.81577,4.98207],[-75.81581,4.98208],[-75.81583,4.98208],[-75.81585,4.98209],[-75.81586,4.98209],[-75.81588,4.9821],[-75.81589,4.98211],[-75.81591,4.98214],[-75.81592,4.98215],[-75.81592,4.98216],[-75.81593,4.98218],[-75.8159,4.98218],[-75.81587,4.98219],[-75.81586,4.98219],[-75.81583,4.98221],[-75.81582,4.98221],[-75.81581,4.98221],[-75.81578,4.98222],[-75.81576,4.98222],[-75.81574,4.98222],[-75.81572,4.98222],[-75.81572,4.98222],[-75.81569,4.98222],[-75.81567,4.98223],[-75.81565,4.98224],[-75.8155,4.98233],[-75.8153,4.98241],[-75.81527,4.98242],[-75.81525,4.98244],[-75.81523,4.98246],[-75.81521,4.98249],[-75.81518,4.98258]]]},"properties":{"Id":0,"OBJECTID":9,"Shape_Length":1360.041455233177,"Shape_Area":41911.7421053156,"Municipio":"Belalcazar"}},{"type":"Feature","id":10,"geometry":{"type":"Polygon","coordinates":[[[-75.81673,4.97911],[-75.81672,4.97914],[-75.81671,4.97917],[-75.81671,4.9792],[-75.81671,4.97923],[-75.81672,4.97926],[-75.81673,4.97929],[-75.81675,4.97932],[-75.81677,4.97934],[-75.8168,4.97936],[-75.81686,4.97947],[-75.81687,4.97948],[-75.81691,4.97951],[-75.81695,4.97953],[-75.81699,4.97955],[-75.81702,4.97955],[-75.81713,4.97957],[-75.81729,4.9796],[-75.81732,4.9796],[-75.81736,4.9796],[-75.81752,4.9796],[-75.81753,4.97959],[-75.81754,4.97959],[-75.8177,4.9795],[-75.81771,4.97951],[-75.81774,4.97952],[-75.81777,4.97952],[-75.8178,4.97951],[-75.81781,4.97951],[-75.81793,4.97948],[-75.81795,4.97947],[-75.81798,4.97946],[-75.818,4.97944],[-75.81802,4.97942],[-75.81803,4.97941],[-75.81805,4.97939],[-75.81806,4.97938],[-75.81806,4.97938],[-75.81807,4.97938],[-75.81819,4.97935],[-75.81831,4.97937],[-75.81833,4.97938],[-75.81835,4.97938],[-75.81846,4.97937],[-75.81849,4.97937],[-75.81851,4.97936],[-75.81866,4.97931],[-75.81891,4.97928],[-75.81904,4.97928],[-75.81912,4.97938],[-75.81916,4.97939],[-75.81936,4.97946],[-75.8194,4.97947],[-75.81944,4.97947],[-75.81968,4.97948],[-75.8198,4.97951],[-75.81981,4.97952],[-75.81998,4.97956],[-75.82002,4.97957],[-75.82005,4.97957],[-75.82016,4.97956],[-75.8202,4.97947],[-75.82023,4.97947],[-75.82025,4.97947],[-75.82028,4.97946],[-75.82031,4.97944],[-75.82034,4.97943],[-75.82036,4.97927],[-75.8204,4.97923],[-75.82043,4.9792],[-75.82058,4.97908],[-75.82087,4.97893],[-75.82088,4.97892],[-75.82089,4.97891],[-75.8209,4.9789],[-75.82091,4.97889],[-75.82092,4.97888],[-75.82092,4.97886],[-75.82092,4.97885],[-75.82092,4.97883],[-75.82092,4.97881],[-75.82091,4.9788],[-75.8209,4.97879],[-75.82089,4.97878],[-75.82088,4.97877],[-75.82086,4.97876],[-75.82085,4.97876],[-75.82083,4.97875],[-75.82082,4.97876],[-75.8208,4.97876],[-75.82079,4.97877],[-75.82049,4.97893],[-75.82048,4.97893],[-75.82048,4.97893],[-75.82031,4.97906],[-75.82031,4.97906],[-75.8203,4.97907],[-75.82022,4.97916],[-75.82014,4.97911],[-75.82006,4.97911],[-75.81992,4.97908],[-75.81976,4.97904],[-75.81974,4.97903],[-75.81972,4.97903],[-75.81948,4.97902],[-75.81929,4.97895],[-75.81926,4.97895],[-75.81908,4.97892],[-75.81906,4.97892],[-75.8189,4.97892],[-75.81887,4.97892],[-75.8186,4.97895],[-75.81859,4.97896],[-75.81856,4.97896],[-75.81842,4.97901],[-75.81836,4.97901],[-75.8183,4.979],[-75.81806,4.97892],[-75.81797,4.97894],[-75.8179,4.97895],[-75.81788,4.97896],[-75.81784,4.97897],[-75.8178,4.97899],[-75.81776,4.97902],[-75.81769,4.97912],[-75.81768,4.97912],[-75.81766,4.97912],[-75.81758,4.97913],[-75.81749,4.97914],[-75.81736,4.97915],[-75.81726,4.97913],[-75.81722,4.97903],[-75.8172,4.97903],[-75.81719,4.97902],[-75.81715,4.97899],[-75.81711,4.97897],[-75.81707,4.97896],[-75.81706,4.97896],[-75.81694,4.97893],[-75.81691,4.97893],[-75.81687,4.97893],[-75.81682,4.97894],[-75.81673,4.97911]]]},"properties":{"Id":0,"OBJECTID":10,"Shape_Length":1080.2926223269135,"Shape_Area":21194.383267191948,"Municipio":"Belalcazar"}},{"type":"Feature","id":11,"geometry":{"type":"Polygon","coordinates":[[[-75.8113,4.98233],[-75.8113,4.98236],[-75.8113,4.98239],[-75.81131,4.98242],[-75.81131,4.98243],[-75.81144,4.98272],[-75.81145,4.98274],[-75.81146,4.98276],[-75.81148,4.98278],[-75.81158,4.98287],[-75.81165,4.98298],[-75.81166,4.98299],[-75.81169,4.98312],[-75.81174,4.98314],[-75.81176,4.98314],[-75.81193,4.98317],[-75.81202,4.9832],[-75.81207,4.98328],[-75.81209,4.9833],[-75.81213,4.9834],[-75.81216,4.98352],[-75.81218,4.98355],[-75.8122,4.98359],[-75.81222,4.98362],[-75.81232,4.98372],[-75.81245,4.98379],[-75.81251,4.9839],[-75.81251,4.98397],[-75.81251,4.984],[-75.81252,4.98403],[-75.81253,4.98405],[-75.8126,4.98419],[-75.8126,4.9842],[-75.8126,4.98436],[-75.81259,4.9845],[-75.81258,4.98453],[-75.81259,4.98458],[-75.8126,4.98465],[-75.81263,4.98481],[-75.81261,4.98488],[-75.81257,4.98499],[-75.81256,4.98503],[-75.81255,4.98507],[-75.81254,4.9853],[-75.81254,4.98532],[-75.81254,4.98535],[-75.81255,4.98548],[-75.81253,4.98567],[-75.81253,4.98569],[-75.81253,4.98572],[-75.81253,4.98574],[-75.81253,4.98577],[-75.81253,4.98578],[-75.81253,4.98583],[-75.81254,4.98587],[-75.81256,4.98591],[-75.81258,4.98595],[-75.81261,4.98598],[-75.81265,4.98601],[-75.81269,4.98603],[-75.81273,4.98605],[-75.81278,4.98605],[-75.81282,4.98605],[-75.81286,4.98605],[-75.81291,4.98603],[-75.81295,4.98601],[-75.81298,4.98598],[-75.81301,4.98595],[-75.81304,4.98591],[-75.81305,4.98587],[-75.81306,4.98583],[-75.81307,4.9858],[-75.81307,4.98578],[-75.81307,4.98577],[-75.81307,4.98575],[-75.81307,4.98574],[-75.81307,4.98574],[-75.8131,4.98551],[-75.8131,4.98548],[-75.8131,4.98545],[-75.81308,4.98531],[-75.81309,4.98515],[-75.81312,4.98506],[-75.81313,4.98505],[-75.81313,4.98503],[-75.81317,4.98489],[-75.81317,4.98485],[-75.81318,4.98481],[-75.81317,4.98478],[-75.81308,4.98479],[-75.81304,4.98453],[-75.81315,4.98433],[-75.81316,4.98429],[-75.81315,4.98425],[-75.81314,4.9842],[-75.81312,4.98416],[-75.81311,4.98414],[-75.81299,4.98397],[-75.81296,4.9839],[-75.81296,4.98386],[-75.81295,4.98382],[-75.81294,4.98378],[-75.81293,4.98374],[-75.8129,4.98368],[-75.81282,4.98351],[-75.81281,4.98349],[-75.81281,4.98349],[-75.81277,4.98343],[-75.81275,4.9834],[-75.81274,4.98338],[-75.81266,4.9833],[-75.81264,4.98322],[-75.81264,4.98322],[-75.81263,4.9832],[-75.81257,4.98305],[-75.81255,4.98301],[-75.81253,4.98298],[-75.81251,4.98296],[-75.81243,4.98283],[-75.81242,4.98281],[-75.81239,4.98278],[-75.81235,4.98275],[-75.81231,4.98273],[-75.81229,4.98272],[-75.81208,4.98265],[-75.81206,4.98264],[-75.81203,4.98264],[-75.81196,4.98263],[-75.81195,4.9826],[-75.81193,4.98259],[-75.8119,4.98255],[-75.81183,4.98248],[-75.81173,4.98225],[-75.81172,4.98223],[-75.81169,4.98219],[-75.81145,4.98218],[-75.81142,4.98219],[-75.81139,4.9822],[-75.81136,4.98222],[-75.81134,4.98224],[-75.8113,4.98233]]]},"properties":{"Id":0,"OBJECTID":11,"Shape_Length":1075.7896783493493,"Shape_Area":27119.89034224923,"Municipio":"Belalcazar"}},{"type":"Feature","id":12,"geometry":{"type":"Polygon","coordinates":[[[-75.81187,4.98834],[-75.81186,4.98834],[-75.81185,4.98834],[-75.81184,4.98834],[-75.81184,4.98834],[-75.81183,4.98835],[-75.81183,4.98835],[-75.81182,4.98836],[-75.81182,4.98837],[-75.81182,4.98837],[-75.8118,4.98845],[-75.81177,4.98859],[-75.8117,4.98876],[-75.81163,4.98885],[-75.81163,4.98885],[-75.81162,4.98886],[-75.8116,4.98894],[-75.81159,4.98895],[-75.8115,4.98895],[-75.81143,4.98901],[-75.81133,4.98897],[-75.81123,4.98903],[-75.81113,4.98908],[-75.81095,4.98912],[-75.81094,4.98912],[-75.8108,4.98915],[-75.8107,4.98916],[-75.81054,4.98918],[-75.81038,4.98916],[-75.81031,4.98914],[-75.8103,4.98914],[-75.81028,4.98914],[-75.81024,4.98914],[-75.81023,4.98913],[-75.8102,4.98914],[-75.80999,4.98919],[-75.80997,4.98923],[-75.80996,4.98927],[-75.80996,4.98932],[-75.80996,4.98936],[-75.80997,4.9894],[-75.80999,4.98945],[-75.81001,4.98948],[-75.81004,4.98952],[-75.81008,4.98954],[-75.81012,4.98956],[-75.81032,4.98951],[-75.81033,4.98951],[-75.81033,4.98952],[-75.81049,4.98953],[-75.81047,4.98954],[-75.81044,4.98955],[-75.81042,4.98957],[-75.81039,4.98959],[-75.81026,4.98971],[-75.81026,4.98975],[-75.81028,4.9898],[-75.81029,4.98984],[-75.81032,4.98988],[-75.81035,4.98991],[-75.81038,4.98994],[-75.81059,4.98992],[-75.81061,4.98992],[-75.81063,4.98993],[-75.81065,4.98994],[-75.81066,4.98994],[-75.8107,4.98995],[-75.8107,4.98996],[-75.81071,4.98996],[-75.81073,4.98997],[-75.81074,4.98997],[-75.81075,4.98997],[-75.81079,4.99008],[-75.81081,4.99009],[-75.81084,4.9901],[-75.81087,4.99011],[-75.81088,4.99012],[-75.8109,4.99013],[-75.81092,4.99013],[-75.81096,4.99015],[-75.81098,4.99015],[-75.81098,4.99016],[-75.811,4.9902],[-75.81103,4.99023],[-75.81107,4.99026],[-75.8111,4.99027],[-75.81112,4.99029],[-75.81114,4.9903],[-75.81115,4.99031],[-75.81125,4.99026],[-75.81128,4.99028],[-75.8113,4.99028],[-75.81133,4.9903],[-75.81136,4.9903],[-75.81138,4.9903],[-75.81143,4.9903],[-75.81148,4.9903],[-75.8116,4.99038],[-75.81163,4.99037],[-75.81166,4.99036],[-75.81166,4.99036],[-75.81169,4.99035],[-75.81172,4.99034],[-75.81176,4.99034],[-75.8118,4.99023],[-75.81181,4.99023],[-75.81184,4.99023],[-75.81187,4.99022],[-75.8119,4.9902],[-75.81193,4.99019],[-75.81195,4.99016],[-75.81197,4.99014],[-75.81198,4.99011],[-75.81199,4.99008],[-75.81199,4.99005],[-75.81199,4.99002],[-75.81198,4.98999],[-75.81197,4.98996],[-75.81195,4.98993],[-75.81193,4.98991],[-75.81219,4.98982],[-75.81222,4.98979],[-75.81225,4.98975],[-75.81227,4.98971],[-75.81228,4.98966],[-75.81228,4.98962],[-75.81228,4.98957],[-75.81227,4.98953],[-75.81225,4.98949],[-75.81222,4.98945],[-75.81219,4.98942],[-75.81216,4.98939],[-75.81212,4.98937],[-75.81208,4.98936],[-75.81203,4.98935],[-75.81199,4.98935],[-75.81192,4.98946],[-75.81189,4.98948],[-75.81189,4.98949],[-75.81183,4.98954],[-75.81175,4.98958],[-75.81159,4.98961],[-75.81157,4.98961],[-75.81142,4.98965],[-75.81134,4.98967],[-75.81128,4.98959],[-75.81116,4.98961],[-75.81114,4.98961],[-75.81112,4.98962],[-75.8111,4.98962],[-75.81109,4.98962],[-75.81108,4.98961],[-75.81105,4.9896],[-75.81104,4.9896],[-75.81103,4.9896],[-75.81101,4.98959],[-75.81099,4.98957],[-75.81104,4.98956],[-75.81124,4.98952],[-75.8114,4.98935],[-75.81141,4.98935],[-75.81158,4.98924],[-75.81161,4.98922],[-75.81161,4.98922],[-75.81167,4.98916],[-75.81174,4.98912],[-75.81176,4.9891],[-75.81178,4.98908],[-75.81179,4.98905],[-75.81181,4.98903],[-75.81183,4.98896],[-75.81188,4.98889],[-75.81189,4.98887],[-75.8119,4.98886],[-75.81198,4.98868],[-75.81199,4.98867],[-75.81199,4.98864],[-75.81203,4.98849],[-75.81203,4.98848],[-75.81204,4.98841],[-75.81204,4.98838],[-75.81187,4.98834]]]},"properties":{"Id":0,"OBJECTID":12,"Shape_Length":1100.2234403430857,"Shape_Area":23878.635261080843,"Municipio":"Belalcazar"}},{"type":"Feature","id":13,"geometry":{"type":"Polygon","coordinates":[[[-75.81215,4.99177],[-75.81211,4.99169],[-75.81209,4.99167],[-75.81207,4.99165],[-75.81204,4.99164],[-75.81201,4.99163],[-75.81199,4.99163],[-75.81196,4.99162],[-75.81195,4.99162],[-75.8119,4.99161],[-75.81188,4.99161],[-75.81185,4.99161],[-75.81182,4.99161],[-75.8118,4.99162],[-75.81176,4.99163],[-75.81172,4.99164],[-75.81171,4.99163],[-75.81169,4.99163],[-75.81167,4.99163],[-75.81166,4.99162],[-75.8116,4.99159],[-75.81159,4.99157],[-75.81158,4.99146],[-75.81155,4.99143],[-75.81152,4.9914],[-75.81149,4.99138],[-75.81146,4.99136],[-75.81143,4.99135],[-75.81141,4.99134],[-75.8114,4.99133],[-75.81138,4.99131],[-75.81135,4.99128],[-75.81131,4.99126],[-75.81131,4.99125],[-75.81127,4.99123],[-75.81123,4.9912],[-75.81119,4.99117],[-75.81117,4.99117],[-75.81116,4.99116],[-75.81112,4.99113],[-75.81108,4.99111],[-75.81106,4.9911],[-75.81101,4.99109],[-75.81097,4.99108],[-75.81093,4.99107],[-75.81085,4.99107],[-75.81084,4.99107],[-75.81065,4.99117],[-75.81064,4.99117],[-75.8106,4.99118],[-75.81059,4.99118],[-75.81057,4.99118],[-75.81055,4.99118],[-75.81054,4.99118],[-75.81052,4.99117],[-75.8105,4.99116],[-75.81049,4.99116],[-75.81047,4.99115],[-75.81044,4.99113],[-75.81042,4.99112],[-75.81039,4.99111],[-75.81035,4.9911],[-75.81034,4.99109],[-75.8103,4.99108],[-75.81028,4.99107],[-75.81026,4.99106],[-75.81024,4.99106],[-75.81021,4.99104],[-75.81018,4.99103],[-75.81016,4.99102],[-75.81014,4.99089],[-75.81013,4.99089],[-75.81009,4.99087],[-75.81005,4.99085],[-75.81,4.99084],[-75.80996,4.99084],[-75.80991,4.99085],[-75.80987,4.99087],[-75.80983,4.99089],[-75.8098,4.99091],[-75.80977,4.99095],[-75.80974,4.99099],[-75.80972,4.99103],[-75.80971,4.99107],[-75.80971,4.99111],[-75.80971,4.99116],[-75.80972,4.9912],[-75.80974,4.99124],[-75.80977,4.99128],[-75.8098,4.99131],[-75.80982,4.99133],[-75.80984,4.99135],[-75.80985,4.99136],[-75.80985,4.9914],[-75.80986,4.99144],[-75.80988,4.99148],[-75.80991,4.99151],[-75.80992,4.99154],[-75.80994,4.99158],[-75.80997,4.99161],[-75.80999,4.99163],[-75.81001,4.99166],[-75.81003,4.99169],[-75.81006,4.99172],[-75.81008,4.99173],[-75.81014,4.9918],[-75.81015,4.9918],[-75.81018,4.99183],[-75.81019,4.99183],[-75.81019,4.99184],[-75.81019,4.99185],[-75.81022,4.99188],[-75.81024,4.99192],[-75.81026,4.99193],[-75.81027,4.99194],[-75.8103,4.99197],[-75.81032,4.99198],[-75.81033,4.992],[-75.81035,4.99203],[-75.81038,4.99205],[-75.81041,4.99207],[-75.81043,4.99209],[-75.81046,4.99212],[-75.81047,4.99213],[-75.8105,4.99215],[-75.81054,4.99218],[-75.81059,4.99222],[-75.81061,4.99223],[-75.81063,4.99224],[-75.81068,4.99227],[-75.81076,4.99232],[-75.81077,4.99233],[-75.81085,4.99237],[-75.81088,4.9924],[-75.81092,4.99242],[-75.81096,4.99243],[-75.81101,4.99244],[-75.81105,4.99244],[-75.8111,4.99243],[-75.81114,4.99242],[-75.81118,4.9924],[-75.81121,4.99237],[-75.81124,4.99234],[-75.81127,4.9923],[-75.81129,4.99226],[-75.8113,4.99221],[-75.8113,4.99217],[-75.8113,4.99213],[-75.81129,4.99208],[-75.81127,4.99204],[-75.81124,4.992],[-75.81122,4.99198],[-75.81121,4.99196],[-75.81118,4.99194],[-75.81115,4.99192],[-75.81105,4.99186],[-75.81097,4.99181],[-75.81094,4.99179],[-75.8109,4.99177],[-75.81086,4.99174],[-75.81085,4.99173],[-75.81082,4.99172],[-75.8108,4.99169],[-75.81079,4.99168],[-75.81075,4.99165],[-75.81074,4.99164],[-75.81073,4.99162],[-75.81075,4.99161],[-75.81078,4.99162],[-75.8108,4.99162],[-75.81085,4.99162],[-75.81087,4.99162],[-75.8109,4.99164],[-75.81094,4.99166],[-75.81095,4.99166],[-75.81096,4.99167],[-75.81099,4.9917],[-75.81102,4.99172],[-75.81104,4.99174],[-75.81105,4.99174],[-75.81108,4.99177],[-75.81113,4.9918],[-75.81115,4.99182],[-75.81118,4.99183],[-75.8112,4.99185],[-75.81123,4.99188],[-75.81126,4.99189],[-75.81128,4.99191],[-75.8113,4.99192],[-75.81132,4.99194],[-75.81135,4.99196],[-75.81152,4.99196],[-75.81157,4.99198],[-75.81159,4.99198],[-75.81163,4.99199],[-75.81167,4.99191],[-75.81169,4.99191],[-75.8117,4.99191],[-75.81173,4.99191],[-75.81175,4.99191],[-75.81183,4.99189],[-75.81184,4.99189],[-75.81187,4.99188],[-75.81188,4.99188],[-75.81196,4.99199],[-75.81198,4.99199],[-75.81201,4.99198],[-75.81204,4.99198],[-75.81207,4.99196],[-75.81209,4.99194],[-75.81211,4.99192],[-75.81213,4.9919],[-75.81215,4.99187],[-75.81215,4.99184],[-75.81216,4.99181],[-75.81215,4.99177]]]},"properties":{"Id":0,"OBJECTID":13,"Shape_Length":896.3907082566969,"Shape_Area":22591.353668633674,"Municipio":"Belalcazar"}},{"type":"Feature","id":14,"geometry":{"type":"Polygon","coordinates":[[[-75.81203,4.99319],[-75.81193,4.99313],[-75.8119,4.99312],[-75.81186,4.99313],[-75.81183,4.99313],[-75.81181,4.99315],[-75.81178,4.99317],[-75.81176,4.99319],[-75.81174,4.99321],[-75.81173,4.99323],[-75.81169,4.99334],[-75.81159,4.99332],[-75.81158,4.99336],[-75.81155,4.99336],[-75.81147,4.99337],[-75.8114,4.99336],[-75.81133,4.99334],[-75.8113,4.99333],[-75.81127,4.99332],[-75.81124,4.99332],[-75.8112,4.99332],[-75.81116,4.99332],[-75.8111,4.99332],[-75.81098,4.99343],[-75.81095,4.99343],[-75.81092,4.99343],[-75.8109,4.99344],[-75.81087,4.99345],[-75.81084,4.99346],[-75.81081,4.99348],[-75.8108,4.99348],[-75.81077,4.9935],[-75.81075,4.99352],[-75.81073,4.99355],[-75.81073,4.99356],[-75.81073,4.99356],[-75.81071,4.99358],[-75.8107,4.9936],[-75.81069,4.99363],[-75.81067,4.99363],[-75.81065,4.99363],[-75.8106,4.99365],[-75.81058,4.99366],[-75.81055,4.99368],[-75.81053,4.99369],[-75.8105,4.99372],[-75.81053,4.99381],[-75.81051,4.99382],[-75.8105,4.99382],[-75.81049,4.99383],[-75.81047,4.99385],[-75.81045,4.99386],[-75.81045,4.99387],[-75.81043,4.99387],[-75.81042,4.99389],[-75.81041,4.9939],[-75.81041,4.9939],[-75.8104,4.99393],[-75.81037,4.99397],[-75.81037,4.99397],[-75.81037,4.99398],[-75.81035,4.994],[-75.8102,4.99401],[-75.81017,4.99402],[-75.81016,4.99402],[-75.81014,4.99402],[-75.81011,4.99401],[-75.81009,4.99401],[-75.81008,4.99402],[-75.81007,4.99401],[-75.81006,4.99401],[-75.81003,4.99401],[-75.81001,4.99401],[-75.80998,4.99401],[-75.80996,4.99401],[-75.80993,4.99402],[-75.80991,4.99402],[-75.80989,4.99403],[-75.80987,4.99404],[-75.80984,4.99404],[-75.80981,4.99404],[-75.80978,4.99405],[-75.80976,4.99405],[-75.80975,4.99405],[-75.80971,4.99405],[-75.80967,4.99404],[-75.80962,4.99403],[-75.80948,4.99391],[-75.80947,4.99391],[-75.80943,4.9939],[-75.8094,4.9939],[-75.80936,4.9939],[-75.80935,4.9939],[-75.8093,4.9939],[-75.80928,4.9939],[-75.80924,4.99391],[-75.80919,4.99392],[-75.80915,4.99394],[-75.80912,4.99397],[-75.80909,4.994],[-75.80907,4.99404],[-75.80905,4.99408],[-75.80913,4.99423],[-75.80914,4.99425],[-75.80911,4.99426],[-75.80909,4.99428],[-75.80907,4.99431],[-75.80905,4.99433],[-75.80903,4.99436],[-75.80903,4.99439],[-75.80902,4.99442],[-75.80903,4.99445],[-75.80903,4.99448],[-75.80905,4.99451],[-75.80907,4.99454],[-75.80909,4.99456],[-75.80911,4.99458],[-75.80914,4.99459],[-75.80917,4.9946],[-75.8092,4.9946],[-75.80924,4.9946],[-75.8093,4.99459],[-75.80934,4.99458],[-75.80935,4.99458],[-75.80938,4.99458],[-75.8094,4.99458],[-75.80941,4.99459],[-75.80942,4.99459],[-75.80942,4.99459],[-75.80943,4.9946],[-75.80946,4.99462],[-75.80948,4.99464],[-75.80949,4.99464],[-75.80951,4.99467],[-75.80952,4.99468],[-75.80952,4.99469],[-75.80954,4.99475],[-75.80954,4.99477],[-75.80955,4.99478],[-75.80955,4.99478],[-75.80955,4.9948],[-75.80956,4.99482],[-75.80956,4.99484],[-75.80957,4.99488],[-75.80957,4.9949],[-75.80958,4.99492],[-75.80958,4.99495],[-75.80958,4.99498],[-75.80958,4.99499],[-75.8096,4.99506],[-75.80961,4.9951],[-75.80956,4.9953],[-75.80958,4.99533],[-75.80959,4.99536],[-75.80961,4.99539],[-75.80963,4.99543],[-75.80966,4.99546],[-75.80967,4.99547],[-75.80967,4.99548],[-75.80968,4.9955],[-75.80969,4.99553],[-75.8097,4.99556],[-75.8097,4.99557],[-75.8097,4.99561],[-75.8097,4.99565],[-75.80971,4.99569],[-75.80972,4.9957],[-75.80972,4.99574],[-75.80973,4.99577],[-75.80974,4.99581],[-75.80976,4.99584],[-75.80977,4.99587],[-75.80978,4.99588],[-75.80981,4.99592],[-75.80982,4.99594],[-75.80984,4.99598],[-75.80987,4.99601],[-75.80992,4.99606],[-75.80993,4.99608],[-75.80996,4.9961],[-75.81,4.99613],[-75.81002,4.99613],[-75.81003,4.99614],[-75.81005,4.99617],[-75.81006,4.99618],[-75.81009,4.9962],[-75.81014,4.99623],[-75.81018,4.99626],[-75.81023,4.9963],[-75.81025,4.99631],[-75.81028,4.99633],[-75.81034,4.99636],[-75.81035,4.99636],[-75.81037,4.99637],[-75.8104,4.99638],[-75.81044,4.9964],[-75.81046,4.99641],[-75.81048,4.99642],[-75.81052,4.99643],[-75.81054,4.99644],[-75.81058,4.99644],[-75.81061,4.99645],[-75.81065,4.99646],[-75.81069,4.99646],[-75.81074,4.99645],[-75.81078,4.99644],[-75.81082,4.99642],[-75.81086,4.99639],[-75.81089,4.99636],[-75.81091,4.99632],[-75.81093,4.99628],[-75.81094,4.99623],[-75.81094,4.99619],[-75.81094,4.99615],[-75.81093,4.9961],[-75.81091,4.99606],[-75.81088,4.99602],[-75.81085,4.99599],[-75.81082,4.99596],[-75.81079,4.99595],[-75.81076,4.99593],[-75.81073,4.99592],[-75.8107,4.99591],[-75.81066,4.99591],[-75.81063,4.99589],[-75.81061,4.99588],[-75.81059,4.99587],[-75.81056,4.99586],[-75.81054,4.99585],[-75.8105,4.99582],[-75.81049,4.99581],[-75.81044,4.99578],[-75.81042,4.99577],[-75.81039,4.99574],[-75.81038,4.99573],[-75.81035,4.9957],[-75.8103,4.99567],[-75.81029,4.99566],[-75.81027,4.99564],[-75.81027,4.99563],[-75.81025,4.99561],[-75.81024,4.99557],[-75.81024,4.99555],[-75.81024,4.9955],[-75.81024,4.9955],[-75.81028,4.99549],[-75.81032,4.99548],[-75.81034,4.99548],[-75.81036,4.99548],[-75.81037,4.99549],[-75.81038,4.99549],[-75.81039,4.99549],[-75.81046,4.99552],[-75.81048,4.99553],[-75.81051,4.99555],[-75.81052,4.99555],[-75.81053,4.99556],[-75.81054,4.99556],[-75.81057,4.99558],[-75.8106,4.99559],[-75.81061,4.9956],[-75.81062,4.9956],[-75.81069,4.99563],[-75.81072,4.99565],[-75.81077,4.99568],[-75.81094,4.99564],[-75.81095,4.99564],[-75.81098,4.99563],[-75.81101,4.99561],[-75.81103,4.9956],[-75.81106,4.99557],[-75.81107,4.99555],[-75.81109,4.99552],[-75.81109,4.99549],[-75.8111,4.99546],[-75.81113,4.99529],[-75.8111,4.99526],[-75.81107,4.99523],[-75.81104,4.99522],[-75.81103,4.9952],[-75.811,4.99518],[-75.81097,4.99516],[-75.81094,4.99514],[-75.81083,4.9951],[-75.81079,4.99508],[-75.81075,4.99506],[-75.81071,4.99504],[-75.81069,4.99503],[-75.81067,4.99502],[-75.81067,4.99502],[-75.8106,4.995],[-75.81058,4.99499],[-75.81055,4.99497],[-75.81052,4.99495],[-75.81048,4.99494],[-75.81044,4.99493],[-75.8104,4.99493],[-75.81037,4.99493],[-75.81034,4.99493],[-75.81031,4.99493],[-75.81028,4.99494],[-75.81025,4.99494],[-75.81022,4.99495],[-75.81019,4.99495],[-75.81017,4.99496],[-75.81014,4.99496],[-75.81013,4.99496],[-75.81012,4.99495],[-75.80995,4.99497],[-75.80994,4.99493],[-75.80994,4.99489],[-75.80994,4.99486],[-75.80993,4.99483],[-75.80992,4.99481],[-75.80992,4.99478],[-75.80992,4.99476],[-75.80991,4.99473],[-75.80991,4.99471],[-75.8099,4.99469],[-75.80989,4.99466],[-75.80988,4.99464],[-75.80987,4.9946],[-75.80986,4.99454],[-75.80985,4.99452],[-75.80984,4.99449],[-75.80983,4.99447],[-75.80981,4.99446],[-75.80978,4.99443],[-75.80977,4.99441],[-75.80979,4.99441],[-75.80982,4.99441],[-75.80985,4.9944],[-75.80987,4.9944],[-75.80988,4.9944],[-75.80991,4.9944],[-75.80994,4.9944],[-75.80996,4.99439],[-75.80998,4.99438],[-75.80999,4.99438],[-75.81002,4.99438],[-75.81004,4.99438],[-75.81005,4.99438],[-75.81008,4.99438],[-75.81009,4.99438],[-75.8101,4.99438],[-75.81011,4.99438],[-75.81019,4.99445],[-75.81021,4.99447],[-75.81023,4.99448],[-75.81025,4.99449],[-75.81031,4.99461],[-75.81036,4.99463],[-75.8104,4.99464],[-75.81043,4.99464],[-75.81044,4.99464],[-75.81045,4.99465],[-75.81047,4.99466],[-75.8105,4.99468],[-75.81054,4.99469],[-75.81057,4.9947],[-75.81061,4.9947],[-75.81063,4.9947],[-75.81063,4.99471],[-75.81066,4.99472],[-75.81069,4.99474],[-75.81073,4.99476],[-75.81075,4.99477],[-75.81079,4.9948],[-75.81081,4.99481],[-75.81083,4.99482],[-75.81094,4.99489],[-75.81098,4.99491],[-75.81102,4.99493],[-75.81106,4.99493],[-75.81111,4.99493],[-75.81115,4.99493],[-75.8112,4.99491],[-75.81123,4.99489],[-75.81127,4.99486],[-75.8113,4.99483],[-75.81132,4.99479],[-75.81134,4.99475],[-75.81135,4.99471],[-75.81136,4.99466],[-75.81135,4.99462],[-75.81134,4.99457],[-75.81132,4.99453],[-75.8113,4.9945],[-75.81127,4.99446],[-75.81123,4.99443],[-75.81111,4.99436],[-75.8111,4.99435],[-75.81107,4.99432],[-75.81104,4.9943],[-75.811,4.99429],[-75.81097,4.99427],[-75.81096,4.99427],[-75.81093,4.99425],[-75.8109,4.99424],[-75.81087,4.99422],[-75.81084,4.99421],[-75.81081,4.99419],[-75.81077,4.99417],[-75.81073,4.99417],[-75.81069,4.99416],[-75.81068,4.99416],[-75.8107,4.99414],[-75.81073,4.99412],[-75.81076,4.9941],[-75.81079,4.99408],[-75.81083,4.99407],[-75.81088,4.99405],[-75.81092,4.99403],[-75.81095,4.99401],[-75.81096,4.994],[-75.81099,4.99397],[-75.81102,4.99394],[-75.81104,4.99391],[-75.81107,4.99388],[-75.81109,4.99387],[-75.81111,4.99386],[-75.81116,4.99386],[-75.81119,4.99386],[-75.81125,4.99389],[-75.81128,4.99389],[-75.81132,4.9939],[-75.81145,4.99391],[-75.8115,4.99391],[-75.81151,4.99391],[-75.81162,4.9939],[-75.81164,4.9939],[-75.81172,4.99388],[-75.81176,4.99387],[-75.8118,4.99386],[-75.81185,4.99383],[-75.81186,4.99383],[-75.81192,4.99379],[-75.81201,4.99352],[-75.81202,4.99348],[-75.81206,4.99338],[-75.81207,4.99337],[-75.81207,4.99333],[-75.81208,4.9933],[-75.81207,4.99327],[-75.81207,4.99324],[-75.81205,4.99321],[-75.81203,4.99319]]]},"properties":{"Id":0,"OBJECTID":14,"Shape_Length":1826.1080811182026,"Shape_Area":46552.27919891176,"Municipio":"Belalcazar"}},{"type":"Feature","id":15,"geometry":{"type":"Polygon","coordinates":[[[-75.80909,4.99483],[-75.80906,4.99484],[-75.80903,4.99485],[-75.809,4.99487],[-75.80898,4.99489],[-75.80896,4.99492],[-75.80895,4.99495],[-75.80894,4.99498],[-75.80894,4.99501],[-75.80894,4.99503],[-75.80894,4.99504],[-75.80894,4.99505],[-75.80893,4.99506],[-75.80893,4.99506],[-75.80893,4.99507],[-75.80891,4.99509],[-75.8089,4.99512],[-75.80889,4.99517],[-75.80888,4.99519],[-75.80888,4.99521],[-75.80887,4.99523],[-75.80887,4.99525],[-75.80886,4.99527],[-75.80886,4.99529],[-75.80885,4.99532],[-75.80885,4.99535],[-75.80884,4.99536],[-75.80883,4.99539],[-75.80882,4.9954],[-75.80882,4.99541],[-75.80881,4.99545],[-75.80881,4.99546],[-75.8088,4.99551],[-75.80879,4.99552],[-75.80879,4.99554],[-75.80879,4.99554],[-75.80877,4.99557],[-75.80865,4.9957],[-75.80865,4.99574],[-75.80865,4.99577],[-75.80865,4.99579],[-75.80865,4.9958],[-75.80865,4.99581],[-75.80864,4.99585],[-75.80864,4.99589],[-75.80865,4.99593],[-75.80866,4.99596],[-75.80866,4.99597],[-75.80867,4.99598],[-75.80867,4.99599],[-75.80868,4.99602],[-75.80869,4.99604],[-75.8087,4.99606],[-75.8087,4.99606],[-75.80871,4.99611],[-75.80873,4.99615],[-75.80875,4.99619],[-75.80876,4.9962],[-75.80877,4.99621],[-75.8088,4.99624],[-75.80883,4.99627],[-75.80885,4.99629],[-75.80886,4.9963],[-75.80888,4.99633],[-75.80889,4.99634],[-75.8089,4.99635],[-75.8089,4.99636],[-75.80902,4.99643],[-75.809,4.99646],[-75.809,4.99646],[-75.80899,4.99647],[-75.80898,4.99648],[-75.80897,4.9965],[-75.80895,4.99652],[-75.80893,4.99653],[-75.80891,4.99655],[-75.8089,4.99656],[-75.80889,4.99657],[-75.80887,4.99658],[-75.80886,4.99658],[-75.80884,4.99659],[-75.80881,4.99661],[-75.8088,4.99661],[-75.80879,4.99662],[-75.80874,4.99665],[-75.80872,4.99666],[-75.80871,4.99667],[-75.80868,4.9967],[-75.80865,4.99673],[-75.80865,4.99674],[-75.80863,4.99676],[-75.80861,4.99679],[-75.80861,4.99682],[-75.8086,4.99683],[-75.8086,4.99684],[-75.80859,4.99685],[-75.80859,4.99686],[-75.80857,4.99689],[-75.80856,4.99691],[-75.80856,4.99691],[-75.80855,4.99695],[-75.80855,4.99696],[-75.80854,4.99698],[-75.80854,4.99701],[-75.80853,4.99703],[-75.80853,4.99706],[-75.80852,4.99708],[-75.80852,4.9971],[-75.80851,4.99712],[-75.80851,4.99715],[-75.80851,4.9972],[-75.80851,4.99721],[-75.80849,4.99729],[-75.80849,4.99732],[-75.80849,4.99735],[-75.80849,4.99737],[-75.80847,4.99743],[-75.80846,4.99744],[-75.80844,4.99752],[-75.80841,4.9976],[-75.80841,4.99762],[-75.8084,4.99763],[-75.8084,4.99765],[-75.8084,4.99765],[-75.80839,4.99767],[-75.80839,4.99767],[-75.80837,4.99769],[-75.80836,4.99771],[-75.80836,4.99772],[-75.80835,4.99772],[-75.80833,4.99774],[-75.80832,4.99776],[-75.80831,4.99777],[-75.8083,4.9978],[-75.80829,4.99781],[-75.80828,4.99782],[-75.80827,4.99784],[-75.80825,4.99786],[-75.80824,4.99789],[-75.80823,4.99793],[-75.80822,4.99794],[-75.8082,4.99796],[-75.80819,4.99799],[-75.80817,4.99802],[-75.80816,4.99805],[-75.80814,4.99808],[-75.80814,4.9981],[-75.80813,4.99813],[-75.80812,4.99816],[-75.80813,4.99819],[-75.80814,4.99822],[-75.80815,4.99825],[-75.80817,4.99827],[-75.80819,4.9983],[-75.80822,4.99832],[-75.80824,4.99833],[-75.80827,4.99834],[-75.80831,4.99834],[-75.80834,4.99834],[-75.80837,4.99833],[-75.80837,4.99832],[-75.80837,4.99833],[-75.80838,4.99836],[-75.80839,4.99839],[-75.8084,4.99842],[-75.80842,4.99844],[-75.80844,4.99847],[-75.80846,4.99848],[-75.80849,4.9985],[-75.80852,4.99851],[-75.80855,4.99851],[-75.80859,4.99851],[-75.80862,4.9985],[-75.80865,4.99848],[-75.80867,4.99847],[-75.80869,4.99844],[-75.80871,4.99842],[-75.80872,4.99839],[-75.80873,4.99838],[-75.80874,4.99835],[-75.80874,4.99833],[-75.80874,4.9983],[-75.80874,4.99827],[-75.80875,4.99823],[-75.80876,4.99822],[-75.80876,4.99819],[-75.80876,4.99814],[-75.80876,4.9981],[-75.80876,4.99809],[-75.80877,4.99807],[-75.80877,4.99805],[-75.80878,4.99802],[-75.80878,4.99801],[-75.80878,4.99796],[-75.80878,4.99794],[-75.80878,4.99791],[-75.80878,4.99791],[-75.80878,4.99777],[-75.80877,4.99775],[-75.80877,4.99774],[-75.80877,4.99772],[-75.80876,4.99771],[-75.80879,4.99763],[-75.80879,4.99761],[-75.80881,4.99754],[-75.80883,4.99748],[-75.80884,4.99746],[-75.80884,4.99744],[-75.80885,4.99741],[-75.80885,4.99738],[-75.80885,4.99736],[-75.80885,4.99735],[-75.80885,4.99733],[-75.80887,4.99726],[-75.80887,4.99723],[-75.80887,4.9972],[-75.80887,4.99719],[-75.80888,4.99717],[-75.80888,4.99714],[-75.80888,4.99712],[-75.80889,4.9971],[-75.8089,4.99707],[-75.8089,4.99704],[-75.8089,4.99704],[-75.80891,4.99703],[-75.80892,4.99701],[-75.80893,4.99698],[-75.80894,4.99695],[-75.80896,4.99694],[-75.80897,4.99693],[-75.80898,4.99693],[-75.80901,4.99692],[-75.80904,4.99691],[-75.80906,4.99689],[-75.80907,4.99689],[-75.80909,4.99688],[-75.80911,4.99686],[-75.80912,4.99685],[-75.80914,4.99684],[-75.80915,4.99683],[-75.80915,4.99682],[-75.80918,4.99681],[-75.8092,4.99679],[-75.80921,4.99677],[-75.80922,4.99676],[-75.80924,4.99675],[-75.80926,4.99672],[-75.80927,4.9967],[-75.80929,4.99668],[-75.80931,4.99665],[-75.80932,4.99662],[-75.80934,4.99659],[-75.80935,4.99656],[-75.80936,4.99654],[-75.80936,4.99654],[-75.80937,4.99653],[-75.80938,4.99652],[-75.80938,4.99653],[-75.80939,4.99656],[-75.8094,4.99658],[-75.80942,4.99661],[-75.80944,4.99663],[-75.80945,4.99664],[-75.80946,4.99665],[-75.80947,4.99667],[-75.80948,4.99669],[-75.80949,4.9967],[-75.80952,4.99673],[-75.80954,4.99674],[-75.80955,4.99676],[-75.80957,4.99678],[-75.80959,4.99679],[-75.80961,4.99681],[-75.80965,4.99682],[-75.80965,4.99683],[-75.80967,4.99685],[-75.80969,4.99686],[-75.80971,4.99688],[-75.80973,4.99689],[-75.80974,4.9969],[-75.80976,4.99691],[-75.80978,4.99692],[-75.8098,4.99694],[-75.80982,4.99696],[-75.80985,4.99698],[-75.80986,4.99699],[-75.80987,4.997],[-75.80989,4.99702],[-75.80991,4.99704],[-75.80993,4.99705],[-75.81001,4.99718],[-75.81004,4.99719],[-75.81007,4.99719],[-75.81011,4.99719],[-75.81012,4.9972],[-75.81013,4.9972],[-75.81016,4.9972],[-75.8102,4.99721],[-75.81023,4.99722],[-75.81026,4.99722],[-75.81029,4.99723],[-75.81029,4.99723],[-75.81033,4.99723],[-75.81037,4.99723],[-75.81042,4.99722],[-75.81041,4.99713],[-75.81044,4.99712],[-75.81047,4.9971],[-75.81049,4.99708],[-75.81051,4.99705],[-75.81052,4.99702],[-75.81053,4.99699],[-75.81053,4.99696],[-75.81053,4.99693],[-75.81052,4.9969],[-75.81051,4.99688],[-75.81046,4.99671],[-75.81042,4.9967],[-75.81041,4.9967],[-75.81038,4.99669],[-75.81035,4.99669],[-75.81032,4.99668],[-75.81029,4.99667],[-75.81026,4.99667],[-75.81024,4.99667],[-75.81023,4.99666],[-75.81019,4.99666],[-75.81016,4.99665],[-75.81013,4.99662],[-75.8101,4.99659],[-75.81008,4.99657],[-75.8099,4.99657],[-75.80988,4.99655],[-75.80986,4.99653],[-75.80984,4.99652],[-75.80981,4.9965],[-75.8098,4.9965],[-75.80979,4.99649],[-75.80978,4.99647],[-75.80976,4.99646],[-75.80975,4.99644],[-75.80974,4.99642],[-75.80972,4.9964],[-75.80971,4.99637],[-75.80971,4.99636],[-75.8097,4.99635],[-75.80969,4.99632],[-75.80967,4.9963],[-75.80966,4.99628],[-75.80964,4.99626],[-75.80963,4.99624],[-75.80961,4.99623],[-75.80959,4.99621],[-75.80958,4.9962],[-75.80956,4.99618],[-75.80955,4.99617],[-75.80954,4.99616],[-75.80951,4.99614],[-75.80948,4.99613],[-75.80945,4.99612],[-75.80942,4.99611],[-75.80938,4.99611],[-75.80934,4.99612],[-75.80931,4.99612],[-75.80935,4.99603],[-75.80933,4.99602],[-75.80932,4.996],[-75.8093,4.99597],[-75.80928,4.99595],[-75.80925,4.99592],[-75.80923,4.9959],[-75.80922,4.99589],[-75.80921,4.99588],[-75.8092,4.99587],[-75.80919,4.99583],[-75.80919,4.99581],[-75.80919,4.99578],[-75.80919,4.99575],[-75.80919,4.99574],[-75.80921,4.99571],[-75.80922,4.99568],[-75.80923,4.99563],[-75.80924,4.9956],[-75.80925,4.99556],[-75.80926,4.99554],[-75.80927,4.99551],[-75.80928,4.99546],[-75.80929,4.99542],[-75.8093,4.9954],[-75.8093,4.99539],[-75.8093,4.99537],[-75.80926,4.99522],[-75.80927,4.99519],[-75.80928,4.99517],[-75.80929,4.99514],[-75.8093,4.99512],[-75.8093,4.99509],[-75.8093,4.99506],[-75.8093,4.99504],[-75.8093,4.99503],[-75.8093,4.99501],[-75.8093,4.99498],[-75.80929,4.99495],[-75.80927,4.99492],[-75.80926,4.99489],[-75.80923,4.99487],[-75.80921,4.99485],[-75.80909,4.99483]]]},"properties":{"Id":0,"OBJECTID":15,"Shape_Length":1300.4446327345227,"Shape_Area":28347.358109967437,"Municipio":"Belalcazar"}}]}