{"type":"FeatureCollection","name":"FPCauceUrbanoManzanaresLaDorada","crs":{"type":"name","properties":{"name":"urn:ogc:def:crs:OGC:1.3:CRS84"}},"features":[{"type":"Feature","id":1,"geometry":{"type":"Polygon","coordinates":[[[-74.66513,5.46759],[-74.66513,5.46759],[-74.66506,5.46773],[-74.665,5.46782],[-74.665,5.46782],[-74.665,5.46782],[-74.66497,5.46787],[-74.6649,5.46794],[-74.6649,5.46794],[-74.6649,5.46794],[-74.66488,5.46797],[-74.66484,5.46798],[-74.66484,5.46798],[-74.66484,5.46798],[-74.66482,5.46799],[-74.6648,5.46801],[-74.66475,5.46803],[-74.66475,5.46803],[-74.66475,5.46803],[-74.66475,5.46803],[-74.6645,5.46815],[-74.66448,5.46817],[-74.66446,5.4682],[-74.66445,5.46823],[-74.66446,5.46827],[-74.66448,5.4683],[-74.6645,5.46831],[-74.66454,5.46832],[-74.66458,5.46831],[-74.66472,5.46825],[-74.66472,5.46825],[-74.66482,5.4682],[-74.66482,5.4682],[-74.66488,5.46817],[-74.66488,5.46817],[-74.6649,5.46816],[-74.66492,5.46815],[-74.66496,5.46813],[-74.66496,5.46813],[-74.66496,5.46813],[-74.66498,5.46812],[-74.66499,5.46811],[-74.66499,5.46811],[-74.66499,5.46811],[-74.66503,5.46807],[-74.6651,5.468],[-74.66511,5.468],[-74.66511,5.468],[-74.66512,5.46798],[-74.66516,5.46792],[-74.66521,5.46783],[-74.66522,5.46782],[-74.66522,5.46782],[-74.66529,5.46767],[-74.66529,5.46767],[-74.66534,5.46759],[-74.66535,5.46758],[-74.66535,5.46757],[-74.66536,5.46753],[-74.66535,5.4675],[-74.66535,5.46749],[-74.66535,5.46749],[-74.66534,5.46749],[-74.66534,5.46749],[-74.66534,5.46749],[-74.66534,5.46749],[-74.66527,5.46728],[-74.66618,5.46686],[-74.66623,5.46696],[-74.66623,5.46696],[-74.66624,5.46697],[-74.66637,5.46719],[-74.66639,5.46721],[-74.66642,5.46723],[-74.66645,5.46723],[-74.66648,5.46723],[-74.66651,5.46721],[-74.66653,5.46718],[-74.66654,5.46714],[-74.66653,5.46711],[-74.66653,5.4671],[-74.66639,5.46687],[-74.6663,5.4667],[-74.66628,5.46668],[-74.66625,5.46666],[-74.66622,5.46665],[-74.66618,5.46666],[-74.66618,5.46666],[-74.66618,5.46666],[-74.66514,5.46714],[-74.66514,5.46714],[-74.66513,5.46714],[-74.66513,5.46714],[-74.66513,5.46714],[-74.66512,5.46715],[-74.66512,5.46715],[-74.66511,5.46716],[-74.66511,5.46716],[-74.6651,5.46716],[-74.6651,5.46716],[-74.6651,5.46716],[-74.66509,5.46717],[-74.66509,5.46718],[-74.66508,5.46719],[-74.66508,5.46719],[-74.66508,5.4672],[-74.66508,5.4672],[-74.66508,5.4672],[-74.66507,5.46721],[-74.66507,5.46722],[-74.66507,5.46722],[-74.66507,5.46723],[-74.66507,5.46724],[-74.66507,5.46724],[-74.66507,5.46725],[-74.66507,5.46726],[-74.66507,5.46726],[-74.66507,5.46727],[-74.66507,5.46728],[-74.66508,5.46728],[-74.66508,5.46728],[-74.66508,5.46728],[-74.66508,5.46728],[-74.66508,5.46728],[-74.66517,5.46753],[-74.66513,5.46759],[-74.66513,5.46759],[-74.66513,5.46759]]]},"properties":{"OBJECTID_1":1,"OBJECTID":3,"ID_RONDA":3,"CODRONDA":"3","DRENAJE":" ","AREA_INF":10,"FAJA_PROTE":"Zona de Proteccion Hidraulica y Ambiental","AREA":6909.66233157,"PERIMETRO":719.247286204,"Shape_Leng":719.247366531,"Shape_Length":718.9359321100867,"Shape_Area":6903.683014903628,"NOMBRE":"La_Dorada"}},{"type":"Feature","id":2,"geometry":{"type":"Polygon","coordinates":[[[-74.66189,5.44322],[-74.66189,5.44322],[-74.66214,5.44363],[-74.66216,5.44368],[-74.66219,5.44377],[-74.66219,5.44378],[-74.66219,5.44378],[-74.66221,5.44384],[-74.66221,5.44384],[-74.66221,5.44384],[-74.66223,5.44386],[-74.66257,5.44428],[-74.66259,5.44431],[-74.66266,5.44441],[-74.66285,5.44469],[-74.66285,5.44469],[-74.66285,5.44469],[-74.6629,5.44476],[-74.6629,5.44476],[-74.6629,5.44477],[-74.66294,5.44482],[-74.66317,5.44515],[-74.66323,5.44524],[-74.66328,5.44533],[-74.66332,5.44541],[-74.66332,5.44541],[-74.66333,5.44542],[-74.66338,5.44549],[-74.66344,5.44559],[-74.66359,5.44579],[-74.66359,5.44579],[-74.66359,5.44579],[-74.66364,5.44588],[-74.66364,5.44588],[-74.66365,5.44588],[-74.66367,5.44591],[-74.66368,5.44592],[-74.66368,5.44592],[-74.66372,5.44596],[-74.66372,5.44596],[-74.66372,5.44597],[-74.66377,5.44601],[-74.66383,5.4461],[-74.66398,5.4463],[-74.66404,5.44638],[-74.66416,5.44655],[-74.66416,5.44655],[-74.66416,5.44655],[-74.66426,5.4467],[-74.66426,5.4467],[-74.66426,5.4467],[-74.66428,5.44672],[-74.66428,5.44673],[-74.66428,5.44673],[-74.66429,5.44674],[-74.6643,5.44675],[-74.66433,5.44677],[-74.66436,5.44677],[-74.66439,5.44677],[-74.66442,5.44675],[-74.66444,5.44672],[-74.66445,5.44668],[-74.66444,5.44665],[-74.66443,5.44662],[-74.66442,5.44662],[-74.66441,5.44659],[-74.66431,5.44645],[-74.66419,5.44628],[-74.66419,5.44627],[-74.66419,5.44627],[-74.66413,5.4462],[-74.66413,5.4462],[-74.66413,5.4462],[-74.66398,5.44599],[-74.66398,5.44599],[-74.66398,5.44599],[-74.66391,5.4459],[-74.6639,5.44589],[-74.6639,5.44589],[-74.6639,5.44589],[-74.66385,5.44584],[-74.66381,5.4458],[-74.66379,5.44577],[-74.66373,5.44569],[-74.66359,5.44549],[-74.66353,5.44539],[-74.66348,5.44532],[-74.66344,5.44524],[-74.66344,5.44524],[-74.66344,5.44524],[-74.66339,5.44515],[-74.66338,5.44514],[-74.66338,5.44514],[-74.66332,5.44505],[-74.66332,5.44505],[-74.66332,5.44505],[-74.66309,5.44472],[-74.66309,5.44471],[-74.66309,5.44471],[-74.66304,5.44466],[-74.663,5.44459],[-74.66281,5.44431],[-74.66281,5.44431],[-74.66281,5.4443],[-74.66274,5.4442],[-74.66274,5.4442],[-74.66274,5.4442],[-74.66272,5.44417],[-74.66271,5.44416],[-74.66271,5.44416],[-74.66237,5.44376],[-74.66236,5.44372],[-74.66234,5.44362],[-74.66233,5.44361],[-74.66233,5.44361],[-74.66233,5.44361],[-74.6623,5.44355],[-74.6623,5.44355],[-74.6623,5.44354],[-74.66204,5.44312],[-74.66167,5.4425],[-74.66165,5.44249],[-74.66162,5.44247],[-74.66159,5.44246],[-74.66155,5.44247],[-74.66152,5.44249],[-74.66151,5.44252],[-74.6615,5.44255],[-74.66151,5.44258],[-74.66151,5.4426],[-74.66188,5.44322],[-74.66189,5.44322]]]},"properties":{"OBJECTID_1":2,"OBJECTID":4,"ID_RONDA":4,"CODRONDA":"4","DRENAJE":" ","AREA_INF":10,"FAJA_PROTE":"Zona de Proteccion Hidraulica y Ambiental","AREA":11358.7965891,"PERIMETRO":1167.72680697,"Shape_Leng":1167.72683641,"Shape_Length":1167.2207655485176,"Shape_Area":11348.952575237598,"NOMBRE":"La_Dorada"}},{"type":"Feature","id":3,"geometry":{"type":"Polygon","coordinates":[[[-74.68369,5.48089],[-74.6837,5.48089],[-74.68371,5.48089],[-74.68371,5.48088],[-74.68372,5.48088],[-74.68373,5.48088],[-74.68374,5.48088],[-74.68375,5.48087],[-74.68376,5.48087],[-74.68459,5.48038],[-74.68518,5.48016],[-74.68587,5.48023],[-74.68651,5.48061],[-74.68651,5.48061],[-74.68652,5.48062],[-74.68653,5.48062],[-74.68654,5.48062],[-74.68654,5.48063],[-74.68655,5.48063],[-74.68656,5.48063],[-74.68657,5.48063],[-74.68658,5.48063],[-74.687,5.48064],[-74.687,5.48064],[-74.68701,5.48064],[-74.68702,5.48064],[-74.68703,5.48064],[-74.68703,5.48063],[-74.68704,5.48063],[-74.68705,5.48063],[-74.68706,5.48063],[-74.68707,5.48062],[-74.68707,5.48062],[-74.68708,5.48061],[-74.68741,5.48038],[-74.68741,5.48038],[-74.68742,5.48037],[-74.68743,5.48036],[-74.68743,5.48036],[-74.68835,5.47934],[-74.6886,5.47926],[-74.68918,5.47923],[-74.68918,5.47923],[-74.68919,5.47923],[-74.6892,5.47922],[-74.68921,5.47922],[-74.68922,5.47922],[-74.68923,5.47922],[-74.68923,5.47921],[-74.68924,5.47921],[-74.68925,5.4792],[-74.68926,5.4792],[-74.68926,5.47919],[-74.68927,5.47919],[-74.68928,5.47918],[-74.68928,5.47917],[-74.68929,5.47917],[-74.68929,5.47916],[-74.6893,5.47915],[-74.6893,5.47914],[-74.6893,5.47913],[-74.68931,5.47913],[-74.68931,5.47912],[-74.68931,5.47911],[-74.68931,5.4791],[-74.68931,5.47909],[-74.68931,5.47908],[-74.68931,5.47907],[-74.68931,5.47906],[-74.68931,5.47906],[-74.6893,5.47905],[-74.6893,5.47904],[-74.6893,5.47903],[-74.68929,5.47902],[-74.68929,5.47902],[-74.68928,5.47901],[-74.68928,5.479],[-74.68927,5.47899],[-74.68926,5.47899],[-74.68926,5.47898],[-74.68925,5.47898],[-74.68924,5.47897],[-74.68923,5.47897],[-74.68923,5.47897],[-74.68922,5.47896],[-74.68921,5.47896],[-74.6892,5.47896],[-74.68919,5.47896],[-74.68918,5.47896],[-74.68917,5.47896],[-74.68856,5.47899],[-74.68856,5.47899],[-74.68855,5.47899],[-74.68855,5.47899],[-74.68854,5.479],[-74.68853,5.479],[-74.68823,5.47909],[-74.68823,5.47909],[-74.68822,5.47909],[-74.68821,5.4791],[-74.6882,5.4791],[-74.6882,5.47911],[-74.68819,5.47911],[-74.68818,5.47912],[-74.68818,5.47912],[-74.68817,5.47913],[-74.68724,5.48017],[-74.68696,5.48037],[-74.68662,5.48036],[-74.68599,5.47998],[-74.68599,5.47998],[-74.68598,5.47998],[-74.68597,5.47997],[-74.68596,5.47997],[-74.68595,5.47997],[-74.68594,5.47996],[-74.68594,5.47996],[-74.68593,5.47996],[-74.68518,5.47988],[-74.68517,5.47988],[-74.68516,5.47988],[-74.68515,5.47988],[-74.68514,5.47988],[-74.68514,5.47988],[-74.68513,5.47989],[-74.68512,5.47989],[-74.68511,5.47989],[-74.68448,5.48014],[-74.68448,5.48014],[-74.68447,5.48014],[-74.68447,5.48014],[-74.68367,5.48061],[-74.68347,5.48056],[-74.68346,5.47944],[-74.68346,5.47943],[-74.68346,5.47942],[-74.68345,5.47941],[-74.68345,5.47941],[-74.68345,5.4794],[-74.68345,5.47939],[-74.68345,5.47939],[-74.68328,5.479],[-74.68328,5.47899],[-74.68327,5.47898],[-74.68327,5.47897],[-74.68326,5.47897],[-74.68326,5.47896],[-74.68325,5.47895],[-74.68325,5.47895],[-74.68324,5.47894],[-74.68323,5.47894],[-74.68322,5.47893],[-74.68322,5.47893],[-74.68321,5.47892],[-74.6832,5.47892],[-74.68319,5.47892],[-74.68319,5.47892],[-74.68287,5.47883],[-74.68286,5.47883],[-74.68285,5.47883],[-74.68284,5.47883],[-74.68284,5.47883],[-74.68247,5.47882],[-74.68211,5.47878],[-74.68175,5.47864],[-74.68148,5.47853],[-74.68116,5.47834],[-74.68115,5.47834],[-74.68115,5.47833],[-74.68114,5.47833],[-74.68113,5.47833],[-74.68113,5.47833],[-74.68067,5.47817],[-74.68066,5.47817],[-74.68066,5.47817],[-74.68018,5.47804],[-74.68018,5.47804],[-74.68017,5.47804],[-74.67976,5.47797],[-74.67975,5.47797],[-74.67974,5.47797],[-74.67973,5.47797],[-74.67973,5.47797],[-74.67972,5.47797],[-74.67971,5.47797],[-74.6797,5.47797],[-74.67969,5.47798],[-74.67968,5.47798],[-74.67968,5.47798],[-74.67967,5.47799],[-74.67966,5.47799],[-74.67966,5.47799],[-74.67965,5.478],[-74.67965,5.478],[-74.67965,5.478],[-74.67964,5.47801],[-74.67963,5.47802],[-74.67963,5.47802],[-74.67963,5.47802],[-74.67962,5.47803],[-74.67962,5.47803],[-74.67962,5.47804],[-74.67945,5.47833],[-74.67945,5.47833],[-74.67944,5.47834],[-74.67944,5.47834],[-74.67944,5.47835],[-74.67943,5.47836],[-74.67943,5.47837],[-74.67943,5.47838],[-74.67943,5.47839],[-74.67943,5.4784],[-74.67943,5.47841],[-74.67943,5.47841],[-74.67943,5.47842],[-74.67943,5.47843],[-74.67944,5.47844],[-74.67944,5.47845],[-74.67944,5.47845],[-74.67963,5.47884],[-74.67963,5.47884],[-74.67963,5.47885],[-74.67964,5.47886],[-74.67964,5.47887],[-74.67965,5.47887],[-74.67965,5.47888],[-74.67966,5.47888],[-74.67996,5.47916],[-74.68016,5.47942],[-74.68026,5.47983],[-74.68014,5.4801],[-74.67996,5.48025],[-74.67974,5.48029],[-74.67935,5.48034],[-74.67935,5.48034],[-74.67934,5.48034],[-74.67933,5.48034],[-74.67933,5.48034],[-74.67898,5.48044],[-74.67859,5.48052],[-74.67859,5.48052],[-74.67813,5.48063],[-74.67813,5.48063],[-74.67812,5.48063],[-74.67811,5.48063],[-74.6781,5.48064],[-74.6781,5.48064],[-74.67783,5.4808],[-74.67782,5.4808],[-74.67782,5.4808],[-74.67781,5.48081],[-74.6778,5.48081],[-74.6778,5.48082],[-74.67779,5.48082],[-74.67779,5.48083],[-74.67778,5.48084],[-74.67778,5.48085],[-74.67778,5.48085],[-74.67755,5.48124],[-74.67731,5.48163],[-74.67705,5.48202],[-74.67675,5.4823],[-74.67641,5.48247],[-74.67618,5.48255],[-74.67618,5.48255],[-74.67617,5.48255],[-74.67616,5.48255],[-74.67583,5.48271],[-74.67559,5.4828],[-74.67559,5.4828],[-74.67558,5.4828],[-74.67532,5.48292],[-74.67532,5.48293],[-74.67531,5.48293],[-74.6753,5.48293],[-74.6753,5.48294],[-74.67529,5.48295],[-74.67528,5.48295],[-74.67528,5.48296],[-74.67527,5.48296],[-74.6751,5.48317],[-74.6751,5.48317],[-74.67509,5.48318],[-74.67509,5.48319],[-74.67509,5.4832],[-74.67508,5.4832],[-74.67498,5.48345],[-74.67498,5.48345],[-74.67498,5.48346],[-74.67497,5.48346],[-74.67497,5.48347],[-74.67497,5.48348],[-74.67497,5.48348],[-74.67492,5.4839],[-74.67491,5.48391],[-74.67491,5.48391],[-74.67491,5.48392],[-74.67492,5.48393],[-74.67492,5.48394],[-74.67492,5.48395],[-74.67492,5.48396],[-74.67492,5.48397],[-74.67493,5.48397],[-74.67493,5.48398],[-74.67494,5.48399],[-74.6751,5.48424],[-74.6751,5.48424],[-74.67511,5.48425],[-74.67511,5.48426],[-74.67512,5.48426],[-74.67535,5.48451],[-74.67535,5.48451],[-74.67536,5.48451],[-74.67537,5.48452],[-74.67538,5.48452],[-74.67538,5.48452],[-74.67573,5.48475],[-74.67574,5.48475],[-74.67574,5.48475],[-74.67609,5.48496],[-74.67653,5.4853],[-74.67653,5.4853],[-74.67654,5.4853],[-74.6769,5.48555],[-74.67709,5.48574],[-74.6771,5.48575],[-74.6771,5.48575],[-74.67738,5.48599],[-74.6777,5.48644],[-74.67797,5.48703],[-74.67796,5.4873],[-74.67793,5.48764],[-74.67793,5.48765],[-74.67793,5.48766],[-74.67794,5.48812],[-74.67794,5.48813],[-74.67794,5.48814],[-74.67794,5.48815],[-74.67794,5.48815],[-74.67806,5.48868],[-74.67814,5.48918],[-74.67814,5.48919],[-74.67814,5.48919],[-74.67815,5.4892],[-74.67815,5.48921],[-74.67815,5.48921],[-74.67832,5.48959],[-74.67848,5.49012],[-74.67833,5.49039],[-74.67812,5.49077],[-74.67794,5.49103],[-74.67794,5.49103],[-74.67794,5.49104],[-74.67701,5.49256],[-74.67628,5.4933],[-74.67481,5.49408],[-74.67481,5.49408],[-74.6748,5.49408],[-74.67479,5.49409],[-74.67478,5.4941],[-74.67478,5.4941],[-74.67477,5.49411],[-74.67477,5.49411],[-74.67439,5.49461],[-74.67439,5.49461],[-74.67438,5.49461],[-74.67438,5.49462],[-74.67437,5.49463],[-74.67437,5.49464],[-74.67437,5.49465],[-74.67436,5.49466],[-74.67436,5.49466],[-74.67436,5.49467],[-74.67436,5.49468],[-74.67436,5.49469],[-74.67436,5.4947],[-74.67436,5.49471],[-74.67436,5.49472],[-74.67436,5.49473],[-74.67437,5.49473],[-74.67437,5.49474],[-74.67437,5.49475],[-74.67453,5.49509],[-74.67453,5.49509],[-74.67453,5.4951],[-74.67454,5.4951],[-74.67454,5.49511],[-74.67455,5.49512],[-74.67455,5.49513],[-74.67456,5.49513],[-74.67457,5.49514],[-74.67457,5.49514],[-74.67458,5.49515],[-74.67497,5.49537],[-74.67517,5.49566],[-74.67531,5.49601],[-74.67532,5.49602],[-74.67532,5.49603],[-74.67533,5.49604],[-74.67533,5.49604],[-74.67534,5.49605],[-74.67534,5.49606],[-74.67535,5.49606],[-74.67536,5.49607],[-74.67536,5.49607],[-74.67537,5.49608],[-74.67578,5.49633],[-74.67578,5.49633],[-74.67579,5.49633],[-74.6758,5.49634],[-74.67581,5.49634],[-74.67581,5.49634],[-74.67582,5.49635],[-74.67583,5.49635],[-74.67584,5.49635],[-74.67673,5.49641],[-74.67782,5.49663],[-74.67782,5.49663],[-74.67783,5.49663],[-74.67784,5.49664],[-74.67785,5.49664],[-74.67786,5.49664],[-74.67787,5.49663],[-74.67788,5.49663],[-74.67789,5.49663],[-74.67789,5.49663],[-74.6779,5.49663],[-74.67791,5.49662],[-74.67792,5.49662],[-74.67793,5.49661],[-74.67793,5.49661],[-74.67794,5.4966],[-74.67795,5.4966],[-74.67795,5.49659],[-74.67796,5.49658],[-74.67796,5.49657],[-74.67797,5.49657],[-74.67797,5.49656],[-74.67798,5.49655],[-74.67798,5.49654],[-74.67798,5.49653],[-74.67798,5.49653],[-74.67798,5.49652],[-74.67799,5.49651],[-74.67799,5.4965],[-74.67799,5.49649],[-74.67798,5.49648],[-74.67798,5.49647],[-74.67798,5.49646],[-74.67798,5.49646],[-74.67798,5.49645],[-74.67797,5.49644],[-74.67797,5.49643],[-74.67796,5.49642],[-74.67796,5.49642],[-74.67795,5.49641],[-74.67795,5.4964],[-74.67794,5.4964],[-74.67793,5.49639],[-74.67793,5.49639],[-74.67792,5.49638],[-74.67791,5.49638],[-74.6779,5.49637],[-74.67789,5.49637],[-74.67789,5.49637],[-74.67788,5.49637],[-74.67678,5.49614],[-74.67678,5.49614],[-74.67677,5.49614],[-74.67676,5.49614],[-74.67589,5.49608],[-74.67555,5.49587],[-74.67541,5.49554],[-74.67541,5.49553],[-74.6754,5.49552],[-74.6754,5.49551],[-74.6754,5.49551],[-74.67517,5.49519],[-74.67517,5.49519],[-74.67516,5.49518],[-74.67516,5.49518],[-74.67515,5.49517],[-74.67514,5.49517],[-74.67514,5.49516],[-74.67513,5.49516],[-74.67475,5.49493],[-74.67465,5.49471],[-74.67496,5.4943],[-74.67643,5.49353],[-74.67643,5.49353],[-74.67644,5.49352],[-74.67645,5.49352],[-74.67646,5.49351],[-74.67646,5.4935],[-74.67646,5.4935],[-74.67722,5.49273],[-74.67722,5.49273],[-74.67723,5.49272],[-74.67723,5.49271],[-74.67724,5.49271],[-74.67817,5.49118],[-74.67835,5.49092],[-74.67835,5.49092],[-74.67835,5.49091],[-74.67835,5.49091],[-74.67857,5.49053],[-74.67857,5.49053],[-74.67874,5.49021],[-74.67875,5.4902],[-74.67875,5.49019],[-74.67875,5.49018],[-74.67876,5.49018],[-74.67876,5.49017],[-74.67876,5.49016],[-74.67876,5.49015],[-74.67876,5.49014],[-74.67876,5.49013],[-74.67876,5.49012],[-74.67876,5.49011],[-74.67876,5.4901],[-74.67876,5.4901],[-74.67857,5.4895],[-74.67857,5.4895],[-74.67857,5.48949],[-74.67857,5.48949],[-74.6784,5.48912],[-74.67833,5.48863],[-74.67833,5.48863],[-74.67832,5.48863],[-74.67821,5.48811],[-74.6782,5.48766],[-74.67823,5.48732],[-74.67823,5.48732],[-74.67824,5.48731],[-74.67824,5.487],[-74.67824,5.487],[-74.67824,5.48699],[-74.67824,5.48698],[-74.67824,5.48697],[-74.67824,5.48697],[-74.67824,5.48696],[-74.67823,5.48695],[-74.67823,5.48694],[-74.67794,5.48631],[-74.67794,5.48631],[-74.67793,5.4863],[-74.67793,5.48629],[-74.67793,5.48629],[-74.67759,5.48581],[-74.67758,5.48581],[-74.67758,5.4858],[-74.67757,5.4858],[-74.67757,5.48579],[-74.67756,5.48579],[-74.67728,5.48554],[-74.67708,5.48535],[-74.67707,5.48534],[-74.67706,5.48534],[-74.67706,5.48533],[-74.67669,5.48508],[-74.67625,5.48473],[-74.67625,5.48473],[-74.67624,5.48473],[-74.67623,5.48472],[-74.67623,5.48472],[-74.67587,5.48452],[-74.67554,5.4843],[-74.67532,5.48408],[-74.67519,5.48388],[-74.67524,5.48354],[-74.67532,5.48333],[-74.67546,5.48316],[-74.67569,5.48305],[-74.67593,5.48296],[-74.67594,5.48296],[-74.67595,5.48296],[-74.67627,5.4828],[-74.67651,5.48272],[-74.67651,5.48272],[-74.67652,5.48272],[-74.67652,5.48272],[-74.67652,5.48272],[-74.67689,5.48253],[-74.6769,5.48253],[-74.67691,5.48252],[-74.67692,5.48252],[-74.67692,5.48251],[-74.67693,5.48251],[-74.67725,5.4822],[-74.67725,5.4822],[-74.67725,5.48219],[-74.67726,5.48219],[-74.67727,5.48218],[-74.67754,5.48177],[-74.67754,5.48177],[-74.67754,5.48177],[-74.67778,5.48138],[-74.67778,5.48138],[-74.67778,5.48138],[-74.67799,5.48101],[-74.67821,5.48089],[-74.67864,5.48079],[-74.67904,5.48071],[-74.67905,5.48071],[-74.67905,5.4807],[-74.67939,5.48061],[-74.67977,5.48056],[-74.67978,5.48056],[-74.67978,5.48056],[-74.68005,5.48051],[-74.68005,5.48051],[-74.68006,5.48051],[-74.68007,5.4805],[-74.68008,5.4805],[-74.68009,5.4805],[-74.68009,5.48049],[-74.6801,5.48049],[-74.68011,5.48048],[-74.68012,5.48048],[-74.68012,5.48048],[-74.68034,5.48028],[-74.68034,5.48027],[-74.68035,5.48027],[-74.68036,5.48026],[-74.68036,5.48025],[-74.68037,5.48025],[-74.68037,5.48024],[-74.68037,5.48023],[-74.68053,5.4799],[-74.68053,5.47989],[-74.68053,5.47988],[-74.68053,5.47988],[-74.68054,5.47987],[-74.68054,5.47986],[-74.68054,5.47985],[-74.68054,5.47984],[-74.68054,5.47983],[-74.68054,5.47982],[-74.68054,5.47981],[-74.68053,5.47981],[-74.68042,5.47933],[-74.68042,5.47933],[-74.68042,5.47932],[-74.68041,5.47931],[-74.68041,5.4793],[-74.6804,5.47929],[-74.6804,5.47929],[-74.6804,5.47928],[-74.68017,5.47898],[-74.68017,5.47898],[-74.68016,5.47898],[-74.68016,5.47897],[-74.68015,5.47896],[-74.67986,5.4787],[-74.67972,5.4784],[-74.6798,5.47825],[-74.68012,5.4783],[-74.68059,5.47843],[-74.68103,5.47858],[-74.68135,5.47877],[-74.68135,5.47877],[-74.68136,5.47877],[-74.68136,5.47877],[-74.68164,5.47889],[-74.68165,5.47889],[-74.68165,5.4789],[-74.68203,5.47904],[-74.68203,5.47904],[-74.68204,5.47904],[-74.68205,5.47904],[-74.68206,5.47905],[-74.68206,5.47905],[-74.68245,5.47909],[-74.68245,5.47909],[-74.68246,5.47909],[-74.68281,5.4791],[-74.68306,5.47916],[-74.68319,5.47947],[-74.6832,5.48067],[-74.6832,5.48067],[-74.6832,5.48068],[-74.6832,5.48069],[-74.6832,5.4807],[-74.68321,5.48071],[-74.68321,5.48072],[-74.68321,5.48073],[-74.68322,5.48073],[-74.68322,5.48074],[-74.68323,5.48075],[-74.68323,5.48076],[-74.68324,5.48076],[-74.68325,5.48077],[-74.68325,5.48077],[-74.68326,5.48078],[-74.68327,5.48078],[-74.68328,5.48079],[-74.68328,5.48079],[-74.68329,5.48079],[-74.6833,5.4808],[-74.6833,5.4808],[-74.68366,5.48088],[-74.68366,5.48088],[-74.68367,5.48089],[-74.68368,5.48089],[-74.68369,5.48089]]]},"properties":{"OBJECTID_1":3,"OBJECTID":7,"ID_RONDA":7,"CODRONDA":"7","DRENAJE":"Caño San Javier","AREA_INF":15,"FAJA_PROTE":"Zona de Proteccion Hidraulica y Ambiental","AREA":131386.395328,"PERIMETRO":8798.51159369,"Shape_Leng":8798.51198992,"Shape_Length":8794.745734274471,"Shape_Area":131273.93190869616,"NOMBRE":"La_Dorada"}},{"type":"Feature","id":4,"geometry":{"type":"Polygon","coordinates":[[[-74.66617,5.45947],[-74.66616,5.45948],[-74.66616,5.45949],[-74.66615,5.45949],[-74.66615,5.4595],[-74.66615,5.45951],[-74.66614,5.45952],[-74.66614,5.45953],[-74.66614,5.45953],[-74.66607,5.45991],[-74.66607,5.45992],[-74.66607,5.45992],[-74.66606,5.46003],[-74.66598,5.46026],[-74.66598,5.46026],[-74.66597,5.46027],[-74.66597,5.46028],[-74.66597,5.46029],[-74.66596,5.46038],[-74.66596,5.46038],[-74.66596,5.46039],[-74.66596,5.4604],[-74.66596,5.46041],[-74.66596,5.46042],[-74.66596,5.46043],[-74.66596,5.46044],[-74.66596,5.46044],[-74.66596,5.46044],[-74.66598,5.46049],[-74.66599,5.46066],[-74.66599,5.46084],[-74.66599,5.46085],[-74.66599,5.46085],[-74.66599,5.46086],[-74.66599,5.46087],[-74.66599,5.46088],[-74.66605,5.46111],[-74.66607,5.4612],[-74.66606,5.46123],[-74.66604,5.46129],[-74.666,5.46136],[-74.66594,5.46139],[-74.66587,5.46143],[-74.66551,5.46156],[-74.66541,5.46159],[-74.66541,5.46159],[-74.6654,5.46159],[-74.66539,5.4616],[-74.66538,5.4616],[-74.66538,5.46161],[-74.66537,5.46161],[-74.66536,5.46162],[-74.66536,5.46163],[-74.66535,5.46163],[-74.66535,5.46164],[-74.66534,5.46165],[-74.66534,5.46166],[-74.66533,5.46166],[-74.66533,5.46167],[-74.66533,5.46168],[-74.66533,5.46169],[-74.66532,5.4617],[-74.66532,5.46171],[-74.66532,5.46172],[-74.66519,5.46176],[-74.66518,5.46176],[-74.66517,5.46176],[-74.66516,5.46176],[-74.66516,5.46177],[-74.66515,5.46177],[-74.66462,5.46204],[-74.66461,5.46204],[-74.6646,5.46205],[-74.6646,5.46205],[-74.66459,5.46206],[-74.66458,5.46207],[-74.66458,5.46207],[-74.66457,5.46208],[-74.66439,5.46231],[-74.66438,5.46231],[-74.66438,5.46232],[-74.66437,5.46232],[-74.66437,5.46233],[-74.66437,5.46234],[-74.66436,5.46235],[-74.66436,5.46236],[-74.66436,5.46237],[-74.66436,5.46238],[-74.66436,5.46238],[-74.66436,5.46239],[-74.66436,5.4624],[-74.66436,5.46241],[-74.66436,5.46242],[-74.66436,5.46243],[-74.66436,5.46244],[-74.66437,5.46244],[-74.66437,5.46245],[-74.66437,5.46246],[-74.66438,5.46247],[-74.66438,5.46248],[-74.66439,5.46248],[-74.6644,5.46249],[-74.6644,5.46249],[-74.66441,5.4625],[-74.66442,5.46251],[-74.66442,5.46251],[-74.66443,5.46251],[-74.66444,5.46252],[-74.66445,5.46252],[-74.66446,5.46252],[-74.66446,5.46253],[-74.66447,5.46253],[-74.66448,5.46253],[-74.66449,5.46253],[-74.6645,5.46253],[-74.66451,5.46253],[-74.66452,5.46253],[-74.66453,5.46252],[-74.66453,5.46252],[-74.66454,5.46252],[-74.66455,5.46251],[-74.66456,5.46251],[-74.66457,5.46251],[-74.66457,5.4625],[-74.66458,5.46249],[-74.66459,5.46249],[-74.66459,5.46248],[-74.6646,5.46248],[-74.66476,5.46227],[-74.66526,5.46202],[-74.6655,5.46196],[-74.66551,5.46196],[-74.66552,5.46196],[-74.66553,5.46196],[-74.66553,5.46195],[-74.66554,5.46195],[-74.66555,5.46194],[-74.66556,5.46194],[-74.66556,5.46193],[-74.66557,5.46193],[-74.66558,5.46192],[-74.66558,5.46191],[-74.66559,5.46191],[-74.66559,5.4619],[-74.6656,5.46189],[-74.6656,5.46188],[-74.6656,5.46187],[-74.66561,5.46187],[-74.66561,5.46186],[-74.66561,5.46185],[-74.66561,5.46184],[-74.66561,5.46183],[-74.66561,5.46182],[-74.66561,5.46181],[-74.66561,5.46181],[-74.66561,5.46181],[-74.66597,5.46168],[-74.66597,5.46168],[-74.66598,5.46167],[-74.66598,5.46167],[-74.66606,5.46163],[-74.66607,5.46163],[-74.66607,5.46163],[-74.66617,5.46157],[-74.66617,5.46157],[-74.66618,5.46156],[-74.66619,5.46156],[-74.66619,5.46155],[-74.6662,5.46154],[-74.6662,5.46154],[-74.66621,5.46153],[-74.66621,5.46152],[-74.66628,5.46142],[-74.66628,5.46142],[-74.66628,5.46141],[-74.66628,5.4614],[-74.66629,5.4614],[-74.66632,5.46132],[-74.66632,5.46131],[-74.66632,5.4613],[-74.66632,5.46129],[-74.66632,5.46129],[-74.66634,5.46122],[-74.66634,5.46121],[-74.66634,5.4612],[-74.66634,5.46119],[-74.66634,5.46119],[-74.66634,5.46118],[-74.66634,5.46117],[-74.66634,5.46117],[-74.66631,5.46105],[-74.66631,5.46105],[-74.66626,5.46083],[-74.66626,5.46066],[-74.66626,5.46066],[-74.66626,5.46065],[-74.66626,5.46065],[-74.66625,5.46045],[-74.66625,5.46045],[-74.66625,5.46044],[-74.66625,5.46043],[-74.66624,5.46042],[-74.66624,5.46042],[-74.66623,5.46039],[-74.66624,5.46034],[-74.66632,5.4601],[-74.66632,5.4601],[-74.66632,5.46009],[-74.66632,5.46009],[-74.66633,5.46008],[-74.66633,5.46008],[-74.66634,5.45996],[-74.6664,5.45961],[-74.66647,5.45952],[-74.6665,5.4595],[-74.66655,5.45948],[-74.66666,5.45945],[-74.66696,5.45942],[-74.66703,5.45944],[-74.66708,5.45948],[-74.66708,5.45949],[-74.66709,5.45949],[-74.6671,5.4595],[-74.66711,5.4595],[-74.66711,5.45951],[-74.66712,5.45951],[-74.66713,5.45951],[-74.66714,5.45951],[-74.66715,5.45952],[-74.66716,5.45952],[-74.66716,5.45952],[-74.66726,5.45953],[-74.66726,5.45953],[-74.66727,5.45953],[-74.66728,5.45953],[-74.66728,5.45952],[-74.66729,5.45952],[-74.6673,5.45952],[-74.66731,5.45952],[-74.66732,5.45952],[-74.66735,5.4595],[-74.66749,5.45949],[-74.66766,5.45954],[-74.66774,5.45958],[-74.66779,5.45965],[-74.66781,5.45974],[-74.66781,5.45975],[-74.66781,5.45975],[-74.66781,5.45976],[-74.66784,5.45985],[-74.66786,5.45996],[-74.66786,5.45996],[-74.66787,5.45997],[-74.66787,5.45997],[-74.66787,5.45998],[-74.66787,5.45999],[-74.66788,5.46],[-74.66788,5.46001],[-74.66789,5.46001],[-74.66789,5.46002],[-74.6679,5.46003],[-74.66791,5.46003],[-74.66791,5.46004],[-74.66792,5.46004],[-74.66793,5.46005],[-74.66794,5.46005],[-74.66794,5.46006],[-74.66795,5.46006],[-74.66796,5.46006],[-74.66797,5.46006],[-74.66808,5.46009],[-74.66808,5.46009],[-74.66809,5.46009],[-74.66809,5.46009],[-74.66835,5.46011],[-74.66835,5.46011],[-74.66851,5.46012],[-74.66851,5.46012],[-74.66852,5.46012],[-74.66852,5.46012],[-74.66853,5.46012],[-74.66854,5.46012],[-74.66855,5.46012],[-74.66856,5.46012],[-74.66857,5.46011],[-74.66857,5.46011],[-74.66858,5.46011],[-74.66859,5.4601],[-74.6686,5.4601],[-74.6686,5.46009],[-74.66861,5.46008],[-74.66862,5.46008],[-74.66862,5.46007],[-74.66863,5.46006],[-74.66863,5.46006],[-74.66869,5.45998],[-74.66869,5.45998],[-74.66877,5.45985],[-74.66877,5.45984],[-74.66878,5.45983],[-74.66878,5.45982],[-74.66878,5.45982],[-74.66879,5.45981],[-74.66882,5.45971],[-74.66884,5.45967],[-74.66896,5.45954],[-74.66909,5.45942],[-74.66924,5.45934],[-74.66926,5.45933],[-74.66938,5.45931],[-74.66938,5.45931],[-74.66939,5.45931],[-74.6694,5.45931],[-74.6694,5.4593],[-74.66956,5.45924],[-74.66956,5.45924],[-74.66957,5.45924],[-74.66957,5.45923],[-74.66958,5.45923],[-74.66959,5.45922],[-74.6696,5.45922],[-74.6696,5.45921],[-74.66961,5.4592],[-74.66961,5.4592],[-74.66962,5.45919],[-74.66962,5.45918],[-74.66963,5.45918],[-74.66963,5.45917],[-74.66963,5.45916],[-74.66964,5.45915],[-74.66964,5.45914],[-74.66964,5.45913],[-74.66964,5.45912],[-74.66964,5.45912],[-74.66964,5.45911],[-74.66964,5.4591],[-74.66964,5.45909],[-74.66964,5.45908],[-74.66963,5.45907],[-74.66963,5.45907],[-74.66963,5.45907],[-74.66977,5.45891],[-74.66981,5.45888],[-74.66999,5.45878],[-74.67,5.45878],[-74.67,5.45878],[-74.67003,5.45876],[-74.67013,5.45871],[-74.67025,5.45867],[-74.67032,5.45864],[-74.67033,5.45864],[-74.67033,5.45864],[-74.6705,5.45856],[-74.67051,5.45856],[-74.67052,5.45855],[-74.67052,5.45855],[-74.67057,5.45852],[-74.67078,5.45845],[-74.67078,5.45845],[-74.67079,5.45845],[-74.6708,5.45845],[-74.67084,5.45843],[-74.67114,5.45831],[-74.67114,5.45831],[-74.67115,5.45831],[-74.67116,5.4583],[-74.67117,5.4583],[-74.67118,5.45829],[-74.67118,5.45829],[-74.67125,5.45823],[-74.67154,5.45814],[-74.67154,5.45814],[-74.67159,5.45812],[-74.67169,5.45814],[-74.67169,5.45814],[-74.6717,5.45814],[-74.67175,5.45814],[-74.67175,5.45814],[-74.67176,5.45814],[-74.67177,5.45814],[-74.67177,5.45814],[-74.67178,5.45814],[-74.67179,5.45814],[-74.6718,5.45814],[-74.67181,5.45813],[-74.67181,5.45813],[-74.67181,5.45813],[-74.67181,5.45813],[-74.67182,5.45813],[-74.67183,5.45813],[-74.67184,5.45814],[-74.67185,5.45814],[-74.67186,5.45814],[-74.67186,5.45813],[-74.6719,5.45813],[-74.6719,5.45813],[-74.67191,5.45813],[-74.67192,5.45813],[-74.67193,5.45812],[-74.67193,5.45812],[-74.67207,5.45806],[-74.67207,5.45806],[-74.67208,5.45806],[-74.67209,5.45806],[-74.6721,5.45805],[-74.6721,5.45805],[-74.67211,5.45804],[-74.67222,5.45794],[-74.67223,5.45794],[-74.67232,5.45796],[-74.67234,5.458],[-74.67239,5.45814],[-74.67239,5.45814],[-74.67239,5.45814],[-74.67239,5.45815],[-74.6724,5.45816],[-74.6724,5.45817],[-74.67241,5.45817],[-74.67241,5.45818],[-74.67242,5.45819],[-74.67243,5.45819],[-74.67243,5.4582],[-74.67244,5.45821],[-74.67245,5.45821],[-74.67245,5.45821],[-74.67246,5.45822],[-74.67247,5.45822],[-74.67248,5.45822],[-74.67249,5.45823],[-74.6725,5.45823],[-74.67251,5.45823],[-74.67251,5.45823],[-74.67252,5.45823],[-74.67253,5.45823],[-74.67254,5.45823],[-74.67255,5.45822],[-74.67256,5.45822],[-74.67257,5.45822],[-74.67257,5.45821],[-74.67258,5.45821],[-74.67259,5.4582],[-74.6726,5.4582],[-74.6726,5.45819],[-74.67261,5.45819],[-74.67262,5.45818],[-74.67262,5.45817],[-74.67263,5.45817],[-74.67263,5.45816],[-74.67264,5.45815],[-74.67264,5.45814],[-74.67264,5.45814],[-74.67265,5.45813],[-74.67265,5.45812],[-74.67265,5.45811],[-74.67265,5.4581],[-74.67265,5.45809],[-74.67265,5.45808],[-74.67265,5.45807],[-74.67265,5.45807],[-74.67265,5.45806],[-74.67264,5.45805],[-74.6726,5.45791],[-74.6726,5.45791],[-74.67259,5.4579],[-74.67258,5.45786],[-74.67256,5.4578],[-74.67256,5.4578],[-74.67256,5.45779],[-74.67256,5.45779],[-74.67255,5.45778],[-74.67255,5.45777],[-74.67254,5.45776],[-74.67254,5.45776],[-74.67253,5.45775],[-74.67253,5.45774],[-74.67252,5.45774],[-74.67251,5.45773],[-74.67251,5.45772],[-74.6725,5.45772],[-74.67249,5.45772],[-74.67248,5.45771],[-74.67247,5.45771],[-74.67246,5.45771],[-74.67246,5.4577],[-74.67245,5.4577],[-74.67224,5.45766],[-74.67223,5.45766],[-74.67222,5.45766],[-74.67221,5.45766],[-74.67221,5.45766],[-74.6722,5.45766],[-74.67219,5.45767],[-74.67218,5.45767],[-74.67217,5.45767],[-74.67216,5.45767],[-74.67216,5.45767],[-74.67209,5.4577],[-74.67209,5.45771],[-74.67208,5.45771],[-74.67207,5.45772],[-74.67207,5.45772],[-74.67206,5.45773],[-74.67195,5.45782],[-74.67189,5.45785],[-74.67188,5.45784],[-74.67187,5.45784],[-74.67187,5.45784],[-74.67186,5.45784],[-74.67185,5.45784],[-74.67184,5.45784],[-74.67183,5.45784],[-74.67182,5.45784],[-74.67181,5.45784],[-74.6718,5.45784],[-74.6718,5.45784],[-74.67179,5.45785],[-74.67179,5.45785],[-74.67173,5.45787],[-74.67173,5.45787],[-74.6716,5.45785],[-74.6716,5.45785],[-74.67159,5.45785],[-74.67158,5.45785],[-74.67157,5.45785],[-74.67156,5.45785],[-74.67156,5.45785],[-74.67155,5.45785],[-74.67154,5.45785],[-74.67146,5.45788],[-74.67114,5.45798],[-74.67114,5.45798],[-74.67113,5.45798],[-74.67112,5.45799],[-74.67111,5.45799],[-74.67111,5.45799],[-74.6711,5.458],[-74.67109,5.458],[-74.67102,5.45807],[-74.67074,5.45817],[-74.67073,5.45818],[-74.67073,5.45818],[-74.67069,5.4582],[-74.67047,5.45827],[-74.67047,5.45827],[-74.67046,5.45827],[-74.67046,5.45827],[-74.67045,5.45828],[-74.67045,5.45828],[-74.67039,5.45831],[-74.67022,5.45838],[-74.67015,5.45841],[-74.67015,5.45841],[-74.67003,5.45846],[-74.67002,5.45846],[-74.67002,5.45846],[-74.67001,5.45846],[-74.66991,5.45852],[-74.6699,5.45852],[-74.6699,5.45852],[-74.66986,5.45854],[-74.66968,5.45864],[-74.66967,5.45865],[-74.66966,5.45865],[-74.66966,5.45866],[-74.66965,5.45866],[-74.6696,5.45871],[-74.66959,5.45871],[-74.66958,5.45872],[-74.66958,5.45872],[-74.66937,5.45895],[-74.66937,5.45895],[-74.66937,5.45895],[-74.66936,5.45896],[-74.66936,5.45897],[-74.66935,5.45898],[-74.66935,5.45898],[-74.66935,5.45899],[-74.66934,5.459],[-74.66934,5.45901],[-74.66934,5.45902],[-74.66934,5.45903],[-74.66934,5.45904],[-74.66934,5.45904],[-74.66931,5.45905],[-74.66919,5.45907],[-74.66919,5.45907],[-74.66918,5.45907],[-74.66918,5.45908],[-74.66917,5.45908],[-74.66913,5.45909],[-74.66913,5.45909],[-74.66912,5.4591],[-74.66895,5.45918],[-74.66895,5.45918],[-74.66894,5.45919],[-74.66894,5.45919],[-74.66893,5.4592],[-74.66892,5.4592],[-74.66892,5.45921],[-74.66877,5.45935],[-74.66877,5.45935],[-74.66877,5.45935],[-74.66863,5.4595],[-74.66862,5.4595],[-74.66862,5.45951],[-74.66861,5.45951],[-74.66861,5.45952],[-74.6686,5.45953],[-74.6686,5.45953],[-74.66857,5.45961],[-74.66856,5.45961],[-74.66856,5.45962],[-74.66856,5.45963],[-74.66853,5.45971],[-74.66846,5.45983],[-74.66845,5.45985],[-74.66837,5.45984],[-74.66813,5.45982],[-74.66811,5.45982],[-74.66811,5.45979],[-74.66811,5.45979],[-74.6681,5.45978],[-74.6681,5.45977],[-74.66808,5.45969],[-74.66806,5.45958],[-74.66806,5.45957],[-74.66805,5.45957],[-74.66805,5.45956],[-74.66805,5.45955],[-74.66804,5.45954],[-74.66804,5.45953],[-74.66804,5.45953],[-74.66803,5.45952],[-74.66795,5.4594],[-74.66794,5.45939],[-74.66794,5.45938],[-74.66793,5.45938],[-74.66792,5.45937],[-74.66792,5.45937],[-74.66791,5.45936],[-74.6679,5.45936],[-74.66789,5.45935],[-74.66789,5.45935],[-74.66776,5.45929],[-74.66776,5.45928],[-74.66775,5.45928],[-74.66774,5.45928],[-74.66755,5.45922],[-74.66754,5.45922],[-74.66753,5.45922],[-74.66753,5.45922],[-74.66752,5.45922],[-74.66751,5.45922],[-74.6675,5.45922],[-74.6675,5.45922],[-74.66731,5.45923],[-74.66731,5.45923],[-74.6673,5.45923],[-74.66729,5.45924],[-74.66728,5.45924],[-74.66728,5.45924],[-74.66725,5.45925],[-74.66723,5.45925],[-74.66719,5.45921],[-74.66719,5.45921],[-74.66718,5.4592],[-74.66717,5.4592],[-74.66716,5.45919],[-74.66716,5.45919],[-74.66715,5.45918],[-74.66714,5.45918],[-74.66713,5.45918],[-74.66712,5.45918],[-74.66712,5.45918],[-74.66699,5.45915],[-74.66699,5.45915],[-74.66698,5.45915],[-74.66697,5.45915],[-74.66696,5.45915],[-74.66696,5.45915],[-74.66662,5.45918],[-74.66662,5.45918],[-74.66661,5.45919],[-74.6666,5.45919],[-74.6666,5.45919],[-74.66641,5.45924],[-74.6664,5.45924],[-74.66639,5.45925],[-74.66639,5.45925],[-74.66638,5.45925],[-74.66637,5.45926],[-74.6663,5.4593],[-74.6663,5.45931],[-74.66629,5.45931],[-74.66628,5.45932],[-74.66628,5.45932],[-74.66627,5.45933],[-74.66627,5.45934],[-74.66626,5.45934],[-74.66617,5.45947]]]},"properties":{"OBJECTID_1":4,"OBJECTID":8,"ID_RONDA":8,"CODRONDA":"8","DRENAJE":"Quebrada Aguas Blancas","AREA_INF":15,"FAJA_PROTE":"Zona de Proteccion Hidraulica y Ambiental","AREA":39442.3995374,"PERIMETRO":2662.89836439,"Shape_Leng":2662.89853392,"Shape_Length":2661.7487653338226,"Shape_Area":39408.351837055656,"NOMBRE":"La_Dorada"}},{"type":"Feature","id":5,"geometry":{"type":"Polygon","coordinates":[[[-74.66965,5.44672],[-74.66965,5.44672],[-74.66963,5.44675],[-74.66963,5.44675],[-74.66963,5.44675],[-74.66961,5.44677],[-74.66961,5.44677],[-74.66959,5.4468],[-74.66959,5.4468],[-74.66958,5.44682],[-74.66958,5.44682],[-74.66956,5.44684],[-74.66956,5.44685],[-74.66954,5.44687],[-74.66954,5.44687],[-74.66952,5.4469],[-74.66952,5.4469],[-74.66951,5.44692],[-74.66951,5.44692],[-74.66951,5.44692],[-74.66949,5.44695],[-74.66949,5.44695],[-74.66947,5.44697],[-74.66947,5.44697],[-74.66946,5.447],[-74.66946,5.447],[-74.66944,5.44702],[-74.66944,5.44702],[-74.66944,5.44702],[-74.66943,5.44705],[-74.66943,5.44705],[-74.66942,5.44707],[-74.66941,5.44707],[-74.6694,5.44709],[-74.6694,5.4471],[-74.6694,5.4471],[-74.66939,5.44712],[-74.66939,5.44712],[-74.66938,5.44714],[-74.66938,5.44714],[-74.66937,5.44716],[-74.66937,5.44717],[-74.66936,5.44719],[-74.66936,5.44719],[-74.66936,5.44719],[-74.66935,5.44721],[-74.66935,5.44721],[-74.66934,5.44723],[-74.66934,5.44723],[-74.66933,5.44726],[-74.66933,5.44726],[-74.66933,5.44728],[-74.66933,5.44728],[-74.66932,5.44731],[-74.66932,5.44731],[-74.66931,5.44733],[-74.66931,5.44733],[-74.66929,5.44738],[-74.66928,5.4474],[-74.66927,5.44743],[-74.66926,5.44745],[-74.66925,5.44748],[-74.66924,5.4475],[-74.66923,5.44753],[-74.66922,5.44756],[-74.66921,5.44758],[-74.6692,5.44761],[-74.66919,5.44763],[-74.66918,5.44766],[-74.66916,5.44768],[-74.66915,5.44771],[-74.66914,5.44773],[-74.66912,5.44775],[-74.66911,5.44778],[-74.6691,5.4478],[-74.66909,5.44782],[-74.66908,5.44784],[-74.66908,5.44784],[-74.66907,5.44786],[-74.66907,5.44786],[-74.66906,5.44787],[-74.66906,5.44787],[-74.66905,5.44789],[-74.66905,5.44789],[-74.66904,5.44791],[-74.66904,5.44791],[-74.66903,5.44793],[-74.66903,5.44793],[-74.66903,5.44793],[-74.66902,5.44795],[-74.66902,5.44795],[-74.66901,5.44796],[-74.66901,5.44797],[-74.66901,5.44797],[-74.66901,5.44799],[-74.669,5.44799],[-74.669,5.44801],[-74.669,5.44801],[-74.66899,5.44803],[-74.66899,5.44803],[-74.66899,5.44803],[-74.66898,5.44805],[-74.66898,5.44806],[-74.66898,5.44808],[-74.66898,5.44808],[-74.66897,5.44808],[-74.66897,5.4481],[-74.66897,5.44811],[-74.66896,5.44813],[-74.66896,5.44813],[-74.66896,5.44813],[-74.66896,5.44816],[-74.66896,5.44816],[-74.66896,5.44819],[-74.66896,5.44819],[-74.66895,5.44821],[-74.66895,5.44822],[-74.66895,5.44824],[-74.66895,5.44824],[-74.66895,5.44827],[-74.66894,5.44829],[-74.66894,5.44831],[-74.66894,5.44833],[-74.66893,5.44835],[-74.66893,5.44836],[-74.66893,5.44838],[-74.66892,5.44839],[-74.66892,5.44841],[-74.66891,5.44843],[-74.6689,5.44845],[-74.66889,5.44847],[-74.66888,5.4485],[-74.66887,5.44852],[-74.66885,5.44855],[-74.66884,5.44858],[-74.66881,5.44865],[-74.66881,5.44865],[-74.6688,5.44869],[-74.6688,5.44869],[-74.66878,5.44872],[-74.66878,5.44872],[-74.66876,5.44876],[-74.66876,5.44876],[-74.66875,5.44879],[-74.66875,5.44879],[-74.66873,5.44883],[-74.66873,5.44883],[-74.66872,5.44886],[-74.66872,5.44886],[-74.6687,5.4489],[-74.6687,5.4489],[-74.66869,5.44894],[-74.66869,5.44894],[-74.66867,5.44897],[-74.66867,5.44897],[-74.66866,5.44901],[-74.66866,5.44901],[-74.66864,5.44904],[-74.66864,5.44904],[-74.66863,5.44908],[-74.66863,5.44908],[-74.66861,5.44911],[-74.66861,5.44911],[-74.6686,5.44915],[-74.6686,5.44915],[-74.6686,5.44915],[-74.66858,5.44918],[-74.66858,5.44918],[-74.66857,5.44922],[-74.66857,5.44922],[-74.66855,5.44925],[-74.66855,5.44925],[-74.66854,5.44929],[-74.66854,5.44929],[-74.66853,5.44932],[-74.66853,5.44932],[-74.66852,5.44935],[-74.66852,5.44935],[-74.66852,5.44935],[-74.66851,5.44938],[-74.66851,5.44939],[-74.6685,5.44942],[-74.6685,5.44942],[-74.66849,5.44945],[-74.66849,5.44945],[-74.66848,5.44948],[-74.66848,5.44948],[-74.66848,5.44948],[-74.66847,5.44951],[-74.66847,5.44951],[-74.66846,5.44954],[-74.66846,5.44954],[-74.66846,5.44956],[-74.66846,5.44957],[-74.66845,5.44959],[-74.66845,5.44959],[-74.66845,5.44959],[-74.66845,5.44962],[-74.66845,5.44962],[-74.66844,5.44965],[-74.66844,5.44965],[-74.66844,5.44967],[-74.66844,5.44967],[-74.66843,5.4497],[-74.66843,5.4497],[-74.66843,5.4497],[-74.66843,5.44973],[-74.66843,5.44973],[-74.66843,5.44975],[-74.66843,5.44975],[-74.66842,5.44978],[-74.66842,5.44978],[-74.66842,5.44981],[-74.66842,5.44981],[-74.66842,5.44983],[-74.66842,5.44983],[-74.66842,5.44986],[-74.66842,5.44986],[-74.66841,5.44989],[-74.66841,5.44989],[-74.66841,5.44992],[-74.66841,5.44994],[-74.66841,5.44997],[-74.66841,5.44999],[-74.6684,5.45002],[-74.6684,5.45004],[-74.6684,5.45007],[-74.66839,5.45009],[-74.66839,5.45012],[-74.66839,5.45014],[-74.66838,5.45016],[-74.66838,5.45019],[-74.66837,5.45021],[-74.66837,5.45023],[-74.66836,5.45025],[-74.66836,5.45028],[-74.66835,5.4503],[-74.66835,5.45032],[-74.66834,5.45034],[-74.66833,5.45036],[-74.66833,5.45038],[-74.66832,5.4504],[-74.66831,5.45042],[-74.66831,5.45044],[-74.6683,5.45046],[-74.66829,5.45049],[-74.66828,5.45051],[-74.66827,5.45053],[-74.66826,5.45055],[-74.66825,5.45058],[-74.66824,5.4506],[-74.66823,5.45062],[-74.66822,5.45065],[-74.66821,5.45067],[-74.6682,5.4507],[-74.66818,5.45072],[-74.66817,5.45075],[-74.66816,5.45078],[-74.66815,5.4508],[-74.66813,5.45083],[-74.66812,5.45085],[-74.66811,5.45088],[-74.6681,5.4509],[-74.66808,5.45093],[-74.66807,5.45095],[-74.66806,5.45098],[-74.66804,5.45102],[-74.66802,5.45104],[-74.66802,5.45104],[-74.66801,5.45107],[-74.66801,5.45107],[-74.668,5.45109],[-74.668,5.45109],[-74.66799,5.45111],[-74.66799,5.45111],[-74.66798,5.45113],[-74.66798,5.45113],[-74.66797,5.45115],[-74.66797,5.45115],[-74.66796,5.45118],[-74.66796,5.45118],[-74.66795,5.4512],[-74.66795,5.4512],[-74.66794,5.45122],[-74.66794,5.45122],[-74.66792,5.45125],[-74.66792,5.45125],[-74.66791,5.45127],[-74.66791,5.45127],[-74.66788,5.45133],[-74.66787,5.45135],[-74.66786,5.45138],[-74.66784,5.45141],[-74.66783,5.45144],[-74.66781,5.45147],[-74.6678,5.45149],[-74.66779,5.45152],[-74.66777,5.45155],[-74.66776,5.45157],[-74.66774,5.4516],[-74.66773,5.45162],[-74.66771,5.45165],[-74.6677,5.45168],[-74.66768,5.4517],[-74.66766,5.45173],[-74.66764,5.45176],[-74.66762,5.45179],[-74.6676,5.45182],[-74.66758,5.45185],[-74.66756,5.45188],[-74.66754,5.45191],[-74.66752,5.45193],[-74.6675,5.45196],[-74.66748,5.45198],[-74.66747,5.452],[-74.66745,5.45202],[-74.66744,5.45204],[-74.66742,5.45206],[-74.66741,5.45208],[-74.6674,5.45209],[-74.6674,5.45209],[-74.66739,5.45211],[-74.66739,5.45211],[-74.66738,5.45212],[-74.66738,5.45212],[-74.66737,5.45214],[-74.66736,5.45214],[-74.66735,5.45215],[-74.66735,5.45215],[-74.66735,5.45215],[-74.66734,5.45216],[-74.66734,5.45216],[-74.66733,5.45218],[-74.66733,5.45218],[-74.66733,5.45219],[-74.66732,5.45219],[-74.66732,5.4522],[-74.66732,5.4522],[-74.66731,5.45221],[-74.66731,5.45222],[-74.6673,5.45223],[-74.6673,5.45223],[-74.66729,5.45224],[-74.66729,5.45224],[-74.66728,5.45225],[-74.66728,5.45226],[-74.66727,5.45227],[-74.66727,5.45227],[-74.66727,5.45227],[-74.66726,5.45228],[-74.66726,5.45228],[-74.66725,5.4523],[-74.66725,5.4523],[-74.66724,5.45231],[-74.66724,5.45231],[-74.66723,5.45232],[-74.66723,5.45233],[-74.66722,5.45234],[-74.66722,5.45234],[-74.66722,5.45235],[-74.66722,5.45235],[-74.66721,5.45235],[-74.66721,5.45237],[-74.66721,5.45237],[-74.6672,5.45238],[-74.6672,5.45238],[-74.66719,5.4524],[-74.66719,5.4524],[-74.66718,5.45241],[-74.66718,5.45241],[-74.66718,5.45242],[-74.66718,5.45243],[-74.66718,5.45243],[-74.66717,5.45245],[-74.66717,5.45245],[-74.66716,5.45246],[-74.66716,5.45246],[-74.66715,5.45248],[-74.66715,5.45248],[-74.66715,5.4525],[-74.66715,5.4525],[-74.66714,5.45251],[-74.66713,5.45253],[-74.66712,5.45255],[-74.66712,5.45257],[-74.66711,5.45258],[-74.6671,5.4526],[-74.66709,5.45262],[-74.66708,5.45263],[-74.66708,5.45265],[-74.66707,5.45267],[-74.66706,5.45268],[-74.66705,5.4527],[-74.66704,5.45271],[-74.66703,5.45272],[-74.66703,5.45274],[-74.66702,5.45275],[-74.66701,5.45276],[-74.667,5.45277],[-74.66699,5.45279],[-74.66698,5.4528],[-74.66696,5.45281],[-74.66695,5.45283],[-74.66694,5.45284],[-74.66693,5.45286],[-74.66692,5.45287],[-74.6669,5.45288],[-74.66689,5.4529],[-74.66688,5.45291],[-74.66686,5.45293],[-74.66686,5.45293],[-74.66685,5.45294],[-74.66685,5.45294],[-74.66684,5.45296],[-74.66684,5.45296],[-74.66682,5.45297],[-74.66682,5.45297],[-74.66681,5.45299],[-74.66681,5.45299],[-74.6668,5.453],[-74.6668,5.453],[-74.66678,5.45302],[-74.66678,5.45302],[-74.66677,5.45304],[-74.66677,5.45304],[-74.66677,5.45304],[-74.66675,5.45305],[-74.66675,5.45305],[-74.66674,5.45307],[-74.66674,5.45307],[-74.66672,5.45309],[-74.66672,5.45309],[-74.66671,5.45311],[-74.66671,5.45311],[-74.66669,5.45312],[-74.66669,5.45312],[-74.66668,5.45314],[-74.66668,5.45314],[-74.66666,5.45316],[-74.66666,5.45316],[-74.66665,5.45318],[-74.66665,5.45318],[-74.66664,5.45319],[-74.66663,5.45319],[-74.66662,5.45321],[-74.66662,5.45321],[-74.66661,5.45323],[-74.66661,5.45323],[-74.6666,5.45324],[-74.6666,5.45324],[-74.66658,5.45326],[-74.66658,5.45326],[-74.66658,5.45326],[-74.66657,5.45328],[-74.66657,5.45328],[-74.66656,5.45329],[-74.66656,5.45329],[-74.66655,5.45331],[-74.66655,5.45331],[-74.66654,5.45332],[-74.66654,5.45332],[-74.66653,5.45334],[-74.66653,5.45334],[-74.66652,5.45335],[-74.66651,5.45336],[-74.6665,5.45337],[-74.6665,5.45337],[-74.6665,5.45337],[-74.66649,5.45339],[-74.66649,5.45339],[-74.66649,5.4534],[-74.66648,5.4534],[-74.66648,5.45342],[-74.66648,5.45342],[-74.66647,5.45343],[-74.66647,5.45343],[-74.66646,5.45344],[-74.66646,5.45345],[-74.66645,5.45346],[-74.66645,5.45346],[-74.66645,5.45346],[-74.66644,5.45347],[-74.66644,5.45348],[-74.66643,5.45349],[-74.66643,5.45349],[-74.66643,5.4535],[-74.66643,5.4535],[-74.66642,5.45351],[-74.66642,5.45352],[-74.66642,5.45352],[-74.66641,5.45354],[-74.66641,5.45354],[-74.6664,5.45356],[-74.6664,5.45356],[-74.6664,5.45356],[-74.66639,5.45358],[-74.66639,5.45358],[-74.66639,5.4536],[-74.66639,5.4536],[-74.66638,5.45362],[-74.66638,5.45363],[-74.66637,5.45365],[-74.66637,5.45365],[-74.66637,5.45365],[-74.66636,5.45367],[-74.66636,5.45367],[-74.66635,5.45369],[-74.66635,5.4537],[-74.66635,5.45372],[-74.66635,5.45372],[-74.66634,5.45374],[-74.66634,5.45374],[-74.66634,5.45374],[-74.66633,5.45376],[-74.66633,5.45377],[-74.66633,5.45379],[-74.66633,5.45379],[-74.66632,5.45381],[-74.66632,5.45381],[-74.66632,5.45381],[-74.66632,5.45383],[-74.66632,5.45383],[-74.66632,5.45385],[-74.66632,5.45385],[-74.66631,5.45387],[-74.66631,5.45387],[-74.66631,5.45387],[-74.66631,5.45389],[-74.66631,5.45389],[-74.66631,5.45391],[-74.66631,5.45391],[-74.66631,5.45393],[-74.66631,5.45393],[-74.66631,5.45395],[-74.66631,5.45395],[-74.66631,5.45395],[-74.66631,5.45397],[-74.66631,5.45397],[-74.6663,5.45399],[-74.6663,5.45399],[-74.6663,5.45401],[-74.6663,5.45401],[-74.6663,5.45401],[-74.6663,5.45403],[-74.6663,5.45403],[-74.66631,5.45405],[-74.66631,5.45405],[-74.66631,5.45407],[-74.66631,5.45407],[-74.66631,5.45409],[-74.66631,5.45409],[-74.66631,5.45411],[-74.66631,5.45413],[-74.66631,5.45415],[-74.66631,5.45417],[-74.66631,5.45419],[-74.66631,5.45421],[-74.66631,5.45423],[-74.66631,5.45424],[-74.66631,5.45426],[-74.6663,5.45428],[-74.6663,5.4543],[-74.6663,5.4543],[-74.66627,5.45434],[-74.66627,5.45434],[-74.66626,5.45435],[-74.66626,5.45436],[-74.66626,5.45437],[-74.66625,5.45438],[-74.66625,5.45438],[-74.66625,5.45439],[-74.66625,5.4544],[-74.66625,5.45441],[-74.66625,5.45442],[-74.66624,5.45454],[-74.66624,5.45455],[-74.66624,5.45455],[-74.66624,5.45456],[-74.66625,5.45457],[-74.66625,5.45458],[-74.66625,5.45459],[-74.66625,5.45459],[-74.66625,5.45459],[-74.66625,5.45461],[-74.66625,5.45461],[-74.66624,5.45464],[-74.66624,5.45464],[-74.66624,5.45466],[-74.66624,5.45466],[-74.66624,5.45468],[-74.66624,5.45468],[-74.66624,5.45468],[-74.66623,5.4547],[-74.66623,5.4547],[-74.66623,5.45473],[-74.66623,5.45474],[-74.66623,5.45474],[-74.66623,5.45475],[-74.66623,5.45476],[-74.66623,5.45477],[-74.66623,5.45477],[-74.66623,5.45478],[-74.66623,5.45479],[-74.66623,5.45481],[-74.66623,5.45482],[-74.66623,5.45482],[-74.66623,5.45485],[-74.66623,5.45485],[-74.66623,5.45485],[-74.66622,5.45486],[-74.66622,5.45487],[-74.66622,5.45487],[-74.66621,5.45488],[-74.66621,5.45489],[-74.66621,5.4549],[-74.66621,5.45491],[-74.66621,5.45491],[-74.66621,5.45492],[-74.66621,5.45492],[-74.6662,5.45493],[-74.6662,5.45493],[-74.66619,5.45494],[-74.66619,5.45495],[-74.66618,5.45496],[-74.66618,5.45497],[-74.66618,5.45497],[-74.66617,5.45498],[-74.66617,5.45499],[-74.66617,5.455],[-74.66617,5.45501],[-74.66617,5.45506],[-74.66617,5.45506],[-74.66618,5.45507],[-74.66618,5.45507],[-74.66619,5.45515],[-74.66619,5.45515],[-74.66619,5.45518],[-74.66618,5.4552],[-74.66618,5.45522],[-74.66618,5.45523],[-74.66618,5.45525],[-74.66617,5.45526],[-74.66617,5.45528],[-74.66617,5.45529],[-74.66616,5.4553],[-74.66616,5.4553],[-74.66616,5.45531],[-74.66615,5.45532],[-74.66615,5.45532],[-74.66615,5.45533],[-74.66614,5.45533],[-74.66614,5.45534],[-74.66613,5.45535],[-74.66612,5.45535],[-74.66611,5.45536],[-74.66611,5.45536],[-74.66611,5.45536],[-74.6661,5.45537],[-74.6661,5.45537],[-74.66609,5.45538],[-74.66609,5.45539],[-74.66609,5.45539],[-74.66608,5.4554],[-74.66608,5.4554],[-74.66607,5.45541],[-74.66607,5.45541],[-74.66606,5.45542],[-74.66606,5.45543],[-74.66605,5.45543],[-74.66605,5.45544],[-74.66604,5.45545],[-74.66604,5.45545],[-74.66604,5.45545],[-74.66603,5.45547],[-74.66603,5.45547],[-74.66603,5.45547],[-74.66602,5.45549],[-74.66602,5.45549],[-74.66601,5.45551],[-74.66601,5.45551],[-74.66601,5.45552],[-74.66601,5.45553],[-74.66601,5.45553],[-74.666,5.45554],[-74.666,5.45555],[-74.666,5.45556],[-74.666,5.45556],[-74.66599,5.45558],[-74.66599,5.45558],[-74.66599,5.4556],[-74.66599,5.4556],[-74.66599,5.45561],[-74.66598,5.45563],[-74.66598,5.45563],[-74.66598,5.45565],[-74.66598,5.45565],[-74.66598,5.45565],[-74.66598,5.45567],[-74.66598,5.45568],[-74.66598,5.4557],[-74.66598,5.4557],[-74.66598,5.4557],[-74.66597,5.45572],[-74.66597,5.45572],[-74.66597,5.45574],[-74.66597,5.45575],[-74.66597,5.45577],[-74.66597,5.45577],[-74.66597,5.45577],[-74.66597,5.45579],[-74.66597,5.45579],[-74.66597,5.45581],[-74.66597,5.45581],[-74.66597,5.45583],[-74.66597,5.45583],[-74.66598,5.45585],[-74.66598,5.45585],[-74.66598,5.45587],[-74.66598,5.45587],[-74.66598,5.45587],[-74.66598,5.45589],[-74.66598,5.45589],[-74.66598,5.45591],[-74.66598,5.45591],[-74.66598,5.45593],[-74.66598,5.45593],[-74.66598,5.45595],[-74.66598,5.45595],[-74.66599,5.45597],[-74.66599,5.45597],[-74.66599,5.45599],[-74.66599,5.45599],[-74.66599,5.45601],[-74.66599,5.45603],[-74.66599,5.45605],[-74.66599,5.45607],[-74.666,5.45609],[-74.666,5.45611],[-74.666,5.45613],[-74.666,5.45615],[-74.666,5.45617],[-74.666,5.45619],[-74.666,5.45621],[-74.666,5.45623],[-74.666,5.45625],[-74.666,5.45627],[-74.666,5.45628],[-74.666,5.4563],[-74.666,5.45632],[-74.666,5.45633],[-74.666,5.45635],[-74.66599,5.45637],[-74.66599,5.45639],[-74.66599,5.4564],[-74.66599,5.45642],[-74.66598,5.45644],[-74.66598,5.45646],[-74.66597,5.45648],[-74.66597,5.4565],[-74.66596,5.45651],[-74.66596,5.45653],[-74.66596,5.45655],[-74.66595,5.45656],[-74.66595,5.45657],[-74.66595,5.45659],[-74.66594,5.4566],[-74.66594,5.45661],[-74.66594,5.45662],[-74.66593,5.45663],[-74.66593,5.45665],[-74.66592,5.45666],[-74.66592,5.45667],[-74.66592,5.45667],[-74.66591,5.45669],[-74.66591,5.45669],[-74.66591,5.4567],[-74.66591,5.4567],[-74.66591,5.4567],[-74.66591,5.45671],[-74.6659,5.45672],[-74.6659,5.45673],[-74.6659,5.45673],[-74.6659,5.45674],[-74.6659,5.45675],[-74.6659,5.45675],[-74.66589,5.45676],[-74.66589,5.45676],[-74.66589,5.45677],[-74.66589,5.45678],[-74.66589,5.45679],[-74.66589,5.45679],[-74.66588,5.4568],[-74.66588,5.45681],[-74.66588,5.45682],[-74.66588,5.45683],[-74.66587,5.45684],[-74.66587,5.45685],[-74.66587,5.45685],[-74.66587,5.45686],[-74.66586,5.45687],[-74.66586,5.45687],[-74.66586,5.45687],[-74.66586,5.45688],[-74.66586,5.45688],[-74.66586,5.45688],[-74.66586,5.45688],[-74.66585,5.45688],[-74.66585,5.45688],[-74.66585,5.45689],[-74.66585,5.45689],[-74.66584,5.45689],[-74.66584,5.4569],[-74.66583,5.4569],[-74.66582,5.4569],[-74.66582,5.45691],[-74.66581,5.45691],[-74.6658,5.45692],[-74.66579,5.45692],[-74.66578,5.45692],[-74.66577,5.45693],[-74.66576,5.45693],[-74.66575,5.45694],[-74.66575,5.45694],[-74.66574,5.45695],[-74.66573,5.45695],[-74.66572,5.45695],[-74.66572,5.45695],[-74.66571,5.45696],[-74.66571,5.45696],[-74.66571,5.45696],[-74.6657,5.45696],[-74.66569,5.45697],[-74.66568,5.45697],[-74.66568,5.45697],[-74.66568,5.45697],[-74.66567,5.45698],[-74.66567,5.45698],[-74.66567,5.45698],[-74.66566,5.45699],[-74.66565,5.45699],[-74.66565,5.45699],[-74.66564,5.457],[-74.66564,5.457],[-74.66564,5.45701],[-74.66563,5.45701],[-74.66562,5.45702],[-74.66562,5.45702],[-74.66562,5.45703],[-74.66561,5.45703],[-74.66561,5.45703],[-74.66561,5.45704],[-74.6656,5.45704],[-74.6656,5.45705],[-74.66559,5.45706],[-74.66559,5.45706],[-74.66559,5.45706],[-74.66559,5.45707],[-74.66558,5.45708],[-74.66558,5.45708],[-74.66558,5.45709],[-74.66558,5.45709],[-74.66557,5.4571],[-74.66557,5.45711],[-74.66557,5.45711],[-74.66557,5.45712],[-74.66557,5.45712],[-74.66557,5.45713],[-74.66557,5.45714],[-74.66557,5.45714],[-74.66557,5.45715],[-74.66557,5.45716],[-74.66557,5.45716],[-74.66557,5.45717],[-74.66557,5.45718],[-74.66557,5.45719],[-74.66557,5.4572],[-74.66557,5.4572],[-74.66558,5.45721],[-74.66558,5.45722],[-74.66558,5.45722],[-74.66558,5.45723],[-74.66559,5.45724],[-74.66559,5.45725],[-74.66559,5.45727],[-74.66559,5.45727],[-74.6656,5.45727],[-74.6656,5.4573],[-74.6656,5.4573],[-74.66562,5.45733],[-74.66562,5.45733],[-74.66563,5.45736],[-74.66563,5.45736],[-74.66564,5.4574],[-74.66564,5.4574],[-74.66566,5.45744],[-74.66566,5.45744],[-74.66567,5.45748],[-74.66569,5.45752],[-74.6657,5.45756],[-74.66571,5.45759],[-74.66572,5.45762],[-74.66573,5.45765],[-74.66574,5.45767],[-74.66575,5.45769],[-74.66575,5.45771],[-74.66576,5.45773],[-74.66577,5.45774],[-74.66577,5.45776],[-74.66577,5.45776],[-74.66578,5.45777],[-74.66578,5.45777],[-74.66578,5.45779],[-74.66578,5.45779],[-74.66579,5.45781],[-74.66579,5.45781],[-74.66579,5.45782],[-74.66579,5.45782],[-74.66579,5.45782],[-74.6658,5.45784],[-74.6658,5.45784],[-74.6658,5.45785],[-74.6658,5.45785],[-74.66581,5.45787],[-74.66581,5.45787],[-74.66582,5.45789],[-74.66582,5.45789],[-74.66582,5.45791],[-74.66582,5.45791],[-74.66583,5.45792],[-74.66583,5.45793],[-74.66583,5.45794],[-74.66583,5.45794],[-74.66584,5.45796],[-74.66584,5.45796],[-74.66585,5.45798],[-74.66585,5.45799],[-74.66586,5.45801],[-74.66586,5.45801],[-74.66587,5.45803],[-74.66587,5.45803],[-74.66587,5.45805],[-74.66587,5.45805],[-74.66588,5.45808],[-74.66588,5.45808],[-74.66589,5.4581],[-74.66589,5.45811],[-74.6659,5.45813],[-74.6659,5.45813],[-74.66591,5.45816],[-74.66591,5.45816],[-74.66592,5.45819],[-74.66592,5.45819],[-74.66593,5.45822],[-74.66593,5.45822],[-74.66595,5.45824],[-74.66595,5.45824],[-74.66596,5.45827],[-74.66596,5.45827],[-74.66597,5.4583],[-74.66597,5.4583],[-74.66598,5.45833],[-74.66598,5.45833],[-74.66599,5.45836],[-74.66599,5.45836],[-74.666,5.45839],[-74.666,5.45839],[-74.66601,5.45841],[-74.66601,5.45841],[-74.66602,5.45844],[-74.66602,5.45844],[-74.66603,5.45847],[-74.66603,5.45847],[-74.66605,5.4585],[-74.66605,5.4585],[-74.66606,5.45853],[-74.66606,5.45853],[-74.66607,5.45857],[-74.66607,5.45857],[-74.66608,5.4586],[-74.66608,5.4586],[-74.6661,5.45864],[-74.6661,5.45864],[-74.66611,5.45867],[-74.66615,5.45876],[-74.66616,5.4588],[-74.66618,5.45885],[-74.66621,5.45891],[-74.66623,5.45897],[-74.66625,5.45903],[-74.66628,5.45909],[-74.6663,5.45916],[-74.66633,5.45923],[-74.66635,5.45928],[-74.66637,5.45926],[-74.66641,5.45924],[-74.6666,5.45919],[-74.66658,5.45914],[-74.66658,5.45914],[-74.66656,5.45906],[-74.66656,5.45906],[-74.66653,5.459],[-74.66653,5.459],[-74.6665,5.45893],[-74.6665,5.45893],[-74.66648,5.45887],[-74.66648,5.45887],[-74.66646,5.45881],[-74.66646,5.45881],[-74.66644,5.45876],[-74.66644,5.45875],[-74.66642,5.4587],[-74.66642,5.4587],[-74.6664,5.45866],[-74.66636,5.45857],[-74.66635,5.45854],[-74.66633,5.4585],[-74.66632,5.45847],[-74.66631,5.45843],[-74.6663,5.4584],[-74.66629,5.45837],[-74.66627,5.45835],[-74.66626,5.45832],[-74.66625,5.45829],[-74.66624,5.45826],[-74.66623,5.45823],[-74.66622,5.4582],[-74.66621,5.45818],[-74.6662,5.45815],[-74.66619,5.45812],[-74.66618,5.45809],[-74.66617,5.45806],[-74.66616,5.45804],[-74.66615,5.45801],[-74.66614,5.45799],[-74.66613,5.45796],[-74.66612,5.45794],[-74.66611,5.45791],[-74.6661,5.45789],[-74.6661,5.45787],[-74.66609,5.45785],[-74.66608,5.45783],[-74.66608,5.45782],[-74.66607,5.4578],[-74.66606,5.45778],[-74.66606,5.45777],[-74.66605,5.45775],[-74.66605,5.45773],[-74.66604,5.45772],[-74.66604,5.4577],[-74.66603,5.45769],[-74.66603,5.45767],[-74.66602,5.45766],[-74.66602,5.45766],[-74.66602,5.45764],[-74.66602,5.45764],[-74.66601,5.45762],[-74.66601,5.45762],[-74.666,5.4576],[-74.666,5.4576],[-74.666,5.4576],[-74.666,5.45758],[-74.666,5.45758],[-74.66599,5.45756],[-74.66599,5.45756],[-74.66598,5.45753],[-74.66598,5.45753],[-74.66597,5.4575],[-74.66597,5.4575],[-74.66596,5.45747],[-74.66596,5.45746],[-74.66594,5.45743],[-74.66594,5.45743],[-74.66593,5.45739],[-74.66593,5.45739],[-74.66591,5.45735],[-74.6659,5.45731],[-74.66588,5.45727],[-74.66587,5.45724],[-74.66586,5.4572],[-74.66585,5.45719],[-74.66586,5.45719],[-74.66587,5.45718],[-74.66587,5.45718],[-74.66588,5.45718],[-74.66588,5.45718],[-74.66589,5.45717],[-74.6659,5.45717],[-74.66591,5.45717],[-74.66591,5.45716],[-74.66592,5.45716],[-74.66592,5.45716],[-74.66592,5.45716],[-74.66593,5.45715],[-74.66593,5.45715],[-74.66594,5.45715],[-74.66595,5.45715],[-74.66596,5.45714],[-74.66596,5.45714],[-74.66596,5.45714],[-74.66597,5.45713],[-74.66597,5.45713],[-74.66598,5.45713],[-74.66598,5.45712],[-74.66599,5.45712],[-74.66599,5.45712],[-74.666,5.45712],[-74.666,5.45711],[-74.66601,5.45711],[-74.66602,5.4571],[-74.66602,5.4571],[-74.66602,5.4571],[-74.66603,5.45709],[-74.66603,5.45709],[-74.66603,5.45709],[-74.66604,5.45708],[-74.66604,5.45708],[-74.66605,5.45707],[-74.66605,5.45707],[-74.66606,5.45706],[-74.66606,5.45705],[-74.66607,5.45705],[-74.66608,5.45704],[-74.66608,5.45704],[-74.66608,5.45703],[-74.66609,5.45703],[-74.66609,5.45702],[-74.66609,5.45702],[-74.6661,5.45701],[-74.6661,5.45701],[-74.6661,5.457],[-74.6661,5.45699],[-74.66611,5.45699],[-74.66611,5.45699],[-74.66611,5.45698],[-74.66611,5.45697],[-74.66611,5.45697],[-74.66612,5.45696],[-74.66612,5.45696],[-74.66612,5.45695],[-74.66612,5.45694],[-74.66613,5.45694],[-74.66613,5.45693],[-74.66613,5.45693],[-74.66613,5.45692],[-74.66613,5.45691],[-74.66614,5.4569],[-74.66614,5.4569],[-74.66614,5.4569],[-74.66614,5.45689],[-74.66614,5.45688],[-74.66614,5.45687],[-74.66614,5.45687],[-74.66615,5.45686],[-74.66615,5.45686],[-74.66615,5.45685],[-74.66615,5.45684],[-74.66615,5.45683],[-74.66616,5.45682],[-74.66616,5.45681],[-74.66616,5.4568],[-74.66617,5.45679],[-74.66617,5.45677],[-74.66617,5.45676],[-74.66618,5.45675],[-74.66618,5.45675],[-74.66618,5.45674],[-74.66618,5.45673],[-74.66619,5.45672],[-74.66619,5.45672],[-74.66619,5.45672],[-74.66619,5.45671],[-74.66619,5.4567],[-74.6662,5.45669],[-74.6662,5.45669],[-74.6662,5.45667],[-74.6662,5.45667],[-74.66621,5.45666],[-74.66621,5.45666],[-74.66621,5.45666],[-74.66621,5.45664],[-74.66621,5.45664],[-74.66622,5.45663],[-74.66622,5.45663],[-74.66622,5.45661],[-74.66622,5.45661],[-74.66622,5.45659],[-74.66622,5.45659],[-74.66623,5.45658],[-74.66623,5.45658],[-74.66623,5.45656],[-74.66623,5.45656],[-74.66624,5.45654],[-74.66624,5.45654],[-74.66624,5.45652],[-74.66624,5.45652],[-74.66625,5.4565],[-74.66625,5.4565],[-74.66625,5.45648],[-74.66625,5.45647],[-74.66625,5.45647],[-74.66625,5.45645],[-74.66625,5.45645],[-74.66626,5.45643],[-74.66626,5.45643],[-74.66626,5.45641],[-74.66626,5.45641],[-74.66627,5.45639],[-74.66627,5.45639],[-74.66627,5.45639],[-74.66627,5.45637],[-74.66627,5.45636],[-74.66627,5.45634],[-74.66627,5.45634],[-74.66627,5.45632],[-74.66627,5.45632],[-74.66627,5.45632],[-74.66627,5.4563],[-74.66627,5.4563],[-74.66627,5.45628],[-74.66627,5.45627],[-74.66628,5.45625],[-74.66628,5.45625],[-74.66628,5.45625],[-74.66628,5.45623],[-74.66628,5.45623],[-74.66627,5.45621],[-74.66627,5.45621],[-74.66627,5.45618],[-74.66627,5.45618],[-74.66627,5.45616],[-74.66627,5.45616],[-74.66627,5.45614],[-74.66627,5.45614],[-74.66627,5.45614],[-74.66627,5.45611],[-74.66627,5.45611],[-74.66627,5.45609],[-74.66627,5.45609],[-74.66627,5.45607],[-74.66627,5.45607],[-74.66626,5.45605],[-74.66626,5.45605],[-74.66626,5.45603],[-74.66626,5.45603],[-74.66626,5.45601],[-74.66626,5.45601],[-74.66626,5.45599],[-74.66626,5.45599],[-74.66626,5.45597],[-74.66625,5.45595],[-74.66625,5.45593],[-74.66625,5.45591],[-74.66625,5.45589],[-74.66625,5.45587],[-74.66625,5.45586],[-74.66625,5.45584],[-74.66624,5.45582],[-74.66624,5.4558],[-74.66624,5.45579],[-74.66624,5.45577],[-74.66624,5.45575],[-74.66624,5.45573],[-74.66625,5.45572],[-74.66625,5.4557],[-74.66625,5.45568],[-74.66625,5.45567],[-74.66625,5.45565],[-74.66626,5.45564],[-74.66626,5.45563],[-74.66626,5.45562],[-74.66627,5.45561],[-74.66627,5.4556],[-74.66627,5.4556],[-74.66628,5.45559],[-74.66628,5.45558],[-74.66628,5.45558],[-74.66629,5.45557],[-74.66629,5.45557],[-74.6663,5.45556],[-74.6663,5.45556],[-74.66631,5.45555],[-74.66631,5.45555],[-74.66632,5.45554],[-74.66632,5.45554],[-74.66632,5.45554],[-74.66633,5.45553],[-74.66634,5.45552],[-74.66634,5.45551],[-74.66635,5.45551],[-74.66635,5.45551],[-74.66636,5.4555],[-74.66636,5.45549],[-74.66636,5.45549],[-74.66637,5.45548],[-74.66637,5.45548],[-74.66637,5.45548],[-74.66638,5.45546],[-74.66639,5.45546],[-74.66639,5.45544],[-74.66639,5.45544],[-74.6664,5.45544],[-74.6664,5.45542],[-74.6664,5.45542],[-74.66641,5.45542],[-74.66641,5.4554],[-74.66642,5.4554],[-74.66642,5.45539],[-74.66642,5.45538],[-74.66642,5.45537],[-74.66643,5.45537],[-74.66643,5.45535],[-74.66643,5.45535],[-74.66643,5.45535],[-74.66644,5.45533],[-74.66644,5.45532],[-74.66644,5.4553],[-74.66644,5.4553],[-74.66644,5.4553],[-74.66645,5.45527],[-74.66645,5.45527],[-74.66645,5.45527],[-74.66645,5.45525],[-74.66645,5.45525],[-74.66645,5.45522],[-74.66645,5.45522],[-74.66646,5.4552],[-74.66646,5.4552],[-74.66646,5.45517],[-74.66646,5.45517],[-74.66646,5.45515],[-74.66646,5.45515],[-74.66646,5.45514],[-74.66646,5.45513],[-74.66646,5.45512],[-74.66646,5.45512],[-74.66645,5.45507],[-74.66645,5.45506],[-74.66646,5.45505],[-74.66646,5.45504],[-74.66646,5.45503],[-74.66647,5.45503],[-74.66647,5.45502],[-74.66647,5.45501],[-74.66647,5.455],[-74.66647,5.45496],[-74.66648,5.45495],[-74.66648,5.45495],[-74.66649,5.45494],[-74.66649,5.45493],[-74.66649,5.45492],[-74.6665,5.45491],[-74.6665,5.4549],[-74.6665,5.45489],[-74.6665,5.45489],[-74.6665,5.45486],[-74.6665,5.45485],[-74.6665,5.45483],[-74.6665,5.45483],[-74.6665,5.45482],[-74.6665,5.4548],[-74.66651,5.4548],[-74.66651,5.45479],[-74.66651,5.45477],[-74.66651,5.45476],[-74.6665,5.45475],[-74.6665,5.45474],[-74.6665,5.45474],[-74.6665,5.45474],[-74.6665,5.45472],[-74.66651,5.45469],[-74.66651,5.45467],[-74.66651,5.45465],[-74.66652,5.45463],[-74.66652,5.45461],[-74.66652,5.45458],[-74.66652,5.45458],[-74.66652,5.45457],[-74.66652,5.45456],[-74.66652,5.45455],[-74.66652,5.45455],[-74.66652,5.45454],[-74.66652,5.45453],[-74.66652,5.45452],[-74.66651,5.45451],[-74.66652,5.45447],[-74.66653,5.45444],[-74.66654,5.45444],[-74.66654,5.45443],[-74.66655,5.45442],[-74.66655,5.45441],[-74.66655,5.4544],[-74.66656,5.4544],[-74.66656,5.45439],[-74.66656,5.45437],[-74.66656,5.45437],[-74.66656,5.45436],[-74.66657,5.45434],[-74.66657,5.45434],[-74.66657,5.45432],[-74.66657,5.45432],[-74.66657,5.4543],[-74.66658,5.4543],[-74.66658,5.45429],[-74.66658,5.45427],[-74.66658,5.45427],[-74.66658,5.45425],[-74.66658,5.45425],[-74.66658,5.45424],[-74.66658,5.45422],[-74.66658,5.45422],[-74.66658,5.45419],[-74.66658,5.45419],[-74.66658,5.45419],[-74.66658,5.45417],[-74.66658,5.45417],[-74.66658,5.45414],[-74.66658,5.45414],[-74.66658,5.45412],[-74.66658,5.45412],[-74.66658,5.4541],[-74.66658,5.4541],[-74.66658,5.45408],[-74.66658,5.45406],[-74.66658,5.45404],[-74.66658,5.45402],[-74.66658,5.45401],[-74.66658,5.45399],[-74.66658,5.45398],[-74.66658,5.45396],[-74.66658,5.45395],[-74.66658,5.45393],[-74.66658,5.45392],[-74.66658,5.45391],[-74.66658,5.45389],[-74.66659,5.45388],[-74.66659,5.45386],[-74.66659,5.45385],[-74.6666,5.45383],[-74.6666,5.45381],[-74.66661,5.45379],[-74.66661,5.45378],[-74.66662,5.45376],[-74.66663,5.45374],[-74.66663,5.45372],[-74.66664,5.4537],[-74.66665,5.45368],[-74.66665,5.45366],[-74.66666,5.45365],[-74.66666,5.45363],[-74.66667,5.45362],[-74.66667,5.45361],[-74.66668,5.4536],[-74.66669,5.45359],[-74.66669,5.45358],[-74.6667,5.45357],[-74.66671,5.45356],[-74.66671,5.45355],[-74.66672,5.45353],[-74.66673,5.45352],[-74.66674,5.45351],[-74.66675,5.45349],[-74.66676,5.45348],[-74.66677,5.45347],[-74.66678,5.45345],[-74.66679,5.45344],[-74.6668,5.45342],[-74.66681,5.45341],[-74.66682,5.45339],[-74.66683,5.45338],[-74.66685,5.45336],[-74.66686,5.45335],[-74.66687,5.45333],[-74.66689,5.45332],[-74.6669,5.4533],[-74.66691,5.45328],[-74.66693,5.45327],[-74.66694,5.45325],[-74.66696,5.45323],[-74.66697,5.45322],[-74.66699,5.4532],[-74.667,5.45318],[-74.66701,5.45317],[-74.66703,5.45315],[-74.66704,5.45314],[-74.66705,5.45312],[-74.66707,5.45311],[-74.66708,5.45309],[-74.66708,5.45309],[-74.66709,5.45308],[-74.66709,5.45308],[-74.66711,5.45306],[-74.66711,5.45306],[-74.66712,5.45305],[-74.66712,5.45305],[-74.66713,5.45304],[-74.66713,5.45303],[-74.66713,5.45303],[-74.66714,5.45302],[-74.66715,5.45302],[-74.66716,5.453],[-74.66716,5.453],[-74.66717,5.45299],[-74.66717,5.45299],[-74.66718,5.45297],[-74.66718,5.45297],[-74.6672,5.45296],[-74.6672,5.45296],[-74.66721,5.45294],[-74.66721,5.45294],[-74.66722,5.45293],[-74.66722,5.45293],[-74.66722,5.45292],[-74.66723,5.45291],[-74.66724,5.45291],[-74.66725,5.45289],[-74.66725,5.45289],[-74.66726,5.45287],[-74.66726,5.45287],[-74.66726,5.45287],[-74.66727,5.45285],[-74.66727,5.45285],[-74.66728,5.45284],[-74.66728,5.45283],[-74.66729,5.45282],[-74.66729,5.45282],[-74.6673,5.45281],[-74.66731,5.4528],[-74.66731,5.45279],[-74.66732,5.45278],[-74.66732,5.45277],[-74.66733,5.45276],[-74.66733,5.45275],[-74.66733,5.45275],[-74.66734,5.45274],[-74.66734,5.45273],[-74.66735,5.45272],[-74.66735,5.45271],[-74.66735,5.4527],[-74.66735,5.4527],[-74.66736,5.45268],[-74.66736,5.45268],[-74.66737,5.45266],[-74.66737,5.45266],[-74.66738,5.45264],[-74.66738,5.45264],[-74.66739,5.45262],[-74.66739,5.45262],[-74.66739,5.45261],[-74.6674,5.45259],[-74.66741,5.45257],[-74.66741,5.45256],[-74.66742,5.45255],[-74.66743,5.45253],[-74.66743,5.45252],[-74.66744,5.45251],[-74.66744,5.4525],[-74.66745,5.45249],[-74.66746,5.45248],[-74.66746,5.45247],[-74.66747,5.45246],[-74.66748,5.45244],[-74.66748,5.45243],[-74.66749,5.45242],[-74.6675,5.45241],[-74.66751,5.4524],[-74.66752,5.45238],[-74.66753,5.45237],[-74.66753,5.45236],[-74.66754,5.45235],[-74.66755,5.45234],[-74.66756,5.45233],[-74.66757,5.45231],[-74.66758,5.4523],[-74.66759,5.45229],[-74.6676,5.45227],[-74.66761,5.45226],[-74.66762,5.45224],[-74.66762,5.45224],[-74.66764,5.45223],[-74.66764,5.45223],[-74.66765,5.45221],[-74.66765,5.45221],[-74.66767,5.45219],[-74.66767,5.45219],[-74.66768,5.45217],[-74.66768,5.45217],[-74.66768,5.45217],[-74.6677,5.45215],[-74.6677,5.45215],[-74.66772,5.45212],[-74.66772,5.45212],[-74.66774,5.4521],[-74.66774,5.45209],[-74.66776,5.45207],[-74.66776,5.45207],[-74.66778,5.45204],[-74.66778,5.45204],[-74.6678,5.45201],[-74.6678,5.45201],[-74.66782,5.45198],[-74.66782,5.45198],[-74.66784,5.45194],[-74.66785,5.45194],[-74.66787,5.45191],[-74.66787,5.45191],[-74.66789,5.45188],[-74.66789,5.45188],[-74.66789,5.45188],[-74.66791,5.45185],[-74.66791,5.45185],[-74.66793,5.45182],[-74.66793,5.45182],[-74.66794,5.45179],[-74.66795,5.45179],[-74.66796,5.45176],[-74.66796,5.45176],[-74.66798,5.45173],[-74.66798,5.45173],[-74.66798,5.45173],[-74.66799,5.4517],[-74.66799,5.4517],[-74.66801,5.45168],[-74.66801,5.45168],[-74.66802,5.45165],[-74.66802,5.45165],[-74.66804,5.45162],[-74.66804,5.45162],[-74.66805,5.45159],[-74.66805,5.45159],[-74.66807,5.45156],[-74.66807,5.45156],[-74.66808,5.45153],[-74.66808,5.45153],[-74.6681,5.4515],[-74.6681,5.4515],[-74.66811,5.45147],[-74.66811,5.45147],[-74.66813,5.45145],[-74.66813,5.45145],[-74.66815,5.45139],[-74.66817,5.45137],[-74.66818,5.45134],[-74.66819,5.45132],[-74.6682,5.4513],[-74.66821,5.45127],[-74.66822,5.45125],[-74.66823,5.45123],[-74.66824,5.45121],[-74.66826,5.45119],[-74.66827,5.45117],[-74.66828,5.45114],[-74.6683,5.4511],[-74.6683,5.4511],[-74.66831,5.45107],[-74.66831,5.45107],[-74.66832,5.45105],[-74.66832,5.45105],[-74.66834,5.45103],[-74.66834,5.45103],[-74.66835,5.451],[-74.66835,5.451],[-74.66836,5.45098],[-74.66836,5.45098],[-74.66838,5.45095],[-74.66838,5.45095],[-74.66839,5.45092],[-74.66839,5.45092],[-74.6684,5.4509],[-74.6684,5.4509],[-74.6684,5.4509],[-74.66842,5.45087],[-74.66842,5.45087],[-74.66843,5.45084],[-74.66843,5.45084],[-74.66844,5.45082],[-74.66844,5.45081],[-74.66845,5.45079],[-74.66845,5.45079],[-74.66847,5.45076],[-74.66847,5.45076],[-74.66848,5.45074],[-74.66848,5.45074],[-74.66849,5.45071],[-74.66849,5.45071],[-74.6685,5.45069],[-74.6685,5.45068],[-74.66851,5.45066],[-74.66851,5.45066],[-74.66852,5.45063],[-74.66852,5.45063],[-74.66852,5.45063],[-74.66853,5.45061],[-74.66853,5.45061],[-74.66854,5.45059],[-74.66854,5.45058],[-74.66855,5.45056],[-74.66855,5.45056],[-74.66856,5.45054],[-74.66856,5.45054],[-74.66857,5.45051],[-74.66857,5.45051],[-74.66858,5.45049],[-74.66858,5.45049],[-74.66858,5.45049],[-74.66858,5.45047],[-74.66859,5.45047],[-74.66859,5.45044],[-74.66859,5.45044],[-74.6686,5.45042],[-74.6686,5.45042],[-74.66861,5.45039],[-74.66861,5.45039],[-74.66861,5.45037],[-74.66861,5.45037],[-74.66861,5.45037],[-74.66862,5.45034],[-74.66862,5.45034],[-74.66863,5.45032],[-74.66863,5.45032],[-74.66863,5.45029],[-74.66863,5.45029],[-74.66864,5.45027],[-74.66864,5.45026],[-74.66864,5.45024],[-74.66864,5.45024],[-74.66864,5.45024],[-74.66865,5.45021],[-74.66865,5.45021],[-74.66865,5.45019],[-74.66865,5.45018],[-74.66866,5.45016],[-74.66866,5.45016],[-74.66866,5.45013],[-74.66866,5.45013],[-74.66866,5.45013],[-74.66867,5.4501],[-74.66867,5.4501],[-74.66867,5.45008],[-74.66867,5.45008],[-74.66867,5.45005],[-74.66867,5.45005],[-74.66867,5.45002],[-74.66867,5.45002],[-74.66868,5.44999],[-74.66868,5.44999],[-74.66868,5.44997],[-74.66868,5.44997],[-74.66868,5.44994],[-74.66868,5.44994],[-74.66868,5.44991],[-74.66869,5.44989],[-74.66869,5.44986],[-74.66869,5.44983],[-74.66869,5.44981],[-74.6687,5.44978],[-74.6687,5.44976],[-74.6687,5.44974],[-74.66871,5.44971],[-74.66871,5.44969],[-74.66871,5.44967],[-74.66872,5.44965],[-74.66872,5.44962],[-74.66873,5.4496],[-74.66873,5.44958],[-74.66874,5.44955],[-74.66875,5.44952],[-74.66876,5.4495],[-74.66876,5.44947],[-74.66877,5.44944],[-74.66878,5.44941],[-74.6688,5.44938],[-74.66881,5.44935],[-74.66882,5.44932],[-74.66883,5.44929],[-74.66885,5.44925],[-74.66886,5.44922],[-74.66888,5.44918],[-74.66889,5.44915],[-74.66891,5.44911],[-74.66892,5.44908],[-74.66894,5.44904],[-74.66895,5.44901],[-74.66897,5.44897],[-74.66898,5.44894],[-74.669,5.4489],[-74.66901,5.44887],[-74.66903,5.44883],[-74.66904,5.4488],[-74.66906,5.44876],[-74.66909,5.4487],[-74.66909,5.4487],[-74.6691,5.44866],[-74.6691,5.44866],[-74.66912,5.44863],[-74.66912,5.44863],[-74.66913,5.4486],[-74.66913,5.4486],[-74.66914,5.44858],[-74.66914,5.44858],[-74.66915,5.44855],[-74.66915,5.44855],[-74.66915,5.44855],[-74.66916,5.44853],[-74.66916,5.44852],[-74.66917,5.4485],[-74.66917,5.4485],[-74.66918,5.44848],[-74.66918,5.44848],[-74.66918,5.44848],[-74.66918,5.44846],[-74.66919,5.44845],[-74.66919,5.44843],[-74.66919,5.44843],[-74.66919,5.44843],[-74.6692,5.44841],[-74.6692,5.4484],[-74.6692,5.4484],[-74.6692,5.44838],[-74.6692,5.44838],[-74.66921,5.44835],[-74.66921,5.44835],[-74.66921,5.44833],[-74.66921,5.44833],[-74.66921,5.44833],[-74.66921,5.4483],[-74.66921,5.4483],[-74.66922,5.44827],[-74.66922,5.44825],[-74.66922,5.44822],[-74.66923,5.4482],[-74.66923,5.44818],[-74.66923,5.44816],[-74.66924,5.44815],[-74.66924,5.44813],[-74.66925,5.44811],[-74.66925,5.4481],[-74.66926,5.44809],[-74.66926,5.44807],[-74.66927,5.44806],[-74.66927,5.44805],[-74.66928,5.44803],[-74.66929,5.44802],[-74.6693,5.448],[-74.66931,5.44799],[-74.66932,5.44797],[-74.66933,5.44795],[-74.66933,5.44795],[-74.66934,5.44793],[-74.66934,5.44793],[-74.66935,5.44791],[-74.66935,5.44791],[-74.66936,5.44788],[-74.66936,5.44788],[-74.66938,5.44786],[-74.66938,5.44786],[-74.66939,5.44783],[-74.66939,5.44783],[-74.6694,5.44781],[-74.6694,5.4478],[-74.66942,5.44778],[-74.66942,5.44778],[-74.66942,5.44778],[-74.66943,5.44775],[-74.66943,5.44775],[-74.66945,5.44772],[-74.66945,5.44772],[-74.66946,5.44769],[-74.66946,5.44769],[-74.66947,5.44766],[-74.66947,5.44766],[-74.66948,5.44763],[-74.66948,5.44763],[-74.66948,5.44763],[-74.66949,5.4476],[-74.66949,5.4476],[-74.66951,5.44758],[-74.66951,5.44758],[-74.66952,5.44755],[-74.66952,5.44755],[-74.66953,5.44752],[-74.66953,5.44752],[-74.66954,5.4475],[-74.66954,5.4475],[-74.66954,5.44747],[-74.66954,5.44747],[-74.66956,5.44742],[-74.66957,5.4474],[-74.66958,5.44738],[-74.66959,5.44735],[-74.6696,5.44733],[-74.6696,5.44731],[-74.66961,5.44729],[-74.66962,5.44727],[-74.66963,5.44725],[-74.66964,5.44724],[-74.66965,5.44722],[-74.66965,5.4472],[-74.66966,5.44718],[-74.66968,5.44716],[-74.66969,5.44714],[-74.6697,5.44712],[-74.66972,5.4471],[-74.66973,5.44707],[-74.66975,5.44705],[-74.66976,5.44703],[-74.66978,5.447],[-74.6698,5.44698],[-74.66981,5.44696],[-74.66983,5.44693],[-74.66985,5.44691],[-74.66986,5.44689],[-74.66988,5.44687],[-74.66989,5.44685],[-74.66991,5.44683],[-74.66992,5.44682],[-74.66994,5.4468],[-74.66996,5.44679],[-74.66997,5.44677],[-74.67,5.44675],[-74.67,5.44675],[-74.67,5.44675],[-74.67001,5.44674],[-74.67007,5.44672],[-74.67011,5.44684],[-74.67014,5.44692],[-74.67014,5.44693],[-74.67014,5.44693],[-74.67016,5.44699],[-74.67016,5.44699],[-74.67025,5.44722],[-74.67025,5.44722],[-74.67026,5.44723],[-74.67031,5.44733],[-74.67031,5.44733],[-74.67039,5.4475],[-74.6704,5.44752],[-74.67041,5.44754],[-74.67041,5.44754],[-74.67041,5.44755],[-74.67042,5.44756],[-74.67042,5.44756],[-74.67043,5.44757],[-74.67043,5.44758],[-74.67044,5.44758],[-74.67045,5.44759],[-74.67045,5.44759],[-74.67046,5.4476],[-74.67047,5.4476],[-74.67048,5.44761],[-74.67049,5.44761],[-74.67049,5.44761],[-74.6705,5.44761],[-74.67051,5.44762],[-74.67052,5.44762],[-74.67053,5.44762],[-74.67054,5.44762],[-74.67055,5.44762],[-74.67056,5.44761],[-74.67056,5.44761],[-74.67057,5.44761],[-74.67058,5.44761],[-74.67058,5.44761],[-74.6706,5.4476],[-74.67067,5.44757],[-74.67086,5.44751],[-74.67087,5.4475],[-74.67087,5.4475],[-74.67089,5.44749],[-74.6709,5.44749],[-74.67091,5.44749],[-74.67091,5.44748],[-74.67096,5.44745],[-74.67096,5.44745],[-74.67096,5.44745],[-74.67105,5.44739],[-74.67111,5.44737],[-74.67111,5.44737],[-74.67112,5.44737],[-74.67113,5.44737],[-74.67114,5.44736],[-74.67115,5.44736],[-74.67115,5.44735],[-74.67116,5.44735],[-74.67117,5.44734],[-74.67117,5.44734],[-74.67124,5.44727],[-74.67126,5.44727],[-74.67135,5.44727],[-74.67135,5.44727],[-74.67136,5.44727],[-74.67136,5.44727],[-74.67138,5.44727],[-74.67139,5.44727],[-74.6714,5.44726],[-74.67141,5.44726],[-74.67142,5.44726],[-74.67142,5.44726],[-74.67143,5.44725],[-74.67144,5.44725],[-74.67145,5.44724],[-74.67145,5.44724],[-74.67146,5.44723],[-74.67146,5.44723],[-74.67158,5.44712],[-74.67164,5.44711],[-74.67164,5.44711],[-74.67164,5.44711],[-74.67169,5.4471],[-74.67172,5.44716],[-74.67172,5.44716],[-74.67172,5.44717],[-74.67173,5.44717],[-74.67173,5.44718],[-74.67174,5.44719],[-74.67174,5.44719],[-74.67175,5.4472],[-74.67176,5.44721],[-74.67176,5.44721],[-74.67177,5.44722],[-74.67178,5.44722],[-74.67179,5.44722],[-74.6718,5.44723],[-74.67181,5.44723],[-74.67181,5.44723],[-74.67182,5.44723],[-74.67183,5.44723],[-74.67184,5.44723],[-74.67185,5.44723],[-74.67186,5.44723],[-74.67187,5.44723],[-74.67187,5.44723],[-74.6722,5.44714],[-74.67227,5.44738],[-74.67244,5.44797],[-74.67244,5.44797],[-74.6725,5.44819],[-74.67251,5.4482],[-74.67251,5.44821],[-74.67251,5.44821],[-74.67252,5.44822],[-74.67252,5.44823],[-74.67253,5.44824],[-74.67253,5.44824],[-74.67254,5.44825],[-74.67255,5.44826],[-74.67255,5.44826],[-74.67256,5.44827],[-74.67257,5.44827],[-74.67257,5.44827],[-74.67281,5.44839],[-74.67281,5.44839],[-74.67282,5.44839],[-74.67282,5.44839],[-74.6731,5.44851],[-74.6731,5.44851],[-74.67311,5.44851],[-74.67312,5.44851],[-74.67313,5.44851],[-74.67314,5.44852],[-74.67315,5.44852],[-74.67315,5.44852],[-74.67316,5.44851],[-74.67317,5.44851],[-74.67318,5.44851],[-74.67319,5.44851],[-74.6732,5.44851],[-74.67321,5.4485],[-74.67321,5.4485],[-74.67322,5.44849],[-74.67323,5.44849],[-74.67323,5.44848],[-74.67324,5.44848],[-74.67325,5.44847],[-74.67325,5.44846],[-74.67326,5.44846],[-74.67326,5.44845],[-74.67327,5.44844],[-74.67327,5.44843],[-74.67327,5.44842],[-74.67328,5.44841],[-74.67328,5.44841],[-74.67328,5.4484],[-74.67328,5.44839],[-74.67328,5.44838],[-74.67328,5.44837],[-74.67328,5.44836],[-74.67328,5.44835],[-74.67328,5.44834],[-74.67327,5.44834],[-74.67327,5.44833],[-74.67327,5.44832],[-74.67326,5.44831],[-74.67326,5.4483],[-74.67325,5.4483],[-74.67325,5.44829],[-74.67324,5.44828],[-74.67323,5.44828],[-74.67323,5.44827],[-74.67322,5.44827],[-74.67321,5.44826],[-74.67321,5.44826],[-74.6732,5.44825],[-74.6732,5.44825],[-74.67292,5.44814],[-74.67275,5.44806],[-74.6727,5.44789],[-74.67253,5.44731],[-74.67253,5.4473],[-74.67244,5.447],[-74.67244,5.447],[-74.67244,5.44699],[-74.67243,5.44698],[-74.67243,5.44698],[-74.6724,5.44692],[-74.6724,5.44692],[-74.67239,5.44691],[-74.67239,5.4469],[-74.67238,5.44689],[-74.67238,5.44689],[-74.67237,5.44688],[-74.67236,5.44688],[-74.67236,5.44687],[-74.67235,5.44687],[-74.67234,5.44686],[-74.67233,5.44686],[-74.67233,5.44686],[-74.67232,5.44685],[-74.67231,5.44685],[-74.6723,5.44685],[-74.67229,5.44685],[-74.67228,5.44685],[-74.67227,5.44685],[-74.67226,5.44685],[-74.67226,5.44685],[-74.67225,5.44685],[-74.67191,5.44694],[-74.67191,5.44692],[-74.67191,5.44692],[-74.6719,5.44692],[-74.6719,5.44691],[-74.67189,5.4469],[-74.67189,5.44689],[-74.67188,5.44689],[-74.67187,5.44688],[-74.67187,5.44688],[-74.67186,5.44687],[-74.67186,5.44687],[-74.67181,5.44683],[-74.6718,5.44683],[-74.67179,5.44683],[-74.67178,5.44682],[-74.67177,5.44682],[-74.67177,5.44682],[-74.67176,5.44681],[-74.67175,5.44681],[-74.67174,5.44681],[-74.67173,5.44681],[-74.67172,5.44681],[-74.67171,5.44681],[-74.6717,5.44681],[-74.6717,5.44682],[-74.67158,5.44684],[-74.6715,5.44686],[-74.67149,5.44686],[-74.67148,5.44686],[-74.67148,5.44686],[-74.67147,5.44687],[-74.67146,5.44687],[-74.67145,5.44688],[-74.67144,5.44688],[-74.67144,5.44689],[-74.67143,5.44689],[-74.67143,5.44689],[-74.67132,5.447],[-74.67125,5.44699],[-74.67125,5.44699],[-74.67124,5.447],[-74.67123,5.447],[-74.6712,5.447],[-74.67118,5.447],[-74.67118,5.447],[-74.67117,5.447],[-74.67116,5.447],[-74.67115,5.447],[-74.67114,5.44701],[-74.67113,5.44701],[-74.67112,5.44701],[-74.67112,5.44701],[-74.67111,5.44702],[-74.6711,5.44702],[-74.67109,5.44703],[-74.67109,5.44703],[-74.67108,5.44704],[-74.67108,5.44704],[-74.671,5.44712],[-74.67097,5.44713],[-74.67097,5.44713],[-74.67095,5.44714],[-74.67095,5.44714],[-74.67094,5.44714],[-74.67093,5.44715],[-74.67092,5.44715],[-74.67092,5.44715],[-74.67092,5.44715],[-74.67081,5.44722],[-74.67077,5.44725],[-74.67077,5.44725],[-74.6706,5.44731],[-74.67055,5.44721],[-74.6705,5.44712],[-74.67041,5.44689],[-74.67039,5.44684],[-74.67036,5.44675],[-74.67036,5.44675],[-74.67028,5.44651],[-74.67028,5.44651],[-74.67028,5.4465],[-74.67027,5.44649],[-74.67027,5.44648],[-74.67027,5.44647],[-74.67026,5.44647],[-74.67025,5.44646],[-74.67025,5.44645],[-74.67024,5.44645],[-74.67024,5.44644],[-74.67023,5.44644],[-74.67022,5.44643],[-74.67021,5.44643],[-74.6702,5.44642],[-74.6702,5.44642],[-74.67019,5.44642],[-74.67018,5.44642],[-74.67017,5.44641],[-74.67016,5.44641],[-74.67015,5.44641],[-74.67014,5.44641],[-74.67014,5.44641],[-74.67008,5.44642],[-74.67008,5.44642],[-74.67007,5.44642],[-74.67006,5.44643],[-74.67005,5.44643],[-74.67004,5.44643],[-74.67004,5.44643],[-74.66987,5.44651],[-74.66987,5.44651],[-74.66986,5.44651],[-74.66985,5.44652],[-74.66984,5.44652],[-74.66984,5.44653],[-74.66983,5.44653],[-74.66983,5.44654],[-74.66982,5.44654],[-74.66982,5.44655],[-74.66981,5.44656],[-74.66981,5.44656],[-74.6698,5.44656],[-74.66978,5.44658],[-74.66978,5.44658],[-74.66977,5.44659],[-74.66975,5.44661],[-74.66975,5.44661],[-74.66975,5.44661],[-74.66973,5.44663],[-74.66973,5.44663],[-74.66971,5.44665],[-74.66971,5.44665],[-74.66971,5.44666],[-74.66969,5.44668],[-74.66969,5.44668],[-74.66967,5.4467],[-74.66967,5.4467],[-74.66965,5.44672]]]},"properties":{"OBJECTID_1":5,"OBJECTID":9,"ID_RONDA":9,"CODRONDA":"9","DRENAJE":"Caño Lavapatas","AREA_INF":15,"FAJA_PROTE":"Zona de Proteccion Hidraulica y Ambiental","AREA":63075.2317337,"PERIMETRO":4244.3251481,"Shape_Leng":4244.32506997,"Shape_Length":4242.493391329603,"Shape_Area":63020.78338389091,"NOMBRE":"La_Dorada"}},{"type":"Feature","id":6,"geometry":{"type":"Polygon","coordinates":[[[-74.6702,5.44642],[-74.67009,5.44613],[-74.67,5.44591],[-74.66999,5.44586],[-74.66998,5.44586],[-74.66998,5.44585],[-74.66984,5.4455],[-74.6698,5.4454],[-74.6698,5.4454],[-74.6698,5.4454],[-74.66968,5.44513],[-74.66968,5.44512],[-74.66968,5.44511],[-74.66967,5.44511],[-74.66958,5.44497],[-74.66951,5.44486],[-74.66948,5.44474],[-74.66935,5.44416],[-74.66935,5.44407],[-74.66935,5.44407],[-74.66934,5.44406],[-74.66934,5.44405],[-74.66934,5.44404],[-74.66934,5.44403],[-74.66934,5.44402],[-74.66933,5.44401],[-74.66933,5.44401],[-74.66932,5.444],[-74.66932,5.44399],[-74.66931,5.44399],[-74.66931,5.44398],[-74.6693,5.44397],[-74.66929,5.44397],[-74.66929,5.44396],[-74.66928,5.44396],[-74.66927,5.44395],[-74.66926,5.44395],[-74.66925,5.44395],[-74.66925,5.44394],[-74.66924,5.44394],[-74.66923,5.44394],[-74.66922,5.44394],[-74.66921,5.44394],[-74.6692,5.44394],[-74.66919,5.44394],[-74.66918,5.44394],[-74.66918,5.44394],[-74.66917,5.44395],[-74.66916,5.44395],[-74.66915,5.44395],[-74.66914,5.44396],[-74.66914,5.44396],[-74.66913,5.44397],[-74.66912,5.44397],[-74.66911,5.44398],[-74.66911,5.44399],[-74.6691,5.44399],[-74.6691,5.444],[-74.66909,5.44401],[-74.66909,5.44402],[-74.66909,5.44402],[-74.66908,5.44403],[-74.66908,5.44404],[-74.66908,5.44405],[-74.66908,5.44406],[-74.66908,5.44407],[-74.66908,5.44408],[-74.66908,5.44408],[-74.66908,5.44418],[-74.66908,5.44419],[-74.66908,5.4442],[-74.66908,5.4442],[-74.66908,5.44421],[-74.66922,5.4448],[-74.66922,5.4448],[-74.66926,5.44495],[-74.66926,5.44495],[-74.66926,5.44496],[-74.66926,5.44497],[-74.66927,5.44498],[-74.66927,5.44498],[-74.66927,5.44499],[-74.66935,5.44511],[-74.66935,5.44511],[-74.66944,5.44525],[-74.66955,5.4455],[-74.66958,5.44559],[-74.66958,5.4456],[-74.66973,5.44595],[-74.66974,5.446],[-74.66975,5.446],[-74.66975,5.44601],[-74.66983,5.44623],[-74.66983,5.44623],[-74.66993,5.44648],[-74.67005,5.44643],[-74.67006,5.44643],[-74.67008,5.44642],[-74.67014,5.44641],[-74.67015,5.44641],[-74.67018,5.44642],[-74.6702,5.44642]]]},"properties":{"OBJECTID_1":6,"OBJECTID":10,"ID_RONDA":10,"CODRONDA":"10","DRENAJE":"Caño","AREA_INF":15,"FAJA_PROTE":"Zona de Proteccion Hidraulica y Ambiental","AREA":8744.00899612,"PERIMETRO":641.380076189,"Shape_Leng":641.380248798,"Shape_Length":641.1035291023413,"Shape_Area":8736.472679941655,"NOMBRE":"La_Dorada"}}]}