{"type":"FeatureCollection","name":"Drenaje Sencillo Norcasia","crs":{"type":"name","properties":{"name":"urn:ogc:def:crs:OGC:1.3:CRS84"}},"features":[{"type":"Feature","id":1,"geometry":{"type":"LineString","coordinates":[[-74.89381,5.57385],[-74.89382,5.57442],[-74.89388,5.57487]]},"properties":{"OBJECTID":32492,"ID_DS":19962,"CODDEP":"17","CODCUENCA":"2305","CODDS":19962,"TIPO":" ","NOMBRE":" ","ORDEN":"2305-001-012-023-02-01","N_ORDEN":6,"FP":15,"Shape_Leng":113.491999953,"ORD_STRAHL":1,"FR_STRAHLE":15,"OBJECTID_1":1,"ZPHA":10,"ZPS":5,"Shape_Length":113.4514119464786}},{"type":"Feature","id":2,"geometry":{"type":"LineString","coordinates":[[-74.89241,5.57082],[-74.89232,5.5709],[-74.89213,5.57106],[-74.89204,5.57122],[-74.892,5.5713],[-74.89192,5.5714],[-74.89187,5.57142],[-74.89179,5.57151],[-74.89173,5.57157],[-74.89171,5.57159],[-74.89163,5.57172],[-74.89157,5.57181],[-74.89151,5.5719],[-74.89145,5.57195],[-74.8914,5.57198],[-74.89136,5.572],[-74.89134,5.57202],[-74.89133,5.57205],[-74.89132,5.57208],[-74.89132,5.57214],[-74.89132,5.57219],[-74.89133,5.57224],[-74.89133,5.57244],[-74.89133,5.57256],[-74.89133,5.57262],[-74.89132,5.57266],[-74.89132,5.57273],[-74.89132,5.57279],[-74.89132,5.57285],[-74.89132,5.57288],[-74.89132,5.57288],[-74.89132,5.57288],[-74.89132,5.57291],[-74.89132,5.57291],[-74.89132,5.57298],[-74.89132,5.57309],[-74.89132,5.57316],[-74.89132,5.57318]]},"properties":{"OBJECTID":32089,"ID_DS":0,"CODDEP":" ","CODCUENCA":" ","CODDS":0,"TIPO":" ","NOMBRE":"Río La Miel","ORDEN":" ","N_ORDEN":5,"FP":15,"Shape_Leng":0,"ORD_STRAHL":1,"FR_STRAHLE":15,"OBJECTID_1":2,"ZPHA":10,"ZPS":5,"Shape_Length":310.4635987941472}},{"type":"Feature","id":3,"geometry":{"type":"LineString","coordinates":[[-74.89128,5.57173],[-74.89119,5.57181],[-74.89111,5.57195],[-74.89102,5.57208],[-74.89099,5.57218],[-74.89099,5.57218],[-74.89099,5.57229],[-74.89095,5.57243],[-74.89094,5.57255],[-74.89094,5.57263],[-74.89095,5.57269],[-74.89098,5.57275],[-74.89105,5.57281],[-74.89108,5.57285],[-74.8911,5.57289],[-74.89112,5.57293],[-74.89114,5.57296],[-74.89117,5.57299],[-74.89119,5.57301],[-74.89122,5.57304],[-74.89123,5.57308],[-74.89123,5.5731],[-74.89124,5.57313],[-74.89127,5.57315],[-74.89129,5.57316],[-74.89131,5.57317],[-74.89132,5.57318]]},"properties":{"OBJECTID":321060,"ID_DS":0,"CODDEP":" ","CODCUENCA":" ","CODDS":0,"TIPO":" ","NOMBRE":"Quebrada La Bejuca","ORDEN":" ","N_ORDEN":4,"FP":20,"Shape_Leng":0,"ORD_STRAHL":1,"FR_STRAHLE":15,"OBJECTID_1":3,"ZPHA":10,"ZPS":5,"Shape_Length":188.1520529630305}},{"type":"Feature","id":4,"geometry":{"type":"LineString","coordinates":[[-74.89132,5.57318],[-74.89132,5.57319],[-74.89131,5.57322],[-74.89128,5.57327],[-74.89124,5.5733],[-74.89117,5.57335],[-74.89112,5.57337],[-74.89112,5.57338],[-74.8911,5.57339],[-74.89099,5.57343],[-74.89092,5.57345],[-74.8909,5.57345],[-74.89088,5.57346],[-74.89085,5.57346],[-74.89084,5.57346],[-74.89082,5.57347],[-74.89079,5.57347],[-74.89078,5.57347],[-74.89076,5.57347],[-74.89074,5.57348],[-74.89072,5.5735],[-74.8907,5.57353],[-74.8907,5.57357],[-74.8907,5.57369],[-74.8907,5.57372],[-74.89069,5.57379],[-74.89069,5.57384],[-74.89068,5.57394],[-74.89067,5.57397],[-74.89066,5.57398],[-74.89064,5.57399],[-74.8906,5.57401],[-74.89058,5.57401],[-74.89051,5.574],[-74.89045,5.57399],[-74.89041,5.57398],[-74.89039,5.57398],[-74.89035,5.574],[-74.8903,5.57403],[-74.89028,5.57404],[-74.89024,5.57406],[-74.89016,5.57411],[-74.89016,5.57411],[-74.89009,5.57414],[-74.89005,5.57416],[-74.89001,5.57417],[-74.88997,5.57418],[-74.88993,5.57418],[-74.8899,5.57419],[-74.88983,5.57423],[-74.88979,5.57425],[-74.88978,5.57426],[-74.88975,5.57429],[-74.88975,5.57429],[-74.88973,5.57432],[-74.88974,5.57432],[-74.88968,5.57439],[-74.88967,5.57441],[-74.88965,5.57443],[-74.88962,5.57445],[-74.88958,5.57447],[-74.88954,5.57449],[-74.88953,5.57449],[-74.8895,5.5745],[-74.88948,5.5745],[-74.88943,5.57452],[-74.8894,5.57454],[-74.88939,5.57454],[-74.88936,5.57457],[-74.88929,5.57461],[-74.88918,5.57472],[-74.88917,5.57473],[-74.88915,5.57475],[-74.88904,5.57483],[-74.88895,5.57486],[-74.88887,5.57489],[-74.8888,5.5749],[-74.88877,5.5749],[-74.88875,5.57489],[-74.88872,5.57488],[-74.88866,5.57488],[-74.88863,5.57488],[-74.88856,5.57491],[-74.88846,5.57493],[-74.88838,5.57495],[-74.88828,5.57498],[-74.88821,5.575],[-74.88817,5.57502],[-74.88812,5.57504],[-74.88805,5.57508],[-74.88798,5.57513],[-74.88789,5.57518],[-74.88771,5.57526],[-74.88768,5.57528],[-74.88758,5.57537],[-74.88752,5.57543],[-74.88751,5.57544],[-74.88748,5.5755],[-74.88744,5.57557],[-74.8874,5.57564],[-74.88731,5.57577],[-74.88727,5.57582],[-74.88725,5.57591],[-74.88722,5.57598],[-74.88721,5.576],[-74.8872,5.57604],[-74.88716,5.5761],[-74.88714,5.57611],[-74.88713,5.57612],[-74.8871,5.57622],[-74.88709,5.57623],[-74.88708,5.5763],[-74.88705,5.57634],[-74.88702,5.57638],[-74.88698,5.57645],[-74.88699,5.57653],[-74.887,5.57655],[-74.88702,5.5766],[-74.88708,5.57669],[-74.88714,5.57676],[-74.8872,5.57682],[-74.88721,5.57683],[-74.88727,5.57687],[-74.88739,5.57689],[-74.8876,5.57688],[-74.88771,5.57688],[-74.88775,5.57689],[-74.88778,5.57691],[-74.88803,5.57707],[-74.88808,5.57713],[-74.88809,5.57714]]},"properties":{"OBJECTID":32565,"ID_DS":0,"CODDEP":" ","CODCUENCA":" ","CODDS":0,"TIPO":" ","NOMBRE":"Quebrada La Bejuca","ORDEN":" ","N_ORDEN":4,"FP":20,"Shape_Leng":0,"ORD_STRAHL":2,"FR_STRAHLE":15,"OBJECTID_1":4,"ZPHA":10,"ZPS":5,"Shape_Length":820.570584292356}},{"type":"Feature","id":5,"geometry":{"type":"LineString","coordinates":[[-74.89073,5.5713],[-74.89072,5.57138],[-74.89069,5.57153],[-74.89067,5.57169],[-74.89063,5.57181],[-74.8906,5.57195],[-74.89055,5.57206],[-74.89046,5.57215],[-74.89032,5.57221],[-74.89016,5.57227],[-74.89006,5.57233],[-74.88994,5.57238],[-74.88988,5.5724]]},"properties":{"OBJECTID":32491,"ID_DS":19961,"CODDEP":"17","CODCUENCA":"2305","CODDS":19961,"TIPO":" ","NOMBRE":" ","ORDEN":"2305-001-024-001","N_ORDEN":4,"FP":20,"Shape_Leng":0,"ORD_STRAHL":1,"FR_STRAHLE":15,"OBJECTID_1":5,"ZPHA":10,"ZPS":5,"Shape_Length":170.5868836161302}}]}