{"type":"FeatureCollection","name":"FPCauceUrbanoNorcasia","crs":{"type":"name","properties":{"name":"urn:ogc:def:crs:OGC:1.3:CRS84"}},"features":[{"type":"Feature","id":1,"geometry":{"type":"MultiPolygon","coordinates":[[[[-74.89007,5.57253],[-74.89013,5.5725],[-74.89015,5.57249],[-74.89016,5.57249],[-74.89024,5.57243],[-74.89038,5.57238],[-74.89049,5.57224],[-74.8905,5.57223],[-74.89051,5.57222],[-74.89052,5.57222],[-74.89061,5.57213],[-74.89062,5.57212],[-74.89063,5.57211],[-74.89063,5.5721],[-74.89068,5.57198],[-74.89068,5.57198],[-74.89068,5.57197],[-74.89072,5.57184],[-74.89076,5.57171],[-74.89076,5.5717],[-74.89076,5.5717],[-74.89087,5.57156],[-74.8909,5.57142],[-74.8909,5.5714],[-74.89091,5.57132],[-74.89091,5.5713],[-74.8909,5.57127],[-74.8909,5.57124],[-74.89088,5.57121],[-74.89087,5.57118],[-74.89084,5.57116],[-74.89082,5.57114],[-74.89079,5.57113],[-74.89076,5.57112],[-74.89073,5.57112],[-74.8907,5.57112],[-74.89066,5.57113],[-74.89064,5.57114],[-74.89061,5.57116],[-74.89057,5.57121],[-74.89056,5.57124],[-74.89055,5.57127],[-74.89055,5.57128],[-74.89054,5.57136],[-74.89052,5.5715],[-74.89059,5.57159],[-74.89058,5.57167],[-74.89055,5.57179],[-74.89043,5.57189],[-74.8904,5.57196],[-74.89036,5.572],[-74.8903,5.57202],[-74.89028,5.57213],[-74.89012,5.57219],[-74.89011,5.57219],[-74.89011,5.5722],[-74.89002,5.57225],[-74.88991,5.5723],[-74.88986,5.57231],[-74.88985,5.57232],[-74.88985,5.57232],[-74.88984,5.57232],[-74.88984,5.57232],[-74.88984,5.57232],[-74.88983,5.57233],[-74.88983,5.57233],[-74.88983,5.57233],[-74.88983,5.57233],[-74.88982,5.57234],[-74.88982,5.57234],[-74.88982,5.57234],[-74.88981,5.57234],[-74.88981,5.57235],[-74.88981,5.57235],[-74.88981,5.57235],[-74.88981,5.57236],[-74.8898,5.57236],[-74.8898,5.57237],[-74.8898,5.57237],[-74.8898,5.57237],[-74.8898,5.57238],[-74.8898,5.57238],[-74.8898,5.57238],[-74.8898,5.57238],[-74.88979,5.57239],[-74.88979,5.5724],[-74.88979,5.5724],[-74.88979,5.5724],[-74.88979,5.57241],[-74.88979,5.57241],[-74.88979,5.57241],[-74.8898,5.57242],[-74.8898,5.57242],[-74.8898,5.57243],[-74.8898,5.57243],[-74.8898,5.57243],[-74.8898,5.57244],[-74.8898,5.57244],[-74.88981,5.57244],[-74.88981,5.57245],[-74.88981,5.57245],[-74.88981,5.57246],[-74.88981,5.57246],[-74.88981,5.57246],[-74.88982,5.57246],[-74.88982,5.57247],[-74.88982,5.57247],[-74.88983,5.57247],[-74.88983,5.57247],[-74.88984,5.57248],[-74.88984,5.57248],[-74.88984,5.57248],[-74.88984,5.57248],[-74.88985,5.57248],[-74.88985,5.57248],[-74.88985,5.57249],[-74.88986,5.57249],[-74.88986,5.57249],[-74.88987,5.57249],[-74.88987,5.57249],[-74.88987,5.57249],[-74.88988,5.57249],[-74.88988,5.57249],[-74.88988,5.57249],[-74.88989,5.57249],[-74.8899,5.57249],[-74.8899,5.57249],[-74.8899,5.57249],[-74.88991,5.57249],[-74.88997,5.57247],[-74.89007,5.57253]]],[[[-74.89388,5.57496],[-74.89388,5.57496],[-74.89388,5.57496],[-74.89389,5.57496],[-74.89389,5.57496],[-74.8939,5.57496],[-74.8939,5.57496],[-74.8939,5.57496],[-74.89391,5.57496],[-74.89391,5.57496],[-74.89391,5.57496],[-74.89392,5.57495],[-74.89392,5.57495],[-74.89392,5.57495],[-74.89393,5.57495],[-74.89393,5.57495],[-74.89394,5.57494],[-74.89394,5.57494],[-74.89394,5.57494],[-74.89394,5.57494],[-74.89395,5.57493],[-74.89395,5.57493],[-74.89395,5.57493],[-74.89396,5.57492],[-74.89396,5.57492],[-74.89405,5.5748],[-74.894,5.57441],[-74.894,5.57428],[-74.894,5.57425],[-74.894,5.57393],[-74.89395,5.57387],[-74.89395,5.57385],[-74.89395,5.57383],[-74.89394,5.57381],[-74.89393,5.57378],[-74.89392,5.57377],[-74.8939,5.57375],[-74.89388,5.57373],[-74.89386,5.57373],[-74.89384,5.57372],[-74.89381,5.57372],[-74.89379,5.57372],[-74.89377,5.57373],[-74.89375,5.57374],[-74.89373,5.57375],[-74.89371,5.57377],[-74.8937,5.57378],[-74.89369,5.57381],[-74.89368,5.57383],[-74.89368,5.57385],[-74.89368,5.57388],[-74.89369,5.5739],[-74.8937,5.57392],[-74.89371,5.57394],[-74.89372,5.57395],[-74.89372,5.57397],[-74.89373,5.5741],[-74.89373,5.57442],[-74.89373,5.57444],[-74.89379,5.57489],[-74.89379,5.57489],[-74.89379,5.5749],[-74.89379,5.5749],[-74.89379,5.5749],[-74.89379,5.57491],[-74.8938,5.57491],[-74.8938,5.57492],[-74.8938,5.57492],[-74.8938,5.57492],[-74.8938,5.57492],[-74.89381,5.57493],[-74.89381,5.57493],[-74.89381,5.57493],[-74.89381,5.57494],[-74.89382,5.57494],[-74.89382,5.57494],[-74.89382,5.57494],[-74.89382,5.57495],[-74.89383,5.57495],[-74.89383,5.57495],[-74.89383,5.57495],[-74.89384,5.57495],[-74.89384,5.57496],[-74.89384,5.57496],[-74.89385,5.57496],[-74.89385,5.57496],[-74.89385,5.57496],[-74.89386,5.57496],[-74.89386,5.57496],[-74.89387,5.57496],[-74.89387,5.57496],[-74.89387,5.57496],[-74.89388,5.57496]]],[[[-74.88796,5.5772],[-74.88796,5.57723],[-74.88796,5.57723],[-74.88799,5.57723],[-74.88799,5.57723],[-74.888,5.57723],[-74.888,5.57723],[-74.888,5.57723],[-74.888,5.57723],[-74.888,5.57722],[-74.888,5.57722],[-74.888,5.57722],[-74.888,5.57722],[-74.888,5.57722],[-74.888,5.57722],[-74.88801,5.57722],[-74.88801,5.57721],[-74.88801,5.57721],[-74.88801,5.57721],[-74.88801,5.57721],[-74.88801,5.57721],[-74.88801,5.57721],[-74.88801,5.5772],[-74.88801,5.5772],[-74.88801,5.5772],[-74.88802,5.5772],[-74.88802,5.5772],[-74.88802,5.5772],[-74.88802,5.5772],[-74.88802,5.5772],[-74.88802,5.5772],[-74.88802,5.5772],[-74.88803,5.57721],[-74.88803,5.57721],[-74.88803,5.57721],[-74.88803,5.57721],[-74.88804,5.57722],[-74.88804,5.57722],[-74.88804,5.57722],[-74.88805,5.57722],[-74.88805,5.57722],[-74.88806,5.57722],[-74.88806,5.57722],[-74.88806,5.57723],[-74.88807,5.57723],[-74.88807,5.57723],[-74.88807,5.57723],[-74.88807,5.57723],[-74.88808,5.57723],[-74.88809,5.57723],[-74.88809,5.57723],[-74.88809,5.57723],[-74.8881,5.57723],[-74.8881,5.57723],[-74.8881,5.57723],[-74.8881,5.57723],[-74.88812,5.57722],[-74.88812,5.57722],[-74.88812,5.57722],[-74.88813,5.57722],[-74.88813,5.57722],[-74.88813,5.57722],[-74.88814,5.57722],[-74.88814,5.57721],[-74.88815,5.57721],[-74.88815,5.57721],[-74.88815,5.5772],[-74.88816,5.5772],[-74.88816,5.5772],[-74.88816,5.5772],[-74.88816,5.57719],[-74.88816,5.57719],[-74.88816,5.57719],[-74.88817,5.57718],[-74.88826,5.57708],[-74.88824,5.57705],[-74.88824,5.57704],[-74.88823,5.57703],[-74.88822,5.57701],[-74.88822,5.57701],[-74.88817,5.57695],[-74.88815,5.57693],[-74.88813,5.57692],[-74.88796,5.57692],[-74.88783,5.57683],[-74.8878,5.57682],[-74.88771,5.5767],[-74.8876,5.5767],[-74.8874,5.57671],[-74.88733,5.57669],[-74.88732,5.57669],[-74.88727,5.57664],[-74.88725,5.57661],[-74.88713,5.5766],[-74.8871,5.57656],[-74.88708,5.57652],[-74.88708,5.57652],[-74.88708,5.57647],[-74.88709,5.57643],[-74.88712,5.5764],[-74.88715,5.57635],[-74.88716,5.57634],[-74.88716,5.57633],[-74.88717,5.57632],[-74.88718,5.57625],[-74.88718,5.57624],[-74.8872,5.57617],[-74.88721,5.57617],[-74.88722,5.57616],[-74.88723,5.57615],[-74.88727,5.5761],[-74.88727,5.57609],[-74.88728,5.57608],[-74.8873,5.57604],[-74.8873,5.57604],[-74.8873,5.57602],[-74.88733,5.57594],[-74.88733,5.57594],[-74.88734,5.57589],[-74.88737,5.57591],[-74.88738,5.5759],[-74.88738,5.5759],[-74.88738,5.57589],[-74.88738,5.57589],[-74.88738,5.57589],[-74.88738,5.57589],[-74.88738,5.57589],[-74.88738,5.57589],[-74.88738,5.57589],[-74.88739,5.57589],[-74.88739,5.57589],[-74.88739,5.57589],[-74.88739,5.57589],[-74.88739,5.57589],[-74.88739,5.57589],[-74.88739,5.57589],[-74.88739,5.57589],[-74.88739,5.57589],[-74.88739,5.57589],[-74.88739,5.57589],[-74.88739,5.57589],[-74.88739,5.57589],[-74.88739,5.57589],[-74.88739,5.57589],[-74.88739,5.57589],[-74.88739,5.57589],[-74.88739,5.57589],[-74.88739,5.57588],[-74.88739,5.57588],[-74.88739,5.57588],[-74.88739,5.57588],[-74.88739,5.57588],[-74.88739,5.57588],[-74.88739,5.57588],[-74.88739,5.57588],[-74.88739,5.57588],[-74.88739,5.57588],[-74.88739,5.57588],[-74.88739,5.57588],[-74.8874,5.57588],[-74.8874,5.57588],[-74.8874,5.57588],[-74.8874,5.57588],[-74.8874,5.57588],[-74.8874,5.57588],[-74.8874,5.57588],[-74.8874,5.57588],[-74.8874,5.57588],[-74.8874,5.57588],[-74.8874,5.57588],[-74.8874,5.57588],[-74.8874,5.57588],[-74.8874,5.57588],[-74.8874,5.57588],[-74.8874,5.57588],[-74.8874,5.57588],[-74.8874,5.57588],[-74.8874,5.57588],[-74.8874,5.57588],[-74.88741,5.57588],[-74.88741,5.57588],[-74.88741,5.57588],[-74.88741,5.57588],[-74.88741,5.57588],[-74.88741,5.57588],[-74.88741,5.57588],[-74.88741,5.57588],[-74.88741,5.57588],[-74.88741,5.57588],[-74.88741,5.57588],[-74.88741,5.57588],[-74.88741,5.57588],[-74.88741,5.57588],[-74.88741,5.57588],[-74.88741,5.57588],[-74.88741,5.57588],[-74.88741,5.57588],[-74.88741,5.57588],[-74.88741,5.57587],[-74.88741,5.57587],[-74.88741,5.57587],[-74.88741,5.57587],[-74.88741,5.57587],[-74.88741,5.57587],[-74.88741,5.57587],[-74.88741,5.57587],[-74.88741,5.57587],[-74.88741,5.57587],[-74.88742,5.57587],[-74.88742,5.57587],[-74.88742,5.57587],[-74.88742,5.57587],[-74.88742,5.57587],[-74.88742,5.57587],[-74.88742,5.57587],[-74.88742,5.57587],[-74.88742,5.57587],[-74.88742,5.57587],[-74.88742,5.57588],[-74.88742,5.57588],[-74.88742,5.57588],[-74.88742,5.57588],[-74.88742,5.57588],[-74.88743,5.57588],[-74.88743,5.57588],[-74.88743,5.57588],[-74.88743,5.57588],[-74.88743,5.57588],[-74.88743,5.57588],[-74.88743,5.57588],[-74.88743,5.57588],[-74.88743,5.57588],[-74.88743,5.57588],[-74.88743,5.57588],[-74.88743,5.57588],[-74.88743,5.57588],[-74.88743,5.57588],[-74.88743,5.57588],[-74.88743,5.57588],[-74.88743,5.57588],[-74.88743,5.57588],[-74.88743,5.57588],[-74.88743,5.57588],[-74.88743,5.57588],[-74.88744,5.57588],[-74.88744,5.57588],[-74.88744,5.57588],[-74.88744,5.57588],[-74.88744,5.57588],[-74.88744,5.57588],[-74.88744,5.57588],[-74.88744,5.57588],[-74.88744,5.57588],[-74.88744,5.57588],[-74.88744,5.57588],[-74.88744,5.57588],[-74.88744,5.57588],[-74.88744,5.57588],[-74.88744,5.57588],[-74.88744,5.57588],[-74.88744,5.57588],[-74.88744,5.57587],[-74.88744,5.57587],[-74.88743,5.57587],[-74.88743,5.57587],[-74.88743,5.57587],[-74.88743,5.57587],[-74.88743,5.57587],[-74.88743,5.57587],[-74.88743,5.57587],[-74.88743,5.57587],[-74.88743,5.57586],[-74.88743,5.57586],[-74.88743,5.57586],[-74.88743,5.57586],[-74.88743,5.57586],[-74.88743,5.57586],[-74.88744,5.57586],[-74.88744,5.57586],[-74.88744,5.57586],[-74.88744,5.57586],[-74.88744,5.57586],[-74.88744,5.57586],[-74.88744,5.57586],[-74.88744,5.57586],[-74.88744,5.57585],[-74.88744,5.57585],[-74.88744,5.57585],[-74.88744,5.57585],[-74.88744,5.57585],[-74.88744,5.57585],[-74.88744,5.57585],[-74.88745,5.57585],[-74.88745,5.57585],[-74.88745,5.57585],[-74.88745,5.57585],[-74.88745,5.57585],[-74.88745,5.57585],[-74.88745,5.57585],[-74.88745,5.57585],[-74.88745,5.57585],[-74.88745,5.57585],[-74.88745,5.57585],[-74.88745,5.57585],[-74.88745,5.57585],[-74.88745,5.57585],[-74.88745,5.57585],[-74.88745,5.57584],[-74.88745,5.57584],[-74.88745,5.57584],[-74.88745,5.57584],[-74.88745,5.57584],[-74.88745,5.57584],[-74.88745,5.57584],[-74.88745,5.57584],[-74.88745,5.57584],[-74.88745,5.57584],[-74.88745,5.57584],[-74.88745,5.57584],[-74.88745,5.57584],[-74.88745,5.57584],[-74.88746,5.57584],[-74.88746,5.57584],[-74.88746,5.57584],[-74.88746,5.57584],[-74.88746,5.57584],[-74.88746,5.57584],[-74.88746,5.57584],[-74.88746,5.57584],[-74.88746,5.57584],[-74.88746,5.57584],[-74.88746,5.57584],[-74.88746,5.57584],[-74.88746,5.57584],[-74.88746,5.57584],[-74.88746,5.57584],[-74.88746,5.57584],[-74.88746,5.57584],[-74.88747,5.57584],[-74.88747,5.57584],[-74.88747,5.57584],[-74.88747,5.57584],[-74.88747,5.57584],[-74.88747,5.57584],[-74.88747,5.57584],[-74.88747,5.57584],[-74.88747,5.57584],[-74.88747,5.57584],[-74.88747,5.57584],[-74.88747,5.57584],[-74.88748,5.57584],[-74.88748,5.57584],[-74.88748,5.57584],[-74.88748,5.57584],[-74.88748,5.57584],[-74.88748,5.57584],[-74.88748,5.57584],[-74.88748,5.57584],[-74.88748,5.57584],[-74.88748,5.57584],[-74.88748,5.57584],[-74.88748,5.57584],[-74.88748,5.57584],[-74.88748,5.57584],[-74.88748,5.57584],[-74.88748,5.57584],[-74.88748,5.57584],[-74.88748,5.57584],[-74.88748,5.57584],[-74.88748,5.57584],[-74.88748,5.57584],[-74.88748,5.57583],[-74.88748,5.57583],[-74.88748,5.57583],[-74.88748,5.57583],[-74.88748,5.57583],[-74.88748,5.57583],[-74.88748,5.57583],[-74.88748,5.57583],[-74.88744,5.57574],[-74.88747,5.57569],[-74.88748,5.57568],[-74.8875,5.57565],[-74.88755,5.57556],[-74.88756,5.57555],[-74.88756,5.57555],[-74.88756,5.57554],[-74.88758,5.57556],[-74.88758,5.57556],[-74.88758,5.57556],[-74.88758,5.57556],[-74.88758,5.57556],[-74.88758,5.57556],[-74.88758,5.57556],[-74.88758,5.57556],[-74.88758,5.57556],[-74.88758,5.57556],[-74.88758,5.57556],[-74.88758,5.57556],[-74.88758,5.57556],[-74.88758,5.57556],[-74.88758,5.57556],[-74.88758,5.57556],[-74.88758,5.57556],[-74.88758,5.57556],[-74.88758,5.57556],[-74.88758,5.57556],[-74.88758,5.57556],[-74.88758,5.57556],[-74.88758,5.57556],[-74.88758,5.57556],[-74.88759,5.57556],[-74.88759,5.57556],[-74.88759,5.57556],[-74.88759,5.57556],[-74.88759,5.57556],[-74.88759,5.57556],[-74.88759,5.57556],[-74.88759,5.57556],[-74.88759,5.57556],[-74.88759,5.57556],[-74.88759,5.57556],[-74.88759,5.57556],[-74.88759,5.57556],[-74.88759,5.57556],[-74.88759,5.57557],[-74.88759,5.57557],[-74.88759,5.57557],[-74.88759,5.57557],[-74.88759,5.57557],[-74.88759,5.57557],[-74.88759,5.57557],[-74.88759,5.57557],[-74.88758,5.57557],[-74.88758,5.57557],[-74.88758,5.57557],[-74.88758,5.57557],[-74.88758,5.57557],[-74.88758,5.57557],[-74.88763,5.57561],[-74.88766,5.57557],[-74.88766,5.57557],[-74.88766,5.57557],[-74.88765,5.57557],[-74.88765,5.57556],[-74.88765,5.57556],[-74.88765,5.57556],[-74.88765,5.57556],[-74.88765,5.57556],[-74.88765,5.57556],[-74.88765,5.57556],[-74.88765,5.57556],[-74.88765,5.57556],[-74.88765,5.57556],[-74.88765,5.57555],[-74.88765,5.57555],[-74.88765,5.57555],[-74.88765,5.57555],[-74.88764,5.57555],[-74.88764,5.57555],[-74.88764,5.57555],[-74.88764,5.57555],[-74.88764,5.57555],[-74.88764,5.57555],[-74.88764,5.57555],[-74.88764,5.57555],[-74.88764,5.57555],[-74.88764,5.57554],[-74.88764,5.57554],[-74.88764,5.57554],[-74.88764,5.57554],[-74.88764,5.57554],[-74.88764,5.57554],[-74.88764,5.57554],[-74.88764,5.57554],[-74.88764,5.57554],[-74.88764,5.57554],[-74.88764,5.57554],[-74.88764,5.57554],[-74.88763,5.57554],[-74.88763,5.57554],[-74.88763,5.57554],[-74.88763,5.57554],[-74.88763,5.57554],[-74.88763,5.57554],[-74.88763,5.57553],[-74.88763,5.57553],[-74.88763,5.57553],[-74.88763,5.57553],[-74.88763,5.57553],[-74.88763,5.57553],[-74.88763,5.57553],[-74.88762,5.57553],[-74.88762,5.57553],[-74.88762,5.57553],[-74.88762,5.57553],[-74.88762,5.57553],[-74.88762,5.57553],[-74.88762,5.57553],[-74.88762,5.57553],[-74.88762,5.57553],[-74.88762,5.57553],[-74.88762,5.57553],[-74.88762,5.57553],[-74.88762,5.57552],[-74.88762,5.57552],[-74.88762,5.57552],[-74.88762,5.57552],[-74.88762,5.57552],[-74.88762,5.57552],[-74.88762,5.57552],[-74.88762,5.57552],[-74.88762,5.57552],[-74.88762,5.57552],[-74.88762,5.57552],[-74.88762,5.57552],[-74.88762,5.57552],[-74.88763,5.57552],[-74.88763,5.57552],[-74.88763,5.57551],[-74.88763,5.57551],[-74.88763,5.57551],[-74.88763,5.57551],[-74.88763,5.57551],[-74.88763,5.57551],[-74.88763,5.57551],[-74.88763,5.57551],[-74.88763,5.57551],[-74.88763,5.57551],[-74.88763,5.57551],[-74.88763,5.57551],[-74.88763,5.57551],[-74.88763,5.57551],[-74.88763,5.57551],[-74.88763,5.57551],[-74.88763,5.57551],[-74.88764,5.57551],[-74.88764,5.57551],[-74.88764,5.57551],[-74.88764,5.57551],[-74.88764,5.57551],[-74.88764,5.57551],[-74.88764,5.57551],[-74.88764,5.57551],[-74.88764,5.57551],[-74.88764,5.57551],[-74.88764,5.57551],[-74.88764,5.57551],[-74.88764,5.57551],[-74.88764,5.57551],[-74.88765,5.57551],[-74.88765,5.57551],[-74.88765,5.57551],[-74.88765,5.57551],[-74.88765,5.57551],[-74.88765,5.57551],[-74.88765,5.57551],[-74.88765,5.57551],[-74.88765,5.57551],[-74.88765,5.57551],[-74.88766,5.57551],[-74.88766,5.57551],[-74.88766,5.57551],[-74.88766,5.57551],[-74.88766,5.57551],[-74.88766,5.57551],[-74.88766,5.57551],[-74.88766,5.57551],[-74.88766,5.57551],[-74.88766,5.57551],[-74.88767,5.5755],[-74.88767,5.5755],[-74.88767,5.5755],[-74.88767,5.5755],[-74.88767,5.5755],[-74.88767,5.5755],[-74.88767,5.5755],[-74.88767,5.5755],[-74.88767,5.5755],[-74.88767,5.57549],[-74.88767,5.57549],[-74.88767,5.57549],[-74.88767,5.57549],[-74.88767,5.57549],[-74.88767,5.57549],[-74.88768,5.57549],[-74.88768,5.57549],[-74.88768,5.57549],[-74.88768,5.57549],[-74.88768,5.57549],[-74.88768,5.57549],[-74.88768,5.57549],[-74.88768,5.57549],[-74.88768,5.57549],[-74.88768,5.57549],[-74.88768,5.57549],[-74.88768,5.57549],[-74.88768,5.57549],[-74.88768,5.57549],[-74.88769,5.57549],[-74.88769,5.57549],[-74.88769,5.57549],[-74.88769,5.57549],[-74.88769,5.57549],[-74.88769,5.57549],[-74.88769,5.57549],[-74.88769,5.57549],[-74.88769,5.57549],[-74.88769,5.57549],[-74.88769,5.57549],[-74.8877,5.57549],[-74.8877,5.57549],[-74.8877,5.57549],[-74.8877,5.57549],[-74.8877,5.57549],[-74.8877,5.57549],[-74.8877,5.57549],[-74.8877,5.57549],[-74.8877,5.57549],[-74.8877,5.57549],[-74.8877,5.57549],[-74.8877,5.57549],[-74.8877,5.57549],[-74.8877,5.57549],[-74.8877,5.57549],[-74.8877,5.57549],[-74.88771,5.57549],[-74.88771,5.57549],[-74.88771,5.57548],[-74.88771,5.57548],[-74.88771,5.57548],[-74.88771,5.57548],[-74.88771,5.57548],[-74.88771,5.57548],[-74.88771,5.57548],[-74.88771,5.57548],[-74.88771,5.57548],[-74.88771,5.57548],[-74.88771,5.57548],[-74.88771,5.57548],[-74.88772,5.57548],[-74.88772,5.57548],[-74.88772,5.57548],[-74.88772,5.57548],[-74.88772,5.57548],[-74.88772,5.57548],[-74.88772,5.57548],[-74.88772,5.57548],[-74.88772,5.57548],[-74.88772,5.57548],[-74.88772,5.57548],[-74.88772,5.57548],[-74.88772,5.57548],[-74.88772,5.57548],[-74.88772,5.57547],[-74.88773,5.57547],[-74.88773,5.57547],[-74.88773,5.57547],[-74.88773,5.57547],[-74.88773,5.57547],[-74.88773,5.57547],[-74.88773,5.57547],[-74.88773,5.57547],[-74.88773,5.57547],[-74.88773,5.57547],[-74.88773,5.57547],[-74.88773,5.57547],[-74.88773,5.57547],[-74.88773,5.57547],[-74.88773,5.57547],[-74.88773,5.57547],[-74.88773,5.57546],[-74.88773,5.57546],[-74.88773,5.57546],[-74.88773,5.57546],[-74.88773,5.57546],[-74.88773,5.57546],[-74.88773,5.57546],[-74.88774,5.57546],[-74.88774,5.57546],[-74.88774,5.57546],[-74.88774,5.57546],[-74.88774,5.57546],[-74.88774,5.57546],[-74.88774,5.57546],[-74.88774,5.57546],[-74.88774,5.57546],[-74.88774,5.57546],[-74.88774,5.57546],[-74.88774,5.57546],[-74.88774,5.57546],[-74.88774,5.57546],[-74.88774,5.57546],[-74.88774,5.57546],[-74.88774,5.57546],[-74.88774,5.57546],[-74.88774,5.57546],[-74.88774,5.57546],[-74.88774,5.57546],[-74.88774,5.57546],[-74.88774,5.57546],[-74.88774,5.57546],[-74.88775,5.57546],[-74.88775,5.57546],[-74.88775,5.57546],[-74.88775,5.57547],[-74.88775,5.57547],[-74.88775,5.57547],[-74.88775,5.57547],[-74.88775,5.57547],[-74.88775,5.57547],[-74.88775,5.57547],[-74.88775,5.57547],[-74.88775,5.57547],[-74.88775,5.57547],[-74.88775,5.57547],[-74.88775,5.57547],[-74.88775,5.57547],[-74.88775,5.57547],[-74.88775,5.57547],[-74.88775,5.57547],[-74.88775,5.57547],[-74.88775,5.57547],[-74.88775,5.57547],[-74.88775,5.57547],[-74.88775,5.57547],[-74.88776,5.57547],[-74.88776,5.57547],[-74.88776,5.57547],[-74.88776,5.57547],[-74.88776,5.57546],[-74.88776,5.57546],[-74.88776,5.57546],[-74.88776,5.57546],[-74.88776,5.57546],[-74.88776,5.57546],[-74.88776,5.57546],[-74.88776,5.57546],[-74.88776,5.57546],[-74.88776,5.57546],[-74.88776,5.57546],[-74.88776,5.57546],[-74.88776,5.57546],[-74.88776,5.57546],[-74.88776,5.57546],[-74.88776,5.57546],[-74.88776,5.57546],[-74.88776,5.57546],[-74.88776,5.57546],[-74.88776,5.57546],[-74.88777,5.57546],[-74.88777,5.57546],[-74.88777,5.57546],[-74.88777,5.57546],[-74.88777,5.57546],[-74.88777,5.57546],[-74.88777,5.57546],[-74.88777,5.57546],[-74.88777,5.57546],[-74.88777,5.57546],[-74.88777,5.57546],[-74.88777,5.57546],[-74.88777,5.57546],[-74.88777,5.57546],[-74.88777,5.57546],[-74.88777,5.57546],[-74.88777,5.57546],[-74.88777,5.57546],[-74.88777,5.57546],[-74.88777,5.57546],[-74.88777,5.57546],[-74.88777,5.57546],[-74.88777,5.57546],[-74.88777,5.57546],[-74.88777,5.57547],[-74.88777,5.57547],[-74.88779,5.57545],[-74.88782,5.57548],[-74.88782,5.57548],[-74.88782,5.57548],[-74.88782,5.57548],[-74.88782,5.57548],[-74.88782,5.57548],[-74.88782,5.57548],[-74.88782,5.57548],[-74.88782,5.57548],[-74.88783,5.57548],[-74.88783,5.57548],[-74.88783,5.57548],[-74.88783,5.57548],[-74.88783,5.57548],[-74.88783,5.57548],[-74.88783,5.57548],[-74.88783,5.57548],[-74.88783,5.57548],[-74.88783,5.57548],[-74.88783,5.57548],[-74.88783,5.57548],[-74.88783,5.57548],[-74.88783,5.57548],[-74.88783,5.57548],[-74.88783,5.57548],[-74.88783,5.57548],[-74.88783,5.57548],[-74.88784,5.57549],[-74.88784,5.57549],[-74.88784,5.57549],[-74.88784,5.57549],[-74.88784,5.57549],[-74.88784,5.5755],[-74.88784,5.5755],[-74.88784,5.5755],[-74.88784,5.5755],[-74.88786,5.57549],[-74.8879,5.57545],[-74.88792,5.57543],[-74.88791,5.57543],[-74.88791,5.57543],[-74.88791,5.57543],[-74.88791,5.57543],[-74.88791,5.57543],[-74.88791,5.57543],[-74.88791,5.57543],[-74.88791,5.57543],[-74.88791,5.57543],[-74.88791,5.57543],[-74.88791,5.57543],[-74.88791,5.57543],[-74.88791,5.57543],[-74.88791,5.57543],[-74.88791,5.57543],[-74.88791,5.57543],[-74.88791,5.57543],[-74.88791,5.57542],[-74.88791,5.57542],[-74.88791,5.57542],[-74.88791,5.57542],[-74.88791,5.57542],[-74.88791,5.57542],[-74.88791,5.57542],[-74.88791,5.57542],[-74.88791,5.57542],[-74.88791,5.57542],[-74.88792,5.57542],[-74.88792,5.57542],[-74.88792,5.57542],[-74.88792,5.57542],[-74.88792,5.57542],[-74.88792,5.57542],[-74.88792,5.57542],[-74.88792,5.57542],[-74.88792,5.57542],[-74.88792,5.57542],[-74.88792,5.57542],[-74.88792,5.57542],[-74.88792,5.57542],[-74.88792,5.57542],[-74.88792,5.57542],[-74.88792,5.57542],[-74.88792,5.57542],[-74.88792,5.57542],[-74.88792,5.57542],[-74.88792,5.57542],[-74.88792,5.57542],[-74.88792,5.57542],[-74.88792,5.57542],[-74.88792,5.57542],[-74.88792,5.57542],[-74.88792,5.57542],[-74.88792,5.57542],[-74.88792,5.57541],[-74.88792,5.57541],[-74.88792,5.57541],[-74.88792,5.57541],[-74.88792,5.57541],[-74.88792,5.57541],[-74.88792,5.57541],[-74.88792,5.57541],[-74.88792,5.57541],[-74.88792,5.57541],[-74.88792,5.57541],[-74.88791,5.57541],[-74.88791,5.57541],[-74.88791,5.57541],[-74.88791,5.57541],[-74.88791,5.57541],[-74.88791,5.5754],[-74.88791,5.5754],[-74.88791,5.5754],[-74.88791,5.5754],[-74.88791,5.5754],[-74.8879,5.57539],[-74.8879,5.57539],[-74.8879,5.57539],[-74.8879,5.57539],[-74.8879,5.57539],[-74.8879,5.57539],[-74.8879,5.57539],[-74.8879,5.57539],[-74.8879,5.57539],[-74.8879,5.57539],[-74.8879,5.57539],[-74.8879,5.57539],[-74.8879,5.57539],[-74.8879,5.57539],[-74.8879,5.57539],[-74.8879,5.57539],[-74.8879,5.57539],[-74.8879,5.57539],[-74.8879,5.57539],[-74.8879,5.57539],[-74.8879,5.57539],[-74.8879,5.57539],[-74.8879,5.57539],[-74.8879,5.57539],[-74.8879,5.57539],[-74.8879,5.57539],[-74.8879,5.57539],[-74.8879,5.57539],[-74.8879,5.57539],[-74.8879,5.57539],[-74.8879,5.57539],[-74.8879,5.57539],[-74.88789,5.57539],[-74.88789,5.57539],[-74.88789,5.57539],[-74.88789,5.57539],[-74.88789,5.57539],[-74.88789,5.57539],[-74.88789,5.57539],[-74.88789,5.57539],[-74.88789,5.57539],[-74.88789,5.57539],[-74.88789,5.57539],[-74.88789,5.57539],[-74.88789,5.57538],[-74.88789,5.57538],[-74.88789,5.57538],[-74.88789,5.57538],[-74.88789,5.57538],[-74.88788,5.57538],[-74.88788,5.57538],[-74.88788,5.57538],[-74.88788,5.57538],[-74.88788,5.57538],[-74.88788,5.57538],[-74.88788,5.57538],[-74.88788,5.57538],[-74.88788,5.57538],[-74.88788,5.57538],[-74.88788,5.57538],[-74.88788,5.57538],[-74.88788,5.57538],[-74.88788,5.57538],[-74.88788,5.57538],[-74.88788,5.57538],[-74.88788,5.57538],[-74.88788,5.57537],[-74.88788,5.57537],[-74.88788,5.57537],[-74.88788,5.57537],[-74.88788,5.57537],[-74.88788,5.57537],[-74.88788,5.57537],[-74.88788,5.57537],[-74.88788,5.57537],[-74.88787,5.57537],[-74.88787,5.57537],[-74.88787,5.57537],[-74.88787,5.57536],[-74.88787,5.57536],[-74.88787,5.57536],[-74.88787,5.57536],[-74.88787,5.57536],[-74.88787,5.57536],[-74.88787,5.57536],[-74.88787,5.57536],[-74.88787,5.57535],[-74.88787,5.57535],[-74.88787,5.57535],[-74.88787,5.57535],[-74.88787,5.57535],[-74.88787,5.57535],[-74.88787,5.57535],[-74.88787,5.57535],[-74.88787,5.57535],[-74.88787,5.57535],[-74.88787,5.57535],[-74.88787,5.57534],[-74.88787,5.57534],[-74.88787,5.57534],[-74.88787,5.57534],[-74.88787,5.57534],[-74.88787,5.57534],[-74.88787,5.57533],[-74.88787,5.57533],[-74.88787,5.57533],[-74.88788,5.57533],[-74.88788,5.57533],[-74.88788,5.57532],[-74.88788,5.57532],[-74.88788,5.57532],[-74.88788,5.57532],[-74.88788,5.57532],[-74.88788,5.57532],[-74.88788,5.57532],[-74.88788,5.57532],[-74.88788,5.57532],[-74.88788,5.57532],[-74.88788,5.57532],[-74.88788,5.57532],[-74.88788,5.57532],[-74.88788,5.57532],[-74.88787,5.57532],[-74.88787,5.57532],[-74.88787,5.57532],[-74.88787,5.57532],[-74.88787,5.57532],[-74.88787,5.57532],[-74.88787,5.57532],[-74.88787,5.57532],[-74.88787,5.57532],[-74.88787,5.57532],[-74.88787,5.57532],[-74.88787,5.57532],[-74.88787,5.57532],[-74.88787,5.57532],[-74.88787,5.57531],[-74.88787,5.57531],[-74.88787,5.57531],[-74.88787,5.57531],[-74.88787,5.57531],[-74.88787,5.57531],[-74.88787,5.57531],[-74.88787,5.57531],[-74.88787,5.57531],[-74.88787,5.57531],[-74.88787,5.57531],[-74.88787,5.57531],[-74.88787,5.57531],[-74.88787,5.57531],[-74.88787,5.57531],[-74.88787,5.57531],[-74.88787,5.57531],[-74.88787,5.57531],[-74.88787,5.57531],[-74.88787,5.57531],[-74.88787,5.57531],[-74.88787,5.5753],[-74.88787,5.5753],[-74.88787,5.5753],[-74.88787,5.5753],[-74.88787,5.5753],[-74.88787,5.5753],[-74.88787,5.5753],[-74.88787,5.5753],[-74.88787,5.5753],[-74.88787,5.5753],[-74.88787,5.5753],[-74.88787,5.5753],[-74.88787,5.5753],[-74.88787,5.57529],[-74.88787,5.57529],[-74.88787,5.57529],[-74.88787,5.57529],[-74.88788,5.57529],[-74.88788,5.57529],[-74.88788,5.57529],[-74.88788,5.57529],[-74.88788,5.57529],[-74.88788,5.57529],[-74.88788,5.57529],[-74.88788,5.57529],[-74.88788,5.57529],[-74.88788,5.57529],[-74.88788,5.57529],[-74.88788,5.57529],[-74.88788,5.57529],[-74.88788,5.57529],[-74.88788,5.57529],[-74.88788,5.57528],[-74.88788,5.57528],[-74.88788,5.57528],[-74.88788,5.57528],[-74.88793,5.57526],[-74.88794,5.57526],[-74.88795,5.57525],[-74.88799,5.57526],[-74.88801,5.57524],[-74.88801,5.57522],[-74.88801,5.57522],[-74.88803,5.57521],[-74.88803,5.5752],[-74.88803,5.5752],[-74.88803,5.5752],[-74.88803,5.57521],[-74.88803,5.57521],[-74.88803,5.57521],[-74.88803,5.57521],[-74.88804,5.57521],[-74.88804,5.57521],[-74.88804,5.57521],[-74.88804,5.57521],[-74.88804,5.57521],[-74.88804,5.57522],[-74.88805,5.57522],[-74.88805,5.57522],[-74.88805,5.57522],[-74.88805,5.57522],[-74.88805,5.57522],[-74.88805,5.57522],[-74.88805,5.57522],[-74.88806,5.57522],[-74.88806,5.57522],[-74.88806,5.57522],[-74.88806,5.57523],[-74.88807,5.57523],[-74.88807,5.57523],[-74.88807,5.57523],[-74.88807,5.57523],[-74.88808,5.57523],[-74.88808,5.57523],[-74.88808,5.57523],[-74.88808,5.57523],[-74.88808,5.57523],[-74.88808,5.57523],[-74.88808,5.57523],[-74.88808,5.57523],[-74.88808,5.57523],[-74.88808,5.57523],[-74.88808,5.57523],[-74.88808,5.57523],[-74.88808,5.57523],[-74.88808,5.57523],[-74.88808,5.57523],[-74.88808,5.57523],[-74.88809,5.57523],[-74.88809,5.57523],[-74.88809,5.57523],[-74.88809,5.57523],[-74.88809,5.57523],[-74.88809,5.57523],[-74.88809,5.57523],[-74.88809,5.57523],[-74.8881,5.57523],[-74.8881,5.57523],[-74.8881,5.57522],[-74.8881,5.57522],[-74.8881,5.57522],[-74.8881,5.57522],[-74.8881,5.57522],[-74.88811,5.57522],[-74.88811,5.57522],[-74.88811,5.57522],[-74.88811,5.57522],[-74.88811,5.57522],[-74.88811,5.57522],[-74.88811,5.57522],[-74.88811,5.57522],[-74.88811,5.57522],[-74.88811,5.57522],[-74.88811,5.57522],[-74.88811,5.57522],[-74.88811,5.57522],[-74.88811,5.57522],[-74.88811,5.57522],[-74.88811,5.57521],[-74.88811,5.57521],[-74.88811,5.57521],[-74.88811,5.57521],[-74.88811,5.57521],[-74.88811,5.57521],[-74.88811,5.57521],[-74.88811,5.57521],[-74.88811,5.57521],[-74.88811,5.5752],[-74.88811,5.5752],[-74.88811,5.5752],[-74.88811,5.5752],[-74.88811,5.57519],[-74.88811,5.57518],[-74.88811,5.57518],[-74.88811,5.57518],[-74.88811,5.57518],[-74.88811,5.57517],[-74.88811,5.57517],[-74.88811,5.57516],[-74.88811,5.57516],[-74.88811,5.57516],[-74.88811,5.57516],[-74.88811,5.57516],[-74.88811,5.57516],[-74.88811,5.57515],[-74.88811,5.57515],[-74.88811,5.57515],[-74.88813,5.57514],[-74.88813,5.57514],[-74.88814,5.57514],[-74.88814,5.57514],[-74.88814,5.57514],[-74.88814,5.57514],[-74.88814,5.57514],[-74.88814,5.57514],[-74.88814,5.57514],[-74.88814,5.57514],[-74.88814,5.57514],[-74.88814,5.57514],[-74.88814,5.57514],[-74.88814,5.57514],[-74.88815,5.57514],[-74.88815,5.57515],[-74.88815,5.57515],[-74.88815,5.57515],[-74.88816,5.57516],[-74.88816,5.57516],[-74.88816,5.57516],[-74.88816,5.57516],[-74.88816,5.57516],[-74.88816,5.57516],[-74.88816,5.57516],[-74.88817,5.57516],[-74.88817,5.57516],[-74.88817,5.57516],[-74.88817,5.57516],[-74.88817,5.57516],[-74.88817,5.57516],[-74.88817,5.57516],[-74.88817,5.57516],[-74.88817,5.57516],[-74.88817,5.57516],[-74.88817,5.57516],[-74.88817,5.57516],[-74.88817,5.57516],[-74.88817,5.57516],[-74.88817,5.57516],[-74.88817,5.57516],[-74.88817,5.57516],[-74.88817,5.57516],[-74.88817,5.57516],[-74.88818,5.57516],[-74.88818,5.57516],[-74.88818,5.57516],[-74.88818,5.57516],[-74.88818,5.57516],[-74.88818,5.57516],[-74.88818,5.57516],[-74.88818,5.57516],[-74.88818,5.57516],[-74.88818,5.57516],[-74.88818,5.57516],[-74.88818,5.57516],[-74.88818,5.57516],[-74.88818,5.57516],[-74.88818,5.57516],[-74.88818,5.57516],[-74.88818,5.57516],[-74.88818,5.57516],[-74.88818,5.57516],[-74.88818,5.57515],[-74.88818,5.57515],[-74.88818,5.57515],[-74.88818,5.57515],[-74.88818,5.57515],[-74.88818,5.57515],[-74.88818,5.57515],[-74.88818,5.57515],[-74.88818,5.57515],[-74.88818,5.57515],[-74.88818,5.57515],[-74.88818,5.57515],[-74.88818,5.57515],[-74.88818,5.57515],[-74.88818,5.57515],[-74.88818,5.57515],[-74.88818,5.57514],[-74.88818,5.57514],[-74.88818,5.57514],[-74.88818,5.57514],[-74.88818,5.57514],[-74.88818,5.57514],[-74.88818,5.57514],[-74.88818,5.57514],[-74.88818,5.57514],[-74.88818,5.57514],[-74.88818,5.57514],[-74.88818,5.57514],[-74.88818,5.57514],[-74.88818,5.57514],[-74.88818,5.57514],[-74.88818,5.57514],[-74.88818,5.57514],[-74.88818,5.57514],[-74.88818,5.57514],[-74.88818,5.57514],[-74.88818,5.57514],[-74.88818,5.57513],[-74.88818,5.57513],[-74.88818,5.57513],[-74.88818,5.57513],[-74.88818,5.57513],[-74.88818,5.57513],[-74.88818,5.57513],[-74.88818,5.57513],[-74.88818,5.57513],[-74.88818,5.57513],[-74.88818,5.57512],[-74.88818,5.57512],[-74.88818,5.57512],[-74.88818,5.57512],[-74.88818,5.57512],[-74.88818,5.57512],[-74.88818,5.57512],[-74.88818,5.57512],[-74.88818,5.57512],[-74.88818,5.57511],[-74.88818,5.57511],[-74.88818,5.57511],[-74.88818,5.57511],[-74.88821,5.5751],[-74.88821,5.5751],[-74.88822,5.57509],[-74.88822,5.57509],[-74.88822,5.57509],[-74.88822,5.57509],[-74.88822,5.5751],[-74.88822,5.5751],[-74.88822,5.5751],[-74.88822,5.5751],[-74.88822,5.5751],[-74.88822,5.5751],[-74.88822,5.5751],[-74.88822,5.5751],[-74.88822,5.5751],[-74.88823,5.5751],[-74.88823,5.5751],[-74.88823,5.5751],[-74.88823,5.5751],[-74.88823,5.5751],[-74.88823,5.5751],[-74.88823,5.5751],[-74.88823,5.5751],[-74.88823,5.5751],[-74.88823,5.5751],[-74.88823,5.5751],[-74.88823,5.5751],[-74.88823,5.5751],[-74.88823,5.57509],[-74.88823,5.57509],[-74.88823,5.57509],[-74.88823,5.57509],[-74.88823,5.57509],[-74.88823,5.57509],[-74.88823,5.57509],[-74.88823,5.57509],[-74.88823,5.57509],[-74.88823,5.57509],[-74.88823,5.57509],[-74.88823,5.57509],[-74.88824,5.57508],[-74.88824,5.57508],[-74.88824,5.57508],[-74.88824,5.57509],[-74.88824,5.57509],[-74.88824,5.57509],[-74.88824,5.57509],[-74.88825,5.57509],[-74.88825,5.57509],[-74.88825,5.57509],[-74.88825,5.57509],[-74.88825,5.57509],[-74.88825,5.57509],[-74.88825,5.57509],[-74.88825,5.57509],[-74.88825,5.57509],[-74.88825,5.57509],[-74.88825,5.57509],[-74.88825,5.57509],[-74.88825,5.57509],[-74.88825,5.57509],[-74.88825,5.57509],[-74.88825,5.57509],[-74.88825,5.57509],[-74.88826,5.57509],[-74.88826,5.57509],[-74.88826,5.57509],[-74.88826,5.57508],[-74.88826,5.57508],[-74.88826,5.57508],[-74.88826,5.57508],[-74.88826,5.57508],[-74.88827,5.57508],[-74.88827,5.57508],[-74.88827,5.57508],[-74.88827,5.57508],[-74.88827,5.57508],[-74.88827,5.57508],[-74.88827,5.57508],[-74.88827,5.57508],[-74.88827,5.57508],[-74.88827,5.57508],[-74.88827,5.57508],[-74.88828,5.57508],[-74.88828,5.57508],[-74.88828,5.57508],[-74.88828,5.57508],[-74.88828,5.57508],[-74.88828,5.57508],[-74.88828,5.57508],[-74.88828,5.57508],[-74.88828,5.57508],[-74.88828,5.57508],[-74.88828,5.57508],[-74.88828,5.57508],[-74.88828,5.57508],[-74.88828,5.57508],[-74.88828,5.57508],[-74.88828,5.57508],[-74.88828,5.57508],[-74.88828,5.57508],[-74.88828,5.57508],[-74.88828,5.57508],[-74.88828,5.57508],[-74.88829,5.57508],[-74.88829,5.57508],[-74.88829,5.57508],[-74.88829,5.57508],[-74.88829,5.57508],[-74.88829,5.57508],[-74.88829,5.57508],[-74.88829,5.57508],[-74.88829,5.57508],[-74.88829,5.57508],[-74.88829,5.57508],[-74.88829,5.57508],[-74.88829,5.57508],[-74.88829,5.57508],[-74.88829,5.57508],[-74.88829,5.57508],[-74.88829,5.57508],[-74.88829,5.57508],[-74.88829,5.57508],[-74.88829,5.57508],[-74.88829,5.57507],[-74.88829,5.57507],[-74.88829,5.57507],[-74.88829,5.57507],[-74.88829,5.57507],[-74.88829,5.57507],[-74.88829,5.57507],[-74.88829,5.57507],[-74.8883,5.57507],[-74.8883,5.57507],[-74.8884,5.57504],[-74.8884,5.57504],[-74.88842,5.57504],[-74.88842,5.57504],[-74.88842,5.57504],[-74.88842,5.57504],[-74.88842,5.57504],[-74.88842,5.57504],[-74.88842,5.57504],[-74.88842,5.57504],[-74.88842,5.57504],[-74.88842,5.57504],[-74.88842,5.57504],[-74.88842,5.57504],[-74.88842,5.57504],[-74.88842,5.57504],[-74.88842,5.57504],[-74.88842,5.57504],[-74.88843,5.57505],[-74.88843,5.57505],[-74.88843,5.57505],[-74.88843,5.57505],[-74.88843,5.57505],[-74.88843,5.57505],[-74.88843,5.57505],[-74.88843,5.57505],[-74.88843,5.57505],[-74.88843,5.57505],[-74.88843,5.57505],[-74.88843,5.57505],[-74.88843,5.57505],[-74.88843,5.57505],[-74.88844,5.57505],[-74.88844,5.57505],[-74.88844,5.57505],[-74.88844,5.57505],[-74.88844,5.57506],[-74.88844,5.57506],[-74.88844,5.57506],[-74.88844,5.57506],[-74.88844,5.57506],[-74.88844,5.57506],[-74.88844,5.57506],[-74.88844,5.57506],[-74.88844,5.57506],[-74.88844,5.57506],[-74.88844,5.57506],[-74.88845,5.57506],[-74.88845,5.57506],[-74.88845,5.57506],[-74.88845,5.57506],[-74.88845,5.57506],[-74.88845,5.57506],[-74.88845,5.57505],[-74.88845,5.57505],[-74.88845,5.57505],[-74.88845,5.57505],[-74.88845,5.57505],[-74.88845,5.57505],[-74.88845,5.57505],[-74.88845,5.57505],[-74.88846,5.57505],[-74.88846,5.57505],[-74.88846,5.57505],[-74.88848,5.57505],[-74.88855,5.57503],[-74.88859,5.57503],[-74.88859,5.57503],[-74.88859,5.57503],[-74.88859,5.57503],[-74.88859,5.57503],[-74.88859,5.57503],[-74.8886,5.57503],[-74.8886,5.57503],[-74.8886,5.57503],[-74.8886,5.57503],[-74.8886,5.57503],[-74.8886,5.57503],[-74.8886,5.57503],[-74.8886,5.57503],[-74.88861,5.57503],[-74.88861,5.57503],[-74.88861,5.57503],[-74.88861,5.57503],[-74.88861,5.57503],[-74.88861,5.57503],[-74.88861,5.57503],[-74.88861,5.57503],[-74.88862,5.57502],[-74.88862,5.57502],[-74.88862,5.57502],[-74.88862,5.57502],[-74.88862,5.57502],[-74.88862,5.57502],[-74.88863,5.57502],[-74.88863,5.57502],[-74.88863,5.57502],[-74.88863,5.57502],[-74.88863,5.57502],[-74.88863,5.57502],[-74.88863,5.57502],[-74.88863,5.57502],[-74.88864,5.57502],[-74.88864,5.57502],[-74.88864,5.57502],[-74.88864,5.57502],[-74.88864,5.57502],[-74.88864,5.57502],[-74.88865,5.57502],[-74.88865,5.57502],[-74.88865,5.57503],[-74.88865,5.57503],[-74.88865,5.57503],[-74.88865,5.57503],[-74.88865,5.57503],[-74.88866,5.57503],[-74.88866,5.57503],[-74.88866,5.57503],[-74.88866,5.57503],[-74.88866,5.57503],[-74.88866,5.57503],[-74.88866,5.57503],[-74.88866,5.57503],[-74.88866,5.57503],[-74.88866,5.57503],[-74.88866,5.57503],[-74.88866,5.57503],[-74.88866,5.57503],[-74.88866,5.57503],[-74.88866,5.57503],[-74.88866,5.57503],[-74.88866,5.57504],[-74.88866,5.57504],[-74.88866,5.57504],[-74.88866,5.57504],[-74.88866,5.57504],[-74.88867,5.57505],[-74.88867,5.57505],[-74.88867,5.57505],[-74.88867,5.57505],[-74.88867,5.57505],[-74.88867,5.57505],[-74.88867,5.57505],[-74.88867,5.57506],[-74.88867,5.57506],[-74.88867,5.57506],[-74.88867,5.57506],[-74.88867,5.57506],[-74.88867,5.57506],[-74.88867,5.57506],[-74.88867,5.57506],[-74.88867,5.57506],[-74.88867,5.57507],[-74.88867,5.57507],[-74.88867,5.57507],[-74.88867,5.57507],[-74.88867,5.57507],[-74.88868,5.57507],[-74.88868,5.57507],[-74.88877,5.57499],[-74.8888,5.57499],[-74.8888,5.57499],[-74.88881,5.57499],[-74.88888,5.57498],[-74.88889,5.57498],[-74.8889,5.57498],[-74.88898,5.57494],[-74.88908,5.57491],[-74.88909,5.57491],[-74.8891,5.5749],[-74.8892,5.57482],[-74.8892,5.57482],[-74.88923,5.5748],[-74.88924,5.57479],[-74.88924,5.57479],[-74.88935,5.57468],[-74.88941,5.57464],[-74.88942,5.57464],[-74.88945,5.57461],[-74.88945,5.57461],[-74.88947,5.5746],[-74.8895,5.57459],[-74.8895,5.57459],[-74.88951,5.57459],[-74.88954,5.57458],[-74.88955,5.57458],[-74.88956,5.57458],[-74.88957,5.57457],[-74.88961,5.57456],[-74.88962,5.57455],[-74.88966,5.57453],[-74.88966,5.57453],[-74.88968,5.57452],[-74.8897,5.5745],[-74.88972,5.57449],[-74.88974,5.57447],[-74.88975,5.57445],[-74.88975,5.57445],[-74.88981,5.57437],[-74.88981,5.57436],[-74.88982,5.57436],[-74.88982,5.57435],[-74.88984,5.57433],[-74.88984,5.57433],[-74.88988,5.57431],[-74.88988,5.57431],[-74.88993,5.57427],[-74.88995,5.57427],[-74.88998,5.57426],[-74.89002,5.57426],[-74.89003,5.57426],[-74.89003,5.57426],[-74.89006,5.57425],[-74.89008,5.57425],[-74.89008,5.57425],[-74.89013,5.57423],[-74.89013,5.57422],[-74.8902,5.57418],[-74.8902,5.57418],[-74.8902,5.57418],[-74.89029,5.57414],[-74.89032,5.57412],[-74.89034,5.57411],[-74.89034,5.5741],[-74.89039,5.57408],[-74.89041,5.57407],[-74.89041,5.57407],[-74.89041,5.57407],[-74.89041,5.57407],[-74.89041,5.57407],[-74.89041,5.57407],[-74.89041,5.57407],[-74.89041,5.57407],[-74.89041,5.57407],[-74.89042,5.57408],[-74.89042,5.57408],[-74.89042,5.57408],[-74.89042,5.57408],[-74.89042,5.57408],[-74.89042,5.57409],[-74.89042,5.57409],[-74.89042,5.57409],[-74.89042,5.57409],[-74.89042,5.57409],[-74.89042,5.57409],[-74.89042,5.57409],[-74.89042,5.57409],[-74.89042,5.57409],[-74.89042,5.57409],[-74.89042,5.57409],[-74.89042,5.57409],[-74.89042,5.57409],[-74.89042,5.57409],[-74.89042,5.57409],[-74.89042,5.57409],[-74.89042,5.57409],[-74.89042,5.57409],[-74.89042,5.57409],[-74.89042,5.57409],[-74.89042,5.57409],[-74.89042,5.57409],[-74.89042,5.57409],[-74.89043,5.57409],[-74.89043,5.57409],[-74.89043,5.57409],[-74.89043,5.57409],[-74.89043,5.57409],[-74.89043,5.57408],[-74.89043,5.57408],[-74.89043,5.57408],[-74.89043,5.57408],[-74.89043,5.57408],[-74.89043,5.57408],[-74.89043,5.57408],[-74.89043,5.57408],[-74.89043,5.57408],[-74.89043,5.57408],[-74.89043,5.57408],[-74.89043,5.57408],[-74.89043,5.57408],[-74.89043,5.57408],[-74.89043,5.57408],[-74.89043,5.57408],[-74.89043,5.57408],[-74.89044,5.57408],[-74.89044,5.57408],[-74.89044,5.57408],[-74.89044,5.57408],[-74.89044,5.57408],[-74.89044,5.57408],[-74.89044,5.57408],[-74.89044,5.57408],[-74.89044,5.57408],[-74.89045,5.57408],[-74.89045,5.57408],[-74.89045,5.57408],[-74.89045,5.57408],[-74.89045,5.57408],[-74.89045,5.57408],[-74.89045,5.57408],[-74.89045,5.57409],[-74.89045,5.57409],[-74.89045,5.57409],[-74.89045,5.57409],[-74.89045,5.57409],[-74.89045,5.57409],[-74.89045,5.57409],[-74.89045,5.57409],[-74.89045,5.57409],[-74.89045,5.57409],[-74.89045,5.57409],[-74.89045,5.57409],[-74.89045,5.57409],[-74.89045,5.57409],[-74.89045,5.57409],[-74.89045,5.5741],[-74.89045,5.5741],[-74.89045,5.5741],[-74.89045,5.5741],[-74.89045,5.5741],[-74.89045,5.5741],[-74.89045,5.5741],[-74.89045,5.5741],[-74.89045,5.5741],[-74.89045,5.5741],[-74.89045,5.57411],[-74.89045,5.57411],[-74.89045,5.57411],[-74.89045,5.57411],[-74.89045,5.57411],[-74.89045,5.57411],[-74.89045,5.57411],[-74.89045,5.57411],[-74.89045,5.57411],[-74.89045,5.57411],[-74.89045,5.57411],[-74.89045,5.57411],[-74.89045,5.57411],[-74.89045,5.57411],[-74.89045,5.57411],[-74.89045,5.57411],[-74.89045,5.57411],[-74.89045,5.57411],[-74.89045,5.57411],[-74.89045,5.57411],[-74.89045,5.57411],[-74.89045,5.57411],[-74.89045,5.57411],[-74.89045,5.57411],[-74.89045,5.57411],[-74.89045,5.57411],[-74.89045,5.57411],[-74.89045,5.57411],[-74.89045,5.57411],[-74.89045,5.57411],[-74.89046,5.57411],[-74.89046,5.5741],[-74.89046,5.5741],[-74.89046,5.5741],[-74.89046,5.5741],[-74.89046,5.5741],[-74.89046,5.5741],[-74.89046,5.5741],[-74.89046,5.5741],[-74.89046,5.5741],[-74.89046,5.5741],[-74.89046,5.5741],[-74.89046,5.5741],[-74.89046,5.5741],[-74.89046,5.5741],[-74.89046,5.5741],[-74.89046,5.5741],[-74.89046,5.5741],[-74.89046,5.5741],[-74.89046,5.5741],[-74.89047,5.5741],[-74.89047,5.5741],[-74.89047,5.5741],[-74.89047,5.5741],[-74.89047,5.5741],[-74.89047,5.5741],[-74.89047,5.5741],[-74.89047,5.5741],[-74.89047,5.5741],[-74.89047,5.5741],[-74.89048,5.5741],[-74.89048,5.5741],[-74.89048,5.5741],[-74.89048,5.5741],[-74.89048,5.5741],[-74.89048,5.5741],[-74.89048,5.5741],[-74.89048,5.5741],[-74.89048,5.5741],[-74.89048,5.5741],[-74.89048,5.5741],[-74.89048,5.5741],[-74.89048,5.5741],[-74.89048,5.5741],[-74.89048,5.5741],[-74.89048,5.5741],[-74.89048,5.5741],[-74.89048,5.5741],[-74.89048,5.5741],[-74.89048,5.5741],[-74.89049,5.5741],[-74.89049,5.5741],[-74.89049,5.5741],[-74.89049,5.5741],[-74.89049,5.5741],[-74.89049,5.57409],[-74.89049,5.57409],[-74.89049,5.57409],[-74.89049,5.57409],[-74.89049,5.57409],[-74.89049,5.57409],[-74.89049,5.57409],[-74.89049,5.57409],[-74.89049,5.57409],[-74.89049,5.57409],[-74.89049,5.57409],[-74.89049,5.57409],[-74.89049,5.57409],[-74.89049,5.57409],[-74.89049,5.57409],[-74.89049,5.57409],[-74.89049,5.57409],[-74.89049,5.57409],[-74.89049,5.57409],[-74.89049,5.57409],[-74.89049,5.57409],[-74.89049,5.57409],[-74.8905,5.57409],[-74.8905,5.57409],[-74.8905,5.57409],[-74.8905,5.57409],[-74.8905,5.57409],[-74.8905,5.57409],[-74.8905,5.57409],[-74.8905,5.57409],[-74.8905,5.5741],[-74.8905,5.5741],[-74.8905,5.5741],[-74.8905,5.5741],[-74.8905,5.5741],[-74.8905,5.5741],[-74.8905,5.5741],[-74.8905,5.5741],[-74.8905,5.5741],[-74.8905,5.5741],[-74.89051,5.5741],[-74.89051,5.5741],[-74.89051,5.5741],[-74.89051,5.5741],[-74.89051,5.5741],[-74.89051,5.5741],[-74.89051,5.5741],[-74.89051,5.5741],[-74.89051,5.5741],[-74.89051,5.5741],[-74.89051,5.5741],[-74.89051,5.5741],[-74.89051,5.5741],[-74.89051,5.5741],[-74.89051,5.5741],[-74.89051,5.5741],[-74.89051,5.5741],[-74.89052,5.57411],[-74.89052,5.57411],[-74.89052,5.57411],[-74.89052,5.57411],[-74.89052,5.57411],[-74.89052,5.57411],[-74.89052,5.57411],[-74.89052,5.57411],[-74.89052,5.57411],[-74.89052,5.57411],[-74.89052,5.57411],[-74.89052,5.57411],[-74.89052,5.57411],[-74.89052,5.57411],[-74.89053,5.57411],[-74.89053,5.57411],[-74.89053,5.57411],[-74.89053,5.57411],[-74.89053,5.57411],[-74.89053,5.57411],[-74.89053,5.57411],[-74.89053,5.57411],[-74.89053,5.57411],[-74.89053,5.57411],[-74.89053,5.57411],[-74.89053,5.57411],[-74.89053,5.57411],[-74.89053,5.57411],[-74.89054,5.57411],[-74.89054,5.57411],[-74.89054,5.57411],[-74.89054,5.57411],[-74.89054,5.57411],[-74.89054,5.57411],[-74.89054,5.57411],[-74.89054,5.57411],[-74.89054,5.57411],[-74.89054,5.57411],[-74.89054,5.57411],[-74.89055,5.57411],[-74.89055,5.57411],[-74.89055,5.57411],[-74.89055,5.57411],[-74.89055,5.57411],[-74.89055,5.57411],[-74.89055,5.57411],[-74.89055,5.57411],[-74.89055,5.57411],[-74.89056,5.57411],[-74.89056,5.57411],[-74.89056,5.57412],[-74.89056,5.57412],[-74.89056,5.57412],[-74.89056,5.57412],[-74.89056,5.57412],[-74.89056,5.57412],[-74.89056,5.57412],[-74.89056,5.57412],[-74.89056,5.57412],[-74.89057,5.57411],[-74.89057,5.57411],[-74.89057,5.57411],[-74.89057,5.57411],[-74.89057,5.57411],[-74.89057,5.57411],[-74.89057,5.57411],[-74.89057,5.57411],[-74.89057,5.57411],[-74.89057,5.57411],[-74.89057,5.57411],[-74.89057,5.57411],[-74.89058,5.57411],[-74.89058,5.57411],[-74.89058,5.57411],[-74.89058,5.57411],[-74.89058,5.57411],[-74.89058,5.57411],[-74.89058,5.57411],[-74.89058,5.57411],[-74.89058,5.57411],[-74.89058,5.57411],[-74.89058,5.57411],[-74.89059,5.57411],[-74.89059,5.57411],[-74.89059,5.5741],[-74.89059,5.5741],[-74.89059,5.5741],[-74.89059,5.5741],[-74.89059,5.5741],[-74.89059,5.5741],[-74.8906,5.5741],[-74.8906,5.5741],[-74.8906,5.5741],[-74.89061,5.5741],[-74.89061,5.5741],[-74.89061,5.5741],[-74.89061,5.5741],[-74.89061,5.5741],[-74.89061,5.5741],[-74.89061,5.5741],[-74.89061,5.5741],[-74.89061,5.5741],[-74.89061,5.5741],[-74.89061,5.5741],[-74.89061,5.5741],[-74.89062,5.5741],[-74.89062,5.5741],[-74.89062,5.5741],[-74.89062,5.5741],[-74.89062,5.5741],[-74.89062,5.5741],[-74.89062,5.5741],[-74.89062,5.5741],[-74.89062,5.5741],[-74.89062,5.5741],[-74.89062,5.5741],[-74.89062,5.5741],[-74.89062,5.5741],[-74.89062,5.5741],[-74.89062,5.5741],[-74.89062,5.5741],[-74.89062,5.5741],[-74.89063,5.5741],[-74.89064,5.57409],[-74.89068,5.57407],[-74.89069,5.57406],[-74.8907,5.57406],[-74.89072,5.57404],[-74.89072,5.57404],[-74.89072,5.57404],[-74.89072,5.57404],[-74.89072,5.57404],[-74.89072,5.57404],[-74.89072,5.57404],[-74.89072,5.57404],[-74.89073,5.57404],[-74.89073,5.57404],[-74.89073,5.57404],[-74.89073,5.57404],[-74.89073,5.57404],[-74.89073,5.57404],[-74.89073,5.57404],[-74.89073,5.57404],[-74.89073,5.57404],[-74.89073,5.57404],[-74.89073,5.57404],[-74.89073,5.57404],[-74.89074,5.57404],[-74.89074,5.57404],[-74.89074,5.57404],[-74.89074,5.57404],[-74.89074,5.57404],[-74.89074,5.57404],[-74.89074,5.57404],[-74.89074,5.57404],[-74.89074,5.57404],[-74.89074,5.57404],[-74.89075,5.57404],[-74.89075,5.57404],[-74.89075,5.57404],[-74.89075,5.57404],[-74.89075,5.57404],[-74.89075,5.57404],[-74.89075,5.57404],[-74.89075,5.57404],[-74.89075,5.57404],[-74.89075,5.57404],[-74.89075,5.57404],[-74.89075,5.57404],[-74.89075,5.57404],[-74.89075,5.57404],[-74.89075,5.57404],[-74.89075,5.57404],[-74.89075,5.57404],[-74.89075,5.57404],[-74.89075,5.57403],[-74.89075,5.57403],[-74.89075,5.57403],[-74.89076,5.57403],[-74.89076,5.57403],[-74.89076,5.57403],[-74.89076,5.57403],[-74.89076,5.57403],[-74.89076,5.57403],[-74.89076,5.57403],[-74.89076,5.57403],[-74.89076,5.57402],[-74.89076,5.57402],[-74.89076,5.57402],[-74.89076,5.57402],[-74.89076,5.57402],[-74.89076,5.57402],[-74.89076,5.57402],[-74.89076,5.57402],[-74.89076,5.57402],[-74.89076,5.57402],[-74.89076,5.57402],[-74.89076,5.57402],[-74.89076,5.57402],[-74.89076,5.57402],[-74.89076,5.57402],[-74.89076,5.57402],[-74.89076,5.57402],[-74.89076,5.57402],[-74.89076,5.57402],[-74.89076,5.57402],[-74.89076,5.57402],[-74.89075,5.57402],[-74.89075,5.57402],[-74.89075,5.57402],[-74.89075,5.57401],[-74.89075,5.57401],[-74.89075,5.57401],[-74.89075,5.57401],[-74.89075,5.57401],[-74.89075,5.57401],[-74.89075,5.57401],[-74.89075,5.57401],[-74.89075,5.57401],[-74.89075,5.57402],[-74.89075,5.57402],[-74.89075,5.57402],[-74.89075,5.57402],[-74.89074,5.57402],[-74.89074,5.57402],[-74.89074,5.57402],[-74.89074,5.57402],[-74.89074,5.57402],[-74.89074,5.57401],[-74.89075,5.57401],[-74.89075,5.57401],[-74.89075,5.57401],[-74.89075,5.57401],[-74.89075,5.57401],[-74.89075,5.57401],[-74.89075,5.57401],[-74.89075,5.57401],[-74.89075,5.57401],[-74.89075,5.57401],[-74.89075,5.57401],[-74.89075,5.57401],[-74.89075,5.57401],[-74.89075,5.57401],[-74.89075,5.57401],[-74.89075,5.57401],[-74.89075,5.57401],[-74.89075,5.57401],[-74.89075,5.57401],[-74.89075,5.574],[-74.89075,5.574],[-74.89075,5.574],[-74.89075,5.574],[-74.89075,5.574],[-74.89075,5.574],[-74.89076,5.57398],[-74.89077,5.57397],[-74.89077,5.57395],[-74.89077,5.57394],[-74.89078,5.57385],[-74.89078,5.5738],[-74.89079,5.57372],[-74.89079,5.57372],[-74.89079,5.5737],[-74.89079,5.57357],[-74.89079,5.57356],[-74.8908,5.57356],[-74.89082,5.57356],[-74.89083,5.57356],[-74.89085,5.57355],[-74.89085,5.57355],[-74.89086,5.57355],[-74.89089,5.57355],[-74.8909,5.57355],[-74.8909,5.57355],[-74.89093,5.57354],[-74.89093,5.57354],[-74.89094,5.57354],[-74.89102,5.57351],[-74.89102,5.57351],[-74.89113,5.57347],[-74.89114,5.57347],[-74.89116,5.57346],[-74.89116,5.57345],[-74.89121,5.57343],[-74.89122,5.57343],[-74.89122,5.57342],[-74.89129,5.57338],[-74.8913,5.57337],[-74.89133,5.57334],[-74.89134,5.57334],[-74.89135,5.57333],[-74.89136,5.57332],[-74.89138,5.57327],[-74.89139,5.57326],[-74.8914,5.57323],[-74.8914,5.57322],[-74.89141,5.57321],[-74.89141,5.57321],[-74.89141,5.57321],[-74.89141,5.57321],[-74.89141,5.57321],[-74.89141,5.5732],[-74.89141,5.57319],[-74.89141,5.57317],[-74.89141,5.57316],[-74.89141,5.57309],[-74.89141,5.57298],[-74.89141,5.57298],[-74.89141,5.57293],[-74.89141,5.5729],[-74.89141,5.57289],[-74.89141,5.57288],[-74.89141,5.57288],[-74.89141,5.57285],[-74.89141,5.57279],[-74.89141,5.57279],[-74.89141,5.57273],[-74.89141,5.57266],[-74.89142,5.57263],[-74.89142,5.57257],[-74.89142,5.57256],[-74.89142,5.57244],[-74.89142,5.57232],[-74.89142,5.57224],[-74.89142,5.57223],[-74.89141,5.57218],[-74.89141,5.57214],[-74.89141,5.57208],[-74.89141,5.57208],[-74.89144,5.57207],[-74.89145,5.57206],[-74.89145,5.57206],[-74.8915,5.57203],[-74.89151,5.57202],[-74.89151,5.57202],[-74.89157,5.57196],[-74.89158,5.57196],[-74.89158,5.57195],[-74.89164,5.57186],[-74.89166,5.57182],[-74.8917,5.57177],[-74.89179,5.57165],[-74.8918,5.57163],[-74.89186,5.57157],[-74.89192,5.5715],[-74.89196,5.57148],[-74.89197,5.57147],[-74.89198,5.57146],[-74.89199,5.57146],[-74.89207,5.57136],[-74.89208,5.57135],[-74.89209,5.57134],[-74.89212,5.57126],[-74.89214,5.57121],[-74.8922,5.57112],[-74.89237,5.57097],[-74.89239,5.57096],[-74.89241,5.57096],[-74.89244,5.57096],[-74.89246,5.57095],[-74.89248,5.57094],[-74.8925,5.57093],[-74.89252,5.57091],[-74.89253,5.57089],[-74.89254,5.57087],[-74.89255,5.57085],[-74.89255,5.57082],[-74.89255,5.5708],[-74.89254,5.57078],[-74.89253,5.57076],[-74.89252,5.57074],[-74.8925,5.57072],[-74.89248,5.57071],[-74.89246,5.5707],[-74.89244,5.57069],[-74.89241,5.57069],[-74.89239,5.57069],[-74.89237,5.5707],[-74.89235,5.57071],[-74.89233,5.57072],[-74.89231,5.57074],[-74.8923,5.57076],[-74.89229,5.57078],[-74.89228,5.5708],[-74.89228,5.57082],[-74.89226,5.57083],[-74.89209,5.57086],[-74.89201,5.57092],[-74.89199,5.57094],[-74.89197,5.57097],[-74.89188,5.57113],[-74.89187,5.57115],[-74.89185,5.5712],[-74.8918,5.57136],[-74.89172,5.57145],[-74.89167,5.57151],[-74.89165,5.57153],[-74.89165,5.57154],[-74.89164,5.57154],[-74.89155,5.57166],[-74.89155,5.57167],[-74.89149,5.57176],[-74.89144,5.57184],[-74.89139,5.57188],[-74.89136,5.5719],[-74.89132,5.57192],[-74.89131,5.57193],[-74.8913,5.57194],[-74.89128,5.57195],[-74.89127,5.57196],[-74.89126,5.57197],[-74.89126,5.57198],[-74.89125,5.57201],[-74.89124,5.57202],[-74.89124,5.57204],[-74.89124,5.57204],[-74.89123,5.57204],[-74.89123,5.57204],[-74.89123,5.57205],[-74.89123,5.57205],[-74.89123,5.57205],[-74.89123,5.57205],[-74.89123,5.57205],[-74.89123,5.57205],[-74.89122,5.57205],[-74.89122,5.57205],[-74.89122,5.57205],[-74.89122,5.57205],[-74.89122,5.57205],[-74.89122,5.57205],[-74.89122,5.57205],[-74.89122,5.57205],[-74.89122,5.57206],[-74.89122,5.57206],[-74.89122,5.57206],[-74.89122,5.57206],[-74.89122,5.57206],[-74.89122,5.57206],[-74.89122,5.57206],[-74.89121,5.57206],[-74.89121,5.57206],[-74.89121,5.57206],[-74.89121,5.57206],[-74.89121,5.57206],[-74.89121,5.57206],[-74.89121,5.57206],[-74.89121,5.57206],[-74.89121,5.57206],[-74.89121,5.57206],[-74.89121,5.57206],[-74.8912,5.57206],[-74.8912,5.57206],[-74.8912,5.57206],[-74.8912,5.57206],[-74.8912,5.57206],[-74.8912,5.57206],[-74.8912,5.57206],[-74.8912,5.57206],[-74.8912,5.57206],[-74.8912,5.57206],[-74.8912,5.57206],[-74.8912,5.57206],[-74.8912,5.57206],[-74.89119,5.57206],[-74.89119,5.57206],[-74.89119,5.57206],[-74.89119,5.57206],[-74.89119,5.57206],[-74.89119,5.57206],[-74.89119,5.57206],[-74.89119,5.57206],[-74.89119,5.57206],[-74.89119,5.57206],[-74.89119,5.57205],[-74.89119,5.57205],[-74.89119,5.57205],[-74.89119,5.57205],[-74.89119,5.57205],[-74.89119,5.57206],[-74.89118,5.57206],[-74.89118,5.57206],[-74.89118,5.57206],[-74.89118,5.57206],[-74.89118,5.57206],[-74.89118,5.57206],[-74.89118,5.57206],[-74.89118,5.57206],[-74.89118,5.57206],[-74.89118,5.57206],[-74.89118,5.57206],[-74.89118,5.57206],[-74.89118,5.57206],[-74.89118,5.57206],[-74.89118,5.57206],[-74.89118,5.57206],[-74.89118,5.57206],[-74.89117,5.57206],[-74.89117,5.57206],[-74.89117,5.57206],[-74.89117,5.57207],[-74.89117,5.57207],[-74.89117,5.57207],[-74.89117,5.57207],[-74.89117,5.57207],[-74.89117,5.57207],[-74.89117,5.57207],[-74.89117,5.57207],[-74.89116,5.57207],[-74.89116,5.57207],[-74.89116,5.57207],[-74.89116,5.57207],[-74.89116,5.57207],[-74.89116,5.57207],[-74.89116,5.57207],[-74.89116,5.57207],[-74.89116,5.57207],[-74.89116,5.57207],[-74.89116,5.57207],[-74.89116,5.57207],[-74.89116,5.57207],[-74.89116,5.57207],[-74.89116,5.57208],[-74.89116,5.57208],[-74.89115,5.57208],[-74.89115,5.57208],[-74.89115,5.57208],[-74.89115,5.57208],[-74.89115,5.57208],[-74.89115,5.57208],[-74.89115,5.57208],[-74.89115,5.57208],[-74.89115,5.57208],[-74.89115,5.57208],[-74.89115,5.57208],[-74.89115,5.57208],[-74.89115,5.57209],[-74.89115,5.57209],[-74.89115,5.57209],[-74.89115,5.57209],[-74.89115,5.57209],[-74.89115,5.57209],[-74.89115,5.57209],[-74.89115,5.57209],[-74.89115,5.57209],[-74.89116,5.57209],[-74.89116,5.57209],[-74.89116,5.5721],[-74.89116,5.5721],[-74.89116,5.5721],[-74.89116,5.5721],[-74.89116,5.5721],[-74.89116,5.5721],[-74.89116,5.5721],[-74.89116,5.5721],[-74.89116,5.5721],[-74.89116,5.5721],[-74.89117,5.57211],[-74.89117,5.57211],[-74.89117,5.57211],[-74.89117,5.57211],[-74.89117,5.57211],[-74.89117,5.57211],[-74.89117,5.57211],[-74.89117,5.57211],[-74.89117,5.57211],[-74.89117,5.57211],[-74.89117,5.57211],[-74.89117,5.57211],[-74.89117,5.57211],[-74.89117,5.57211],[-74.89117,5.57212],[-74.89117,5.57212],[-74.89117,5.57212],[-74.89117,5.57212],[-74.89117,5.57212],[-74.89117,5.57212],[-74.89117,5.57212],[-74.89117,5.57212],[-74.89117,5.57212],[-74.89117,5.57212],[-74.89117,5.57212],[-74.89117,5.57212],[-74.89118,5.57213],[-74.89118,5.57213],[-74.89118,5.57213],[-74.89118,5.57213],[-74.89118,5.57213],[-74.89118,5.57213],[-74.89118,5.57213],[-74.89118,5.57213],[-74.89118,5.57213],[-74.89118,5.57213],[-74.89118,5.57213],[-74.89118,5.57213],[-74.89119,5.57213],[-74.89119,5.57213],[-74.89119,5.57213],[-74.89119,5.57213],[-74.89119,5.57213],[-74.89119,5.57213],[-74.89119,5.57213],[-74.89119,5.57214],[-74.89119,5.57214],[-74.89119,5.57214],[-74.89119,5.57214],[-74.89119,5.57214],[-74.89119,5.57213],[-74.89119,5.57213],[-74.89119,5.57213],[-74.89119,5.57213],[-74.89119,5.57213],[-74.89119,5.57213],[-74.89119,5.57213],[-74.89119,5.57213],[-74.8912,5.57213],[-74.8912,5.57213],[-74.8912,5.57213],[-74.8912,5.57213],[-74.8912,5.57213],[-74.8912,5.57213],[-74.8912,5.57213],[-74.8912,5.57213],[-74.8912,5.57213],[-74.8912,5.57213],[-74.8912,5.57213],[-74.8912,5.57213],[-74.8912,5.57213],[-74.8912,5.57213],[-74.8912,5.57213],[-74.8912,5.57213],[-74.8912,5.57214],[-74.8912,5.57214],[-74.8912,5.57214],[-74.8912,5.57214],[-74.8912,5.57214],[-74.8912,5.57214],[-74.8912,5.57214],[-74.8912,5.57214],[-74.8912,5.57214],[-74.8912,5.57214],[-74.8912,5.57214],[-74.8912,5.57214],[-74.8912,5.57214],[-74.8912,5.57214],[-74.8912,5.57214],[-74.8912,5.57214],[-74.8912,5.57214],[-74.8912,5.57214],[-74.8912,5.57214],[-74.8912,5.57214],[-74.8912,5.57214],[-74.8912,5.57214],[-74.8912,5.57214],[-74.8912,5.57214],[-74.8912,5.57214],[-74.89119,5.57214],[-74.89119,5.57214],[-74.89119,5.57214],[-74.89119,5.57214],[-74.89119,5.57214],[-74.89119,5.57214],[-74.89119,5.57214],[-74.89119,5.57214],[-74.89119,5.57214],[-74.89119,5.57214],[-74.89119,5.57214],[-74.89119,5.57214],[-74.89119,5.57214],[-74.89119,5.57214],[-74.89119,5.57214],[-74.89119,5.57214],[-74.89119,5.57214],[-74.89119,5.57214],[-74.89119,5.57215],[-74.89119,5.57215],[-74.89119,5.57215],[-74.89119,5.57215],[-74.89119,5.57215],[-74.89119,5.57215],[-74.89119,5.57215],[-74.89119,5.57215],[-74.89119,5.57215],[-74.89119,5.57215],[-74.89119,5.57215],[-74.89119,5.57215],[-74.89119,5.57215],[-74.8912,5.57215],[-74.8912,5.57215],[-74.8912,5.57215],[-74.8912,5.57215],[-74.8912,5.57215],[-74.8912,5.57216],[-74.8912,5.57216],[-74.8912,5.57216],[-74.8912,5.57216],[-74.8912,5.57216],[-74.8912,5.57217],[-74.8912,5.57217],[-74.8912,5.57217],[-74.89121,5.57217],[-74.89121,5.57217],[-74.89121,5.57217],[-74.89121,5.57217],[-74.89121,5.57217],[-74.89121,5.57217],[-74.89121,5.57217],[-74.89121,5.57218],[-74.89121,5.57218],[-74.89121,5.57218],[-74.89121,5.57218],[-74.89121,5.57218],[-74.89121,5.57218],[-74.89121,5.57218],[-74.89121,5.57218],[-74.89121,5.57218],[-74.89121,5.57218],[-74.89121,5.57218],[-74.89121,5.57218],[-74.89121,5.57218],[-74.89121,5.57218],[-74.89121,5.57218],[-74.89121,5.57218],[-74.89121,5.57218],[-74.89121,5.57219],[-74.89121,5.57219],[-74.89122,5.57219],[-74.89122,5.57219],[-74.89122,5.57219],[-74.89122,5.57219],[-74.89122,5.57219],[-74.89122,5.57219],[-74.89122,5.57219],[-74.89122,5.57219],[-74.89122,5.5722],[-74.89122,5.5722],[-74.89122,5.5722],[-74.89122,5.5722],[-74.89122,5.5722],[-74.89123,5.5722],[-74.89123,5.5722],[-74.89123,5.5722],[-74.89123,5.5722],[-74.89123,5.57221],[-74.89123,5.57221],[-74.89123,5.57221],[-74.89123,5.57221],[-74.89123,5.57221],[-74.89123,5.57221],[-74.89123,5.57221],[-74.89123,5.57221],[-74.89123,5.57221],[-74.89123,5.57221],[-74.89123,5.57221],[-74.89123,5.57221],[-74.89123,5.57221],[-74.89123,5.57221],[-74.89123,5.57221],[-74.89123,5.57221],[-74.89123,5.57221],[-74.89123,5.57221],[-74.89123,5.57221],[-74.89123,5.57221],[-74.89123,5.57221],[-74.89123,5.57221],[-74.89123,5.57222],[-74.89123,5.57222],[-74.89124,5.57222],[-74.89124,5.57222],[-74.89124,5.57222],[-74.89124,5.57225],[-74.89124,5.57244],[-74.89124,5.57256],[-74.89124,5.57262],[-74.89123,5.57266],[-74.89123,5.57266],[-74.89123,5.57273],[-74.89123,5.57279],[-74.89123,5.57284],[-74.89123,5.57285],[-74.89123,5.57285],[-74.89123,5.57286],[-74.89123,5.57287],[-74.89122,5.57288],[-74.89123,5.5729],[-74.89123,5.57291],[-74.89123,5.57292],[-74.89123,5.57293],[-74.89121,5.5729],[-74.8912,5.57288],[-74.89118,5.57285],[-74.89116,5.57281],[-74.89116,5.5728],[-74.89115,5.57279],[-74.89115,5.57278],[-74.89111,5.57275],[-74.89105,5.57269],[-74.89103,5.57266],[-74.89103,5.57262],[-74.89103,5.57256],[-74.89104,5.57245],[-74.89108,5.57232],[-74.89108,5.57231],[-74.89108,5.57229],[-74.89108,5.57218],[-74.8911,5.57212],[-74.89117,5.57203],[-74.89119,5.572],[-74.89119,5.57199],[-74.89127,5.57186],[-74.89127,5.57186],[-74.89128,5.57186],[-74.8913,5.57186],[-74.89133,5.57185],[-74.89135,5.57184],[-74.89137,5.57183],[-74.89138,5.57181],[-74.8914,5.57179],[-74.89141,5.57177],[-74.89141,5.57175],[-74.89142,5.57173],[-74.89141,5.5717],[-74.89141,5.57168],[-74.8914,5.57166],[-74.89138,5.57164],[-74.89137,5.57162],[-74.89135,5.57161],[-74.89133,5.5716],[-74.8913,5.57159],[-74.89128,5.57159],[-74.89126,5.57159],[-74.89123,5.5716],[-74.89121,5.57161],[-74.89119,5.57162],[-74.89118,5.57164],[-74.89116,5.57166],[-74.89115,5.57168],[-74.89115,5.5717],[-74.89114,5.57173],[-74.89114,5.57173],[-74.89113,5.57174],[-74.89112,5.57175],[-74.89112,5.57176],[-74.89104,5.5719],[-74.89095,5.57203],[-74.89094,5.57204],[-74.89094,5.57204],[-74.89094,5.57205],[-74.8909,5.57215],[-74.8909,5.57216],[-74.8909,5.57217],[-74.8909,5.57219],[-74.8909,5.5722],[-74.8909,5.57228],[-74.89086,5.57241],[-74.89086,5.57242],[-74.89086,5.57242],[-74.89085,5.57255],[-74.89085,5.57255],[-74.89085,5.57256],[-74.89085,5.57263],[-74.89085,5.57263],[-74.89085,5.5727],[-74.89086,5.57271],[-74.89086,5.57272],[-74.89086,5.57273],[-74.89087,5.57274],[-74.89091,5.5728],[-74.89091,5.57281],[-74.89092,5.57281],[-74.89098,5.57287],[-74.89098,5.57287],[-74.891,5.5729],[-74.89101,5.57292],[-74.89102,5.57293],[-74.89104,5.57298],[-74.89104,5.57298],[-74.89105,5.57298],[-74.89106,5.57301],[-74.89107,5.57301],[-74.89107,5.57302],[-74.8911,5.57305],[-74.89111,5.57306],[-74.89112,5.57306],[-74.89113,5.57308],[-74.89114,5.57308],[-74.89114,5.57309],[-74.89114,5.57311],[-74.89114,5.57312],[-74.89115,5.57313],[-74.89115,5.57315],[-74.89116,5.57317],[-74.89117,5.57318],[-74.89118,5.57319],[-74.89119,5.5732],[-74.89121,5.57321],[-74.89119,5.57323],[-74.89113,5.57327],[-74.89108,5.57329],[-74.89108,5.5733],[-74.89106,5.5733],[-74.89096,5.57334],[-74.89089,5.57336],[-74.89088,5.57337],[-74.89086,5.57337],[-74.89084,5.57337],[-74.89083,5.57337],[-74.89082,5.57338],[-74.89081,5.57338],[-74.89078,5.57338],[-74.89077,5.57338],[-74.89077,5.57338],[-74.89075,5.57338],[-74.89074,5.57338],[-74.89072,5.57339],[-74.8907,5.5734],[-74.89069,5.5734],[-74.89069,5.57341],[-74.89066,5.57342],[-74.89065,5.57343],[-74.89064,5.57344],[-74.89064,5.57346],[-74.89063,5.57347],[-74.89062,5.5735],[-74.89061,5.57352],[-74.89061,5.57353],[-74.89061,5.57355],[-74.89061,5.57356],[-74.89061,5.57369],[-74.89061,5.57369],[-74.89061,5.57371],[-74.8906,5.57379],[-74.8906,5.57381],[-74.8906,5.57381],[-74.8906,5.57381],[-74.8906,5.57381],[-74.8906,5.57381],[-74.8906,5.57381],[-74.8906,5.5738],[-74.89059,5.5738],[-74.89059,5.5738],[-74.89059,5.5738],[-74.89059,5.5738],[-74.89059,5.5738],[-74.89059,5.5738],[-74.89059,5.5738],[-74.89059,5.5738],[-74.89059,5.5738],[-74.89059,5.57381],[-74.89059,5.57381],[-74.89059,5.57381],[-74.89059,5.57381],[-74.89059,5.57381],[-74.89059,5.57381],[-74.89059,5.57381],[-74.89059,5.57381],[-74.89059,5.57381],[-74.89059,5.57381],[-74.89059,5.57381],[-74.89059,5.57381],[-74.89059,5.57381],[-74.89059,5.57381],[-74.89059,5.57381],[-74.89059,5.57382],[-74.89059,5.57382],[-74.89059,5.57382],[-74.89059,5.57382],[-74.89059,5.57382],[-74.89059,5.57382],[-74.89059,5.57382],[-74.89059,5.57382],[-74.89059,5.57382],[-74.89059,5.57382],[-74.89059,5.57382],[-74.89059,5.57382],[-74.89059,5.57382],[-74.89059,5.57382],[-74.89059,5.57383],[-74.89059,5.57383],[-74.89059,5.57383],[-74.89059,5.57383],[-74.89059,5.57383],[-74.89059,5.57383],[-74.89059,5.57383],[-74.89059,5.57383],[-74.89059,5.57383],[-74.89059,5.57383],[-74.89059,5.57384],[-74.89059,5.57384],[-74.89059,5.57384],[-74.89059,5.57389],[-74.89059,5.57389],[-74.89059,5.57389],[-74.89059,5.57389],[-74.89059,5.57389],[-74.89059,5.57389],[-74.89059,5.57389],[-74.89059,5.57389],[-74.89059,5.57389],[-74.89059,5.57389],[-74.89059,5.57389],[-74.89059,5.57389],[-74.89059,5.57389],[-74.89059,5.57389],[-74.89059,5.57389],[-74.89058,5.57389],[-74.89058,5.57389],[-74.89058,5.57389],[-74.89058,5.57389],[-74.89058,5.5739],[-74.89058,5.5739],[-74.89058,5.5739],[-74.89058,5.5739],[-74.89058,5.5739],[-74.89058,5.5739],[-74.89058,5.5739],[-74.89058,5.5739],[-74.89058,5.5739],[-74.89058,5.5739],[-74.89058,5.5739],[-74.89058,5.5739],[-74.89057,5.5739],[-74.89057,5.5739],[-74.89057,5.5739],[-74.89057,5.5739],[-74.89057,5.5739],[-74.89057,5.5739],[-74.89057,5.5739],[-74.89057,5.5739],[-74.89057,5.5739],[-74.89057,5.5739],[-74.89057,5.5739],[-74.89057,5.5739],[-74.89057,5.5739],[-74.89057,5.5739],[-74.89057,5.5739],[-74.89057,5.5739],[-74.89057,5.5739],[-74.89057,5.57389],[-74.89056,5.57389],[-74.89056,5.57389],[-74.89056,5.57389],[-74.89056,5.57389],[-74.89056,5.57389],[-74.89056,5.57389],[-74.89056,5.57389],[-74.89056,5.57389],[-74.89056,5.57389],[-74.89056,5.57389],[-74.89056,5.57389],[-74.89056,5.57389],[-74.89056,5.57389],[-74.89056,5.57389],[-74.89055,5.57389],[-74.89055,5.57389],[-74.89055,5.57389],[-74.89055,5.57389],[-74.89055,5.57389],[-74.89055,5.57388],[-74.89055,5.57388],[-74.89055,5.57388],[-74.89055,5.57388],[-74.89055,5.57388],[-74.89055,5.57388],[-74.89055,5.57388],[-74.89055,5.57388],[-74.89055,5.57388],[-74.89055,5.57387],[-74.89055,5.57387],[-74.89055,5.57387],[-74.89055,5.57387],[-74.89055,5.57387],[-74.89055,5.57387],[-74.89055,5.57387],[-74.89055,5.57387],[-74.89054,5.57387],[-74.89054,5.57387],[-74.89054,5.57387],[-74.89054,5.57387],[-74.89054,5.57387],[-74.89054,5.57387],[-74.89054,5.57386],[-74.89054,5.57386],[-74.89054,5.57386],[-74.89054,5.57386],[-74.89053,5.57386],[-74.89053,5.57386],[-74.89053,5.57386],[-74.89053,5.57386],[-74.89053,5.57386],[-74.89053,5.57386],[-74.89053,5.57386],[-74.89053,5.57386],[-74.89053,5.57386],[-74.89053,5.57386],[-74.89053,5.57385],[-74.89052,5.57385],[-74.89052,5.57385],[-74.89052,5.57385],[-74.89052,5.57385],[-74.89052,5.57385],[-74.89052,5.57385],[-74.89052,5.57385],[-74.89052,5.57385],[-74.89052,5.57385],[-74.89052,5.57385],[-74.89052,5.57385],[-74.89052,5.57385],[-74.89052,5.57385],[-74.89052,5.57385],[-74.89052,5.57385],[-74.89052,5.57385],[-74.89052,5.57385],[-74.89052,5.57385],[-74.89052,5.57385],[-74.89052,5.57385],[-74.89051,5.57385],[-74.89051,5.57385],[-74.89051,5.57385],[-74.89051,5.57385],[-74.89051,5.57385],[-74.89051,5.57385],[-74.89051,5.57385],[-74.89051,5.57385],[-74.89051,5.57385],[-74.89051,5.57385],[-74.89051,5.57385],[-74.89051,5.57385],[-74.89051,5.57385],[-74.89051,5.57385],[-74.89051,5.57385],[-74.89051,5.57385],[-74.89051,5.57385],[-74.89051,5.57385],[-74.89051,5.57385],[-74.89051,5.57385],[-74.89051,5.57385],[-74.89051,5.57385],[-74.89051,5.57385],[-74.8905,5.57385],[-74.8905,5.57385],[-74.8905,5.57385],[-74.8905,5.57385],[-74.8905,5.57385],[-74.8905,5.57385],[-74.8905,5.57385],[-74.8905,5.57385],[-74.8905,5.57386],[-74.8905,5.57386],[-74.8905,5.57386],[-74.8905,5.57386],[-74.8905,5.57386],[-74.8905,5.57386],[-74.8905,5.57386],[-74.8905,5.57386],[-74.8905,5.57386],[-74.8905,5.57386],[-74.8905,5.57386],[-74.8905,5.57387],[-74.8905,5.57387],[-74.8905,5.57387],[-74.89049,5.57387],[-74.89049,5.57387],[-74.89049,5.57387],[-74.89049,5.57387],[-74.89049,5.57387],[-74.89049,5.57387],[-74.89049,5.57388],[-74.89049,5.57388],[-74.89049,5.57388],[-74.89049,5.57388],[-74.89049,5.57388],[-74.89049,5.57388],[-74.89049,5.57388],[-74.89049,5.57388],[-74.89049,5.57388],[-74.89049,5.57388],[-74.89049,5.57388],[-74.89049,5.57388],[-74.89049,5.57389],[-74.89049,5.57389],[-74.89049,5.57389],[-74.89049,5.57389],[-74.89049,5.57389],[-74.89049,5.57389],[-74.89048,5.57389],[-74.89048,5.57389],[-74.89048,5.57389],[-74.89048,5.57389],[-74.89048,5.57389],[-74.89048,5.57389],[-74.89048,5.57389],[-74.89048,5.57389],[-74.89048,5.57389],[-74.89048,5.57389],[-74.89048,5.57389],[-74.89048,5.57389],[-74.89048,5.57389],[-74.89048,5.57389],[-74.89047,5.57389],[-74.89047,5.57389],[-74.89047,5.57389],[-74.89047,5.5739],[-74.89047,5.5739],[-74.89047,5.5739],[-74.89047,5.5739],[-74.89047,5.5739],[-74.89047,5.5739],[-74.89047,5.5739],[-74.89047,5.5739],[-74.89047,5.5739],[-74.89046,5.5739],[-74.89046,5.5739],[-74.89043,5.57389],[-74.89042,5.57389],[-74.8904,5.57389],[-74.89039,5.57389],[-74.89038,5.57389],[-74.89036,5.5739],[-74.89032,5.57391],[-74.8903,5.57392],[-74.89026,5.57395],[-74.89026,5.57395],[-74.89024,5.57396],[-74.8902,5.57398],[-74.8902,5.57398],[-74.89011,5.57403],[-74.89011,5.57403],[-74.89005,5.57406],[-74.89002,5.57408],[-74.89,5.57408],[-74.88996,5.57409],[-74.88992,5.57409],[-74.88992,5.57409],[-74.88991,5.57409],[-74.88987,5.5741],[-74.88987,5.57411],[-74.88985,5.57411],[-74.88979,5.57415],[-74.88975,5.57417],[-74.88974,5.57418],[-74.88972,5.57419],[-74.88972,5.5742],[-74.88969,5.57423],[-74.88968,5.57423],[-74.88968,5.57423],[-74.88968,5.57424],[-74.88968,5.57424],[-74.88967,5.57424],[-74.88966,5.57426],[-74.88966,5.57427],[-74.88965,5.57427],[-74.88965,5.57428],[-74.88965,5.57428],[-74.88962,5.57432],[-74.88961,5.57434],[-74.8896,5.57435],[-74.88958,5.57437],[-74.88955,5.57439],[-74.88951,5.5744],[-74.8895,5.5744],[-74.8895,5.57441],[-74.8895,5.57441],[-74.88948,5.57441],[-74.88948,5.57441],[-74.88948,5.57441],[-74.88947,5.57441],[-74.88946,5.57441],[-74.88945,5.57441],[-74.88944,5.57441],[-74.88944,5.57441],[-74.88943,5.57442],[-74.88943,5.57442],[-74.88943,5.57442],[-74.88943,5.57442],[-74.88942,5.57442],[-74.88942,5.57442],[-74.8894,5.57443],[-74.88938,5.57444],[-74.88938,5.57444],[-74.88935,5.57446],[-74.88934,5.57446],[-74.88933,5.57447],[-74.88931,5.57449],[-74.88924,5.57454],[-74.88924,5.57454],[-74.88923,5.57455],[-74.88911,5.57466],[-74.88911,5.57466],[-74.8891,5.57467],[-74.8891,5.57467],[-74.8891,5.57467],[-74.8891,5.57467],[-74.8891,5.57467],[-74.8891,5.57467],[-74.8891,5.57467],[-74.88909,5.57467],[-74.88909,5.57467],[-74.88909,5.57467],[-74.88909,5.57467],[-74.88909,5.57467],[-74.88909,5.57467],[-74.88909,5.57467],[-74.88909,5.57467],[-74.88909,5.57467],[-74.88909,5.57467],[-74.88909,5.57467],[-74.88909,5.57467],[-74.88909,5.57467],[-74.88909,5.57467],[-74.88909,5.57466],[-74.88909,5.57466],[-74.88908,5.57466],[-74.88908,5.57466],[-74.88908,5.57466],[-74.88908,5.57466],[-74.88908,5.57466],[-74.88908,5.57466],[-74.88908,5.57466],[-74.88908,5.57466],[-74.88908,5.57466],[-74.88908,5.57466],[-74.88908,5.57466],[-74.88908,5.57466],[-74.88908,5.57466],[-74.88908,5.57466],[-74.88908,5.57466],[-74.88908,5.57465],[-74.88908,5.57465],[-74.88908,5.57465],[-74.88908,5.57465],[-74.88908,5.57465],[-74.88908,5.57465],[-74.88907,5.57465],[-74.88907,5.57465],[-74.88907,5.57465],[-74.88907,5.57465],[-74.88907,5.57465],[-74.88907,5.57465],[-74.88907,5.57465],[-74.88907,5.57465],[-74.88907,5.57465],[-74.88907,5.57465],[-74.88907,5.57465],[-74.88907,5.57464],[-74.88907,5.57464],[-74.88907,5.57464],[-74.88907,5.57464],[-74.88907,5.57464],[-74.88907,5.57464],[-74.88907,5.57464],[-74.88907,5.57464],[-74.88907,5.57464],[-74.88907,5.57464],[-74.88907,5.57464],[-74.88907,5.57464],[-74.88906,5.57464],[-74.88906,5.57464],[-74.88906,5.57464],[-74.88906,5.57464],[-74.88906,5.57464],[-74.88906,5.57464],[-74.88906,5.57464],[-74.88906,5.57464],[-74.88906,5.57464],[-74.88906,5.57464],[-74.88906,5.57464],[-74.88906,5.57464],[-74.88906,5.57464],[-74.88906,5.57464],[-74.88906,5.57464],[-74.88906,5.57464],[-74.88906,5.57464],[-74.88905,5.57464],[-74.88905,5.57464],[-74.88905,5.57464],[-74.88905,5.57464],[-74.88905,5.57464],[-74.88905,5.57464],[-74.88905,5.57464],[-74.88905,5.57464],[-74.88905,5.57464],[-74.88905,5.57464],[-74.88905,5.57464],[-74.88905,5.57464],[-74.88905,5.57464],[-74.88905,5.57464],[-74.88904,5.57465],[-74.88904,5.57465],[-74.88903,5.57465],[-74.88903,5.57465],[-74.88903,5.57465],[-74.88903,5.57465],[-74.88903,5.57466],[-74.88903,5.57466],[-74.88895,5.57474],[-74.88891,5.57478],[-74.88885,5.57481],[-74.8888,5.57481],[-74.88879,5.57481],[-74.88878,5.5748],[-74.88877,5.5748],[-74.88875,5.57479],[-74.88874,5.57479],[-74.88873,5.57479],[-74.88866,5.57479],[-74.88864,5.57479],[-74.88862,5.57479],[-74.8886,5.5748],[-74.88854,5.57482],[-74.88844,5.57484],[-74.88843,5.57484],[-74.88835,5.57487],[-74.88825,5.57489],[-74.88819,5.57491],[-74.88818,5.57491],[-74.88817,5.57492],[-74.88813,5.57493],[-74.88813,5.57493],[-74.88809,5.57495],[-74.88808,5.57496],[-74.88808,5.57496],[-74.888,5.57501],[-74.88794,5.57505],[-74.88785,5.5751],[-74.8878,5.57512],[-74.88779,5.57512],[-74.88779,5.57512],[-74.88779,5.57512],[-74.88779,5.57512],[-74.88779,5.57512],[-74.88779,5.57512],[-74.88779,5.57512],[-74.88779,5.57512],[-74.88778,5.57511],[-74.88778,5.57511],[-74.88778,5.57511],[-74.88778,5.57511],[-74.88778,5.57511],[-74.88778,5.57511],[-74.88778,5.57511],[-74.88778,5.57511],[-74.88778,5.57511],[-74.88778,5.57511],[-74.88778,5.57511],[-74.88778,5.57511],[-74.88778,5.57511],[-74.88778,5.57511],[-74.88778,5.57511],[-74.88778,5.57511],[-74.88778,5.57511],[-74.88778,5.57512],[-74.88777,5.57512],[-74.88777,5.57512],[-74.88777,5.57512],[-74.88777,5.57512],[-74.88777,5.57512],[-74.88777,5.57512],[-74.88777,5.57512],[-74.88777,5.57512],[-74.88777,5.57512],[-74.88777,5.57512],[-74.88777,5.57512],[-74.88777,5.57512],[-74.88777,5.57512],[-74.88777,5.57512],[-74.88777,5.57512],[-74.88777,5.57512],[-74.88776,5.57512],[-74.88776,5.57513],[-74.88776,5.57513],[-74.88776,5.57513],[-74.88776,5.57513],[-74.88776,5.57513],[-74.88776,5.57513],[-74.88776,5.57513],[-74.88776,5.57513],[-74.88776,5.57513],[-74.88776,5.57513],[-74.88776,5.57513],[-74.88776,5.57513],[-74.88776,5.57513],[-74.88776,5.57513],[-74.88775,5.57513],[-74.88775,5.57513],[-74.88775,5.57513],[-74.88775,5.57513],[-74.88775,5.57513],[-74.88775,5.57513],[-74.88775,5.57514],[-74.88775,5.57514],[-74.88775,5.57514],[-74.88775,5.57514],[-74.88775,5.57514],[-74.88775,5.57514],[-74.88775,5.57514],[-74.88775,5.57514],[-74.88775,5.57514],[-74.88775,5.57514],[-74.88775,5.57514],[-74.88774,5.57514],[-74.88774,5.57514],[-74.88774,5.57514],[-74.88774,5.57514],[-74.88774,5.57514],[-74.88774,5.57514],[-74.88774,5.57514],[-74.88774,5.57514],[-74.88774,5.57514],[-74.88774,5.57514],[-74.88774,5.57514],[-74.88774,5.57514],[-74.88774,5.57514],[-74.88774,5.57514],[-74.88774,5.57514],[-74.88774,5.57515],[-74.88774,5.57515],[-74.88774,5.57515],[-74.88774,5.57515],[-74.88767,5.57518],[-74.88766,5.57518],[-74.88765,5.57519],[-74.88762,5.57521],[-74.88752,5.5753],[-74.88751,5.57531],[-74.88746,5.57537],[-74.88745,5.57538],[-74.88744,5.57539],[-74.88743,5.5754],[-74.8874,5.57546],[-74.88736,5.57553],[-74.88736,5.57553],[-74.88732,5.57559],[-74.88723,5.57572],[-74.88723,5.57572],[-74.8872,5.57577],[-74.88719,5.57578],[-74.88718,5.5758],[-74.88716,5.57588],[-74.88713,5.57595],[-74.88713,5.57597],[-74.88712,5.576],[-74.88709,5.57603],[-74.88709,5.57603],[-74.88708,5.57604],[-74.88707,5.57605],[-74.88706,5.57607],[-74.88705,5.57608],[-74.88704,5.57609],[-74.88704,5.5761],[-74.88701,5.57619],[-74.88701,5.57619],[-74.88701,5.57621],[-74.88699,5.57626],[-74.88697,5.57629],[-74.8868,5.57648],[-74.88682,5.57656],[-74.88682,5.57657],[-74.88682,5.5766],[-74.88683,5.57662],[-74.88686,5.57668],[-74.88687,5.57669],[-74.88687,5.5767],[-74.88692,5.57679],[-74.88694,5.57681],[-74.88695,5.57682],[-74.88701,5.57689],[-74.88707,5.57694],[-74.88708,5.57696],[-74.88709,5.57697],[-74.88712,5.57699],[-74.88719,5.57703],[-74.88721,5.57704],[-74.88724,5.57705],[-74.88739,5.57698],[-74.8876,5.57697],[-74.8876,5.57697],[-74.8877,5.57697],[-74.88772,5.57698],[-74.88773,5.57698],[-74.88797,5.57714],[-74.88798,5.57716],[-74.88797,5.57717],[-74.88796,5.5772]],[[-74.88784,5.57548],[-74.88784,5.57548],[-74.88784,5.57548],[-74.88784,5.57548],[-74.88784,5.57548],[-74.88784,5.57548],[-74.88784,5.57548],[-74.88784,5.57548],[-74.88784,5.57548],[-74.88784,5.57548],[-74.88784,5.57548],[-74.88784,5.57548],[-74.88784,5.57548],[-74.88784,5.57548],[-74.88784,5.57548],[-74.88784,5.57548],[-74.88784,5.57548],[-74.88784,5.57548],[-74.88784,5.57548],[-74.88784,5.57548],[-74.88784,5.57548],[-74.88784,5.57548],[-74.88784,5.57548],[-74.88784,5.57548],[-74.88784,5.57548],[-74.88784,5.57548],[-74.88784,5.57548],[-74.88784,5.57548],[-74.88784,5.57548],[-74.88784,5.57548],[-74.88784,5.57548],[-74.88784,5.57548],[-74.88784,5.57548],[-74.88784,5.57548]],[[-74.89045,5.57411],[-74.89045,5.57411],[-74.89045,5.57411],[-74.89045,5.57411],[-74.89045,5.57411],[-74.89045,5.57411],[-74.89045,5.57411]]]]},"properties":{"Id":0,"OBJECTID":1,"FID_1":0,"SID":0,"SRSID":0,"Length":5023.42329262,"Area":14545.3962986,"Shape_Leng":2833.91221222,"Shape_Area":40350.522267831686,"ID_DS":0,"CODDEP":" ","CODCUENCA":" ","CODDS":0,"TIPO":" ","NOMBRE":" Norcasia","ORDEN":" ","N_ORDEN":0,"FP":0,"ORD_STRAHL":0,"FR_STRAHLE":0,"BUFF_DIST":0,"OBJECTID_12":1,"OBJECTID_1":1,"ZPHA":0,"ZPS":0,"Shape_Le_1":3631.87110512,"Shape_Length":3630.5677380879374}}]}