{"type":"FeatureCollection","name":"ZPHA","crs":{"type":"name","properties":{"name":"urn:ogc:def:crs:OGC:1.3:CRS84"}},"features":[{"type":"Feature","id":0,"geometry":{"type":"Polygon","coordinates":[[[-75.61102,5.4645],[-75.61102,5.46449],[-75.61102,5.46446],[-75.61103,5.46443],[-75.61102,5.46441],[-75.61101,5.46437],[-75.61099,5.46434],[-75.61096,5.46433],[-75.61092,5.46433],[-75.61089,5.46436],[-75.61068,5.46478],[-75.6106,5.46523],[-75.61057,5.46526],[-75.61034,5.46547],[-75.61017,5.46567],[-75.60991,5.46579],[-75.6099,5.46581],[-75.60989,5.46584],[-75.60989,5.46586],[-75.60989,5.46588],[-75.60989,5.4659],[-75.60989,5.46592],[-75.60991,5.46594],[-75.60993,5.46595],[-75.60995,5.46596],[-75.60997,5.46596],[-75.60998,5.46596],[-75.61028,5.46582],[-75.61047,5.4656],[-75.61069,5.46539],[-75.61077,5.46533],[-75.61085,5.46484],[-75.61102,5.4645]]]},"properties":{"FID":0,"OBJECTID":1,"ENTITY":"Polyline","LAYER":"ZPHA","ELEVATION":0,"THICKNESS":0,"COLOR":122,"Shape_Leng":469.751723732,"Shape_Area":4368.37153741}},{"type":"Feature","id":1,"geometry":{"type":"Polygon","coordinates":[[[-75.58549,5.47225],[-75.58565,5.47232],[-75.58579,5.47244],[-75.58605,5.47255],[-75.5861,5.47254],[-75.58617,5.47252],[-75.58619,5.47248],[-75.58619,5.47245],[-75.58619,5.4724],[-75.58618,5.47237],[-75.58617,5.47232],[-75.58614,5.47229],[-75.58593,5.4722],[-75.58579,5.47209],[-75.58561,5.472],[-75.58556,5.47201],[-75.58552,5.47203],[-75.58548,5.4721],[-75.58548,5.47219],[-75.58549,5.47225]]]},"properties":{"FID":1,"OBJECTID":2,"ENTITY":"Polyline","LAYER":"ZPHA","ELEVATION":0,"THICKNESS":0,"COLOR":122,"Shape_Leng":216.108189171,"Shape_Area":2499.87997602}},{"type":"Feature","id":2,"geometry":{"type":"Polygon","coordinates":[[[-75.58892,5.4699],[-75.5886,5.46976],[-75.58841,5.46987],[-75.5884,5.46986],[-75.58827,5.46976],[-75.58792,5.4694],[-75.58747,5.46893],[-75.5874,5.46892],[-75.58735,5.46892],[-75.58731,5.46895],[-75.58729,5.46898],[-75.58727,5.46902],[-75.58727,5.46907],[-75.58728,5.4691],[-75.58728,5.46912],[-75.58773,5.46959],[-75.58809,5.46996],[-75.58825,5.47009],[-75.58842,5.47018],[-75.58861,5.47006],[-75.58881,5.47015],[-75.58885,5.47015],[-75.58891,5.47012],[-75.58895,5.47008],[-75.58896,5.47005],[-75.58896,5.47001],[-75.58895,5.46995],[-75.58893,5.46991],[-75.58892,5.4699]]]},"properties":{"FID":2,"OBJECTID":3,"ENTITY":"Polyline","LAYER":"ZPHA","ELEVATION":0,"THICKNESS":0,"COLOR":122,"Shape_Leng":510.556220988,"Shape_Area":6930.08748368}},{"type":"Feature","id":3,"geometry":{"type":"Polygon","coordinates":[[[-75.58625,5.4707],[-75.58614,5.4707],[-75.58609,5.47069],[-75.58604,5.47062],[-75.58597,5.47045],[-75.58579,5.47034],[-75.58574,5.47032],[-75.5857,5.47032],[-75.58563,5.47034],[-75.5856,5.47037],[-75.58558,5.47042],[-75.58558,5.47048],[-75.58559,5.47051],[-75.5856,5.47053],[-75.58562,5.47055],[-75.58576,5.47063],[-75.5858,5.47075],[-75.58592,5.47093],[-75.58611,5.47097],[-75.58623,5.47097],[-75.58628,5.47096],[-75.58632,5.47092],[-75.58634,5.47085],[-75.58633,5.47079],[-75.5863,5.47072],[-75.58625,5.4707]]]},"properties":{"FID":3,"OBJECTID":4,"ENTITY":"Polyline","LAYER":"ZPHA","ELEVATION":0,"THICKNESS":0,"COLOR":122,"Shape_Leng":246.151944602,"Shape_Area":2969.4741146}},{"type":"Feature","id":4,"geometry":{"type":"Polygon","coordinates":[[[-75.58788,5.47563],[-75.5879,5.47575],[-75.58791,5.47579],[-75.58793,5.47581],[-75.58796,5.47584],[-75.58799,5.47586],[-75.58803,5.47588],[-75.58805,5.47588],[-75.58808,5.47588],[-75.58811,5.47586],[-75.58814,5.47583],[-75.58816,5.47579],[-75.58818,5.47574],[-75.58819,5.47572],[-75.58816,5.47558],[-75.58818,5.47547],[-75.58828,5.47537],[-75.58836,5.47528],[-75.5885,5.47519],[-75.58861,5.47511],[-75.5887,5.47502],[-75.58888,5.47482],[-75.58895,5.47466],[-75.58894,5.47445],[-75.58893,5.47439],[-75.589,5.47428],[-75.5891,5.47405],[-75.58926,5.47397],[-75.58944,5.47386],[-75.58963,5.47375],[-75.5898,5.47358],[-75.58995,5.47347],[-75.59003,5.47331],[-75.59007,5.47311],[-75.59008,5.47293],[-75.59005,5.47274],[-75.58999,5.47258],[-75.58997,5.47247],[-75.58995,5.47235],[-75.58986,5.4722],[-75.58987,5.47209],[-75.58985,5.47204],[-75.58983,5.47201],[-75.58978,5.47199],[-75.58972,5.47199],[-75.58965,5.47199],[-75.58962,5.47201],[-75.58958,5.47207],[-75.58957,5.47212],[-75.58956,5.47213],[-75.58955,5.47215],[-75.58953,5.47215],[-75.5895,5.47215],[-75.58948,5.47213],[-75.58946,5.47212],[-75.58936,5.47211],[-75.58929,5.47205],[-75.58924,5.47205],[-75.5892,5.47206],[-75.58915,5.47213],[-75.58913,5.47218],[-75.58912,5.47222],[-75.58914,5.47226],[-75.58926,5.47235],[-75.58926,5.47236],[-75.58926,5.47236],[-75.58926,5.47237],[-75.58925,5.47238],[-75.58915,5.47241],[-75.58897,5.47249],[-75.58897,5.4725],[-75.58897,5.47251],[-75.58896,5.47255],[-75.58897,5.47262],[-75.589,5.47268],[-75.58903,5.47272],[-75.58908,5.47272],[-75.58924,5.47265],[-75.5893,5.47263],[-75.58937,5.47262],[-75.58942,5.47261],[-75.58951,5.47262],[-75.5897,5.47263],[-75.58971,5.47267],[-75.58976,5.47281],[-75.58978,5.47294],[-75.58977,5.47308],[-75.58974,5.47321],[-75.58971,5.47328],[-75.5896,5.47336],[-75.58946,5.47351],[-75.58929,5.4736],[-75.58912,5.47371],[-75.58886,5.47384],[-75.5888,5.474],[-75.58874,5.47415],[-75.58864,5.47432],[-75.58865,5.47447],[-75.58866,5.47461],[-75.58863,5.47467],[-75.5885,5.47482],[-75.58843,5.47488],[-75.58837,5.47493],[-75.58829,5.47462],[-75.58821,5.47446],[-75.58813,5.47436],[-75.5881,5.47434],[-75.58808,5.47422],[-75.58804,5.47413],[-75.588,5.4741],[-75.58795,5.47409],[-75.5879,5.47411],[-75.58785,5.47414],[-75.58783,5.47418],[-75.58781,5.47426],[-75.58784,5.4745],[-75.58795,5.47457],[-75.58799,5.47461],[-75.58804,5.47472],[-75.58814,5.4751],[-75.58808,5.47516],[-75.58799,5.47525],[-75.58794,5.47519],[-75.58784,5.47509],[-75.58776,5.47502],[-75.58774,5.475],[-75.5877,5.47489],[-75.58766,5.47479],[-75.58764,5.4747],[-75.58763,5.47464],[-75.5876,5.4746],[-75.58757,5.47453],[-75.58754,5.47447],[-75.58751,5.47441],[-75.58745,5.47435],[-75.5874,5.47433],[-75.58733,5.47434],[-75.58729,5.47438],[-75.58726,5.47444],[-75.58726,5.47448],[-75.58726,5.47452],[-75.58727,5.47454],[-75.5873,5.4746],[-75.58733,5.47465],[-75.58736,5.47471],[-75.58738,5.47475],[-75.58738,5.47477],[-75.5874,5.47486],[-75.58744,5.47499],[-75.58752,5.47516],[-75.58758,5.47522],[-75.58765,5.47529],[-75.58773,5.47537],[-75.5878,5.47546],[-75.58785,5.47557],[-75.58788,5.47563]]]},"properties":{"FID":4,"OBJECTID":5,"ENTITY":"Polyline","LAYER":"ZPHA","ELEVATION":0,"THICKNESS":0,"COLOR":122,"Shape_Leng":1727.16131066,"Shape_Area":27615.2792386}},{"type":"Feature","id":5,"geometry":{"type":"Polygon","coordinates":[[[-75.59835,5.4734],[-75.59849,5.47364],[-75.59869,5.47377],[-75.59887,5.47385],[-75.59897,5.474],[-75.59905,5.47411],[-75.5992,5.47427],[-75.59934,5.47437],[-75.59972,5.47447],[-75.60012,5.4746],[-75.60071,5.47451],[-75.60087,5.47451],[-75.60115,5.47483],[-75.6014,5.47533],[-75.60203,5.47612],[-75.60236,5.4764],[-75.60288,5.47715],[-75.60324,5.47742],[-75.60346,5.47743],[-75.60355,5.47742],[-75.60361,5.4774],[-75.60366,5.47738],[-75.60368,5.47734],[-75.6037,5.47724],[-75.6037,5.47716],[-75.60367,5.47712],[-75.60365,5.47709],[-75.60352,5.47707],[-75.60336,5.47706],[-75.60315,5.4769],[-75.60263,5.47616],[-75.60229,5.47586],[-75.6017,5.47513],[-75.60156,5.47484],[-75.60172,5.47504],[-75.60203,5.47538],[-75.60207,5.47541],[-75.60212,5.47543],[-75.6022,5.47542],[-75.60224,5.4754],[-75.60227,5.47535],[-75.60229,5.4753],[-75.60229,5.47524],[-75.60229,5.47518],[-75.60226,5.4751],[-75.60199,5.4748],[-75.60165,5.47439],[-75.60154,5.47429],[-75.60166,5.47419],[-75.60207,5.47433],[-75.60265,5.47406],[-75.60286,5.47385],[-75.60289,5.47378],[-75.60289,5.4737],[-75.60289,5.47365],[-75.60286,5.47357],[-75.60283,5.47352],[-75.60278,5.47351],[-75.60271,5.47352],[-75.60262,5.47358],[-75.60244,5.47376],[-75.60205,5.47394],[-75.60158,5.47379],[-75.60116,5.47413],[-75.60072,5.47411],[-75.60017,5.47422],[-75.59994,5.47406],[-75.59948,5.47407],[-75.59944,5.47403],[-75.59929,5.47388],[-75.59923,5.47378],[-75.59908,5.47358],[-75.59885,5.47346],[-75.59874,5.47339],[-75.59862,5.47321],[-75.59856,5.47318],[-75.59851,5.47319],[-75.59843,5.47322],[-75.59837,5.47326],[-75.59835,5.4733],[-75.59834,5.47336],[-75.59835,5.4734]]]},"properties":{"FID":5,"OBJECTID":6,"ENTITY":"Polyline","LAYER":"ZPHA","ELEVATION":0,"THICKNESS":0,"COLOR":122,"Shape_Leng":2246.2882914,"Shape_Area":45745.0155029}}]}