{"type":"FeatureCollection","name":"i_1_Cond_Riesgo_Mov_Masa_Urb_Exp","crs":{"type":"name","properties":{"name":"urn:ogc:def:crs:OGC:1.3:CRS84"}},"features":[{"type":"Feature","id":0,"geometry":{"type":"MultiPolygon","coordinates":[[[[-75.49438,5.26642],[-75.49436,5.26649],[-75.49436,5.26649],[-75.49437,5.26651],[-75.49438,5.26651],[-75.49438,5.26648],[-75.49439,5.26643],[-75.49441,5.26639],[-75.49438,5.26642]]],[[[-75.49451,5.26657],[-75.49451,5.26657],[-75.49452,5.26659],[-75.49453,5.2666],[-75.49453,5.26661],[-75.49452,5.26654],[-75.49451,5.26645],[-75.49451,5.26647],[-75.4945,5.26649],[-75.49448,5.26649],[-75.49448,5.26647],[-75.4945,5.2664],[-75.4945,5.2664],[-75.49445,5.2664],[-75.49445,5.26647],[-75.49446,5.26647],[-75.49446,5.26648],[-75.49445,5.26657],[-75.49445,5.26658],[-75.49445,5.2666],[-75.49444,5.2666],[-75.49444,5.2666],[-75.49445,5.2666],[-75.49447,5.26658],[-75.49449,5.26657],[-75.49451,5.26657]]],[[[-75.49289,5.26686],[-75.4929,5.26703],[-75.49291,5.26708],[-75.49293,5.26717],[-75.49294,5.26726],[-75.49294,5.26727],[-75.49295,5.26725],[-75.49295,5.26717],[-75.49296,5.26702],[-75.49295,5.26696],[-75.49294,5.26688],[-75.49293,5.26681],[-75.49292,5.26681],[-75.4929,5.2668],[-75.4929,5.2668],[-75.49289,5.26686]]],[[[-75.48967,5.26808],[-75.48968,5.26808],[-75.48973,5.2681],[-75.48976,5.26801],[-75.4897,5.26799],[-75.48967,5.26808]]],[[[-75.49401,5.26825],[-75.49401,5.26825],[-75.49401,5.26827],[-75.49401,5.2683],[-75.49404,5.2683],[-75.49404,5.2683],[-75.49404,5.26826],[-75.49404,5.26825],[-75.49402,5.26824],[-75.49401,5.26825]]],[[[-75.49101,5.26833],[-75.49101,5.26832],[-75.491,5.26832],[-75.49101,5.26833]]],[[[-75.49516,5.26832],[-75.4952,5.26831],[-75.4952,5.26831],[-75.4952,5.26831],[-75.49517,5.2683],[-75.49516,5.26832]]],[[[-75.49475,5.26832],[-75.49476,5.26833],[-75.49476,5.26834],[-75.49476,5.26833],[-75.49477,5.26832],[-75.49477,5.2683],[-75.49478,5.26829],[-75.49478,5.26828],[-75.49478,5.26827],[-75.49478,5.26826],[-75.49477,5.26826],[-75.49476,5.26826],[-75.49476,5.26825],[-75.49475,5.26824],[-75.49471,5.26823],[-75.49475,5.26832]]],[[[-75.49438,5.26826],[-75.4944,5.26827],[-75.49439,5.26828],[-75.49437,5.26829],[-75.49437,5.2683],[-75.49437,5.2683],[-75.49436,5.26831],[-75.49436,5.26834],[-75.49435,5.26837],[-75.49439,5.26833],[-75.49441,5.26829],[-75.49445,5.26827],[-75.49447,5.26825],[-75.4945,5.26824],[-75.49452,5.26824],[-75.4946,5.26825],[-75.49464,5.26825],[-75.49467,5.26822],[-75.49465,5.26822],[-75.49459,5.26821],[-75.49455,5.2682],[-75.49452,5.2682],[-75.49451,5.2682],[-75.49449,5.2682],[-75.49449,5.2682],[-75.4945,5.26818],[-75.4946,5.26813],[-75.4946,5.26814],[-75.49465,5.26812],[-75.49466,5.26814],[-75.49469,5.26813],[-75.49468,5.26811],[-75.49467,5.26811],[-75.49465,5.2681],[-75.49462,5.26809],[-75.4946,5.2681],[-75.49459,5.2681],[-75.49458,5.2681],[-75.49457,5.26811],[-75.49449,5.26814],[-75.49446,5.26816],[-75.49443,5.26818],[-75.49441,5.2682],[-75.49439,5.26823],[-75.49438,5.26826]]],[[[-75.4911,5.2684],[-75.4911,5.2684],[-75.49109,5.26839],[-75.49109,5.26839],[-75.49109,5.26839],[-75.49107,5.26838],[-75.49107,5.26838],[-75.49105,5.26837],[-75.49104,5.26835],[-75.49103,5.26835],[-75.49101,5.26833],[-75.49103,5.26835],[-75.49106,5.26838],[-75.4911,5.2684]]],[[[-75.49501,5.2684],[-75.49504,5.26838],[-75.49509,5.26835],[-75.49501,5.26834],[-75.49501,5.2684]]],[[[-75.49437,5.26849],[-75.49438,5.2685],[-75.49442,5.26858],[-75.49443,5.2686],[-75.49443,5.2686],[-75.49444,5.2686],[-75.49447,5.26859],[-75.4945,5.26858],[-75.49449,5.26856],[-75.49448,5.26854],[-75.49448,5.26853],[-75.49453,5.26853],[-75.49452,5.26851],[-75.49451,5.26849],[-75.4945,5.26847],[-75.4945,5.26844],[-75.4945,5.26843],[-75.49447,5.26843],[-75.49447,5.26848],[-75.49443,5.26847],[-75.49442,5.26849],[-75.4944,5.26848],[-75.49437,5.26849]]],[[[-75.49456,5.26858],[-75.49457,5.26863],[-75.49458,5.26863],[-75.49457,5.26858],[-75.49456,5.26858]]],[[[-75.49488,5.26856],[-75.49484,5.26856],[-75.49485,5.26862],[-75.49488,5.26862],[-75.49488,5.26864],[-75.49488,5.26864],[-75.49489,5.26863],[-75.49489,5.26862],[-75.49488,5.26855],[-75.49488,5.26852],[-75.49489,5.26851],[-75.49492,5.2685],[-75.49492,5.2685],[-75.49493,5.26849],[-75.49493,5.26845],[-75.49495,5.26843],[-75.49496,5.26842],[-75.49497,5.26841],[-75.495,5.2684],[-75.49501,5.2684],[-75.49498,5.2684],[-75.49498,5.26837],[-75.49493,5.26837],[-75.49493,5.26837],[-75.4949,5.26838],[-75.49489,5.26839],[-75.49489,5.26841],[-75.49489,5.26845],[-75.49479,5.26846],[-75.49479,5.26842],[-75.49476,5.26842],[-75.49477,5.26845],[-75.4948,5.26849],[-75.49481,5.26852],[-75.49488,5.26852],[-75.49488,5.26856]]],[[[-75.49126,5.26867],[-75.49127,5.26869],[-75.49127,5.26869],[-75.49129,5.26868],[-75.49127,5.26867],[-75.49126,5.26867]]],[[[-75.49088,5.26879],[-75.49088,5.26876],[-75.49088,5.26876],[-75.49088,5.26876],[-75.49089,5.26875],[-75.49095,5.26876],[-75.49099,5.26876],[-75.491,5.26877],[-75.49099,5.26875],[-75.49099,5.26875],[-75.49093,5.26874],[-75.49088,5.26873],[-75.49088,5.26869],[-75.49087,5.26871],[-75.49087,5.26875],[-75.49088,5.26879]]],[[[-75.49,5.26881],[-75.48994,5.26885],[-75.48996,5.26887],[-75.49004,5.26881],[-75.49004,5.2688],[-75.49012,5.26875],[-75.49018,5.2687],[-75.49018,5.2687],[-75.4903,5.26858],[-75.49032,5.26856],[-75.49033,5.26854],[-75.49037,5.26856],[-75.4904,5.26857],[-75.49052,5.2686],[-75.49053,5.2686],[-75.49053,5.2686],[-75.49056,5.26861],[-75.49056,5.26861],[-75.49057,5.26859],[-75.49055,5.26859],[-75.49048,5.26857],[-75.49044,5.26856],[-75.49044,5.26856],[-75.49043,5.26856],[-75.49043,5.26856],[-75.49042,5.26856],[-75.49041,5.26855],[-75.49039,5.26855],[-75.49035,5.26853],[-75.49035,5.26853],[-75.49035,5.26852],[-75.49037,5.26847],[-75.49037,5.26843],[-75.49038,5.26838],[-75.49038,5.26833],[-75.49038,5.2683],[-75.49039,5.26824],[-75.49039,5.26823],[-75.49039,5.26821],[-75.49039,5.2682],[-75.49039,5.26819],[-75.4904,5.26814],[-75.49042,5.2681],[-75.49043,5.26807],[-75.49043,5.26806],[-75.49044,5.26806],[-75.49045,5.26803],[-75.49045,5.26803],[-75.49045,5.26802],[-75.49045,5.26801],[-75.49045,5.26801],[-75.49045,5.268],[-75.49045,5.268],[-75.49045,5.268],[-75.49045,5.26799],[-75.49045,5.26799],[-75.49045,5.26798],[-75.49045,5.26798],[-75.49045,5.26797],[-75.49045,5.26797],[-75.49044,5.26797],[-75.4904,5.26794],[-75.4904,5.26795],[-75.4903,5.26794],[-75.49032,5.26788],[-75.49028,5.26788],[-75.49025,5.26785],[-75.49023,5.26783],[-75.49021,5.26781],[-75.49021,5.26781],[-75.49019,5.2678],[-75.49017,5.26779],[-75.49015,5.26777],[-75.49013,5.26773],[-75.49014,5.26769],[-75.49011,5.26768],[-75.49009,5.26768],[-75.49009,5.26768],[-75.49004,5.26767],[-75.49004,5.26765],[-75.49005,5.2676],[-75.49007,5.26756],[-75.49007,5.26753],[-75.49007,5.26752],[-75.49007,5.26751],[-75.49007,5.26749],[-75.49006,5.26747],[-75.49006,5.26746],[-75.49005,5.26745],[-75.49003,5.26744],[-75.49002,5.26743],[-75.49,5.26743],[-75.48999,5.26743],[-75.48997,5.26744],[-75.48996,5.26744],[-75.48994,5.26746],[-75.48991,5.26744],[-75.48994,5.26741],[-75.4899,5.26736],[-75.48989,5.26735],[-75.48989,5.26734],[-75.48986,5.26732],[-75.48985,5.26733],[-75.48982,5.26729],[-75.4898,5.26728],[-75.48981,5.26727],[-75.48978,5.26725],[-75.48978,5.26725],[-75.48978,5.26725],[-75.48971,5.26735],[-75.48965,5.26743],[-75.48966,5.26744],[-75.48972,5.26751],[-75.48976,5.26756],[-75.48976,5.26759],[-75.48977,5.26759],[-75.48978,5.26762],[-75.4898,5.26767],[-75.4898,5.26768],[-75.4898,5.26769],[-75.48984,5.26775],[-75.48984,5.26778],[-75.48983,5.26781],[-75.4898,5.26787],[-75.48978,5.2679],[-75.48975,5.26791],[-75.48973,5.26793],[-75.4897,5.26794],[-75.48968,5.26796],[-75.48965,5.26797],[-75.48962,5.26798],[-75.4896,5.26799],[-75.48959,5.268],[-75.48958,5.26801],[-75.48956,5.26804],[-75.48955,5.26807],[-75.48954,5.26811],[-75.48953,5.26813],[-75.48952,5.26816],[-75.48951,5.26818],[-75.48945,5.26816],[-75.48943,5.26821],[-75.48945,5.26822],[-75.48946,5.26822],[-75.48949,5.26823],[-75.48949,5.26824],[-75.48949,5.26824],[-75.48949,5.26824],[-75.48948,5.26826],[-75.48948,5.26827],[-75.48948,5.26829],[-75.4895,5.2683],[-75.4895,5.2683],[-75.48951,5.2683],[-75.48952,5.26827],[-75.48954,5.26828],[-75.48953,5.26831],[-75.48956,5.26832],[-75.48957,5.26829],[-75.48965,5.26831],[-75.48967,5.26826],[-75.4897,5.26827],[-75.48972,5.26821],[-75.48972,5.26821],[-75.48972,5.26819],[-75.48967,5.26817],[-75.48967,5.26819],[-75.48964,5.26825],[-75.48964,5.26825],[-75.48966,5.26819],[-75.48957,5.26816],[-75.48958,5.26812],[-75.48958,5.26812],[-75.48957,5.26811],[-75.48957,5.26809],[-75.48958,5.26807],[-75.48959,5.26803],[-75.4896,5.26802],[-75.48962,5.26801],[-75.48964,5.26799],[-75.48969,5.26797],[-75.48973,5.26795],[-75.48976,5.26794],[-75.48978,5.26792],[-75.4898,5.26791],[-75.48981,5.2679],[-75.48981,5.2679],[-75.48981,5.26791],[-75.48979,5.26797],[-75.48977,5.26802],[-75.48976,5.26807],[-75.48974,5.26811],[-75.48974,5.26813],[-75.48973,5.26815],[-75.48976,5.26816],[-75.48977,5.26817],[-75.48974,5.26829],[-75.48978,5.2683],[-75.48983,5.26831],[-75.48983,5.26832],[-75.48982,5.26838],[-75.48982,5.26838],[-75.48983,5.26838],[-75.48983,5.26841],[-75.4898,5.2684],[-75.4898,5.26844],[-75.48982,5.26845],[-75.48982,5.26848],[-75.48985,5.26848],[-75.48985,5.26849],[-75.48988,5.26849],[-75.48988,5.26848],[-75.48995,5.26849],[-75.48994,5.26859],[-75.48986,5.26858],[-75.48986,5.26862],[-75.48986,5.26862],[-75.48986,5.26862],[-75.48984,5.26861],[-75.48981,5.26861],[-75.48981,5.26865],[-75.48983,5.26865],[-75.48982,5.26869],[-75.48983,5.26869],[-75.48983,5.26869],[-75.48983,5.2687],[-75.48984,5.2687],[-75.48984,5.26873],[-75.48982,5.26877],[-75.48983,5.26878],[-75.48987,5.2688],[-75.48992,5.26883],[-75.48993,5.26882],[-75.48995,5.26881],[-75.49,5.26879],[-75.49003,5.26878],[-75.49,5.26881]],[[-75.49001,5.26746],[-75.49003,5.26747],[-75.49004,5.26748],[-75.49005,5.2675],[-75.49005,5.26751],[-75.49004,5.26753],[-75.48994,5.2675],[-75.48995,5.26748],[-75.48996,5.26747],[-75.48998,5.26746],[-75.49,5.26746],[-75.49001,5.26746]]],[[[-75.49041,5.26886],[-75.49039,5.26886],[-75.49039,5.26889],[-75.49045,5.26883],[-75.49046,5.26882],[-75.49041,5.26882],[-75.49041,5.26886]]],[[[-75.49513,5.26874],[-75.49512,5.26878],[-75.49512,5.26883],[-75.49512,5.26888],[-75.49514,5.26894],[-75.49514,5.26884],[-75.49514,5.26879],[-75.49514,5.26872],[-75.49514,5.26871],[-75.49513,5.26874]]],[[[-75.49443,5.2687],[-75.49443,5.2687],[-75.49443,5.26873],[-75.49445,5.26878],[-75.49446,5.26881],[-75.49446,5.26883],[-75.49444,5.2689],[-75.49443,5.26898],[-75.49444,5.26898],[-75.49443,5.26897],[-75.4945,5.26892],[-75.49446,5.26886],[-75.49452,5.26881],[-75.49446,5.26874],[-75.49447,5.26874],[-75.49443,5.2687],[-75.49443,5.2687]]],[[[-75.49078,5.269],[-75.49077,5.269],[-75.49081,5.269],[-75.49083,5.269],[-75.49083,5.269],[-75.49084,5.26899],[-75.49084,5.26899],[-75.49086,5.26899],[-75.49087,5.26899],[-75.49087,5.26899],[-75.49088,5.26898],[-75.49088,5.26887],[-75.49088,5.26888],[-75.49086,5.26891],[-75.49084,5.26894],[-75.49084,5.26894],[-75.49081,5.26897],[-75.49081,5.26897],[-75.49078,5.269]]],[[[-75.49398,5.26906],[-75.49403,5.26908],[-75.49404,5.26901],[-75.49405,5.26888],[-75.49398,5.26906]]],[[[-75.49033,5.26911],[-75.49033,5.26912],[-75.49035,5.26912],[-75.49035,5.26912],[-75.49039,5.26911],[-75.49039,5.26911],[-75.49042,5.26911],[-75.49042,5.2691],[-75.49045,5.26911],[-75.49045,5.2691],[-75.49055,5.2691],[-75.49068,5.26909],[-75.49071,5.26909],[-75.49071,5.26903],[-75.4907,5.26903],[-75.49053,5.26906],[-75.49046,5.26908],[-75.49041,5.26908],[-75.49036,5.26907],[-75.49034,5.26906],[-75.49032,5.26904],[-75.49032,5.26902],[-75.49031,5.26901],[-75.49031,5.269],[-75.49032,5.26897],[-75.49032,5.26897],[-75.49033,5.26895],[-75.49035,5.26892],[-75.49039,5.26889],[-75.49034,5.26888],[-75.49034,5.2689],[-75.49034,5.26893],[-75.49031,5.26893],[-75.49031,5.26897],[-75.49028,5.26897],[-75.49029,5.26901],[-75.49029,5.26903],[-75.49031,5.26907],[-75.49031,5.26908],[-75.49032,5.26909],[-75.49033,5.26911]]],[[[-75.49441,5.26903],[-75.49441,5.26905],[-75.49442,5.26906],[-75.49445,5.26911],[-75.49445,5.26912],[-75.49446,5.26913],[-75.49446,5.26915],[-75.49448,5.26914],[-75.49448,5.26913],[-75.49447,5.26911],[-75.49442,5.269],[-75.49441,5.26903]]],[[[-75.49401,5.26916],[-75.49402,5.26916],[-75.49402,5.26914],[-75.49402,5.26914],[-75.49402,5.26913],[-75.49402,5.26912],[-75.49402,5.26912],[-75.49401,5.26916]]],[[[-75.49453,5.26911],[-75.49453,5.26912],[-75.49453,5.26915],[-75.49454,5.26915],[-75.49454,5.26918],[-75.49454,5.26918],[-75.49455,5.26918],[-75.49456,5.26918],[-75.49457,5.26912],[-75.49456,5.26911],[-75.49454,5.26911],[-75.49453,5.26911]]],[[[-75.49462,5.26922],[-75.49462,5.26922],[-75.49462,5.26922],[-75.49462,5.26922],[-75.49462,5.26922]]],[[[-75.49118,5.26912],[-75.49117,5.26913],[-75.49116,5.26916],[-75.49113,5.26919],[-75.49113,5.2692],[-75.49113,5.26923],[-75.49114,5.26925],[-75.49115,5.26926],[-75.49116,5.26925],[-75.49115,5.26924],[-75.49117,5.26919],[-75.49116,5.26918],[-75.4912,5.26913],[-75.49118,5.26912],[-75.49118,5.26912]]],[[[-75.49131,5.26929],[-75.49131,5.26929],[-75.49132,5.26929],[-75.49134,5.26929],[-75.49134,5.26929],[-75.49131,5.26929]]],[[[-75.4952,5.2692],[-75.49523,5.26928],[-75.49526,5.26928],[-75.49529,5.26928],[-75.49529,5.26927],[-75.49526,5.26927],[-75.49527,5.26922],[-75.49524,5.26922],[-75.49524,5.26916],[-75.49526,5.26916],[-75.49525,5.2691],[-75.49522,5.2691],[-75.49522,5.26901],[-75.49523,5.26901],[-75.49523,5.269],[-75.4952,5.269],[-75.4952,5.26899],[-75.49518,5.26899],[-75.49515,5.26899],[-75.49515,5.269],[-75.49516,5.26904],[-75.49516,5.26904],[-75.49517,5.26906],[-75.4952,5.26912],[-75.4952,5.2692]]],[[[-75.49525,5.26935],[-75.49525,5.26933],[-75.49524,5.26933],[-75.49525,5.26935]]],[[[-75.49526,5.26939],[-75.49526,5.2694],[-75.49526,5.26938],[-75.49525,5.26938],[-75.49526,5.26939]]],[[[-75.49068,5.26929],[-75.49066,5.26931],[-75.49067,5.26933],[-75.49063,5.26937],[-75.49068,5.26942],[-75.49072,5.26939],[-75.49079,5.26937],[-75.49083,5.26934],[-75.49089,5.26928],[-75.4909,5.26927],[-75.49097,5.26922],[-75.491,5.26919],[-75.49103,5.26915],[-75.49104,5.26912],[-75.49107,5.26908],[-75.49108,5.26904],[-75.49108,5.26902],[-75.49106,5.26905],[-75.49104,5.26907],[-75.49102,5.26911],[-75.49099,5.26915],[-75.49096,5.26919],[-75.49096,5.26919],[-75.49095,5.26919],[-75.49091,5.26916],[-75.4909,5.26916],[-75.49089,5.26915],[-75.49087,5.26917],[-75.49087,5.26918],[-75.49085,5.26921],[-75.49083,5.26919],[-75.49081,5.26922],[-75.4908,5.26921],[-75.49079,5.26922],[-75.49077,5.26921],[-75.49075,5.26922],[-75.49077,5.26925],[-75.49077,5.26926],[-75.49076,5.26925],[-75.49075,5.26926],[-75.49074,5.26927],[-75.49071,5.26924],[-75.4907,5.26922],[-75.49069,5.26922],[-75.49068,5.26922],[-75.49064,5.26925],[-75.49068,5.26929]]],[[[-75.49384,5.26931],[-75.49384,5.26934],[-75.49394,5.26936],[-75.49393,5.26944],[-75.49394,5.26945],[-75.49395,5.26945],[-75.494,5.26946],[-75.49401,5.26941],[-75.49401,5.26939],[-75.49401,5.26938],[-75.49401,5.26938],[-75.49401,5.26937],[-75.49401,5.26937],[-75.49401,5.26935],[-75.49402,5.26926],[-75.494,5.26926],[-75.49395,5.26925],[-75.49394,5.26929],[-75.49388,5.26929],[-75.49384,5.26931]]],[[[-75.49531,5.26946],[-75.49531,5.26947],[-75.49532,5.26948],[-75.49532,5.26948],[-75.49533,5.26945],[-75.49531,5.26945],[-75.49531,5.26946]]],[[[-75.49326,5.26951],[-75.49328,5.26953],[-75.49334,5.26963],[-75.49339,5.2696],[-75.49339,5.26956],[-75.49339,5.26954],[-75.49335,5.26946],[-75.49326,5.26951]]],[[[-75.4939,5.26975],[-75.49391,5.26973],[-75.49394,5.26967],[-75.49395,5.26966],[-75.49395,5.26966],[-75.49395,5.26965],[-75.49395,5.26965],[-75.49395,5.26965],[-75.49396,5.26964],[-75.49396,5.26964],[-75.49396,5.26963],[-75.49396,5.26962],[-75.49396,5.26962],[-75.49398,5.26953],[-75.49399,5.26949],[-75.49396,5.26949],[-75.49395,5.26952],[-75.49395,5.26952],[-75.49395,5.26952],[-75.49393,5.26952],[-75.49393,5.26955],[-75.49392,5.26955],[-75.49391,5.26961],[-75.49393,5.26961],[-75.49392,5.26962],[-75.49392,5.26968],[-75.49391,5.26968],[-75.4939,5.26975]]],[[[-75.48834,5.26975],[-75.48843,5.26977],[-75.48843,5.26977],[-75.48843,5.26977],[-75.48851,5.26979],[-75.48862,5.2698],[-75.48864,5.26973],[-75.48853,5.26966],[-75.48852,5.2697],[-75.48845,5.26968],[-75.48844,5.2697],[-75.48835,5.26968],[-75.48834,5.26975]]],[[[-75.49385,5.26998],[-75.49386,5.26998],[-75.49385,5.26997],[-75.49385,5.26998],[-75.49385,5.26997],[-75.49385,5.26998]]],[[[-75.48956,5.27002],[-75.48956,5.27002],[-75.48957,5.27001],[-75.48959,5.27],[-75.48956,5.26999],[-75.48956,5.27002]]],[[[-75.49386,5.27001],[-75.49388,5.27001],[-75.49388,5.27001],[-75.49387,5.27],[-75.49386,5.26998],[-75.49386,5.27001]]],[[[-75.49424,5.26967],[-75.49423,5.26969],[-75.49416,5.2698],[-75.49415,5.26981],[-75.49415,5.26981],[-75.49413,5.26984],[-75.49413,5.26985],[-75.49413,5.26986],[-75.49416,5.26989],[-75.49417,5.2699],[-75.49417,5.26992],[-75.49416,5.26995],[-75.49414,5.27001],[-75.49414,5.27003],[-75.49413,5.27005],[-75.49413,5.27007],[-75.49413,5.2701],[-75.49412,5.27013],[-75.49411,5.27015],[-75.4941,5.27017],[-75.4941,5.27018],[-75.4941,5.27022],[-75.4941,5.27023],[-75.49411,5.27022],[-75.49411,5.27022],[-75.49412,5.27019],[-75.49414,5.27015],[-75.49415,5.27013],[-75.49415,5.27009],[-75.49415,5.27007],[-75.49416,5.27003],[-75.49417,5.27],[-75.49418,5.26997],[-75.49419,5.26995],[-75.4942,5.26995],[-75.49421,5.26993],[-75.49422,5.26991],[-75.49422,5.26991],[-75.4943,5.26977],[-75.49428,5.26974],[-75.49427,5.26973],[-75.49425,5.26967],[-75.49424,5.26966],[-75.49424,5.26967]]],[[[-75.4935,5.27031],[-75.49351,5.27032],[-75.49352,5.27033],[-75.49354,5.27033],[-75.49354,5.2703],[-75.49354,5.2703],[-75.49354,5.27026],[-75.49353,5.27026],[-75.49353,5.27025],[-75.49356,5.27025],[-75.49356,5.27021],[-75.49357,5.27021],[-75.49357,5.27019],[-75.49357,5.27019],[-75.49358,5.27013],[-75.49359,5.27013],[-75.49359,5.2701],[-75.49359,5.27005],[-75.4936,5.27005],[-75.4936,5.27002],[-75.49359,5.27002],[-75.49359,5.27],[-75.49352,5.27],[-75.49352,5.27],[-75.49353,5.27001],[-75.49354,5.27003],[-75.49354,5.27005],[-75.49354,5.27007],[-75.49353,5.27009],[-75.49351,5.27012],[-75.4935,5.27013],[-75.4935,5.27015],[-75.49351,5.27025],[-75.4935,5.27031]]],[[[-75.49354,5.27034],[-75.49355,5.27034],[-75.49354,5.27034],[-75.49354,5.27034]]],[[[-75.49278,5.2703],[-75.49279,5.27031],[-75.49286,5.27035],[-75.49287,5.27036],[-75.49287,5.27036],[-75.49288,5.27036],[-75.49288,5.27036],[-75.49289,5.27036],[-75.49289,5.27037],[-75.49289,5.27037],[-75.4929,5.27037],[-75.49291,5.27037],[-75.49292,5.27038],[-75.49294,5.27038],[-75.49295,5.27039],[-75.49296,5.27039],[-75.49297,5.27038],[-75.49298,5.27035],[-75.49296,5.27034],[-75.49295,5.27033],[-75.49297,5.27031],[-75.49297,5.2703],[-75.49294,5.27027],[-75.49295,5.27026],[-75.49295,5.27026],[-75.4929,5.27023],[-75.49285,5.27019],[-75.49284,5.2702],[-75.49282,5.27024],[-75.49277,5.27022],[-75.49276,5.27024],[-75.49277,5.27025],[-75.49276,5.27025],[-75.49277,5.27026],[-75.49277,5.27026],[-75.49278,5.27027],[-75.49278,5.27028],[-75.49278,5.27028],[-75.49278,5.27029],[-75.49278,5.27029],[-75.49279,5.27028],[-75.49278,5.2703]]],[[[-75.49308,5.27053],[-75.49308,5.27054],[-75.4931,5.27054],[-75.49311,5.27055],[-75.49311,5.27056],[-75.49311,5.27059],[-75.49311,5.27059],[-75.49312,5.27057],[-75.49313,5.27053],[-75.49314,5.27052],[-75.49319,5.27052],[-75.49327,5.27053],[-75.49327,5.27047],[-75.49328,5.27041],[-75.4933,5.2704],[-75.4933,5.27033],[-75.49329,5.27033],[-75.49328,5.27032],[-75.49328,5.27031],[-75.49328,5.27028],[-75.49328,5.27027],[-75.49327,5.27027],[-75.49325,5.27027],[-75.49324,5.27026],[-75.49323,5.27026],[-75.4932,5.27026],[-75.49317,5.27025],[-75.49315,5.27024],[-75.49314,5.27024],[-75.49312,5.27022],[-75.4931,5.2702],[-75.4931,5.2702],[-75.49309,5.27018],[-75.49308,5.27016],[-75.49308,5.27014],[-75.49308,5.27009],[-75.49308,5.26991],[-75.49307,5.26986],[-75.49305,5.26979],[-75.49305,5.26979],[-75.49302,5.26979],[-75.49302,5.26984],[-75.49302,5.26994],[-75.49302,5.27001],[-75.49298,5.27001],[-75.49297,5.27002],[-75.49295,5.27008],[-75.49295,5.27012],[-75.49295,5.27015],[-75.49296,5.27017],[-75.49298,5.27019],[-75.493,5.2702],[-75.49302,5.27022],[-75.4931,5.27022],[-75.49309,5.2703],[-75.49309,5.2704],[-75.49309,5.2704],[-75.49309,5.27046],[-75.49309,5.2705],[-75.49308,5.27053]]],[[[-75.494,5.27058],[-75.49392,5.27067],[-75.49406,5.27067],[-75.49417,5.27052],[-75.49413,5.27049],[-75.49412,5.2705],[-75.4941,5.27049],[-75.49408,5.27052],[-75.49406,5.2705],[-75.494,5.27058]]],[[[-75.49437,5.27076],[-75.49438,5.27074],[-75.4944,5.27074],[-75.49441,5.27073],[-75.49441,5.2707],[-75.49438,5.2707],[-75.49438,5.2707],[-75.49437,5.2707],[-75.49437,5.2707],[-75.49437,5.2707],[-75.49437,5.2707],[-75.49437,5.27069],[-75.49438,5.27067],[-75.49437,5.27067],[-75.49436,5.27066],[-75.49436,5.27065],[-75.49436,5.27065],[-75.49427,5.27063],[-75.49425,5.27068],[-75.49429,5.27069],[-75.49428,5.27074],[-75.49433,5.27076],[-75.49434,5.27075],[-75.49437,5.27076]]],[[[-75.49418,5.2708],[-75.49418,5.27082],[-75.49419,5.27084],[-75.49422,5.27084],[-75.49426,5.27083],[-75.49425,5.27076],[-75.49418,5.27077],[-75.49418,5.27077],[-75.49418,5.27077],[-75.49418,5.2708]]],[[[-75.49339,5.2705],[-75.49338,5.27054],[-75.49338,5.27057],[-75.49337,5.27058],[-75.49336,5.27062],[-75.49336,5.27064],[-75.49335,5.27068],[-75.49334,5.27072],[-75.49334,5.2708],[-75.49333,5.27083],[-75.49333,5.27085],[-75.49334,5.27088],[-75.49334,5.27088],[-75.49335,5.27084],[-75.49339,5.27075],[-75.4934,5.2707],[-75.49341,5.27059],[-75.49341,5.27055],[-75.49341,5.27052],[-75.4934,5.27048],[-75.49339,5.2705]]],[[[-75.49398,5.2709],[-75.49399,5.2709],[-75.494,5.27091],[-75.49404,5.27093],[-75.49404,5.27093],[-75.49405,5.27091],[-75.49407,5.27084],[-75.49408,5.27085],[-75.49409,5.27084],[-75.49409,5.27084],[-75.49409,5.27084],[-75.49409,5.27084],[-75.4941,5.27081],[-75.4941,5.2708],[-75.4941,5.27079],[-75.4941,5.27079],[-75.49412,5.27074],[-75.49401,5.2707],[-75.49399,5.27075],[-75.49398,5.27075],[-75.49396,5.2708],[-75.494,5.27082],[-75.49397,5.27089],[-75.49397,5.27089],[-75.49397,5.27089],[-75.49398,5.2709]]],[[[-75.49385,5.27091],[-75.49385,5.27094],[-75.49384,5.27097],[-75.49384,5.27099],[-75.4939,5.27101],[-75.49392,5.27095],[-75.49393,5.27094],[-75.49389,5.27092],[-75.49389,5.27091],[-75.49386,5.2709],[-75.49386,5.27091],[-75.49385,5.2709],[-75.49385,5.27091]]],[[[-75.49314,5.27104],[-75.49316,5.27102],[-75.49316,5.27103],[-75.49317,5.27102],[-75.49318,5.27103],[-75.49322,5.27097],[-75.49321,5.27097],[-75.49321,5.27095],[-75.4932,5.27095],[-75.4932,5.27095],[-75.49318,5.27091],[-75.49317,5.27092],[-75.49315,5.27091],[-75.49315,5.2709],[-75.49316,5.27089],[-75.49313,5.27084],[-75.49313,5.27083],[-75.49313,5.27078],[-75.49313,5.27075],[-75.49312,5.27071],[-75.49307,5.27072],[-75.49306,5.27073],[-75.49301,5.27082],[-75.49301,5.27084],[-75.493,5.27089],[-75.49305,5.27088],[-75.49305,5.27092],[-75.49306,5.27096],[-75.49309,5.27099],[-75.49314,5.27104]]],[[[-75.49238,5.27113],[-75.49238,5.27113],[-75.49238,5.27113],[-75.49238,5.27113]]],[[[-75.48825,5.27121],[-75.48826,5.27123],[-75.48826,5.27123],[-75.48827,5.27126],[-75.48829,5.27125],[-75.48826,5.27121],[-75.48825,5.27121],[-75.48825,5.27121]]],[[[-75.49372,5.27126],[-75.49373,5.27126],[-75.49376,5.27124],[-75.49376,5.27124],[-75.4938,5.27122],[-75.49381,5.27123],[-75.49382,5.27122],[-75.49382,5.27122],[-75.49383,5.27122],[-75.49384,5.2712],[-75.49383,5.27119],[-75.49384,5.27119],[-75.49384,5.27119],[-75.49384,5.27119],[-75.49386,5.27117],[-75.49385,5.27116],[-75.49385,5.27115],[-75.49385,5.27115],[-75.49385,5.27115],[-75.49383,5.27111],[-75.49385,5.27106],[-75.49386,5.27107],[-75.49388,5.27102],[-75.49383,5.271],[-75.49382,5.27103],[-75.49379,5.27117],[-75.49378,5.2712],[-75.49376,5.27122],[-75.49375,5.27124],[-75.49372,5.27126]]],[[[-75.49258,5.27128],[-75.49261,5.27129],[-75.49262,5.27123],[-75.4926,5.27122],[-75.49261,5.2712],[-75.4926,5.2712],[-75.49258,5.27128]]],[[[-75.48837,5.27137],[-75.48838,5.27136],[-75.48837,5.27135],[-75.48834,5.2713],[-75.48831,5.27127],[-75.4883,5.27127],[-75.4883,5.27127],[-75.48833,5.27132],[-75.48832,5.27132],[-75.48833,5.27134],[-75.48835,5.27133],[-75.48837,5.27137]]],[[[-75.48839,5.27141],[-75.4884,5.27143],[-75.4884,5.27142],[-75.48839,5.2714],[-75.48839,5.27141]]],[[[-75.4889,5.27145],[-75.4889,5.27145],[-75.48892,5.27144],[-75.48893,5.2714],[-75.48895,5.27141],[-75.48897,5.27142],[-75.48906,5.27134],[-75.48906,5.27134],[-75.48913,5.27132],[-75.48918,5.27131],[-75.48928,5.27133],[-75.48932,5.27134],[-75.48933,5.27134],[-75.48934,5.27135],[-75.48935,5.27135],[-75.48937,5.27135],[-75.48938,5.27136],[-75.48939,5.27136],[-75.48939,5.27136],[-75.48939,5.27136],[-75.4894,5.27136],[-75.4894,5.27136],[-75.4894,5.27136],[-75.48941,5.27136],[-75.48948,5.2713],[-75.48954,5.27115],[-75.48957,5.27101],[-75.48955,5.27093],[-75.48952,5.27088],[-75.48932,5.27082],[-75.48918,5.2708],[-75.48915,5.27079],[-75.48912,5.27078],[-75.48905,5.27076],[-75.48882,5.27069],[-75.48872,5.27065],[-75.48871,5.27065],[-75.48871,5.27065],[-75.48861,5.27063],[-75.4886,5.27062],[-75.4886,5.27062],[-75.4886,5.27062],[-75.48859,5.27062],[-75.48859,5.27062],[-75.48858,5.27062],[-75.48854,5.27061],[-75.48852,5.27061],[-75.48849,5.2706],[-75.48845,5.27059],[-75.48844,5.27059],[-75.48843,5.27059],[-75.48842,5.27059],[-75.48842,5.27059],[-75.48842,5.27059],[-75.48841,5.27059],[-75.48841,5.27059],[-75.4884,5.27059],[-75.4884,5.27059],[-75.48839,5.27059],[-75.48839,5.27059],[-75.48839,5.27059],[-75.48835,5.27059],[-75.4883,5.27057],[-75.48825,5.27056],[-75.48823,5.27054],[-75.48821,5.27052],[-75.4882,5.27051],[-75.48821,5.27051],[-75.48821,5.27051],[-75.48822,5.27051],[-75.48823,5.27052],[-75.48824,5.27052],[-75.48824,5.27052],[-75.48825,5.27052],[-75.48825,5.27052],[-75.48826,5.27052],[-75.48826,5.27052],[-75.48826,5.27052],[-75.48827,5.27052],[-75.48827,5.27052],[-75.48827,5.27052],[-75.48827,5.27052],[-75.48827,5.27051],[-75.48827,5.27051],[-75.48827,5.27051],[-75.48827,5.2705],[-75.48827,5.2705],[-75.48827,5.2705],[-75.48827,5.27049],[-75.48827,5.27047],[-75.48827,5.27046],[-75.48826,5.27043],[-75.48826,5.27036],[-75.48826,5.27033],[-75.48825,5.2703],[-75.48825,5.27028],[-75.48826,5.27026],[-75.48828,5.27021],[-75.48829,5.2702],[-75.48829,5.2702],[-75.48829,5.2702],[-75.4883,5.27022],[-75.48831,5.27024],[-75.48832,5.27024],[-75.48832,5.27024],[-75.48834,5.27024],[-75.48835,5.27023],[-75.48836,5.27022],[-75.48838,5.2702],[-75.48838,5.27019],[-75.48839,5.27018],[-75.4884,5.27012],[-75.48841,5.27],[-75.48841,5.26998],[-75.48841,5.26997],[-75.4884,5.26992],[-75.4884,5.26987],[-75.4884,5.26984],[-75.48841,5.26983],[-75.48842,5.26982],[-75.48845,5.26981],[-75.48847,5.26982],[-75.48847,5.26982],[-75.48848,5.26984],[-75.48849,5.26986],[-75.48849,5.26989],[-75.48848,5.26992],[-75.48848,5.26993],[-75.48849,5.26994],[-75.4885,5.26994],[-75.48851,5.26994],[-75.48852,5.26992],[-75.48852,5.26988],[-75.48853,5.26989],[-75.48854,5.2699],[-75.48854,5.26992],[-75.48854,5.26996],[-75.48854,5.26997],[-75.48855,5.27002],[-75.48856,5.27009],[-75.48857,5.2701],[-75.4886,5.27011],[-75.48861,5.27012],[-75.48863,5.27014],[-75.48864,5.27016],[-75.48865,5.2702],[-75.48865,5.27023],[-75.48865,5.27024],[-75.48864,5.27025],[-75.48862,5.27027],[-75.48862,5.27029],[-75.48862,5.27032],[-75.4886,5.27037],[-75.4886,5.27039],[-75.4886,5.27041],[-75.48863,5.27046],[-75.48863,5.27047],[-75.48864,5.27048],[-75.48865,5.27049],[-75.48866,5.27049],[-75.48867,5.27048],[-75.48868,5.27048],[-75.48868,5.27047],[-75.48868,5.27037],[-75.4887,5.27029],[-75.48871,5.27026],[-75.48871,5.27024],[-75.48869,5.2702],[-75.48869,5.27018],[-75.4887,5.27017],[-75.48871,5.27013],[-75.48872,5.27006],[-75.48872,5.27005],[-75.48873,5.27003],[-75.48873,5.27001],[-75.48874,5.27001],[-75.48876,5.27],[-75.48878,5.26998],[-75.4888,5.26997],[-75.48881,5.26996],[-75.48882,5.26997],[-75.48885,5.27],[-75.48886,5.27001],[-75.48888,5.27001],[-75.48891,5.27001],[-75.48892,5.27001],[-75.48897,5.27],[-75.489,5.27],[-75.48902,5.27001],[-75.48907,5.27003],[-75.48909,5.27003],[-75.48911,5.27004],[-75.48917,5.27003],[-75.48923,5.27004],[-75.4893,5.27004],[-75.48935,5.27005],[-75.48935,5.27005],[-75.48936,5.27005],[-75.48939,5.27003],[-75.4894,5.27003],[-75.4894,5.27003],[-75.48942,5.27003],[-75.48946,5.27005],[-75.48948,5.27005],[-75.48948,5.27004],[-75.4895,5.26999],[-75.4895,5.26999],[-75.48953,5.26991],[-75.48954,5.26992],[-75.48954,5.26991],[-75.48957,5.26992],[-75.48956,5.26993],[-75.48957,5.26993],[-75.48957,5.26993],[-75.48961,5.26994],[-75.48962,5.26988],[-75.48967,5.26989],[-75.48965,5.26993],[-75.48966,5.26993],[-75.48966,5.26993],[-75.48968,5.26992],[-75.48969,5.26992],[-75.48971,5.26993],[-75.48971,5.26994],[-75.48972,5.26994],[-75.48974,5.26993],[-75.48974,5.26993],[-75.4897,5.26991],[-75.48958,5.26982],[-75.48954,5.2698],[-75.4895,5.2698],[-75.48948,5.2698],[-75.48944,5.2698],[-75.48941,5.2698],[-75.4893,5.26978],[-75.4892,5.26978],[-75.48917,5.26978],[-75.48914,5.26977],[-75.48905,5.26972],[-75.48904,5.26972],[-75.48898,5.26971],[-75.48896,5.2697],[-75.48894,5.26969],[-75.48885,5.26962],[-75.4888,5.2696],[-75.48876,5.26956],[-75.4887,5.26951],[-75.48866,5.26947],[-75.48864,5.26945],[-75.48863,5.26944],[-75.48863,5.26942],[-75.48863,5.26941],[-75.48863,5.26939],[-75.48864,5.26939],[-75.48865,5.26939],[-75.48866,5.26939],[-75.48867,5.26939],[-75.48869,5.2694],[-75.48874,5.26944],[-75.48884,5.26953],[-75.48888,5.26956],[-75.48894,5.26959],[-75.489,5.26961],[-75.48905,5.26964],[-75.48907,5.26965],[-75.48917,5.26966],[-75.48928,5.26968],[-75.48937,5.26968],[-75.48951,5.26968],[-75.48972,5.26967],[-75.48979,5.26967],[-75.48984,5.26969],[-75.48986,5.26969],[-75.48992,5.26968],[-75.49002,5.26967],[-75.49006,5.26966],[-75.49011,5.26963],[-75.49013,5.26963],[-75.49015,5.26962],[-75.49015,5.26962],[-75.49022,5.26962],[-75.49027,5.2696],[-75.49033,5.26958],[-75.49036,5.26957],[-75.49039,5.26954],[-75.49043,5.26952],[-75.49046,5.26951],[-75.49052,5.2695],[-75.4906,5.26947],[-75.49065,5.26944],[-75.49061,5.26943],[-75.49057,5.26942],[-75.49057,5.26942],[-75.49056,5.26944],[-75.49054,5.26943],[-75.49053,5.26945],[-75.49045,5.26942],[-75.49045,5.26943],[-75.49038,5.2694],[-75.49035,5.26939],[-75.49035,5.26939],[-75.49026,5.26937],[-75.49025,5.26939],[-75.49022,5.26938],[-75.49024,5.26933],[-75.49021,5.26931],[-75.49021,5.26931],[-75.4902,5.26936],[-75.49014,5.26934],[-75.49012,5.26938],[-75.49012,5.26938],[-75.49012,5.2694],[-75.49012,5.2694],[-75.49012,5.26941],[-75.49005,5.26939],[-75.49005,5.2694],[-75.49003,5.26945],[-75.49003,5.26946],[-75.49006,5.26946],[-75.49004,5.2695],[-75.49004,5.26949],[-75.49002,5.26953],[-75.49002,5.26952],[-75.49,5.26956],[-75.49002,5.26956],[-75.49,5.26961],[-75.48994,5.2696],[-75.48994,5.26959],[-75.48988,5.26958],[-75.48988,5.26959],[-75.48986,5.26958],[-75.48986,5.26961],[-75.48983,5.26961],[-75.48983,5.2696],[-75.4898,5.2696],[-75.4898,5.26962],[-75.48979,5.26962],[-75.48979,5.26958],[-75.48974,5.26958],[-75.48974,5.26962],[-75.48972,5.26962],[-75.48972,5.26951],[-75.48966,5.2695],[-75.48966,5.26957],[-75.48963,5.26957],[-75.48963,5.26959],[-75.48956,5.26958],[-75.48956,5.26959],[-75.48949,5.26959],[-75.48949,5.2696],[-75.48947,5.2696],[-75.48947,5.26957],[-75.48944,5.26957],[-75.48944,5.26956],[-75.48937,5.26957],[-75.48937,5.26958],[-75.48935,5.26958],[-75.48935,5.26959],[-75.4893,5.26959],[-75.4893,5.2696],[-75.48929,5.2696],[-75.48929,5.26959],[-75.48922,5.26958],[-75.48922,5.26958],[-75.48918,5.26958],[-75.48919,5.26956],[-75.48918,5.26956],[-75.48917,5.26956],[-75.48913,5.26956],[-75.48913,5.26959],[-75.48911,5.26959],[-75.48911,5.26957],[-75.48909,5.26957],[-75.4891,5.26953],[-75.48907,5.26952],[-75.48907,5.26952],[-75.48902,5.2695],[-75.48901,5.26952],[-75.48896,5.2695],[-75.48894,5.26954],[-75.48891,5.26952],[-75.48891,5.2695],[-75.48889,5.26949],[-75.48889,5.2695],[-75.48888,5.26949],[-75.48887,5.26951],[-75.48883,5.26949],[-75.48885,5.26945],[-75.48881,5.26944],[-75.48883,5.26941],[-75.48878,5.26938],[-75.48875,5.26936],[-75.48872,5.26934],[-75.48873,5.26933],[-75.48873,5.26932],[-75.48873,5.26932],[-75.48873,5.26932],[-75.48872,5.26931],[-75.48872,5.26931],[-75.48872,5.26931],[-75.48872,5.26931],[-75.48871,5.26931],[-75.48871,5.26931],[-75.48868,5.26935],[-75.48867,5.26935],[-75.48867,5.26929],[-75.48867,5.26929],[-75.48868,5.26929],[-75.48868,5.26929],[-75.48868,5.26929],[-75.48869,5.26927],[-75.48866,5.26925],[-75.48864,5.26923],[-75.48862,5.26922],[-75.48862,5.26922],[-75.48861,5.26922],[-75.48861,5.26921],[-75.4886,5.26919],[-75.48855,5.26919],[-75.48854,5.26919],[-75.48851,5.26924],[-75.4885,5.26928],[-75.4885,5.26929],[-75.4885,5.26931],[-75.48848,5.26935],[-75.48849,5.26936],[-75.4885,5.26937],[-75.4885,5.26937],[-75.48851,5.26939],[-75.48854,5.2694],[-75.48853,5.26941],[-75.48854,5.26942],[-75.48854,5.26943],[-75.48857,5.26945],[-75.48858,5.26946],[-75.4886,5.26948],[-75.48862,5.26949],[-75.48869,5.26953],[-75.48872,5.26955],[-75.48873,5.26956],[-75.48876,5.26958],[-75.48878,5.2696],[-75.48879,5.26961],[-75.48884,5.26964],[-75.48891,5.26968],[-75.48892,5.26968],[-75.48898,5.26972],[-75.48898,5.26974],[-75.48897,5.26978],[-75.48896,5.26978],[-75.48896,5.2698],[-75.48903,5.26982],[-75.48903,5.26981],[-75.4891,5.26983],[-75.4891,5.26983],[-75.4891,5.26983],[-75.48908,5.26987],[-75.48905,5.26986],[-75.48904,5.26988],[-75.48903,5.26991],[-75.48902,5.26991],[-75.48902,5.2699],[-75.48902,5.2699],[-75.48902,5.26989],[-75.48901,5.26988],[-75.48896,5.26986],[-75.48895,5.26986],[-75.48895,5.26989],[-75.48892,5.26988],[-75.48891,5.26991],[-75.4889,5.2699],[-75.4889,5.2699],[-75.48889,5.2699],[-75.48889,5.26988],[-75.48888,5.26988],[-75.48888,5.26988],[-75.48886,5.26987],[-75.48886,5.26988],[-75.48885,5.26988],[-75.48884,5.26989],[-75.48879,5.26988],[-75.48875,5.26987],[-75.48871,5.26986],[-75.48869,5.26987],[-75.48868,5.26985],[-75.48867,5.26983],[-75.48865,5.26982],[-75.48863,5.26982],[-75.48851,5.26979],[-75.48838,5.26977],[-75.48829,5.26975],[-75.48812,5.26971],[-75.48801,5.2697],[-75.488,5.2697],[-75.488,5.2697],[-75.48796,5.2697],[-75.48794,5.2697],[-75.48792,5.26969],[-75.48788,5.26969],[-75.48787,5.26968],[-75.48786,5.26968],[-75.48784,5.26967],[-75.4878,5.26964],[-75.48777,5.26961],[-75.48775,5.26959],[-75.48773,5.26957],[-75.48772,5.26957],[-75.48769,5.26953],[-75.48769,5.26951],[-75.48765,5.26947],[-75.48765,5.26947],[-75.48763,5.26944],[-75.48762,5.26944],[-75.48761,5.26942],[-75.48761,5.26941],[-75.4876,5.2694],[-75.4876,5.26939],[-75.48759,5.26937],[-75.48758,5.26935],[-75.48757,5.26933],[-75.48756,5.26932],[-75.48755,5.2693],[-75.48755,5.26928],[-75.48755,5.26928],[-75.48754,5.26927],[-75.48753,5.26926],[-75.48752,5.26925],[-75.48751,5.26925],[-75.48752,5.26925],[-75.48755,5.26932],[-75.48757,5.26937],[-75.48759,5.26942],[-75.48761,5.26946],[-75.48766,5.26952],[-75.48769,5.26956],[-75.48773,5.26961],[-75.48777,5.26965],[-75.48779,5.26966],[-75.48779,5.26967],[-75.48782,5.26968],[-75.48785,5.2697],[-75.48787,5.2697],[-75.48789,5.26971],[-75.48792,5.26971],[-75.48797,5.26972],[-75.48801,5.26973],[-75.48811,5.26975],[-75.48809,5.26975],[-75.48804,5.26977],[-75.48799,5.26978],[-75.48794,5.26979],[-75.48793,5.26979],[-75.4879,5.26979],[-75.48786,5.26978],[-75.48784,5.26978],[-75.48782,5.26977],[-75.48776,5.26974],[-75.48771,5.26972],[-75.4877,5.26971],[-75.48764,5.26969],[-75.4876,5.26966],[-75.48756,5.26964],[-75.48753,5.26962],[-75.48751,5.2696],[-75.48747,5.26956],[-75.48744,5.26953],[-75.48742,5.26951],[-75.48747,5.2695],[-75.48747,5.26948],[-75.48744,5.26948],[-75.48742,5.26948],[-75.48742,5.26948],[-75.48742,5.26947],[-75.48737,5.26944],[-75.48736,5.26944],[-75.48734,5.26945],[-75.48732,5.26947],[-75.48729,5.26951],[-75.48729,5.26951],[-75.48727,5.26955],[-75.48727,5.26955],[-75.48727,5.26955],[-75.48731,5.26957],[-75.48731,5.26957],[-75.48733,5.26958],[-75.48735,5.26959],[-75.48734,5.26961],[-75.48732,5.26963],[-75.48736,5.26966],[-75.48738,5.26967],[-75.48738,5.26967],[-75.48739,5.26967],[-75.48744,5.2697],[-75.48744,5.26969],[-75.48745,5.26968],[-75.4875,5.26961],[-75.48751,5.26962],[-75.48753,5.26964],[-75.48744,5.26974],[-75.48743,5.26976],[-75.48747,5.26979],[-75.48747,5.26979],[-75.4875,5.26977],[-75.48751,5.26976],[-75.48756,5.26979],[-75.48756,5.26979],[-75.48756,5.2698],[-75.48761,5.26981],[-75.4876,5.26982],[-75.48764,5.26983],[-75.48765,5.26984],[-75.4877,5.26986],[-75.48771,5.26984],[-75.48771,5.26982],[-75.48777,5.26985],[-75.48777,5.26986],[-75.48777,5.26986],[-75.4878,5.26987],[-75.48784,5.26987],[-75.4879,5.26988],[-75.4879,5.26988],[-75.4879,5.26988],[-75.48796,5.26989],[-75.48797,5.2698],[-75.48799,5.2698],[-75.48804,5.26979],[-75.48805,5.26982],[-75.48799,5.26983],[-75.488,5.26987],[-75.48803,5.26986],[-75.48803,5.26989],[-75.48801,5.26995],[-75.48801,5.26996],[-75.48801,5.27002],[-75.48802,5.27003],[-75.48806,5.27003],[-75.48807,5.27002],[-75.48807,5.26999],[-75.48812,5.26999],[-75.48811,5.27003],[-75.48816,5.27004],[-75.48814,5.27013],[-75.48813,5.27018],[-75.48813,5.27019],[-75.48811,5.27029],[-75.48816,5.2703],[-75.48814,5.27039],[-75.48814,5.2704],[-75.48824,5.27043],[-75.48823,5.27046],[-75.48823,5.27046],[-75.48822,5.27046],[-75.48819,5.27047],[-75.48817,5.27049],[-75.48817,5.2705],[-75.48815,5.2705],[-75.48813,5.2705],[-75.48809,5.27049],[-75.48809,5.27049],[-75.48809,5.27049],[-75.48807,5.27049],[-75.48807,5.27049],[-75.48805,5.27049],[-75.48803,5.2705],[-75.48803,5.27051],[-75.48803,5.27051],[-75.48803,5.27053],[-75.48802,5.27057],[-75.48802,5.27057],[-75.48804,5.27058],[-75.48804,5.27058],[-75.48807,5.27057],[-75.48808,5.27058],[-75.48808,5.27058],[-75.4881,5.27058],[-75.48814,5.27059],[-75.48816,5.2706],[-75.48818,5.2706],[-75.4882,5.2706],[-75.48826,5.27061],[-75.48826,5.27067],[-75.48824,5.27067],[-75.48824,5.27068],[-75.48824,5.27068],[-75.48823,5.27073],[-75.48825,5.27073],[-75.48825,5.27074],[-75.48824,5.27074],[-75.48824,5.27077],[-75.48825,5.27077],[-75.48824,5.27084],[-75.48825,5.27084],[-75.48825,5.27091],[-75.48825,5.27094],[-75.48825,5.27094],[-75.48825,5.27095],[-75.48825,5.27096],[-75.48825,5.27097],[-75.48825,5.27097],[-75.48824,5.27098],[-75.48822,5.27098],[-75.48821,5.271],[-75.4882,5.271],[-75.48819,5.27098],[-75.48817,5.271],[-75.48815,5.27101],[-75.48814,5.27102],[-75.48812,5.27102],[-75.48811,5.27102],[-75.4881,5.27103],[-75.48809,5.27103],[-75.48808,5.27103],[-75.48807,5.27103],[-75.48806,5.27104],[-75.48806,5.27105],[-75.48806,5.27106],[-75.48806,5.2711],[-75.48809,5.2711],[-75.4881,5.27116],[-75.48815,5.27115],[-75.48819,5.27123],[-75.48824,5.27119],[-75.48824,5.27119],[-75.48823,5.27117],[-75.48822,5.27113],[-75.48822,5.27114],[-75.48822,5.27114],[-75.48823,5.27114],[-75.48823,5.27113],[-75.48823,5.27113],[-75.48824,5.27113],[-75.48824,5.27113],[-75.48825,5.27112],[-75.48828,5.2711],[-75.48828,5.2711],[-75.48832,5.27107],[-75.48833,5.27107],[-75.48835,5.27105],[-75.48836,5.27104],[-75.48836,5.27104],[-75.48836,5.27104],[-75.48837,5.27104],[-75.48837,5.27104],[-75.48837,5.27103],[-75.48838,5.27103],[-75.48838,5.27103],[-75.48838,5.27103],[-75.48838,5.27103],[-75.48839,5.27103],[-75.48839,5.27104],[-75.48839,5.27104],[-75.48839,5.27104],[-75.48839,5.27105],[-75.4884,5.27105],[-75.4884,5.27105],[-75.4884,5.27106],[-75.48842,5.2711],[-75.48842,5.27112],[-75.48843,5.27112],[-75.48847,5.27121],[-75.48848,5.27123],[-75.48848,5.27125],[-75.4885,5.27129],[-75.4885,5.2713],[-75.4885,5.2713],[-75.48851,5.2713],[-75.48851,5.27131],[-75.48851,5.27131],[-75.48851,5.27131],[-75.48852,5.27132],[-75.48852,5.27132],[-75.48852,5.27132],[-75.48853,5.27132],[-75.48853,5.27133],[-75.48853,5.27133],[-75.48854,5.27133],[-75.48855,5.27134],[-75.48856,5.27134],[-75.4886,5.27135],[-75.48865,5.27138],[-75.48866,5.27138],[-75.48868,5.27138],[-75.48868,5.27139],[-75.48869,5.27139],[-75.48871,5.27139],[-75.48877,5.27142],[-75.48881,5.27143],[-75.48883,5.27144],[-75.4888,5.27141],[-75.48881,5.2714],[-75.48881,5.27139],[-75.48882,5.27138],[-75.48877,5.27133],[-75.48879,5.27131],[-75.48877,5.2713],[-75.48873,5.27127],[-75.48871,5.2713],[-75.48866,5.27134],[-75.48865,5.27133],[-75.48865,5.27134],[-75.48864,5.27132],[-75.48865,5.27131],[-75.48864,5.2713],[-75.48865,5.27129],[-75.48864,5.27128],[-75.48863,5.27128],[-75.48862,5.27128],[-75.48861,5.27127],[-75.48866,5.27122],[-75.48863,5.27119],[-75.48857,5.27124],[-75.48856,5.27122],[-75.48859,5.2712],[-75.48856,5.27116],[-75.48856,5.27116],[-75.48855,5.27115],[-75.48855,5.27114],[-75.48854,5.27113],[-75.48854,5.27114],[-75.48852,5.27112],[-75.48852,5.27112],[-75.48851,5.27111],[-75.48852,5.2711],[-75.48851,5.27107],[-75.4885,5.27108],[-75.48849,5.27107],[-75.48852,5.27105],[-75.48853,5.27106],[-75.48856,5.27104],[-75.48855,5.27102],[-75.48858,5.27099],[-75.48858,5.27099],[-75.48865,5.2709],[-75.48861,5.27086],[-75.48864,5.27082],[-75.4887,5.27088],[-75.48871,5.27087],[-75.48871,5.27087],[-75.48874,5.27084],[-75.48875,5.27084],[-75.48877,5.27083],[-75.48876,5.27083],[-75.48881,5.27082],[-75.48882,5.27083],[-75.48882,5.27084],[-75.48892,5.27089],[-75.48897,5.27091],[-75.48899,5.27092],[-75.48897,5.27098],[-75.48894,5.27097],[-75.48892,5.27101],[-75.48895,5.27103],[-75.48895,5.27103],[-75.48893,5.27103],[-75.4889,5.27108],[-75.4889,5.27109],[-75.48889,5.27113],[-75.4889,5.27114],[-75.4889,5.27114],[-75.48892,5.27115],[-75.48892,5.27117],[-75.4889,5.27117],[-75.48889,5.27119],[-75.48886,5.27118],[-75.48885,5.27121],[-75.48885,5.27122],[-75.48886,5.27123],[-75.48888,5.27125],[-75.48887,5.27129],[-75.48894,5.27131],[-75.48895,5.27131],[-75.48898,5.27132],[-75.48894,5.27139],[-75.48893,5.27139],[-75.4889,5.27145]],[[-75.48926,5.27127],[-75.48927,5.27124],[-75.48926,5.27124],[-75.48927,5.27121],[-75.48928,5.27122],[-75.48928,5.2712],[-75.48928,5.27119],[-75.48928,5.27119],[-75.48927,5.27118],[-75.48928,5.27116],[-75.48926,5.27116],[-75.48926,5.27115],[-75.48924,5.27114],[-75.48923,5.27117],[-75.48921,5.27116],[-75.48922,5.27113],[-75.48918,5.27111],[-75.48918,5.27108],[-75.48918,5.27108],[-75.48919,5.27102],[-75.48917,5.27101],[-75.48919,5.27097],[-75.48919,5.27097],[-75.4892,5.27097],[-75.4892,5.27097],[-75.48921,5.27095],[-75.48919,5.27094],[-75.48921,5.27088],[-75.48923,5.27089],[-75.48923,5.27088],[-75.48923,5.27088],[-75.48924,5.27087],[-75.48926,5.27088],[-75.48925,5.2709],[-75.48929,5.27092],[-75.4893,5.27089],[-75.4893,5.27089],[-75.4893,5.27091],[-75.48933,5.27091],[-75.48933,5.2709],[-75.48934,5.2709],[-75.48934,5.27093],[-75.48937,5.27095],[-75.48938,5.27094],[-75.4894,5.27094],[-75.4894,5.27094],[-75.48942,5.27094],[-75.48945,5.27093],[-75.48942,5.27098],[-75.48945,5.27099],[-75.48944,5.27099],[-75.48943,5.27099],[-75.48943,5.271],[-75.48942,5.271],[-75.48942,5.271],[-75.48941,5.27099],[-75.4894,5.27101],[-75.48942,5.27102],[-75.48943,5.27103],[-75.48942,5.27107],[-75.48942,5.27107],[-75.4894,5.27109],[-75.4894,5.27109],[-75.48938,5.27116],[-75.48935,5.27115],[-75.48934,5.27118],[-75.48938,5.27119],[-75.48941,5.27121],[-75.4894,5.27124],[-75.48941,5.27125],[-75.4894,5.27129],[-75.4894,5.27129],[-75.48939,5.27131],[-75.48926,5.27127]],[[-75.48844,5.2708],[-75.48841,5.27084],[-75.48841,5.27084],[-75.48837,5.2709],[-75.48838,5.2709],[-75.48836,5.27093],[-75.48835,5.27093],[-75.48831,5.27096],[-75.48832,5.27098],[-75.4883,5.27097],[-75.48828,5.27097],[-75.48827,5.27096],[-75.48826,5.27096],[-75.48826,5.27096],[-75.48826,5.27095],[-75.48826,5.27094],[-75.4883,5.27092],[-75.48831,5.27092],[-75.48831,5.27092],[-75.48832,5.27091],[-75.48832,5.27091],[-75.48832,5.27084],[-75.48833,5.27078],[-75.48834,5.27078],[-75.48834,5.2708],[-75.48837,5.2708],[-75.48841,5.2708],[-75.48841,5.2708],[-75.48844,5.2708]],[[-75.48862,5.26984],[-75.48862,5.26985],[-75.48863,5.26985],[-75.48864,5.26985],[-75.48864,5.26987],[-75.48866,5.26989],[-75.48867,5.26991],[-75.48869,5.26995],[-75.48871,5.26998],[-75.48872,5.26999],[-75.48872,5.26999],[-75.48871,5.26999],[-75.48869,5.26999],[-75.48859,5.26997],[-75.48862,5.26984]]],[[[-75.4926,5.27155],[-75.49261,5.27155],[-75.4926,5.27153],[-75.4926,5.27153],[-75.4926,5.27155]]],[[[-75.49279,5.27156],[-75.49279,5.27156],[-75.49279,5.27157],[-75.4928,5.27157],[-75.4928,5.27158],[-75.4928,5.27158],[-75.4928,5.27158],[-75.4928,5.27159],[-75.4928,5.27159],[-75.4928,5.2716],[-75.4928,5.27161],[-75.49281,5.27162],[-75.49281,5.27163],[-75.49281,5.27163],[-75.49281,5.27163],[-75.49281,5.27164],[-75.49282,5.27164],[-75.49282,5.27164],[-75.49285,5.27156],[-75.49286,5.27156],[-75.49287,5.27156],[-75.49286,5.27158],[-75.49284,5.27163],[-75.49284,5.27163],[-75.49284,5.27162],[-75.49286,5.27159],[-75.49288,5.27158],[-75.49288,5.27157],[-75.49294,5.2715],[-75.49295,5.27149],[-75.49296,5.27147],[-75.49305,5.27135],[-75.49306,5.27134],[-75.49306,5.27133],[-75.49307,5.27132],[-75.49309,5.27131],[-75.49311,5.27128],[-75.49314,5.27124],[-75.49314,5.27124],[-75.49315,5.27123],[-75.49315,5.27123],[-75.49315,5.27123],[-75.49315,5.27123],[-75.49315,5.27122],[-75.49316,5.27122],[-75.49316,5.27121],[-75.49316,5.27121],[-75.49316,5.27121],[-75.49316,5.27121],[-75.49316,5.2712],[-75.49316,5.2712],[-75.49316,5.27119],[-75.49316,5.27119],[-75.49316,5.27119],[-75.49316,5.27119],[-75.49315,5.27119],[-75.49315,5.27119],[-75.49313,5.27121],[-75.49306,5.27126],[-75.49305,5.27128],[-75.49302,5.27129],[-75.49296,5.27132],[-75.49291,5.27136],[-75.4929,5.27135],[-75.49291,5.27135],[-75.49293,5.27129],[-75.49293,5.27127],[-75.49291,5.27126],[-75.49293,5.27121],[-75.49294,5.27121],[-75.49295,5.27119],[-75.49297,5.2712],[-75.493,5.27113],[-75.493,5.27113],[-75.49301,5.27111],[-75.49308,5.27113],[-75.4931,5.27112],[-75.49311,5.27111],[-75.49311,5.27109],[-75.4931,5.27108],[-75.49306,5.27106],[-75.49307,5.27102],[-75.493,5.27099],[-75.493,5.27101],[-75.493,5.27105],[-75.49298,5.27109],[-75.49298,5.2711],[-75.49297,5.2711],[-75.49297,5.2711],[-75.49296,5.2711],[-75.49296,5.27109],[-75.49295,5.27109],[-75.49295,5.27109],[-75.49295,5.2711],[-75.49294,5.2711],[-75.49294,5.2711],[-75.49294,5.2711],[-75.49294,5.2711],[-75.49294,5.27111],[-75.49294,5.27111],[-75.49293,5.27112],[-75.49293,5.27112],[-75.49293,5.27113],[-75.49292,5.27116],[-75.49292,5.27118],[-75.4929,5.27125],[-75.4929,5.27126],[-75.4929,5.27126],[-75.4929,5.27127],[-75.49289,5.27127],[-75.49289,5.27128],[-75.49289,5.27128],[-75.49289,5.27129],[-75.49289,5.27129],[-75.49289,5.27129],[-75.49288,5.2713],[-75.49288,5.2713],[-75.49287,5.27131],[-75.49286,5.27132],[-75.49286,5.27133],[-75.49282,5.27137],[-75.49282,5.27138],[-75.49281,5.27139],[-75.49281,5.27139],[-75.49281,5.27139],[-75.49281,5.2714],[-75.4928,5.2714],[-75.4928,5.2714],[-75.4928,5.27141],[-75.4928,5.27141],[-75.4928,5.27142],[-75.4928,5.27142],[-75.4928,5.27142],[-75.4928,5.27143],[-75.4928,5.27149],[-75.4928,5.27155],[-75.49279,5.27156]],[[-75.49302,5.2713],[-75.493,5.27133],[-75.49297,5.27137],[-75.49294,5.27141],[-75.49292,5.27144],[-75.49291,5.27147],[-75.49289,5.2715],[-75.49289,5.27151],[-75.49287,5.2715],[-75.4929,5.27143],[-75.49287,5.27142],[-75.49289,5.27135],[-75.49291,5.27137],[-75.49297,5.27133],[-75.49303,5.2713],[-75.49302,5.2713]]],[[[-75.49257,5.27179],[-75.49257,5.27178],[-75.49258,5.27178],[-75.49258,5.27174],[-75.49259,5.27169],[-75.49252,5.27167],[-75.4925,5.27175],[-75.49253,5.27176],[-75.49253,5.27177],[-75.49257,5.27179]]],[[[-75.49061,5.27344],[-75.49061,5.27345],[-75.49062,5.27345],[-75.49063,5.27345],[-75.49064,5.27346],[-75.49064,5.27346],[-75.49067,5.27348],[-75.49073,5.27351],[-75.49073,5.27351],[-75.49087,5.27349],[-75.49088,5.27344],[-75.49085,5.27344],[-75.49082,5.27342],[-75.49072,5.27343],[-75.49072,5.27342],[-75.49072,5.27341],[-75.49075,5.27341],[-75.49081,5.27339],[-75.49086,5.27332],[-75.49087,5.27329],[-75.49079,5.27322],[-75.49082,5.27318],[-75.49092,5.27324],[-75.49088,5.27329],[-75.49092,5.27333],[-75.49091,5.27335],[-75.49096,5.27338],[-75.49099,5.27335],[-75.49104,5.27338],[-75.49105,5.27337],[-75.49106,5.27338],[-75.49108,5.27336],[-75.49109,5.27341],[-75.4911,5.27341],[-75.4911,5.27341],[-75.4911,5.2734],[-75.4911,5.2734],[-75.4911,5.2734],[-75.4911,5.27339],[-75.4911,5.27339],[-75.4911,5.27338],[-75.4911,5.27338],[-75.49109,5.27338],[-75.49109,5.27337],[-75.49109,5.27337],[-75.49108,5.27336],[-75.49106,5.27333],[-75.49104,5.2733],[-75.49101,5.27326],[-75.491,5.27324],[-75.49098,5.27321],[-75.49097,5.2732],[-75.49097,5.2732],[-75.49097,5.2732],[-75.49097,5.27319],[-75.49096,5.27319],[-75.49096,5.27319],[-75.49096,5.27318],[-75.49095,5.27318],[-75.49095,5.27318],[-75.49094,5.27318],[-75.49094,5.27317],[-75.49093,5.27317],[-75.4909,5.27315],[-75.49087,5.27314],[-75.49078,5.27309],[-75.49076,5.27308],[-75.49075,5.27307],[-75.49074,5.27307],[-75.49073,5.27306],[-75.49057,5.27299],[-75.49056,5.27301],[-75.49065,5.27305],[-75.49064,5.27307],[-75.49069,5.27309],[-75.4907,5.27308],[-75.49073,5.2731],[-75.49069,5.27317],[-75.49078,5.27322],[-75.49076,5.27324],[-75.49072,5.27321],[-75.4907,5.27321],[-75.49065,5.27319],[-75.49061,5.27316],[-75.49061,5.27316],[-75.49056,5.27313],[-75.49054,5.27316],[-75.49049,5.2731],[-75.4905,5.2731],[-75.49047,5.27308],[-75.49044,5.27311],[-75.49044,5.27312],[-75.49043,5.27313],[-75.49043,5.27313],[-75.49034,5.27304],[-75.49026,5.27296],[-75.49021,5.27293],[-75.49022,5.27291],[-75.49027,5.27292],[-75.49028,5.27291],[-75.49028,5.27291],[-75.49027,5.27294],[-75.49033,5.27296],[-75.49034,5.27292],[-75.49042,5.27295],[-75.49043,5.27292],[-75.49042,5.27292],[-75.49041,5.27292],[-75.4904,5.27291],[-75.49039,5.27291],[-75.49029,5.27288],[-75.49029,5.27288],[-75.49026,5.27286],[-75.49023,5.27286],[-75.49022,5.27285],[-75.49021,5.27285],[-75.49021,5.27285],[-75.4902,5.27285],[-75.4902,5.27285],[-75.4902,5.27284],[-75.49019,5.27284],[-75.49019,5.27284],[-75.49018,5.27284],[-75.49018,5.27284],[-75.49017,5.27284],[-75.49013,5.27284],[-75.49013,5.27287],[-75.4902,5.27288],[-75.49019,5.27289],[-75.49021,5.2729],[-75.4902,5.27291],[-75.49019,5.27293],[-75.49025,5.27297],[-75.49031,5.27303],[-75.49044,5.27316],[-75.49042,5.27319],[-75.4904,5.27318],[-75.49036,5.27316],[-75.49032,5.27313],[-75.49027,5.2731],[-75.49025,5.27309],[-75.49024,5.27308],[-75.49024,5.27308],[-75.49023,5.27309],[-75.49022,5.2731],[-75.49019,5.27313],[-75.49015,5.27318],[-75.49003,5.27309],[-75.48997,5.27316],[-75.48996,5.27314],[-75.48998,5.27311],[-75.48994,5.27309],[-75.48988,5.27308],[-75.48986,5.27309],[-75.48981,5.27314],[-75.48982,5.27315],[-75.48983,5.27316],[-75.48984,5.27317],[-75.48984,5.27318],[-75.48984,5.27318],[-75.48992,5.27318],[-75.48993,5.27318],[-75.48994,5.27318],[-75.48994,5.27318],[-75.49014,5.2732],[-75.49015,5.2732],[-75.49019,5.2732],[-75.49022,5.27321],[-75.49023,5.27321],[-75.49024,5.27321],[-75.49024,5.27321],[-75.49025,5.27321],[-75.49025,5.27321],[-75.49025,5.27321],[-75.49025,5.27321],[-75.49026,5.27322],[-75.49026,5.27322],[-75.49027,5.27322],[-75.49027,5.27322],[-75.49028,5.27323],[-75.49032,5.27326],[-75.49036,5.27328],[-75.49049,5.27336],[-75.4905,5.27337],[-75.49053,5.27333],[-75.49057,5.27335],[-75.49057,5.27336],[-75.49054,5.2734],[-75.49055,5.27341],[-75.49059,5.27343],[-75.49061,5.27344]],[[-75.4905,5.27324],[-75.49047,5.27323],[-75.49044,5.2732],[-75.49043,5.2732],[-75.49045,5.27317],[-75.49046,5.27318],[-75.4905,5.27322],[-75.4905,5.27323],[-75.4905,5.27324]]],[[[-75.49087,5.27357],[-75.49088,5.27357],[-75.49092,5.27358],[-75.49096,5.27358],[-75.49096,5.27358],[-75.49097,5.27358],[-75.491,5.27359],[-75.491,5.27357],[-75.49095,5.27357],[-75.49095,5.27355],[-75.4909,5.27354],[-75.4909,5.27355],[-75.49087,5.27355],[-75.49087,5.27357]]],[[[-75.49106,5.27346],[-75.49105,5.27354],[-75.49106,5.27354],[-75.49106,5.27359],[-75.49106,5.27359],[-75.49107,5.27359],[-75.49107,5.27359],[-75.49107,5.27359],[-75.49107,5.27359],[-75.49107,5.27358],[-75.49108,5.27358],[-75.49108,5.27358],[-75.49108,5.27357],[-75.49108,5.27357],[-75.49108,5.27356],[-75.49108,5.27352],[-75.49109,5.2735],[-75.49109,5.27347],[-75.49109,5.27346],[-75.49106,5.27346]]],[[[-75.49196,5.27387],[-75.49198,5.27387],[-75.49199,5.27386],[-75.49199,5.27386],[-75.492,5.27384],[-75.49198,5.27383],[-75.49199,5.27381],[-75.49197,5.27379],[-75.49196,5.27378],[-75.49195,5.27372],[-75.49193,5.27372],[-75.49192,5.2737],[-75.49191,5.2737],[-75.49191,5.27369],[-75.4919,5.27368],[-75.49189,5.27368],[-75.49187,5.27368],[-75.49185,5.27368],[-75.49184,5.27364],[-75.49186,5.27364],[-75.49185,5.27355],[-75.49184,5.27355],[-75.49183,5.27351],[-75.49185,5.27351],[-75.49184,5.27348],[-75.49184,5.27344],[-75.4919,5.27335],[-75.49198,5.27325],[-75.49197,5.27324],[-75.49196,5.27323],[-75.49195,5.27321],[-75.49192,5.27321],[-75.49191,5.2732],[-75.49191,5.27311],[-75.4919,5.27306],[-75.4919,5.27306],[-75.49189,5.27307],[-75.49187,5.27308],[-75.49186,5.2731],[-75.49186,5.27312],[-75.49186,5.27315],[-75.49187,5.27318],[-75.49188,5.2732],[-75.4919,5.27322],[-75.49194,5.27323],[-75.49197,5.27324],[-75.49195,5.27327],[-75.49189,5.27334],[-75.49182,5.27343],[-75.49182,5.27343],[-75.49183,5.2735],[-75.49181,5.2735],[-75.49182,5.27357],[-75.49183,5.27357],[-75.49184,5.27362],[-75.49182,5.27362],[-75.49183,5.27368],[-75.4918,5.27369],[-75.4918,5.27356],[-75.49173,5.27355],[-75.49169,5.27355],[-75.49169,5.27358],[-75.49168,5.27359],[-75.49168,5.27362],[-75.49162,5.27363],[-75.49161,5.2736],[-75.4916,5.2736],[-75.4916,5.27359],[-75.49148,5.27361],[-75.49148,5.2736],[-75.49141,5.27361],[-75.4914,5.27358],[-75.49147,5.27357],[-75.49147,5.27345],[-75.49145,5.27345],[-75.49145,5.27339],[-75.49145,5.27339],[-75.4914,5.27339],[-75.4914,5.27336],[-75.4914,5.27336],[-75.4914,5.27334],[-75.49139,5.27334],[-75.49138,5.27329],[-75.49138,5.27329],[-75.49137,5.27327],[-75.49146,5.27326],[-75.49146,5.27321],[-75.4915,5.27321],[-75.49149,5.27313],[-75.49147,5.27313],[-75.49147,5.27311],[-75.49148,5.27309],[-75.49152,5.27309],[-75.49153,5.27305],[-75.4915,5.27304],[-75.49151,5.273],[-75.49145,5.27298],[-75.49146,5.27296],[-75.4915,5.27297],[-75.49152,5.27291],[-75.49148,5.2729],[-75.49149,5.27287],[-75.49151,5.27288],[-75.49152,5.27284],[-75.4915,5.27283],[-75.49151,5.27279],[-75.49149,5.27278],[-75.4915,5.27274],[-75.49144,5.27271],[-75.49144,5.27268],[-75.49147,5.27269],[-75.49149,5.27262],[-75.49151,5.27258],[-75.49151,5.27257],[-75.49152,5.27252],[-75.49156,5.27241],[-75.49162,5.27242],[-75.49166,5.27245],[-75.49173,5.2725],[-75.4918,5.27252],[-75.49174,5.27269],[-75.49178,5.2727],[-75.49176,5.27275],[-75.4918,5.27277],[-75.49179,5.27274],[-75.49178,5.27269],[-75.49178,5.27266],[-75.49179,5.27261],[-75.49182,5.27253],[-75.49182,5.27253],[-75.49183,5.27251],[-75.49183,5.27251],[-75.49186,5.27247],[-75.49189,5.27244],[-75.49199,5.27237],[-75.49206,5.27235],[-75.49208,5.27233],[-75.49209,5.27232],[-75.49212,5.2723],[-75.49218,5.27222],[-75.49219,5.27221],[-75.49221,5.27218],[-75.49224,5.27216],[-75.49218,5.27219],[-75.49218,5.27218],[-75.4922,5.27215],[-75.49222,5.27211],[-75.49223,5.27209],[-75.49227,5.27207],[-75.4923,5.27205],[-75.49234,5.27204],[-75.49237,5.27204],[-75.49238,5.27202],[-75.49239,5.272],[-75.49245,5.27196],[-75.49247,5.27194],[-75.49247,5.27194],[-75.49247,5.27191],[-75.4925,5.27192],[-75.49251,5.27191],[-75.49253,5.27189],[-75.49254,5.27187],[-75.49255,5.27183],[-75.49256,5.27181],[-75.49256,5.27181],[-75.49256,5.27181],[-75.49257,5.2718],[-75.49257,5.2718],[-75.49255,5.27179],[-75.49242,5.27174],[-75.49242,5.27173],[-75.49245,5.27175],[-75.49248,5.27167],[-75.49251,5.27168],[-75.49253,5.2716],[-75.49249,5.27159],[-75.4925,5.27152],[-75.4925,5.27152],[-75.4925,5.2715],[-75.4925,5.2715],[-75.49251,5.27147],[-75.49254,5.27148],[-75.49255,5.27146],[-75.49254,5.27142],[-75.49253,5.27141],[-75.49251,5.27139],[-75.49248,5.27138],[-75.49246,5.27139],[-75.49245,5.27142],[-75.49245,5.27142],[-75.49244,5.27141],[-75.49244,5.27141],[-75.49242,5.27139],[-75.49241,5.27137],[-75.49241,5.27137],[-75.49241,5.27137],[-75.49242,5.27135],[-75.49243,5.27135],[-75.49243,5.27134],[-75.49243,5.27134],[-75.49244,5.27133],[-75.49244,5.27133],[-75.49244,5.27133],[-75.49244,5.27132],[-75.49244,5.27132],[-75.49244,5.27132],[-75.49244,5.27131],[-75.49244,5.27131],[-75.49244,5.2713],[-75.49244,5.2713],[-75.49244,5.27129],[-75.49244,5.27126],[-75.49244,5.27126],[-75.49243,5.27124],[-75.49243,5.27123],[-75.49243,5.27122],[-75.49243,5.27122],[-75.49243,5.27121],[-75.49243,5.27121],[-75.49243,5.27121],[-75.49243,5.2712],[-75.49242,5.2712],[-75.49242,5.2712],[-75.49242,5.27119],[-75.49242,5.27119],[-75.49241,5.27119],[-75.49241,5.27118],[-75.4924,5.27117],[-75.49238,5.27116],[-75.49238,5.27114],[-75.49238,5.27113],[-75.49237,5.27113],[-75.49235,5.27118],[-75.49236,5.2712],[-75.49236,5.27121],[-75.49237,5.27121],[-75.49236,5.27125],[-75.49233,5.27125],[-75.49232,5.27131],[-75.4923,5.27131],[-75.49229,5.27132],[-75.49229,5.27135],[-75.49228,5.27135],[-75.49227,5.27136],[-75.49226,5.27138],[-75.49226,5.27141],[-75.49228,5.27142],[-75.49228,5.27144],[-75.49229,5.27145],[-75.49227,5.27146],[-75.49227,5.27143],[-75.49226,5.27143],[-75.49224,5.27142],[-75.49223,5.27145],[-75.4922,5.27144],[-75.4922,5.27142],[-75.4922,5.27142],[-75.49221,5.27139],[-75.49223,5.2713],[-75.49217,5.27129],[-75.4922,5.27118],[-75.49224,5.27119],[-75.49226,5.27109],[-75.49225,5.27109],[-75.49225,5.27108],[-75.49239,5.27112],[-75.49239,5.27112],[-75.4924,5.27109],[-75.49241,5.27109],[-75.49244,5.27104],[-75.49248,5.27099],[-75.4925,5.27096],[-75.4925,5.27095],[-75.4925,5.27095],[-75.49248,5.27094],[-75.49246,5.27093],[-75.49245,5.27093],[-75.49244,5.27093],[-75.49245,5.27094],[-75.49244,5.27098],[-75.49239,5.27097],[-75.49239,5.27098],[-75.49238,5.27098],[-75.49238,5.27101],[-75.49237,5.27101],[-75.49236,5.27108],[-75.49236,5.27109],[-75.49225,5.27105],[-75.49224,5.27105],[-75.49224,5.27102],[-75.49225,5.27102],[-75.49226,5.27098],[-75.4923,5.27094],[-75.4923,5.27099],[-75.49232,5.27099],[-75.49232,5.27098],[-75.49233,5.27098],[-75.49233,5.27097],[-75.49238,5.27096],[-75.49238,5.27094],[-75.49233,5.27093],[-75.4923,5.27093],[-75.49227,5.27093],[-75.49223,5.27095],[-75.4922,5.27097],[-75.49217,5.271],[-75.49216,5.271],[-75.49216,5.271],[-75.49215,5.27099],[-75.49214,5.27097],[-75.49214,5.27095],[-75.49215,5.27093],[-75.49217,5.27088],[-75.49223,5.27078],[-75.49227,5.27072],[-75.4923,5.27065],[-75.49232,5.27062],[-75.49235,5.2706],[-75.49239,5.27058],[-75.49239,5.27057],[-75.49252,5.27053],[-75.49255,5.27051],[-75.49258,5.27049],[-75.49261,5.27046],[-75.49265,5.27042],[-75.49265,5.27042],[-75.49266,5.2704],[-75.49265,5.2704],[-75.49269,5.27034],[-75.49268,5.27033],[-75.49269,5.27032],[-75.49268,5.27031],[-75.49269,5.27024],[-75.49269,5.27023],[-75.49267,5.27023],[-75.49267,5.27016],[-75.49268,5.27016],[-75.49269,5.27012],[-75.49271,5.27012],[-75.49272,5.27005],[-75.49268,5.27005],[-75.49269,5.26999],[-75.49271,5.26999],[-75.49271,5.26995],[-75.49272,5.26995],[-75.49273,5.26989],[-75.49272,5.26989],[-75.49269,5.26989],[-75.49269,5.26984],[-75.4927,5.26984],[-75.4927,5.26981],[-75.49272,5.26981],[-75.49272,5.26977],[-75.49272,5.26977],[-75.49272,5.26975],[-75.49273,5.26976],[-75.49275,5.26972],[-75.49276,5.26967],[-75.49276,5.26964],[-75.49275,5.26964],[-75.49276,5.26963],[-75.49279,5.26964],[-75.4928,5.26959],[-75.49281,5.26959],[-75.49281,5.26954],[-75.49278,5.26953],[-75.49278,5.2695],[-75.49279,5.2695],[-75.49279,5.26949],[-75.49283,5.26949],[-75.49283,5.26946],[-75.49276,5.26945],[-75.49276,5.26944],[-75.4927,5.26942],[-75.49271,5.26939],[-75.49271,5.26938],[-75.49272,5.26937],[-75.49271,5.26937],[-75.49271,5.26936],[-75.49269,5.26936],[-75.49267,5.26936],[-75.49267,5.26938],[-75.49264,5.26937],[-75.49265,5.26936],[-75.49266,5.26936],[-75.49267,5.26934],[-75.49263,5.26933],[-75.49263,5.2693],[-75.49261,5.2693],[-75.49262,5.2693],[-75.49261,5.26929],[-75.49262,5.26927],[-75.49257,5.26926],[-75.49258,5.26925],[-75.49252,5.26923],[-75.49248,5.26925],[-75.49241,5.26924],[-75.4924,5.26925],[-75.4924,5.26934],[-75.49238,5.26933],[-75.49237,5.26933],[-75.49236,5.26931],[-75.49236,5.2693],[-75.49236,5.26929],[-75.49237,5.26927],[-75.49241,5.2692],[-75.49244,5.26913],[-75.49247,5.26912],[-75.49252,5.26911],[-75.49256,5.26911],[-75.4926,5.26911],[-75.49264,5.26912],[-75.49268,5.26914],[-75.4927,5.26915],[-75.49274,5.26918],[-75.49278,5.2692],[-75.49282,5.26924],[-75.49285,5.26925],[-75.49288,5.26928],[-75.493,5.26936],[-75.49304,5.2694],[-75.49309,5.2694],[-75.49318,5.26944],[-75.49324,5.2695],[-75.4932,5.26946],[-75.4932,5.26944],[-75.49327,5.26935],[-75.49322,5.26932],[-75.49322,5.26931],[-75.49322,5.26931],[-75.49323,5.26931],[-75.49323,5.2693],[-75.49318,5.26926],[-75.49316,5.2693],[-75.49316,5.26929],[-75.49316,5.26929],[-75.49314,5.26928],[-75.4931,5.26925],[-75.49306,5.2693],[-75.49304,5.26933],[-75.49304,5.26933],[-75.493,5.2693],[-75.49292,5.26924],[-75.49283,5.26917],[-75.49282,5.26917],[-75.49283,5.26915],[-75.49289,5.26919],[-75.49293,5.26914],[-75.49287,5.2691],[-75.49286,5.26911],[-75.49278,5.26905],[-75.49278,5.26905],[-75.49273,5.26902],[-75.49274,5.26901],[-75.49274,5.269],[-75.49272,5.26899],[-75.49272,5.26899],[-75.49269,5.26902],[-75.4927,5.269],[-75.49268,5.26899],[-75.49268,5.26898],[-75.49264,5.26897],[-75.49256,5.26897],[-75.49255,5.26897],[-75.49257,5.26891],[-75.49264,5.26893],[-75.49266,5.26888],[-75.49265,5.26888],[-75.49266,5.26886],[-75.49266,5.26886],[-75.4927,5.26879],[-75.49272,5.2688],[-75.49275,5.26874],[-75.49274,5.26874],[-75.49275,5.26871],[-75.49276,5.2687],[-75.49277,5.26866],[-75.49278,5.26864],[-75.49278,5.26864],[-75.49279,5.2686],[-75.49279,5.2686],[-75.49278,5.2686],[-75.49278,5.26859],[-75.49278,5.26859],[-75.49277,5.26859],[-75.49274,5.26851],[-75.49273,5.26851],[-75.49273,5.26853],[-75.49271,5.26852],[-75.49271,5.26852],[-75.49268,5.26852],[-75.49268,5.26852],[-75.49267,5.26852],[-75.49266,5.26856],[-75.49266,5.26856],[-75.49266,5.26849],[-75.49261,5.26849],[-75.49261,5.26855],[-75.49261,5.26859],[-75.49258,5.26858],[-75.49253,5.26859],[-75.49253,5.26865],[-75.49253,5.26865],[-75.4925,5.26864],[-75.49255,5.26852],[-75.49255,5.2685],[-75.49257,5.2685],[-75.4926,5.26848],[-75.49266,5.26846],[-75.49266,5.26846],[-75.4927,5.26844],[-75.4927,5.26844],[-75.4927,5.26843],[-75.49269,5.26842],[-75.49269,5.26841],[-75.49269,5.26841],[-75.49269,5.26841],[-75.49269,5.2684],[-75.49269,5.2684],[-75.49269,5.2684],[-75.49269,5.26839],[-75.49268,5.26839],[-75.49268,5.26838],[-75.49268,5.26838],[-75.49268,5.26837],[-75.49263,5.26831],[-75.49248,5.26808],[-75.49247,5.26806],[-75.49246,5.26805],[-75.49246,5.26804],[-75.49244,5.26802],[-75.4924,5.26795],[-75.49239,5.26795],[-75.49238,5.26796],[-75.49234,5.26798],[-75.4923,5.26802],[-75.49229,5.26803],[-75.49227,5.26806],[-75.49227,5.26807],[-75.49226,5.26809],[-75.49225,5.26811],[-75.49224,5.26813],[-75.49224,5.26814],[-75.49224,5.26817],[-75.49224,5.2682],[-75.49224,5.26821],[-75.49224,5.26822],[-75.49224,5.26823],[-75.49224,5.26825],[-75.49225,5.26828],[-75.49225,5.26828],[-75.49225,5.26828],[-75.49226,5.26831],[-75.49226,5.26831],[-75.49227,5.26832],[-75.49228,5.26834],[-75.49229,5.26835],[-75.4923,5.26836],[-75.49232,5.26838],[-75.49232,5.26838],[-75.49233,5.2684],[-75.49236,5.26842],[-75.49238,5.26843],[-75.49241,5.26845],[-75.49242,5.26845],[-75.49242,5.26846],[-75.49236,5.26848],[-75.49235,5.26848],[-75.49235,5.26848],[-75.49234,5.26847],[-75.49233,5.26847],[-75.49231,5.26846],[-75.4923,5.26846],[-75.49229,5.26846],[-75.49228,5.26846],[-75.49227,5.26846],[-75.49226,5.26846],[-75.49224,5.26847],[-75.49223,5.26848],[-75.49222,5.26849],[-75.49219,5.2685],[-75.49215,5.2685],[-75.49212,5.2685],[-75.49207,5.2685],[-75.49202,5.2685],[-75.49197,5.26851],[-75.49193,5.2685],[-75.4919,5.26851],[-75.49184,5.2685],[-75.49177,5.2685],[-75.49177,5.2685],[-75.49177,5.2685],[-75.49183,5.26852],[-75.49187,5.26854],[-75.49192,5.26854],[-75.49196,5.26854],[-75.49205,5.26854],[-75.49209,5.26854],[-75.49213,5.26854],[-75.49215,5.26854],[-75.49207,5.26858],[-75.49211,5.26867],[-75.49205,5.2687],[-75.49203,5.2686],[-75.49201,5.2686],[-75.49201,5.26859],[-75.49194,5.26861],[-75.49198,5.26872],[-75.49197,5.26872],[-75.49194,5.26872],[-75.49191,5.26872],[-75.49189,5.26872],[-75.49188,5.26872],[-75.49185,5.26871],[-75.49183,5.2687],[-75.49165,5.26863],[-75.49159,5.26861],[-75.49142,5.26855],[-75.49134,5.26852],[-75.49129,5.2685],[-75.49124,5.26848],[-75.49117,5.26845],[-75.49118,5.26846],[-75.49121,5.2685],[-75.49125,5.26854],[-75.49125,5.26854],[-75.49126,5.26854],[-75.49131,5.26857],[-75.49135,5.26858],[-75.49139,5.2686],[-75.49143,5.26861],[-75.49179,5.26874],[-75.49185,5.26877],[-75.49188,5.26878],[-75.49187,5.26884],[-75.4919,5.26886],[-75.49194,5.26887],[-75.49194,5.26889],[-75.49196,5.26889],[-75.49197,5.26887],[-75.49197,5.26885],[-75.49201,5.26885],[-75.49201,5.26886],[-75.49207,5.26886],[-75.49207,5.26892],[-75.4921,5.26892],[-75.4921,5.26891],[-75.49212,5.26891],[-75.49212,5.26892],[-75.49215,5.26892],[-75.49215,5.26889],[-75.49216,5.26889],[-75.49216,5.26895],[-75.49207,5.26895],[-75.49206,5.26894],[-75.49202,5.26894],[-75.49202,5.26898],[-75.49202,5.26898],[-75.49202,5.26899],[-75.492,5.269],[-75.492,5.26901],[-75.49197,5.26901],[-75.49197,5.26903],[-75.49195,5.26902],[-75.49194,5.26905],[-75.49193,5.26905],[-75.49193,5.26906],[-75.49192,5.26906],[-75.49191,5.26908],[-75.49187,5.26903],[-75.49187,5.26903],[-75.49187,5.26903],[-75.49187,5.26902],[-75.49183,5.26899],[-75.49182,5.269],[-75.49174,5.26894],[-75.49175,5.26892],[-75.49172,5.26888],[-75.4917,5.2689],[-75.49169,5.2689],[-75.49168,5.2689],[-75.49166,5.26892],[-75.49169,5.26888],[-75.49167,5.26886],[-75.49163,5.26884],[-75.49159,5.2689],[-75.49153,5.26884],[-75.49155,5.26881],[-75.49154,5.2688],[-75.49154,5.26879],[-75.49151,5.26876],[-75.4915,5.26877],[-75.49141,5.26874],[-75.49141,5.26874],[-75.49138,5.26873],[-75.49138,5.2687],[-75.49134,5.26869],[-75.49131,5.26868],[-75.4913,5.26872],[-75.49129,5.26872],[-75.49129,5.26872],[-75.49132,5.26875],[-75.49135,5.26878],[-75.49137,5.26878],[-75.49138,5.26881],[-75.4914,5.26883],[-75.49143,5.26888],[-75.49145,5.26891],[-75.49147,5.26895],[-75.49148,5.26896],[-75.49148,5.26896],[-75.49148,5.26896],[-75.49149,5.26897],[-75.49149,5.26897],[-75.49149,5.26897],[-75.49152,5.26899],[-75.49155,5.26901],[-75.49158,5.26903],[-75.49161,5.26907],[-75.49161,5.26907],[-75.49164,5.26909],[-75.49169,5.26914],[-75.49178,5.2692],[-75.49183,5.26923],[-75.49188,5.26925],[-75.49194,5.26927],[-75.49198,5.26927],[-75.49206,5.26928],[-75.49209,5.26928],[-75.49215,5.26926],[-75.49224,5.26924],[-75.4923,5.26921],[-75.49233,5.26919],[-75.49236,5.26918],[-75.49241,5.26915],[-75.49242,5.26915],[-75.49236,5.26925],[-75.49235,5.26927],[-75.49235,5.26929],[-75.49235,5.26931],[-75.49235,5.26932],[-75.49236,5.26933],[-75.49237,5.26934],[-75.49253,5.26938],[-75.49253,5.26942],[-75.49251,5.26945],[-75.49248,5.26942],[-75.49244,5.26943],[-75.49241,5.26946],[-75.4924,5.26945],[-75.49239,5.26946],[-75.49236,5.26948],[-75.49236,5.26947],[-75.49231,5.2695],[-75.49229,5.26949],[-75.49227,5.2695],[-75.49227,5.26951],[-75.49229,5.26953],[-75.49228,5.26953],[-75.49239,5.26961],[-75.49239,5.2696],[-75.4924,5.26961],[-75.4924,5.2696],[-75.49242,5.26961],[-75.49242,5.26969],[-75.4924,5.26965],[-75.49239,5.26965],[-75.49236,5.26966],[-75.49235,5.26964],[-75.49233,5.26964],[-75.49233,5.26963],[-75.49229,5.26965],[-75.49228,5.26964],[-75.49227,5.26963],[-75.49223,5.26963],[-75.49223,5.26965],[-75.49209,5.26965],[-75.49209,5.26966],[-75.49206,5.26966],[-75.49206,5.26962],[-75.49203,5.26962],[-75.49203,5.26961],[-75.49199,5.26959],[-75.49199,5.26959],[-75.49193,5.26956],[-75.49191,5.2696],[-75.49186,5.26957],[-75.49185,5.26957],[-75.49179,5.26953],[-75.49181,5.26951],[-75.49176,5.26948],[-75.49176,5.26949],[-75.49169,5.26945],[-75.49169,5.26944],[-75.49161,5.26939],[-75.49162,5.26938],[-75.49166,5.2693],[-75.49155,5.26926],[-75.49153,5.26925],[-75.49153,5.26924],[-75.49153,5.26924],[-75.49151,5.26923],[-75.49148,5.26922],[-75.49149,5.26919],[-75.49146,5.26918],[-75.49144,5.26916],[-75.49146,5.26914],[-75.49142,5.26908],[-75.49139,5.26911],[-75.4914,5.26912],[-75.4914,5.26913],[-75.49139,5.26912],[-75.49138,5.26917],[-75.49137,5.26924],[-75.49136,5.26927],[-75.49137,5.26927],[-75.49137,5.26929],[-75.49139,5.26929],[-75.49141,5.26929],[-75.49144,5.2693],[-75.49144,5.2693],[-75.49144,5.2693],[-75.49145,5.2693],[-75.49145,5.26931],[-75.49145,5.26931],[-75.49145,5.26931],[-75.49146,5.26932],[-75.49147,5.26932],[-75.49149,5.26934],[-75.49151,5.26937],[-75.49153,5.26938],[-75.49157,5.26942],[-75.49162,5.2695],[-75.49165,5.26954],[-75.49169,5.26957],[-75.4918,5.26965],[-75.49184,5.26967],[-75.49193,5.26969],[-75.49213,5.26973],[-75.49216,5.26974],[-75.4922,5.26974],[-75.49223,5.26974],[-75.4923,5.26971],[-75.49234,5.26971],[-75.49241,5.26972],[-75.49242,5.26972],[-75.49247,5.26974],[-75.4925,5.26976],[-75.49253,5.26978],[-75.49255,5.2698],[-75.49257,5.26983],[-75.49259,5.26987],[-75.4926,5.26988],[-75.49261,5.26993],[-75.49262,5.26995],[-75.49262,5.26995],[-75.49262,5.26996],[-75.49263,5.27001],[-75.49263,5.27006],[-75.49263,5.2701],[-75.49263,5.27014],[-75.49262,5.27018],[-75.4926,5.27021],[-75.4926,5.27021],[-75.49257,5.27025],[-75.49256,5.27027],[-75.49254,5.27027],[-75.49252,5.27027],[-75.4925,5.27027],[-75.49246,5.27026],[-75.49244,5.27026],[-75.49243,5.27026],[-75.4924,5.27028],[-75.49238,5.2703],[-75.49232,5.27037],[-75.49231,5.27038],[-75.49227,5.27041],[-75.49218,5.27048],[-75.49217,5.27049],[-75.49221,5.2705],[-75.49221,5.27051],[-75.49225,5.27052],[-75.49213,5.27066],[-75.49212,5.27065],[-75.49211,5.27066],[-75.49212,5.27066],[-75.49208,5.27072],[-75.49209,5.27072],[-75.49205,5.27079],[-75.49202,5.27077],[-75.492,5.27083],[-75.49197,5.2709],[-75.49195,5.27093],[-75.49194,5.27096],[-75.49194,5.27096],[-75.49194,5.271],[-75.49194,5.27105],[-75.49194,5.27109],[-75.49191,5.2712],[-75.49191,5.27121],[-75.4919,5.27121],[-75.49187,5.27122],[-75.49186,5.27123],[-75.4919,5.27123],[-75.49188,5.27127],[-75.49189,5.27127],[-75.49188,5.2713],[-75.4919,5.27134],[-75.49191,5.27135],[-75.49191,5.27135],[-75.49193,5.27135],[-75.49195,5.27135],[-75.49197,5.27134],[-75.49198,5.27133],[-75.49199,5.27129],[-75.49199,5.27121],[-75.49199,5.2712],[-75.492,5.27121],[-75.49202,5.27125],[-75.49202,5.27125],[-75.49205,5.27129],[-75.49206,5.2713],[-75.49206,5.27131],[-75.49204,5.27134],[-75.49204,5.27136],[-75.49205,5.27137],[-75.49205,5.27138],[-75.49206,5.2714],[-75.49206,5.27142],[-75.49203,5.27153],[-75.49202,5.27156],[-75.49202,5.27158],[-75.49201,5.27162],[-75.49201,5.27163],[-75.49201,5.2717],[-75.492,5.27174],[-75.49199,5.27177],[-75.49195,5.27183],[-75.49193,5.27187],[-75.49189,5.27191],[-75.49186,5.27195],[-75.49181,5.27199],[-75.49165,5.27212],[-75.49163,5.27213],[-75.49157,5.27218],[-75.49153,5.27223],[-75.4915,5.27225],[-75.49145,5.27233],[-75.49142,5.27239],[-75.49141,5.27244],[-75.49141,5.27254],[-75.49141,5.27262],[-75.4914,5.27265],[-75.4914,5.27274],[-75.4914,5.27277],[-75.49139,5.2728],[-75.49135,5.27285],[-75.49134,5.27287],[-75.49134,5.27295],[-75.49134,5.27296],[-75.49135,5.27304],[-75.49131,5.27318],[-75.4913,5.27319],[-75.4913,5.2732],[-75.4913,5.27321],[-75.4913,5.27321],[-75.4913,5.27322],[-75.49129,5.27323],[-75.49129,5.27327],[-75.49128,5.27332],[-75.49127,5.27335],[-75.49127,5.27339],[-75.49126,5.27342],[-75.49126,5.27346],[-75.49125,5.27346],[-75.49125,5.27347],[-75.49125,5.27347],[-75.49125,5.27348],[-75.49125,5.27348],[-75.49125,5.27349],[-75.49125,5.27349],[-75.49125,5.27349],[-75.49126,5.2735],[-75.49126,5.2735],[-75.49126,5.27351],[-75.49126,5.27351],[-75.49126,5.27351],[-75.49127,5.27352],[-75.49129,5.27355],[-75.49129,5.27355],[-75.4913,5.27357],[-75.49131,5.27358],[-75.49133,5.27361],[-75.49133,5.27361],[-75.49134,5.27362],[-75.49134,5.27362],[-75.49134,5.27362],[-75.49134,5.27363],[-75.49135,5.27363],[-75.49135,5.27363],[-75.49136,5.27363],[-75.49136,5.27363],[-75.49136,5.27363],[-75.49137,5.27364],[-75.49137,5.27364],[-75.49138,5.27364],[-75.49139,5.27364],[-75.4914,5.27364],[-75.49144,5.27369],[-75.49146,5.27372],[-75.49147,5.27373],[-75.49149,5.27375],[-75.4915,5.27375],[-75.49152,5.27376],[-75.49156,5.27378],[-75.49158,5.27379],[-75.49161,5.27383],[-75.49162,5.27383],[-75.49162,5.27385],[-75.49163,5.27385],[-75.49164,5.27386],[-75.49166,5.27386],[-75.49166,5.27385],[-75.49171,5.27384],[-75.49171,5.27383],[-75.49172,5.27383],[-75.49172,5.27383],[-75.49174,5.27383],[-75.49174,5.27383],[-75.49174,5.27383],[-75.49175,5.27383],[-75.49175,5.27383],[-75.49177,5.27383],[-75.49177,5.27384],[-75.49179,5.27384],[-75.49179,5.27384],[-75.49182,5.27384],[-75.49188,5.27383],[-75.49191,5.27384],[-75.49194,5.27384],[-75.49196,5.27386],[-75.49196,5.27387]],[[-75.49174,5.27248],[-75.49167,5.27243],[-75.49163,5.2724],[-75.49163,5.2724],[-75.49157,5.27239],[-75.4916,5.27229],[-75.49161,5.27228],[-75.49162,5.27229],[-75.49164,5.27224],[-75.49164,5.27223],[-75.49165,5.27222],[-75.49165,5.27221],[-75.49165,5.27221],[-75.49164,5.2722],[-75.49165,5.27217],[-75.49166,5.27217],[-75.49166,5.27216],[-75.49171,5.27219],[-75.49171,5.27219],[-75.49172,5.27219],[-75.49175,5.27214],[-75.49176,5.27215],[-75.49178,5.27212],[-75.49179,5.27213],[-75.4918,5.27211],[-75.4918,5.2721],[-75.4918,5.2721],[-75.49183,5.27205],[-75.49183,5.27205],[-75.4919,5.27195],[-75.49192,5.27197],[-75.49195,5.27193],[-75.49198,5.27195],[-75.49203,5.27192],[-75.49205,5.27191],[-75.49204,5.2719],[-75.49205,5.27189],[-75.49208,5.27182],[-75.49212,5.27184],[-75.49213,5.27182],[-75.49213,5.27182],[-75.49214,5.27181],[-75.49215,5.27182],[-75.49215,5.27183],[-75.49216,5.27183],[-75.49216,5.27184],[-75.49217,5.27184],[-75.49218,5.27184],[-75.49218,5.27184],[-75.49219,5.27185],[-75.49219,5.27185],[-75.49222,5.27186],[-75.49222,5.27184],[-75.49222,5.27182],[-75.49223,5.27182],[-75.49224,5.27178],[-75.49229,5.2718],[-75.49229,5.27179],[-75.49232,5.2718],[-75.49232,5.27179],[-75.49233,5.27179],[-75.49233,5.27179],[-75.49232,5.27185],[-75.49232,5.27189],[-75.49232,5.27195],[-75.49232,5.27197],[-75.49231,5.27199],[-75.4923,5.27201],[-75.49228,5.27202],[-75.49227,5.27203],[-75.49225,5.27204],[-75.49223,5.27205],[-75.49222,5.27206],[-75.4922,5.27207],[-75.49219,5.27209],[-75.49216,5.27214],[-75.49214,5.27218],[-75.49212,5.27222],[-75.492,5.27216],[-75.49197,5.27223],[-75.49192,5.2722],[-75.49186,5.27232],[-75.49186,5.27234],[-75.49181,5.27246],[-75.49182,5.27247],[-75.49181,5.2725],[-75.49174,5.27248]],[[-75.49234,5.2717],[-75.49234,5.27171],[-75.49234,5.27171],[-75.49234,5.27172],[-75.49234,5.27173],[-75.49233,5.27173],[-75.49227,5.2717],[-75.49222,5.27168],[-75.49223,5.27166],[-75.49223,5.27166],[-75.49229,5.27167],[-75.49231,5.27158],[-75.49231,5.27158],[-75.49231,5.27157],[-75.49236,5.27157],[-75.49236,5.27159],[-75.49236,5.27161],[-75.49236,5.27161],[-75.49235,5.27162],[-75.49235,5.27164],[-75.49234,5.2717]],[[-75.4925,5.26906],[-75.4925,5.26906],[-75.49246,5.26907],[-75.49241,5.26908],[-75.49239,5.26905],[-75.49239,5.26904],[-75.49239,5.26903],[-75.49237,5.26902],[-75.49242,5.26899],[-75.49241,5.26899],[-75.4924,5.26898],[-75.49239,5.26897],[-75.49243,5.26895],[-75.49245,5.26894],[-75.49247,5.26894],[-75.4925,5.26894],[-75.49254,5.26894],[-75.49253,5.26898],[-75.49253,5.26898],[-75.4925,5.26906]]],[[[-75.48988,5.2738],[-75.48988,5.27382],[-75.48989,5.27384],[-75.48997,5.27388],[-75.48998,5.27389],[-75.48998,5.27388],[-75.49003,5.27381],[-75.49002,5.27381],[-75.48999,5.27379],[-75.48996,5.27378],[-75.48994,5.27377],[-75.48991,5.27376],[-75.4899,5.27375],[-75.4899,5.27375],[-75.48988,5.2738]]],[[[-75.49013,5.27385],[-75.49013,5.27386],[-75.49018,5.27389],[-75.49021,5.27386],[-75.49017,5.27385],[-75.49012,5.27384],[-75.49013,5.27385]]],[[[-75.4919,5.27396],[-75.4919,5.27396],[-75.4919,5.27395],[-75.4919,5.27396]]],[[[-75.49194,5.274],[-75.49201,5.27409],[-75.49203,5.27412],[-75.49203,5.27413],[-75.49203,5.27412],[-75.49208,5.2741],[-75.49203,5.27398],[-75.492,5.27399],[-75.49199,5.27398],[-75.49194,5.274]]],[[[-75.49206,5.27417],[-75.49209,5.27423],[-75.49208,5.27416],[-75.49206,5.27417],[-75.49206,5.27416],[-75.49205,5.27416],[-75.49206,5.27417]]],[[[-75.49209,5.27424],[-75.4921,5.27426],[-75.4921,5.27428],[-75.49213,5.27428],[-75.49212,5.27423],[-75.49209,5.27424]]],[[[-75.48918,5.27485],[-75.48919,5.27485],[-75.48919,5.27485],[-75.4892,5.27485],[-75.4892,5.27485],[-75.4892,5.27485],[-75.48921,5.27485],[-75.48923,5.27485],[-75.48929,5.27488],[-75.48941,5.27491],[-75.48943,5.27491],[-75.48943,5.27492],[-75.48944,5.27492],[-75.48944,5.27492],[-75.48945,5.27492],[-75.48947,5.27493],[-75.48958,5.27498],[-75.48964,5.275],[-75.48965,5.27501],[-75.48965,5.27501],[-75.48966,5.27501],[-75.48966,5.27501],[-75.48967,5.27499],[-75.48924,5.2748],[-75.48919,5.27478],[-75.48894,5.27482],[-75.48897,5.27484],[-75.48898,5.27484],[-75.48898,5.27484],[-75.48899,5.27485],[-75.48899,5.27485],[-75.48899,5.27485],[-75.489,5.27485],[-75.489,5.27485],[-75.489,5.27485],[-75.48901,5.27485],[-75.48901,5.27485],[-75.48902,5.27485],[-75.48902,5.27485],[-75.48903,5.27485],[-75.48904,5.27485],[-75.48908,5.27485],[-75.48915,5.27485],[-75.48916,5.27485],[-75.48917,5.27485],[-75.48918,5.27485],[-75.48918,5.27485]]],[[[-75.49213,5.27531],[-75.49215,5.27532],[-75.49218,5.27533],[-75.49219,5.27533],[-75.4922,5.27533],[-75.4922,5.27534],[-75.49221,5.27534],[-75.49223,5.27536],[-75.49225,5.27537],[-75.49226,5.27539],[-75.49228,5.2754],[-75.49229,5.27542],[-75.4923,5.27545],[-75.49231,5.27547],[-75.49232,5.27548],[-75.4924,5.27547],[-75.49243,5.27546],[-75.49245,5.27545],[-75.49244,5.27541],[-75.49245,5.2754],[-75.49244,5.27537],[-75.49247,5.27535],[-75.49244,5.27529],[-75.49241,5.2753],[-75.49238,5.27527],[-75.49233,5.27523],[-75.4923,5.27526],[-75.49233,5.2752],[-75.49229,5.27521],[-75.49228,5.27521],[-75.49221,5.27525],[-75.49218,5.27526],[-75.49214,5.27528],[-75.49208,5.27529],[-75.49193,5.27531],[-75.49191,5.27531],[-75.4919,5.27531],[-75.49192,5.27531],[-75.49202,5.27532],[-75.49207,5.27532],[-75.49208,5.27531],[-75.49213,5.27531]]],[[[-75.48954,5.27559],[-75.48954,5.27562],[-75.48962,5.27558],[-75.48962,5.27557],[-75.48963,5.27555],[-75.48963,5.27554],[-75.48963,5.27553],[-75.48964,5.27551],[-75.48965,5.27549],[-75.48966,5.27549],[-75.48966,5.27548],[-75.48967,5.27547],[-75.48968,5.27546],[-75.48968,5.27545],[-75.48968,5.27544],[-75.48969,5.27543],[-75.48971,5.27541],[-75.48972,5.27539],[-75.48973,5.27538],[-75.48975,5.27537],[-75.48975,5.27537],[-75.48974,5.27536],[-75.48968,5.27532],[-75.48961,5.27528],[-75.4896,5.27527],[-75.4896,5.27527],[-75.4896,5.27526],[-75.4896,5.27526],[-75.4896,5.27526],[-75.48959,5.27525],[-75.48959,5.27524],[-75.48957,5.27522],[-75.48956,5.27521],[-75.48956,5.27521],[-75.48956,5.2752],[-75.48955,5.2752],[-75.48955,5.2752],[-75.48955,5.27519],[-75.48955,5.27519],[-75.48954,5.27519],[-75.48954,5.27519],[-75.48954,5.27519],[-75.48953,5.27519],[-75.48953,5.27519],[-75.48953,5.27519],[-75.48953,5.27519],[-75.48952,5.27519],[-75.48952,5.27519],[-75.48952,5.27519],[-75.48951,5.27519],[-75.48951,5.27519],[-75.48951,5.27519],[-75.48951,5.2752],[-75.48951,5.2752],[-75.48951,5.2752],[-75.48951,5.27521],[-75.48951,5.27522],[-75.48951,5.27522],[-75.48951,5.27525],[-75.48951,5.27528],[-75.48951,5.27537],[-75.48951,5.27538],[-75.48951,5.27539],[-75.48951,5.2754],[-75.48951,5.2754],[-75.48951,5.27541],[-75.48951,5.27541],[-75.48951,5.27542],[-75.48951,5.27542],[-75.4895,5.27543],[-75.4895,5.27545],[-75.4895,5.27545],[-75.48952,5.27544],[-75.48953,5.27543],[-75.48953,5.27542],[-75.48953,5.27529],[-75.48958,5.27529],[-75.48958,5.27532],[-75.48957,5.27534],[-75.48962,5.27539],[-75.48962,5.27539],[-75.48961,5.27541],[-75.4896,5.27543],[-75.48959,5.27545],[-75.48958,5.27546],[-75.48958,5.27548],[-75.48957,5.27549],[-75.48957,5.27551],[-75.48956,5.27553],[-75.48955,5.27555],[-75.48955,5.27556],[-75.48954,5.27556],[-75.48954,5.27559]]],[[[-75.48973,5.27557],[-75.48975,5.2756],[-75.48976,5.27562],[-75.48977,5.27562],[-75.48981,5.27556],[-75.48979,5.27555],[-75.48983,5.27547],[-75.48974,5.27541],[-75.48969,5.27549],[-75.48969,5.27549],[-75.48968,5.27549],[-75.48967,5.27548],[-75.48965,5.27551],[-75.48967,5.27552],[-75.48964,5.27556],[-75.48964,5.27557],[-75.48964,5.27557],[-75.48972,5.27557],[-75.48973,5.27557]]],[[[-75.48943,5.27557],[-75.48943,5.27566],[-75.48944,5.27565],[-75.48947,5.27565],[-75.48948,5.27564],[-75.48949,5.27564],[-75.48949,5.27564],[-75.48949,5.27564],[-75.4895,5.27564],[-75.4895,5.27564],[-75.48951,5.27563],[-75.48951,5.27563],[-75.48953,5.27562],[-75.48953,5.27557],[-75.48953,5.27556],[-75.48943,5.27557]]],[[[-75.49081,5.27563],[-75.4908,5.27563],[-75.49081,5.27566],[-75.49082,5.27566],[-75.49082,5.27566],[-75.49082,5.27563],[-75.49082,5.27557],[-75.4908,5.27549],[-75.49076,5.27546],[-75.49073,5.27546],[-75.49073,5.27546],[-75.49073,5.27547],[-75.49074,5.27547],[-75.49076,5.27555],[-75.49076,5.27555],[-75.49076,5.27555],[-75.49078,5.27555],[-75.49078,5.2756],[-75.49079,5.2756],[-75.49079,5.2756],[-75.49081,5.2756],[-75.49081,5.27563]]],[[[-75.48986,5.27573],[-75.48987,5.27574],[-75.48987,5.27574],[-75.48987,5.27572],[-75.48987,5.27572],[-75.48986,5.27571],[-75.48986,5.27572],[-75.48986,5.27571],[-75.48986,5.27571],[-75.48985,5.27569],[-75.48983,5.2757],[-75.48986,5.27573]]],[[[-75.49043,5.27597],[-75.49057,5.27603],[-75.49074,5.27609],[-75.49075,5.27609],[-75.49077,5.27609],[-75.49078,5.27609],[-75.49082,5.2761],[-75.49084,5.2761],[-75.49088,5.2761],[-75.49091,5.27609],[-75.49091,5.27609],[-75.4909,5.27609],[-75.49081,5.27608],[-75.49076,5.27606],[-75.49071,5.27603],[-75.49067,5.276],[-75.49066,5.27598],[-75.49066,5.27598],[-75.49066,5.27597],[-75.49068,5.27595],[-75.49068,5.27589],[-75.49068,5.27588],[-75.49069,5.27586],[-75.49065,5.27585],[-75.49061,5.27595],[-75.49062,5.27596],[-75.49062,5.27596],[-75.49061,5.27596],[-75.49056,5.27594],[-75.49056,5.27595],[-75.4905,5.27592],[-75.49041,5.27587],[-75.49037,5.27584],[-75.49032,5.27581],[-75.49027,5.27577],[-75.49025,5.27574],[-75.49022,5.27572],[-75.49019,5.27568],[-75.49019,5.27567],[-75.49018,5.27566],[-75.49017,5.27565],[-75.49014,5.27562],[-75.49013,5.2756],[-75.49009,5.27555],[-75.49006,5.27548],[-75.49006,5.27548],[-75.49005,5.27549],[-75.49003,5.2755],[-75.49001,5.27551],[-75.49,5.27551],[-75.49,5.27552],[-75.49001,5.27553],[-75.49001,5.27555],[-75.49002,5.27556],[-75.49003,5.27558],[-75.49003,5.27559],[-75.49003,5.2756],[-75.49004,5.27561],[-75.49004,5.27563],[-75.49004,5.27564],[-75.49005,5.27564],[-75.49005,5.27563],[-75.49005,5.27563],[-75.49005,5.27563],[-75.49006,5.27565],[-75.49009,5.27568],[-75.49011,5.27571],[-75.49013,5.27573],[-75.49017,5.27577],[-75.4902,5.2758],[-75.49022,5.27582],[-75.49031,5.27589],[-75.49034,5.27592],[-75.49039,5.27594],[-75.49039,5.27595],[-75.49043,5.27597]]],[[[-75.48998,5.27589],[-75.48997,5.2759],[-75.48998,5.27593],[-75.48999,5.27594],[-75.48999,5.27595],[-75.48999,5.27596],[-75.49,5.27596],[-75.49,5.27596],[-75.49,5.27597],[-75.49,5.27597],[-75.49001,5.27598],[-75.49001,5.27599],[-75.49005,5.27603],[-75.49005,5.27603],[-75.49008,5.27607],[-75.49008,5.27608],[-75.49009,5.27608],[-75.4901,5.27609],[-75.4901,5.27609],[-75.4901,5.2761],[-75.49011,5.2761],[-75.49011,5.2761],[-75.49011,5.27611],[-75.49011,5.27611],[-75.49007,5.276],[-75.49001,5.27588],[-75.48998,5.27589]]],[[[-75.49093,5.2761],[-75.49094,5.2761],[-75.49096,5.2761],[-75.49097,5.2761],[-75.49094,5.2761],[-75.49092,5.27609],[-75.49093,5.2761]]],[[[-75.491,5.27612],[-75.49102,5.27612],[-75.49104,5.27613],[-75.49106,5.27614],[-75.4911,5.27615],[-75.49111,5.27616],[-75.49107,5.27614],[-75.491,5.27611],[-75.491,5.27612]]],[[[-75.49124,5.2755],[-75.49122,5.27552],[-75.49121,5.27555],[-75.49115,5.27567],[-75.49114,5.27572],[-75.49113,5.27575],[-75.49114,5.27578],[-75.49114,5.2758],[-75.49115,5.27586],[-75.49117,5.2759],[-75.49125,5.27609],[-75.49128,5.27615],[-75.49132,5.27621],[-75.49134,5.27628],[-75.49135,5.2763],[-75.49135,5.27628],[-75.49135,5.27626],[-75.49135,5.2762],[-75.49135,5.27618],[-75.49134,5.27614],[-75.49133,5.27609],[-75.49132,5.27603],[-75.49132,5.276],[-75.49131,5.27597],[-75.49129,5.27595],[-75.49126,5.27593],[-75.49124,5.27591],[-75.49123,5.27589],[-75.49122,5.27588],[-75.49122,5.27587],[-75.49122,5.27586],[-75.49122,5.27584],[-75.49121,5.27583],[-75.4912,5.27582],[-75.4912,5.2758],[-75.4912,5.27579],[-75.4912,5.27578],[-75.49118,5.27577],[-75.49117,5.27577],[-75.49117,5.27577],[-75.49117,5.27577],[-75.49117,5.27576],[-75.49117,5.27576],[-75.49117,5.27575],[-75.49118,5.27569],[-75.49119,5.27566],[-75.49121,5.27561],[-75.49121,5.27557],[-75.49123,5.27553],[-75.49125,5.2755],[-75.49124,5.2755]]],[[[-75.4912,5.27626],[-75.4912,5.27627],[-75.49119,5.27629],[-75.4912,5.2763],[-75.49121,5.2763],[-75.49125,5.27631],[-75.49126,5.27632],[-75.49128,5.27632],[-75.49128,5.27632],[-75.49124,5.27629],[-75.49123,5.27628],[-75.4912,5.27624],[-75.4912,5.27626]]],[[[-75.4889,5.27636],[-75.48886,5.27638],[-75.48883,5.27638],[-75.48883,5.27639],[-75.48888,5.27637],[-75.48893,5.27636],[-75.48893,5.27636],[-75.48893,5.27635],[-75.4889,5.27636]]],[[[-75.48914,5.2764],[-75.4892,5.27642],[-75.48923,5.27642],[-75.48925,5.27642],[-75.48925,5.27642],[-75.48915,5.27638],[-75.48914,5.2764]]],[[[-75.48958,5.27642],[-75.48958,5.27641],[-75.48957,5.2764],[-75.48958,5.27642]]],[[[-75.48952,5.27661],[-75.48954,5.27661],[-75.48954,5.27662],[-75.48957,5.27662],[-75.48957,5.27662],[-75.48957,5.27662],[-75.48957,5.27661],[-75.48958,5.27661],[-75.48958,5.27661],[-75.48959,5.27661],[-75.4896,5.27661],[-75.48961,5.27662],[-75.48963,5.27662],[-75.48965,5.27662],[-75.48967,5.27662],[-75.48968,5.27662],[-75.4897,5.27661],[-75.48971,5.27661],[-75.48972,5.27661],[-75.48973,5.27661],[-75.48974,5.2766],[-75.48976,5.2766],[-75.48977,5.2766],[-75.48978,5.27659],[-75.48979,5.27658],[-75.48973,5.27658],[-75.48963,5.2766],[-75.48961,5.2766],[-75.48955,5.27658],[-75.48948,5.27657],[-75.48943,5.27657],[-75.4894,5.27658],[-75.48939,5.27659],[-75.48941,5.27659],[-75.48942,5.27659],[-75.48952,5.27661]]],[[[-75.49017,5.27631],[-75.49015,5.27632],[-75.49012,5.27635],[-75.49007,5.2764],[-75.49006,5.27641],[-75.49005,5.27642],[-75.49002,5.27643],[-75.48999,5.27647],[-75.48998,5.27647],[-75.48996,5.2765],[-75.48992,5.27654],[-75.48986,5.27662],[-75.48985,5.27663],[-75.48996,5.2767],[-75.49,5.27673],[-75.49017,5.27651],[-75.49028,5.27636],[-75.49025,5.27634],[-75.49023,5.27632],[-75.49022,5.27631],[-75.49021,5.27631],[-75.49017,5.27631]]]]},"properties":{"FID":0,"OBJECTID":1,"Condicion":"Condicion de riesgo por movimientos en masa","Suelo":"Urbano","Area_ha":6.84766673906,"RuleID":2,"Shape_Leng":14313.4204598,"Shape_Area":68476.6674798}},{"type":"Feature","id":1,"geometry":{"type":"MultiPolygon","coordinates":[[[[-75.48788,5.26969],[-75.48792,5.26969],[-75.48794,5.2697],[-75.48796,5.2697],[-75.488,5.2697],[-75.488,5.2697],[-75.48789,5.26969],[-75.48787,5.26968],[-75.48788,5.26969]]],[[[-75.48879,5.26961],[-75.48884,5.26964],[-75.48879,5.26961],[-75.48878,5.2696],[-75.48879,5.26961]]],[[[-75.48772,5.26957],[-75.48773,5.26957],[-75.48775,5.26959],[-75.48774,5.26958],[-75.48769,5.26953],[-75.48772,5.26957]]],[[[-75.48755,5.26928],[-75.48755,5.26928],[-75.48755,5.2693],[-75.48756,5.26932],[-75.48757,5.26933],[-75.48758,5.26935],[-75.48759,5.26937],[-75.4876,5.26939],[-75.4876,5.2694],[-75.48761,5.26941],[-75.48761,5.26942],[-75.48762,5.26944],[-75.48763,5.26944],[-75.48765,5.26947],[-75.48763,5.26944],[-75.48759,5.26937],[-75.48757,5.26931],[-75.48756,5.26929],[-75.48755,5.26928],[-75.48755,5.26928]]],[[[-75.48813,5.26899],[-75.48812,5.26899],[-75.48815,5.26898],[-75.48813,5.26899]]],[[[-75.49545,5.26894],[-75.49552,5.26895],[-75.49552,5.26893],[-75.49553,5.26893],[-75.49554,5.26892],[-75.49556,5.26892],[-75.49557,5.2688],[-75.49555,5.2688],[-75.49555,5.26876],[-75.49553,5.26876],[-75.49552,5.26878],[-75.49547,5.26878],[-75.49547,5.26878],[-75.49544,5.26878],[-75.49543,5.26887],[-75.49545,5.26888],[-75.49545,5.26888],[-75.49546,5.26888],[-75.49546,5.2689],[-75.49545,5.2689],[-75.49545,5.26894]]],[[[-75.48828,5.26893],[-75.48823,5.26895],[-75.48829,5.26893],[-75.48828,5.26893]]],[[[-75.49489,5.267],[-75.49498,5.26707],[-75.49494,5.26709],[-75.49501,5.26711],[-75.49507,5.26714],[-75.49504,5.26706],[-75.49501,5.26703],[-75.49492,5.26697],[-75.49489,5.267]]],[[[-75.49461,5.26626],[-75.49454,5.26632],[-75.49452,5.26634],[-75.49452,5.26636],[-75.49451,5.26639],[-75.49451,5.26641],[-75.49451,5.26645],[-75.49451,5.26645],[-75.49452,5.26654],[-75.49453,5.26661],[-75.49454,5.26663],[-75.49456,5.2667],[-75.49457,5.26673],[-75.49461,5.26677],[-75.4946,5.26676],[-75.49459,5.26673],[-75.49458,5.2667],[-75.49458,5.26668],[-75.49457,5.26666],[-75.49457,5.26662],[-75.49456,5.26657],[-75.49456,5.26656],[-75.49456,5.26652],[-75.49456,5.26644],[-75.49457,5.26641],[-75.49457,5.26638],[-75.49458,5.26635],[-75.49459,5.26631],[-75.49461,5.26627],[-75.49462,5.26626],[-75.49461,5.26626]]],[[[-75.4945,5.2664],[-75.4945,5.2664],[-75.4945,5.2664],[-75.4945,5.2664]]],[[[-75.4944,5.26612],[-75.49441,5.26613],[-75.4944,5.26614],[-75.4944,5.26615],[-75.49439,5.26618],[-75.4944,5.26616],[-75.49445,5.26611],[-75.4945,5.26605],[-75.4945,5.26605],[-75.49443,5.26609],[-75.49441,5.26608],[-75.49441,5.26608],[-75.4944,5.26612]]],[[[-75.49522,5.26588],[-75.49518,5.26588],[-75.49514,5.26588],[-75.49512,5.26589],[-75.49509,5.2659],[-75.49508,5.2659],[-75.49514,5.26591],[-75.49523,5.26591],[-75.49537,5.2659],[-75.49541,5.2659],[-75.49542,5.2659],[-75.49541,5.26589],[-75.49539,5.26589],[-75.49537,5.26589],[-75.49535,5.26588],[-75.49532,5.26588],[-75.4953,5.26588],[-75.49526,5.26588],[-75.49522,5.26588]]],[[[-75.49515,5.26534],[-75.49518,5.26538],[-75.4952,5.26537],[-75.4952,5.26537],[-75.49515,5.26533],[-75.49513,5.26532],[-75.49515,5.26534]]],[[[-75.49528,5.26528],[-75.49528,5.2653],[-75.49528,5.26531],[-75.4953,5.2653],[-75.49528,5.26525],[-75.49528,5.26528]]]]},"properties":{"FID":1,"OBJECTID":2,"Condicion":"Condicion de riesgo por movimientos en masa","Suelo":"Expansion","Area_ha":0.0757744152527,"RuleID":2,"Shape_Leng":545.954373661,"Shape_Area":757.74415245}}]}