{"type":"FeatureCollection","name":"h_2_Cond_Amz_Ind_Urb_Rep","crs":{"type":"name","properties":{"name":"urn:ogc:def:crs:OGC:1.3:CRS84"}},"features":[{"type":"Feature","id":0,"geometry":{"type":"MultiPolygon","coordinates":[[[[-75.49088,5.27563],[-75.49088,5.27565],[-75.49092,5.2757],[-75.49095,5.27575],[-75.49098,5.27575],[-75.49099,5.27578],[-75.49099,5.27579],[-75.49099,5.2758],[-75.491,5.27586],[-75.491,5.27586],[-75.491,5.27586],[-75.49099,5.27586],[-75.49098,5.27586],[-75.49098,5.27586],[-75.49099,5.27586],[-75.491,5.27586],[-75.49101,5.27586],[-75.49101,5.27585],[-75.491,5.27583],[-75.491,5.2758],[-75.49099,5.27578],[-75.49099,5.27577],[-75.49098,5.27576],[-75.49098,5.27574],[-75.49096,5.27571],[-75.49093,5.27567],[-75.49092,5.27565],[-75.4909,5.27562],[-75.49088,5.27563]]],[[[-75.49092,5.27592],[-75.49096,5.27595],[-75.49097,5.27595],[-75.49097,5.27594],[-75.49098,5.27593],[-75.49098,5.27591],[-75.49098,5.2759],[-75.49098,5.2759],[-75.49098,5.2759],[-75.49099,5.27588],[-75.49098,5.27587],[-75.49098,5.27588],[-75.49098,5.2759],[-75.49095,5.27585],[-75.49092,5.27592]]],[[[-75.49135,5.27632],[-75.49133,5.27633],[-75.49135,5.27633],[-75.49135,5.27629],[-75.49135,5.27629],[-75.49135,5.27632]]]]},"properties":{"FID":0,"OBJECTID":1,"Condicion":"Condicion de amenaza por inundacion","Suelo":"Urbano","Area_ha":0.00973711684385,"RuleID":1,"Shape_Leng":114.32013306,"Shape_Area":97.3711684385}}]}