{"type":"FeatureCollection","name":"i_2_Cond_Riesgo_Inundac_Urb","crs":{"type":"name","properties":{"name":"urn:ogc:def:crs:OGC:1.3:CRS84"}},"features":[{"type":"Feature","id":0,"geometry":{"type":"Polygon","coordinates":[[[-75.49092,5.27565],[-75.49093,5.27567],[-75.49096,5.27571],[-75.49098,5.27574],[-75.49098,5.27576],[-75.49099,5.27577],[-75.49099,5.27578],[-75.491,5.2758],[-75.491,5.27583],[-75.49101,5.27585],[-75.49101,5.27586],[-75.491,5.27586],[-75.49099,5.27586],[-75.49098,5.27586],[-75.49098,5.27587],[-75.49099,5.27588],[-75.49098,5.2759],[-75.49098,5.2759],[-75.49098,5.2759],[-75.49098,5.27591],[-75.49098,5.27593],[-75.49097,5.27594],[-75.49097,5.27595],[-75.49096,5.27595],[-75.49102,5.276],[-75.49103,5.27602],[-75.49112,5.27611],[-75.49118,5.27619],[-75.49129,5.27632],[-75.4913,5.27632],[-75.49131,5.27632],[-75.49133,5.27633],[-75.49135,5.27632],[-75.49135,5.27629],[-75.49133,5.27626],[-75.49125,5.27613],[-75.49117,5.27601],[-75.49113,5.27589],[-75.49111,5.27585],[-75.49111,5.27584],[-75.49107,5.27579],[-75.49107,5.27578],[-75.491,5.27566],[-75.49097,5.27559],[-75.49096,5.27559],[-75.49096,5.27559],[-75.49093,5.27547],[-75.49092,5.27543],[-75.49091,5.27541],[-75.4909,5.27536],[-75.49088,5.27532],[-75.49085,5.27531],[-75.49084,5.2753],[-75.49075,5.27527],[-75.49075,5.27527],[-75.49075,5.27528],[-75.49075,5.27528],[-75.49074,5.27527],[-75.49074,5.27527],[-75.49072,5.27527],[-75.49072,5.27527],[-75.49072,5.27528],[-75.49072,5.27529],[-75.49072,5.27533],[-75.49072,5.27533],[-75.49072,5.27533],[-75.49074,5.27533],[-75.49077,5.27534],[-75.49077,5.27534],[-75.49076,5.27534],[-75.49076,5.27534],[-75.49076,5.27535],[-75.49073,5.27535],[-75.49073,5.27535],[-75.49073,5.27541],[-75.49072,5.27541],[-75.49072,5.27545],[-75.49073,5.27545],[-75.49073,5.27547],[-75.49074,5.27547],[-75.49074,5.27547],[-75.49074,5.27547],[-75.49074,5.27547],[-75.49074,5.27547],[-75.49074,5.27547],[-75.49074,5.27549],[-75.49074,5.27551],[-75.49075,5.27553],[-75.49076,5.27555],[-75.49076,5.27555],[-75.49076,5.27555],[-75.49077,5.27555],[-75.49077,5.27556],[-75.49076,5.27556],[-75.49078,5.27561],[-75.49079,5.27561],[-75.49079,5.27562],[-75.49079,5.27563],[-75.4908,5.27563],[-75.4908,5.27563],[-75.49081,5.27565],[-75.49081,5.27566],[-75.49081,5.27567],[-75.49083,5.27566],[-75.49088,5.27565],[-75.49088,5.27565],[-75.49088,5.27563],[-75.4909,5.27562],[-75.49092,5.27565]]]},"properties":{"FID":0,"OBJECTID":1,"Condicion":"Condicion de riesgo por inundacion","Suelo":"Urbano","Area_ha":0.173849449576,"RuleID":1,"Shape_Leng":319.997343892,"Shape_Area":1738.49459869}}]}