{"type":"FeatureCollection","name":"d_1_Cond_Amz_Mov_Masa_Rural","crs":{"type":"name","properties":{"name":"urn:ogc:def:crs:OGC:1.3:CRS84"}},"features":[{"type":"Feature","id":0,"geometry":{"type":"MultiPolygon","coordinates":[[[[-75.49134,5.32968],[-75.49131,5.3297],[-75.49128,5.32973],[-75.49127,5.32973],[-75.49121,5.3298],[-75.4912,5.32981],[-75.49114,5.32985],[-75.49112,5.32987],[-75.49101,5.32995],[-75.491,5.32995],[-75.49097,5.32997],[-75.49088,5.33001],[-75.4908,5.33008],[-75.49078,5.3301],[-75.49069,5.33017],[-75.49063,5.33022],[-75.4906,5.33025],[-75.49059,5.33025],[-75.49044,5.33035],[-75.49033,5.33043],[-75.49031,5.33044],[-75.4903,5.33045],[-75.49026,5.33047],[-75.4903,5.33121],[-75.49032,5.33152],[-75.49032,5.33163],[-75.49041,5.3316],[-75.49049,5.33156],[-75.49063,5.3315],[-75.49071,5.33147],[-75.49076,5.33144],[-75.4908,5.33141],[-75.49083,5.33139],[-75.49092,5.33134],[-75.49099,5.33129],[-75.49105,5.33124],[-75.49115,5.33118],[-75.49123,5.33113],[-75.4913,5.33108],[-75.49137,5.33102],[-75.49139,5.331],[-75.49143,5.33096],[-75.49148,5.33092],[-75.49156,5.33088],[-75.49163,5.33083],[-75.49174,5.33076],[-75.49176,5.33074],[-75.49183,5.33069],[-75.49189,5.33064],[-75.49189,5.33064],[-75.49194,5.33059],[-75.49196,5.33057],[-75.49203,5.33053],[-75.49209,5.33048],[-75.49216,5.33043],[-75.49221,5.33038],[-75.49223,5.33037],[-75.4923,5.3303],[-75.49237,5.33023],[-75.49243,5.33016],[-75.49249,5.33008],[-75.49254,5.32999],[-75.49255,5.32997],[-75.49265,5.32991],[-75.49273,5.32986],[-75.4928,5.32981],[-75.49288,5.32976],[-75.49294,5.32971],[-75.49301,5.32965],[-75.49307,5.32959],[-75.4931,5.32957],[-75.4931,5.32957],[-75.49317,5.3295],[-75.49324,5.32943],[-75.49331,5.32935],[-75.49336,5.32927],[-75.49337,5.32926],[-75.4934,5.32921],[-75.49345,5.32914],[-75.49349,5.32905],[-75.49353,5.32896],[-75.49356,5.32886],[-75.49358,5.32877],[-75.4936,5.32871],[-75.49361,5.32862],[-75.49362,5.32852],[-75.49363,5.32842],[-75.49362,5.32832],[-75.49361,5.32825],[-75.49355,5.32825],[-75.49317,5.32825],[-75.49287,5.32826],[-75.49287,5.32826],[-75.49285,5.32827],[-75.49272,5.32834],[-75.49269,5.32834],[-75.49266,5.32836],[-75.4926,5.3284],[-75.49254,5.32844],[-75.49254,5.32844],[-75.49254,5.32848],[-75.49253,5.32853],[-75.49252,5.32857],[-75.49251,5.3286],[-75.49249,5.32862],[-75.49246,5.32867],[-75.49243,5.32871],[-75.4924,5.32873],[-75.49234,5.32879],[-75.49225,5.32887],[-75.49223,5.3289],[-75.4922,5.32892],[-75.4921,5.32897],[-75.49198,5.32905],[-75.49196,5.32906],[-75.49185,5.32912],[-75.49176,5.32918],[-75.4917,5.32923],[-75.49169,5.32925],[-75.49168,5.32926],[-75.49165,5.32932],[-75.49163,5.32936],[-75.49163,5.32937],[-75.49161,5.32942],[-75.49159,5.32946],[-75.49157,5.3295],[-75.49154,5.32953],[-75.49151,5.32956],[-75.49149,5.32957],[-75.49149,5.32957],[-75.49146,5.3296],[-75.49143,5.32963],[-75.49139,5.32965],[-75.49134,5.32968]],[[-75.49192,5.32967],[-75.49184,5.32966],[-75.49188,5.32956],[-75.49186,5.32952],[-75.49191,5.32937],[-75.49192,5.32934],[-75.49207,5.3294],[-75.49207,5.32947],[-75.49197,5.32944],[-75.49192,5.32967]]],[[[-75.49013,5.32797],[-75.49013,5.32797],[-75.49014,5.32801],[-75.49015,5.32801],[-75.49016,5.32803],[-75.49021,5.32808],[-75.49021,5.32808],[-75.49023,5.32809],[-75.49025,5.3281],[-75.49031,5.32812],[-75.49037,5.32814],[-75.4904,5.32815],[-75.49048,5.32815],[-75.49054,5.32815],[-75.49075,5.32803],[-75.49087,5.32778],[-75.49093,5.32755],[-75.49106,5.32753],[-75.49123,5.3278],[-75.49129,5.32797],[-75.4914,5.32809],[-75.49171,5.32804],[-75.49177,5.32784],[-75.49194,5.32769],[-75.49212,5.32746],[-75.49212,5.32737],[-75.49212,5.32732],[-75.49212,5.32731],[-75.49211,5.32727],[-75.49196,5.32717],[-75.49172,5.32715],[-75.49173,5.32694],[-75.49165,5.32696],[-75.49157,5.32698],[-75.49153,5.327],[-75.49143,5.32701],[-75.49134,5.32703],[-75.49125,5.32705],[-75.49123,5.32706],[-75.49121,5.32706],[-75.49111,5.32706],[-75.49107,5.32706],[-75.49109,5.32703],[-75.4911,5.32701],[-75.49114,5.32696],[-75.4912,5.32689],[-75.4912,5.32688],[-75.49126,5.3268],[-75.49131,5.32673],[-75.49136,5.32664],[-75.49137,5.32663],[-75.4914,5.32656],[-75.4914,5.32656],[-75.49146,5.32645],[-75.4915,5.32638],[-75.49153,5.3263],[-75.49157,5.3262],[-75.49159,5.32613],[-75.49161,5.32607],[-75.49163,5.326],[-75.49166,5.32587],[-75.49172,5.3258],[-75.49177,5.32572],[-75.49183,5.32563],[-75.49187,5.32554],[-75.49187,5.32554],[-75.49191,5.32546],[-75.49194,5.32538],[-75.49195,5.32535],[-75.49198,5.32528],[-75.492,5.32521],[-75.49202,5.32514],[-75.49203,5.32506],[-75.49204,5.32498],[-75.49205,5.32492],[-75.49206,5.32486],[-75.49207,5.32479],[-75.49208,5.32472],[-75.49208,5.32464],[-75.49209,5.32456],[-75.49208,5.32449],[-75.49208,5.3244],[-75.49208,5.32439],[-75.49207,5.32436],[-75.49207,5.32432],[-75.49207,5.32421],[-75.49206,5.32411],[-75.49206,5.324],[-75.49204,5.3239],[-75.49204,5.32389],[-75.49203,5.32379],[-75.49202,5.32378],[-75.49201,5.32367],[-75.49199,5.32359],[-75.49197,5.32352],[-75.49196,5.32346],[-75.49194,5.3234],[-75.49194,5.32338],[-75.49193,5.32321],[-75.49193,5.3232],[-75.49201,5.32318],[-75.49215,5.32314],[-75.49225,5.32312],[-75.49234,5.3231],[-75.49242,5.32307],[-75.49251,5.32304],[-75.4926,5.323],[-75.49268,5.32297],[-75.49277,5.32292],[-75.49282,5.3229],[-75.49289,5.32285],[-75.49293,5.32283],[-75.493,5.32279],[-75.49308,5.32273],[-75.4931,5.32272],[-75.49318,5.32266],[-75.49325,5.32259],[-75.49332,5.32252],[-75.49338,5.32244],[-75.49343,5.32238],[-75.49353,5.32223],[-75.49356,5.32218],[-75.4936,5.32212],[-75.49368,5.32197],[-75.49371,5.3219],[-75.49374,5.32183],[-75.49378,5.32173],[-75.49379,5.3217],[-75.49381,5.32166],[-75.49384,5.32156],[-75.49391,5.32154],[-75.49397,5.32151],[-75.49398,5.32151],[-75.49407,5.32146],[-75.49416,5.32142],[-75.49424,5.32136],[-75.49432,5.3213],[-75.49439,5.32123],[-75.4944,5.32122],[-75.49448,5.32115],[-75.49439,5.32108],[-75.49426,5.32098],[-75.49424,5.32097],[-75.4942,5.32097],[-75.49404,5.321],[-75.49401,5.32101],[-75.494,5.32101],[-75.49381,5.32102],[-75.49378,5.32102],[-75.49376,5.32101],[-75.49357,5.32098],[-75.49327,5.32093],[-75.49324,5.32093],[-75.49321,5.32091],[-75.49318,5.3209],[-75.49297,5.32077],[-75.49296,5.3208],[-75.49295,5.3208],[-75.49289,5.32091],[-75.49287,5.321],[-75.49316,5.32109],[-75.49328,5.32111],[-75.49339,5.32116],[-75.4934,5.32116],[-75.49339,5.32119],[-75.49338,5.32122],[-75.49335,5.32132],[-75.49334,5.32134],[-75.49334,5.32134],[-75.4933,5.32148],[-75.49328,5.32153],[-75.49324,5.32163],[-75.49324,5.32164],[-75.49321,5.32168],[-75.4932,5.32171],[-75.49312,5.32186],[-75.49311,5.32188],[-75.49308,5.32192],[-75.49308,5.32193],[-75.49298,5.32207],[-75.49295,5.32211],[-75.49292,5.32215],[-75.49288,5.32219],[-75.49285,5.32223],[-75.4928,5.32226],[-75.49277,5.32229],[-75.49269,5.32234],[-75.49268,5.32235],[-75.49263,5.32238],[-75.49263,5.32238],[-75.49255,5.32243],[-75.49251,5.32245],[-75.49247,5.32247],[-75.49229,5.32254],[-75.49229,5.32255],[-75.49224,5.32256],[-75.49219,5.32258],[-75.49214,5.32259],[-75.49203,5.32261],[-75.49188,5.32265],[-75.4917,5.3227],[-75.49165,5.32271],[-75.49162,5.32271],[-75.49155,5.32273],[-75.4915,5.32274],[-75.49148,5.32274],[-75.49142,5.32275],[-75.4914,5.32276],[-75.49137,5.32276],[-75.49138,5.3229],[-75.49138,5.32291],[-75.4914,5.32342],[-75.49141,5.32348],[-75.49141,5.3235],[-75.49142,5.32353],[-75.49142,5.32355],[-75.49143,5.32358],[-75.49145,5.32367],[-75.49146,5.32368],[-75.49147,5.32373],[-75.49147,5.32376],[-75.49149,5.32387],[-75.49149,5.32388],[-75.49151,5.32398],[-75.49151,5.324],[-75.49152,5.32404],[-75.49153,5.32415],[-75.49153,5.32416],[-75.49153,5.32422],[-75.49153,5.32434],[-75.49154,5.32441],[-75.49154,5.32444],[-75.49154,5.32444],[-75.49154,5.32452],[-75.49155,5.32458],[-75.49154,5.32463],[-75.49154,5.32468],[-75.49154,5.32471],[-75.49152,5.32479],[-75.49151,5.32485],[-75.49151,5.32492],[-75.49151,5.32494],[-75.4915,5.32499],[-75.49148,5.32504],[-75.49147,5.32509],[-75.49147,5.3251],[-75.49144,5.32517],[-75.49143,5.32521],[-75.49142,5.32524],[-75.4914,5.32528],[-75.49093,5.32508],[-75.4909,5.32507],[-75.49089,5.32509],[-75.49088,5.32511],[-75.49086,5.32514],[-75.49084,5.32516],[-75.4908,5.32521],[-75.49078,5.32522],[-75.49078,5.32523],[-75.49074,5.32526],[-75.49071,5.32529],[-75.4907,5.32529],[-75.49068,5.32531],[-75.49067,5.32532],[-75.49067,5.32533],[-75.49067,5.32534],[-75.49065,5.32539],[-75.49062,5.32549],[-75.49061,5.32552],[-75.49061,5.32556],[-75.49061,5.32561],[-75.49061,5.32562],[-75.49057,5.32576],[-75.49057,5.32579],[-75.49056,5.3258],[-75.49052,5.32591],[-75.49051,5.32593],[-75.49045,5.32605],[-75.49041,5.32611],[-75.4904,5.32613],[-75.49035,5.32621],[-75.49034,5.32622],[-75.49028,5.3263],[-75.49021,5.3264],[-75.49016,5.32648],[-75.49014,5.32651],[-75.49008,5.32659],[-75.49006,5.32662],[-75.49013,5.32797]]],[[[-75.49059,5.321],[-75.49073,5.321],[-75.49095,5.32101],[-75.49098,5.32101],[-75.49098,5.32101],[-75.49099,5.3209],[-75.49123,5.32091],[-75.49128,5.32076],[-75.49137,5.32054],[-75.49138,5.32051],[-75.49142,5.32033],[-75.49144,5.32014],[-75.49145,5.32009],[-75.49142,5.32009],[-75.49133,5.32009],[-75.4913,5.32008],[-75.49126,5.32007],[-75.49119,5.32005],[-75.49116,5.32004],[-75.49114,5.32004],[-75.49106,5.32],[-75.49104,5.31998],[-75.49103,5.31997],[-75.49097,5.31993],[-75.49095,5.31991],[-75.49094,5.31991],[-75.4909,5.31987],[-75.49086,5.31984],[-75.49083,5.31982],[-75.49079,5.3198],[-75.49077,5.31979],[-75.49073,5.31976],[-75.49071,5.31975],[-75.49067,5.31974],[-75.49064,5.31973],[-75.49058,5.31971],[-75.49057,5.3197],[-75.49053,5.31968],[-75.49052,5.31967],[-75.49045,5.31965],[-75.49043,5.31965],[-75.49032,5.31961],[-75.49032,5.31961],[-75.49023,5.31957],[-75.49015,5.31954],[-75.49015,5.31954],[-75.49004,5.31949],[-75.49002,5.31948],[-75.48995,5.31945],[-75.48993,5.31944],[-75.4899,5.31941],[-75.48985,5.31936],[-75.48982,5.31934],[-75.48982,5.31934],[-75.48982,5.31933],[-75.48982,5.31933],[-75.4898,5.31931],[-75.48981,5.31944],[-75.48984,5.31991],[-75.48986,5.32058],[-75.48986,5.32059],[-75.48993,5.32062],[-75.48995,5.32063],[-75.49001,5.32065],[-75.49006,5.32067],[-75.49009,5.32068],[-75.49011,5.32068],[-75.49015,5.3207],[-75.4902,5.32073],[-75.49025,5.32074],[-75.49027,5.32076],[-75.49028,5.32077],[-75.4902,5.3208],[-75.49017,5.32082],[-75.49008,5.32086],[-75.49004,5.32088],[-75.49005,5.321],[-75.49014,5.321],[-75.49015,5.321],[-75.4903,5.321],[-75.49042,5.321],[-75.49059,5.321],[-75.49059,5.321]]],[[[-75.49308,5.31917],[-75.49311,5.31917],[-75.49317,5.31918],[-75.49322,5.31919],[-75.49323,5.31919],[-75.49329,5.3192],[-75.49329,5.31921],[-75.49333,5.31922],[-75.49334,5.31922],[-75.49338,5.31923],[-75.4934,5.31923],[-75.49345,5.31921],[-75.49353,5.31903],[-75.49365,5.31877],[-75.49376,5.31858],[-75.49387,5.31847],[-75.49413,5.31843],[-75.49444,5.31839],[-75.49449,5.31832],[-75.4945,5.31832],[-75.49445,5.3183],[-75.49444,5.31829],[-75.49439,5.31826],[-75.49431,5.31823],[-75.49422,5.31819],[-75.49412,5.31816],[-75.49403,5.31814],[-75.49399,5.31814],[-75.49393,5.31813],[-75.49386,5.31812],[-75.49379,5.31811],[-75.49372,5.31811],[-75.49363,5.31811],[-75.49358,5.31811],[-75.49346,5.31812],[-75.49341,5.31812],[-75.4934,5.31812],[-75.49336,5.31811],[-75.4933,5.3181],[-75.49322,5.31809],[-75.49314,5.31808],[-75.49305,5.31808],[-75.493,5.31808],[-75.49297,5.31808],[-75.49291,5.31808],[-75.49287,5.31808],[-75.49282,5.31808],[-75.49277,5.31808],[-75.49273,5.31809],[-75.49269,5.31808],[-75.49264,5.31808],[-75.49257,5.31807],[-75.49253,5.31807],[-75.49252,5.31807],[-75.49248,5.31807],[-75.49247,5.31807],[-75.49241,5.31807],[-75.49233,5.31807],[-75.49226,5.31807],[-75.49221,5.31808],[-75.49212,5.31809],[-75.49204,5.31811],[-75.49195,5.31813],[-75.4919,5.31814],[-75.49183,5.31817],[-75.49176,5.31819],[-75.49169,5.31823],[-75.49162,5.31826],[-75.49173,5.31799],[-75.49174,5.31798],[-75.49182,5.31777],[-75.49183,5.31775],[-75.49184,5.31772],[-75.49194,5.31744],[-75.49201,5.31726],[-75.49214,5.31696],[-75.49216,5.31691],[-75.49223,5.31682],[-75.49229,5.31673],[-75.49236,5.31669],[-75.49242,5.31665],[-75.49248,5.3166],[-75.49254,5.31655],[-75.49256,5.31653],[-75.49257,5.31652],[-75.49262,5.31649],[-75.49266,5.31645],[-75.4927,5.31641],[-75.49272,5.31641],[-75.49279,5.31638],[-75.49292,5.31633],[-75.49294,5.31632],[-75.49303,5.31628],[-75.49312,5.31623],[-75.4932,5.31617],[-75.49328,5.31611],[-75.49335,5.31604],[-75.49342,5.31597],[-75.49348,5.3159],[-75.49351,5.31586],[-75.49355,5.3158],[-75.49358,5.31575],[-75.49363,5.31567],[-75.49368,5.31558],[-75.49372,5.31549],[-75.49375,5.3154],[-75.49377,5.3153],[-75.49379,5.3152],[-75.4938,5.31515],[-75.49379,5.31515],[-75.49377,5.31515],[-75.49363,5.31513],[-75.49342,5.31513],[-75.49322,5.31517],[-75.4931,5.31521],[-75.49309,5.31521],[-75.49284,5.31528],[-75.49265,5.31535],[-75.49262,5.31536],[-75.49258,5.31537],[-75.49253,5.31537],[-75.49249,5.31536],[-75.49248,5.31536],[-75.49245,5.31535],[-75.49238,5.31538],[-75.49234,5.31539],[-75.49223,5.31542],[-75.49208,5.31548],[-75.49201,5.31553],[-75.49199,5.31557],[-75.49197,5.31561],[-75.49194,5.31564],[-75.49192,5.31566],[-75.49187,5.3157],[-75.49181,5.31575],[-75.49178,5.31577],[-75.49175,5.31579],[-75.49167,5.31583],[-75.49157,5.3159],[-75.49148,5.31598],[-75.49146,5.31602],[-75.49195,5.31622],[-75.49195,5.31624],[-75.49192,5.31629],[-75.4919,5.31633],[-75.49188,5.31636],[-75.49184,5.31642],[-75.49183,5.31644],[-75.4918,5.31648],[-75.4918,5.31649],[-75.49169,5.31663],[-75.49164,5.31675],[-75.49164,5.31675],[-75.49151,5.31705],[-75.49143,5.31725],[-75.49133,5.31754],[-75.49131,5.31757],[-75.49123,5.31778],[-75.49123,5.31779],[-75.49112,5.31806],[-75.49112,5.31806],[-75.4911,5.3181],[-75.49107,5.31815],[-75.49105,5.3182],[-75.49092,5.31839],[-75.49086,5.31849],[-75.49084,5.31851],[-75.49079,5.3186],[-75.49078,5.31862],[-75.49085,5.31864],[-75.49089,5.31865],[-75.49094,5.31867],[-75.49099,5.31869],[-75.49102,5.31871],[-75.49106,5.31872],[-75.49111,5.31874],[-75.49115,5.31876],[-75.49122,5.31879],[-75.49123,5.3188],[-75.49128,5.31882],[-75.49132,5.31885],[-75.49134,5.31886],[-75.49134,5.31886],[-75.49134,5.31886],[-75.49136,5.31887],[-75.49141,5.3189],[-75.49145,5.31892],[-75.4915,5.31895],[-75.49152,5.31895],[-75.4916,5.31892],[-75.49164,5.3189],[-75.49167,5.31888],[-75.49168,5.31887],[-75.49171,5.31885],[-75.49175,5.31882],[-75.49177,5.3188],[-75.49182,5.31878],[-75.49188,5.31874],[-75.49188,5.31874],[-75.49193,5.31871],[-75.49197,5.31869],[-75.49202,5.31867],[-75.49206,5.31866],[-75.4921,5.31865],[-75.49212,5.31864],[-75.49217,5.31863],[-75.49223,5.31862],[-75.49226,5.31862],[-75.49231,5.31861],[-75.49233,5.31861],[-75.49238,5.31861],[-75.4924,5.31861],[-75.49246,5.31861],[-75.49246,5.31861],[-75.49251,5.31861],[-75.49254,5.31861],[-75.49254,5.31861],[-75.4926,5.31862],[-75.49265,5.31862],[-75.49267,5.31863],[-75.49271,5.31863],[-75.49273,5.31863],[-75.49275,5.31863],[-75.49277,5.31863],[-75.49283,5.31863],[-75.49292,5.31863],[-75.49296,5.31862],[-75.49283,5.31917],[-75.49288,5.31917],[-75.49289,5.31917],[-75.49293,5.31917],[-75.493,5.31917],[-75.493,5.31917],[-75.49306,5.31917],[-75.49308,5.31917]]],[[[-75.49298,5.31452],[-75.493,5.31461],[-75.49309,5.31463],[-75.4931,5.31454],[-75.49316,5.31446],[-75.49322,5.31457],[-75.49322,5.31461],[-75.49334,5.31459],[-75.49337,5.31458],[-75.49339,5.31458],[-75.49366,5.31458],[-75.49367,5.31458],[-75.49374,5.31452],[-75.4937,5.31442],[-75.49366,5.31433],[-75.49363,5.31427],[-75.4936,5.31421],[-75.4936,5.3142],[-75.49356,5.31414],[-75.49358,5.31412],[-75.49363,5.31407],[-75.49368,5.31401],[-75.49376,5.31391],[-75.49377,5.3139],[-75.49383,5.31382],[-75.49383,5.31381],[-75.49389,5.31373],[-75.49394,5.31365],[-75.49398,5.31356],[-75.49401,5.3135],[-75.49404,5.31342],[-75.49405,5.31339],[-75.49407,5.31336],[-75.49402,5.31334],[-75.49396,5.31326],[-75.49387,5.31314],[-75.49373,5.31313],[-75.49366,5.31325],[-75.49357,5.31321],[-75.49339,5.31323],[-75.49325,5.31315],[-75.4931,5.31312],[-75.49306,5.31317],[-75.49297,5.31316],[-75.49291,5.31323],[-75.49283,5.31333],[-75.49281,5.31336],[-75.49274,5.31343],[-75.49273,5.31344],[-75.49271,5.31346],[-75.49261,5.31353],[-75.49253,5.31359],[-75.49252,5.3136],[-75.49242,5.31368],[-75.49241,5.31368],[-75.49233,5.31374],[-75.49226,5.31379],[-75.49219,5.31386],[-75.49218,5.31387],[-75.4921,5.31394],[-75.49209,5.31395],[-75.49199,5.31402],[-75.49197,5.31404],[-75.49196,5.31404],[-75.49185,5.31411],[-75.49183,5.31412],[-75.4918,5.31413],[-75.49166,5.31418],[-75.49165,5.31418],[-75.4916,5.3142],[-75.4916,5.3142],[-75.49159,5.31424],[-75.49161,5.31425],[-75.49165,5.31427],[-75.49168,5.31428],[-75.49169,5.31428],[-75.49176,5.31429],[-75.49182,5.31429],[-75.49183,5.31429],[-75.49192,5.3143],[-75.49193,5.3143],[-75.49198,5.31431],[-75.49202,5.31431],[-75.49203,5.31431],[-75.49206,5.31432],[-75.49211,5.31433],[-75.49212,5.31433],[-75.49216,5.31434],[-75.4922,5.31436],[-75.49224,5.31437],[-75.49231,5.3144],[-75.49235,5.31442],[-75.49239,5.31444],[-75.49242,5.31447],[-75.49248,5.31451],[-75.49251,5.31453],[-75.49254,5.31456],[-75.49257,5.3146],[-75.4926,5.31461],[-75.49269,5.31456],[-75.49274,5.31448],[-75.49279,5.3144],[-75.49288,5.31438],[-75.49295,5.31443],[-75.49298,5.31452]]],[[[-75.49022,5.31315],[-75.49025,5.31328],[-75.49025,5.31328],[-75.49021,5.31335],[-75.4902,5.31337],[-75.49016,5.31343],[-75.49012,5.31353],[-75.49011,5.31355],[-75.49007,5.31364],[-75.49004,5.31373],[-75.49002,5.31379],[-75.49003,5.31379],[-75.49025,5.31381],[-75.49031,5.31379],[-75.49035,5.31375],[-75.49037,5.31364],[-75.49038,5.31361],[-75.4904,5.31353],[-75.4904,5.31345],[-75.49043,5.31343],[-75.49044,5.31339],[-75.49047,5.31336],[-75.49048,5.31334],[-75.4905,5.31332],[-75.4905,5.31332],[-75.49053,5.3133],[-75.49057,5.31327],[-75.49061,5.31326],[-75.49066,5.31325],[-75.49068,5.31325],[-75.49085,5.31325],[-75.49088,5.31325],[-75.49089,5.31315],[-75.49105,5.31313],[-75.49105,5.31316],[-75.49117,5.31308],[-75.49121,5.31306],[-75.49122,5.31305],[-75.49137,5.313],[-75.49154,5.31294],[-75.49156,5.31293],[-75.49159,5.31286],[-75.49166,5.31272],[-75.49167,5.31272],[-75.49168,5.31269],[-75.49171,5.31265],[-75.49172,5.31263],[-75.49175,5.3126],[-75.49179,5.31256],[-75.49182,5.31254],[-75.49183,5.31253],[-75.4919,5.31249],[-75.49193,5.31248],[-75.49195,5.31247],[-75.49199,5.31245],[-75.49201,5.31245],[-75.49204,5.31244],[-75.49208,5.31244],[-75.49209,5.31243],[-75.49209,5.31243],[-75.49216,5.31234],[-75.49216,5.31233],[-75.49216,5.3123],[-75.49216,5.31224],[-75.49216,5.31221],[-75.49216,5.31218],[-75.49217,5.31215],[-75.49222,5.31201],[-75.49224,5.31197],[-75.4923,5.31187],[-75.49235,5.31176],[-75.49236,5.31173],[-75.49238,5.3117],[-75.4924,5.31168],[-75.49222,5.3116],[-75.49228,5.31143],[-75.49237,5.31146],[-75.49237,5.31144],[-75.49255,5.31145],[-75.49254,5.31154],[-75.49256,5.31153],[-75.4926,5.31151],[-75.4926,5.31151],[-75.49268,5.31148],[-75.49272,5.31147],[-75.49277,5.31146],[-75.49281,5.31146],[-75.49287,5.31147],[-75.49296,5.31148],[-75.49298,5.31144],[-75.49306,5.31129],[-75.49308,5.31125],[-75.49309,5.31124],[-75.49317,5.31114],[-75.49324,5.31105],[-75.49325,5.31104],[-75.49327,5.31101],[-75.49336,5.31092],[-75.49338,5.31089],[-75.49334,5.31088],[-75.49327,5.31094],[-75.49324,5.31096],[-75.49321,5.31097],[-75.49319,5.31099],[-75.49309,5.31103],[-75.49306,5.31104],[-75.49302,5.31104],[-75.49299,5.31104],[-75.49278,5.31104],[-75.49277,5.31104],[-75.49274,5.31104],[-75.49267,5.31103],[-75.49265,5.31107],[-75.49259,5.31104],[-75.49256,5.31101],[-75.49254,5.31102],[-75.49253,5.31102],[-75.49251,5.31102],[-75.4925,5.31102],[-75.49246,5.31102],[-75.4924,5.31103],[-75.49238,5.31103],[-75.49229,5.31108],[-75.49231,5.31109],[-75.49237,5.31111],[-75.49245,5.31108],[-75.49251,5.31111],[-75.49258,5.31114],[-75.49264,5.31119],[-75.4927,5.31124],[-75.49265,5.31128],[-75.49259,5.31124],[-75.49256,5.31127],[-75.49249,5.31127],[-75.49249,5.31134],[-75.49246,5.31141],[-75.49239,5.31143],[-75.49234,5.31141],[-75.49229,5.31136],[-75.49226,5.31126],[-75.49226,5.31125],[-75.49224,5.3112],[-75.4922,5.31108],[-75.49217,5.311],[-75.49205,5.31098],[-75.4919,5.31097],[-75.4918,5.31097],[-75.49169,5.31097],[-75.49157,5.31098],[-75.49148,5.31099],[-75.49137,5.311],[-75.49131,5.31102],[-75.4912,5.31107],[-75.49113,5.31112],[-75.49112,5.31113],[-75.49103,5.31126],[-75.4908,5.31168],[-75.49078,5.3117],[-75.49072,5.3118],[-75.49071,5.31181],[-75.4907,5.31182],[-75.49063,5.3119],[-75.49062,5.31191],[-75.49062,5.31194],[-75.49088,5.3124],[-75.4905,5.31271],[-75.49044,5.31282],[-75.49027,5.31304],[-75.49022,5.31315]]]]},"properties":{"FID":0,"OBJECTID":1,"Condicion":"Condicion de amenaza por movimientos en masa en suelo rural","Suelo":"Parcelación vivienda campestre","Area_ha":29.224992112,"RuleID":1,"Shape_Leng":8709.25163643,"Shape_Area":292249.92112}},{"type":"Feature","id":1,"geometry":{"type":"MultiPolygon","coordinates":[[[[-75.49084,5.32293],[-75.49085,5.32326],[-75.49086,5.32345],[-75.49087,5.32357],[-75.49089,5.32363],[-75.49089,5.32364],[-75.4909,5.32371],[-75.49093,5.32382],[-75.49094,5.32385],[-75.49095,5.32392],[-75.49096,5.32396],[-75.49097,5.32406],[-75.49098,5.32407],[-75.49098,5.32408],[-75.49099,5.3242],[-75.49099,5.32422],[-75.49099,5.32437],[-75.491,5.32447],[-75.491,5.32447],[-75.491,5.32456],[-75.491,5.32458],[-75.491,5.32462],[-75.49099,5.32472],[-75.49098,5.32479],[-75.49097,5.32486],[-75.49097,5.32488],[-75.49096,5.32492],[-75.49093,5.32499],[-75.49092,5.32501],[-75.4909,5.32507],[-75.49093,5.32508],[-75.49112,5.32516],[-75.4914,5.32528],[-75.49142,5.32524],[-75.49143,5.32521],[-75.49144,5.32517],[-75.49147,5.3251],[-75.49147,5.32509],[-75.49148,5.32504],[-75.4915,5.32499],[-75.49151,5.32494],[-75.49151,5.32492],[-75.49151,5.32485],[-75.49152,5.32479],[-75.49154,5.32471],[-75.49154,5.32468],[-75.49154,5.32463],[-75.49155,5.32458],[-75.49154,5.32452],[-75.49154,5.32444],[-75.49154,5.32444],[-75.49154,5.32441],[-75.49153,5.32434],[-75.49153,5.32422],[-75.49153,5.32416],[-75.49153,5.32415],[-75.49152,5.32409],[-75.49152,5.32404],[-75.49151,5.324],[-75.49151,5.32398],[-75.49149,5.32388],[-75.49149,5.32387],[-75.49147,5.32376],[-75.49147,5.32373],[-75.49146,5.32368],[-75.49145,5.32367],[-75.49143,5.32358],[-75.49142,5.32355],[-75.49142,5.32353],[-75.49141,5.3235],[-75.49141,5.32348],[-75.4914,5.32342],[-75.49138,5.32291],[-75.49138,5.3229],[-75.49137,5.32276],[-75.4914,5.32276],[-75.49142,5.32275],[-75.49148,5.32274],[-75.4915,5.32274],[-75.49155,5.32273],[-75.49162,5.32271],[-75.49165,5.32271],[-75.4917,5.3227],[-75.49188,5.32265],[-75.49203,5.32261],[-75.49214,5.32259],[-75.49219,5.32258],[-75.49224,5.32256],[-75.49229,5.32255],[-75.49229,5.32254],[-75.49229,5.32254],[-75.49246,5.32247],[-75.49247,5.32247],[-75.49251,5.32245],[-75.49255,5.32243],[-75.49263,5.32238],[-75.49263,5.32238],[-75.49268,5.32235],[-75.49269,5.32234],[-75.49277,5.32229],[-75.4928,5.32226],[-75.49285,5.32223],[-75.49288,5.32219],[-75.49292,5.32215],[-75.49295,5.32211],[-75.49298,5.32207],[-75.49308,5.32193],[-75.49308,5.32192],[-75.4931,5.3219],[-75.49311,5.32188],[-75.49312,5.32186],[-75.4932,5.32171],[-75.49321,5.32168],[-75.49324,5.32164],[-75.49324,5.32163],[-75.49328,5.32153],[-75.49328,5.32153],[-75.4933,5.32148],[-75.49334,5.32134],[-75.49334,5.32134],[-75.49335,5.32132],[-75.49338,5.32122],[-75.49339,5.32119],[-75.4934,5.32116],[-75.49339,5.32116],[-75.49328,5.32111],[-75.49316,5.32109],[-75.49287,5.321],[-75.49287,5.32103],[-75.49286,5.32106],[-75.49283,5.32116],[-75.49283,5.32117],[-75.49278,5.32131],[-75.49278,5.32133],[-75.49278,5.32133],[-75.49274,5.32143],[-75.49272,5.32146],[-75.49264,5.3216],[-75.49263,5.32162],[-75.49253,5.32177],[-75.49251,5.3218],[-75.49249,5.32182],[-75.49246,5.32184],[-75.49238,5.3219],[-75.49237,5.3219],[-75.49236,5.32191],[-75.49228,5.32196],[-75.49225,5.32197],[-75.49218,5.322],[-75.49208,5.32204],[-75.49204,5.32206],[-75.49203,5.32206],[-75.492,5.32207],[-75.49191,5.32209],[-75.49175,5.32212],[-75.49156,5.32217],[-75.49154,5.32218],[-75.49145,5.32219],[-75.49138,5.32221],[-75.49134,5.32222],[-75.49125,5.32223],[-75.49125,5.32229],[-75.4911,5.32233],[-75.49094,5.32246],[-75.49085,5.32233],[-75.49082,5.32239],[-75.49081,5.32245],[-75.49084,5.32293]],[[-75.49136,5.3227],[-75.49134,5.32278],[-75.49125,5.32274],[-75.49131,5.32267],[-75.49136,5.3227]]],[[[-75.4907,5.31916],[-75.49074,5.31917],[-75.49078,5.3192],[-75.4908,5.31921],[-75.49082,5.31922],[-75.49086,5.31923],[-75.49087,5.31923],[-75.49091,5.31925],[-75.49092,5.31925],[-75.49099,5.31928],[-75.49102,5.3193],[-75.49104,5.31931],[-75.49107,5.31933],[-75.49111,5.31935],[-75.49115,5.31937],[-75.49118,5.31939],[-75.49126,5.31946],[-75.49126,5.31947],[-75.49127,5.31947],[-75.4913,5.3195],[-75.49133,5.31952],[-75.49137,5.31954],[-75.49138,5.31954],[-75.49142,5.31954],[-75.49146,5.31954],[-75.4915,5.31953],[-75.49155,5.31952],[-75.49163,5.31948],[-75.49167,5.31947],[-75.49177,5.31944],[-75.49178,5.31944],[-75.49182,5.31943],[-75.49186,5.31941],[-75.49188,5.31939],[-75.49189,5.31939],[-75.49196,5.31933],[-75.49197,5.31932],[-75.49202,5.31929],[-75.49207,5.31926],[-75.49208,5.31925],[-75.49209,5.31925],[-75.49215,5.31921],[-75.49218,5.31919],[-75.49221,5.31918],[-75.49226,5.31917],[-75.49227,5.31917],[-75.49231,5.31916],[-75.49236,5.31915],[-75.49239,5.31915],[-75.49245,5.31915],[-75.49249,5.31916],[-75.4925,5.31916],[-75.49257,5.31916],[-75.49259,5.31916],[-75.49264,5.31917],[-75.49268,5.31917],[-75.49273,5.31917],[-75.49275,5.31917],[-75.4928,5.31917],[-75.49283,5.31917],[-75.4929,5.31888],[-75.49296,5.31862],[-75.49292,5.31863],[-75.49283,5.31863],[-75.49277,5.31863],[-75.49275,5.31863],[-75.49273,5.31863],[-75.49271,5.31863],[-75.49267,5.31863],[-75.49265,5.31862],[-75.4926,5.31862],[-75.49254,5.31861],[-75.49254,5.31861],[-75.49251,5.31861],[-75.49246,5.31861],[-75.49246,5.31861],[-75.4924,5.31861],[-75.49238,5.31861],[-75.49233,5.31861],[-75.49231,5.31861],[-75.49226,5.31862],[-75.49223,5.31862],[-75.49217,5.31863],[-75.49212,5.31864],[-75.4921,5.31865],[-75.49206,5.31866],[-75.49202,5.31867],[-75.49197,5.31869],[-75.49193,5.31871],[-75.49188,5.31874],[-75.49188,5.31874],[-75.49182,5.31878],[-75.49177,5.3188],[-75.49175,5.31882],[-75.49173,5.31883],[-75.49171,5.31885],[-75.49168,5.31887],[-75.49167,5.31888],[-75.49164,5.3189],[-75.4916,5.31892],[-75.49152,5.31895],[-75.4915,5.31895],[-75.49145,5.31892],[-75.49141,5.3189],[-75.49138,5.31888],[-75.49136,5.31887],[-75.49134,5.31886],[-75.49134,5.31886],[-75.49134,5.31886],[-75.49132,5.31885],[-75.49128,5.31882],[-75.49123,5.3188],[-75.49122,5.31879],[-75.49122,5.31879],[-75.49115,5.31876],[-75.49111,5.31874],[-75.49106,5.31872],[-75.49102,5.31871],[-75.49099,5.31869],[-75.49094,5.31867],[-75.49089,5.31865],[-75.49085,5.31864],[-75.49078,5.31862],[-75.49079,5.3186],[-75.49084,5.31851],[-75.49086,5.31849],[-75.49092,5.31839],[-75.49105,5.3182],[-75.49107,5.31815],[-75.4911,5.3181],[-75.49112,5.31806],[-75.49112,5.31806],[-75.49123,5.31779],[-75.49123,5.31778],[-75.49131,5.31757],[-75.49133,5.31754],[-75.49134,5.31751],[-75.49136,5.31746],[-75.49138,5.31738],[-75.49139,5.31735],[-75.49143,5.31725],[-75.49151,5.31705],[-75.49164,5.31675],[-75.49164,5.31675],[-75.49169,5.31663],[-75.4918,5.31649],[-75.4918,5.31648],[-75.49183,5.31644],[-75.49184,5.31642],[-75.49188,5.31636],[-75.4919,5.31633],[-75.49192,5.31629],[-75.49195,5.31624],[-75.49195,5.31622],[-75.49146,5.31602],[-75.49138,5.31613],[-75.49137,5.31616],[-75.49122,5.31635],[-75.49114,5.31653],[-75.49101,5.31684],[-75.49092,5.31705],[-75.49089,5.31716],[-75.49088,5.31717],[-75.49082,5.31736],[-75.49081,5.31737],[-75.49073,5.31758],[-75.49062,5.31785],[-75.49061,5.31787],[-75.49059,5.3179],[-75.49046,5.3181],[-75.49039,5.31821],[-75.49039,5.31822],[-75.49032,5.31833],[-75.49026,5.31845],[-75.49024,5.31854],[-75.49022,5.31865],[-75.49021,5.31867],[-75.49019,5.31876],[-75.49019,5.31877],[-75.49021,5.31885],[-75.49021,5.31886],[-75.49021,5.31887],[-75.49022,5.31895],[-75.49023,5.31898],[-75.49027,5.319],[-75.49036,5.31904],[-75.49042,5.31907],[-75.49051,5.3191],[-75.4906,5.31913],[-75.4907,5.31916]],[[-75.49038,5.31855],[-75.49034,5.31869],[-75.49024,5.31868],[-75.49026,5.31859],[-75.4903,5.31855],[-75.49038,5.31855]]]]},"properties":{"FID":1,"OBJECTID":3,"Condicion":"Condicion de amenaza por movimientos en masa en suelo rural","Suelo":"Corredor vial","Area_ha":7.23421809092,"RuleID":1,"Shape_Leng":2776.28792098,"Shape_Area":72342.1809092}},{"type":"Feature","id":2,"geometry":{"type":"MultiPolygon","coordinates":[[[[-75.49907,5.32139],[-75.49906,5.3214],[-75.49882,5.32162],[-75.4988,5.32163],[-75.49875,5.32172],[-75.49869,5.3219],[-75.49861,5.32225],[-75.49861,5.32225],[-75.49869,5.3223],[-75.49874,5.32232],[-75.49883,5.32236],[-75.49915,5.32249],[-75.49915,5.32254],[-75.49932,5.32244],[-75.49947,5.32236],[-75.49983,5.32218],[-75.49984,5.32216],[-75.49987,5.32197],[-75.49994,5.32182],[-75.50006,5.32166],[-75.50015,5.3215],[-75.50021,5.32136],[-75.50024,5.32126],[-75.50026,5.32114],[-75.50029,5.32101],[-75.50026,5.32086],[-75.5002,5.32075],[-75.50012,5.32066],[-75.50007,5.32055],[-75.50001,5.32042],[-75.49997,5.32028],[-75.49997,5.32014],[-75.5,5.32],[-75.50004,5.3199],[-75.50008,5.3198],[-75.50009,5.31976],[-75.5001,5.31967],[-75.50013,5.31951],[-75.50013,5.31937],[-75.50013,5.31935],[-75.50033,5.31935],[-75.50037,5.31943],[-75.50038,5.31941],[-75.5004,5.31925],[-75.50047,5.31871],[-75.50058,5.31785],[-75.50057,5.3178],[-75.50054,5.31744],[-75.50046,5.31667],[-75.50034,5.31613],[-75.5002,5.31614],[-75.50016,5.31614],[-75.50011,5.31613],[-75.50007,5.31612],[-75.50003,5.3161],[-75.5,5.31607],[-75.49997,5.31604],[-75.49994,5.316],[-75.49992,5.31596],[-75.49992,5.31596],[-75.49991,5.31592],[-75.49991,5.31587],[-75.49991,5.31583],[-75.49992,5.31578],[-75.49994,5.31574],[-75.49996,5.31571],[-75.49999,5.31567],[-75.50003,5.31564],[-75.50005,5.31563],[-75.50007,5.31547],[-75.50007,5.31547],[-75.49998,5.31545],[-75.49998,5.31545],[-75.49997,5.31545],[-75.49994,5.31548],[-75.4999,5.31551],[-75.49986,5.31553],[-75.49982,5.31554],[-75.49978,5.31555],[-75.49973,5.31555],[-75.49971,5.31555],[-75.49943,5.31551],[-75.49938,5.3155],[-75.49934,5.31549],[-75.4993,5.31547],[-75.49919,5.31542],[-75.49914,5.31541],[-75.49907,5.31541],[-75.49905,5.31541],[-75.49896,5.31543],[-75.49887,5.31543],[-75.49878,5.31556],[-75.49874,5.31565],[-75.49873,5.31567],[-75.49872,5.31568],[-75.49865,5.31579],[-75.49855,5.31601],[-75.49846,5.31623],[-75.49844,5.3163],[-75.49844,5.31635],[-75.49844,5.31638],[-75.49845,5.3164],[-75.49849,5.31644],[-75.49849,5.31645],[-75.49857,5.31653],[-75.49859,5.31654],[-75.49859,5.31655],[-75.49864,5.31661],[-75.49867,5.31665],[-75.49874,5.31671],[-75.49875,5.31672],[-75.49881,5.31678],[-75.49889,5.31683],[-75.49889,5.31684],[-75.49896,5.31689],[-75.49899,5.31691],[-75.49902,5.31693],[-75.49903,5.31694],[-75.49909,5.317],[-75.49911,5.31702],[-75.49912,5.31704],[-75.49913,5.31706],[-75.49918,5.31715],[-75.49919,5.31718],[-75.4992,5.31721],[-75.4992,5.31724],[-75.4992,5.31728],[-75.49919,5.3173],[-75.49918,5.31738],[-75.49917,5.3174],[-75.49917,5.31743],[-75.49913,5.31755],[-75.49913,5.31757],[-75.49912,5.31758],[-75.49907,5.3177],[-75.49903,5.31779],[-75.499,5.31787],[-75.49894,5.318],[-75.49894,5.31801],[-75.49895,5.31803],[-75.49897,5.31806],[-75.499,5.31809],[-75.49905,5.31812],[-75.49911,5.31817],[-75.49914,5.31819],[-75.49916,5.31822],[-75.49921,5.31828],[-75.49922,5.31831],[-75.49924,5.31834],[-75.49924,5.31838],[-75.49925,5.31843],[-75.49925,5.31843],[-75.4993,5.31849],[-75.49931,5.31851],[-75.49933,5.31853],[-75.49934,5.31855],[-75.49944,5.31884],[-75.49949,5.31897],[-75.49952,5.31906],[-75.49953,5.31908],[-75.49955,5.31917],[-75.49958,5.31928],[-75.49959,5.31929],[-75.49959,5.31933],[-75.49959,5.31946],[-75.49959,5.31949],[-75.49958,5.31952],[-75.49957,5.31955],[-75.49956,5.31957],[-75.49954,5.31959],[-75.49942,5.31974],[-75.49941,5.31976],[-75.49941,5.31977],[-75.49941,5.31981],[-75.49941,5.31988],[-75.4994,5.32009],[-75.4994,5.32011],[-75.49936,5.32042],[-75.49935,5.3205],[-75.49932,5.32066],[-75.49932,5.32067],[-75.49932,5.32068],[-75.4992,5.32121],[-75.4992,5.32124],[-75.49918,5.32127],[-75.49917,5.32129],[-75.49915,5.32132],[-75.49914,5.32132],[-75.49913,5.32136],[-75.49911,5.32135],[-75.49907,5.32139]],[[-75.49996,5.31911],[-75.49974,5.31912],[-75.49972,5.31867],[-75.49994,5.31866],[-75.49996,5.31911]],[[-75.49981,5.31852],[-75.49971,5.31853],[-75.49971,5.3184],[-75.4998,5.31839],[-75.49981,5.31852]],[[-75.49998,5.31827],[-75.50011,5.31826],[-75.50013,5.31843],[-75.5,5.31843],[-75.49998,5.31827]],[[-75.49986,5.31828],[-75.49964,5.31823],[-75.49964,5.31803],[-75.49985,5.31803],[-75.49986,5.31828]],[[-75.50002,5.31819],[-75.49999,5.31789],[-75.49993,5.31784],[-75.49969,5.31786],[-75.49969,5.31782],[-75.49969,5.31757],[-75.49985,5.31752],[-75.49989,5.3176],[-75.49993,5.3176],[-75.49994,5.31778],[-75.49997,5.31778],[-75.49997,5.31775],[-75.50003,5.31775],[-75.50003,5.31779],[-75.50009,5.31779],[-75.50008,5.31796],[-75.50004,5.31796],[-75.50005,5.31808],[-75.50016,5.31808],[-75.50015,5.3182],[-75.50003,5.3182],[-75.50002,5.31819]],[[-75.50018,5.31743],[-75.50002,5.31747],[-75.49999,5.31744],[-75.49994,5.31744],[-75.49995,5.31738],[-75.50015,5.31732],[-75.50018,5.31743]],[[-75.50002,5.31731],[-75.49996,5.31726],[-75.50012,5.31713],[-75.50019,5.31719],[-75.50022,5.31725],[-75.50016,5.31727],[-75.50014,5.31722],[-75.50002,5.31731]]],[[[-75.49667,5.31129],[-75.4967,5.31131],[-75.4967,5.31131],[-75.49674,5.31132],[-75.49684,5.31132],[-75.49709,5.31128],[-75.49711,5.31128],[-75.49711,5.31128],[-75.49728,5.31127],[-75.4973,5.31127],[-75.49741,5.31127],[-75.49741,5.31127],[-75.49743,5.31127],[-75.49746,5.31127],[-75.49754,5.31129],[-75.49757,5.3113],[-75.49758,5.3113],[-75.49761,5.31118],[-75.49759,5.31116],[-75.49757,5.31114],[-75.49755,5.31111],[-75.49749,5.31102],[-75.49746,5.31097],[-75.49745,5.31096],[-75.49744,5.31094],[-75.49742,5.31089],[-75.49741,5.31087],[-75.4974,5.31084],[-75.4974,5.31081],[-75.4974,5.31074],[-75.49739,5.31067],[-75.49737,5.31054],[-75.49737,5.31051],[-75.49737,5.31049],[-75.49738,5.3104],[-75.49737,5.31034],[-75.49738,5.31031],[-75.49738,5.3103],[-75.49739,5.31024],[-75.4974,5.31021],[-75.49742,5.31018],[-75.49743,5.31015],[-75.49747,5.31011],[-75.49749,5.31009],[-75.49751,5.31008],[-75.49755,5.31005],[-75.49761,5.31001],[-75.49761,5.31],[-75.49761,5.30997],[-75.49761,5.30986],[-75.49762,5.30983],[-75.49762,5.30976],[-75.49763,5.30976],[-75.49763,5.30974],[-75.49764,5.30966],[-75.49764,5.30963],[-75.49758,5.30964],[-75.49754,5.30965],[-75.49748,5.30966],[-75.49747,5.30966],[-75.49743,5.30966],[-75.49737,5.30966],[-75.49736,5.30965],[-75.49733,5.30965],[-75.49728,5.30964],[-75.49726,5.30964],[-75.49723,5.30963],[-75.49718,5.30961],[-75.49717,5.3096],[-75.49716,5.3096],[-75.49698,5.30952],[-75.49697,5.30951],[-75.49672,5.30938],[-75.49663,5.30934],[-75.49649,5.30929],[-75.49643,5.30929],[-75.49639,5.30929],[-75.49635,5.3093],[-75.49635,5.30931],[-75.49636,5.30931],[-75.49636,5.30932],[-75.49636,5.30933],[-75.49636,5.30933],[-75.49636,5.30934],[-75.49637,5.30935],[-75.49637,5.30935],[-75.49637,5.30936],[-75.49637,5.30937],[-75.49637,5.30938],[-75.49636,5.30938],[-75.49636,5.30939],[-75.49636,5.3094],[-75.49636,5.30941],[-75.49635,5.30942],[-75.49635,5.30942],[-75.49635,5.30943],[-75.49634,5.30944],[-75.49633,5.30946],[-75.49633,5.30947],[-75.49632,5.30949],[-75.49626,5.30959],[-75.49622,5.30967],[-75.49618,5.30975],[-75.49613,5.30985],[-75.49612,5.30987],[-75.49611,5.30988],[-75.4961,5.3099],[-75.4961,5.30991],[-75.49609,5.30992],[-75.49609,5.30993],[-75.49608,5.30994],[-75.49608,5.30994],[-75.49607,5.30995],[-75.49606,5.30996],[-75.49606,5.30996],[-75.49605,5.30997],[-75.49605,5.30997],[-75.49605,5.30997],[-75.49611,5.31002],[-75.4962,5.31002],[-75.49624,5.31007],[-75.49614,5.31013],[-75.49605,5.31017],[-75.49594,5.3101],[-75.4958,5.31005],[-75.49571,5.31],[-75.49569,5.30995],[-75.49566,5.30998],[-75.49563,5.31],[-75.49561,5.31002],[-75.49557,5.31004],[-75.49554,5.31006],[-75.49548,5.3101],[-75.49533,5.31021],[-75.49531,5.31022],[-75.4953,5.31023],[-75.49528,5.31024],[-75.49526,5.31025],[-75.49525,5.31027],[-75.49524,5.31027],[-75.49524,5.31028],[-75.49523,5.31028],[-75.49522,5.31029],[-75.49521,5.3103],[-75.4952,5.31031],[-75.49519,5.31033],[-75.49516,5.31037],[-75.49515,5.31038],[-75.49514,5.3104],[-75.49513,5.31041],[-75.49512,5.31041],[-75.49511,5.31042],[-75.4951,5.31044],[-75.49509,5.31044],[-75.49508,5.31045],[-75.49506,5.31046],[-75.49505,5.31048],[-75.49502,5.3105],[-75.495,5.31051],[-75.49493,5.31057],[-75.49516,5.31058],[-75.49556,5.31069],[-75.49601,5.31072],[-75.49611,5.31102],[-75.49615,5.31102],[-75.49619,5.31103],[-75.49628,5.31104],[-75.49629,5.31105],[-75.49633,5.31106],[-75.49645,5.31111],[-75.49647,5.31112],[-75.4965,5.31114],[-75.49655,5.31117],[-75.49658,5.31119],[-75.4966,5.31121],[-75.49667,5.31129]]],[[[-75.49002,5.29671],[-75.49006,5.29672],[-75.49045,5.29676],[-75.49098,5.29681],[-75.49101,5.29674],[-75.49102,5.29672],[-75.49103,5.2967],[-75.49105,5.29666],[-75.49108,5.29662],[-75.49112,5.29656],[-75.49112,5.29656],[-75.49113,5.29655],[-75.49115,5.29653],[-75.49118,5.2965],[-75.49122,5.29645],[-75.49137,5.29629],[-75.49147,5.29612],[-75.49151,5.29605],[-75.49155,5.2959],[-75.49157,5.29579],[-75.49159,5.29567],[-75.49162,5.29539],[-75.49163,5.29536],[-75.49163,5.29535],[-75.49164,5.29529],[-75.49164,5.29525],[-75.49164,5.29517],[-75.49164,5.29501],[-75.49164,5.29496],[-75.49164,5.29489],[-75.49164,5.29482],[-75.49164,5.29479],[-75.49164,5.29478],[-75.49159,5.2947],[-75.49158,5.29468],[-75.49158,5.29468],[-75.49154,5.2946],[-75.49153,5.29457],[-75.49151,5.29454],[-75.4915,5.2945],[-75.49148,5.29438],[-75.49148,5.29435],[-75.49147,5.29429],[-75.49145,5.29431],[-75.49143,5.29439],[-75.49134,5.2945],[-75.49126,5.29458],[-75.49117,5.29462],[-75.49113,5.29475],[-75.49114,5.29485],[-75.49114,5.2949],[-75.49107,5.2949],[-75.49098,5.29493],[-75.49088,5.29492],[-75.49075,5.29492],[-75.49065,5.29489],[-75.49056,5.29487],[-75.49054,5.29488],[-75.49056,5.29491],[-75.49058,5.29495],[-75.49059,5.29499],[-75.49059,5.29504],[-75.49059,5.29508],[-75.49058,5.29512],[-75.49056,5.29517],[-75.49054,5.2952],[-75.49051,5.29524],[-75.49047,5.29526],[-75.49042,5.29529],[-75.49044,5.29532],[-75.49037,5.29542],[-75.4903,5.29552],[-75.49027,5.29561],[-75.49026,5.29568],[-75.49024,5.29577],[-75.4902,5.29583],[-75.49013,5.29603],[-75.49011,5.29612],[-75.49002,5.29671]],[[-75.49091,5.29648],[-75.49078,5.2966],[-75.49072,5.29652],[-75.49085,5.2964],[-75.49091,5.29648]]],[[[-75.48847,5.2932],[-75.48841,5.29344],[-75.48853,5.29365],[-75.48874,5.29401],[-75.48876,5.29407],[-75.48877,5.29408],[-75.48878,5.29408],[-75.48879,5.29412],[-75.48881,5.29422],[-75.48882,5.29437],[-75.48885,5.29451],[-75.48892,5.29463],[-75.489,5.29475],[-75.48902,5.29485],[-75.48908,5.29492],[-75.48911,5.29501],[-75.48912,5.29505],[-75.48911,5.29516],[-75.48909,5.29525],[-75.48909,5.29534],[-75.48909,5.29539],[-75.48913,5.29542],[-75.48981,5.29481],[-75.49039,5.29423],[-75.49054,5.29378],[-75.49064,5.29345],[-75.49055,5.29336],[-75.49052,5.29333],[-75.49038,5.29317],[-75.4903,5.29308],[-75.49028,5.29305],[-75.49026,5.29302],[-75.4902,5.29289],[-75.49012,5.29279],[-75.49005,5.2927],[-75.48995,5.29262],[-75.48987,5.29257],[-75.48984,5.29254],[-75.48983,5.29253],[-75.48972,5.29242],[-75.48965,5.29236],[-75.48956,5.29229],[-75.48954,5.29228],[-75.48944,5.29219],[-75.48943,5.29218],[-75.48943,5.29218],[-75.48941,5.29216],[-75.48931,5.29205],[-75.48929,5.29204],[-75.48921,5.29193],[-75.48915,5.29186],[-75.48914,5.29185],[-75.48905,5.29173],[-75.48902,5.2917],[-75.48892,5.29151],[-75.48887,5.29164],[-75.4888,5.29191],[-75.48871,5.29225],[-75.48863,5.29256],[-75.48854,5.29291],[-75.48847,5.2932]],[[-75.49001,5.29291],[-75.48992,5.29299],[-75.48964,5.29263],[-75.48972,5.29255],[-75.49001,5.29291]]],[[[-75.49065,5.2926],[-75.49067,5.29262],[-75.49067,5.29263],[-75.49072,5.29274],[-75.49078,5.2928],[-75.4908,5.29282],[-75.49092,5.29297],[-75.49094,5.29299],[-75.49103,5.29307],[-75.49109,5.2931],[-75.49102,5.29296],[-75.49102,5.29292],[-75.49102,5.29273],[-75.49102,5.2927],[-75.49096,5.29242],[-75.49089,5.2922],[-75.49088,5.29214],[-75.49082,5.29215],[-75.49077,5.29201],[-75.49085,5.29197],[-75.49084,5.29187],[-75.4908,5.29174],[-75.49076,5.29162],[-75.49069,5.29157],[-75.49062,5.29152],[-75.49062,5.29132],[-75.49065,5.29126],[-75.49051,5.2911],[-75.49045,5.29104],[-75.49037,5.29095],[-75.4903,5.29092],[-75.48991,5.29076],[-75.48965,5.29071],[-75.48952,5.2907],[-75.48945,5.2907],[-75.48941,5.2907],[-75.4894,5.2907],[-75.48938,5.2907],[-75.48935,5.29069],[-75.48927,5.29067],[-75.48926,5.29066],[-75.48918,5.29084],[-75.48919,5.29087],[-75.48938,5.29123],[-75.48949,5.29142],[-75.48956,5.29152],[-75.4897,5.29168],[-75.4898,5.29178],[-75.48988,5.29186],[-75.48997,5.29192],[-75.49,5.29194],[-75.49009,5.29202],[-75.4901,5.29203],[-75.4902,5.29214],[-75.49026,5.29218],[-75.49028,5.29219],[-75.4903,5.29221],[-75.4904,5.29229],[-75.49042,5.2923],[-75.49044,5.29233],[-75.49054,5.29245],[-75.49055,5.29245],[-75.49056,5.29247],[-75.4906,5.29252],[-75.49065,5.2926]],[[-75.49094,5.29257],[-75.49083,5.29259],[-75.49079,5.29242],[-75.49089,5.29239],[-75.49094,5.29257]]],[[[-75.55036,5.21362],[-75.55028,5.21379],[-75.55019,5.21403],[-75.55026,5.21423],[-75.55043,5.21445],[-75.55051,5.21458],[-75.55056,5.21477],[-75.55027,5.21494],[-75.55015,5.21503],[-75.55043,5.21533],[-75.55073,5.21563],[-75.55084,5.2158],[-75.55098,5.21585],[-75.55152,5.21575],[-75.55199,5.2157],[-75.55199,5.21558],[-75.55202,5.21548],[-75.55212,5.21538],[-75.55214,5.21524],[-75.55215,5.2152],[-75.55216,5.21517],[-75.55218,5.21513],[-75.55221,5.2151],[-75.55235,5.21495],[-75.55255,5.21448],[-75.55257,5.21435],[-75.55255,5.21424],[-75.55249,5.2141],[-75.55248,5.21406],[-75.55247,5.21402],[-75.55246,5.21387],[-75.55246,5.21383],[-75.55247,5.21379],[-75.55248,5.21376],[-75.55252,5.21364],[-75.55253,5.21363],[-75.55254,5.21359],[-75.55256,5.21356],[-75.55259,5.21353],[-75.5526,5.21349],[-75.55262,5.21345],[-75.55264,5.21341],[-75.55267,5.21338],[-75.55271,5.21335],[-75.55274,5.21333],[-75.55278,5.21331],[-75.55279,5.21326],[-75.55275,5.21314],[-75.55274,5.2131],[-75.55274,5.21305],[-75.55274,5.21278],[-75.55274,5.21273],[-75.55274,5.21272],[-75.55276,5.21265],[-75.55276,5.21263],[-75.55257,5.21249],[-75.55254,5.21246],[-75.55251,5.21243],[-75.55249,5.2124],[-75.5524,5.21222],[-75.55238,5.21218],[-75.55232,5.21199],[-75.55231,5.21195],[-75.55231,5.21193],[-75.55229,5.2118],[-75.55225,5.21179],[-75.55203,5.21177],[-75.55196,5.21179],[-75.55186,5.21185],[-75.55158,5.21206],[-75.55157,5.21206],[-75.55155,5.21207],[-75.55125,5.21224],[-75.5512,5.21229],[-75.55119,5.21229],[-75.55119,5.2123],[-75.55108,5.21246],[-75.55096,5.21263],[-75.55093,5.21268],[-75.55087,5.21292],[-75.55078,5.213],[-75.55072,5.21306],[-75.55074,5.21321],[-75.55085,5.21337],[-75.55086,5.21354],[-75.55066,5.21354],[-75.55051,5.21347],[-75.55036,5.21362]]]]},"properties":{"FID":2,"OBJECTID":4,"Condicion":"Condicion de amenaza por movimientos en masa en suelo rural","Suelo":"Vivienda campestre","Area_ha":32.2485417414,"RuleID":1,"Shape_Leng":7873.19134613,"Shape_Area":322485.417414}},{"type":"Feature","id":3,"geometry":{"type":"Polygon","coordinates":[[[-75.49991,5.31184],[-75.49987,5.31184],[-75.49984,5.31192],[-75.49983,5.31195],[-75.49981,5.31197],[-75.4998,5.312],[-75.49972,5.31207],[-75.49971,5.31208],[-75.49968,5.3121],[-75.49959,5.31215],[-75.49958,5.31216],[-75.4995,5.3122],[-75.49945,5.31223],[-75.49945,5.31231],[-75.49944,5.31246],[-75.49944,5.31256],[-75.49944,5.31259],[-75.49944,5.31261],[-75.49942,5.3127],[-75.49941,5.31272],[-75.4994,5.31274],[-75.49936,5.31282],[-75.49934,5.31284],[-75.49933,5.31286],[-75.49931,5.31288],[-75.49921,5.31297],[-75.4992,5.31297],[-75.4991,5.31305],[-75.49905,5.31311],[-75.499,5.31317],[-75.49898,5.31321],[-75.49898,5.31322],[-75.49898,5.31327],[-75.49899,5.3133],[-75.49901,5.31337],[-75.49902,5.31339],[-75.49904,5.31349],[-75.49905,5.31351],[-75.49905,5.31354],[-75.49905,5.31356],[-75.49904,5.31366],[-75.49904,5.31369],[-75.49903,5.31372],[-75.49901,5.31375],[-75.49899,5.31377],[-75.49897,5.31379],[-75.49893,5.31383],[-75.49893,5.31384],[-75.49891,5.31394],[-75.49887,5.31412],[-75.49885,5.31424],[-75.49885,5.31426],[-75.49883,5.31435],[-75.49882,5.31447],[-75.49882,5.31448],[-75.49881,5.3146],[-75.49881,5.31461],[-75.49889,5.31467],[-75.4989,5.31468],[-75.49891,5.3147],[-75.49896,5.31471],[-75.49898,5.31472],[-75.49906,5.31475],[-75.4992,5.31482],[-75.49921,5.31482],[-75.4994,5.31492],[-75.4995,5.31497],[-75.4998,5.31501],[-75.49982,5.31502],[-75.49986,5.31503],[-75.4999,5.31505],[-75.49994,5.31508],[-75.49997,5.31511],[-75.49999,5.31515],[-75.50001,5.31519],[-75.50001,5.31519],[-75.50002,5.31524],[-75.50003,5.31528],[-75.50002,5.31532],[-75.50006,5.31532],[-75.50008,5.31532],[-75.50009,5.31532],[-75.5001,5.31527],[-75.50011,5.31518],[-75.50011,5.31514],[-75.50011,5.31507],[-75.50015,5.31496],[-75.50015,5.31492],[-75.50018,5.31483],[-75.50018,5.3148],[-75.5002,5.31465],[-75.50021,5.31464],[-75.50023,5.31448],[-75.50023,5.31447],[-75.50025,5.31438],[-75.50025,5.31437],[-75.50027,5.31429],[-75.50027,5.31428],[-75.50028,5.31425],[-75.50028,5.3142],[-75.50029,5.31415],[-75.50029,5.31413],[-75.50032,5.31406],[-75.50035,5.31398],[-75.50036,5.31394],[-75.5004,5.31387],[-75.50043,5.3138],[-75.50049,5.31365],[-75.50052,5.3136],[-75.50054,5.31358],[-75.50059,5.31345],[-75.50059,5.31327],[-75.50059,5.31325],[-75.50059,5.31321],[-75.50059,5.31313],[-75.50059,5.31312],[-75.5006,5.31308],[-75.50063,5.313],[-75.50068,5.31288],[-75.50069,5.31277],[-75.50069,5.31271],[-75.50068,5.31256],[-75.50068,5.31235],[-75.50067,5.31222],[-75.50067,5.31209],[-75.50067,5.31195],[-75.50067,5.31185],[-75.50068,5.31182],[-75.50066,5.31182],[-75.50059,5.31182],[-75.50051,5.31182],[-75.50038,5.31178],[-75.50024,5.31173],[-75.50013,5.31172],[-75.50001,5.31178],[-75.49991,5.31184]]]},"properties":{"FID":3,"OBJECTID":5,"Condicion":"Condicion de amenaza por movimientos en masa en suelo rural","Suelo":"Parcelación vivienda campestre","Area_ha":5.17032932076,"RuleID":1,"Shape_Leng":1021.23413455,"Shape_Area":51703.2932076}},{"type":"Feature","id":4,"geometry":{"type":"Polygon","coordinates":[[[-75.49381,5.31264],[-75.49382,5.31266],[-75.49385,5.3127],[-75.49394,5.31283],[-75.49399,5.31295],[-75.49411,5.31308],[-75.49416,5.31307],[-75.4942,5.31313],[-75.49425,5.31325],[-75.49427,5.31339],[-75.49427,5.31339],[-75.49426,5.31339],[-75.49418,5.31339],[-75.49407,5.31336],[-75.49405,5.31339],[-75.49404,5.31342],[-75.49401,5.3135],[-75.49398,5.31356],[-75.49394,5.31365],[-75.49389,5.31373],[-75.49383,5.31381],[-75.49383,5.31382],[-75.49377,5.3139],[-75.49376,5.31391],[-75.49368,5.31401],[-75.49363,5.31407],[-75.49358,5.31412],[-75.49356,5.31414],[-75.4936,5.3142],[-75.4936,5.31421],[-75.49363,5.31427],[-75.49366,5.31433],[-75.4937,5.31442],[-75.49374,5.31452],[-75.49407,5.31441],[-75.49458,5.31424],[-75.49458,5.31423],[-75.4946,5.31414],[-75.49466,5.31421],[-75.49497,5.31421],[-75.49547,5.3142],[-75.49663,5.31406],[-75.49663,5.31406],[-75.49663,5.31396],[-75.49667,5.31388],[-75.49675,5.31382],[-75.49679,5.31374],[-75.49678,5.31364],[-75.49683,5.31356],[-75.49689,5.31363],[-75.4969,5.31372],[-75.49693,5.31381],[-75.49699,5.3139],[-75.49708,5.31391],[-75.49717,5.31391],[-75.49718,5.31391],[-75.49722,5.31395],[-75.49725,5.31397],[-75.49727,5.31401],[-75.49728,5.31403],[-75.49729,5.31405],[-75.49738,5.31403],[-75.49743,5.31395],[-75.49747,5.31387],[-75.49758,5.31387],[-75.49766,5.31381],[-75.49773,5.31375],[-75.4978,5.3137],[-75.49792,5.31362],[-75.49801,5.31359],[-75.4981,5.31357],[-75.49819,5.31359],[-75.49824,5.31366],[-75.49823,5.31376],[-75.49814,5.31379],[-75.49804,5.31379],[-75.49795,5.31382],[-75.49788,5.31387],[-75.49782,5.31395],[-75.49776,5.31402],[-75.49764,5.3141],[-75.49756,5.31415],[-75.49755,5.31416],[-75.49805,5.31436],[-75.49841,5.31451],[-75.49842,5.31445],[-75.49842,5.31431],[-75.49843,5.31429],[-75.49843,5.31427],[-75.49845,5.31417],[-75.49847,5.31405],[-75.49847,5.31404],[-75.49851,5.31386],[-75.49854,5.31373],[-75.49854,5.3137],[-75.49856,5.31368],[-75.49859,5.3136],[-75.49861,5.31358],[-75.49862,5.31356],[-75.49864,5.31355],[-75.49863,5.31351],[-75.4986,5.31342],[-75.49859,5.31339],[-75.49858,5.31337],[-75.49858,5.3133],[-75.49858,5.31328],[-75.49858,5.31321],[-75.49858,5.31317],[-75.49859,5.31311],[-75.4986,5.31308],[-75.4986,5.31306],[-75.49864,5.31298],[-75.49865,5.31297],[-75.49866,5.31294],[-75.49873,5.31285],[-75.49874,5.31285],[-75.49875,5.31284],[-75.49881,5.31276],[-75.49883,5.31275],[-75.49884,5.31274],[-75.49895,5.31265],[-75.49902,5.3126],[-75.49903,5.31258],[-75.49904,5.31253],[-75.49904,5.31245],[-75.49904,5.31244],[-75.49904,5.31229],[-75.49905,5.31217],[-75.49905,5.31214],[-75.49906,5.31212],[-75.49907,5.3121],[-75.49911,5.312],[-75.49913,5.31198],[-75.49914,5.31196],[-75.49916,5.31194],[-75.49919,5.31192],[-75.49928,5.31186],[-75.49929,5.31185],[-75.4993,5.31185],[-75.49939,5.3118],[-75.49945,5.31176],[-75.49947,5.31174],[-75.49947,5.31173],[-75.49945,5.31169],[-75.49939,5.31168],[-75.49935,5.31172],[-75.49935,5.31173],[-75.49933,5.31177],[-75.49931,5.31181],[-75.49928,5.31184],[-75.49924,5.31187],[-75.4992,5.31189],[-75.49916,5.31191],[-75.49912,5.31191],[-75.49909,5.31192],[-75.49886,5.31191],[-75.49861,5.31192],[-75.49851,5.31193],[-75.49842,5.31196],[-75.49841,5.31196],[-75.49843,5.31199],[-75.49852,5.31206],[-75.49858,5.31211],[-75.49866,5.31215],[-75.49878,5.31221],[-75.49883,5.31225],[-75.49886,5.31228],[-75.49894,5.31233],[-75.49897,5.31234],[-75.49899,5.31245],[-75.49894,5.31252],[-75.49881,5.31253],[-75.49866,5.31251],[-75.49854,5.31237],[-75.49849,5.31232],[-75.49838,5.31218],[-75.49834,5.31213],[-75.49827,5.31206],[-75.4982,5.31198],[-75.49818,5.31198],[-75.49815,5.31198],[-75.49812,5.31198],[-75.49809,5.31198],[-75.498,5.31203],[-75.49782,5.31199],[-75.49766,5.31192],[-75.49744,5.31182],[-75.49738,5.31181],[-75.4973,5.31181],[-75.49716,5.31182],[-75.49699,5.31184],[-75.497,5.31195],[-75.49701,5.31221],[-75.497,5.31233],[-75.49698,5.31239],[-75.49695,5.31247],[-75.49693,5.31263],[-75.49693,5.31272],[-75.49687,5.31261],[-75.49683,5.31242],[-75.49686,5.31232],[-75.49689,5.31226],[-75.49687,5.31207],[-75.49687,5.31193],[-75.49686,5.31186],[-75.49686,5.31186],[-75.4967,5.31186],[-75.49668,5.31186],[-75.49664,5.31185],[-75.49655,5.31183],[-75.4965,5.31181],[-75.49649,5.31181],[-75.4964,5.31177],[-75.49637,5.31175],[-75.49635,5.31173],[-75.49631,5.3117],[-75.4963,5.31169],[-75.49628,5.31167],[-75.49622,5.3116],[-75.49615,5.31157],[-75.49613,5.31157],[-75.49609,5.31157],[-75.49608,5.31158],[-75.49605,5.31162],[-75.49604,5.31163],[-75.49601,5.31167],[-75.49599,5.31168],[-75.49597,5.31171],[-75.49595,5.31172],[-75.49594,5.31173],[-75.49592,5.31174],[-75.4959,5.31175],[-75.49584,5.31178],[-75.49582,5.31179],[-75.49578,5.31181],[-75.4957,5.31183],[-75.49566,5.31184],[-75.49564,5.31184],[-75.49555,5.31184],[-75.49553,5.31184],[-75.49552,5.31184],[-75.49547,5.31183],[-75.49545,5.31185],[-75.49541,5.31183],[-75.49538,5.31182],[-75.49528,5.3118],[-75.49526,5.31179],[-75.49511,5.31174],[-75.49495,5.31172],[-75.49468,5.31173],[-75.49445,5.31176],[-75.49428,5.3118],[-75.49415,5.31186],[-75.49406,5.31192],[-75.49394,5.31204],[-75.49393,5.31204],[-75.49392,5.31205],[-75.49385,5.31211],[-75.49383,5.31213],[-75.49364,5.31225],[-75.49362,5.31227],[-75.49347,5.31235],[-75.49346,5.31235],[-75.49336,5.3124],[-75.49331,5.31242],[-75.4933,5.31243],[-75.49329,5.31243],[-75.49328,5.31244],[-75.49306,5.31251],[-75.49301,5.31253],[-75.49298,5.31256],[-75.49295,5.31258],[-75.49297,5.3126],[-75.49299,5.31259],[-75.4932,5.31275],[-75.49332,5.31286],[-75.49339,5.31287],[-75.49343,5.31274],[-75.49351,5.31265],[-75.49365,5.3127],[-75.4937,5.31263],[-75.4937,5.31262],[-75.49379,5.31261],[-75.49381,5.31264],[-75.49379,5.31259],[-75.49371,5.31258],[-75.49375,5.31244],[-75.49385,5.31248],[-75.49391,5.31227],[-75.49401,5.31229],[-75.4939,5.31265],[-75.49381,5.31264]]]},"properties":{"FID":4,"OBJECTID":6,"Condicion":"Condicion de amenaza por movimientos en masa en suelo rural","Suelo":"Parcelación vivienda campestre","Area_ha":13.6947651105,"RuleID":1,"Shape_Leng":2870.77910763,"Shape_Area":136947.651105}},{"type":"Feature","id":5,"geometry":{"type":"Polygon","coordinates":[[[-75.49051,5.31002],[-75.49014,5.31009],[-75.48991,5.31013],[-75.48986,5.31013],[-75.48986,5.31014],[-75.4898,5.31024],[-75.48971,5.31038],[-75.4897,5.31042],[-75.4896,5.31058],[-75.48959,5.31059],[-75.48958,5.3106],[-75.48957,5.31062],[-75.48941,5.31074],[-75.48922,5.31099],[-75.48922,5.31099],[-75.4892,5.31101],[-75.48896,5.31123],[-75.48892,5.31126],[-75.48892,5.31127],[-75.48882,5.31137],[-75.48869,5.31151],[-75.48861,5.31163],[-75.48857,5.31172],[-75.48855,5.31178],[-75.48853,5.31186],[-75.4885,5.31195],[-75.4885,5.31196],[-75.48846,5.31212],[-75.48845,5.31214],[-75.48844,5.31216],[-75.48842,5.31218],[-75.48835,5.31226],[-75.48829,5.31232],[-75.48827,5.31234],[-75.48825,5.31235],[-75.48825,5.31235],[-75.48825,5.31238],[-75.48824,5.31246],[-75.48824,5.31248],[-75.48824,5.3125],[-75.48824,5.31251],[-75.48822,5.31258],[-75.48821,5.31262],[-75.48844,5.31284],[-75.48878,5.31294],[-75.48879,5.31292],[-75.48881,5.3129],[-75.48888,5.31282],[-75.48894,5.31276],[-75.48896,5.31273],[-75.4891,5.31257],[-75.48912,5.31254],[-75.48915,5.31252],[-75.48918,5.3125],[-75.48925,5.31245],[-75.4893,5.3124],[-75.48935,5.3123],[-75.48936,5.31228],[-75.48941,5.3122],[-75.48944,5.31213],[-75.48946,5.3121],[-75.48949,5.31207],[-75.48952,5.31204],[-75.48955,5.31202],[-75.48964,5.31197],[-75.4897,5.31194],[-75.48972,5.31193],[-75.48973,5.31192],[-75.48973,5.31192],[-75.48976,5.31191],[-75.48979,5.3119],[-75.48989,5.3118],[-75.4899,5.31179],[-75.48993,5.31177],[-75.49007,5.31168],[-75.4901,5.31166],[-75.49023,5.31154],[-75.49028,5.31148],[-75.49029,5.31146],[-75.49033,5.31141],[-75.49035,5.31136],[-75.49045,5.31118],[-75.49046,5.31116],[-75.49056,5.31098],[-75.49058,5.31095],[-75.49063,5.31089],[-75.49061,5.31064],[-75.4906,5.31062],[-75.4906,5.31044],[-75.49054,5.31042],[-75.49047,5.31035],[-75.4905,5.31023],[-75.49061,5.31022],[-75.49062,5.31018],[-75.49068,5.31],[-75.49051,5.31002]]]},"properties":{"FID":5,"OBJECTID":7,"Condicion":"Condicion de amenaza por movimientos en masa en suelo rural","Suelo":"Parcelación vivienda campestre","Area_ha":3.85157957043,"RuleID":1,"Shape_Leng":936.729408632,"Shape_Area":38515.7957043}},{"type":"Feature","id":6,"geometry":{"type":"Polygon","coordinates":[[[-75.50061,5.31167],[-75.50068,5.31174],[-75.50068,5.31174],[-75.50068,5.31159],[-75.50067,5.31146],[-75.50065,5.31134],[-75.50066,5.31121],[-75.50066,5.31119],[-75.50066,5.31112],[-75.50071,5.31108],[-75.50075,5.31104],[-75.50083,5.31094],[-75.50084,5.31092],[-75.50084,5.31092],[-75.50083,5.31091],[-75.50079,5.31085],[-75.50079,5.31084],[-75.50075,5.31079],[-75.50071,5.31074],[-75.50071,5.31073],[-75.50066,5.31066],[-75.50065,5.31067],[-75.5006,5.31069],[-75.50055,5.31071],[-75.50055,5.31071],[-75.50053,5.31072],[-75.50049,5.31073],[-75.50043,5.31074],[-75.50042,5.31074],[-75.50041,5.31074],[-75.50034,5.31075],[-75.50033,5.31075],[-75.50032,5.31075],[-75.50021,5.31074],[-75.50008,5.31074],[-75.50006,5.31073],[-75.50004,5.31073],[-75.50002,5.31072],[-75.50001,5.31071],[-75.49994,5.31066],[-75.49984,5.31059],[-75.49976,5.31055],[-75.49976,5.31055],[-75.49971,5.31053],[-75.49958,5.31048],[-75.49956,5.31047],[-75.49955,5.31046],[-75.49942,5.31038],[-75.49942,5.31037],[-75.49932,5.31029],[-75.49931,5.31028],[-75.4993,5.31027],[-75.49923,5.31018],[-75.49922,5.31017],[-75.49922,5.31015],[-75.49919,5.31008],[-75.49912,5.30994],[-75.49911,5.30992],[-75.4991,5.3099],[-75.49908,5.30978],[-75.49906,5.30967],[-75.49906,5.30965],[-75.49906,5.3096],[-75.49906,5.30958],[-75.49908,5.30944],[-75.4991,5.30934],[-75.4991,5.3093],[-75.4991,5.3093],[-75.49911,5.30927],[-75.49912,5.30925],[-75.49916,5.30913],[-75.49917,5.30905],[-75.49914,5.30901],[-75.49912,5.30899],[-75.49912,5.30899],[-75.49907,5.30898],[-75.49906,5.30898],[-75.49899,5.30897],[-75.49898,5.30897],[-75.49892,5.30895],[-75.49891,5.30895],[-75.49889,5.30894],[-75.49883,5.3089],[-75.49881,5.30889],[-75.49881,5.30889],[-75.49881,5.30889],[-75.4988,5.30888],[-75.4988,5.30888],[-75.4988,5.30888],[-75.49879,5.30887],[-75.49879,5.30886],[-75.49879,5.30886],[-75.49878,5.30885],[-75.49873,5.30875],[-75.49868,5.30868],[-75.49862,5.30861],[-75.49858,5.30857],[-75.49847,5.30849],[-75.49846,5.30849],[-75.49846,5.30849],[-75.49845,5.30848],[-75.49843,5.30846],[-75.49837,5.30857],[-75.49827,5.30874],[-75.4982,5.30882],[-75.49816,5.30883],[-75.49816,5.30883],[-75.49818,5.30885],[-75.4982,5.30887],[-75.49821,5.3089],[-75.49824,5.30895],[-75.49825,5.30897],[-75.49826,5.309],[-75.49826,5.30903],[-75.49849,5.30902],[-75.49861,5.30901],[-75.49865,5.30901],[-75.49869,5.30902],[-75.49873,5.30903],[-75.49877,5.30905],[-75.49881,5.30908],[-75.49884,5.30911],[-75.49886,5.30915],[-75.49888,5.30919],[-75.49889,5.30924],[-75.4989,5.30928],[-75.49889,5.30933],[-75.49888,5.30937],[-75.49886,5.30941],[-75.49884,5.30945],[-75.49881,5.30948],[-75.49877,5.30951],[-75.49873,5.30953],[-75.49869,5.30954],[-75.49865,5.30955],[-75.49864,5.30955],[-75.49849,5.30956],[-75.49827,5.30957],[-75.49824,5.30957],[-75.4981,5.30957],[-75.49809,5.30958],[-75.49806,5.30962],[-75.49805,5.30964],[-75.49805,5.30968],[-75.49804,5.30971],[-75.49803,5.30981],[-75.49802,5.30987],[-75.49802,5.31],[-75.49802,5.31003],[-75.498,5.31012],[-75.49799,5.31015],[-75.49798,5.31018],[-75.49796,5.3102],[-75.49791,5.31027],[-75.49789,5.3103],[-75.49787,5.31032],[-75.49779,5.31038],[-75.49778,5.31038],[-75.49778,5.31041],[-75.49778,5.31043],[-75.49777,5.3105],[-75.49779,5.31061],[-75.49779,5.31063],[-75.4978,5.31071],[-75.4978,5.31072],[-75.4978,5.31075],[-75.49783,5.31079],[-75.49783,5.3108],[-75.49788,5.31087],[-75.4979,5.31089],[-75.49794,5.31092],[-75.498,5.31095],[-75.49803,5.31097],[-75.49809,5.31098],[-75.4981,5.31098],[-75.49817,5.31101],[-75.49827,5.31102],[-75.49831,5.31102],[-75.49836,5.31102],[-75.4984,5.31101],[-75.49843,5.311],[-75.49848,5.31099],[-75.49849,5.31099],[-75.49854,5.31098],[-75.49863,5.31097],[-75.49864,5.31097],[-75.49869,5.31096],[-75.49873,5.31095],[-75.49875,5.31094],[-75.49878,5.31094],[-75.49884,5.31094],[-75.4989,5.31092],[-75.49891,5.31092],[-75.49892,5.31092],[-75.49898,5.31091],[-75.499,5.31091],[-75.49908,5.31091],[-75.49909,5.31091],[-75.49914,5.31092],[-75.49921,5.31092],[-75.49924,5.31092],[-75.49927,5.31093],[-75.49929,5.31094],[-75.49932,5.31096],[-75.49935,5.31098],[-75.4994,5.311],[-75.49943,5.31102],[-75.49945,5.31105],[-75.49947,5.31107],[-75.4995,5.31112],[-75.49953,5.31115],[-75.49954,5.31116],[-75.49961,5.31123],[-75.49962,5.31124],[-75.49969,5.31133],[-75.49976,5.31141],[-75.49978,5.31144],[-75.49978,5.31145],[-75.49982,5.31152],[-75.49997,5.31154],[-75.50002,5.31155],[-75.50019,5.31161],[-75.5003,5.31165],[-75.50037,5.31166],[-75.50038,5.31166],[-75.50042,5.31167],[-75.50045,5.31167],[-75.50047,5.31168],[-75.50054,5.31165],[-75.50061,5.31167]]]},"properties":{"FID":6,"OBJECTID":8,"Condicion":"Condicion de amenaza por movimientos en masa en suelo rural","Suelo":"Parcelación vivienda campestre","Area_ha":4.16458737649,"RuleID":1,"Shape_Leng":1335.89808439,"Shape_Area":41645.8737649}},{"type":"Feature","id":7,"geometry":{"type":"Polygon","coordinates":[[[-75.54977,5.25163],[-75.54977,5.25164],[-75.5498,5.25161],[-75.54988,5.25164],[-75.54988,5.25163],[-75.54988,5.25162],[-75.54989,5.25154],[-75.54988,5.25147],[-75.54988,5.25135],[-75.54989,5.25131],[-75.54989,5.25128],[-75.5499,5.25124],[-75.5499,5.25124],[-75.54986,5.25113],[-75.54994,5.25103],[-75.54995,5.25101],[-75.55,5.25092],[-75.55008,5.25081],[-75.5502,5.25078],[-75.5502,5.25075],[-75.5502,5.25072],[-75.5502,5.25071],[-75.55024,5.25055],[-75.55025,5.25052],[-75.55025,5.25051],[-75.55027,5.25045],[-75.55029,5.25042],[-75.55029,5.25042],[-75.55029,5.25041],[-75.55029,5.25031],[-75.55025,5.2501],[-75.55024,5.25006],[-75.55024,5.25002],[-75.55025,5.24999],[-75.55028,5.24981],[-75.55016,5.24983],[-75.55006,5.2497],[-75.54998,5.24965],[-75.54994,5.24962],[-75.54992,5.24961],[-75.5499,5.24964],[-75.54987,5.24967],[-75.54986,5.24969],[-75.54982,5.24988],[-75.54972,5.24973],[-75.54964,5.2497],[-75.54943,5.24958],[-75.54943,5.24951],[-75.54944,5.24947],[-75.54934,5.24932],[-75.54921,5.2493],[-75.54896,5.24929],[-75.54878,5.24926],[-75.54862,5.24921],[-75.54845,5.24915],[-75.54826,5.24905],[-75.54826,5.24905],[-75.54821,5.2491],[-75.54821,5.24911],[-75.54821,5.24919],[-75.54821,5.24929],[-75.54821,5.24933],[-75.5482,5.2494],[-75.54819,5.24944],[-75.54818,5.24947],[-75.54816,5.24949],[-75.54813,5.24955],[-75.54812,5.24957],[-75.54809,5.24965],[-75.54808,5.24966],[-75.54807,5.24967],[-75.54806,5.24969],[-75.54806,5.2497],[-75.54805,5.24971],[-75.54803,5.24972],[-75.54803,5.24973],[-75.54802,5.24974],[-75.548,5.24975],[-75.54799,5.24976],[-75.54798,5.24977],[-75.54786,5.24984],[-75.54781,5.24988],[-75.54779,5.24989],[-75.54775,5.24992],[-75.54765,5.24996],[-75.54765,5.24996],[-75.54759,5.25],[-75.54755,5.25001],[-75.54745,5.25006],[-75.54744,5.25006],[-75.54738,5.25009],[-75.54736,5.2501],[-75.54725,5.25013],[-75.54723,5.25014],[-75.54722,5.25014],[-75.54712,5.25016],[-75.54709,5.25017],[-75.547,5.25018],[-75.5469,5.25021],[-75.54684,5.25023],[-75.54683,5.25029],[-75.54681,5.25035],[-75.5468,5.25034],[-75.54681,5.25035],[-75.54691,5.25046],[-75.54694,5.25047],[-75.54701,5.25049],[-75.54711,5.2505],[-75.54719,5.2505],[-75.54736,5.25046],[-75.54739,5.25046],[-75.54741,5.25046],[-75.54759,5.25046],[-75.54761,5.25046],[-75.54764,5.25047],[-75.54785,5.25051],[-75.54786,5.25051],[-75.54787,5.25051],[-75.548,5.25055],[-75.54803,5.25056],[-75.54811,5.25059],[-75.54812,5.2506],[-75.54815,5.25062],[-75.5483,5.25071],[-75.54834,5.25074],[-75.54834,5.25074],[-75.54849,5.25088],[-75.54865,5.25102],[-75.54874,5.25109],[-75.54881,5.25114],[-75.5489,5.25118],[-75.54901,5.25122],[-75.54906,5.25123],[-75.54929,5.25126],[-75.54932,5.25126],[-75.54934,5.25127],[-75.54941,5.25129],[-75.54943,5.2513],[-75.54946,5.25132],[-75.54953,5.25135],[-75.54954,5.25136],[-75.54956,5.25138],[-75.54962,5.25143],[-75.54963,5.25144],[-75.54966,5.25146],[-75.54971,5.25152],[-75.54973,5.25156],[-75.54975,5.2516],[-75.54977,5.25163]]]},"properties":{"FID":7,"OBJECTID":9,"Condicion":"Condicion de amenaza por movimientos en masa en suelo rural","Suelo":"Parcelación vivienda campestre","Area_ha":5.12923250506,"RuleID":1,"Shape_Leng":1153.31222928,"Shape_Area":51292.3250506}},{"type":"Feature","id":8,"geometry":{"type":"Polygon","coordinates":[[[-75.54687,5.25712],[-75.54683,5.2572],[-75.54683,5.25724],[-75.54683,5.25729],[-75.54685,5.25733],[-75.54688,5.25737],[-75.54691,5.25742],[-75.54692,5.25742],[-75.54698,5.25745],[-75.54716,5.25743],[-75.54718,5.25743],[-75.5472,5.2574],[-75.54722,5.25739],[-75.54724,5.25737],[-75.54727,5.25735],[-75.54729,5.25734],[-75.54742,5.25723],[-75.54744,5.25721],[-75.54747,5.25719],[-75.54758,5.25714],[-75.54762,5.25712],[-75.54765,5.25711],[-75.54782,5.25708],[-75.54786,5.25707],[-75.54788,5.25707],[-75.54794,5.25707],[-75.54801,5.25707],[-75.54803,5.25707],[-75.54815,5.25708],[-75.54819,5.25708],[-75.54823,5.25709],[-75.54829,5.25711],[-75.54833,5.25711],[-75.54845,5.25708],[-75.54845,5.25708],[-75.54852,5.25704],[-75.5486,5.25695],[-75.54868,5.25689],[-75.54864,5.25687],[-75.54872,5.25677],[-75.54875,5.2568],[-75.54877,5.25677],[-75.54879,5.25674],[-75.54881,5.25671],[-75.54855,5.25646],[-75.54849,5.25631],[-75.5485,5.25626],[-75.54863,5.25601],[-75.54874,5.25589],[-75.54872,5.25586],[-75.54871,5.25584],[-75.54869,5.25581],[-75.54868,5.25578],[-75.54866,5.25566],[-75.54865,5.25564],[-75.54865,5.25562],[-75.54864,5.25551],[-75.54864,5.25548],[-75.54864,5.25546],[-75.54864,5.25545],[-75.54858,5.25536],[-75.54855,5.25526],[-75.54843,5.2552],[-75.54832,5.25508],[-75.54837,5.25503],[-75.54842,5.25497],[-75.54852,5.25496],[-75.54862,5.25496],[-75.54862,5.25496],[-75.54861,5.25492],[-75.5486,5.25488],[-75.5486,5.2548],[-75.5486,5.25476],[-75.5486,5.25472],[-75.54861,5.25468],[-75.54863,5.25464],[-75.54866,5.25459],[-75.54868,5.25456],[-75.54875,5.25446],[-75.54877,5.25443],[-75.5488,5.25441],[-75.54883,5.25439],[-75.54886,5.25438],[-75.54899,5.25432],[-75.54901,5.25431],[-75.54912,5.25427],[-75.54913,5.25426],[-75.54913,5.25425],[-75.54912,5.25423],[-75.54912,5.25418],[-75.54912,5.25412],[-75.54912,5.25401],[-75.5491,5.25392],[-75.54909,5.25388],[-75.54908,5.25386],[-75.54905,5.25378],[-75.54902,5.25371],[-75.54899,5.25362],[-75.54898,5.25361],[-75.54896,5.25354],[-75.54886,5.25335],[-75.54885,5.25334],[-75.54882,5.25327],[-75.54881,5.25324],[-75.54878,5.25317],[-75.54878,5.25316],[-75.54877,5.25314],[-75.54874,5.25304],[-75.54872,5.25296],[-75.54871,5.25292],[-75.54868,5.25277],[-75.54868,5.25273],[-75.54868,5.25269],[-75.54869,5.25265],[-75.5487,5.2526],[-75.54868,5.25259],[-75.54842,5.25249],[-75.54838,5.25247],[-75.54835,5.25244],[-75.54821,5.25233],[-75.54811,5.25242],[-75.54798,5.25252],[-75.54786,5.25262],[-75.5477,5.25264],[-75.54751,5.25262],[-75.54743,5.25246],[-75.54757,5.25243],[-75.54776,5.2524],[-75.54781,5.25228],[-75.54796,5.25222],[-75.54801,5.2522],[-75.54789,5.25214],[-75.54787,5.25213],[-75.54786,5.25212],[-75.54774,5.25203],[-75.54759,5.25198],[-75.54751,5.25198],[-75.54741,5.25203],[-75.5474,5.25203],[-75.54736,5.25205],[-75.54713,5.25211],[-75.54709,5.25211],[-75.54708,5.25211],[-75.5468,5.25213],[-75.54678,5.25213],[-75.54656,5.25213],[-75.54652,5.25212],[-75.5465,5.25212],[-75.54652,5.2523],[-75.54652,5.25234],[-75.54651,5.25237],[-75.54651,5.2524],[-75.54647,5.25253],[-75.54645,5.25256],[-75.54644,5.2526],[-75.54642,5.25262],[-75.54631,5.25276],[-75.54624,5.25285],[-75.54623,5.25286],[-75.54606,5.25348],[-75.54611,5.25345],[-75.5462,5.25344],[-75.54622,5.25342],[-75.54627,5.2533],[-75.54629,5.25321],[-75.54633,5.25313],[-75.54638,5.25308],[-75.54647,5.25305],[-75.54652,5.25306],[-75.54658,5.25309],[-75.54663,5.25318],[-75.54668,5.25325],[-75.54668,5.25331],[-75.54661,5.25341],[-75.54658,5.25344],[-75.54656,5.25354],[-75.54656,5.25366],[-75.54657,5.25375],[-75.54654,5.2538],[-75.54653,5.25386],[-75.54654,5.2539],[-75.54655,5.25401],[-75.54653,5.25413],[-75.54658,5.25418],[-75.54664,5.25423],[-75.54665,5.2543],[-75.54662,5.25433],[-75.54657,5.25435],[-75.54657,5.25445],[-75.54653,5.25454],[-75.54648,5.25464],[-75.54642,5.25474],[-75.54636,5.25481],[-75.54632,5.25488],[-75.54627,5.25502],[-75.54621,5.2551],[-75.54617,5.25519],[-75.54615,5.25527],[-75.54615,5.25536],[-75.5462,5.25541],[-75.54626,5.25545],[-75.54635,5.25553],[-75.54645,5.25559],[-75.54651,5.25564],[-75.54658,5.25566],[-75.54662,5.25573],[-75.54665,5.25581],[-75.54671,5.25594],[-75.54675,5.25603],[-75.54683,5.2561],[-75.54687,5.25614],[-75.54695,5.25619],[-75.547,5.25624],[-75.54704,5.25636],[-75.54706,5.25646],[-75.54703,5.25652],[-75.54698,5.25655],[-75.54692,5.25658],[-75.54692,5.25664],[-75.54693,5.25677],[-75.54694,5.25691],[-75.54687,5.25712]],[[-75.5468,5.25559],[-75.54673,5.25561],[-75.54674,5.25557],[-75.54675,5.25552],[-75.5468,5.25551],[-75.5468,5.25559]],[[-75.54694,5.25546],[-75.54681,5.25548],[-75.54681,5.25535],[-75.54678,5.25535],[-75.5468,5.25525],[-75.54681,5.25521],[-75.54694,5.2552],[-75.54694,5.25546]]]},"properties":{"FID":8,"OBJECTID":10,"Condicion":"Condicion de amenaza por movimientos en masa en suelo rural","Suelo":"Parcelación vivienda campestre","Area_ha":12.9770905988,"RuleID":1,"Shape_Leng":2175.11137534,"Shape_Area":129770.905988}}]}