{"type":"FeatureCollection","name":"d_2_Cond_Amz_Ind_Rural","crs":{"type":"name","properties":{"name":"urn:ogc:def:crs:OGC:1.3:CRS84"}},"features":[{"type":"Feature","id":0,"geometry":{"type":"Polygon","coordinates":[[[-75.54985,5.25162],[-75.54984,5.25162],[-75.54988,5.25164],[-75.54988,5.25163],[-75.54988,5.25162],[-75.54988,5.25159],[-75.54985,5.25162]]]},"properties":{"FID":0,"OBJECTID_1":1,"Condicion":"Condicion de amenaza por inundacion en suelo rural","Suelo":"Parcelación vivienda campestre","Area_ha":0.543462906392,"RuleID":1,"Shape_Leng":16.37651377,"Shape_Area":12.5530714676}},{"type":"Feature","id":1,"geometry":{"type":"MultiPolygon","coordinates":[[[[-75.49015,5.321],[-75.49016,5.321],[-75.49008,5.32096],[-75.49005,5.32094],[-75.49005,5.321],[-75.49014,5.321],[-75.49015,5.321]]],[[[-75.49059,5.321],[-75.49073,5.321],[-75.4909,5.32101],[-75.49081,5.32098],[-75.49075,5.32097],[-75.49066,5.32096],[-75.49061,5.32097],[-75.49054,5.32099],[-75.49053,5.321],[-75.49059,5.321],[-75.49059,5.321]]]]},"properties":{"FID":1,"OBJECTID_1":2,"Condicion":"Condicion de amenaza por inundacion en suelo rural","Suelo":"Parcelación vivienda campestre","Area_ha":0.0151574650129,"RuleID":1,"Shape_Leng":114.957506571,"Shape_Area":151.574650129}},{"type":"Feature","id":2,"geometry":{"type":"MultiPolygon","coordinates":[[[[-75.55276,5.21265],[-75.55276,5.21265],[-75.55276,5.21265],[-75.55276,5.21265]]],[[[-75.55274,5.21324],[-75.55271,5.21335],[-75.55271,5.21335],[-75.55274,5.21333],[-75.55278,5.21331],[-75.55279,5.21326],[-75.55276,5.21315],[-75.55274,5.21324]]],[[[-75.55247,5.21394],[-75.5524,5.21431],[-75.55232,5.21456],[-75.55226,5.21486],[-75.55222,5.21498],[-75.55217,5.21509],[-75.5521,5.21519],[-75.55188,5.21545],[-75.55184,5.21551],[-75.55183,5.21555],[-75.55182,5.2156],[-75.55182,5.21561],[-75.55181,5.21572],[-75.55199,5.2157],[-75.55199,5.21558],[-75.55202,5.21548],[-75.55212,5.21538],[-75.55214,5.21524],[-75.55215,5.2152],[-75.55216,5.21517],[-75.55218,5.21513],[-75.55221,5.2151],[-75.55235,5.21495],[-75.55255,5.21448],[-75.55257,5.21435],[-75.55255,5.21424],[-75.55249,5.2141],[-75.55248,5.21406],[-75.55247,5.21402],[-75.55247,5.21394],[-75.55247,5.21394]]]]},"properties":{"FID":2,"OBJECTID_1":3,"Condicion":"Condicion de amenaza por inundacion en suelo rural","Suelo":"Vivienda Campestre","Area_ha":0.292472341331,"RuleID":1,"Shape_Leng":499.826201241,"Shape_Area":2924.72341331}},{"type":"Feature","id":3,"geometry":{"type":"MultiPolygon","coordinates":[[[[-75.54691,5.25742],[-75.54692,5.25742],[-75.54698,5.25745],[-75.54716,5.25743],[-75.54718,5.25743],[-75.5472,5.2574],[-75.5472,5.2574],[-75.54722,5.25739],[-75.54724,5.25737],[-75.54727,5.25735],[-75.54729,5.25734],[-75.54738,5.25726],[-75.54737,5.25727],[-75.54729,5.25729],[-75.54725,5.2573],[-75.54722,5.25732],[-75.54718,5.25734],[-75.54717,5.25735],[-75.54709,5.2574],[-75.54707,5.25741],[-75.54705,5.25742],[-75.5469,5.2574],[-75.54691,5.25742]]],[[[-75.54803,5.25707],[-75.54815,5.25708],[-75.54819,5.25708],[-75.54823,5.25709],[-75.54829,5.25711],[-75.54833,5.25711],[-75.54845,5.25708],[-75.54845,5.25708],[-75.54852,5.25704],[-75.5486,5.25695],[-75.54868,5.25689],[-75.54864,5.25687],[-75.54872,5.25677],[-75.54875,5.2568],[-75.54877,5.25677],[-75.54879,5.25674],[-75.54881,5.25671],[-75.54865,5.25656],[-75.54865,5.25656],[-75.54863,5.25662],[-75.54861,5.25668],[-75.5486,5.2567],[-75.54858,5.25673],[-75.54857,5.25675],[-75.54855,5.25678],[-75.54854,5.25679],[-75.54852,5.25681],[-75.54849,5.25683],[-75.54844,5.25686],[-75.54834,5.25691],[-75.54826,5.25695],[-75.54812,5.257],[-75.54801,5.25704],[-75.54795,5.25706],[-75.5479,5.25707],[-75.54794,5.25707],[-75.54801,5.25707],[-75.54803,5.25707]]],[[[-75.54862,5.25547],[-75.54858,5.25555],[-75.54857,5.25557],[-75.54857,5.25559],[-75.54857,5.25563],[-75.54857,5.25567],[-75.54858,5.25571],[-75.54861,5.25587],[-75.54862,5.25591],[-75.54863,5.25593],[-75.54864,5.25596],[-75.54865,5.25597],[-75.54865,5.25599],[-75.54874,5.25589],[-75.54872,5.25586],[-75.54871,5.25584],[-75.54869,5.25581],[-75.54868,5.25578],[-75.54866,5.25566],[-75.54865,5.25564],[-75.54865,5.25562],[-75.54864,5.25551],[-75.54864,5.25548],[-75.54864,5.25546],[-75.54864,5.25545],[-75.54863,5.25544],[-75.54862,5.25547]]],[[[-75.54858,5.25496],[-75.54862,5.25496],[-75.54862,5.25496],[-75.54861,5.25492],[-75.5486,5.25488],[-75.5486,5.2548],[-75.5486,5.25478],[-75.54858,5.25496]]],[[[-75.5486,5.25473],[-75.5486,5.25473],[-75.5486,5.25472],[-75.5486,5.25473]]],[[[-75.54866,5.25456],[-75.54863,5.25462],[-75.54861,5.25467],[-75.5486,5.25472],[-75.54861,5.25468],[-75.54863,5.25464],[-75.54866,5.25459],[-75.54868,5.25456],[-75.54869,5.25454],[-75.54866,5.25456]]],[[[-75.54876,5.25313],[-75.54875,5.2532],[-75.54874,5.25326],[-75.54874,5.2533],[-75.54875,5.25335],[-75.54876,5.25338],[-75.54878,5.25342],[-75.54881,5.25348],[-75.54885,5.25353],[-75.54887,5.25356],[-75.54902,5.25375],[-75.54904,5.25379],[-75.54906,5.25382],[-75.54907,5.25384],[-75.54907,5.25386],[-75.54908,5.2539],[-75.54908,5.25395],[-75.54907,5.25401],[-75.54906,5.25408],[-75.54906,5.25413],[-75.54905,5.25415],[-75.54903,5.25419],[-75.54902,5.25423],[-75.54898,5.25429],[-75.54896,5.25433],[-75.54899,5.25432],[-75.54901,5.25431],[-75.54912,5.25427],[-75.54913,5.25426],[-75.54913,5.25425],[-75.54912,5.25423],[-75.54912,5.25418],[-75.54912,5.25412],[-75.54912,5.25401],[-75.5491,5.25392],[-75.54909,5.25388],[-75.54908,5.25386],[-75.54905,5.25378],[-75.54902,5.25371],[-75.54899,5.25362],[-75.54898,5.25361],[-75.54896,5.25354],[-75.54886,5.25335],[-75.54885,5.25334],[-75.54882,5.25327],[-75.54881,5.25324],[-75.54878,5.25317],[-75.54878,5.25316],[-75.54877,5.25314],[-75.54876,5.25311],[-75.54876,5.25313]]],[[[-75.54985,5.25162],[-75.54984,5.25162],[-75.54988,5.25164],[-75.54988,5.25163],[-75.54988,5.25162],[-75.54988,5.25159],[-75.54985,5.25162]]]]},"properties":{"FID":3,"OBJECTID_1":4,"Condicion":"Condicion de amenaza por inundacion en suelo rural","Suelo":"Parcelación vivienda campestre","Area_ha":0.663316425753,"RuleID":1,"Shape_Leng":920.177382174,"Shape_Area":3383.56135722}}]}