{"type":"FeatureCollection","name":"e_3_Cond_Riesgo_AVT_Rural","crs":{"type":"name","properties":{"name":"urn:ogc:def:crs:OGC:1.3:CRS84"}},"features":[{"type":"Feature","id":1,"geometry":{"type":"MultiPolygon","coordinates":[[[[-75.51114,5.25478],[-75.51117,5.25478],[-75.51119,5.25478],[-75.51121,5.25478],[-75.51124,5.25478],[-75.51127,5.25478],[-75.51129,5.25477],[-75.51131,5.25477],[-75.51134,5.25477],[-75.51136,5.25476],[-75.51138,5.25475],[-75.51144,5.25475],[-75.51146,5.25474],[-75.51148,5.25474],[-75.51149,5.25473],[-75.51152,5.25472],[-75.51154,5.25471],[-75.51156,5.25471],[-75.51157,5.2547],[-75.51157,5.2547],[-75.51158,5.2547],[-75.51158,5.25461],[-75.51159,5.25458],[-75.51155,5.25457],[-75.51151,5.25457],[-75.51151,5.25457],[-75.51151,5.25461],[-75.51151,5.25461],[-75.5113,5.25458],[-75.51125,5.25457],[-75.51123,5.25468],[-75.51125,5.25477],[-75.51112,5.25476],[-75.51111,5.25476],[-75.51113,5.25464],[-75.51121,5.25466],[-75.51123,5.25457],[-75.51123,5.25457],[-75.51124,5.25453],[-75.51125,5.2545],[-75.51118,5.25449],[-75.51116,5.25454],[-75.51116,5.25454],[-75.51115,5.25458],[-75.51117,5.25458],[-75.51116,5.2546],[-75.51115,5.2546],[-75.51115,5.25462],[-75.51114,5.25462],[-75.51114,5.25461],[-75.51112,5.25461],[-75.51113,5.25459],[-75.51113,5.25459],[-75.51114,5.25456],[-75.51114,5.25453],[-75.51114,5.25453],[-75.51114,5.25453],[-75.51111,5.25453],[-75.5111,5.25452],[-75.51109,5.25453],[-75.51108,5.25453],[-75.51107,5.25453],[-75.51106,5.25457],[-75.51106,5.25457],[-75.51101,5.25457],[-75.51101,5.25457],[-75.51095,5.25456],[-75.51089,5.25455],[-75.5109,5.25451],[-75.51081,5.25448],[-75.51079,5.25457],[-75.51088,5.25459],[-75.51087,5.25468],[-75.51086,5.2547],[-75.51074,5.25468],[-75.51074,5.25469],[-75.51065,5.25467],[-75.5106,5.25466],[-75.5106,5.25467],[-75.51059,5.25467],[-75.51058,5.25469],[-75.51058,5.2547],[-75.51057,5.25471],[-75.51057,5.25471],[-75.51056,5.25472],[-75.51075,5.25476],[-75.51076,5.25476],[-75.51077,5.25476],[-75.51078,5.25476],[-75.5108,5.25476],[-75.51083,5.25476],[-75.51087,5.25476],[-75.5109,5.25477],[-75.51093,5.25477],[-75.51096,5.25477],[-75.51101,5.25477],[-75.51103,5.25477],[-75.51104,5.25477],[-75.51106,5.25477],[-75.51108,5.25477],[-75.51112,5.25478],[-75.51114,5.25478]]],[[[-75.51177,5.25457],[-75.51174,5.2546],[-75.51175,5.2546],[-75.51175,5.25459],[-75.51176,5.25459],[-75.51177,5.25458],[-75.5118,5.25457],[-75.51181,5.25456],[-75.51182,5.25456],[-75.51183,5.25456],[-75.51185,5.25455],[-75.51185,5.25456],[-75.51185,5.25456],[-75.5119,5.25446],[-75.51191,5.25444],[-75.51191,5.25444],[-75.51188,5.25442],[-75.51186,5.25441],[-75.51185,5.2544],[-75.51185,5.2544],[-75.51184,5.25444],[-75.51177,5.25457]]]]},"properties":{"OBJECTID":1,"Cond_amz":"Condicion de riesgo por avenida torrencial en suelo rural","Area":1984.94249767,"CPR":"CPR La Honda","RuleID":1,"Override":null,"Shape_Length":465.8437046593552,"Shape_Area":1984.9425918862355}}]}