{"type":"FeatureCollection","name":"Am_MovMasa_CPR_Varsovia","crs":{"type":"name","properties":{"name":"urn:ogc:def:crs:OGC:1.3:CRS84"}},"features":[{"type":"Feature","id":1,"geometry":{"type":"Polygon","coordinates":[[[-75.5459,5.25518],[-75.5459,5.25518],[-75.54589,5.25519],[-75.54589,5.25519],[-75.54589,5.2552],[-75.54589,5.2552],[-75.5459,5.25521],[-75.5459,5.25521],[-75.54591,5.25523],[-75.54591,5.25525],[-75.54591,5.25525],[-75.54592,5.25526],[-75.54592,5.25527],[-75.54591,5.25528],[-75.54591,5.25529],[-75.54591,5.25529],[-75.5459,5.2553],[-75.54589,5.25531],[-75.54587,5.25533],[-75.54587,5.25534],[-75.54586,5.25535],[-75.54586,5.25536],[-75.54585,5.25537],[-75.54585,5.25539],[-75.54585,5.2554],[-75.54585,5.25544],[-75.54584,5.25554],[-75.54584,5.25556],[-75.54583,5.25557],[-75.54583,5.25558],[-75.54581,5.2556],[-75.54581,5.25562],[-75.5458,5.25563],[-75.5458,5.25564],[-75.5458,5.25564],[-75.5458,5.25567],[-75.5458,5.25567],[-75.5458,5.25568],[-75.5458,5.25569],[-75.5458,5.25569],[-75.54579,5.25571],[-75.54578,5.25574],[-75.54577,5.25575],[-75.54577,5.25576],[-75.54577,5.25578],[-75.54577,5.25579],[-75.54577,5.25582],[-75.54577,5.25584],[-75.54578,5.25586],[-75.54578,5.25588],[-75.5458,5.25595],[-75.5458,5.25596],[-75.5458,5.25596],[-75.54581,5.25602],[-75.54581,5.25604],[-75.54582,5.25607],[-75.54582,5.25611],[-75.54581,5.25613],[-75.54581,5.25616],[-75.54581,5.25617],[-75.54581,5.25617],[-75.54581,5.25617],[-75.54581,5.25617],[-75.54582,5.25617],[-75.54582,5.25617],[-75.54584,5.25616],[-75.54585,5.25615],[-75.54587,5.25614],[-75.54588,5.25614],[-75.54588,5.25613],[-75.54588,5.25613],[-75.54588,5.25613],[-75.54588,5.25613],[-75.54588,5.25612],[-75.54588,5.25612],[-75.54588,5.2561],[-75.54588,5.25608],[-75.54588,5.25605],[-75.54588,5.25604],[-75.54587,5.25602],[-75.54587,5.256],[-75.54587,5.25597],[-75.54587,5.25596],[-75.54587,5.25594],[-75.54586,5.25588],[-75.54585,5.25587],[-75.54585,5.25586],[-75.54585,5.25584],[-75.54585,5.25582],[-75.54585,5.2558],[-75.54586,5.25578],[-75.54586,5.25575],[-75.54586,5.25572],[-75.54586,5.25571],[-75.54585,5.25568],[-75.54585,5.25567],[-75.54585,5.25567],[-75.54585,5.25567],[-75.54586,5.25567],[-75.54586,5.25566],[-75.54586,5.25566],[-75.54587,5.25563],[-75.54588,5.25557],[-75.54591,5.25546],[-75.54593,5.25537],[-75.54594,5.25536],[-75.54594,5.25535],[-75.54594,5.25534],[-75.54595,5.25526],[-75.54595,5.25524],[-75.54595,5.25524],[-75.54594,5.25522],[-75.54593,5.25522],[-75.54593,5.25522],[-75.54592,5.2552],[-75.54592,5.2552],[-75.54592,5.25519],[-75.54591,5.25519],[-75.54591,5.25518],[-75.54591,5.25518],[-75.5459,5.25518],[-75.5459,5.25518],[-75.5459,5.25518]]]},"properties":{"OBJECTID":1,"gridcode":1,"Amenaza":"Alta","Area_m2":757.367924078,"RuleID":1,"Override":null,"Shape_Length":233.81162793359698,"Shape_Area":757.3686488856656}},{"type":"Feature","id":2,"geometry":{"type":"MultiPolygon","coordinates":[[[[-75.54551,5.25481],[-75.54553,5.25483],[-75.54558,5.25487],[-75.5456,5.25489],[-75.54561,5.2549],[-75.54562,5.2549],[-75.54565,5.25491],[-75.54566,5.25491],[-75.54569,5.25493],[-75.5457,5.25494],[-75.54571,5.25495],[-75.54572,5.25496],[-75.54573,5.25496],[-75.54574,5.25497],[-75.54574,5.25498],[-75.54574,5.25498],[-75.54574,5.25499],[-75.54575,5.25499],[-75.54574,5.255],[-75.54574,5.255],[-75.54574,5.255],[-75.54574,5.255],[-75.54573,5.25501],[-75.54573,5.25501],[-75.54572,5.25502],[-75.54572,5.25502],[-75.54572,5.25502],[-75.54572,5.25503],[-75.54572,5.25503],[-75.54573,5.25503],[-75.54573,5.25504],[-75.54574,5.25504],[-75.54575,5.25505],[-75.54576,5.25505],[-75.54576,5.25506],[-75.54577,5.25506],[-75.54577,5.25506],[-75.54577,5.25507],[-75.54577,5.25508],[-75.54578,5.25509],[-75.54578,5.25512],[-75.54579,5.25517],[-75.54579,5.25519],[-75.54579,5.2552],[-75.5458,5.2552],[-75.5458,5.25521],[-75.5458,5.25522],[-75.5458,5.25522],[-75.5458,5.25523],[-75.54581,5.25523],[-75.54581,5.25523],[-75.54582,5.25523],[-75.54582,5.25523],[-75.54582,5.25523],[-75.54583,5.25522],[-75.54583,5.25522],[-75.54584,5.25521],[-75.54584,5.2552],[-75.54584,5.25519],[-75.54585,5.25518],[-75.54585,5.25518],[-75.54585,5.25516],[-75.54585,5.25516],[-75.54585,5.25513],[-75.54586,5.25512],[-75.54586,5.2551],[-75.54587,5.25509],[-75.54587,5.25507],[-75.54588,5.25505],[-75.54589,5.25503],[-75.5459,5.25502],[-75.54591,5.25501],[-75.54592,5.255],[-75.54592,5.25499],[-75.54594,5.25498],[-75.54596,5.25496],[-75.54596,5.25495],[-75.54596,5.25488],[-75.54594,5.25475],[-75.54594,5.25475],[-75.54592,5.25475],[-75.54588,5.25475],[-75.54588,5.25475],[-75.54588,5.25474],[-75.54587,5.25473],[-75.54585,5.25469],[-75.54584,5.25468],[-75.54584,5.25467],[-75.54589,5.25458],[-75.54592,5.25452],[-75.54599,5.25431],[-75.54601,5.25424],[-75.54598,5.25421],[-75.54596,5.25419],[-75.54596,5.25419],[-75.54592,5.25416],[-75.54589,5.25413],[-75.54585,5.2541],[-75.5458,5.25407],[-75.54574,5.25403],[-75.54572,5.25402],[-75.54573,5.25401],[-75.54573,5.254],[-75.54577,5.25381],[-75.54579,5.25364],[-75.54579,5.2536],[-75.54573,5.25359],[-75.54572,5.25359],[-75.54568,5.25359],[-75.54566,5.25358],[-75.54564,5.25358],[-75.5456,5.25375],[-75.54556,5.2539],[-75.54544,5.25383],[-75.54542,5.25381],[-75.54538,5.25388],[-75.54538,5.25389],[-75.54537,5.2539],[-75.54536,5.25391],[-75.54535,5.25392],[-75.54535,5.25392],[-75.54534,5.25393],[-75.54531,5.25396],[-75.54529,5.25397],[-75.54528,5.25398],[-75.54527,5.25399],[-75.54523,5.25406],[-75.54521,5.25407],[-75.5452,5.2541],[-75.54519,5.25411],[-75.54519,5.25412],[-75.54519,5.25413],[-75.54518,5.25414],[-75.54518,5.25415],[-75.54518,5.25415],[-75.54519,5.25415],[-75.54519,5.25416],[-75.54519,5.25416],[-75.5452,5.25416],[-75.5452,5.25416],[-75.54521,5.25416],[-75.54521,5.25415],[-75.54521,5.25415],[-75.54521,5.25415],[-75.54522,5.25415],[-75.54522,5.25414],[-75.54522,5.25414],[-75.54523,5.25411],[-75.54524,5.25411],[-75.54524,5.25411],[-75.54524,5.25411],[-75.54524,5.25411],[-75.54525,5.25411],[-75.54525,5.25412],[-75.54525,5.25413],[-75.54526,5.25413],[-75.54526,5.25414],[-75.54526,5.25414],[-75.54527,5.25415],[-75.54527,5.25415],[-75.54528,5.25415],[-75.5453,5.25415],[-75.54531,5.25415],[-75.54531,5.25415],[-75.54531,5.25415],[-75.54531,5.25415],[-75.54531,5.25416],[-75.54527,5.25419],[-75.54527,5.25419],[-75.54527,5.25419],[-75.54525,5.25421],[-75.54525,5.25421],[-75.54523,5.25423],[-75.54522,5.25423],[-75.54522,5.25424],[-75.54521,5.25425],[-75.5452,5.25426],[-75.5452,5.25427],[-75.54519,5.25427],[-75.54519,5.25427],[-75.54519,5.25428],[-75.54518,5.25428],[-75.54518,5.25428],[-75.54518,5.25428],[-75.54518,5.25429],[-75.54518,5.25429],[-75.54518,5.25429],[-75.54518,5.2543],[-75.54519,5.2543],[-75.54519,5.2543],[-75.54519,5.2543],[-75.5452,5.2543],[-75.54522,5.25431],[-75.54522,5.25431],[-75.54522,5.25431],[-75.54523,5.25431],[-75.54523,5.25431],[-75.54523,5.25432],[-75.54523,5.25432],[-75.54522,5.25434],[-75.54522,5.25434],[-75.54522,5.25435],[-75.54522,5.25435],[-75.54522,5.25435],[-75.54522,5.25435],[-75.54523,5.25435],[-75.54523,5.25436],[-75.54524,5.25436],[-75.54524,5.25436],[-75.54525,5.25435],[-75.54526,5.25435],[-75.54527,5.25435],[-75.54529,5.25434],[-75.5453,5.25433],[-75.5453,5.25433],[-75.54531,5.25432],[-75.54532,5.25431],[-75.54534,5.25429],[-75.54534,5.25428],[-75.54535,5.25428],[-75.54535,5.25427],[-75.54535,5.25426],[-75.54536,5.25421],[-75.54537,5.2542],[-75.54537,5.25419],[-75.54538,5.25416],[-75.54538,5.25416],[-75.54538,5.25415],[-75.54538,5.25415],[-75.54538,5.25414],[-75.54538,5.25414],[-75.54538,5.25414],[-75.54537,5.25414],[-75.54537,5.25414],[-75.54537,5.25413],[-75.54536,5.25413],[-75.54536,5.25413],[-75.54536,5.25413],[-75.54536,5.25412],[-75.54536,5.25412],[-75.54537,5.25411],[-75.54537,5.2541],[-75.54539,5.25408],[-75.5454,5.25406],[-75.54541,5.25405],[-75.54543,5.25403],[-75.54543,5.25402],[-75.54543,5.25402],[-75.54543,5.25402],[-75.54544,5.25402],[-75.54544,5.25402],[-75.54544,5.25402],[-75.54545,5.25403],[-75.54545,5.25403],[-75.54545,5.25403],[-75.54545,5.25404],[-75.54545,5.25404],[-75.54545,5.25405],[-75.54544,5.25408],[-75.54543,5.25409],[-75.54543,5.25409],[-75.54543,5.2541],[-75.54543,5.2541],[-75.54544,5.2541],[-75.54544,5.25411],[-75.54545,5.25411],[-75.54545,5.25411],[-75.54546,5.2541],[-75.54546,5.2541],[-75.54547,5.2541],[-75.54547,5.25409],[-75.54548,5.25408],[-75.54548,5.25408],[-75.54549,5.25406],[-75.54549,5.25405],[-75.5455,5.25404],[-75.5455,5.25401],[-75.5455,5.254],[-75.5455,5.25399],[-75.5455,5.25399],[-75.5455,5.25398],[-75.5455,5.25398],[-75.5455,5.25398],[-75.5455,5.25397],[-75.54549,5.25397],[-75.54549,5.25397],[-75.54549,5.25397],[-75.54545,5.25398],[-75.54545,5.25398],[-75.54544,5.25398],[-75.54544,5.25397],[-75.54543,5.25397],[-75.54543,5.25397],[-75.54543,5.25397],[-75.54543,5.25396],[-75.54544,5.25396],[-75.54545,5.25395],[-75.54546,5.25394],[-75.54548,5.25393],[-75.54549,5.25392],[-75.54549,5.25392],[-75.5455,5.25392],[-75.54551,5.25392],[-75.54551,5.25392],[-75.54551,5.25392],[-75.54552,5.25393],[-75.54552,5.25393],[-75.54552,5.25394],[-75.54553,5.25394],[-75.54553,5.25395],[-75.54553,5.25395],[-75.54553,5.25397],[-75.54553,5.25398],[-75.54553,5.25399],[-75.54553,5.254],[-75.54553,5.25403],[-75.54553,5.25404],[-75.54553,5.25406],[-75.54553,5.25407],[-75.54553,5.25408],[-75.54552,5.2541],[-75.54552,5.25411],[-75.54551,5.25412],[-75.54551,5.25413],[-75.5455,5.25414],[-75.5455,5.25414],[-75.54546,5.25418],[-75.54545,5.2542],[-75.54544,5.25422],[-75.54543,5.25423],[-75.54542,5.25424],[-75.54541,5.25429],[-75.5454,5.2543],[-75.5454,5.25431],[-75.5454,5.25432],[-75.54539,5.25434],[-75.54538,5.25434],[-75.54538,5.25435],[-75.54537,5.25436],[-75.54536,5.25437],[-75.54535,5.25438],[-75.54534,5.25438],[-75.54534,5.25438],[-75.54533,5.25439],[-75.54532,5.25439],[-75.5453,5.25439],[-75.54529,5.2544],[-75.54527,5.25441],[-75.54527,5.25441],[-75.54526,5.25442],[-75.54525,5.25443],[-75.54524,5.25444],[-75.54523,5.25446],[-75.54523,5.25447],[-75.54522,5.25449],[-75.54522,5.25449],[-75.54522,5.25451],[-75.54523,5.25454],[-75.54523,5.25456],[-75.54523,5.25458],[-75.54523,5.2546],[-75.54523,5.25461],[-75.54523,5.25463],[-75.54522,5.25464],[-75.54521,5.25466],[-75.54521,5.25466],[-75.54519,5.25471],[-75.54518,5.25473],[-75.54514,5.25483],[-75.54512,5.25486],[-75.54512,5.25487],[-75.54511,5.25488],[-75.54511,5.25489],[-75.54511,5.2549],[-75.54507,5.25499],[-75.54507,5.25499],[-75.54506,5.25502],[-75.54505,5.25504],[-75.54505,5.25504],[-75.54505,5.25506],[-75.54505,5.25507],[-75.54506,5.25508],[-75.54506,5.2551],[-75.54506,5.2551],[-75.54507,5.25512],[-75.54508,5.25514],[-75.54509,5.25515],[-75.54509,5.25516],[-75.5451,5.25516],[-75.5451,5.25516],[-75.5451,5.25516],[-75.54511,5.25516],[-75.54511,5.25515],[-75.54511,5.25515],[-75.5451,5.25512],[-75.54511,5.25511],[-75.54511,5.2551],[-75.54512,5.25508],[-75.54512,5.25508],[-75.54512,5.25506],[-75.54513,5.25505],[-75.54513,5.25505],[-75.54514,5.25503],[-75.54517,5.255],[-75.54521,5.25494],[-75.54522,5.25494],[-75.54523,5.25493],[-75.54525,5.25489],[-75.54526,5.25488],[-75.54527,5.25487],[-75.54528,5.25486],[-75.5453,5.25485],[-75.54532,5.25483],[-75.54535,5.25482],[-75.54537,5.25481],[-75.54539,5.25479],[-75.54539,5.25479],[-75.5454,5.25479],[-75.54541,5.25478],[-75.54545,5.25478],[-75.54551,5.25481]]],[[[-75.54473,5.25608],[-75.54473,5.25608],[-75.54472,5.25608],[-75.54472,5.25608],[-75.54471,5.25608],[-75.5447,5.25611],[-75.54469,5.25613],[-75.54468,5.25615],[-75.54462,5.25626],[-75.54462,5.25628],[-75.54461,5.2563],[-75.5446,5.2563],[-75.54463,5.25631],[-75.54471,5.25635],[-75.54472,5.25634],[-75.54473,5.25634],[-75.54474,5.25633],[-75.54476,5.25633],[-75.54477,5.25631],[-75.54478,5.25631],[-75.5448,5.25629],[-75.54481,5.25629],[-75.54482,5.25628],[-75.54482,5.25628],[-75.54483,5.25627],[-75.54483,5.25626],[-75.54484,5.25626],[-75.54484,5.25625],[-75.54484,5.25625],[-75.54484,5.25623],[-75.54484,5.25622],[-75.54484,5.25621],[-75.54483,5.25619],[-75.54483,5.25617],[-75.54482,5.25615],[-75.54482,5.25613],[-75.54481,5.25612],[-75.54481,5.25611],[-75.5448,5.2561],[-75.54479,5.2561],[-75.54479,5.2561],[-75.54479,5.25609],[-75.54478,5.25609],[-75.54477,5.25608],[-75.54477,5.25608],[-75.54476,5.25608],[-75.54475,5.25608],[-75.54473,5.25608]]],[[[-75.54504,5.25619],[-75.54504,5.25626],[-75.54504,5.25632],[-75.54504,5.25635],[-75.54503,5.25639],[-75.54503,5.2564],[-75.54503,5.25641],[-75.54503,5.25642],[-75.54503,5.25642],[-75.54504,5.25642],[-75.54504,5.25642],[-75.54504,5.25643],[-75.54504,5.25643],[-75.54505,5.25643],[-75.54505,5.25643],[-75.54506,5.25643],[-75.54506,5.25643],[-75.54508,5.25643],[-75.54508,5.25643],[-75.54509,5.25643],[-75.5451,5.25642],[-75.5451,5.25642],[-75.54511,5.25642],[-75.54511,5.25642],[-75.54511,5.25642],[-75.54512,5.25641],[-75.54512,5.2564],[-75.54512,5.2564],[-75.54513,5.2564],[-75.54513,5.2564],[-75.54513,5.25639],[-75.54513,5.25638],[-75.54513,5.25637],[-75.54513,5.25634],[-75.54514,5.25632],[-75.54514,5.25632],[-75.54514,5.25631],[-75.54515,5.2563],[-75.54515,5.2563],[-75.54516,5.2563],[-75.54517,5.25629],[-75.54517,5.25629],[-75.54517,5.25628],[-75.54517,5.25628],[-75.54517,5.25627],[-75.54517,5.25624],[-75.54517,5.25623],[-75.54517,5.25621],[-75.54517,5.25621],[-75.54517,5.2562],[-75.54517,5.2562],[-75.54517,5.2562],[-75.54518,5.25619],[-75.54519,5.25619],[-75.54519,5.25619],[-75.5452,5.25619],[-75.5452,5.25619],[-75.5452,5.25619],[-75.5452,5.2562],[-75.54521,5.2562],[-75.54521,5.25623],[-75.54522,5.25624],[-75.54522,5.25624],[-75.54522,5.25624],[-75.54521,5.25619],[-75.54521,5.25617],[-75.54523,5.25614],[-75.54525,5.25612],[-75.54529,5.25613],[-75.54535,5.25618],[-75.54538,5.25622],[-75.54538,5.25622],[-75.54537,5.25619],[-75.54537,5.25617],[-75.54536,5.25617],[-75.54535,5.25616],[-75.54533,5.25612],[-75.54532,5.25611],[-75.54532,5.2561],[-75.54531,5.2561],[-75.54531,5.25609],[-75.5453,5.25606],[-75.5453,5.25605],[-75.5453,5.25605],[-75.5453,5.25604],[-75.5453,5.25604],[-75.5453,5.25604],[-75.54531,5.25604],[-75.54531,5.25604],[-75.54532,5.25604],[-75.54532,5.25604],[-75.54533,5.25604],[-75.54534,5.25605],[-75.54536,5.25607],[-75.54538,5.25608],[-75.54539,5.25609],[-75.5454,5.2561],[-75.54542,5.25612],[-75.54546,5.25617],[-75.54547,5.25619],[-75.54549,5.2562],[-75.54549,5.2562],[-75.5455,5.25621],[-75.54554,5.25622],[-75.54556,5.25623],[-75.54557,5.25624],[-75.5456,5.25626],[-75.54561,5.25626],[-75.54562,5.25627],[-75.54563,5.25627],[-75.54564,5.25628],[-75.54565,5.25628],[-75.54565,5.25628],[-75.54565,5.25628],[-75.54564,5.25629],[-75.54564,5.25629],[-75.54564,5.25629],[-75.54564,5.2563],[-75.54565,5.2563],[-75.54566,5.25631],[-75.54568,5.25633],[-75.54569,5.25633],[-75.54569,5.25633],[-75.5457,5.25633],[-75.54571,5.25633],[-75.54573,5.25633],[-75.54574,5.25632],[-75.54575,5.25632],[-75.54576,5.25631],[-75.54577,5.2563],[-75.54579,5.25629],[-75.5458,5.25628],[-75.54581,5.25627],[-75.54578,5.25628],[-75.54576,5.25628],[-75.54575,5.25628],[-75.54575,5.25628],[-75.54574,5.25628],[-75.54574,5.25628],[-75.54573,5.25628],[-75.54573,5.25628],[-75.54572,5.25628],[-75.54572,5.25627],[-75.54572,5.25627],[-75.54572,5.25627],[-75.54572,5.25626],[-75.54572,5.25626],[-75.54572,5.25626],[-75.54572,5.25625],[-75.54573,5.25625],[-75.54573,5.25625],[-75.54574,5.25624],[-75.54575,5.25624],[-75.54576,5.25624],[-75.54577,5.25623],[-75.54578,5.25622],[-75.54579,5.25622],[-75.5458,5.25621],[-75.5458,5.25621],[-75.5458,5.2562],[-75.5458,5.2562],[-75.5458,5.25619],[-75.54579,5.25618],[-75.54579,5.25618],[-75.54578,5.25617],[-75.54578,5.25617],[-75.54578,5.25617],[-75.54578,5.25616],[-75.54578,5.25616],[-75.5458,5.25614],[-75.5458,5.25613],[-75.5458,5.25613],[-75.5458,5.25612],[-75.54581,5.25612],[-75.54581,5.25611],[-75.54581,5.2561],[-75.54581,5.25608],[-75.54581,5.25607],[-75.54581,5.25606],[-75.54581,5.25605],[-75.5458,5.25604],[-75.5458,5.25601],[-75.54579,5.25595],[-75.54578,5.25591],[-75.54577,5.25587],[-75.54576,5.25581],[-75.54575,5.25579],[-75.54575,5.25577],[-75.54575,5.25576],[-75.54575,5.25575],[-75.54575,5.25573],[-75.54574,5.25571],[-75.54574,5.25569],[-75.54575,5.25568],[-75.54575,5.25567],[-75.54575,5.25565],[-75.54576,5.25561],[-75.54577,5.25559],[-75.54577,5.25555],[-75.54578,5.25554],[-75.54578,5.25553],[-75.54578,5.25552],[-75.54579,5.25552],[-75.54579,5.25552],[-75.54579,5.25552],[-75.54579,5.25552],[-75.5458,5.25552],[-75.5458,5.25552],[-75.54581,5.25553],[-75.54581,5.25553],[-75.54582,5.25553],[-75.54582,5.25553],[-75.54582,5.25552],[-75.54582,5.25552],[-75.54582,5.2555],[-75.54582,5.25549],[-75.54582,5.25547],[-75.54582,5.25546],[-75.54582,5.25546],[-75.54582,5.25545],[-75.54581,5.25545],[-75.54581,5.25545],[-75.54581,5.25545],[-75.54581,5.25545],[-75.54581,5.25545],[-75.54581,5.25544],[-75.54581,5.25543],[-75.54581,5.25542],[-75.54581,5.25541],[-75.54582,5.25539],[-75.54582,5.25537],[-75.54582,5.25534],[-75.54582,5.25534],[-75.54581,5.25533],[-75.54581,5.25532],[-75.54581,5.25531],[-75.54581,5.25531],[-75.5458,5.2553],[-75.5458,5.2553],[-75.5458,5.2553],[-75.54579,5.2553],[-75.54579,5.25531],[-75.54578,5.25531],[-75.54578,5.25532],[-75.54578,5.25532],[-75.54578,5.25532],[-75.54574,5.25537],[-75.54574,5.25537],[-75.54571,5.25541],[-75.5457,5.25543],[-75.54569,5.25544],[-75.54568,5.25547],[-75.54567,5.2555],[-75.54566,5.25551],[-75.54566,5.25553],[-75.54565,5.25554],[-75.54565,5.25555],[-75.54565,5.25557],[-75.54565,5.2556],[-75.54565,5.25561],[-75.54565,5.25561],[-75.54565,5.25563],[-75.54565,5.25566],[-75.54564,5.25567],[-75.54564,5.25568],[-75.54564,5.25569],[-75.54565,5.25571],[-75.54565,5.25572],[-75.54566,5.25573],[-75.54566,5.25574],[-75.54568,5.25577],[-75.54569,5.25579],[-75.5457,5.25582],[-75.54571,5.25583],[-75.54571,5.25585],[-75.54572,5.25586],[-75.54572,5.25591],[-75.54573,5.25592],[-75.54574,5.25597],[-75.54574,5.25598],[-75.54574,5.25599],[-75.54574,5.256],[-75.54575,5.25601],[-75.54575,5.25602],[-75.54574,5.25603],[-75.54574,5.25604],[-75.54574,5.25605],[-75.54574,5.25605],[-75.54573,5.25605],[-75.54573,5.25605],[-75.54573,5.25605],[-75.54573,5.25604],[-75.54572,5.25604],[-75.54572,5.25603],[-75.5457,5.256],[-75.5457,5.25598],[-75.54569,5.25597],[-75.54568,5.25596],[-75.54568,5.25594],[-75.54567,5.25593],[-75.54567,5.25592],[-75.54567,5.2559],[-75.54567,5.2559],[-75.54566,5.25589],[-75.54566,5.25589],[-75.54566,5.25588],[-75.54566,5.25587],[-75.54565,5.25587],[-75.54565,5.25585],[-75.54561,5.25581],[-75.5456,5.25579],[-75.54559,5.25578],[-75.54558,5.25576],[-75.54558,5.25575],[-75.54558,5.25575],[-75.54557,5.25574],[-75.54557,5.25573],[-75.54557,5.25572],[-75.54557,5.2557],[-75.54557,5.25569],[-75.54557,5.25569],[-75.54557,5.25568],[-75.54557,5.25567],[-75.54558,5.25566],[-75.54557,5.25565],[-75.54557,5.25564],[-75.54557,5.25564],[-75.54556,5.25563],[-75.54556,5.25562],[-75.54556,5.25562],[-75.54555,5.25561],[-75.54555,5.2556],[-75.54555,5.25559],[-75.54555,5.25557],[-75.54555,5.25557],[-75.54556,5.25553],[-75.54556,5.25552],[-75.54556,5.25551],[-75.54556,5.25547],[-75.54556,5.25538],[-75.54556,5.25536],[-75.54556,5.2553],[-75.54556,5.2553],[-75.54556,5.25529],[-75.54556,5.25529],[-75.54557,5.25528],[-75.54557,5.25528],[-75.54558,5.25526],[-75.54559,5.25526],[-75.54559,5.25526],[-75.54559,5.25526],[-75.54559,5.25526],[-75.5456,5.25527],[-75.54564,5.2553],[-75.54566,5.25529],[-75.54567,5.25526],[-75.54567,5.25524],[-75.54566,5.2552],[-75.54564,5.25515],[-75.54562,5.2551],[-75.54562,5.2551],[-75.54562,5.25509],[-75.54562,5.25509],[-75.54562,5.25508],[-75.54562,5.25507],[-75.54562,5.25506],[-75.54562,5.25506],[-75.54561,5.25506],[-75.54559,5.25503],[-75.54558,5.25502],[-75.54555,5.25501],[-75.54553,5.25502],[-75.54551,5.25503],[-75.54549,5.25504],[-75.54546,5.25507],[-75.54538,5.25513],[-75.54537,5.25514],[-75.54535,5.25515],[-75.54535,5.25515],[-75.54534,5.25515],[-75.54532,5.25516],[-75.54531,5.25516],[-75.54528,5.25517],[-75.54524,5.25517],[-75.54523,5.25517],[-75.54523,5.25517],[-75.54522,5.25517],[-75.54522,5.25518],[-75.54522,5.25518],[-75.54521,5.25518],[-75.54521,5.25519],[-75.54521,5.25519],[-75.54521,5.2552],[-75.54521,5.25521],[-75.54522,5.25522],[-75.54522,5.25523],[-75.54522,5.25524],[-75.54524,5.25527],[-75.54526,5.25529],[-75.54527,5.2553],[-75.54529,5.25532],[-75.5453,5.25533],[-75.54531,5.25534],[-75.54532,5.25535],[-75.54532,5.25536],[-75.54533,5.25538],[-75.54533,5.2554],[-75.54535,5.25545],[-75.54537,5.25552],[-75.54537,5.25552],[-75.54538,5.25554],[-75.54538,5.25555],[-75.54538,5.25557],[-75.54538,5.25559],[-75.54538,5.2556],[-75.54538,5.25562],[-75.54537,5.25563],[-75.54537,5.25564],[-75.54536,5.25566],[-75.54535,5.25568],[-75.54532,5.25572],[-75.54531,5.25574],[-75.5453,5.25575],[-75.54524,5.25582],[-75.54521,5.25584],[-75.54516,5.25593],[-75.54509,5.25601],[-75.54508,5.25602],[-75.54508,5.25603],[-75.54507,5.25604],[-75.54507,5.25606],[-75.54505,5.25609],[-75.54505,5.2561],[-75.54505,5.25611],[-75.54505,5.25612],[-75.54504,5.25616],[-75.54504,5.25617],[-75.54504,5.25619]],[[-75.54553,5.25611],[-75.54552,5.25611],[-75.54552,5.2561],[-75.54551,5.2561],[-75.5455,5.25609],[-75.54547,5.25606],[-75.54547,5.25606],[-75.54547,5.25606],[-75.54547,5.25605],[-75.54547,5.25605],[-75.54547,5.25605],[-75.54548,5.25604],[-75.54548,5.25604],[-75.54548,5.25604],[-75.54548,5.25604],[-75.54547,5.25603],[-75.54545,5.25603],[-75.54543,5.25603],[-75.54542,5.25602],[-75.54542,5.25602],[-75.5454,5.25601],[-75.5454,5.256],[-75.54539,5.25599],[-75.54538,5.25598],[-75.54538,5.25597],[-75.54537,5.25596],[-75.54535,5.25591],[-75.54535,5.2559],[-75.54534,5.25589],[-75.54534,5.25588],[-75.54534,5.25587],[-75.54534,5.25586],[-75.54535,5.25584],[-75.54536,5.2558],[-75.54536,5.25578],[-75.54537,5.25577],[-75.54537,5.25574],[-75.54537,5.25572],[-75.54537,5.25571],[-75.54538,5.25569],[-75.54538,5.25568],[-75.54539,5.25567],[-75.54539,5.25566],[-75.5454,5.25565],[-75.54541,5.25564],[-75.54542,5.25564],[-75.54542,5.25564],[-75.54542,5.25564],[-75.54543,5.25564],[-75.54543,5.25564],[-75.54543,5.25564],[-75.54543,5.25565],[-75.54543,5.25565],[-75.54542,5.25571],[-75.54542,5.25573],[-75.54541,5.25575],[-75.54541,5.25576],[-75.5454,5.25578],[-75.5454,5.25579],[-75.5454,5.25581],[-75.5454,5.25582],[-75.54541,5.25584],[-75.54541,5.25585],[-75.54542,5.25586],[-75.54543,5.25589],[-75.54544,5.25591],[-75.54547,5.25595],[-75.54547,5.25596],[-75.5455,5.25599],[-75.54552,5.25603],[-75.54554,5.25607],[-75.54555,5.25608],[-75.54555,5.25609],[-75.54555,5.25609],[-75.54555,5.2561],[-75.54555,5.2561],[-75.54555,5.25611],[-75.54555,5.25611],[-75.54554,5.25611],[-75.54554,5.25611],[-75.54553,5.25611]]]]},"properties":{"OBJECTID":2,"gridcode":3,"Amenaza":"Baja","Area_m2":15636.8107945,"RuleID":3,"Override":null,"Shape_Length":1722.2111602198756,"Shape_Area":15636.811845470595}},{"type":"Feature","id":3,"geometry":{"type":"MultiPolygon","coordinates":[[[[-75.54542,5.25564],[-75.54542,5.25564],[-75.54541,5.25564],[-75.5454,5.25565],[-75.54539,5.25566],[-75.54539,5.25567],[-75.54538,5.25568],[-75.54538,5.25569],[-75.54537,5.25571],[-75.54537,5.25572],[-75.54537,5.25574],[-75.54537,5.25577],[-75.54536,5.25578],[-75.54536,5.2558],[-75.54535,5.25584],[-75.54534,5.25586],[-75.54534,5.25587],[-75.54534,5.25588],[-75.54534,5.25589],[-75.54535,5.2559],[-75.54535,5.25591],[-75.54537,5.25596],[-75.54538,5.25597],[-75.54538,5.25598],[-75.54539,5.25599],[-75.5454,5.256],[-75.5454,5.25601],[-75.54542,5.25602],[-75.54542,5.25602],[-75.54543,5.25603],[-75.54545,5.25603],[-75.54547,5.25603],[-75.54548,5.25604],[-75.54548,5.25604],[-75.54548,5.25604],[-75.54548,5.25604],[-75.54547,5.25605],[-75.54547,5.25605],[-75.54547,5.25605],[-75.54547,5.25606],[-75.54547,5.25606],[-75.54547,5.25606],[-75.5455,5.25609],[-75.54551,5.2561],[-75.54552,5.2561],[-75.54552,5.25611],[-75.54553,5.25611],[-75.54554,5.25611],[-75.54554,5.25611],[-75.54555,5.25611],[-75.54555,5.25611],[-75.54555,5.2561],[-75.54555,5.2561],[-75.54555,5.25609],[-75.54555,5.25609],[-75.54555,5.25608],[-75.54554,5.25607],[-75.54552,5.25603],[-75.5455,5.25599],[-75.54547,5.25596],[-75.54547,5.25595],[-75.54544,5.25591],[-75.54543,5.25589],[-75.54542,5.25586],[-75.54541,5.25585],[-75.54541,5.25584],[-75.5454,5.25582],[-75.5454,5.25581],[-75.5454,5.25579],[-75.5454,5.25578],[-75.54541,5.25576],[-75.54541,5.25575],[-75.54542,5.25573],[-75.54542,5.25571],[-75.54543,5.25565],[-75.54543,5.25565],[-75.54543,5.25564],[-75.54543,5.25564],[-75.54543,5.25564],[-75.54542,5.25564],[-75.54542,5.25564]]],[[[-75.5453,5.25604],[-75.5453,5.25604],[-75.5453,5.25604],[-75.5453,5.25605],[-75.5453,5.25605],[-75.5453,5.25606],[-75.54531,5.25609],[-75.54531,5.2561],[-75.54532,5.2561],[-75.54532,5.25611],[-75.54533,5.25612],[-75.54535,5.25616],[-75.54536,5.25617],[-75.54537,5.25617],[-75.54537,5.25619],[-75.54538,5.25622],[-75.54538,5.25622],[-75.54543,5.25627],[-75.54544,5.25628],[-75.54545,5.25629],[-75.54546,5.2563],[-75.54548,5.2563],[-75.54549,5.25631],[-75.54558,5.25634],[-75.54559,5.25634],[-75.54561,5.25634],[-75.54562,5.25634],[-75.54563,5.25634],[-75.54569,5.25633],[-75.54569,5.25633],[-75.54568,5.25633],[-75.54566,5.25631],[-75.54565,5.2563],[-75.54564,5.2563],[-75.54564,5.25629],[-75.54564,5.25629],[-75.54564,5.25629],[-75.54565,5.25628],[-75.54565,5.25628],[-75.54565,5.25628],[-75.54564,5.25628],[-75.54563,5.25627],[-75.54562,5.25627],[-75.54561,5.25626],[-75.5456,5.25626],[-75.54557,5.25624],[-75.54556,5.25623],[-75.54554,5.25622],[-75.5455,5.25621],[-75.54549,5.2562],[-75.54549,5.2562],[-75.54547,5.25619],[-75.54546,5.25617],[-75.54542,5.25612],[-75.5454,5.2561],[-75.54539,5.25609],[-75.54538,5.25608],[-75.54536,5.25607],[-75.54534,5.25605],[-75.54533,5.25604],[-75.54532,5.25604],[-75.54532,5.25604],[-75.54531,5.25604],[-75.54531,5.25604],[-75.5453,5.25604]]],[[[-75.5449,5.25643],[-75.54495,5.25645],[-75.54499,5.25647],[-75.54501,5.25648],[-75.54504,5.25649],[-75.54505,5.2565],[-75.54508,5.25651],[-75.54514,5.25654],[-75.54514,5.25654],[-75.54516,5.25652],[-75.54519,5.25648],[-75.54519,5.25647],[-75.5452,5.25645],[-75.54521,5.25644],[-75.54522,5.25639],[-75.54523,5.25636],[-75.54523,5.25634],[-75.54522,5.25626],[-75.54522,5.25625],[-75.54522,5.25624],[-75.54522,5.25624],[-75.54522,5.25624],[-75.54521,5.25623],[-75.54521,5.2562],[-75.5452,5.2562],[-75.5452,5.25619],[-75.5452,5.25619],[-75.5452,5.25619],[-75.54519,5.25619],[-75.54519,5.25619],[-75.54518,5.25619],[-75.54517,5.2562],[-75.54517,5.2562],[-75.54517,5.2562],[-75.54517,5.25621],[-75.54517,5.25621],[-75.54517,5.25623],[-75.54517,5.25624],[-75.54517,5.25627],[-75.54517,5.25628],[-75.54517,5.25628],[-75.54517,5.25629],[-75.54517,5.25629],[-75.54516,5.2563],[-75.54515,5.2563],[-75.54515,5.2563],[-75.54514,5.25631],[-75.54514,5.25632],[-75.54514,5.25632],[-75.54513,5.25634],[-75.54513,5.25637],[-75.54513,5.25638],[-75.54513,5.25639],[-75.54513,5.2564],[-75.54513,5.2564],[-75.54512,5.2564],[-75.54512,5.2564],[-75.54512,5.25641],[-75.54511,5.25642],[-75.54511,5.25642],[-75.54511,5.25642],[-75.5451,5.25642],[-75.5451,5.25642],[-75.54509,5.25643],[-75.54508,5.25643],[-75.54508,5.25643],[-75.54506,5.25643],[-75.54506,5.25643],[-75.54505,5.25643],[-75.54505,5.25643],[-75.54504,5.25643],[-75.54504,5.25643],[-75.54504,5.25642],[-75.54504,5.25642],[-75.54503,5.25642],[-75.54503,5.25642],[-75.54503,5.25641],[-75.54503,5.2564],[-75.54503,5.25639],[-75.54504,5.25635],[-75.54504,5.25632],[-75.54504,5.25626],[-75.54504,5.25619],[-75.54504,5.25617],[-75.54504,5.25616],[-75.54505,5.25612],[-75.54505,5.25611],[-75.54505,5.2561],[-75.54505,5.25609],[-75.54507,5.25606],[-75.54507,5.25604],[-75.54508,5.25603],[-75.54508,5.25602],[-75.54509,5.25601],[-75.54516,5.25593],[-75.54521,5.25584],[-75.54524,5.25582],[-75.5453,5.25575],[-75.54531,5.25574],[-75.54532,5.25572],[-75.54535,5.25568],[-75.54536,5.25566],[-75.54537,5.25564],[-75.54537,5.25563],[-75.54538,5.25562],[-75.54538,5.2556],[-75.54538,5.25559],[-75.54538,5.25557],[-75.54538,5.25555],[-75.54538,5.25554],[-75.54537,5.25552],[-75.54537,5.25552],[-75.54535,5.25545],[-75.54533,5.2554],[-75.54533,5.25538],[-75.54532,5.25536],[-75.54532,5.25535],[-75.54531,5.25534],[-75.5453,5.25533],[-75.54529,5.25532],[-75.54527,5.2553],[-75.54526,5.25529],[-75.54524,5.25527],[-75.54522,5.25524],[-75.54522,5.25523],[-75.54522,5.25522],[-75.54521,5.25521],[-75.54521,5.2552],[-75.54521,5.25519],[-75.54521,5.25519],[-75.54521,5.25518],[-75.54522,5.25518],[-75.54522,5.25518],[-75.54522,5.25517],[-75.54523,5.25517],[-75.54523,5.25517],[-75.54524,5.25517],[-75.54528,5.25517],[-75.54531,5.25516],[-75.54532,5.25516],[-75.54534,5.25515],[-75.54535,5.25515],[-75.54535,5.25515],[-75.54537,5.25514],[-75.54538,5.25513],[-75.54546,5.25507],[-75.54549,5.25504],[-75.54551,5.25503],[-75.54553,5.25502],[-75.54555,5.25501],[-75.54558,5.25502],[-75.54559,5.25503],[-75.54561,5.25506],[-75.54562,5.25506],[-75.54562,5.25506],[-75.54562,5.25507],[-75.54562,5.25508],[-75.54562,5.25509],[-75.54562,5.25509],[-75.54562,5.2551],[-75.54562,5.2551],[-75.54564,5.25515],[-75.54566,5.2552],[-75.54567,5.25524],[-75.54567,5.25526],[-75.54566,5.25529],[-75.54564,5.2553],[-75.5456,5.25527],[-75.54559,5.25526],[-75.54559,5.25526],[-75.54559,5.25526],[-75.54559,5.25526],[-75.54558,5.25526],[-75.54557,5.25528],[-75.54557,5.25528],[-75.54556,5.25529],[-75.54556,5.25529],[-75.54556,5.2553],[-75.54556,5.2553],[-75.54556,5.25536],[-75.54556,5.25538],[-75.54556,5.25547],[-75.54556,5.25551],[-75.54556,5.25552],[-75.54556,5.25553],[-75.54555,5.25557],[-75.54555,5.25557],[-75.54555,5.25559],[-75.54555,5.2556],[-75.54555,5.25561],[-75.54556,5.25562],[-75.54556,5.25562],[-75.54556,5.25563],[-75.54557,5.25564],[-75.54557,5.25564],[-75.54557,5.25565],[-75.54558,5.25566],[-75.54557,5.25567],[-75.54557,5.25568],[-75.54557,5.25569],[-75.54557,5.25569],[-75.54557,5.2557],[-75.54557,5.25572],[-75.54557,5.25573],[-75.54557,5.25574],[-75.54558,5.25575],[-75.54558,5.25575],[-75.54558,5.25576],[-75.54559,5.25578],[-75.5456,5.25579],[-75.54561,5.25581],[-75.54565,5.25585],[-75.54565,5.25587],[-75.54566,5.25587],[-75.54566,5.25588],[-75.54566,5.25589],[-75.54566,5.25589],[-75.54567,5.2559],[-75.54567,5.2559],[-75.54567,5.25592],[-75.54567,5.25593],[-75.54568,5.25594],[-75.54568,5.25596],[-75.54569,5.25597],[-75.5457,5.25598],[-75.5457,5.256],[-75.54572,5.25603],[-75.54572,5.25604],[-75.54573,5.25604],[-75.54573,5.25605],[-75.54573,5.25605],[-75.54573,5.25605],[-75.54574,5.25605],[-75.54574,5.25605],[-75.54574,5.25604],[-75.54574,5.25603],[-75.54575,5.25602],[-75.54575,5.25601],[-75.54574,5.256],[-75.54574,5.25599],[-75.54574,5.25598],[-75.54574,5.25597],[-75.54573,5.25592],[-75.54572,5.25591],[-75.54572,5.25586],[-75.54571,5.25585],[-75.54571,5.25583],[-75.5457,5.25582],[-75.54569,5.25579],[-75.54568,5.25577],[-75.54566,5.25574],[-75.54566,5.25573],[-75.54565,5.25572],[-75.54565,5.25571],[-75.54564,5.25569],[-75.54564,5.25568],[-75.54564,5.25567],[-75.54565,5.25566],[-75.54565,5.25563],[-75.54565,5.25561],[-75.54565,5.25561],[-75.54565,5.2556],[-75.54565,5.25557],[-75.54565,5.25555],[-75.54565,5.25554],[-75.54566,5.25553],[-75.54566,5.25551],[-75.54567,5.2555],[-75.54568,5.25547],[-75.54569,5.25544],[-75.5457,5.25543],[-75.54571,5.25541],[-75.54574,5.25537],[-75.54574,5.25537],[-75.54578,5.25532],[-75.54578,5.25532],[-75.54578,5.25532],[-75.54578,5.25531],[-75.54579,5.25531],[-75.54579,5.2553],[-75.5458,5.2553],[-75.5458,5.2553],[-75.5458,5.2553],[-75.54581,5.25531],[-75.54581,5.25531],[-75.54581,5.25532],[-75.54581,5.25533],[-75.54582,5.25534],[-75.54582,5.25534],[-75.54582,5.25537],[-75.54582,5.25539],[-75.54581,5.25541],[-75.54581,5.25542],[-75.54581,5.25543],[-75.54581,5.25544],[-75.54581,5.25545],[-75.54581,5.25545],[-75.54581,5.25545],[-75.54581,5.25545],[-75.54581,5.25545],[-75.54582,5.25545],[-75.54582,5.25546],[-75.54582,5.25546],[-75.54582,5.25547],[-75.54582,5.25549],[-75.54582,5.2555],[-75.54582,5.25552],[-75.54582,5.25552],[-75.54582,5.25553],[-75.54582,5.25553],[-75.54581,5.25553],[-75.54581,5.25553],[-75.5458,5.25552],[-75.5458,5.25552],[-75.54579,5.25552],[-75.54579,5.25552],[-75.54579,5.25552],[-75.54579,5.25552],[-75.54578,5.25552],[-75.54578,5.25553],[-75.54578,5.25554],[-75.54577,5.25555],[-75.54577,5.25559],[-75.54576,5.25561],[-75.54575,5.25565],[-75.54575,5.25567],[-75.54575,5.25568],[-75.54574,5.25569],[-75.54574,5.25571],[-75.54575,5.25573],[-75.54575,5.25575],[-75.54575,5.25576],[-75.54575,5.25577],[-75.54575,5.25579],[-75.54576,5.25581],[-75.54577,5.25587],[-75.54578,5.25591],[-75.54579,5.25595],[-75.5458,5.25601],[-75.5458,5.25604],[-75.54581,5.25605],[-75.54581,5.25606],[-75.54581,5.25607],[-75.54581,5.25608],[-75.54581,5.2561],[-75.54581,5.25611],[-75.54581,5.25612],[-75.5458,5.25612],[-75.5458,5.25613],[-75.5458,5.25613],[-75.5458,5.25614],[-75.54578,5.25616],[-75.54578,5.25616],[-75.54578,5.25617],[-75.54578,5.25617],[-75.54578,5.25617],[-75.54579,5.25618],[-75.54579,5.25618],[-75.5458,5.25619],[-75.5458,5.2562],[-75.5458,5.2562],[-75.5458,5.25621],[-75.5458,5.25621],[-75.54579,5.25622],[-75.54578,5.25622],[-75.54577,5.25623],[-75.54576,5.25624],[-75.54575,5.25624],[-75.54574,5.25624],[-75.54573,5.25625],[-75.54573,5.25625],[-75.54572,5.25625],[-75.54572,5.25626],[-75.54572,5.25626],[-75.54572,5.25626],[-75.54572,5.25627],[-75.54572,5.25627],[-75.54572,5.25627],[-75.54572,5.25628],[-75.54573,5.25628],[-75.54573,5.25628],[-75.54574,5.25628],[-75.54574,5.25628],[-75.54575,5.25628],[-75.54575,5.25628],[-75.54576,5.25628],[-75.54578,5.25628],[-75.54581,5.25627],[-75.54582,5.25627],[-75.54583,5.25626],[-75.54583,5.25626],[-75.54583,5.25626],[-75.54584,5.25625],[-75.54585,5.25624],[-75.54586,5.25622],[-75.54587,5.25621],[-75.54587,5.2562],[-75.54588,5.25619],[-75.54589,5.25617],[-75.5459,5.25614],[-75.5459,5.25614],[-75.54591,5.25613],[-75.54591,5.25611],[-75.54591,5.2561],[-75.54591,5.25609],[-75.54591,5.25601],[-75.54591,5.25599],[-75.5459,5.25593],[-75.5459,5.25589],[-75.54589,5.25587],[-75.54589,5.25586],[-75.54589,5.25586],[-75.54587,5.25579],[-75.54586,5.25574],[-75.54586,5.25573],[-75.54586,5.25566],[-75.54586,5.25566],[-75.54586,5.25566],[-75.54586,5.25567],[-75.54585,5.25567],[-75.54585,5.25567],[-75.54585,5.25567],[-75.54585,5.25568],[-75.54586,5.25571],[-75.54586,5.25572],[-75.54586,5.25575],[-75.54586,5.25578],[-75.54585,5.2558],[-75.54585,5.25582],[-75.54585,5.25584],[-75.54585,5.25586],[-75.54585,5.25587],[-75.54586,5.25588],[-75.54587,5.25594],[-75.54587,5.25596],[-75.54587,5.25597],[-75.54587,5.256],[-75.54587,5.25602],[-75.54588,5.25604],[-75.54588,5.25605],[-75.54588,5.25608],[-75.54588,5.2561],[-75.54588,5.25612],[-75.54588,5.25612],[-75.54588,5.25613],[-75.54588,5.25613],[-75.54588,5.25613],[-75.54588,5.25613],[-75.54588,5.25614],[-75.54587,5.25614],[-75.54585,5.25615],[-75.54584,5.25616],[-75.54582,5.25617],[-75.54582,5.25617],[-75.54581,5.25617],[-75.54581,5.25617],[-75.54581,5.25617],[-75.54581,5.25617],[-75.54581,5.25616],[-75.54581,5.25613],[-75.54582,5.25611],[-75.54582,5.25607],[-75.54581,5.25604],[-75.54581,5.25602],[-75.5458,5.25596],[-75.5458,5.25596],[-75.5458,5.25595],[-75.54578,5.25588],[-75.54578,5.25586],[-75.54577,5.25584],[-75.54577,5.25582],[-75.54577,5.25579],[-75.54577,5.25578],[-75.54577,5.25576],[-75.54577,5.25575],[-75.54578,5.25574],[-75.54579,5.25571],[-75.5458,5.25569],[-75.5458,5.25569],[-75.5458,5.25568],[-75.5458,5.25567],[-75.5458,5.25567],[-75.5458,5.25564],[-75.5458,5.25564],[-75.5458,5.25563],[-75.54581,5.25562],[-75.54581,5.2556],[-75.54583,5.25558],[-75.54583,5.25557],[-75.54584,5.25556],[-75.54584,5.25554],[-75.54585,5.25544],[-75.54585,5.2554],[-75.54585,5.25539],[-75.54585,5.25537],[-75.54586,5.25536],[-75.54586,5.25535],[-75.54587,5.25534],[-75.54587,5.25533],[-75.54589,5.25531],[-75.5459,5.2553],[-75.54591,5.25529],[-75.54591,5.25529],[-75.54591,5.25528],[-75.54592,5.25527],[-75.54592,5.25526],[-75.54591,5.25525],[-75.54591,5.25525],[-75.54591,5.25523],[-75.5459,5.25521],[-75.5459,5.25521],[-75.54589,5.2552],[-75.54589,5.2552],[-75.54589,5.25519],[-75.54589,5.25519],[-75.5459,5.25518],[-75.5459,5.25518],[-75.5459,5.25518],[-75.5459,5.25518],[-75.54591,5.25518],[-75.54591,5.25518],[-75.54591,5.25519],[-75.54592,5.25519],[-75.54592,5.2552],[-75.54592,5.2552],[-75.54593,5.25522],[-75.54593,5.25522],[-75.54594,5.25522],[-75.54595,5.25524],[-75.54595,5.25524],[-75.54596,5.25515],[-75.54596,5.25514],[-75.54598,5.25515],[-75.54598,5.25513],[-75.54598,5.25511],[-75.54598,5.25509],[-75.54597,5.25499],[-75.54596,5.25496],[-75.54594,5.25498],[-75.54592,5.25499],[-75.54592,5.255],[-75.54591,5.25501],[-75.5459,5.25502],[-75.54589,5.25503],[-75.54588,5.25505],[-75.54587,5.25507],[-75.54587,5.25509],[-75.54586,5.2551],[-75.54586,5.25512],[-75.54585,5.25513],[-75.54585,5.25516],[-75.54585,5.25516],[-75.54585,5.25518],[-75.54585,5.25518],[-75.54584,5.25519],[-75.54584,5.2552],[-75.54584,5.25521],[-75.54583,5.25522],[-75.54583,5.25522],[-75.54582,5.25523],[-75.54582,5.25523],[-75.54582,5.25523],[-75.54581,5.25523],[-75.54581,5.25523],[-75.5458,5.25523],[-75.5458,5.25522],[-75.5458,5.25522],[-75.5458,5.25521],[-75.5458,5.2552],[-75.54579,5.2552],[-75.54579,5.25519],[-75.54579,5.25517],[-75.54578,5.25512],[-75.54578,5.25509],[-75.54577,5.25508],[-75.54577,5.25507],[-75.54577,5.25506],[-75.54577,5.25506],[-75.54576,5.25506],[-75.54576,5.25505],[-75.54575,5.25505],[-75.54574,5.25504],[-75.54573,5.25504],[-75.54573,5.25503],[-75.54572,5.25503],[-75.54572,5.25503],[-75.54572,5.25502],[-75.54572,5.25502],[-75.54572,5.25502],[-75.54573,5.25501],[-75.54573,5.25501],[-75.54574,5.255],[-75.54574,5.255],[-75.54574,5.255],[-75.54574,5.255],[-75.54575,5.25499],[-75.54574,5.25499],[-75.54574,5.25498],[-75.54574,5.25498],[-75.54574,5.25497],[-75.54573,5.25496],[-75.54572,5.25496],[-75.54571,5.25495],[-75.5457,5.25494],[-75.54569,5.25493],[-75.54566,5.25491],[-75.54565,5.25491],[-75.54562,5.2549],[-75.54561,5.2549],[-75.5456,5.25489],[-75.54558,5.25487],[-75.54553,5.25483],[-75.54551,5.25481],[-75.54545,5.25478],[-75.54541,5.25478],[-75.5454,5.25479],[-75.54539,5.25479],[-75.54539,5.25479],[-75.54537,5.25481],[-75.54535,5.25482],[-75.54532,5.25483],[-75.5453,5.25485],[-75.54528,5.25486],[-75.54527,5.25487],[-75.54526,5.25488],[-75.54525,5.25489],[-75.54523,5.25493],[-75.54522,5.25494],[-75.54521,5.25494],[-75.54517,5.255],[-75.54514,5.25503],[-75.54513,5.25505],[-75.54513,5.25505],[-75.54512,5.25506],[-75.54512,5.25508],[-75.54512,5.25508],[-75.54511,5.2551],[-75.54511,5.25511],[-75.5451,5.25512],[-75.54511,5.25515],[-75.54511,5.25515],[-75.54511,5.25516],[-75.5451,5.25516],[-75.5451,5.25516],[-75.5451,5.25516],[-75.54509,5.25516],[-75.54509,5.25515],[-75.54508,5.25514],[-75.54507,5.25512],[-75.54506,5.2551],[-75.54506,5.2551],[-75.54506,5.25508],[-75.54505,5.25507],[-75.54505,5.25506],[-75.54505,5.25504],[-75.54505,5.25504],[-75.54506,5.25502],[-75.54507,5.25499],[-75.54507,5.25499],[-75.54511,5.2549],[-75.54511,5.25489],[-75.54511,5.25488],[-75.54512,5.25487],[-75.54512,5.25486],[-75.54514,5.25483],[-75.54518,5.25473],[-75.54519,5.25471],[-75.54521,5.25466],[-75.54521,5.25466],[-75.54522,5.25464],[-75.54523,5.25463],[-75.54523,5.25461],[-75.54523,5.2546],[-75.54523,5.25458],[-75.54523,5.25456],[-75.54523,5.25454],[-75.54522,5.25451],[-75.54522,5.25449],[-75.54522,5.25449],[-75.54523,5.25447],[-75.54523,5.25446],[-75.54524,5.25444],[-75.54525,5.25443],[-75.54526,5.25442],[-75.54527,5.25441],[-75.54527,5.25441],[-75.54529,5.2544],[-75.5453,5.25439],[-75.54532,5.25439],[-75.54533,5.25439],[-75.54534,5.25438],[-75.54534,5.25438],[-75.54535,5.25438],[-75.54536,5.25437],[-75.54537,5.25436],[-75.54538,5.25435],[-75.54538,5.25434],[-75.54539,5.25434],[-75.5454,5.25432],[-75.5454,5.25431],[-75.5454,5.2543],[-75.54541,5.25429],[-75.54542,5.25424],[-75.54543,5.25423],[-75.54544,5.25422],[-75.54545,5.2542],[-75.54546,5.25418],[-75.5455,5.25414],[-75.5455,5.25414],[-75.54551,5.25413],[-75.54551,5.25412],[-75.54552,5.25411],[-75.54552,5.2541],[-75.54553,5.25408],[-75.54553,5.25407],[-75.54553,5.25406],[-75.54553,5.25404],[-75.54553,5.25403],[-75.54553,5.254],[-75.54553,5.25399],[-75.54553,5.25398],[-75.54553,5.25397],[-75.54553,5.25395],[-75.54553,5.25395],[-75.54553,5.25394],[-75.54552,5.25394],[-75.54552,5.25393],[-75.54552,5.25393],[-75.54551,5.25392],[-75.54551,5.25392],[-75.54551,5.25392],[-75.5455,5.25392],[-75.54549,5.25392],[-75.54549,5.25392],[-75.54548,5.25393],[-75.54546,5.25394],[-75.54545,5.25395],[-75.54544,5.25396],[-75.54543,5.25396],[-75.54543,5.25397],[-75.54543,5.25397],[-75.54543,5.25397],[-75.54544,5.25397],[-75.54544,5.25398],[-75.54545,5.25398],[-75.54545,5.25398],[-75.54549,5.25397],[-75.54549,5.25397],[-75.54549,5.25397],[-75.5455,5.25397],[-75.5455,5.25398],[-75.5455,5.25398],[-75.5455,5.25398],[-75.5455,5.25399],[-75.5455,5.25399],[-75.5455,5.254],[-75.5455,5.25401],[-75.5455,5.25404],[-75.54549,5.25405],[-75.54549,5.25406],[-75.54548,5.25408],[-75.54548,5.25408],[-75.54547,5.25409],[-75.54547,5.2541],[-75.54546,5.2541],[-75.54546,5.2541],[-75.54545,5.25411],[-75.54545,5.25411],[-75.54544,5.25411],[-75.54544,5.2541],[-75.54543,5.2541],[-75.54543,5.2541],[-75.54543,5.25409],[-75.54543,5.25409],[-75.54544,5.25408],[-75.54545,5.25405],[-75.54545,5.25404],[-75.54545,5.25404],[-75.54545,5.25403],[-75.54545,5.25403],[-75.54545,5.25403],[-75.54544,5.25402],[-75.54544,5.25402],[-75.54544,5.25402],[-75.54543,5.25402],[-75.54543,5.25402],[-75.54543,5.25402],[-75.54543,5.25403],[-75.54541,5.25405],[-75.5454,5.25406],[-75.54539,5.25408],[-75.54537,5.2541],[-75.54537,5.25411],[-75.54536,5.25412],[-75.54536,5.25412],[-75.54536,5.25413],[-75.54536,5.25413],[-75.54536,5.25413],[-75.54537,5.25413],[-75.54537,5.25414],[-75.54537,5.25414],[-75.54538,5.25414],[-75.54538,5.25414],[-75.54538,5.25414],[-75.54538,5.25415],[-75.54538,5.25415],[-75.54538,5.25416],[-75.54538,5.25416],[-75.54537,5.25419],[-75.54537,5.2542],[-75.54536,5.25421],[-75.54535,5.25426],[-75.54535,5.25427],[-75.54535,5.25428],[-75.54534,5.25428],[-75.54534,5.25429],[-75.54532,5.25431],[-75.54531,5.25432],[-75.5453,5.25433],[-75.5453,5.25433],[-75.54529,5.25434],[-75.54527,5.25435],[-75.54526,5.25435],[-75.54525,5.25435],[-75.54524,5.25436],[-75.54524,5.25436],[-75.54523,5.25436],[-75.54523,5.25435],[-75.54522,5.25435],[-75.54522,5.25435],[-75.54522,5.25435],[-75.54522,5.25435],[-75.54522,5.25434],[-75.54522,5.25434],[-75.54523,5.25432],[-75.54523,5.25432],[-75.54523,5.25431],[-75.54523,5.25431],[-75.54522,5.25431],[-75.54522,5.25431],[-75.54522,5.25431],[-75.5452,5.2543],[-75.54519,5.2543],[-75.54519,5.2543],[-75.54519,5.2543],[-75.54518,5.2543],[-75.54518,5.25429],[-75.54518,5.25429],[-75.54518,5.25429],[-75.54518,5.25428],[-75.54518,5.25428],[-75.54518,5.25428],[-75.54519,5.25428],[-75.54519,5.25427],[-75.54519,5.25427],[-75.5452,5.25427],[-75.5452,5.25426],[-75.54521,5.25425],[-75.54522,5.25424],[-75.54522,5.25423],[-75.54523,5.25423],[-75.54525,5.25421],[-75.54525,5.25421],[-75.54527,5.25419],[-75.54527,5.25419],[-75.54527,5.25419],[-75.54531,5.25416],[-75.54531,5.25415],[-75.54531,5.25415],[-75.54531,5.25415],[-75.54531,5.25415],[-75.5453,5.25415],[-75.54528,5.25415],[-75.54527,5.25415],[-75.54527,5.25415],[-75.54526,5.25414],[-75.54526,5.25414],[-75.54526,5.25413],[-75.54525,5.25413],[-75.54525,5.25412],[-75.54525,5.25411],[-75.54524,5.25411],[-75.54524,5.25411],[-75.54524,5.25411],[-75.54524,5.25411],[-75.54523,5.25411],[-75.54522,5.25414],[-75.54522,5.25414],[-75.54522,5.25415],[-75.54521,5.25415],[-75.54521,5.25415],[-75.54521,5.25415],[-75.54521,5.25416],[-75.5452,5.25416],[-75.5452,5.25416],[-75.54519,5.25416],[-75.54519,5.25416],[-75.54519,5.25415],[-75.54518,5.25415],[-75.54518,5.25415],[-75.54518,5.25414],[-75.54519,5.25413],[-75.54519,5.25412],[-75.54519,5.25411],[-75.5452,5.2541],[-75.54521,5.25407],[-75.54523,5.25406],[-75.54527,5.25399],[-75.54528,5.25398],[-75.54529,5.25397],[-75.54531,5.25396],[-75.54534,5.25393],[-75.54535,5.25392],[-75.54535,5.25392],[-75.54536,5.25391],[-75.54537,5.2539],[-75.54538,5.25389],[-75.54538,5.25388],[-75.54542,5.25381],[-75.5453,5.25374],[-75.54521,5.25369],[-75.54516,5.25366],[-75.54514,5.25365],[-75.54514,5.25364],[-75.54507,5.2536],[-75.54504,5.25366],[-75.54504,5.25367],[-75.54494,5.25382],[-75.54483,5.25397],[-75.54484,5.25398],[-75.54486,5.25401],[-75.54498,5.25408],[-75.54498,5.25408],[-75.54499,5.25409],[-75.54499,5.25409],[-75.54499,5.25411],[-75.54497,5.25416],[-75.54497,5.25419],[-75.54496,5.25424],[-75.54489,5.25429],[-75.54488,5.25431],[-75.5448,5.25443],[-75.54477,5.25447],[-75.54476,5.2545],[-75.54471,5.25448],[-75.54465,5.25444],[-75.54464,5.25444],[-75.54464,5.25444],[-75.5446,5.25442],[-75.5446,5.25444],[-75.54456,5.25452],[-75.54455,5.25456],[-75.5446,5.25458],[-75.54464,5.2546],[-75.5447,5.25463],[-75.54468,5.25467],[-75.54464,5.2548],[-75.54464,5.25481],[-75.54475,5.25485],[-75.54481,5.25488],[-75.54487,5.2549],[-75.54488,5.25485],[-75.5449,5.25478],[-75.54491,5.25474],[-75.54496,5.25462],[-75.54496,5.25462],[-75.54496,5.25461],[-75.54501,5.25462],[-75.54505,5.25463],[-75.54511,5.25464],[-75.54512,5.25464],[-75.54516,5.25465],[-75.54516,5.25465],[-75.54515,5.25469],[-75.54515,5.2547],[-75.54511,5.25479],[-75.54505,5.25494],[-75.54505,5.25494],[-75.54504,5.25495],[-75.54498,5.25505],[-75.54496,5.25508],[-75.54493,5.25513],[-75.54486,5.25523],[-75.54483,5.2553],[-75.54482,5.25531],[-75.54481,5.25534],[-75.54481,5.25535],[-75.54475,5.25548],[-75.54475,5.25549],[-75.54474,5.25551],[-75.54469,5.25563],[-75.54468,5.25566],[-75.54469,5.25566],[-75.54477,5.2557],[-75.5448,5.25571],[-75.54483,5.25572],[-75.54483,5.25573],[-75.54489,5.25575],[-75.54489,5.25575],[-75.54486,5.25582],[-75.54486,5.25582],[-75.54484,5.25585],[-75.54481,5.2559],[-75.54471,5.25608],[-75.54472,5.25608],[-75.54472,5.25608],[-75.54473,5.25608],[-75.54473,5.25608],[-75.54475,5.25608],[-75.54476,5.25608],[-75.54477,5.25608],[-75.54477,5.25608],[-75.54478,5.25609],[-75.54479,5.25609],[-75.54479,5.2561],[-75.54479,5.2561],[-75.5448,5.2561],[-75.54481,5.25611],[-75.54481,5.25612],[-75.54482,5.25613],[-75.54482,5.25615],[-75.54483,5.25617],[-75.54483,5.25619],[-75.54484,5.25621],[-75.54484,5.25622],[-75.54484,5.25623],[-75.54484,5.25625],[-75.54484,5.25625],[-75.54484,5.25626],[-75.54483,5.25626],[-75.54483,5.25627],[-75.54482,5.25628],[-75.54482,5.25628],[-75.54481,5.25629],[-75.5448,5.25629],[-75.54478,5.25631],[-75.54477,5.25631],[-75.54476,5.25633],[-75.54474,5.25633],[-75.54473,5.25634],[-75.54472,5.25634],[-75.54471,5.25635],[-75.54476,5.25637],[-75.5448,5.25638],[-75.54482,5.25639],[-75.5449,5.25643]]]]},"properties":{"OBJECTID":3,"gridcode":2,"Amenaza":"Media","Area_m2":18029.0160218,"RuleID":2,"Override":null,"Shape_Length":2323.1215303768327,"Shape_Area":18029.01418035823}}]}