{"type":"FeatureCollection","name":"Am_AVT_CPR_Varsovia","crs":{"type":"name","properties":{"name":"urn:ogc:def:crs:OGC:1.3:CRS84"}},"features":[{"type":"Feature","id":1,"geometry":{"type":"MultiPolygon","coordinates":[[[[-75.54511,5.25628],[-75.5452,5.25628],[-75.54515,5.25622],[-75.54511,5.25628]]],[[[-75.54472,5.25635],[-75.54476,5.25637],[-75.54476,5.25637],[-75.54476,5.25632],[-75.54472,5.25633],[-75.54472,5.25635]]]]},"properties":{"OBJECTID":1,"gridcode":1,"Categoria_":"BAJA","AREA_Ha":102.071505998,"Shape_Leng":58121.5338133,"Zonf_Amz":"POMCA RIO TAPIAS","RuleID":1,"Override":null,"Shape_Length":43.71519520396353,"Shape_Area":50.81370514607961}},{"type":"Feature","id":2,"geometry":{"type":"Polygon","coordinates":[[[-75.54476,5.25637],[-75.54482,5.25639],[-75.54514,5.25654],[-75.54519,5.25648],[-75.54519,5.25647],[-75.5452,5.25645],[-75.54521,5.25644],[-75.54522,5.25639],[-75.54523,5.25636],[-75.54523,5.25634],[-75.54522,5.25629],[-75.5452,5.25628],[-75.54511,5.25628],[-75.54476,5.25632],[-75.54476,5.25637],[-75.54476,5.25637]]]},"properties":{"OBJECTID":2,"gridcode":2,"Categoria_":"MEDIA","AREA_Ha":1111.86880014,"Shape_Leng":128996.297138,"Zonf_Amz":"POMCA RIO TAPIAS","RuleID":2,"Override":null,"Shape_Length":133.4454348636946,"Shape_Area":909.3003230590762}}]}