{"type":"FeatureCollection","name":"Am_Ind_CPR_La_Honda","crs":{"type":"name","properties":{"name":"urn:ogc:def:crs:OGC:1.3:CRS84"}},"features":[{"type":"Feature","id":1,"geometry":{"type":"MultiPolygon","coordinates":[[[[-75.51185,5.25442],[-75.51184,5.25442],[-75.51184,5.25444],[-75.51184,5.25444],[-75.51183,5.25444],[-75.51179,5.25452],[-75.51179,5.25452],[-75.51179,5.25453],[-75.51179,5.25453],[-75.51178,5.25454],[-75.51178,5.25455],[-75.51178,5.25455],[-75.51178,5.25455],[-75.5118,5.25456],[-75.5118,5.25456],[-75.51182,5.25457],[-75.51183,5.25457],[-75.51184,5.25457],[-75.51184,5.25457],[-75.51185,5.25457],[-75.51185,5.25456],[-75.51186,5.25455],[-75.51186,5.25455],[-75.51186,5.25455],[-75.51186,5.25454],[-75.51187,5.25453],[-75.51189,5.25449],[-75.5119,5.25447],[-75.5119,5.25446],[-75.51191,5.25445],[-75.51191,5.25444],[-75.51191,5.25444],[-75.51192,5.25443],[-75.51191,5.25443],[-75.5119,5.25442],[-75.51189,5.25442],[-75.51188,5.25441],[-75.51188,5.25441],[-75.51187,5.25441],[-75.51186,5.25441],[-75.51186,5.25441],[-75.51186,5.25441],[-75.51186,5.25441],[-75.51185,5.25441],[-75.51185,5.25441],[-75.51185,5.25442]]],[[[-75.51058,5.25466],[-75.51058,5.25466],[-75.51057,5.25467],[-75.51056,5.2547],[-75.51055,5.25471],[-75.51056,5.25472],[-75.51057,5.25472],[-75.51058,5.25472],[-75.51062,5.25473],[-75.51062,5.25473],[-75.51063,5.25473],[-75.51064,5.25472],[-75.51066,5.25469],[-75.51066,5.25468],[-75.51066,5.25467],[-75.51067,5.25467],[-75.51066,5.25467],[-75.51065,5.25467],[-75.51062,5.25467],[-75.5106,5.25466],[-75.5106,5.25466],[-75.51058,5.25466],[-75.51058,5.25466]]],[[[-75.51034,5.25531],[-75.51034,5.2553],[-75.51034,5.2553],[-75.51035,5.25525],[-75.51036,5.25522],[-75.51036,5.25522],[-75.51035,5.25522],[-75.51035,5.25524],[-75.51035,5.25524],[-75.51035,5.25524],[-75.51034,5.25524],[-75.51034,5.25525],[-75.51034,5.25525],[-75.51034,5.25526],[-75.51034,5.25526],[-75.51034,5.25526],[-75.51034,5.25526],[-75.51034,5.25526],[-75.51034,5.25527],[-75.51034,5.25527],[-75.51034,5.25528],[-75.51034,5.25528],[-75.51034,5.25528],[-75.51034,5.25529],[-75.51034,5.25529],[-75.51034,5.25529],[-75.51034,5.25529],[-75.51034,5.25531]]],[[[-75.51034,5.25531],[-75.51034,5.25532],[-75.51033,5.25533],[-75.51033,5.25533],[-75.51034,5.25532],[-75.51034,5.25531]]]]},"properties":{"OBJECTID":1,"Amenaza":"Alta","Area":217.93908709830163,"RuleID":1,"Override":null,"Shape_Length":111.81230315058285,"Shape_Area":217.93864596095534}},{"type":"Feature","id":2,"geometry":{"type":"MultiPolygon","coordinates":[[[[-75.51188,5.25441],[-75.51188,5.25441],[-75.51189,5.25442],[-75.5119,5.25442],[-75.51191,5.25443],[-75.51192,5.25443],[-75.51192,5.25442],[-75.51193,5.25441],[-75.51194,5.25438],[-75.51196,5.25435],[-75.51201,5.25428],[-75.51202,5.25427],[-75.51202,5.25426],[-75.51203,5.25425],[-75.51204,5.25424],[-75.51204,5.25424],[-75.51204,5.25423],[-75.51205,5.25423],[-75.51205,5.25422],[-75.51206,5.25422],[-75.51206,5.25422],[-75.51206,5.25422],[-75.51207,5.2542],[-75.51208,5.2542],[-75.51208,5.2542],[-75.51209,5.25419],[-75.51209,5.25419],[-75.51209,5.25423],[-75.5121,5.25425],[-75.5121,5.25426],[-75.5121,5.25426],[-75.51211,5.25435],[-75.51211,5.25436],[-75.5122,5.25436],[-75.51227,5.25435],[-75.51231,5.25434],[-75.51235,5.25434],[-75.51237,5.25435],[-75.51244,5.25436],[-75.51243,5.25429],[-75.51241,5.25429],[-75.51241,5.25429],[-75.5124,5.25428],[-75.5124,5.2543],[-75.51231,5.25432],[-75.5123,5.25431],[-75.5123,5.25431],[-75.51228,5.2543],[-75.51225,5.25428],[-75.5122,5.25425],[-75.5122,5.25425],[-75.51218,5.25423],[-75.51218,5.25423],[-75.51216,5.25422],[-75.51215,5.25421],[-75.51214,5.2542],[-75.51212,5.25419],[-75.5121,5.25418],[-75.51209,5.25418],[-75.51208,5.25417],[-75.51206,5.25416],[-75.51201,5.25414],[-75.512,5.25413],[-75.51194,5.2541],[-75.51194,5.2541],[-75.51192,5.25409],[-75.51191,5.25408],[-75.51191,5.25408],[-75.5119,5.25408],[-75.51189,5.25407],[-75.51189,5.25406],[-75.51188,5.25405],[-75.51187,5.25404],[-75.51187,5.25403],[-75.51187,5.25403],[-75.51187,5.25403],[-75.51186,5.25401],[-75.51186,5.25399],[-75.51186,5.25398],[-75.51186,5.25394],[-75.51186,5.25392],[-75.51186,5.25391],[-75.51186,5.2539],[-75.51185,5.25388],[-75.51184,5.25387],[-75.51183,5.25386],[-75.51182,5.25385],[-75.51181,5.25384],[-75.51181,5.25384],[-75.5118,5.25383],[-75.51179,5.25383],[-75.51178,5.25382],[-75.51177,5.25381],[-75.51175,5.25379],[-75.51173,5.25378],[-75.51172,5.25376],[-75.51172,5.25375],[-75.51169,5.25371],[-75.51169,5.25371],[-75.51167,5.25369],[-75.51165,5.25366],[-75.51164,5.25365],[-75.51163,5.25364],[-75.5116,5.25363],[-75.51159,5.25363],[-75.51157,5.25362],[-75.51156,5.25362],[-75.51154,5.25362],[-75.51152,5.25361],[-75.5115,5.25361],[-75.51144,5.25361],[-75.51144,5.25361],[-75.51143,5.25362],[-75.51136,5.2536],[-75.51135,5.2536],[-75.51133,5.25359],[-75.51131,5.25358],[-75.51131,5.25358],[-75.51129,5.25358],[-75.51129,5.25358],[-75.51129,5.25358],[-75.5113,5.25359],[-75.5113,5.25359],[-75.51131,5.2536],[-75.51131,5.2536],[-75.51132,5.25361],[-75.51134,5.25362],[-75.51137,5.25364],[-75.51137,5.25364],[-75.51139,5.25365],[-75.5114,5.25366],[-75.51143,5.25367],[-75.5115,5.25368],[-75.51152,5.25369],[-75.51153,5.25369],[-75.51154,5.25369],[-75.51155,5.2537],[-75.51157,5.25371],[-75.51157,5.25371],[-75.51159,5.25373],[-75.5116,5.25374],[-75.51161,5.25376],[-75.51161,5.25376],[-75.51162,5.25376],[-75.51163,5.25378],[-75.51165,5.25382],[-75.51166,5.25384],[-75.51168,5.25385],[-75.51169,5.25386],[-75.51171,5.25387],[-75.51176,5.2539],[-75.51178,5.25391],[-75.51179,5.25392],[-75.5118,5.25393],[-75.5118,5.25395],[-75.5118,5.25396],[-75.5118,5.25397],[-75.5118,5.25398],[-75.5118,5.25399],[-75.51179,5.254],[-75.51179,5.25401],[-75.51178,5.25403],[-75.51178,5.25403],[-75.51177,5.25402],[-75.51176,5.25402],[-75.51174,5.25401],[-75.51173,5.25401],[-75.51172,5.254],[-75.5117,5.25399],[-75.51158,5.25397],[-75.51156,5.25396],[-75.51156,5.25396],[-75.51149,5.25394],[-75.51143,5.25392],[-75.51142,5.25392],[-75.51146,5.25394],[-75.51152,5.254],[-75.51161,5.25407],[-75.51165,5.2541],[-75.51166,5.25411],[-75.51173,5.25415],[-75.51173,5.25416],[-75.51176,5.25417],[-75.51179,5.25418],[-75.51182,5.2542],[-75.51194,5.25423],[-75.51196,5.25423],[-75.51188,5.25435],[-75.51188,5.25436],[-75.51188,5.25436],[-75.51187,5.25436],[-75.51185,5.2544],[-75.51185,5.25441],[-75.51185,5.25441],[-75.51186,5.25441],[-75.51186,5.25441],[-75.51186,5.25441],[-75.51186,5.25441],[-75.51187,5.25441],[-75.51188,5.25441]]],[[[-75.51177,5.25457],[-75.51175,5.25459],[-75.51175,5.25459],[-75.51175,5.25459],[-75.51174,5.2546],[-75.51174,5.25461],[-75.51173,5.25461],[-75.51173,5.25462],[-75.51171,5.25463],[-75.51172,5.25463],[-75.51178,5.25464],[-75.51178,5.25464],[-75.5118,5.25464],[-75.5118,5.25464],[-75.51181,5.25463],[-75.51182,5.25462],[-75.51183,5.25461],[-75.51183,5.25461],[-75.51183,5.2546],[-75.51184,5.25459],[-75.51185,5.25457],[-75.51184,5.25457],[-75.51184,5.25457],[-75.51183,5.25457],[-75.51182,5.25457],[-75.5118,5.25456],[-75.5118,5.25456],[-75.51178,5.25455],[-75.51178,5.25455],[-75.51178,5.25455],[-75.51177,5.25457]]],[[[-75.51066,5.25469],[-75.51064,5.25472],[-75.51063,5.25473],[-75.51063,5.25473],[-75.51065,5.25474],[-75.51066,5.25474],[-75.5107,5.25475],[-75.5107,5.25475],[-75.51073,5.25476],[-75.51076,5.25473],[-75.51077,5.25472],[-75.51078,5.25471],[-75.51078,5.25471],[-75.51078,5.2547],[-75.51078,5.2547],[-75.51079,5.25469],[-75.5108,5.25466],[-75.5108,5.25466],[-75.5108,5.25463],[-75.51081,5.25458],[-75.51081,5.25458],[-75.51081,5.25456],[-75.51082,5.25455],[-75.51083,5.2545],[-75.51083,5.25449],[-75.51083,5.25449],[-75.51081,5.25448],[-75.51081,5.25448],[-75.51078,5.25457],[-75.51078,5.25457],[-75.51076,5.25462],[-75.51076,5.25464],[-75.51075,5.25467],[-75.51075,5.25467],[-75.51074,5.25469],[-75.51073,5.25469],[-75.51068,5.25468],[-75.51067,5.25468],[-75.51067,5.25467],[-75.51066,5.25467],[-75.51066,5.25468],[-75.51066,5.25469]]],[[[-75.51046,5.25471],[-75.51045,5.25472],[-75.51045,5.25473],[-75.51044,5.25473],[-75.51044,5.25474],[-75.51043,5.25476],[-75.51042,5.25478],[-75.51041,5.25482],[-75.51039,5.25488],[-75.51037,5.25502],[-75.51035,5.2551],[-75.51035,5.2551],[-75.51034,5.25516],[-75.51033,5.25518],[-75.51033,5.2552],[-75.51032,5.25524],[-75.51032,5.25526],[-75.51031,5.25528],[-75.5103,5.2553],[-75.5103,5.2553],[-75.51029,5.25532],[-75.51029,5.25532],[-75.5103,5.25532],[-75.51031,5.25532],[-75.51032,5.25533],[-75.51033,5.25533],[-75.51034,5.25532],[-75.51034,5.25531],[-75.51034,5.25529],[-75.51034,5.25529],[-75.51034,5.25529],[-75.51034,5.25529],[-75.51034,5.25528],[-75.51034,5.25528],[-75.51034,5.25528],[-75.51034,5.25527],[-75.51034,5.25527],[-75.51034,5.25526],[-75.51034,5.25526],[-75.51034,5.25526],[-75.51034,5.25526],[-75.51034,5.25526],[-75.51034,5.25525],[-75.51034,5.25525],[-75.51034,5.25524],[-75.51035,5.25524],[-75.51035,5.25524],[-75.51035,5.25524],[-75.51035,5.25522],[-75.51036,5.25522],[-75.51036,5.25522],[-75.51037,5.25518],[-75.51037,5.25516],[-75.51038,5.25512],[-75.51041,5.25499],[-75.51041,5.25498],[-75.51044,5.25486],[-75.51044,5.25485],[-75.51046,5.25476],[-75.51047,5.25472],[-75.51047,5.25471],[-75.51047,5.2547],[-75.51047,5.2547],[-75.51051,5.25471],[-75.51054,5.25471],[-75.51055,5.25471],[-75.51056,5.2547],[-75.51057,5.25467],[-75.51058,5.25466],[-75.51058,5.25466],[-75.51058,5.25466],[-75.51058,5.25466],[-75.51057,5.25465],[-75.51051,5.25464],[-75.51051,5.25465],[-75.51048,5.25468],[-75.51048,5.25468],[-75.51047,5.25469],[-75.51047,5.25469],[-75.51046,5.25471]]]]},"properties":{"OBJECTID":2,"Amenaza":"Media","Area":2599.691014807532,"RuleID":2,"Override":null,"Shape_Length":796.9765548847018,"Shape_Area":2599.6987084953053}}]}