{"type":"FeatureCollection","name":"Condicion_Riesgo_Mm_CPR_San_Rafael","crs":{"type":"name","properties":{"name":"urn:ogc:def:crs:OGC:1.3:CRS84"}},"features":[{"type":"Feature","id":1,"geometry":{"type":"MultiPolygon","coordinates":[[[[-75.52374,5.2615],[-75.52376,5.26148],[-75.52377,5.26149],[-75.52381,5.26144],[-75.52381,5.26144],[-75.52381,5.26143],[-75.52381,5.26143],[-75.5238,5.26143],[-75.52379,5.26144],[-75.52378,5.26144],[-75.52377,5.26144],[-75.52375,5.26145],[-75.52375,5.26145],[-75.52375,5.26145],[-75.52373,5.26147],[-75.52372,5.26147],[-75.52371,5.26149],[-75.52371,5.2615],[-75.5237,5.2615],[-75.52372,5.26149],[-75.52374,5.2615]]],[[[-75.52391,5.26129],[-75.5239,5.2613],[-75.5239,5.2613],[-75.52389,5.26131],[-75.52389,5.26132],[-75.52388,5.26134],[-75.52388,5.26136],[-75.52393,5.2613],[-75.52391,5.26129],[-75.52391,5.26129]]],[[[-75.5251,5.26051],[-75.52513,5.2605],[-75.52514,5.2605],[-75.52518,5.26049],[-75.52518,5.26048],[-75.52517,5.26048],[-75.52511,5.26048],[-75.5251,5.26048],[-75.5251,5.26048],[-75.52509,5.26048],[-75.5251,5.26051]]],[[[-75.52734,5.25936],[-75.52734,5.25937],[-75.52734,5.25938],[-75.52734,5.25939],[-75.52735,5.25939],[-75.52736,5.25937],[-75.52735,5.25935],[-75.52734,5.25936]]]]},"properties":{"OBJECTID":1,"Condicion":"Condicion de riesgo por movimientos en masa","CPR":"CPR San Rafael","Area_m2":77.8444297324,"RuleID":1,"Override":null,"Shape_Length":86.21266960364746,"Shape_Area":77.84427557615356}}]}