{"type":"FeatureCollection","name":"Condicion_Amenaza_Mm_CPR_La_Honda","crs":{"type":"name","properties":{"name":"urn:ogc:def:crs:OGC:1.3:CRS84"}},"features":[{"type":"Feature","id":1,"geometry":{"type":"MultiPolygon","coordinates":[[[[-75.51009,5.25518],[-75.51009,5.25529],[-75.51015,5.2553],[-75.51018,5.2553],[-75.51018,5.2553],[-75.51019,5.25527],[-75.5102,5.25521],[-75.5102,5.25521],[-75.51018,5.25517],[-75.51021,5.25498],[-75.51019,5.25492],[-75.51019,5.25485],[-75.5101,5.25483],[-75.51009,5.25518]]],[[[-75.51179,5.25416],[-75.51179,5.25416],[-75.51179,5.25416],[-75.5118,5.25416],[-75.51181,5.25416],[-75.51181,5.25416],[-75.51182,5.25416],[-75.51182,5.25417],[-75.51182,5.25417],[-75.51183,5.25417],[-75.51183,5.25418],[-75.51184,5.25418],[-75.51184,5.25418],[-75.51184,5.25418],[-75.51185,5.25418],[-75.51185,5.25418],[-75.51188,5.25419],[-75.5119,5.25419],[-75.5119,5.25419],[-75.5119,5.25419],[-75.51191,5.25419],[-75.51191,5.25419],[-75.51192,5.25419],[-75.51192,5.25419],[-75.51193,5.25419],[-75.51193,5.25419],[-75.51194,5.25419],[-75.51194,5.25418],[-75.51194,5.25418],[-75.51195,5.25418],[-75.51195,5.25418],[-75.51195,5.25417],[-75.51195,5.25417],[-75.51195,5.25417],[-75.51195,5.25417],[-75.51196,5.25416],[-75.51196,5.25416],[-75.51196,5.25416],[-75.51196,5.25416],[-75.51196,5.25416],[-75.51196,5.25416],[-75.51196,5.25415],[-75.51196,5.25415],[-75.51196,5.25415],[-75.51196,5.25414],[-75.51196,5.25414],[-75.51195,5.25413],[-75.51195,5.25413],[-75.51195,5.25412],[-75.51194,5.25412],[-75.51194,5.25411],[-75.51193,5.25411],[-75.51193,5.2541],[-75.51193,5.2541],[-75.51192,5.25409],[-75.51191,5.25408],[-75.51191,5.25408],[-75.5119,5.25408],[-75.5119,5.25409],[-75.5119,5.2541],[-75.51187,5.2541],[-75.51186,5.25407],[-75.51185,5.25407],[-75.51185,5.25404],[-75.5119,5.25403],[-75.5119,5.25397],[-75.51198,5.25397],[-75.51198,5.25398],[-75.51202,5.25398],[-75.51202,5.25399],[-75.51203,5.25403],[-75.51206,5.25401],[-75.51205,5.25398],[-75.51204,5.25397],[-75.51206,5.25396],[-75.51211,5.25393],[-75.51213,5.25397],[-75.51222,5.25396],[-75.5122,5.25389],[-75.51226,5.25388],[-75.51226,5.25389],[-75.51232,5.25389],[-75.51232,5.25389],[-75.5124,5.25388],[-75.5124,5.25388],[-75.51241,5.25388],[-75.51243,5.25384],[-75.51243,5.25383],[-75.51243,5.25383],[-75.51243,5.25382],[-75.51243,5.25381],[-75.51242,5.25378],[-75.51242,5.25378],[-75.51242,5.25378],[-75.51241,5.25377],[-75.51241,5.25377],[-75.51241,5.25378],[-75.51241,5.25378],[-75.5124,5.25378],[-75.5124,5.25379],[-75.51239,5.2538],[-75.51236,5.25384],[-75.51234,5.25384],[-75.5123,5.25385],[-75.51226,5.25387],[-75.51221,5.25388],[-75.51218,5.25389],[-75.51212,5.2539],[-75.51212,5.2539],[-75.51212,5.2539],[-75.51211,5.2539],[-75.51211,5.2539],[-75.5121,5.2539],[-75.5121,5.2539],[-75.5121,5.2539],[-75.51209,5.25391],[-75.51208,5.25392],[-75.51208,5.25392],[-75.51207,5.25392],[-75.51207,5.25393],[-75.51206,5.25393],[-75.51206,5.25393],[-75.51205,5.25393],[-75.51204,5.25394],[-75.51204,5.25394],[-75.51203,5.25394],[-75.51202,5.25394],[-75.51201,5.25394],[-75.512,5.25394],[-75.51199,5.25394],[-75.51199,5.25394],[-75.51198,5.25394],[-75.51197,5.25394],[-75.51197,5.25394],[-75.51196,5.25394],[-75.51196,5.25394],[-75.51194,5.25393],[-75.51193,5.25392],[-75.51192,5.25392],[-75.51192,5.25392],[-75.51192,5.25392],[-75.51191,5.25391],[-75.51191,5.25391],[-75.51191,5.2539],[-75.51191,5.25389],[-75.51191,5.25389],[-75.51191,5.25388],[-75.51191,5.25387],[-75.51191,5.25387],[-75.51192,5.25386],[-75.51192,5.25385],[-75.51192,5.25385],[-75.51192,5.25384],[-75.51191,5.25385],[-75.51191,5.25386],[-75.51188,5.25388],[-75.51187,5.25387],[-75.51187,5.25387],[-75.51187,5.25388],[-75.51186,5.25388],[-75.51186,5.25388],[-75.51186,5.25388],[-75.51185,5.25388],[-75.51185,5.25388],[-75.51185,5.25388],[-75.51184,5.25387],[-75.51183,5.25386],[-75.51182,5.25385],[-75.51181,5.25385],[-75.5118,5.25381],[-75.51179,5.25381],[-75.51171,5.2538],[-75.51172,5.25375],[-75.51176,5.25376],[-75.5118,5.25376],[-75.51181,5.25376],[-75.51181,5.25376],[-75.51181,5.25375],[-75.5118,5.25375],[-75.5118,5.25374],[-75.5118,5.25373],[-75.51179,5.25373],[-75.51179,5.25372],[-75.51179,5.25372],[-75.51178,5.25371],[-75.51178,5.25371],[-75.51177,5.25371],[-75.51176,5.2537],[-75.51176,5.2537],[-75.51176,5.25369],[-75.51175,5.25369],[-75.51175,5.25369],[-75.51174,5.25368],[-75.51174,5.25368],[-75.51173,5.25366],[-75.51173,5.25365],[-75.51172,5.25365],[-75.51172,5.25364],[-75.51172,5.25364],[-75.51171,5.25363],[-75.51171,5.25363],[-75.51171,5.25362],[-75.51171,5.25362],[-75.51171,5.25362],[-75.51172,5.25361],[-75.51172,5.25361],[-75.51172,5.25359],[-75.51173,5.25358],[-75.51173,5.25358],[-75.51173,5.25357],[-75.51174,5.25356],[-75.51174,5.25356],[-75.51174,5.25356],[-75.51174,5.25355],[-75.51175,5.25355],[-75.51175,5.25355],[-75.51177,5.25354],[-75.51178,5.25353],[-75.51178,5.25353],[-75.5118,5.25351],[-75.51181,5.25351],[-75.51181,5.2535],[-75.51182,5.2535],[-75.51182,5.2535],[-75.51183,5.25349],[-75.51184,5.25349],[-75.51184,5.25349],[-75.51185,5.25349],[-75.51186,5.25349],[-75.51186,5.25348],[-75.51187,5.25348],[-75.51187,5.25348],[-75.51188,5.25348],[-75.51189,5.25348],[-75.51189,5.25348],[-75.51192,5.25349],[-75.51193,5.25349],[-75.51194,5.25349],[-75.51195,5.25349],[-75.51195,5.25349],[-75.51185,5.25346],[-75.51189,5.25332],[-75.51188,5.25332],[-75.5119,5.25324],[-75.51198,5.25326],[-75.51197,5.2533],[-75.51198,5.25331],[-75.51198,5.25331],[-75.51197,5.25334],[-75.51199,5.25334],[-75.51199,5.25335],[-75.51201,5.25336],[-75.51198,5.25347],[-75.51198,5.25348],[-75.51199,5.25347],[-75.51199,5.25347],[-75.512,5.25346],[-75.51201,5.25346],[-75.512,5.25345],[-75.51207,5.25338],[-75.51208,5.25339],[-75.51208,5.25338],[-75.51209,5.25338],[-75.51209,5.25338],[-75.51209,5.25337],[-75.5121,5.25337],[-75.5121,5.25337],[-75.51211,5.25336],[-75.51211,5.25336],[-75.51212,5.25336],[-75.51212,5.25336],[-75.51213,5.25336],[-75.51213,5.25336],[-75.51214,5.25336],[-75.51214,5.25336],[-75.51214,5.25336],[-75.51214,5.25336],[-75.51216,5.25333],[-75.51218,5.25335],[-75.51217,5.25337],[-75.51217,5.25337],[-75.51218,5.25337],[-75.51218,5.25337],[-75.51218,5.25337],[-75.51219,5.25337],[-75.51219,5.25338],[-75.51219,5.25338],[-75.5122,5.25338],[-75.51222,5.25339],[-75.51223,5.2534],[-75.51223,5.25341],[-75.51224,5.25341],[-75.51225,5.25343],[-75.51227,5.25344],[-75.51227,5.25344],[-75.51228,5.25345],[-75.51228,5.25345],[-75.51229,5.25346],[-75.51229,5.25346],[-75.5123,5.25347],[-75.5123,5.25347],[-75.51233,5.25353],[-75.51234,5.25356],[-75.51236,5.25357],[-75.51237,5.25357],[-75.51237,5.25356],[-75.51237,5.25355],[-75.5124,5.25351],[-75.51241,5.2535],[-75.51242,5.25349],[-75.51246,5.25348],[-75.51247,5.25348],[-75.51246,5.25348],[-75.51246,5.25348],[-75.51246,5.25348],[-75.51245,5.25348],[-75.51245,5.25348],[-75.51243,5.25348],[-75.51242,5.25348],[-75.51242,5.25348],[-75.51241,5.25348],[-75.5124,5.25347],[-75.5124,5.25347],[-75.5124,5.25347],[-75.51239,5.25347],[-75.51239,5.25347],[-75.51238,5.25346],[-75.51238,5.25346],[-75.51238,5.25346],[-75.51238,5.25345],[-75.51237,5.25345],[-75.51237,5.25345],[-75.51237,5.25345],[-75.51237,5.25344],[-75.51237,5.25344],[-75.51237,5.25344],[-75.51237,5.25343],[-75.51237,5.25343],[-75.51237,5.25343],[-75.51234,5.25342],[-75.51235,5.2534],[-75.51235,5.25339],[-75.51233,5.25339],[-75.5123,5.25338],[-75.51231,5.25336],[-75.51231,5.25335],[-75.51236,5.25336],[-75.51237,5.25335],[-75.51243,5.25338],[-75.51243,5.25339],[-75.51247,5.2534],[-75.51246,5.25343],[-75.51245,5.25345],[-75.51248,5.25346],[-75.51249,5.25346],[-75.51251,5.25347],[-75.51255,5.25348],[-75.51256,5.25349],[-75.51259,5.2535],[-75.5126,5.2535],[-75.51261,5.2535],[-75.51261,5.25351],[-75.51262,5.25351],[-75.51265,5.25352],[-75.51266,5.25352],[-75.5127,5.25352],[-75.51277,5.2535],[-75.51277,5.2535],[-75.51278,5.2535],[-75.51279,5.2535],[-75.51279,5.25349],[-75.5128,5.25349],[-75.51281,5.25349],[-75.5129,5.25347],[-75.51293,5.25346],[-75.51294,5.25346],[-75.51294,5.25345],[-75.51295,5.25345],[-75.51296,5.25344],[-75.51296,5.25344],[-75.51297,5.25343],[-75.51297,5.25343],[-75.51298,5.25342],[-75.51298,5.25342],[-75.51299,5.25341],[-75.51299,5.25341],[-75.513,5.25339],[-75.51301,5.25339],[-75.51301,5.25338],[-75.51301,5.25338],[-75.51305,5.25332],[-75.51309,5.25326],[-75.51312,5.25324],[-75.51313,5.25323],[-75.51318,5.2532],[-75.51321,5.25317],[-75.51325,5.25313],[-75.51318,5.25303],[-75.51317,5.25305],[-75.51315,5.25307],[-75.51308,5.25311],[-75.51307,5.25312],[-75.51301,5.25317],[-75.51299,5.25319],[-75.51298,5.2532],[-75.51296,5.25323],[-75.51296,5.25324],[-75.51296,5.25324],[-75.5129,5.25332],[-75.51288,5.25335],[-75.51287,5.25336],[-75.51285,5.25336],[-75.51281,5.25337],[-75.51281,5.25336],[-75.51277,5.25333],[-75.51266,5.2532],[-75.51248,5.2533],[-75.51247,5.2533],[-75.51244,5.25332],[-75.51244,5.25332],[-75.51241,5.25328],[-75.51241,5.25328],[-75.5124,5.25326],[-75.51218,5.25281],[-75.51223,5.25259],[-75.51224,5.25248],[-75.51225,5.25235],[-75.5117,5.25219],[-75.51173,5.25255],[-75.51176,5.25266],[-75.51193,5.25282],[-75.51197,5.25289],[-75.51196,5.25298],[-75.51184,5.25303],[-75.5117,5.25295],[-75.51148,5.25275],[-75.51139,5.25261],[-75.51138,5.25271],[-75.51122,5.2527],[-75.51139,5.2528],[-75.5115,5.25298],[-75.51152,5.25307],[-75.51155,5.25327],[-75.51155,5.25327],[-75.51155,5.25328],[-75.51155,5.25328],[-75.51159,5.25333],[-75.51159,5.25344],[-75.51159,5.25344],[-75.51159,5.25345],[-75.51159,5.25346],[-75.51157,5.25351],[-75.51149,5.25348],[-75.51149,5.25348],[-75.51157,5.25351],[-75.51155,5.25355],[-75.51157,5.25356],[-75.51159,5.25356],[-75.51159,5.25359],[-75.51156,5.25359],[-75.51156,5.25357],[-75.51147,5.25354],[-75.51145,5.25358],[-75.51145,5.25358],[-75.51146,5.25358],[-75.51146,5.25359],[-75.51146,5.25359],[-75.51146,5.25359],[-75.51147,5.2536],[-75.51147,5.2536],[-75.51147,5.2536],[-75.51147,5.2536],[-75.51148,5.2536],[-75.51148,5.25361],[-75.51149,5.25361],[-75.51149,5.25361],[-75.51149,5.25361],[-75.5115,5.25361],[-75.5115,5.25361],[-75.5115,5.25362],[-75.5115,5.25362],[-75.5115,5.25363],[-75.5115,5.25364],[-75.5115,5.25365],[-75.5115,5.25365],[-75.5115,5.25366],[-75.5115,5.25367],[-75.5115,5.25367],[-75.5115,5.25368],[-75.5115,5.25369],[-75.5115,5.25369],[-75.5115,5.2537],[-75.5115,5.25371],[-75.5115,5.25371],[-75.5115,5.25371],[-75.5115,5.25372],[-75.5115,5.25372],[-75.5115,5.25373],[-75.5115,5.25373],[-75.5115,5.25374],[-75.5115,5.25374],[-75.5115,5.25374],[-75.5115,5.25375],[-75.5115,5.25375],[-75.51151,5.25375],[-75.51151,5.25375],[-75.51151,5.25375],[-75.51151,5.25375],[-75.51151,5.25375],[-75.51151,5.25375],[-75.51151,5.25376],[-75.51151,5.25376],[-75.51151,5.25377],[-75.51152,5.25379],[-75.51152,5.25379],[-75.51152,5.2538],[-75.51153,5.25381],[-75.51153,5.25381],[-75.51154,5.25382],[-75.51155,5.25382],[-75.51155,5.25383],[-75.51155,5.25383],[-75.51156,5.25383],[-75.51156,5.25383],[-75.51156,5.25384],[-75.51157,5.25384],[-75.51157,5.25384],[-75.51157,5.25385],[-75.51157,5.25385],[-75.51157,5.25385],[-75.51156,5.25386],[-75.51156,5.25386],[-75.51156,5.25386],[-75.51156,5.25386],[-75.51155,5.25386],[-75.51155,5.25386],[-75.51155,5.25386],[-75.51154,5.25386],[-75.51154,5.25386],[-75.51154,5.25386],[-75.51154,5.25386],[-75.51154,5.25385],[-75.51154,5.25385],[-75.51154,5.25385],[-75.51154,5.25385],[-75.51153,5.25384],[-75.51153,5.25384],[-75.51153,5.25384],[-75.51151,5.25385],[-75.5115,5.25385],[-75.51148,5.25385],[-75.51148,5.25385],[-75.51147,5.25385],[-75.51147,5.25385],[-75.51146,5.25385],[-75.51146,5.25386],[-75.51145,5.25386],[-75.51145,5.25386],[-75.51145,5.25386],[-75.51145,5.25387],[-75.51145,5.25387],[-75.51145,5.25387],[-75.51145,5.25388],[-75.51146,5.25388],[-75.51146,5.25388],[-75.51146,5.25389],[-75.51147,5.25389],[-75.51148,5.25389],[-75.51148,5.25389],[-75.5115,5.2539],[-75.51151,5.2539],[-75.51151,5.2539],[-75.51151,5.2539],[-75.51152,5.25391],[-75.51152,5.25391],[-75.51152,5.25391],[-75.51152,5.25392],[-75.51153,5.25392],[-75.51153,5.25392],[-75.51154,5.25393],[-75.51154,5.25393],[-75.51154,5.25393],[-75.51155,5.25393],[-75.51155,5.25393],[-75.51156,5.25393],[-75.51157,5.25393],[-75.51157,5.25394],[-75.51158,5.25394],[-75.51158,5.25394],[-75.51158,5.25394],[-75.51158,5.25394],[-75.51158,5.25394],[-75.51158,5.25395],[-75.51157,5.25395],[-75.51157,5.25396],[-75.51157,5.25396],[-75.51156,5.25396],[-75.51156,5.25397],[-75.51156,5.25397],[-75.51156,5.25397],[-75.51156,5.25397],[-75.51156,5.25397],[-75.51157,5.25397],[-75.51157,5.25397],[-75.51157,5.25397],[-75.51158,5.25397],[-75.51158,5.25397],[-75.51159,5.25396],[-75.5116,5.25396],[-75.5116,5.25396],[-75.51161,5.25395],[-75.51161,5.25395],[-75.51161,5.25394],[-75.51162,5.25394],[-75.51162,5.25394],[-75.51162,5.25393],[-75.51163,5.25393],[-75.51163,5.25393],[-75.51164,5.25392],[-75.51164,5.25392],[-75.51165,5.25392],[-75.51165,5.25392],[-75.51165,5.25392],[-75.51165,5.25391],[-75.51164,5.25391],[-75.51164,5.25391],[-75.51164,5.25391],[-75.51164,5.2539],[-75.51164,5.2539],[-75.51164,5.2539],[-75.51165,5.2539],[-75.51165,5.2539],[-75.51165,5.2539],[-75.51166,5.2539],[-75.51166,5.2539],[-75.51167,5.25391],[-75.51168,5.25391],[-75.51168,5.25391],[-75.51169,5.25392],[-75.51169,5.25392],[-75.5117,5.25392],[-75.51171,5.25393],[-75.51171,5.25393],[-75.51172,5.25394],[-75.51172,5.25394],[-75.51172,5.25395],[-75.51173,5.25395],[-75.51173,5.25396],[-75.51173,5.25396],[-75.51173,5.25397],[-75.51173,5.25397],[-75.51173,5.25398],[-75.51172,5.254],[-75.51172,5.254],[-75.51172,5.25401],[-75.51172,5.25402],[-75.51171,5.25402],[-75.51171,5.25403],[-75.51171,5.25403],[-75.51171,5.25404],[-75.51171,5.25404],[-75.51171,5.25405],[-75.51171,5.25405],[-75.51171,5.25405],[-75.51171,5.25406],[-75.51171,5.25406],[-75.51171,5.25406],[-75.51171,5.25406],[-75.51171,5.25406],[-75.5117,5.25407],[-75.5117,5.25407],[-75.5117,5.25407],[-75.5117,5.25407],[-75.5117,5.25407],[-75.5117,5.25407],[-75.51171,5.25408],[-75.51171,5.25408],[-75.51171,5.25408],[-75.51171,5.25408],[-75.51172,5.25408],[-75.51172,5.25408],[-75.51172,5.25409],[-75.51172,5.25409],[-75.51172,5.2541],[-75.51172,5.2541],[-75.51172,5.25411],[-75.51172,5.25411],[-75.51172,5.25412],[-75.51172,5.25413],[-75.51173,5.25413],[-75.51173,5.25414],[-75.51173,5.25414],[-75.51173,5.25415],[-75.51174,5.25415],[-75.51174,5.25415],[-75.51174,5.25415],[-75.51174,5.25415],[-75.51175,5.25416],[-75.51175,5.25416],[-75.51176,5.25416],[-75.51176,5.25416],[-75.51176,5.25416],[-75.51177,5.25416],[-75.51178,5.25416],[-75.51178,5.25416],[-75.51179,5.25416]],[[-75.51264,5.25333],[-75.51259,5.25332],[-75.51259,5.2533],[-75.51259,5.25328],[-75.51263,5.25329],[-75.51263,5.25329],[-75.51269,5.25331],[-75.51269,5.25333],[-75.51269,5.25334],[-75.51264,5.25333]],[[-75.51266,5.25335],[-75.51275,5.25337],[-75.51274,5.25341],[-75.51265,5.2534],[-75.51266,5.25335]],[[-75.51215,5.25277],[-75.51215,5.25281],[-75.51214,5.25288],[-75.51205,5.25288],[-75.51202,5.25285],[-75.51202,5.25276],[-75.51215,5.25277]],[[-75.51206,5.25256],[-75.51205,5.25268],[-75.51182,5.25268],[-75.51182,5.25254],[-75.51206,5.25256]]],[[[-75.51311,5.25403],[-75.51311,5.25403],[-75.5131,5.25403],[-75.51309,5.25404],[-75.51309,5.25404],[-75.51309,5.25404],[-75.51309,5.25405],[-75.51309,5.25405],[-75.51309,5.25406],[-75.51309,5.25406],[-75.51309,5.25406],[-75.51309,5.25406],[-75.51309,5.25407],[-75.51309,5.25407],[-75.51309,5.25408],[-75.51309,5.25409],[-75.51309,5.25409],[-75.51309,5.2541],[-75.51309,5.25412],[-75.51309,5.25413],[-75.51309,5.25415],[-75.51309,5.25415],[-75.51316,5.25414],[-75.51321,5.25413],[-75.51321,5.25413],[-75.51331,5.25411],[-75.51338,5.25411],[-75.51337,5.25409],[-75.51337,5.25409],[-75.5133,5.25409],[-75.51331,5.25401],[-75.51337,5.25402],[-75.51337,5.25401],[-75.51337,5.25401],[-75.51337,5.254],[-75.51337,5.254],[-75.51336,5.25399],[-75.51336,5.25398],[-75.51336,5.25398],[-75.51335,5.25397],[-75.51335,5.25397],[-75.51335,5.25396],[-75.51334,5.25396],[-75.51333,5.25396],[-75.51333,5.25396],[-75.51332,5.25395],[-75.51331,5.25395],[-75.51331,5.25395],[-75.5133,5.25395],[-75.51329,5.25395],[-75.51329,5.25395],[-75.51328,5.25395],[-75.5132,5.25396],[-75.5132,5.25396],[-75.5132,5.25397],[-75.51319,5.25397],[-75.51318,5.25397],[-75.51317,5.25398],[-75.51317,5.25398],[-75.51316,5.25398],[-75.51316,5.25399],[-75.51315,5.25399],[-75.51315,5.25399],[-75.51315,5.25399],[-75.51314,5.254],[-75.51313,5.25401],[-75.51312,5.25401],[-75.51311,5.25403]]],[[[-75.51193,5.25405],[-75.51194,5.25405],[-75.51194,5.25405],[-75.51195,5.25405],[-75.51196,5.25406],[-75.51197,5.25406],[-75.51197,5.25406],[-75.512,5.25404],[-75.51191,5.25404],[-75.51191,5.25405],[-75.51191,5.25405],[-75.51191,5.25405],[-75.51192,5.25405],[-75.51192,5.25405],[-75.51192,5.25405],[-75.51193,5.25405]]],[[[-75.51282,5.25382],[-75.51282,5.25381],[-75.51289,5.25381],[-75.51304,5.25379],[-75.51304,5.25382],[-75.51308,5.25381],[-75.51309,5.25383],[-75.51309,5.25384],[-75.51309,5.25384],[-75.5131,5.25384],[-75.51311,5.25384],[-75.51311,5.25383],[-75.51312,5.25383],[-75.51313,5.25383],[-75.51313,5.25383],[-75.51314,5.25383],[-75.51315,5.25383],[-75.51315,5.25383],[-75.51316,5.25383],[-75.51317,5.25383],[-75.51317,5.25383],[-75.51318,5.25383],[-75.5132,5.25383],[-75.5132,5.25383],[-75.51321,5.25383],[-75.51322,5.25383],[-75.51322,5.25383],[-75.51323,5.25383],[-75.51323,5.25383],[-75.51324,5.25383],[-75.51324,5.25382],[-75.51326,5.25382],[-75.51327,5.25381],[-75.51327,5.25381],[-75.51328,5.25381],[-75.51329,5.25381],[-75.51329,5.25381],[-75.5133,5.25381],[-75.5133,5.25381],[-75.51331,5.25381],[-75.51332,5.25381],[-75.51332,5.25381],[-75.51333,5.25381],[-75.51333,5.25381],[-75.51334,5.25382],[-75.51334,5.25382],[-75.51336,5.25383],[-75.51336,5.25383],[-75.51337,5.25383],[-75.51337,5.25384],[-75.51338,5.25384],[-75.51339,5.25384],[-75.51339,5.25384],[-75.5134,5.25384],[-75.5134,5.25384],[-75.51341,5.25384],[-75.51341,5.25384],[-75.51342,5.25383],[-75.51342,5.25383],[-75.51343,5.25383],[-75.51344,5.25383],[-75.51345,5.25382],[-75.51345,5.25382],[-75.51346,5.25382],[-75.51346,5.25381],[-75.51347,5.25381],[-75.51348,5.2538],[-75.51351,5.25378],[-75.51352,5.25378],[-75.51354,5.25376],[-75.51355,5.25375],[-75.51356,5.25375],[-75.51356,5.25375],[-75.51356,5.25375],[-75.51356,5.25375],[-75.51357,5.25375],[-75.51356,5.25373],[-75.51353,5.25368],[-75.51353,5.25368],[-75.51351,5.25365],[-75.5135,5.25362],[-75.5135,5.25361],[-75.51344,5.2535],[-75.51344,5.2535],[-75.51335,5.25332],[-75.51333,5.25327],[-75.51329,5.25321],[-75.51329,5.2532],[-75.51329,5.2532],[-75.51327,5.25316],[-75.51324,5.25318],[-75.51324,5.25318],[-75.51317,5.25322],[-75.51311,5.25327],[-75.51305,5.25336],[-75.51304,5.25338],[-75.51304,5.25338],[-75.51304,5.25339],[-75.51304,5.2534],[-75.51304,5.2534],[-75.51304,5.25341],[-75.51304,5.25341],[-75.51305,5.25341],[-75.51305,5.25342],[-75.51305,5.25342],[-75.51306,5.25342],[-75.51306,5.25343],[-75.51306,5.25343],[-75.51306,5.25343],[-75.51306,5.25344],[-75.51306,5.25344],[-75.51306,5.25345],[-75.51305,5.25346],[-75.51304,5.25347],[-75.51304,5.25348],[-75.51303,5.25348],[-75.51303,5.25349],[-75.51302,5.25349],[-75.51302,5.2535],[-75.51301,5.2535],[-75.51301,5.25351],[-75.51301,5.25351],[-75.513,5.25351],[-75.51299,5.25351],[-75.51299,5.25352],[-75.51298,5.25352],[-75.51298,5.25352],[-75.51297,5.25352],[-75.51296,5.25351],[-75.51296,5.25351],[-75.51295,5.25351],[-75.51295,5.25351],[-75.51294,5.25351],[-75.51294,5.25351],[-75.51293,5.25351],[-75.51293,5.25352],[-75.51292,5.25352],[-75.51292,5.25352],[-75.51292,5.25353],[-75.51291,5.25353],[-75.51291,5.25354],[-75.51291,5.25354],[-75.51291,5.25355],[-75.51291,5.25356],[-75.51291,5.25356],[-75.51291,5.25357],[-75.51291,5.25357],[-75.51291,5.25358],[-75.51291,5.25358],[-75.51291,5.25358],[-75.51286,5.25358],[-75.51286,5.25358],[-75.51286,5.25358],[-75.51285,5.25358],[-75.51285,5.25357],[-75.51284,5.25357],[-75.51284,5.25357],[-75.51283,5.25357],[-75.51283,5.25357],[-75.51282,5.25357],[-75.51282,5.25357],[-75.51281,5.25357],[-75.5128,5.25357],[-75.5128,5.25357],[-75.51279,5.25357],[-75.51278,5.25357],[-75.51278,5.25357],[-75.51278,5.25357],[-75.51277,5.25357],[-75.51277,5.25356],[-75.51277,5.25356],[-75.51276,5.25355],[-75.51276,5.25355],[-75.51276,5.25354],[-75.51276,5.25354],[-75.51276,5.25353],[-75.51276,5.25353],[-75.51276,5.25353],[-75.51273,5.25353],[-75.51269,5.25354],[-75.5127,5.25354],[-75.51268,5.25354],[-75.51267,5.25354],[-75.51266,5.25354],[-75.51259,5.25354],[-75.51253,5.25353],[-75.51251,5.25353],[-75.51248,5.25352],[-75.51246,5.25352],[-75.51244,5.25353],[-75.51242,5.25354],[-75.51242,5.25355],[-75.51242,5.25355],[-75.51241,5.25356],[-75.51241,5.25357],[-75.51242,5.25358],[-75.51243,5.25362],[-75.51247,5.25383],[-75.51247,5.25383],[-75.51247,5.25384],[-75.51248,5.25384],[-75.51248,5.25385],[-75.51249,5.25385],[-75.51249,5.25386],[-75.51249,5.25386],[-75.5125,5.25386],[-75.5125,5.25386],[-75.51254,5.25385],[-75.51254,5.25385],[-75.51254,5.25385],[-75.51255,5.25384],[-75.51256,5.25384],[-75.51256,5.25383],[-75.51256,5.25383],[-75.51257,5.25383],[-75.51257,5.25382],[-75.51258,5.25382],[-75.51259,5.25382],[-75.51259,5.25382],[-75.5126,5.25382],[-75.51261,5.25382],[-75.51261,5.25382],[-75.51266,5.25383],[-75.51268,5.25383],[-75.51268,5.25383],[-75.51269,5.25383],[-75.5127,5.25384],[-75.51271,5.25384],[-75.51275,5.25385],[-75.51276,5.25386],[-75.51277,5.25386],[-75.51277,5.25386],[-75.51278,5.25386],[-75.51279,5.25386],[-75.51279,5.25386],[-75.5128,5.25386],[-75.51281,5.25386],[-75.51281,5.25386],[-75.51282,5.25386],[-75.51282,5.25385],[-75.51282,5.25382],[-75.51275,5.25383],[-75.51275,5.25382],[-75.51277,5.25382],[-75.51277,5.2538],[-75.51278,5.2538],[-75.51278,5.25378],[-75.51281,5.25378],[-75.51282,5.25382]],[[-75.51309,5.25359],[-75.51309,5.2536],[-75.5131,5.25361],[-75.51309,5.25362],[-75.51308,5.25362],[-75.51308,5.25362],[-75.51307,5.25362],[-75.51306,5.25361],[-75.51306,5.2536],[-75.51307,5.2536],[-75.51307,5.25359],[-75.51308,5.25359],[-75.51309,5.25359]]],[[[-75.51211,5.25382],[-75.5121,5.25382],[-75.5121,5.25383],[-75.5121,5.25383],[-75.5121,5.25384],[-75.5121,5.25384],[-75.5121,5.25384],[-75.5121,5.25384],[-75.5121,5.25384],[-75.51211,5.25384],[-75.51211,5.25384],[-75.51212,5.25384],[-75.51212,5.25384],[-75.51212,5.25383],[-75.51213,5.25383],[-75.51214,5.25382],[-75.51214,5.25382],[-75.51214,5.25382],[-75.51215,5.25381],[-75.51215,5.25381],[-75.51215,5.25381],[-75.51215,5.25382],[-75.51216,5.25382],[-75.51216,5.25382],[-75.51216,5.25382],[-75.51217,5.25383],[-75.51217,5.25382],[-75.51217,5.25382],[-75.51217,5.25382],[-75.51218,5.25382],[-75.51218,5.25381],[-75.51218,5.25381],[-75.51218,5.2538],[-75.51219,5.25379],[-75.51219,5.25378],[-75.51219,5.25378],[-75.51219,5.25377],[-75.5122,5.25377],[-75.5122,5.25376],[-75.5122,5.25376],[-75.51221,5.25376],[-75.51222,5.25375],[-75.51222,5.25375],[-75.51223,5.25374],[-75.51224,5.25374],[-75.51225,5.25373],[-75.51226,5.25372],[-75.51227,5.25372],[-75.51227,5.25372],[-75.51228,5.25372],[-75.51228,5.25371],[-75.51229,5.25371],[-75.5123,5.25371],[-75.5123,5.25371],[-75.51231,5.2537],[-75.51232,5.2537],[-75.51232,5.2537],[-75.51234,5.2537],[-75.51234,5.2537],[-75.51235,5.2537],[-75.51235,5.2537],[-75.51236,5.2537],[-75.51236,5.2537],[-75.51236,5.2537],[-75.51236,5.25369],[-75.51236,5.25369],[-75.51236,5.25369],[-75.51235,5.25369],[-75.51235,5.25368],[-75.51234,5.25368],[-75.51234,5.25368],[-75.51233,5.25368],[-75.51232,5.25368],[-75.5123,5.25367],[-75.51229,5.25367],[-75.51228,5.25367],[-75.51228,5.25367],[-75.51227,5.25367],[-75.51226,5.25367],[-75.51226,5.25367],[-75.51224,5.25368],[-75.51223,5.25368],[-75.51223,5.25368],[-75.51223,5.25368],[-75.51222,5.25368],[-75.51222,5.25367],[-75.51223,5.25367],[-75.51223,5.25367],[-75.51223,5.25366],[-75.51223,5.25365],[-75.51223,5.25364],[-75.51224,5.25364],[-75.51224,5.25363],[-75.51224,5.25363],[-75.51223,5.25362],[-75.51223,5.25362],[-75.51223,5.25362],[-75.51223,5.25361],[-75.51222,5.25361],[-75.51222,5.25361],[-75.51221,5.25361],[-75.51221,5.25361],[-75.51221,5.25362],[-75.5122,5.25362],[-75.5122,5.25362],[-75.51219,5.25364],[-75.51219,5.25365],[-75.51219,5.25365],[-75.51218,5.25365],[-75.51219,5.25366],[-75.5122,5.25368],[-75.51216,5.2537],[-75.51215,5.2537],[-75.51215,5.25371],[-75.51214,5.25371],[-75.51214,5.25371],[-75.51214,5.25371],[-75.51213,5.25371],[-75.51213,5.25371],[-75.51212,5.25371],[-75.51212,5.25372],[-75.51212,5.25371],[-75.51212,5.25372],[-75.51211,5.25372],[-75.5121,5.25372],[-75.5121,5.25372],[-75.5121,5.25372],[-75.51209,5.25372],[-75.51209,5.25372],[-75.51209,5.25373],[-75.51209,5.25373],[-75.51209,5.25373],[-75.51209,5.25373],[-75.5121,5.25373],[-75.51211,5.25373],[-75.51211,5.25373],[-75.51212,5.25373],[-75.51212,5.25373],[-75.51213,5.25373],[-75.51213,5.25373],[-75.51213,5.25374],[-75.51214,5.25374],[-75.51214,5.25374],[-75.51214,5.25375],[-75.51214,5.25375],[-75.51214,5.25376],[-75.51214,5.25377],[-75.51214,5.25377],[-75.51213,5.25378],[-75.51213,5.25378],[-75.51213,5.25379],[-75.51212,5.25379],[-75.51212,5.2538],[-75.51211,5.25382]]],[[[-75.51203,5.25357],[-75.51203,5.25357],[-75.51203,5.25357],[-75.51203,5.25358],[-75.51202,5.2536],[-75.51202,5.2536],[-75.51202,5.25361],[-75.51202,5.25361],[-75.51202,5.25362],[-75.51201,5.25363],[-75.51201,5.25363],[-75.51201,5.25364],[-75.512,5.25364],[-75.512,5.25365],[-75.51199,5.25365],[-75.51199,5.25365],[-75.51196,5.25367],[-75.51196,5.25368],[-75.51195,5.25368],[-75.51195,5.25368],[-75.51194,5.25369],[-75.51194,5.25369],[-75.51193,5.2537],[-75.51192,5.25371],[-75.51192,5.25371],[-75.51191,5.25372],[-75.51191,5.25373],[-75.51191,5.25373],[-75.5119,5.25374],[-75.5119,5.25374],[-75.51194,5.25377],[-75.51195,5.25376],[-75.51193,5.25372],[-75.51201,5.25367],[-75.512,5.25365],[-75.51205,5.25362],[-75.51205,5.25361],[-75.51205,5.2536],[-75.51205,5.2536],[-75.51205,5.25359],[-75.51205,5.25358],[-75.51204,5.25358],[-75.51204,5.25357],[-75.51204,5.25357],[-75.51204,5.25357],[-75.51204,5.25356],[-75.51203,5.25356],[-75.51203,5.25357]]],[[[-75.51056,5.25373],[-75.51081,5.25374],[-75.51082,5.25374],[-75.51084,5.25374],[-75.51084,5.25374],[-75.51084,5.25371],[-75.51085,5.2537],[-75.51084,5.25369],[-75.51087,5.25364],[-75.51087,5.25364],[-75.51088,5.25362],[-75.51093,5.25364],[-75.51093,5.25363],[-75.51096,5.25363],[-75.51096,5.25364],[-75.51098,5.25365],[-75.51099,5.25365],[-75.51105,5.25365],[-75.51106,5.25365],[-75.51106,5.25365],[-75.51107,5.25365],[-75.51107,5.25365],[-75.51108,5.25365],[-75.51109,5.25365],[-75.51112,5.25366],[-75.51113,5.25366],[-75.51114,5.25366],[-75.51115,5.25366],[-75.51115,5.25367],[-75.51116,5.25367],[-75.51117,5.25367],[-75.51118,5.25368],[-75.51118,5.25368],[-75.51118,5.25368],[-75.51118,5.25368],[-75.51119,5.25369],[-75.51119,5.25369],[-75.51119,5.25369],[-75.5112,5.25369],[-75.51121,5.25369],[-75.51121,5.25369],[-75.51122,5.25369],[-75.51122,5.25368],[-75.51123,5.25368],[-75.51123,5.25368],[-75.51124,5.25367],[-75.51124,5.25367],[-75.51125,5.25366],[-75.51125,5.25366],[-75.51126,5.25365],[-75.51126,5.25365],[-75.51126,5.25364],[-75.51126,5.25363],[-75.51127,5.25363],[-75.51127,5.25362],[-75.51127,5.25361],[-75.51127,5.25361],[-75.51127,5.2536],[-75.51128,5.25358],[-75.51128,5.25358],[-75.51115,5.25356],[-75.51115,5.25352],[-75.51116,5.25351],[-75.51116,5.25351],[-75.51116,5.25344],[-75.51094,5.25329],[-75.51094,5.25329],[-75.51094,5.25328],[-75.5109,5.25326],[-75.51081,5.25304],[-75.5108,5.25304],[-75.5108,5.25305],[-75.51079,5.25305],[-75.51077,5.25306],[-75.51076,5.25307],[-75.51075,5.25307],[-75.51075,5.25307],[-75.51074,5.25308],[-75.51074,5.25308],[-75.51073,5.25308],[-75.51073,5.25309],[-75.51072,5.25309],[-75.51071,5.2531],[-75.51071,5.25311],[-75.5107,5.25311],[-75.5107,5.25312],[-75.51069,5.25312],[-75.51069,5.25312],[-75.51068,5.25312],[-75.51068,5.25312],[-75.51067,5.25312],[-75.51066,5.25312],[-75.51066,5.25312],[-75.51065,5.25312],[-75.51065,5.25312],[-75.51065,5.25312],[-75.51064,5.25312],[-75.51064,5.25312],[-75.51064,5.25311],[-75.51064,5.25311],[-75.51064,5.25311],[-75.51064,5.25311],[-75.51065,5.2531],[-75.51065,5.2531],[-75.51065,5.2531],[-75.51066,5.2531],[-75.51067,5.25309],[-75.51067,5.25309],[-75.51068,5.25308],[-75.51068,5.25308],[-75.51068,5.25308],[-75.51068,5.25307],[-75.51068,5.25307],[-75.51068,5.25307],[-75.51067,5.25306],[-75.51067,5.25306],[-75.51067,5.25306],[-75.51066,5.25306],[-75.51066,5.25306],[-75.51065,5.25306],[-75.51065,5.25306],[-75.51064,5.25306],[-75.51063,5.25307],[-75.51062,5.25307],[-75.51062,5.25307],[-75.51061,5.25307],[-75.51061,5.25307],[-75.5106,5.25307],[-75.51059,5.25307],[-75.51059,5.25306],[-75.51058,5.25306],[-75.51058,5.25306],[-75.51057,5.25305],[-75.51056,5.25305],[-75.51056,5.25305],[-75.51055,5.25304],[-75.51055,5.25304],[-75.51054,5.25303],[-75.51054,5.25303],[-75.51054,5.25302],[-75.51054,5.25302],[-75.51054,5.25302],[-75.51054,5.25301],[-75.51054,5.25301],[-75.51054,5.25301],[-75.51055,5.25301],[-75.51055,5.253],[-75.51056,5.253],[-75.51058,5.253],[-75.51059,5.253],[-75.51059,5.253],[-75.5106,5.253],[-75.5106,5.25299],[-75.51061,5.25299],[-75.51062,5.25299],[-75.51062,5.25298],[-75.51062,5.25298],[-75.51063,5.25298],[-75.51063,5.25297],[-75.51063,5.25297],[-75.51064,5.25296],[-75.51064,5.25296],[-75.51064,5.25294],[-75.51064,5.25294],[-75.51064,5.25293],[-75.51065,5.25293],[-75.51065,5.25292],[-75.51066,5.25292],[-75.51066,5.25292],[-75.51067,5.25291],[-75.51067,5.25291],[-75.51068,5.2529],[-75.51068,5.2529],[-75.51069,5.25289],[-75.51069,5.25289],[-75.51069,5.25288],[-75.5107,5.25288],[-75.5107,5.25287],[-75.5107,5.25287],[-75.5107,5.25286],[-75.5107,5.25285],[-75.51069,5.25285],[-75.51069,5.25284],[-75.51069,5.25283],[-75.51069,5.25282],[-75.51069,5.25281],[-75.51069,5.25279],[-75.51069,5.25279],[-75.51069,5.25278],[-75.51069,5.25277],[-75.51068,5.25277],[-75.51068,5.25276],[-75.51068,5.25276],[-75.51067,5.25275],[-75.51067,5.25275],[-75.51067,5.25274],[-75.51063,5.25276],[-75.51062,5.25276],[-75.51062,5.25276],[-75.51062,5.25277],[-75.51063,5.25277],[-75.51063,5.25277],[-75.51063,5.25278],[-75.51063,5.25278],[-75.51063,5.25279],[-75.51062,5.2528],[-75.51062,5.25281],[-75.51062,5.25281],[-75.51062,5.25282],[-75.51062,5.25282],[-75.51062,5.25284],[-75.51062,5.25284],[-75.51062,5.25285],[-75.51062,5.25285],[-75.51061,5.25285],[-75.51061,5.25286],[-75.5106,5.25287],[-75.5106,5.25287],[-75.5106,5.25288],[-75.5106,5.25288],[-75.51059,5.25289],[-75.51059,5.25289],[-75.51059,5.2529],[-75.51059,5.25292],[-75.51059,5.25293],[-75.51058,5.25294],[-75.51058,5.25294],[-75.51058,5.25294],[-75.51058,5.25294],[-75.51058,5.25294],[-75.51057,5.25294],[-75.51057,5.25294],[-75.51057,5.25294],[-75.51056,5.25294],[-75.51056,5.25293],[-75.51055,5.25293],[-75.51055,5.25292],[-75.51055,5.25292],[-75.51054,5.25292],[-75.51054,5.25291],[-75.51054,5.25291],[-75.51053,5.2529],[-75.51053,5.25289],[-75.51052,5.25289],[-75.51052,5.25289],[-75.51052,5.25288],[-75.51052,5.25288],[-75.51051,5.25288],[-75.51051,5.25288],[-75.51051,5.25288],[-75.51051,5.25288],[-75.5105,5.25288],[-75.5105,5.25287],[-75.5105,5.25287],[-75.5105,5.25287],[-75.51049,5.25286],[-75.51049,5.25286],[-75.51049,5.25285],[-75.51048,5.25285],[-75.51044,5.25285],[-75.51044,5.25282],[-75.51042,5.25271],[-75.5104,5.25256],[-75.51047,5.25255],[-75.5105,5.25255],[-75.5105,5.25255],[-75.51049,5.25254],[-75.51049,5.25254],[-75.51048,5.25254],[-75.51048,5.25254],[-75.51048,5.25254],[-75.51048,5.25254],[-75.51047,5.25254],[-75.51047,5.25254],[-75.51047,5.25254],[-75.51047,5.25254],[-75.51047,5.25254],[-75.51046,5.25254],[-75.51046,5.25254],[-75.51046,5.25253],[-75.51046,5.25253],[-75.51045,5.25253],[-75.51045,5.25252],[-75.51045,5.25252],[-75.51045,5.25252],[-75.51045,5.25252],[-75.51045,5.25251],[-75.51045,5.2525],[-75.51045,5.2525],[-75.51045,5.25249],[-75.51045,5.25249],[-75.51045,5.25249],[-75.51045,5.25248],[-75.51043,5.25249],[-75.51043,5.25249],[-75.51042,5.25249],[-75.51042,5.2525],[-75.51042,5.2525],[-75.51042,5.2525],[-75.51041,5.25251],[-75.51041,5.25251],[-75.5104,5.25251],[-75.51039,5.25251],[-75.51039,5.25252],[-75.51039,5.25252],[-75.51039,5.25252],[-75.51039,5.25252],[-75.51039,5.25252],[-75.51038,5.25252],[-75.51038,5.25252],[-75.51038,5.25252],[-75.51038,5.25252],[-75.51036,5.25252],[-75.51035,5.25253],[-75.51035,5.25253],[-75.51034,5.25253],[-75.51032,5.25253],[-75.51026,5.25255],[-75.51025,5.25255],[-75.51024,5.25256],[-75.51023,5.25256],[-75.51023,5.25256],[-75.51022,5.25256],[-75.51022,5.25257],[-75.51021,5.25257],[-75.51021,5.25257],[-75.51021,5.25257],[-75.51021,5.25257],[-75.5102,5.25258],[-75.5102,5.25258],[-75.5102,5.25258],[-75.5102,5.25258],[-75.51019,5.25259],[-75.51019,5.2526],[-75.51019,5.2526],[-75.51018,5.25261],[-75.51018,5.25261],[-75.51018,5.25261],[-75.51017,5.25262],[-75.51016,5.25262],[-75.51016,5.25262],[-75.51015,5.25262],[-75.51014,5.25262],[-75.51014,5.25262],[-75.51013,5.25262],[-75.51011,5.25262],[-75.51006,5.25263],[-75.51004,5.25263],[-75.51002,5.25263],[-75.51002,5.25263],[-75.51001,5.25263],[-75.51001,5.25263],[-75.51001,5.25263],[-75.51,5.25263],[-75.51,5.25263],[-75.51,5.25263],[-75.50999,5.25263],[-75.50998,5.25263],[-75.50998,5.25263],[-75.50997,5.25263],[-75.50996,5.25264],[-75.50996,5.25264],[-75.50995,5.25264],[-75.50994,5.25264],[-75.50994,5.25265],[-75.50992,5.25265],[-75.50992,5.25265],[-75.50992,5.25266],[-75.50991,5.25266],[-75.50991,5.25266],[-75.5099,5.25266],[-75.50989,5.25267],[-75.50989,5.25267],[-75.50988,5.25267],[-75.50988,5.25268],[-75.50987,5.25268],[-75.50987,5.25269],[-75.50985,5.2527],[-75.50984,5.25271],[-75.50984,5.25272],[-75.50983,5.25272],[-75.50983,5.25272],[-75.50983,5.25273],[-75.50982,5.25274],[-75.50982,5.25274],[-75.50982,5.25275],[-75.50981,5.25275],[-75.50981,5.25276],[-75.50981,5.25276],[-75.5098,5.25277],[-75.5098,5.25279],[-75.5098,5.2528],[-75.5098,5.2528],[-75.5098,5.25281],[-75.50979,5.25281],[-75.50979,5.25282],[-75.50979,5.25283],[-75.5098,5.25283],[-75.5098,5.25284],[-75.5098,5.25284],[-75.5098,5.25285],[-75.50981,5.25286],[-75.50981,5.25286],[-75.50981,5.25287],[-75.50981,5.25288],[-75.50981,5.25289],[-75.50982,5.25289],[-75.50982,5.2529],[-75.50982,5.2529],[-75.50983,5.25291],[-75.50984,5.25292],[-75.50984,5.25292],[-75.50984,5.25292],[-75.50985,5.25293],[-75.50985,5.25294],[-75.50985,5.25294],[-75.50985,5.25294],[-75.50985,5.25294],[-75.50985,5.25294],[-75.50986,5.25294],[-75.50986,5.25294],[-75.50986,5.25294],[-75.50986,5.25295],[-75.50986,5.25295],[-75.50987,5.25295],[-75.50987,5.25295],[-75.50988,5.25296],[-75.50988,5.25296],[-75.50989,5.25296],[-75.50989,5.25296],[-75.50989,5.25296],[-75.50989,5.25296],[-75.5099,5.25297],[-75.5099,5.25297],[-75.5099,5.25297],[-75.50991,5.25297],[-75.50992,5.25297],[-75.50994,5.25297],[-75.50994,5.25298],[-75.50995,5.25298],[-75.50995,5.25276],[-75.51016,5.25271],[-75.51021,5.25278],[-75.51029,5.253],[-75.51052,5.25335],[-75.51053,5.25336],[-75.51053,5.25336],[-75.51053,5.25336],[-75.51047,5.25345],[-75.51039,5.25352],[-75.51057,5.25359],[-75.51056,5.25373]],[[-75.51086,5.25361],[-75.51086,5.25362],[-75.51083,5.25362],[-75.51084,5.25361],[-75.51086,5.25361]]],[[[-75.51138,5.25241],[-75.51138,5.25242],[-75.51137,5.25242],[-75.51136,5.25243],[-75.51137,5.25243],[-75.51138,5.25248],[-75.51138,5.25245],[-75.51138,5.25241],[-75.51138,5.25241]]]]},"properties":{"OBJECTID":1,"Condicion":"Condicion de amenaza por movimientos en masa","CPR":"CPR La Honda","Area_m2":25599.4048357,"RuleID":1,"Override":null,"Shape_Length":3190.690414520172,"Shape_Area":25525.951914035413}}]}