{"type":"FeatureCollection","name":"Condicion_Riesgo_Mm_CPR_La_Honda","crs":{"type":"name","properties":{"name":"urn:ogc:def:crs:OGC:1.3:CRS84"}},"features":[{"type":"Feature","id":1,"geometry":{"type":"MultiPolygon","coordinates":[[[[-75.5104,5.25256],[-75.51042,5.25271],[-75.51043,5.25268],[-75.51043,5.25268],[-75.51043,5.25267],[-75.51043,5.25266],[-75.51043,5.25266],[-75.51043,5.25264],[-75.51043,5.25264],[-75.51043,5.25263],[-75.51043,5.25263],[-75.51043,5.25262],[-75.51043,5.25262],[-75.51044,5.25262],[-75.51044,5.25261],[-75.51044,5.25261],[-75.51045,5.25261],[-75.51045,5.2526],[-75.51045,5.25259],[-75.51045,5.25259],[-75.51046,5.25259],[-75.51046,5.25258],[-75.51046,5.25258],[-75.51046,5.25257],[-75.51046,5.25257],[-75.51046,5.25256],[-75.51047,5.25255],[-75.51047,5.25255],[-75.5104,5.25256]]],[[[-75.51044,5.25285],[-75.51048,5.25285],[-75.51048,5.25285],[-75.51047,5.25285],[-75.51047,5.25284],[-75.51046,5.25284],[-75.51046,5.25283],[-75.51045,5.25283],[-75.51044,5.25282],[-75.51044,5.25282],[-75.51044,5.25282],[-75.51044,5.25285]]],[[[-75.51321,5.25317],[-75.51318,5.2532],[-75.51313,5.25323],[-75.51312,5.25324],[-75.51312,5.25324],[-75.51312,5.25324],[-75.51313,5.25324],[-75.51313,5.25323],[-75.51313,5.25323],[-75.51314,5.25323],[-75.51314,5.25323],[-75.51314,5.25323],[-75.51314,5.25323],[-75.51315,5.25323],[-75.51316,5.25322],[-75.51317,5.25321],[-75.51318,5.25321],[-75.51319,5.25321],[-75.5132,5.2532],[-75.51321,5.2532],[-75.51321,5.25319],[-75.51323,5.25319],[-75.51324,5.25318],[-75.51324,5.25318],[-75.51324,5.25318],[-75.51327,5.25316],[-75.51327,5.25315],[-75.51325,5.25313],[-75.51321,5.25317]]],[[[-75.51259,5.25332],[-75.51264,5.25333],[-75.51269,5.25334],[-75.51269,5.25333],[-75.51265,5.25332],[-75.51263,5.25331],[-75.51262,5.25331],[-75.51261,5.2533],[-75.51261,5.2533],[-75.5126,5.2533],[-75.51259,5.2533],[-75.51259,5.2533],[-75.51259,5.25332]]],[[[-75.51265,5.2534],[-75.51274,5.25341],[-75.51275,5.25337],[-75.51266,5.25335],[-75.51265,5.2534]]],[[[-75.51231,5.25337],[-75.51231,5.25337],[-75.51231,5.25337],[-75.51232,5.25338],[-75.51233,5.25338],[-75.51233,5.25339],[-75.51235,5.25339],[-75.51235,5.2534],[-75.51235,5.2534],[-75.51236,5.2534],[-75.51237,5.2534],[-75.51237,5.2534],[-75.51237,5.25341],[-75.51238,5.25341],[-75.5124,5.25341],[-75.5124,5.25341],[-75.51241,5.25341],[-75.51241,5.25341],[-75.51242,5.25342],[-75.51243,5.25342],[-75.51243,5.25342],[-75.51244,5.25342],[-75.51246,5.25343],[-75.51246,5.25343],[-75.51247,5.2534],[-75.51243,5.25339],[-75.51243,5.25338],[-75.51237,5.25335],[-75.51236,5.25336],[-75.51231,5.25335],[-75.51231,5.25336],[-75.51231,5.25337]]],[[[-75.51037,5.25354],[-75.51038,5.25372],[-75.51056,5.25373],[-75.51057,5.25359],[-75.51039,5.25352],[-75.51037,5.25354]]],[[[-75.51171,5.2538],[-75.51179,5.25381],[-75.51179,5.2538],[-75.51179,5.2538],[-75.51178,5.2538],[-75.51178,5.25379],[-75.51178,5.25379],[-75.51178,5.25379],[-75.51177,5.25379],[-75.51177,5.25379],[-75.51177,5.25379],[-75.51177,5.25379],[-75.51176,5.25378],[-75.51176,5.25378],[-75.51176,5.25378],[-75.51176,5.25377],[-75.51176,5.25377],[-75.51176,5.25376],[-75.51176,5.25376],[-75.51172,5.25375],[-75.51171,5.2538]]],[[[-75.51282,5.25382],[-75.51282,5.25382],[-75.51282,5.25383],[-75.51283,5.25383],[-75.51284,5.25383],[-75.51285,5.25383],[-75.51286,5.25383],[-75.51287,5.25383],[-75.51287,5.25383],[-75.51288,5.25383],[-75.51289,5.25383],[-75.51289,5.25383],[-75.5129,5.25384],[-75.51292,5.25384],[-75.51293,5.25385],[-75.51294,5.25385],[-75.51294,5.25385],[-75.51295,5.25385],[-75.51296,5.25385],[-75.51296,5.25385],[-75.51297,5.25385],[-75.51298,5.25385],[-75.51298,5.25385],[-75.51299,5.25385],[-75.513,5.25385],[-75.513,5.25385],[-75.51301,5.25385],[-75.51302,5.25385],[-75.51302,5.25385],[-75.51304,5.25385],[-75.51304,5.25384],[-75.51306,5.25384],[-75.51307,5.25384],[-75.51308,5.25384],[-75.51308,5.25383],[-75.51309,5.25383],[-75.51308,5.25381],[-75.51304,5.25382],[-75.51304,5.25379],[-75.51289,5.25381],[-75.51282,5.25381],[-75.51282,5.25382]]],[[[-75.51204,5.25397],[-75.51205,5.25398],[-75.51205,5.25398],[-75.51206,5.25398],[-75.51206,5.25398],[-75.51206,5.25398],[-75.51207,5.25398],[-75.51207,5.25397],[-75.51207,5.25397],[-75.51207,5.25397],[-75.51207,5.25396],[-75.51207,5.25396],[-75.51206,5.25396],[-75.51206,5.25396],[-75.51204,5.25397]]],[[[-75.51187,5.2541],[-75.5119,5.2541],[-75.5119,5.25409],[-75.51189,5.25409],[-75.51188,5.25407],[-75.51189,5.25406],[-75.51189,5.25405],[-75.51191,5.25403],[-75.51192,5.25403],[-75.51193,5.25402],[-75.51194,5.25402],[-75.51195,5.25401],[-75.51196,5.25401],[-75.51196,5.25401],[-75.51197,5.25401],[-75.51197,5.254],[-75.51199,5.254],[-75.512,5.254],[-75.51202,5.25399],[-75.51202,5.25398],[-75.51198,5.25398],[-75.51198,5.25397],[-75.5119,5.25397],[-75.5119,5.25403],[-75.51185,5.25404],[-75.51185,5.25407],[-75.51186,5.25407],[-75.51187,5.2541]]]]},"properties":{"OBJECTID":1,"Condicion":"Condicion de riesgo por movimientos en masa","CPR":"CPR La Honda","Area_m2":865.00512639,"RuleID":1,"Override":null,"Shape_Length":446.65637927262634,"Shape_Area":865.0051263898573}}]}