{"type":"FeatureCollection","name":"Condicion_Amenaza_Ind_CPR_La_Honda","crs":{"type":"name","properties":{"name":"urn:ogc:def:crs:OGC:1.3:CRS84"}},"features":[{"type":"Feature","id":1,"geometry":{"type":"Polygon","coordinates":[[[-75.51171,5.25375],[-75.51169,5.25371],[-75.51167,5.25369],[-75.51165,5.25366],[-75.51164,5.25365],[-75.51163,5.25364],[-75.5116,5.25363],[-75.51157,5.25362],[-75.51156,5.25362],[-75.51152,5.25361],[-75.51144,5.25361],[-75.51143,5.25362],[-75.51136,5.2536],[-75.51133,5.25359],[-75.51131,5.25358],[-75.51129,5.25358],[-75.5113,5.25359],[-75.51131,5.2536],[-75.51132,5.25361],[-75.51134,5.25362],[-75.51137,5.25364],[-75.5114,5.25366],[-75.51143,5.25367],[-75.51153,5.25369],[-75.51155,5.2537],[-75.51157,5.25371],[-75.51159,5.25373],[-75.5116,5.25374],[-75.51162,5.25376],[-75.51165,5.25382],[-75.51166,5.25384],[-75.51168,5.25385],[-75.51169,5.25386],[-75.51171,5.25387],[-75.51176,5.2539],[-75.51178,5.25391],[-75.51179,5.25392],[-75.5118,5.25393],[-75.5118,5.25395],[-75.5118,5.25396],[-75.5118,5.25397],[-75.5118,5.25398],[-75.5118,5.25399],[-75.51179,5.254],[-75.51179,5.25401],[-75.51178,5.25403],[-75.51178,5.25403],[-75.51176,5.25402],[-75.51174,5.25401],[-75.5117,5.25399],[-75.51156,5.25396],[-75.51149,5.25394],[-75.51143,5.25392],[-75.51142,5.25392],[-75.51146,5.25394],[-75.51166,5.25411],[-75.51173,5.25416],[-75.51182,5.2542],[-75.51194,5.25423],[-75.51196,5.25423],[-75.51197,5.25419],[-75.51201,5.25416],[-75.51197,5.25417],[-75.51197,5.25416],[-75.51201,5.25414],[-75.51194,5.2541],[-75.51192,5.25409],[-75.51191,5.25408],[-75.5119,5.25408],[-75.5119,5.2541],[-75.51187,5.2541],[-75.51186,5.25407],[-75.51185,5.25407],[-75.51184,5.25404],[-75.51187,5.25404],[-75.51187,5.25403],[-75.51186,5.25401],[-75.51186,5.25399],[-75.51186,5.25394],[-75.51186,5.25392],[-75.51186,5.2539],[-75.51185,5.25388],[-75.51183,5.25386],[-75.51181,5.25384],[-75.51179,5.25383],[-75.51178,5.25382],[-75.51177,5.25381],[-75.51172,5.2538],[-75.51172,5.25377],[-75.51171,5.25377],[-75.51171,5.25375]]]},"properties":{"OBJECTID":1,"Condicion":"Condicion de amenaza por inundacion","CPR":"CPR La Honda","Area":1367.1658269920185,"RuleID":1,"Override":null,"Shape_Length":344.4437111954476,"Shape_Area":1367.1658269920185}},{"type":"Feature","id":2,"geometry":{"type":"Polygon","coordinates":[[[-75.5121,5.25426],[-75.5121,5.25427],[-75.51211,5.25436],[-75.5122,5.25436],[-75.51223,5.25435],[-75.51224,5.25435],[-75.51231,5.25434],[-75.51235,5.25434],[-75.51244,5.25436],[-75.51243,5.25429],[-75.51241,5.25429],[-75.5124,5.25428],[-75.5124,5.2543],[-75.5124,5.2543],[-75.51239,5.25431],[-75.51237,5.25431],[-75.51231,5.25432],[-75.5123,5.25432],[-75.5123,5.25431],[-75.5123,5.25431],[-75.51229,5.25431],[-75.51228,5.2543],[-75.51227,5.2543],[-75.51225,5.25432],[-75.51225,5.25433],[-75.51222,5.25433],[-75.51221,5.25431],[-75.51224,5.2543],[-75.51225,5.25431],[-75.51226,5.25429],[-75.51225,5.25429],[-75.51225,5.25428],[-75.51221,5.25425],[-75.5122,5.25425],[-75.5122,5.25425],[-75.5122,5.25425],[-75.5122,5.25425],[-75.51218,5.25425],[-75.51218,5.25426],[-75.51217,5.25427],[-75.51217,5.25426],[-75.51216,5.25426],[-75.51216,5.25426],[-75.51214,5.25425],[-75.5121,5.25426]]]},"properties":{"OBJECTID":2,"Condicion":"Condicion de amenaza por inundacion","CPR":"CPR La Honda","Area":256.4736584716045,"RuleID":1,"Override":null,"Shape_Length":116.22829968418155,"Shape_Area":256.4736584716045}},{"type":"Feature","id":3,"geometry":{"type":"Polygon","coordinates":[[[-75.51074,5.25468],[-75.51079,5.25469],[-75.5108,5.25466],[-75.5108,5.25463],[-75.51081,5.25458],[-75.51081,5.25457],[-75.51079,5.25456],[-75.51078,5.25457],[-75.51074,5.25468]]]},"properties":{"OBJECTID":3,"Condicion":"Condicion de amenaza por inundacion","CPR":"CPR La Honda","Area":61.31862490770072,"RuleID":1,"Override":null,"Shape_Length":36.44199684039264,"Shape_Area":61.31862490770072}},{"type":"Feature","id":4,"geometry":{"type":"Polygon","coordinates":[[[-75.51046,5.2547],[-75.51045,5.25472],[-75.51045,5.25473],[-75.51044,5.25474],[-75.51043,5.25476],[-75.51042,5.25478],[-75.51041,5.25482],[-75.51039,5.25488],[-75.51037,5.25502],[-75.51035,5.2551],[-75.51035,5.2551],[-75.51033,5.25518],[-75.51036,5.25518],[-75.51034,5.25523],[-75.51032,5.25523],[-75.51032,5.25524],[-75.51032,5.25526],[-75.51031,5.25528],[-75.5103,5.2553],[-75.51029,5.25532],[-75.51033,5.25533],[-75.51034,5.25531],[-75.51034,5.25529],[-75.51034,5.25529],[-75.51034,5.25529],[-75.51034,5.25528],[-75.51034,5.25528],[-75.51034,5.25528],[-75.51034,5.25527],[-75.51034,5.25527],[-75.51034,5.25526],[-75.51034,5.25526],[-75.51034,5.25526],[-75.51034,5.25526],[-75.51034,5.25526],[-75.51034,5.25525],[-75.51034,5.25525],[-75.51034,5.25524],[-75.51035,5.25524],[-75.51035,5.25524],[-75.51035,5.25524],[-75.51035,5.25522],[-75.51036,5.25522],[-75.51036,5.25522],[-75.51047,5.25471],[-75.51046,5.2547]]]},"properties":{"OBJECTID":4,"Condicion":"Condicion de amenaza por inundacion","CPR":"CPR La Honda","Area":238.19920720993528,"RuleID":1,"Override":null,"Shape_Length":152.0813294336219,"Shape_Area":238.19920720993528}},{"type":"Feature","id":5,"geometry":{"type":"Polygon","coordinates":[[[-75.51034,5.25531],[-75.51036,5.25522],[-75.51036,5.25522],[-75.51035,5.25522],[-75.51035,5.25524],[-75.51035,5.25524],[-75.51035,5.25524],[-75.51034,5.25524],[-75.51034,5.25525],[-75.51034,5.25525],[-75.51034,5.25526],[-75.51034,5.25526],[-75.51034,5.25526],[-75.51034,5.25526],[-75.51034,5.25526],[-75.51034,5.25527],[-75.51034,5.25527],[-75.51034,5.25528],[-75.51034,5.25528],[-75.51034,5.25528],[-75.51034,5.25529],[-75.51034,5.25529],[-75.51034,5.25529],[-75.51034,5.25531]]]},"properties":{"OBJECTID":5,"Condicion":"Condicion de amenaza por inundacion","CPR":"CPR La Honda","Area":6.159278151428609,"RuleID":1,"Override":null,"Shape_Length":20.192499703479612,"Shape_Area":6.159278151428609}},{"type":"Feature","id":6,"geometry":{"type":"Polygon","coordinates":[[[-75.51034,5.25531],[-75.51033,5.25533],[-75.51033,5.25533],[-75.51034,5.25531]]]},"properties":{"OBJECTID":6,"Condicion":"Condicion de amenaza por inundacion","CPR":"CPR La Honda","Area":0.11488962947434267,"RuleID":1,"Override":null,"Shape_Length":4.858733689189502,"Shape_Area":0.11488962947434267}}]}