{"type":"FeatureCollection","name":"Condicion_Riesgo_ind_CPR_La_Honda","crs":{"type":"name","properties":{"name":"urn:ogc:def:crs:OGC:1.3:CRS84"}},"features":[{"type":"Feature","id":1,"geometry":{"type":"Polygon","coordinates":[[[-75.51184,5.25444],[-75.51178,5.25455],[-75.51178,5.25455],[-75.5118,5.25456],[-75.51182,5.25457],[-75.51183,5.25457],[-75.51184,5.25457],[-75.51185,5.25457],[-75.51192,5.25443],[-75.51191,5.25443],[-75.5119,5.25442],[-75.51189,5.25442],[-75.51188,5.25441],[-75.51188,5.25441],[-75.51187,5.25441],[-75.51186,5.25441],[-75.51186,5.25441],[-75.51185,5.25441],[-75.51185,5.25441],[-75.51184,5.25444]]]},"properties":{"OBJECTID":1,"Condicion":"Condicion de riesgo por inundacion","CPR":"CPR La Honda","Area":143.083311135,"RuleID":1,"Override":null,"Shape_Length":52.220746141737436,"Shape_Area":143.08331113450407}},{"type":"Feature","id":2,"geometry":{"type":"Polygon","coordinates":[[[-75.51058,5.25466],[-75.51057,5.25467],[-75.51056,5.2547],[-75.51055,5.25471],[-75.51063,5.25473],[-75.51064,5.25472],[-75.51066,5.25467],[-75.51067,5.25467],[-75.51065,5.25467],[-75.51058,5.25466],[-75.51058,5.25466]]]},"properties":{"OBJECTID":2,"Condicion":"Condicion de riesgo por inundacion","CPR":"CPR La Honda","Area":68.5816081829,"RuleID":1,"Override":null,"Shape_Length":34.540220210007796,"Shape_Area":68.5816081828946}},{"type":"Feature","id":3,"geometry":{"type":"Polygon","coordinates":[[[-75.5122,5.25425],[-75.5122,5.25425],[-75.5122,5.25425],[-75.5122,5.25425]]]},"properties":{"OBJECTID":3,"Condicion":"Condicion de riesgo por inundacion","CPR":"CPR La Honda","Area":0.0727434831326,"RuleID":1,"Override":null,"Shape_Length":1.3087473677910801,"Shape_Area":0.07274753997068577}}]}