{"type":"FeatureCollection","name":"Condicion_Amenaza_Mm_CPR_Camelia_Grande","crs":{"type":"name","properties":{"name":"urn:ogc:def:crs:OGC:1.3:CRS84"}},"features":[{"type":"Feature","id":1,"geometry":{"type":"MultiPolygon","coordinates":[[[[-75.52289,5.2216],[-75.52288,5.22161],[-75.52287,5.22162],[-75.52286,5.22163],[-75.52284,5.22165],[-75.52283,5.22166],[-75.52282,5.22167],[-75.52278,5.22169],[-75.52276,5.22171],[-75.52272,5.22174],[-75.52269,5.22177],[-75.52264,5.2218],[-75.52268,5.22184],[-75.52269,5.22187],[-75.52271,5.22186],[-75.52272,5.22185],[-75.52282,5.22178],[-75.52284,5.22174],[-75.52288,5.22167],[-75.52291,5.22163],[-75.52297,5.22158],[-75.52304,5.22154],[-75.52304,5.22154],[-75.52304,5.22153],[-75.52304,5.22153],[-75.52289,5.2216]]],[[[-75.52309,5.22154],[-75.52305,5.22156],[-75.52303,5.22157],[-75.52302,5.22158],[-75.52301,5.22159],[-75.52299,5.22161],[-75.52298,5.22161],[-75.52297,5.22161],[-75.52296,5.22162],[-75.52296,5.22162],[-75.52295,5.22163],[-75.52291,5.22167],[-75.52287,5.22175],[-75.52291,5.22173],[-75.52295,5.2217],[-75.52308,5.22164],[-75.52319,5.22161],[-75.52324,5.22159],[-75.52327,5.22158],[-75.52328,5.22158],[-75.52329,5.22158],[-75.52336,5.22154],[-75.52338,5.22154],[-75.52345,5.22155],[-75.52359,5.22157],[-75.52361,5.22157],[-75.52362,5.22157],[-75.52374,5.22156],[-75.52381,5.22156],[-75.52397,5.22157],[-75.524,5.22157],[-75.52402,5.22157],[-75.52404,5.22157],[-75.52406,5.22156],[-75.52411,5.22154],[-75.52413,5.22153],[-75.52414,5.22152],[-75.52416,5.22151],[-75.52421,5.22145],[-75.52421,5.22145],[-75.52421,5.22145],[-75.52427,5.22137],[-75.52427,5.22137],[-75.5243,5.22133],[-75.52433,5.22132],[-75.52448,5.22126],[-75.52448,5.22126],[-75.52462,5.22121],[-75.52463,5.2212],[-75.52465,5.2212],[-75.52465,5.2212],[-75.52465,5.2212],[-75.52466,5.2212],[-75.52468,5.2212],[-75.52467,5.22117],[-75.52467,5.2211],[-75.52471,5.22109],[-75.52489,5.22112],[-75.52496,5.22112],[-75.52499,5.22112],[-75.52503,5.2211],[-75.52535,5.22095],[-75.52547,5.22094],[-75.5255,5.22093],[-75.52561,5.221],[-75.52562,5.22101],[-75.5258,5.22124],[-75.52576,5.22127],[-75.52574,5.22126],[-75.52573,5.22125],[-75.5257,5.22125],[-75.52567,5.22128],[-75.52565,5.2213],[-75.52562,5.22131],[-75.52561,5.22132],[-75.52558,5.22134],[-75.52556,5.22135],[-75.52552,5.22137],[-75.52548,5.22138],[-75.52543,5.22138],[-75.52544,5.22138],[-75.52544,5.22139],[-75.52545,5.22139],[-75.52545,5.22139],[-75.52545,5.22139],[-75.52545,5.2214],[-75.52545,5.2214],[-75.52545,5.2214],[-75.52544,5.2214],[-75.52543,5.2214],[-75.52543,5.2214],[-75.52543,5.2214],[-75.52542,5.2214],[-75.52542,5.2214],[-75.52541,5.22141],[-75.5254,5.22141],[-75.52539,5.22141],[-75.52539,5.22141],[-75.52538,5.22141],[-75.52534,5.22141],[-75.52531,5.2214],[-75.52529,5.2214],[-75.52528,5.22139],[-75.52527,5.22139],[-75.52527,5.22139],[-75.52526,5.22139],[-75.52525,5.22138],[-75.52524,5.22138],[-75.52524,5.22137],[-75.52524,5.22137],[-75.52524,5.22137],[-75.52524,5.22136],[-75.52524,5.22136],[-75.52524,5.22134],[-75.52524,5.22134],[-75.52524,5.22133],[-75.52524,5.22132],[-75.52523,5.2213],[-75.52523,5.22129],[-75.52523,5.22129],[-75.52523,5.22128],[-75.52523,5.22127],[-75.52523,5.22127],[-75.52523,5.22127],[-75.52522,5.22126],[-75.52518,5.22129],[-75.52517,5.22128],[-75.52514,5.2213],[-75.52511,5.22131],[-75.52508,5.22131],[-75.52506,5.22129],[-75.52506,5.2213],[-75.52496,5.22127],[-75.52492,5.22126],[-75.52487,5.22125],[-75.52483,5.22124],[-75.5248,5.22124],[-75.52479,5.2213],[-75.5248,5.22132],[-75.52482,5.22136],[-75.52483,5.22141],[-75.52482,5.22136],[-75.52486,5.22135],[-75.52488,5.22142],[-75.52488,5.22142],[-75.52491,5.22152],[-75.52488,5.22153],[-75.52485,5.22143],[-75.52484,5.22143],[-75.52488,5.22152],[-75.5249,5.22157],[-75.52492,5.22159],[-75.52495,5.22158],[-75.52499,5.22157],[-75.52499,5.22157],[-75.52494,5.22154],[-75.52494,5.22153],[-75.52497,5.22149],[-75.52502,5.22153],[-75.52501,5.22154],[-75.52501,5.22155],[-75.52502,5.22153],[-75.52505,5.22146],[-75.52505,5.22147],[-75.52502,5.22146],[-75.52503,5.22144],[-75.52492,5.22144],[-75.5249,5.22141],[-75.52489,5.22133],[-75.52488,5.22133],[-75.52488,5.22131],[-75.52491,5.22131],[-75.52491,5.22132],[-75.52493,5.22132],[-75.52493,5.22132],[-75.52505,5.22133],[-75.52505,5.22134],[-75.52504,5.22144],[-75.52506,5.22145],[-75.52505,5.22146],[-75.52508,5.22143],[-75.52515,5.22137],[-75.52521,5.22139],[-75.52522,5.22139],[-75.52528,5.2214],[-75.52534,5.22142],[-75.5254,5.22143],[-75.52543,5.22144],[-75.52564,5.22138],[-75.52566,5.22138],[-75.52569,5.2214],[-75.52569,5.2214],[-75.52572,5.22141],[-75.52577,5.22142],[-75.52579,5.22142],[-75.5258,5.22142],[-75.52582,5.22143],[-75.52585,5.22145],[-75.52585,5.22145],[-75.52587,5.22146],[-75.52597,5.2215],[-75.52597,5.2215],[-75.52621,5.22158],[-75.5264,5.22167],[-75.52647,5.22171],[-75.52648,5.22168],[-75.5265,5.22163],[-75.52651,5.2216],[-75.52648,5.2216],[-75.52645,5.22157],[-75.52637,5.22153],[-75.5263,5.22149],[-75.52624,5.22146],[-75.52623,5.22146],[-75.52617,5.22144],[-75.52613,5.22143],[-75.52612,5.22142],[-75.52609,5.22141],[-75.52605,5.2214],[-75.52604,5.22139],[-75.52603,5.22139],[-75.52601,5.22139],[-75.52597,5.22139],[-75.52596,5.22139],[-75.52596,5.22139],[-75.52595,5.22138],[-75.52594,5.22138],[-75.52594,5.22138],[-75.52593,5.22137],[-75.52593,5.22136],[-75.52592,5.22136],[-75.52591,5.22135],[-75.52587,5.22132],[-75.52586,5.22131],[-75.52585,5.2213],[-75.52584,5.22129],[-75.52583,5.22127],[-75.52582,5.22125],[-75.5258,5.22122],[-75.52575,5.22115],[-75.52571,5.22107],[-75.52564,5.22099],[-75.52564,5.22099],[-75.52558,5.22094],[-75.52555,5.22093],[-75.52555,5.22093],[-75.52553,5.22093],[-75.5255,5.22092],[-75.52548,5.22092],[-75.52547,5.22093],[-75.52545,5.22093],[-75.52544,5.22093],[-75.52541,5.22094],[-75.52539,5.22094],[-75.52536,5.22094],[-75.52534,5.22094],[-75.52532,5.22095],[-75.52531,5.22095],[-75.5253,5.22095],[-75.52529,5.22096],[-75.52526,5.22098],[-75.52525,5.22098],[-75.52521,5.221],[-75.52519,5.22102],[-75.52517,5.22103],[-75.52516,5.22103],[-75.52513,5.22104],[-75.52512,5.22104],[-75.52512,5.22104],[-75.5251,5.22106],[-75.5251,5.22106],[-75.52508,5.22107],[-75.52506,5.22107],[-75.52505,5.22108],[-75.52502,5.22109],[-75.52496,5.22111],[-75.52492,5.22111],[-75.52489,5.22111],[-75.52481,5.22109],[-75.52472,5.22107],[-75.52464,5.22108],[-75.52461,5.22108],[-75.52461,5.22109],[-75.52456,5.2211],[-75.52456,5.22111],[-75.52453,5.22113],[-75.52453,5.22113],[-75.52452,5.22114],[-75.52451,5.22114],[-75.52451,5.22114],[-75.5245,5.22114],[-75.52446,5.22114],[-75.52445,5.22115],[-75.52443,5.22115],[-75.52443,5.22116],[-75.52438,5.22118],[-75.52437,5.22117],[-75.52436,5.22117],[-75.52432,5.22119],[-75.52428,5.2212],[-75.52427,5.22121],[-75.52426,5.22121],[-75.52426,5.22122],[-75.5242,5.22127],[-75.52413,5.22135],[-75.52413,5.22136],[-75.5241,5.22142],[-75.52409,5.22142],[-75.52409,5.22143],[-75.52409,5.22144],[-75.52409,5.22145],[-75.52409,5.22145],[-75.52409,5.22146],[-75.52409,5.22147],[-75.52409,5.22147],[-75.52408,5.22148],[-75.52408,5.22149],[-75.52407,5.22149],[-75.52406,5.2215],[-75.52403,5.22153],[-75.524,5.22152],[-75.524,5.22152],[-75.52399,5.22152],[-75.52399,5.22153],[-75.52396,5.22153],[-75.52395,5.22153],[-75.52394,5.22154],[-75.52393,5.22154],[-75.52392,5.22154],[-75.52391,5.22154],[-75.5239,5.22153],[-75.52388,5.22153],[-75.52385,5.22152],[-75.52383,5.22152],[-75.5238,5.22151],[-75.52373,5.22148],[-75.52369,5.22147],[-75.52367,5.22147],[-75.52366,5.22146],[-75.52363,5.22146],[-75.52361,5.22146],[-75.52359,5.22145],[-75.5235,5.22145],[-75.52341,5.22144],[-75.52341,5.22148],[-75.52341,5.2215],[-75.52331,5.22151],[-75.52331,5.22149],[-75.52331,5.22144],[-75.52329,5.22144],[-75.52328,5.22145],[-75.52327,5.22145],[-75.52326,5.22145],[-75.52323,5.22147],[-75.52321,5.22148],[-75.52319,5.22149],[-75.52318,5.22149],[-75.52316,5.22151],[-75.52315,5.22152],[-75.52314,5.22153],[-75.52311,5.22153],[-75.5231,5.22154],[-75.52309,5.22154]],[[-75.52573,5.22131],[-75.52579,5.22132],[-75.52577,5.22135],[-75.52578,5.22136],[-75.52577,5.22141],[-75.5257,5.22139],[-75.52573,5.22131]]],[[[-75.52641,5.22151],[-75.52652,5.22157],[-75.52652,5.22156],[-75.52654,5.22151],[-75.52655,5.22148],[-75.52655,5.22148],[-75.52657,5.22145],[-75.52654,5.22144],[-75.52651,5.22143],[-75.52651,5.22143],[-75.52651,5.22142],[-75.5265,5.22149],[-75.52644,5.22149],[-75.52645,5.22146],[-75.52636,5.22146],[-75.52636,5.2214],[-75.52648,5.22141],[-75.52648,5.22141],[-75.52638,5.22137],[-75.52631,5.22133],[-75.5263,5.22133],[-75.52607,5.22125],[-75.52602,5.22123],[-75.52598,5.22121],[-75.52597,5.22121],[-75.52596,5.22119],[-75.5259,5.22109],[-75.52584,5.221],[-75.52583,5.22098],[-75.52582,5.22097],[-75.52575,5.22089],[-75.52574,5.22088],[-75.52574,5.22088],[-75.52567,5.22083],[-75.52565,5.22082],[-75.52559,5.22078],[-75.52556,5.22077],[-75.52554,5.22076],[-75.52548,5.22075],[-75.52545,5.22075],[-75.52544,5.22075],[-75.52537,5.22076],[-75.52535,5.22076],[-75.52534,5.22077],[-75.52534,5.22077],[-75.5254,5.22079],[-75.52545,5.22083],[-75.52545,5.22085],[-75.52546,5.22086],[-75.52547,5.22086],[-75.5255,5.22087],[-75.52551,5.22087],[-75.52552,5.22087],[-75.52554,5.22088],[-75.52555,5.22088],[-75.52556,5.22089],[-75.52557,5.22089],[-75.52557,5.2209],[-75.52558,5.2209],[-75.52559,5.22091],[-75.5256,5.22092],[-75.5256,5.22092],[-75.52561,5.22093],[-75.52561,5.22093],[-75.5256,5.22093],[-75.52563,5.22095],[-75.5257,5.22102],[-75.52573,5.22105],[-75.52575,5.22109],[-75.52579,5.22116],[-75.52579,5.22116],[-75.5258,5.22116],[-75.5258,5.22117],[-75.52582,5.2212],[-75.52584,5.22123],[-75.52585,5.22125],[-75.52585,5.22125],[-75.52586,5.22127],[-75.52586,5.22127],[-75.52587,5.22127],[-75.52588,5.22128],[-75.52589,5.22129],[-75.5259,5.22129],[-75.52591,5.2213],[-75.52592,5.2213],[-75.52593,5.22131],[-75.52593,5.22131],[-75.52595,5.22132],[-75.52597,5.22134],[-75.52599,5.22135],[-75.526,5.22135],[-75.526,5.22135],[-75.52601,5.22135],[-75.52603,5.22136],[-75.52604,5.22136],[-75.52605,5.22136],[-75.52607,5.22137],[-75.52609,5.22138],[-75.52611,5.22139],[-75.52612,5.22139],[-75.52614,5.2214],[-75.52619,5.22141],[-75.5262,5.22141],[-75.5262,5.22141],[-75.52621,5.22142],[-75.52627,5.22144],[-75.52641,5.22151]]],[[[-75.52299,5.22138],[-75.52299,5.22139],[-75.52298,5.22139],[-75.52285,5.22145],[-75.52286,5.22145],[-75.5229,5.22144],[-75.52292,5.22144],[-75.52296,5.22144],[-75.52299,5.22144],[-75.52299,5.22143],[-75.52307,5.2214],[-75.52307,5.22139],[-75.52309,5.22138],[-75.5231,5.2214],[-75.52313,5.22139],[-75.52314,5.22139],[-75.52314,5.2214],[-75.52315,5.22144],[-75.52315,5.22144],[-75.52317,5.22144],[-75.52318,5.22144],[-75.52319,5.22144],[-75.52321,5.22144],[-75.52323,5.22143],[-75.52325,5.22143],[-75.52326,5.22142],[-75.5233,5.2214],[-75.52332,5.2214],[-75.52334,5.22139],[-75.52335,5.22139],[-75.52337,5.22139],[-75.52345,5.22138],[-75.52346,5.22138],[-75.52349,5.22137],[-75.5235,5.22137],[-75.52351,5.22137],[-75.52351,5.22137],[-75.52352,5.22135],[-75.52352,5.22131],[-75.52365,5.22132],[-75.52365,5.2213],[-75.52377,5.2213],[-75.52381,5.22131],[-75.52383,5.22131],[-75.52383,5.2213],[-75.52391,5.2213],[-75.52391,5.2213],[-75.52391,5.2213],[-75.52391,5.22129],[-75.52392,5.22129],[-75.52392,5.22129],[-75.52392,5.22129],[-75.52393,5.22129],[-75.52393,5.22126],[-75.52395,5.22126],[-75.52395,5.2212],[-75.524,5.22121],[-75.524,5.2212],[-75.52404,5.22116],[-75.52403,5.22115],[-75.52406,5.22112],[-75.52405,5.22111],[-75.52409,5.22107],[-75.52413,5.2211],[-75.52414,5.22109],[-75.52415,5.22109],[-75.52415,5.22109],[-75.52416,5.22109],[-75.52416,5.22109],[-75.52417,5.22109],[-75.52417,5.22109],[-75.52418,5.22109],[-75.52418,5.22109],[-75.52419,5.22109],[-75.52419,5.22109],[-75.52421,5.22111],[-75.52421,5.22111],[-75.52422,5.22111],[-75.52422,5.22111],[-75.52423,5.22111],[-75.52423,5.22111],[-75.52424,5.22111],[-75.52427,5.2211],[-75.52428,5.2211],[-75.5243,5.2211],[-75.52432,5.2211],[-75.52433,5.2211],[-75.52433,5.2211],[-75.52434,5.2211],[-75.52434,5.22111],[-75.52434,5.22111],[-75.52434,5.22111],[-75.52435,5.22112],[-75.52435,5.22112],[-75.52435,5.22112],[-75.52434,5.22113],[-75.52434,5.22113],[-75.52434,5.22114],[-75.52433,5.22114],[-75.52431,5.22116],[-75.52431,5.22116],[-75.52431,5.22116],[-75.52431,5.22116],[-75.52431,5.22117],[-75.52431,5.22117],[-75.52431,5.22117],[-75.52436,5.22115],[-75.52436,5.22115],[-75.52434,5.22108],[-75.52434,5.22107],[-75.52435,5.22107],[-75.52444,5.22104],[-75.52445,5.22104],[-75.52446,5.22103],[-75.52446,5.22102],[-75.52447,5.22102],[-75.52449,5.221],[-75.52449,5.221],[-75.5245,5.22099],[-75.52451,5.22097],[-75.52452,5.22097],[-75.52452,5.22096],[-75.52452,5.22096],[-75.52452,5.22096],[-75.52452,5.22096],[-75.52453,5.22097],[-75.52453,5.22097],[-75.52454,5.22096],[-75.52457,5.22093],[-75.52457,5.22093],[-75.52452,5.22094],[-75.52414,5.22104],[-75.52408,5.22106],[-75.52395,5.2212],[-75.52385,5.22127],[-75.52384,5.22127],[-75.52382,5.22128],[-75.52381,5.22128],[-75.5238,5.22128],[-75.52362,5.2213],[-75.52349,5.22128],[-75.52348,5.22128],[-75.52339,5.22127],[-75.52338,5.22127],[-75.52337,5.22127],[-75.52332,5.22127],[-75.5233,5.22128],[-75.52329,5.22128],[-75.52327,5.22129],[-75.52318,5.22133],[-75.52311,5.22135],[-75.52311,5.22135],[-75.52309,5.22136],[-75.52308,5.22136],[-75.52307,5.22136],[-75.52307,5.22136],[-75.52299,5.22138]]],[[[-75.52536,5.22134],[-75.52536,5.22134],[-75.52536,5.22135],[-75.52535,5.22135],[-75.52535,5.22135],[-75.52535,5.22136],[-75.52536,5.22136],[-75.52536,5.22136],[-75.52536,5.22137],[-75.52536,5.22137],[-75.52537,5.22137],[-75.52538,5.22137],[-75.52539,5.22138],[-75.52538,5.22137],[-75.5254,5.22134],[-75.52547,5.22135],[-75.52553,5.22131],[-75.52551,5.2213],[-75.5255,5.22131],[-75.52548,5.2213],[-75.52548,5.2213],[-75.52547,5.22131],[-75.52547,5.22131],[-75.52547,5.22134],[-75.52538,5.22133],[-75.52538,5.22133],[-75.52538,5.22133],[-75.52537,5.22133],[-75.52537,5.22134],[-75.52536,5.22134]]],[[[-75.5255,5.22125],[-75.52552,5.22127],[-75.52553,5.22127],[-75.52554,5.22125],[-75.52554,5.22125],[-75.52555,5.22123],[-75.52558,5.22124],[-75.52557,5.22121],[-75.52556,5.22118],[-75.52554,5.22121],[-75.52548,5.22118],[-75.52547,5.22121],[-75.52551,5.22123],[-75.5255,5.22125]]],[[[-75.52478,5.22106],[-75.52479,5.22106],[-75.52484,5.22107],[-75.52485,5.22107],[-75.52486,5.22107],[-75.52487,5.22107],[-75.52488,5.22107],[-75.52489,5.22107],[-75.5249,5.22107],[-75.5249,5.22106],[-75.52491,5.22106],[-75.52491,5.22106],[-75.52493,5.22104],[-75.52493,5.22104],[-75.52494,5.22104],[-75.52494,5.22103],[-75.52495,5.22103],[-75.52496,5.22103],[-75.52497,5.22103],[-75.52497,5.22103],[-75.52498,5.22103],[-75.52499,5.22104],[-75.52499,5.22104],[-75.525,5.22104],[-75.525,5.22104],[-75.52501,5.22104],[-75.52501,5.22104],[-75.52501,5.22104],[-75.52502,5.22104],[-75.52502,5.22104],[-75.52502,5.22103],[-75.52502,5.22103],[-75.52502,5.22103],[-75.52502,5.22102],[-75.52502,5.22102],[-75.52502,5.221],[-75.52501,5.221],[-75.52501,5.22099],[-75.52501,5.22099],[-75.52501,5.22098],[-75.52502,5.22098],[-75.52502,5.22097],[-75.52502,5.22097],[-75.52502,5.22096],[-75.52503,5.22096],[-75.52503,5.22095],[-75.52503,5.22095],[-75.52504,5.22094],[-75.52505,5.22094],[-75.52506,5.22093],[-75.52507,5.22093],[-75.52507,5.22093],[-75.52508,5.22093],[-75.52509,5.22093],[-75.5251,5.22093],[-75.52513,5.22094],[-75.52516,5.22094],[-75.52517,5.22094],[-75.52518,5.22094],[-75.52518,5.22094],[-75.52519,5.22095],[-75.52519,5.22095],[-75.52519,5.22095],[-75.5252,5.22096],[-75.5252,5.22096],[-75.5252,5.22096],[-75.52521,5.22096],[-75.52521,5.22096],[-75.52523,5.22094],[-75.52523,5.22094],[-75.52524,5.22093],[-75.52528,5.22091],[-75.52531,5.2209],[-75.52534,5.22088],[-75.52536,5.22087],[-75.52537,5.22087],[-75.52539,5.22086],[-75.5254,5.22086],[-75.5254,5.22085],[-75.5254,5.22083],[-75.52538,5.22082],[-75.52536,5.22081],[-75.52532,5.2208],[-75.52529,5.22079],[-75.52528,5.2208],[-75.52514,5.22086],[-75.52513,5.22086],[-75.52503,5.22092],[-75.525,5.22094],[-75.52498,5.22095],[-75.52495,5.22096],[-75.5249,5.22096],[-75.52481,5.22094],[-75.5248,5.22094],[-75.5248,5.22093],[-75.52471,5.22092],[-75.52469,5.22092],[-75.52468,5.22092],[-75.52461,5.22093],[-75.5246,5.22093],[-75.52458,5.22094],[-75.52462,5.22101],[-75.52463,5.22104],[-75.52463,5.22105],[-75.52467,5.22105],[-75.52469,5.22104],[-75.52478,5.22106]]]]},"properties":{"OBJECTID":1,"Condicion":"Condicion de amenaza por movimientos en masa","CPR":"CPR Camelia Grande","Area_m2":9197.46902879,"RuleID":1,"Override":null,"Shape_Length":2699.5322591014774,"Shape_Area":9197.468813089656}}]}