{"type":"FeatureCollection","name":"Condicion_Riesgo_Mm_CPR_Alegrias","crs":{"type":"name","properties":{"name":"urn:ogc:def:crs:OGC:1.3:CRS84"}},"features":[{"type":"Feature","id":1,"geometry":{"type":"MultiPolygon","coordinates":[[[[-75.49173,5.29363],[-75.49173,5.29363],[-75.49173,5.29363],[-75.49173,5.29363],[-75.49173,5.29363]]],[[[-75.49204,5.29424],[-75.49204,5.29425],[-75.49204,5.29425],[-75.49204,5.29426],[-75.49204,5.29427],[-75.49204,5.29427],[-75.49204,5.29428],[-75.49205,5.29428],[-75.49205,5.29428],[-75.49205,5.29428],[-75.49205,5.29428],[-75.49205,5.29428],[-75.49205,5.29427],[-75.49205,5.29427],[-75.49204,5.29424],[-75.49204,5.29424]]],[[[-75.49184,5.29598],[-75.49184,5.29598],[-75.49184,5.29598],[-75.49183,5.29598],[-75.49183,5.29599],[-75.49183,5.29599],[-75.49183,5.296],[-75.49183,5.29601],[-75.49184,5.29598],[-75.49184,5.29598]]],[[[-75.49242,5.29631],[-75.49242,5.29631],[-75.49242,5.29634],[-75.49242,5.29635],[-75.49242,5.29638],[-75.49242,5.29639],[-75.49242,5.2964],[-75.49242,5.29641],[-75.49247,5.29641],[-75.49248,5.29639],[-75.49247,5.29639],[-75.49247,5.29638],[-75.49247,5.29637],[-75.49246,5.29636],[-75.49244,5.29633],[-75.49243,5.29631],[-75.49243,5.29631],[-75.49242,5.29631],[-75.49242,5.29631],[-75.49242,5.29631]]],[[[-75.49175,5.29675],[-75.49174,5.29676],[-75.49175,5.29677],[-75.49176,5.29678],[-75.49177,5.29678],[-75.49177,5.29678],[-75.49179,5.2968],[-75.49179,5.2968],[-75.49179,5.2968],[-75.49179,5.2968],[-75.4918,5.2968],[-75.4918,5.2968],[-75.4918,5.29679],[-75.49181,5.29679],[-75.49182,5.29677],[-75.49184,5.29676],[-75.49185,5.29675],[-75.49186,5.29674],[-75.49186,5.29673],[-75.49186,5.29673],[-75.49186,5.29672],[-75.49186,5.29672],[-75.49184,5.29669],[-75.49175,5.29675]]],[[[-75.49126,5.29692],[-75.49126,5.29692],[-75.49125,5.29692],[-75.49125,5.29692],[-75.49125,5.29693],[-75.49124,5.29693],[-75.49124,5.29694],[-75.49124,5.29694],[-75.49124,5.29695],[-75.49124,5.29695],[-75.49124,5.29697],[-75.49124,5.29698],[-75.49124,5.29698],[-75.49124,5.29698],[-75.49125,5.29696],[-75.49128,5.29692],[-75.49126,5.29692]]],[[[-75.49123,5.29702],[-75.49123,5.29702],[-75.49122,5.29703],[-75.49122,5.29703],[-75.49122,5.29704],[-75.49122,5.29705],[-75.49122,5.29705],[-75.49124,5.297],[-75.49123,5.29702]]],[[[-75.49131,5.29864],[-75.49131,5.29864],[-75.49132,5.29866],[-75.49132,5.29865],[-75.49132,5.29865],[-75.49132,5.29864],[-75.49132,5.29864],[-75.49132,5.29864],[-75.49131,5.29864],[-75.49131,5.29864]]],[[[-75.49348,5.30205],[-75.49347,5.30206],[-75.49347,5.30206],[-75.49347,5.30206],[-75.49347,5.30206],[-75.49347,5.30208],[-75.49348,5.30209],[-75.49348,5.3021],[-75.49349,5.30212],[-75.49349,5.30212],[-75.4935,5.30214],[-75.49352,5.30217],[-75.49355,5.30215],[-75.49349,5.30206],[-75.49348,5.30205],[-75.49348,5.30205],[-75.49348,5.30205]]],[[[-75.49415,5.30262],[-75.49415,5.30263],[-75.49415,5.30263],[-75.49415,5.30263],[-75.49415,5.30264],[-75.49415,5.30264],[-75.49415,5.30265],[-75.49416,5.30266],[-75.49416,5.30267],[-75.49417,5.30268],[-75.49418,5.30269],[-75.49419,5.30269],[-75.49419,5.3027],[-75.4942,5.3027],[-75.4942,5.3027],[-75.4942,5.3027],[-75.49421,5.3027],[-75.49421,5.3027],[-75.49421,5.3027],[-75.4942,5.30269],[-75.49419,5.30267],[-75.4942,5.30267],[-75.49416,5.30261],[-75.49415,5.30262]]],[[[-75.49549,5.30402],[-75.49549,5.30402],[-75.49549,5.30402],[-75.49549,5.30402],[-75.49549,5.30403],[-75.49549,5.30403],[-75.49549,5.30403],[-75.4955,5.30404],[-75.49551,5.30404],[-75.49552,5.30405],[-75.49553,5.30406],[-75.49554,5.30406],[-75.49555,5.30406],[-75.49555,5.30406],[-75.49555,5.30406],[-75.49556,5.30406],[-75.49556,5.30405],[-75.49551,5.30402],[-75.4955,5.30402],[-75.4955,5.30402],[-75.49549,5.30402]]],[[[-75.49569,5.30413],[-75.4957,5.30414],[-75.4957,5.30414],[-75.49571,5.30414],[-75.49572,5.30415],[-75.49574,5.30415],[-75.49576,5.30415],[-75.49577,5.30415],[-75.49577,5.30415],[-75.49578,5.30415],[-75.49578,5.30415],[-75.49579,5.30414],[-75.49579,5.30414],[-75.4958,5.30413],[-75.4958,5.30413],[-75.49577,5.30411],[-75.49576,5.30413],[-75.49571,5.30409],[-75.4957,5.3041],[-75.49566,5.30407],[-75.49564,5.30409],[-75.49564,5.30409],[-75.49567,5.30412],[-75.49569,5.30413]]],[[[-75.49694,5.30451],[-75.49689,5.30452],[-75.49687,5.30452],[-75.49679,5.30453],[-75.49673,5.30453],[-75.49666,5.30453],[-75.49663,5.30453],[-75.49662,5.30454],[-75.49662,5.30454],[-75.49688,5.30453],[-75.49696,5.30451],[-75.49696,5.30451],[-75.49694,5.30451]]],[[[-75.49576,5.30641],[-75.49576,5.30642],[-75.49576,5.30643],[-75.49576,5.30644],[-75.49576,5.30646],[-75.49577,5.30647],[-75.49577,5.30649],[-75.49577,5.30649],[-75.49578,5.30649],[-75.49578,5.3065],[-75.49578,5.3065],[-75.49579,5.3065],[-75.4958,5.3065],[-75.4958,5.3065],[-75.49581,5.3065],[-75.49581,5.3065],[-75.49582,5.3065],[-75.49582,5.30649],[-75.49581,5.30643],[-75.49577,5.3064],[-75.49576,5.3064],[-75.49576,5.30641]]],[[[-75.4972,5.30671],[-75.4972,5.30671],[-75.4972,5.30672],[-75.49721,5.30673],[-75.49721,5.30674],[-75.49722,5.30675],[-75.49722,5.30676],[-75.49723,5.30674],[-75.4973,5.30668],[-75.49737,5.30661],[-75.49737,5.30658],[-75.49737,5.30658],[-75.49737,5.30659],[-75.49736,5.30659],[-75.49736,5.30659],[-75.49735,5.3066],[-75.49735,5.30661],[-75.49732,5.30664],[-75.49731,5.30665],[-75.49729,5.30666],[-75.49728,5.30667],[-75.49727,5.30668],[-75.49727,5.30668],[-75.49726,5.30668],[-75.49725,5.30669],[-75.49724,5.30669],[-75.49723,5.30669],[-75.49722,5.30668],[-75.4972,5.30671]]],[[[-75.49721,5.307],[-75.49722,5.307],[-75.49722,5.307],[-75.49722,5.30698],[-75.49721,5.30688],[-75.4972,5.30688],[-75.49719,5.30688],[-75.49717,5.30688],[-75.49715,5.30689],[-75.49717,5.30699],[-75.49719,5.30699],[-75.49721,5.307]]],[[[-75.49759,5.30765],[-75.4976,5.30767],[-75.49759,5.30765],[-75.49758,5.30764],[-75.49759,5.30765]]],[[[-75.49451,5.30769],[-75.4945,5.30769],[-75.4945,5.30769],[-75.49449,5.30769],[-75.49449,5.30769],[-75.49449,5.3077],[-75.49449,5.3077],[-75.49452,5.30772],[-75.49452,5.30772],[-75.49453,5.30771],[-75.49453,5.30771],[-75.49453,5.3077],[-75.49453,5.3077],[-75.49453,5.3077],[-75.49453,5.30769],[-75.49452,5.30769],[-75.49452,5.30769],[-75.49452,5.30769],[-75.49451,5.30769],[-75.49451,5.30769]]],[[[-75.49413,5.3079],[-75.49411,5.30791],[-75.49408,5.30793],[-75.49406,5.30795],[-75.49405,5.30796],[-75.49404,5.30796],[-75.49404,5.30797],[-75.49404,5.30798],[-75.49403,5.30799],[-75.49404,5.30798],[-75.49414,5.30789],[-75.49413,5.3079]]],[[[-75.49477,5.3088],[-75.49482,5.30884],[-75.49482,5.30884],[-75.49483,5.30884],[-75.49484,5.30884],[-75.49485,5.30884],[-75.49486,5.30884],[-75.49487,5.30884],[-75.49487,5.30883],[-75.49487,5.30883],[-75.49487,5.30883],[-75.49487,5.30883],[-75.49487,5.30882],[-75.49484,5.3088],[-75.49485,5.30878],[-75.49482,5.30876],[-75.49481,5.30878],[-75.49479,5.30877],[-75.49477,5.3088]]],[[[-75.49753,5.30849],[-75.49752,5.30849],[-75.4975,5.3085],[-75.49749,5.3085],[-75.49751,5.30855],[-75.49761,5.30877],[-75.49769,5.30885],[-75.49772,5.30886],[-75.49772,5.30886],[-75.49773,5.30885],[-75.49773,5.30885],[-75.49774,5.30884],[-75.49775,5.30883],[-75.4977,5.30881],[-75.49764,5.30874],[-75.4976,5.30865],[-75.49756,5.30855],[-75.49754,5.30849],[-75.49753,5.30849]]],[[[-75.49495,5.309],[-75.49495,5.309],[-75.49495,5.30902],[-75.49495,5.30902],[-75.49494,5.30904],[-75.49494,5.30906],[-75.49494,5.30907],[-75.49494,5.30907],[-75.49495,5.30908],[-75.49495,5.30908],[-75.49495,5.30909],[-75.495,5.30909],[-75.49502,5.30901],[-75.49495,5.309],[-75.49495,5.309]]],[[[-75.49496,5.30911],[-75.49496,5.30912],[-75.49495,5.30912],[-75.49495,5.30913],[-75.49495,5.30914],[-75.49496,5.30914],[-75.49496,5.30915],[-75.49496,5.30915],[-75.49496,5.30915],[-75.49497,5.30915],[-75.49497,5.30915],[-75.49498,5.30915],[-75.49499,5.30912],[-75.49496,5.30911],[-75.49496,5.30911]]]]},"properties":{"OBJECTID":1,"Condicion":"Condicion de riesgo por movimientos en masa","CPR":"CPR Alegrias","Area_m2":900.106323501,"RuleID":1,"Override":null,"Shape_Length":683.8418519721672,"Shape_Area":900.1063234941871}}]}