{"type":"FeatureCollection","name":"Condicion_Amenaza_Mm_CPR_Muelas","crs":{"type":"name","properties":{"name":"urn:ogc:def:crs:OGC:1.3:CRS84"}},"features":[{"type":"Feature","id":1,"geometry":{"type":"MultiPolygon","coordinates":[[[[-75.50409,5.24547],[-75.50411,5.24546],[-75.50411,5.24545],[-75.5041,5.24544],[-75.5041,5.24544],[-75.50409,5.24544],[-75.50409,5.24544],[-75.50408,5.24544],[-75.50407,5.24544],[-75.50407,5.24544],[-75.50407,5.24544],[-75.50406,5.24543],[-75.50405,5.24543],[-75.50402,5.24542],[-75.50402,5.24542],[-75.50402,5.24542],[-75.50402,5.24542],[-75.50409,5.24547]]],[[[-75.50615,5.24538],[-75.50616,5.2454],[-75.50617,5.24541],[-75.50621,5.24544],[-75.50621,5.24545],[-75.50627,5.24544],[-75.50626,5.24544],[-75.50626,5.24544],[-75.50624,5.24542],[-75.50622,5.24541],[-75.5062,5.24539],[-75.50619,5.24538],[-75.50615,5.24538],[-75.50615,5.24538]]],[[[-75.50638,5.24516],[-75.50636,5.24517],[-75.50636,5.24517],[-75.50635,5.24517],[-75.50635,5.24518],[-75.50634,5.24518],[-75.50634,5.24519],[-75.50634,5.2452],[-75.50633,5.24521],[-75.50633,5.24526],[-75.50633,5.24526],[-75.50632,5.24527],[-75.50632,5.24528],[-75.50632,5.24528],[-75.50632,5.2453],[-75.50632,5.24532],[-75.50631,5.24533],[-75.50631,5.24534],[-75.5063,5.24536],[-75.5063,5.24536],[-75.50629,5.2454],[-75.50629,5.24542],[-75.50629,5.24542],[-75.50629,5.24544],[-75.50636,5.24544],[-75.50639,5.24544],[-75.5064,5.24544],[-75.50642,5.24543],[-75.50641,5.24541],[-75.50641,5.24541],[-75.50641,5.2454],[-75.50641,5.2454],[-75.50642,5.24535],[-75.50643,5.24532],[-75.50643,5.24531],[-75.50643,5.2453],[-75.50643,5.24529],[-75.50643,5.24528],[-75.50643,5.24526],[-75.50643,5.24524],[-75.50642,5.24522],[-75.50641,5.2452],[-75.5064,5.24518],[-75.5064,5.24517],[-75.5064,5.24517],[-75.50639,5.24516],[-75.50638,5.24516]]],[[[-75.50446,5.24465],[-75.50441,5.24467],[-75.5044,5.24466],[-75.50419,5.24459],[-75.50417,5.24461],[-75.5042,5.24461],[-75.5042,5.24466],[-75.50421,5.24471],[-75.50422,5.24474],[-75.50419,5.24474],[-75.5042,5.24474],[-75.50421,5.24474],[-75.50422,5.24475],[-75.50422,5.24475],[-75.50422,5.24475],[-75.50422,5.24476],[-75.50422,5.24476],[-75.50422,5.24476],[-75.50418,5.24476],[-75.50417,5.24476],[-75.50415,5.24477],[-75.50414,5.24477],[-75.50414,5.24477],[-75.50415,5.24478],[-75.50416,5.2448],[-75.50417,5.2448],[-75.50411,5.24483],[-75.50399,5.24489],[-75.50399,5.24492],[-75.50398,5.24493],[-75.50398,5.24493],[-75.50398,5.24493],[-75.50398,5.24493],[-75.50397,5.24493],[-75.50397,5.24492],[-75.50396,5.24492],[-75.50396,5.24491],[-75.50393,5.24492],[-75.50393,5.24493],[-75.50408,5.24515],[-75.50401,5.24523],[-75.50402,5.24524],[-75.50401,5.24526],[-75.50401,5.24527],[-75.504,5.24529],[-75.50399,5.24528],[-75.50398,5.24528],[-75.504,5.24525],[-75.50399,5.24525],[-75.50395,5.24529],[-75.5039,5.24534],[-75.50395,5.24537],[-75.50395,5.24537],[-75.50395,5.24534],[-75.50395,5.24532],[-75.50396,5.24532],[-75.50396,5.24531],[-75.50396,5.24531],[-75.50397,5.24531],[-75.50397,5.2453],[-75.50398,5.2453],[-75.50398,5.2453],[-75.50399,5.2453],[-75.50399,5.2453],[-75.504,5.24529],[-75.50402,5.2453],[-75.50403,5.24528],[-75.50407,5.24529],[-75.50406,5.24531],[-75.5041,5.24532],[-75.5041,5.24533],[-75.5041,5.24533],[-75.50412,5.24534],[-75.50414,5.24534],[-75.50416,5.24534],[-75.50417,5.24534],[-75.50419,5.24535],[-75.5042,5.24535],[-75.5042,5.24535],[-75.50421,5.24536],[-75.50421,5.24536],[-75.50421,5.24537],[-75.5042,5.24537],[-75.5042,5.24538],[-75.50418,5.2454],[-75.50417,5.2454],[-75.50426,5.24532],[-75.50426,5.24532],[-75.50426,5.24532],[-75.50426,5.24531],[-75.50426,5.2453],[-75.50426,5.2453],[-75.50426,5.24529],[-75.50426,5.24529],[-75.50427,5.24528],[-75.50427,5.24528],[-75.50428,5.24527],[-75.50428,5.24527],[-75.50429,5.24527],[-75.50431,5.24526],[-75.50433,5.24526],[-75.50434,5.24526],[-75.5044,5.24521],[-75.5044,5.2452],[-75.50434,5.2452],[-75.50434,5.24517],[-75.50429,5.24517],[-75.5043,5.24511],[-75.50441,5.24513],[-75.5044,5.2452],[-75.5044,5.24519],[-75.50446,5.24499],[-75.50446,5.24497],[-75.50447,5.24492],[-75.50453,5.24485],[-75.50459,5.24479],[-75.50465,5.24473],[-75.50465,5.24473],[-75.50463,5.24471],[-75.50461,5.24472],[-75.50459,5.24473],[-75.50455,5.24475],[-75.50454,5.24475],[-75.50451,5.24475],[-75.50449,5.24471],[-75.5045,5.2447],[-75.50458,5.24464],[-75.50458,5.24463],[-75.50456,5.24464],[-75.50451,5.24467],[-75.50447,5.24465],[-75.50446,5.24465],[-75.50451,5.24467],[-75.50448,5.24471],[-75.50444,5.24468],[-75.50446,5.24465]],[[-75.50426,5.24473],[-75.50429,5.24473],[-75.50429,5.24475],[-75.50426,5.24475],[-75.50426,5.24473]],[[-75.5044,5.24488],[-75.50446,5.24492],[-75.50438,5.24504],[-75.50433,5.245],[-75.5044,5.24488]],[[-75.50426,5.24504],[-75.50424,5.24505],[-75.50422,5.24504],[-75.50424,5.24502],[-75.50426,5.24504]],[[-75.50409,5.24506],[-75.50409,5.24506],[-75.50409,5.24506],[-75.50404,5.24503],[-75.50408,5.24496],[-75.50413,5.24498],[-75.50409,5.24506]]],[[[-75.50614,5.24529],[-75.50614,5.2453],[-75.50613,5.2453],[-75.50614,5.24531],[-75.50616,5.24531],[-75.50615,5.2453],[-75.50615,5.2453],[-75.50614,5.24529],[-75.50614,5.24529],[-75.50614,5.24529],[-75.50614,5.24529]]],[[[-75.50516,5.2452],[-75.50517,5.2452],[-75.50518,5.24521],[-75.50519,5.24522],[-75.5052,5.24522],[-75.50522,5.24522],[-75.50523,5.24522],[-75.50524,5.24522],[-75.50535,5.24521],[-75.50537,5.24521],[-75.50539,5.2452],[-75.50545,5.24518],[-75.50546,5.24517],[-75.50546,5.24517],[-75.50549,5.24516],[-75.5055,5.24515],[-75.50552,5.24514],[-75.50557,5.2451],[-75.50559,5.24509],[-75.5056,5.24508],[-75.50561,5.24506],[-75.50564,5.24501],[-75.50565,5.24501],[-75.50565,5.24501],[-75.50565,5.24501],[-75.5057,5.24501],[-75.50571,5.24501],[-75.50575,5.24502],[-75.50575,5.24502],[-75.50576,5.24501],[-75.50577,5.245],[-75.50579,5.24499],[-75.50579,5.24498],[-75.5058,5.24498],[-75.50581,5.24498],[-75.50581,5.24498],[-75.50583,5.24498],[-75.50583,5.24498],[-75.50583,5.24498],[-75.50583,5.24498],[-75.50583,5.24498],[-75.50583,5.24497],[-75.50582,5.24496],[-75.50582,5.24495],[-75.50581,5.24494],[-75.50579,5.24494],[-75.50579,5.24493],[-75.50579,5.24493],[-75.50578,5.24493],[-75.50579,5.24493],[-75.50579,5.24492],[-75.50579,5.24492],[-75.50579,5.24492],[-75.5058,5.24492],[-75.5058,5.24492],[-75.50581,5.24492],[-75.50582,5.24493],[-75.50576,5.24489],[-75.50573,5.24488],[-75.50573,5.24488],[-75.50573,5.24489],[-75.50573,5.24489],[-75.50573,5.24489],[-75.50573,5.2449],[-75.50573,5.2449],[-75.50573,5.24491],[-75.50573,5.24491],[-75.50573,5.24492],[-75.50572,5.24492],[-75.50571,5.24493],[-75.50569,5.24494],[-75.50568,5.24495],[-75.50567,5.24496],[-75.50564,5.24496],[-75.50563,5.24497],[-75.50562,5.24498],[-75.5056,5.24499],[-75.5056,5.24499],[-75.50559,5.245],[-75.50559,5.24501],[-75.50557,5.24506],[-75.50556,5.24508],[-75.50555,5.24509],[-75.50554,5.24511],[-75.50553,5.24512],[-75.50552,5.24513],[-75.50552,5.24513],[-75.50551,5.24514],[-75.50551,5.24514],[-75.5055,5.24514],[-75.5055,5.24514],[-75.50547,5.24514],[-75.50546,5.24514],[-75.50546,5.24515],[-75.50546,5.24515],[-75.50546,5.24516],[-75.50537,5.24519],[-75.50536,5.24518],[-75.50536,5.24518],[-75.50535,5.24519],[-75.50534,5.24519],[-75.50533,5.24519],[-75.5053,5.24518],[-75.50528,5.24517],[-75.50525,5.24517],[-75.5052,5.24517],[-75.50517,5.24517],[-75.50516,5.24517],[-75.50515,5.24517],[-75.50515,5.24517],[-75.50515,5.24517],[-75.50515,5.24518],[-75.50515,5.24518],[-75.50515,5.24519],[-75.50515,5.24519],[-75.50516,5.2452]]],[[[-75.50518,5.24506],[-75.5052,5.24507],[-75.50521,5.24507],[-75.50523,5.24507],[-75.50524,5.24507],[-75.50524,5.24506],[-75.50524,5.24506],[-75.50525,5.24506],[-75.50526,5.24506],[-75.50528,5.24505],[-75.50529,5.24505],[-75.50531,5.24504],[-75.50531,5.24504],[-75.5053,5.24504],[-75.50525,5.24503],[-75.50523,5.24504],[-75.50516,5.24496],[-75.50516,5.24495],[-75.50515,5.24496],[-75.50514,5.24495],[-75.50516,5.24494],[-75.50518,5.24493],[-75.50518,5.24493],[-75.50517,5.24492],[-75.50516,5.24492],[-75.50515,5.24491],[-75.50515,5.24491],[-75.50515,5.24492],[-75.50515,5.24492],[-75.50515,5.24492],[-75.50515,5.24492],[-75.50514,5.24493],[-75.50514,5.24492],[-75.50513,5.24492],[-75.5051,5.2449],[-75.50507,5.24488],[-75.50506,5.24488],[-75.50504,5.24494],[-75.50495,5.24495],[-75.50497,5.24507],[-75.50498,5.24507],[-75.50499,5.24506],[-75.505,5.24506],[-75.505,5.24506],[-75.50502,5.24506],[-75.50503,5.24506],[-75.50505,5.24506],[-75.50506,5.24506],[-75.50509,5.24506],[-75.5051,5.24506],[-75.50511,5.24506],[-75.50511,5.24506],[-75.50514,5.24506],[-75.50518,5.24506]]],[[[-75.50541,5.24499],[-75.50538,5.24501],[-75.50536,5.24502],[-75.50537,5.24502],[-75.50539,5.24501],[-75.50545,5.24499],[-75.50546,5.24498],[-75.50548,5.24497],[-75.50548,5.24497],[-75.50549,5.24496],[-75.5055,5.24495],[-75.5055,5.24494],[-75.50554,5.2448],[-75.50555,5.24478],[-75.50555,5.24477],[-75.50555,5.24476],[-75.50554,5.24475],[-75.50554,5.24475],[-75.50554,5.24474],[-75.50554,5.24474],[-75.50553,5.24474],[-75.50553,5.24474],[-75.50553,5.24475],[-75.50552,5.24476],[-75.50551,5.24478],[-75.50551,5.24479],[-75.5055,5.2448],[-75.5055,5.24482],[-75.50549,5.24483],[-75.50548,5.24485],[-75.50546,5.24488],[-75.50545,5.2449],[-75.50544,5.24491],[-75.50543,5.24491],[-75.50543,5.24492],[-75.50542,5.24492],[-75.50541,5.24492],[-75.50541,5.24492],[-75.50543,5.24494],[-75.50544,5.24494],[-75.50546,5.24497],[-75.50545,5.24498],[-75.50544,5.24497],[-75.50541,5.24499]]],[[[-75.50583,5.24466],[-75.50583,5.24466],[-75.50583,5.24466],[-75.50582,5.24466],[-75.50581,5.24466],[-75.5058,5.24466],[-75.50579,5.24466],[-75.50578,5.24467],[-75.50577,5.24467],[-75.50576,5.24467],[-75.50576,5.24467],[-75.50575,5.24468],[-75.50574,5.24469],[-75.50572,5.24472],[-75.50572,5.24472],[-75.50572,5.24472],[-75.50572,5.24472],[-75.50572,5.24471],[-75.50572,5.2447],[-75.50572,5.24468],[-75.50572,5.24467],[-75.50572,5.24467],[-75.50572,5.24467],[-75.50571,5.24469],[-75.50567,5.24475],[-75.50561,5.24479],[-75.5056,5.24482],[-75.5056,5.24483],[-75.5056,5.24483],[-75.5056,5.24484],[-75.5056,5.24484],[-75.50561,5.24485],[-75.50561,5.24485],[-75.50562,5.24486],[-75.50563,5.24486],[-75.50564,5.24486],[-75.50565,5.24486],[-75.5057,5.24486],[-75.50576,5.24486],[-75.50579,5.24488],[-75.5059,5.24495],[-75.5059,5.24495],[-75.5059,5.24495],[-75.50591,5.24495],[-75.50591,5.24495],[-75.50591,5.24494],[-75.50591,5.24494],[-75.50591,5.24494],[-75.50589,5.24492],[-75.50589,5.24491],[-75.50589,5.24491],[-75.50589,5.24491],[-75.50589,5.2449],[-75.50589,5.2449],[-75.5059,5.2449],[-75.5059,5.24489],[-75.50591,5.24489],[-75.50592,5.24489],[-75.50594,5.24489],[-75.50596,5.24489],[-75.50596,5.24489],[-75.50598,5.24489],[-75.50599,5.24489],[-75.50599,5.24489],[-75.506,5.24489],[-75.506,5.24489],[-75.50601,5.24488],[-75.50602,5.24488],[-75.50591,5.2448],[-75.5059,5.2448],[-75.50589,5.24479],[-75.50587,5.24478],[-75.50587,5.24479],[-75.50587,5.24479],[-75.50586,5.24481],[-75.50585,5.24481],[-75.50585,5.24482],[-75.50585,5.24482],[-75.50584,5.24482],[-75.50584,5.24483],[-75.50583,5.24483],[-75.5058,5.24484],[-75.50578,5.24484],[-75.50578,5.24484],[-75.50577,5.24484],[-75.50576,5.24484],[-75.50576,5.24484],[-75.50576,5.24483],[-75.50576,5.24483],[-75.50576,5.24483],[-75.50576,5.24481],[-75.50576,5.2448],[-75.50577,5.24477],[-75.50578,5.24476],[-75.50578,5.24475],[-75.50578,5.24475],[-75.50579,5.24474],[-75.5058,5.24474],[-75.50581,5.24474],[-75.50581,5.24473],[-75.50582,5.24473],[-75.50582,5.24472],[-75.50582,5.24472],[-75.50581,5.24472],[-75.50581,5.24472],[-75.5058,5.24471],[-75.5058,5.24471],[-75.5058,5.24471],[-75.5058,5.2447],[-75.5058,5.2447],[-75.5058,5.24469],[-75.50582,5.24467],[-75.50583,5.24466]]],[[[-75.50522,5.24492],[-75.50522,5.24493],[-75.50523,5.24492],[-75.50522,5.24492]]],[[[-75.50311,5.24486],[-75.50314,5.24487],[-75.50318,5.24488],[-75.50321,5.24489],[-75.50322,5.24489],[-75.50323,5.24489],[-75.50332,5.24489],[-75.50333,5.24489],[-75.50335,5.24489],[-75.50341,5.24488],[-75.50343,5.24488],[-75.50345,5.24487],[-75.50347,5.24486],[-75.50347,5.24486],[-75.50351,5.24484],[-75.50352,5.24483],[-75.50353,5.24482],[-75.50351,5.24482],[-75.50347,5.24482],[-75.50343,5.24482],[-75.50341,5.24482],[-75.50334,5.24482],[-75.50332,5.24482],[-75.50331,5.24482],[-75.50329,5.24482],[-75.50328,5.24482],[-75.50327,5.24482],[-75.50325,5.24481],[-75.50325,5.24481],[-75.50324,5.2448],[-75.50324,5.2448],[-75.50323,5.2448],[-75.50324,5.2448],[-75.50324,5.2448],[-75.50327,5.2448],[-75.50329,5.2448],[-75.50334,5.24479],[-75.50339,5.24479],[-75.5034,5.24479],[-75.50342,5.24478],[-75.50347,5.24476],[-75.50348,5.24476],[-75.50349,5.24475],[-75.50353,5.24473],[-75.50355,5.24472],[-75.50357,5.24471],[-75.50359,5.24471],[-75.50366,5.24468],[-75.50368,5.24468],[-75.50369,5.24468],[-75.5037,5.24468],[-75.50371,5.24468],[-75.50372,5.24468],[-75.50372,5.24469],[-75.50372,5.24469],[-75.50372,5.24469],[-75.50372,5.24469],[-75.50372,5.2447],[-75.50372,5.2447],[-75.5037,5.24471],[-75.5037,5.24471],[-75.5037,5.24471],[-75.5037,5.24471],[-75.5037,5.24471],[-75.5037,5.24472],[-75.50372,5.24472],[-75.50374,5.24473],[-75.50375,5.24474],[-75.50376,5.24474],[-75.50376,5.24474],[-75.50376,5.24475],[-75.50377,5.24475],[-75.50377,5.24475],[-75.50377,5.24476],[-75.50376,5.24476],[-75.50376,5.24476],[-75.50376,5.24477],[-75.50375,5.24477],[-75.50374,5.24477],[-75.50381,5.24478],[-75.50394,5.24468],[-75.50407,5.24456],[-75.50414,5.2445],[-75.50417,5.24442],[-75.50419,5.24436],[-75.50418,5.24435],[-75.50415,5.24433],[-75.5041,5.2443],[-75.50408,5.24428],[-75.50405,5.24427],[-75.50404,5.24426],[-75.50403,5.24426],[-75.50401,5.24425],[-75.504,5.24425],[-75.50398,5.24425],[-75.50396,5.24425],[-75.5039,5.24427],[-75.50388,5.24427],[-75.50387,5.24428],[-75.50386,5.24429],[-75.50384,5.2443],[-75.50384,5.2443],[-75.50384,5.24431],[-75.50386,5.24429],[-75.50389,5.24433],[-75.50388,5.24433],[-75.50383,5.24439],[-75.5038,5.24437],[-75.5038,5.24437],[-75.5038,5.24437],[-75.5038,5.24438],[-75.50381,5.24439],[-75.50381,5.24439],[-75.50381,5.2444],[-75.50382,5.2444],[-75.50382,5.2444],[-75.50381,5.24441],[-75.50381,5.24441],[-75.50381,5.24441],[-75.50378,5.24441],[-75.50377,5.24441],[-75.50377,5.24442],[-75.50376,5.24442],[-75.50375,5.24444],[-75.50374,5.24445],[-75.50373,5.24446],[-75.50373,5.24447],[-75.50372,5.24447],[-75.50371,5.24448],[-75.5037,5.24448],[-75.5037,5.24449],[-75.50369,5.24449],[-75.50368,5.24449],[-75.50368,5.24449],[-75.50368,5.24449],[-75.50367,5.24449],[-75.50367,5.24449],[-75.50368,5.24448],[-75.50369,5.24446],[-75.5037,5.24445],[-75.50371,5.24443],[-75.50371,5.24443],[-75.50371,5.24442],[-75.50371,5.24442],[-75.50371,5.24442],[-75.50371,5.24442],[-75.5037,5.24442],[-75.50369,5.24443],[-75.50367,5.24445],[-75.50361,5.24454],[-75.5035,5.24468],[-75.50344,5.24474],[-75.50339,5.24478],[-75.50331,5.24478],[-75.50322,5.24477],[-75.50322,5.24477],[-75.5032,5.24478],[-75.50319,5.24479],[-75.50319,5.24479],[-75.50318,5.24479],[-75.50318,5.24479],[-75.50314,5.24479],[-75.50312,5.24479],[-75.5031,5.24479],[-75.50308,5.24479],[-75.50306,5.24479],[-75.50303,5.2448],[-75.50303,5.24483],[-75.50294,5.24482],[-75.50294,5.24479],[-75.50292,5.24479],[-75.50293,5.24477],[-75.50295,5.24477],[-75.50295,5.24476],[-75.50295,5.24476],[-75.50294,5.24475],[-75.50294,5.24475],[-75.50293,5.24475],[-75.50293,5.24475],[-75.50292,5.24475],[-75.50288,5.24475],[-75.50286,5.24475],[-75.50283,5.24474],[-75.5028,5.24474],[-75.50276,5.24472],[-75.50266,5.24469],[-75.50262,5.24467],[-75.50262,5.24467],[-75.5026,5.24466],[-75.50258,5.24465],[-75.50257,5.24464],[-75.50256,5.24464],[-75.5025,5.24463],[-75.50245,5.24462],[-75.50243,5.24462],[-75.50236,5.24463],[-75.50228,5.24462],[-75.50226,5.24462],[-75.5022,5.24462],[-75.50219,5.24461],[-75.50216,5.24461],[-75.50209,5.24461],[-75.50204,5.24462],[-75.50201,5.24462],[-75.502,5.24462],[-75.50199,5.24462],[-75.50198,5.24462],[-75.50195,5.24461],[-75.50194,5.24461],[-75.50194,5.24461],[-75.50193,5.24462],[-75.50192,5.24462],[-75.50191,5.24462],[-75.5019,5.24463],[-75.5019,5.24463],[-75.50189,5.24464],[-75.50189,5.24464],[-75.50189,5.24465],[-75.50189,5.24465],[-75.50189,5.24466],[-75.50189,5.24466],[-75.50203,5.2447],[-75.50205,5.2447],[-75.50211,5.24471],[-75.50233,5.24475],[-75.50235,5.24475],[-75.50238,5.24475],[-75.50238,5.24474],[-75.50246,5.24473],[-75.50248,5.24472],[-75.50249,5.24473],[-75.50251,5.24473],[-75.50261,5.24478],[-75.50275,5.24484],[-75.50276,5.24484],[-75.50277,5.24485],[-75.50282,5.24486],[-75.50284,5.24486],[-75.50285,5.24486],[-75.50285,5.24487],[-75.50287,5.24487],[-75.50293,5.24487],[-75.50293,5.24487],[-75.50295,5.24487],[-75.50303,5.24486],[-75.50304,5.24486],[-75.50307,5.24485],[-75.50311,5.24486]],[[-75.50395,5.24461],[-75.50388,5.24466],[-75.50386,5.24464],[-75.50383,5.24465],[-75.5038,5.24461],[-75.50379,5.24461],[-75.50378,5.24461],[-75.50378,5.24461],[-75.50376,5.2446],[-75.50375,5.2446],[-75.50374,5.24459],[-75.50374,5.24459],[-75.50374,5.24459],[-75.50369,5.24461],[-75.50365,5.24453],[-75.50378,5.24447],[-75.50378,5.24447],[-75.50379,5.24446],[-75.5038,5.24446],[-75.5038,5.24446],[-75.50381,5.24446],[-75.50382,5.24446],[-75.50382,5.24447],[-75.50383,5.24447],[-75.50384,5.24448],[-75.50387,5.2445],[-75.50387,5.2445],[-75.50387,5.2445],[-75.50388,5.2445],[-75.50388,5.24449],[-75.50387,5.24449],[-75.50387,5.24448],[-75.50385,5.24445],[-75.50384,5.24444],[-75.50384,5.24444],[-75.50385,5.24444],[-75.50385,5.24444],[-75.50385,5.24444],[-75.50387,5.24446],[-75.50389,5.24446],[-75.50389,5.24447],[-75.5039,5.24446],[-75.5039,5.24446],[-75.5039,5.24446],[-75.5039,5.24446],[-75.50389,5.24443],[-75.50389,5.24442],[-75.50389,5.24441],[-75.50389,5.24441],[-75.50389,5.2444],[-75.50389,5.2444],[-75.50389,5.24439],[-75.5039,5.24439],[-75.5039,5.24438],[-75.50391,5.24438],[-75.50392,5.24438],[-75.50393,5.24438],[-75.50394,5.24438],[-75.50395,5.24438],[-75.50396,5.24438],[-75.50397,5.24438],[-75.50397,5.24439],[-75.50399,5.2444],[-75.504,5.24442],[-75.50402,5.24443],[-75.50403,5.24445],[-75.50404,5.24446],[-75.50404,5.24447],[-75.50404,5.24448],[-75.50404,5.24448],[-75.50404,5.24449],[-75.50404,5.24449],[-75.50404,5.2445],[-75.50403,5.2445],[-75.50403,5.24451],[-75.50402,5.24451],[-75.50401,5.24452],[-75.50401,5.24452],[-75.50399,5.24452],[-75.50395,5.24453],[-75.50393,5.24454],[-75.50392,5.24454],[-75.50391,5.24455],[-75.5039,5.24456],[-75.50395,5.24461]],[[-75.50406,5.24447],[-75.50411,5.24445],[-75.50412,5.24451],[-75.50406,5.24452],[-75.50406,5.24447]],[[-75.50397,5.24457],[-75.50401,5.24453],[-75.50403,5.24455],[-75.504,5.24459],[-75.50397,5.24457]],[[-75.50401,5.24432],[-75.50398,5.24433],[-75.50397,5.2443],[-75.50399,5.2443],[-75.504,5.24431],[-75.50401,5.2443],[-75.50401,5.24432]]],[[[-75.50106,5.24431],[-75.50105,5.24433],[-75.50105,5.24433],[-75.50102,5.24438],[-75.50102,5.2444],[-75.50101,5.24442],[-75.50101,5.24443],[-75.501,5.24449],[-75.501,5.2445],[-75.501,5.24452],[-75.50101,5.24458],[-75.50101,5.24458],[-75.50102,5.2446],[-75.50103,5.24465],[-75.50103,5.24466],[-75.50104,5.24468],[-75.50106,5.2447],[-75.50107,5.24471],[-75.50108,5.24472],[-75.50112,5.24475],[-75.50113,5.24476],[-75.50115,5.24476],[-75.50116,5.24477],[-75.50121,5.24478],[-75.50122,5.24478],[-75.50123,5.24479],[-75.50125,5.24479],[-75.50126,5.24479],[-75.50127,5.24479],[-75.50127,5.24479],[-75.50127,5.24478],[-75.50127,5.24478],[-75.50126,5.24478],[-75.50125,5.24477],[-75.50125,5.24477],[-75.50125,5.24477],[-75.50124,5.24476],[-75.50123,5.24472],[-75.50122,5.24471],[-75.50122,5.2447],[-75.50121,5.24469],[-75.5012,5.24468],[-75.50118,5.24465],[-75.50115,5.24463],[-75.50111,5.24453],[-75.50111,5.24453],[-75.50111,5.24453],[-75.50111,5.24453],[-75.50113,5.24442],[-75.50116,5.24438],[-75.50116,5.24436],[-75.50123,5.24428],[-75.50125,5.24426],[-75.50124,5.24426],[-75.50114,5.24421],[-75.50106,5.24431]]],[[[-75.50312,5.24466],[-75.50313,5.24466],[-75.50318,5.24468],[-75.50319,5.24469],[-75.5032,5.24469],[-75.50323,5.24471],[-75.50323,5.24472],[-75.50325,5.24472],[-75.50326,5.24473],[-75.50327,5.24473],[-75.50328,5.24473],[-75.50331,5.24473],[-75.50333,5.24473],[-75.50334,5.24473],[-75.50336,5.24473],[-75.50338,5.24472],[-75.50339,5.24472],[-75.50341,5.24471],[-75.50343,5.2447],[-75.50344,5.24469],[-75.50345,5.24468],[-75.50346,5.24467],[-75.50347,5.24465],[-75.50349,5.24463],[-75.5035,5.24462],[-75.50351,5.2446],[-75.50352,5.24458],[-75.50352,5.24457],[-75.50353,5.24455],[-75.50354,5.24451],[-75.50354,5.24449],[-75.50355,5.24448],[-75.50355,5.24447],[-75.50356,5.24447],[-75.50356,5.24446],[-75.50356,5.24446],[-75.50357,5.24445],[-75.50361,5.24443],[-75.50362,5.24442],[-75.50364,5.24441],[-75.50365,5.24439],[-75.50371,5.24433],[-75.50373,5.2443],[-75.50375,5.24428],[-75.50376,5.24426],[-75.50379,5.24422],[-75.50379,5.24421],[-75.5038,5.2442],[-75.5038,5.24419],[-75.50381,5.24417],[-75.50381,5.24416],[-75.50381,5.24414],[-75.50381,5.24411],[-75.50381,5.2441],[-75.5038,5.24411],[-75.50374,5.24415],[-75.50372,5.24416],[-75.50372,5.24417],[-75.50364,5.24424],[-75.50363,5.24425],[-75.50362,5.24426],[-75.50347,5.24446],[-75.50347,5.24446],[-75.50347,5.24447],[-75.50348,5.24447],[-75.50348,5.24447],[-75.50348,5.24448],[-75.50348,5.24448],[-75.50348,5.24449],[-75.50348,5.24449],[-75.50347,5.2445],[-75.50347,5.2445],[-75.50345,5.24451],[-75.50344,5.24452],[-75.50343,5.24452],[-75.50343,5.24453],[-75.50343,5.24453],[-75.50343,5.24454],[-75.50343,5.24454],[-75.50343,5.24454],[-75.50344,5.24454],[-75.50344,5.24454],[-75.50347,5.24454],[-75.50347,5.24454],[-75.50348,5.24454],[-75.50348,5.24454],[-75.50348,5.24455],[-75.50348,5.24455],[-75.50348,5.24455],[-75.50346,5.24456],[-75.50345,5.24457],[-75.50345,5.24457],[-75.50344,5.24458],[-75.50343,5.24458],[-75.50342,5.24458],[-75.50342,5.24458],[-75.50342,5.24458],[-75.50341,5.24459],[-75.5034,5.2446],[-75.5034,5.2446],[-75.50339,5.24461],[-75.50338,5.24461],[-75.50337,5.24461],[-75.50336,5.24461],[-75.50335,5.24461],[-75.50335,5.24462],[-75.50334,5.24462],[-75.50332,5.24462],[-75.50326,5.24462],[-75.50325,5.24462],[-75.50318,5.2446],[-75.50318,5.2446],[-75.50317,5.24459],[-75.50316,5.24459],[-75.50315,5.24459],[-75.50309,5.24458],[-75.50307,5.24458],[-75.50305,5.24458],[-75.50301,5.24459],[-75.503,5.24459],[-75.503,5.24459],[-75.50293,5.2446],[-75.50289,5.2446],[-75.50285,5.24459],[-75.50275,5.24454],[-75.50266,5.2445],[-75.50258,5.24447],[-75.50258,5.24447],[-75.50256,5.24446],[-75.50251,5.24445],[-75.5025,5.24445],[-75.50248,5.24445],[-75.50246,5.24445],[-75.5024,5.24446],[-75.50237,5.24447],[-75.50235,5.24447],[-75.50223,5.24446],[-75.50226,5.24448],[-75.50225,5.2445],[-75.50229,5.24453],[-75.50229,5.24454],[-75.50226,5.24457],[-75.5022,5.24455],[-75.5022,5.24455],[-75.50217,5.24455],[-75.50216,5.24454],[-75.50216,5.24454],[-75.50215,5.24456],[-75.50215,5.24456],[-75.50215,5.24457],[-75.50215,5.24457],[-75.50216,5.24457],[-75.50217,5.24457],[-75.50217,5.24456],[-75.50218,5.24456],[-75.50218,5.24456],[-75.50218,5.24456],[-75.5022,5.24457],[-75.50222,5.24457],[-75.50225,5.24458],[-75.50227,5.24458],[-75.50228,5.24459],[-75.50233,5.24459],[-75.50237,5.24459],[-75.50246,5.24457],[-75.50249,5.24457],[-75.50258,5.24459],[-75.50259,5.2446],[-75.50275,5.24468],[-75.50279,5.2447],[-75.50282,5.2447],[-75.50282,5.2447],[-75.50282,5.2447],[-75.50291,5.24472],[-75.50291,5.24472],[-75.50295,5.24472],[-75.50298,5.24472],[-75.50299,5.24472],[-75.50302,5.24471],[-75.50306,5.2447],[-75.50308,5.24469],[-75.50309,5.24468],[-75.5031,5.24468],[-75.5031,5.24468],[-75.5031,5.24467],[-75.50311,5.24466],[-75.50311,5.24466],[-75.50311,5.24466],[-75.50312,5.24466],[-75.50312,5.24466]]],[[[-75.50409,5.24468],[-75.50412,5.24472],[-75.50412,5.24472],[-75.50413,5.24473],[-75.50414,5.24473],[-75.50413,5.24465],[-75.50409,5.24468]]],[[[-75.50583,5.24466],[-75.50585,5.24467],[-75.50585,5.24467],[-75.50588,5.24457],[-75.50591,5.24451],[-75.50592,5.2445],[-75.50592,5.2445],[-75.50591,5.24449],[-75.50591,5.24449],[-75.5059,5.24448],[-75.5059,5.24448],[-75.5059,5.24447],[-75.50589,5.24446],[-75.50589,5.24445],[-75.50589,5.24444],[-75.50588,5.24444],[-75.50588,5.24444],[-75.50586,5.24445],[-75.50587,5.24448],[-75.50587,5.24452],[-75.50587,5.24455],[-75.50586,5.24457],[-75.50586,5.24459],[-75.50586,5.24461],[-75.50585,5.24463],[-75.50584,5.24464],[-75.50583,5.24466]]],[[[-75.50555,5.24452],[-75.50556,5.24452],[-75.50556,5.24453],[-75.50557,5.24453],[-75.50557,5.24454],[-75.50557,5.24455],[-75.50557,5.24455],[-75.50557,5.24456],[-75.50557,5.24457],[-75.50556,5.24459],[-75.50555,5.2446],[-75.50554,5.24462],[-75.50553,5.24463],[-75.50553,5.24463],[-75.50553,5.24463],[-75.50555,5.24464],[-75.50555,5.24465],[-75.50555,5.24465],[-75.50556,5.24465],[-75.50557,5.24465],[-75.50557,5.24465],[-75.50558,5.24464],[-75.50559,5.24464],[-75.50559,5.24464],[-75.5056,5.24463],[-75.5056,5.24462],[-75.50561,5.24461],[-75.50562,5.2446],[-75.50562,5.24459],[-75.50562,5.24458],[-75.50562,5.24456],[-75.50562,5.24455],[-75.50562,5.24454],[-75.50562,5.24452],[-75.50562,5.24449],[-75.50561,5.24448],[-75.50561,5.24446],[-75.50561,5.24445],[-75.5056,5.24443],[-75.5056,5.24443],[-75.50559,5.24441],[-75.50557,5.2444],[-75.50557,5.24439],[-75.50556,5.24438],[-75.50553,5.24436],[-75.50551,5.24434],[-75.50549,5.24433],[-75.50547,5.24436],[-75.50542,5.24434],[-75.50543,5.24431],[-75.50542,5.24431],[-75.50538,5.24429],[-75.5053,5.24427],[-75.50524,5.24425],[-75.50523,5.24425],[-75.50521,5.24425],[-75.50521,5.24425],[-75.5052,5.24425],[-75.50519,5.24425],[-75.50519,5.24426],[-75.50518,5.24426],[-75.50518,5.24426],[-75.50516,5.24428],[-75.50516,5.24429],[-75.50515,5.24429],[-75.50515,5.2443],[-75.50515,5.24431],[-75.50515,5.24431],[-75.50515,5.24432],[-75.50515,5.24432],[-75.50515,5.24433],[-75.50516,5.24433],[-75.50516,5.24434],[-75.50517,5.24435],[-75.50522,5.24438],[-75.50524,5.24439],[-75.50525,5.24439],[-75.50526,5.2444],[-75.50527,5.2444],[-75.50529,5.2444],[-75.5053,5.2444],[-75.50531,5.2444],[-75.5053,5.24432],[-75.50535,5.24431],[-75.50535,5.24432],[-75.50537,5.24433],[-75.5054,5.24432],[-75.50541,5.24436],[-75.50542,5.24436],[-75.50543,5.24439],[-75.50538,5.24441],[-75.50539,5.24441],[-75.5054,5.24441],[-75.50542,5.24441],[-75.50543,5.24441],[-75.50544,5.24441],[-75.50549,5.24443],[-75.50552,5.24445],[-75.50554,5.24449],[-75.50554,5.24452],[-75.50554,5.24452],[-75.50555,5.24452],[-75.50555,5.24452]]],[[[-75.50563,5.24438],[-75.50565,5.24441],[-75.50563,5.24441],[-75.50563,5.24442],[-75.50563,5.24444],[-75.50564,5.24447],[-75.50566,5.24448],[-75.50567,5.24448],[-75.50567,5.24454],[-75.50568,5.24454],[-75.50568,5.24454],[-75.50569,5.24454],[-75.50569,5.24455],[-75.5057,5.24455],[-75.5057,5.24454],[-75.50571,5.24454],[-75.50572,5.24451],[-75.50575,5.24448],[-75.50575,5.24448],[-75.50575,5.24447],[-75.50576,5.24446],[-75.50576,5.24446],[-75.50576,5.24445],[-75.50576,5.24445],[-75.50575,5.24443],[-75.50575,5.24442],[-75.50574,5.24441],[-75.50573,5.24438],[-75.50572,5.24437],[-75.50572,5.24437],[-75.50572,5.24437],[-75.50571,5.24436],[-75.5057,5.24436],[-75.5057,5.24436],[-75.50568,5.24436],[-75.50565,5.24436],[-75.50565,5.24436],[-75.50565,5.24436],[-75.50565,5.24436],[-75.50567,5.24435],[-75.50568,5.24434],[-75.50569,5.24433],[-75.50569,5.24433],[-75.50572,5.24431],[-75.50574,5.2443],[-75.50575,5.24429],[-75.50575,5.24429],[-75.50576,5.24428],[-75.50576,5.24427],[-75.50576,5.24427],[-75.50576,5.24427],[-75.50575,5.24426],[-75.50575,5.24426],[-75.50575,5.24426],[-75.50574,5.24426],[-75.50574,5.24426],[-75.50574,5.24425],[-75.50574,5.24425],[-75.50574,5.24425],[-75.50574,5.24424],[-75.50574,5.24424],[-75.50575,5.24423],[-75.50576,5.24422],[-75.50569,5.24424],[-75.50565,5.24425],[-75.50562,5.24423],[-75.50561,5.24422],[-75.50561,5.24422],[-75.50553,5.24418],[-75.50551,5.24417],[-75.5055,5.24417],[-75.5054,5.24413],[-75.50539,5.24412],[-75.50538,5.24412],[-75.50535,5.24411],[-75.50535,5.24411],[-75.50528,5.24409],[-75.50526,5.24409],[-75.50526,5.24409],[-75.50525,5.24409],[-75.50519,5.24408],[-75.50511,5.24407],[-75.5051,5.24407],[-75.50508,5.24407],[-75.50506,5.24407],[-75.505,5.24409],[-75.50498,5.2441],[-75.50498,5.2441],[-75.50492,5.24412],[-75.50489,5.24414],[-75.50484,5.24415],[-75.50484,5.24416],[-75.5048,5.24418],[-75.5048,5.24418],[-75.50482,5.24418],[-75.50485,5.2442],[-75.50486,5.2442],[-75.50487,5.2442],[-75.50487,5.2442],[-75.50488,5.2442],[-75.50488,5.2442],[-75.50489,5.2442],[-75.50489,5.2442],[-75.50493,5.24418],[-75.50495,5.24417],[-75.50496,5.24416],[-75.50497,5.24415],[-75.50498,5.24415],[-75.50499,5.24415],[-75.505,5.24415],[-75.505,5.24415],[-75.505,5.24415],[-75.50501,5.24416],[-75.50501,5.24416],[-75.50501,5.24417],[-75.505,5.24417],[-75.505,5.24418],[-75.50499,5.24419],[-75.50498,5.2442],[-75.50498,5.24421],[-75.50498,5.24421],[-75.50498,5.24421],[-75.50498,5.24421],[-75.505,5.24421],[-75.505,5.24421],[-75.50505,5.2442],[-75.50505,5.2442],[-75.50514,5.24419],[-75.50514,5.24419],[-75.5052,5.2442],[-75.5052,5.2442],[-75.50521,5.24418],[-75.50523,5.24416],[-75.50523,5.24416],[-75.50524,5.24415],[-75.50524,5.24415],[-75.50524,5.24416],[-75.50525,5.24416],[-75.50525,5.24416],[-75.50525,5.24418],[-75.50525,5.24419],[-75.50526,5.24419],[-75.50526,5.24419],[-75.50527,5.2442],[-75.50527,5.24421],[-75.50528,5.24421],[-75.50528,5.24421],[-75.50529,5.24421],[-75.50531,5.24421],[-75.50535,5.24421],[-75.50537,5.24421],[-75.50539,5.24421],[-75.5054,5.24422],[-75.50542,5.24422],[-75.50543,5.24423],[-75.50543,5.24423],[-75.50543,5.24423],[-75.50543,5.24423],[-75.50543,5.24423],[-75.50543,5.24423],[-75.50542,5.24423],[-75.5054,5.24423],[-75.5054,5.24423],[-75.50539,5.24423],[-75.50539,5.24423],[-75.50539,5.24424],[-75.50539,5.24424],[-75.5054,5.24424],[-75.5054,5.24424],[-75.50541,5.24425],[-75.50542,5.24425],[-75.50543,5.24426],[-75.50545,5.24426],[-75.50546,5.24427],[-75.50548,5.24427],[-75.50549,5.24427],[-75.50549,5.24427],[-75.5055,5.24427],[-75.50551,5.24426],[-75.50552,5.24426],[-75.50552,5.24426],[-75.50553,5.24425],[-75.50554,5.24424],[-75.50554,5.24423],[-75.50555,5.24422],[-75.50555,5.24421],[-75.50556,5.24421],[-75.50556,5.24421],[-75.50556,5.24421],[-75.50556,5.24422],[-75.50556,5.24423],[-75.50555,5.24426],[-75.50555,5.24426],[-75.50556,5.24428],[-75.50556,5.24429],[-75.50556,5.24431],[-75.50557,5.24432],[-75.50557,5.24432],[-75.50563,5.24438]]],[[[-75.5014,5.24449],[-75.50141,5.24449],[-75.50141,5.24449],[-75.50141,5.2445],[-75.50141,5.2445],[-75.50141,5.24451],[-75.50141,5.24451],[-75.50141,5.24453],[-75.5014,5.24453],[-75.50141,5.24454],[-75.50141,5.24454],[-75.50141,5.24454],[-75.50142,5.24454],[-75.50142,5.24454],[-75.50143,5.24453],[-75.50143,5.24453],[-75.50144,5.24452],[-75.50144,5.24452],[-75.50145,5.2445],[-75.50145,5.24449],[-75.50145,5.24448],[-75.50146,5.24448],[-75.50146,5.24447],[-75.50147,5.24447],[-75.50147,5.24447],[-75.50148,5.24447],[-75.50149,5.24447],[-75.50152,5.24447],[-75.50153,5.24447],[-75.50153,5.24447],[-75.50154,5.24447],[-75.50154,5.24446],[-75.50154,5.24446],[-75.50155,5.24443],[-75.50155,5.24441],[-75.50155,5.2444],[-75.50154,5.2444],[-75.50154,5.24439],[-75.50154,5.24437],[-75.50153,5.24436],[-75.50152,5.24435],[-75.50152,5.24435],[-75.50151,5.24434],[-75.50151,5.24434],[-75.5015,5.24434],[-75.5015,5.24433],[-75.50149,5.24433],[-75.50148,5.24433],[-75.50148,5.24434],[-75.50147,5.24434],[-75.50144,5.24436],[-75.50143,5.24436],[-75.50142,5.24436],[-75.50142,5.24436],[-75.50141,5.24436],[-75.50141,5.24436],[-75.50138,5.24435],[-75.50137,5.24434],[-75.50136,5.24434],[-75.50136,5.24434],[-75.50135,5.24434],[-75.50134,5.24434],[-75.50132,5.24434],[-75.50132,5.24435],[-75.50131,5.24435],[-75.50131,5.24435],[-75.5013,5.24436],[-75.5013,5.24436],[-75.5013,5.24437],[-75.5013,5.24439],[-75.5013,5.2444],[-75.5013,5.2444],[-75.5013,5.2444],[-75.50129,5.24441],[-75.50129,5.24441],[-75.50129,5.24442],[-75.50129,5.24442],[-75.5013,5.24442],[-75.5013,5.24442],[-75.50132,5.24441],[-75.50135,5.2444],[-75.50137,5.2444],[-75.50137,5.2444],[-75.50138,5.2444],[-75.50139,5.2444],[-75.50139,5.2444],[-75.5014,5.2444],[-75.5014,5.24441],[-75.5014,5.24441],[-75.5014,5.24441],[-75.5014,5.24442],[-75.5014,5.24442],[-75.5014,5.24443],[-75.50139,5.24443],[-75.50139,5.24444],[-75.50138,5.24445],[-75.50137,5.24445],[-75.50136,5.24446],[-75.50134,5.24446],[-75.50135,5.24448],[-75.50137,5.24448],[-75.50137,5.24449],[-75.50139,5.24449],[-75.5014,5.24448],[-75.5014,5.24449]]],[[[-75.50217,5.24444],[-75.50216,5.24447],[-75.50218,5.24445],[-75.50219,5.24443],[-75.50222,5.24445],[-75.50219,5.24442],[-75.50218,5.24441],[-75.50217,5.24444]]],[[[-75.50608,5.24442],[-75.50608,5.24443],[-75.50608,5.24444],[-75.50608,5.24445],[-75.50619,5.24442],[-75.5062,5.24442],[-75.50627,5.2444],[-75.50626,5.24439],[-75.50622,5.24439],[-75.50621,5.24439],[-75.5062,5.24439],[-75.50617,5.24439],[-75.50616,5.24439],[-75.50616,5.24439],[-75.50616,5.2444],[-75.50616,5.2444],[-75.50616,5.2444],[-75.50615,5.2444],[-75.50615,5.2444],[-75.50614,5.2444],[-75.50614,5.2444],[-75.50613,5.2444],[-75.50612,5.24439],[-75.50612,5.24438],[-75.50612,5.24438],[-75.50612,5.24437],[-75.50612,5.24437],[-75.50612,5.24436],[-75.50612,5.24435],[-75.50612,5.24435],[-75.50613,5.24434],[-75.50614,5.24433],[-75.50616,5.24433],[-75.50619,5.24431],[-75.50623,5.24431],[-75.50626,5.2443],[-75.50628,5.2443],[-75.50629,5.2443],[-75.50629,5.2443],[-75.50631,5.24429],[-75.50637,5.24428],[-75.5064,5.24427],[-75.50641,5.24427],[-75.50642,5.24427],[-75.50643,5.24427],[-75.50643,5.24427],[-75.50643,5.24427],[-75.50644,5.24428],[-75.50644,5.24428],[-75.50644,5.24429],[-75.50644,5.2443],[-75.50644,5.24433],[-75.50644,5.24433],[-75.50644,5.24434],[-75.50648,5.24432],[-75.50655,5.2443],[-75.50657,5.24429],[-75.50658,5.24429],[-75.50666,5.24427],[-75.50666,5.24426],[-75.50667,5.24426],[-75.50673,5.24424],[-75.50676,5.24423],[-75.50677,5.24423],[-75.50679,5.2442],[-75.5068,5.24419],[-75.50681,5.24418],[-75.50682,5.24418],[-75.50682,5.24418],[-75.50683,5.24418],[-75.50683,5.24418],[-75.50684,5.24418],[-75.50685,5.24418],[-75.50685,5.24418],[-75.50685,5.24418],[-75.50686,5.24419],[-75.50686,5.24419],[-75.50686,5.24419],[-75.50685,5.2442],[-75.50694,5.24416],[-75.50697,5.24415],[-75.50697,5.24415],[-75.50708,5.2441],[-75.50709,5.2441],[-75.50714,5.24407],[-75.50715,5.24406],[-75.50719,5.24403],[-75.50726,5.24398],[-75.50728,5.24396],[-75.50734,5.24393],[-75.50745,5.2439],[-75.50746,5.2439],[-75.50747,5.2439],[-75.50745,5.24389],[-75.50743,5.24388],[-75.50741,5.24387],[-75.50738,5.24386],[-75.50736,5.24385],[-75.50734,5.24385],[-75.50732,5.24385],[-75.50729,5.24384],[-75.50727,5.24385],[-75.50726,5.24385],[-75.50725,5.24385],[-75.50724,5.24385],[-75.50723,5.24386],[-75.50722,5.24386],[-75.50721,5.24387],[-75.50721,5.24387],[-75.50719,5.24388],[-75.50718,5.24389],[-75.50716,5.2439],[-75.50714,5.24392],[-75.50708,5.24397],[-75.50707,5.24398],[-75.50705,5.24399],[-75.50704,5.244],[-75.507,5.24402],[-75.50699,5.24402],[-75.50697,5.24404],[-75.50694,5.24405],[-75.50693,5.24405],[-75.5069,5.24406],[-75.50687,5.24407],[-75.50685,5.24408],[-75.5068,5.24409],[-75.50679,5.2441],[-75.50673,5.24413],[-75.50671,5.24413],[-75.50661,5.24416],[-75.50652,5.24419],[-75.50643,5.24422],[-75.50623,5.24428],[-75.50609,5.24432],[-75.50607,5.24432],[-75.50607,5.24432],[-75.50607,5.24432],[-75.50608,5.24433],[-75.50608,5.24434],[-75.50608,5.24434],[-75.50608,5.24437],[-75.50608,5.24439],[-75.50608,5.2444],[-75.50608,5.24442]]],[[[-75.50434,5.24431],[-75.50434,5.24434],[-75.50434,5.24436],[-75.50435,5.24437],[-75.50435,5.24437],[-75.50435,5.24437],[-75.50436,5.24438],[-75.50436,5.24438],[-75.50442,5.24441],[-75.5045,5.24441],[-75.50457,5.2444],[-75.50477,5.24432],[-75.50477,5.24431],[-75.50478,5.24431],[-75.50478,5.24431],[-75.50478,5.24431],[-75.50478,5.2443],[-75.50479,5.24428],[-75.5048,5.24426],[-75.5048,5.24424],[-75.5048,5.24424],[-75.5048,5.24423],[-75.5048,5.24422],[-75.50479,5.24421],[-75.50478,5.24418],[-75.50478,5.24418],[-75.50465,5.24424],[-75.50465,5.24424],[-75.50449,5.2443],[-75.50448,5.2443],[-75.50444,5.24429],[-75.50443,5.24428],[-75.50441,5.24427],[-75.50434,5.24424],[-75.50434,5.24424],[-75.50434,5.24425],[-75.50434,5.24427],[-75.50434,5.24428],[-75.50434,5.24431]]],[[[-75.5022,5.24405],[-75.5022,5.24406],[-75.50219,5.24409],[-75.50216,5.24418],[-75.50214,5.24422],[-75.50213,5.24424],[-75.50213,5.24426],[-75.50213,5.2443],[-75.50213,5.24431],[-75.50212,5.24432],[-75.50211,5.24433],[-75.50212,5.24433],[-75.50211,5.24435],[-75.50213,5.24436],[-75.50212,5.24438],[-75.50214,5.24439],[-75.50216,5.24439],[-75.50217,5.2444],[-75.50215,5.24436],[-75.50214,5.24432],[-75.50216,5.24422],[-75.50219,5.24413],[-75.5022,5.2441],[-75.50221,5.24406],[-75.50221,5.24405],[-75.5022,5.24405],[-75.5022,5.24405]]],[[[-75.50381,5.24432],[-75.50381,5.24433],[-75.5038,5.24434],[-75.5038,5.24434],[-75.50382,5.24432],[-75.50381,5.24432]]],[[[-75.5039,5.24408],[-75.5039,5.24408],[-75.50388,5.24408],[-75.50385,5.24409],[-75.50385,5.24409],[-75.50387,5.24411],[-75.50388,5.24412],[-75.50388,5.24413],[-75.5039,5.24414],[-75.50391,5.24415],[-75.50393,5.24416],[-75.50394,5.24417],[-75.50396,5.24417],[-75.50397,5.24418],[-75.50399,5.24419],[-75.50402,5.24419],[-75.50405,5.2442],[-75.50406,5.2442],[-75.50407,5.24421],[-75.50409,5.24422],[-75.5041,5.24423],[-75.50416,5.24427],[-75.50418,5.24428],[-75.5042,5.24429],[-75.50423,5.24431],[-75.50425,5.24432],[-75.50426,5.24432],[-75.50427,5.24432],[-75.50428,5.24432],[-75.50428,5.24432],[-75.50428,5.24432],[-75.50428,5.24431],[-75.50428,5.24431],[-75.50428,5.2443],[-75.50428,5.24429],[-75.50428,5.24429],[-75.50427,5.24428],[-75.50426,5.24426],[-75.50422,5.24422],[-75.50421,5.24421],[-75.5042,5.2442],[-75.5042,5.24419],[-75.50419,5.24419],[-75.50418,5.24419],[-75.50417,5.24417],[-75.50415,5.24415],[-75.50413,5.24413],[-75.50412,5.24412],[-75.50411,5.24411],[-75.50408,5.2441],[-75.50406,5.24409],[-75.50406,5.24409],[-75.50404,5.24408],[-75.50403,5.24408],[-75.50403,5.24408],[-75.50393,5.24408],[-75.50391,5.24407],[-75.5039,5.24408]]],[[[-75.50419,5.24416],[-75.50419,5.24416],[-75.5042,5.24417],[-75.50421,5.24418],[-75.50425,5.24421],[-75.50425,5.24422],[-75.50427,5.24422],[-75.50428,5.24423],[-75.5043,5.24423],[-75.50431,5.24423],[-75.50431,5.24423],[-75.50432,5.24423],[-75.5043,5.24423],[-75.5043,5.24422],[-75.50428,5.24421],[-75.50421,5.24417],[-75.50418,5.24415],[-75.50419,5.24416]]],[[[-75.50629,5.24411],[-75.5063,5.24412],[-75.5063,5.24412],[-75.5063,5.24413],[-75.50631,5.24413],[-75.50631,5.24413],[-75.50632,5.24413],[-75.50632,5.24413],[-75.50633,5.24413],[-75.50634,5.24413],[-75.50634,5.24413],[-75.50637,5.24411],[-75.50638,5.2441],[-75.50639,5.2441],[-75.5064,5.2441],[-75.5064,5.24409],[-75.50642,5.24409],[-75.50643,5.24409],[-75.50646,5.24409],[-75.50646,5.24409],[-75.50647,5.24409],[-75.50647,5.24409],[-75.50648,5.24408],[-75.50648,5.24408],[-75.50648,5.24406],[-75.5065,5.24403],[-75.5065,5.24401],[-75.50651,5.244],[-75.50652,5.24399],[-75.50652,5.24398],[-75.50653,5.24397],[-75.50654,5.24396],[-75.50656,5.24395],[-75.50659,5.24393],[-75.5066,5.24392],[-75.50662,5.24391],[-75.50665,5.24388],[-75.50666,5.24387],[-75.50667,5.24387],[-75.50667,5.24387],[-75.50668,5.24386],[-75.5067,5.24387],[-75.5067,5.24387],[-75.5067,5.24387],[-75.50671,5.24386],[-75.50672,5.24386],[-75.50674,5.24387],[-75.50674,5.24388],[-75.50673,5.24389],[-75.50673,5.24389],[-75.50673,5.24389],[-75.50673,5.24389],[-75.50674,5.2439],[-75.50675,5.24391],[-75.50675,5.24392],[-75.50676,5.24392],[-75.50676,5.24393],[-75.50677,5.24393],[-75.50678,5.24393],[-75.50679,5.24393],[-75.50679,5.24394],[-75.50679,5.24394],[-75.5068,5.24396],[-75.50681,5.24397],[-75.50682,5.24398],[-75.50683,5.24399],[-75.50684,5.24399],[-75.50685,5.24399],[-75.50685,5.24399],[-75.50686,5.24399],[-75.50688,5.24399],[-75.5069,5.24399],[-75.50694,5.24398],[-75.50698,5.24397],[-75.50698,5.24397],[-75.507,5.24396],[-75.50701,5.24396],[-75.50703,5.24396],[-75.50704,5.24395],[-75.50705,5.24394],[-75.50706,5.24393],[-75.50707,5.24393],[-75.50708,5.24391],[-75.50708,5.24391],[-75.50709,5.2439],[-75.5071,5.2439],[-75.50712,5.24389],[-75.50713,5.24389],[-75.50713,5.24388],[-75.50714,5.24388],[-75.50721,5.24383],[-75.50727,5.2438],[-75.50727,5.2438],[-75.50727,5.24379],[-75.50728,5.24378],[-75.50728,5.24377],[-75.50728,5.24377],[-75.50729,5.24376],[-75.50729,5.24376],[-75.5073,5.24376],[-75.5073,5.24376],[-75.50729,5.24372],[-75.50733,5.24371],[-75.50741,5.24369],[-75.50742,5.24373],[-75.50744,5.24374],[-75.50744,5.24374],[-75.50745,5.24374],[-75.50746,5.24374],[-75.50747,5.24374],[-75.50748,5.24374],[-75.50749,5.24374],[-75.5075,5.24374],[-75.50752,5.24373],[-75.50752,5.24373],[-75.50752,5.24373],[-75.50752,5.24373],[-75.50752,5.24373],[-75.50752,5.24373],[-75.50748,5.24373],[-75.50747,5.24373],[-75.50747,5.24373],[-75.50747,5.24373],[-75.50747,5.24373],[-75.50747,5.24373],[-75.50747,5.24372],[-75.50748,5.24372],[-75.5075,5.24371],[-75.50751,5.2437],[-75.50754,5.24369],[-75.5076,5.24368],[-75.50763,5.24367],[-75.50768,5.24365],[-75.5077,5.24364],[-75.50771,5.24364],[-75.50772,5.24364],[-75.50775,5.24362],[-75.50778,5.2436],[-75.50781,5.24359],[-75.50783,5.24358],[-75.50786,5.24356],[-75.50788,5.24355],[-75.50789,5.24354],[-75.5079,5.24353],[-75.50791,5.24351],[-75.50793,5.2435],[-75.50794,5.24349],[-75.50795,5.24349],[-75.50798,5.24347],[-75.508,5.24347],[-75.50802,5.24346],[-75.50805,5.24344],[-75.50806,5.24343],[-75.50808,5.24342],[-75.50809,5.24342],[-75.5081,5.24341],[-75.5081,5.24341],[-75.50811,5.2434],[-75.50811,5.24339],[-75.50811,5.24339],[-75.50811,5.24336],[-75.50812,5.24334],[-75.50812,5.24334],[-75.50812,5.24334],[-75.50812,5.24333],[-75.50813,5.24333],[-75.50813,5.24333],[-75.50813,5.24333],[-75.50814,5.24333],[-75.50815,5.24333],[-75.50816,5.24334],[-75.50816,5.24334],[-75.50817,5.24334],[-75.50818,5.24337],[-75.50819,5.24338],[-75.50819,5.24338],[-75.5082,5.24339],[-75.5082,5.24339],[-75.50821,5.2434],[-75.50822,5.2434],[-75.50824,5.2434],[-75.50825,5.2434],[-75.50827,5.2434],[-75.50831,5.2434],[-75.50835,5.2434],[-75.50841,5.24339],[-75.50843,5.24339],[-75.50844,5.24339],[-75.50855,5.24336],[-75.50856,5.24336],[-75.50858,5.24335],[-75.50859,5.24335],[-75.50859,5.24334],[-75.50859,5.24334],[-75.50859,5.24334],[-75.50859,5.24333],[-75.50859,5.24333],[-75.50858,5.24331],[-75.50858,5.2433],[-75.50857,5.2433],[-75.50857,5.2433],[-75.50856,5.2433],[-75.50856,5.2433],[-75.50856,5.2433],[-75.50856,5.2433],[-75.50855,5.24331],[-75.50855,5.24331],[-75.50855,5.24332],[-75.50854,5.24333],[-75.50853,5.24333],[-75.50852,5.24334],[-75.5085,5.24334],[-75.50848,5.24335],[-75.50846,5.24335],[-75.50844,5.24335],[-75.50843,5.24335],[-75.50837,5.24335],[-75.50835,5.24335],[-75.50831,5.24335],[-75.50828,5.24335],[-75.50826,5.24335],[-75.50824,5.24334],[-75.50822,5.24334],[-75.50822,5.24334],[-75.50821,5.24333],[-75.5082,5.24333],[-75.5082,5.24333],[-75.50819,5.24332],[-75.50819,5.24331],[-75.50818,5.2433],[-75.50818,5.2433],[-75.50811,5.24332],[-75.50808,5.24333],[-75.50807,5.24334],[-75.50806,5.24334],[-75.50787,5.24344],[-75.50787,5.24344],[-75.50784,5.24345],[-75.50777,5.2435],[-75.50764,5.24357],[-75.50756,5.2436],[-75.50739,5.24364],[-75.50727,5.24367],[-75.50725,5.24368],[-75.50724,5.24368],[-75.50716,5.24372],[-75.50714,5.24372],[-75.50713,5.24374],[-75.50701,5.24383],[-75.50699,5.24384],[-75.50697,5.24386],[-75.50691,5.24388],[-75.50688,5.24387],[-75.50683,5.24385],[-75.50681,5.24384],[-75.50675,5.24381],[-75.50669,5.24378],[-75.50659,5.24368],[-75.50655,5.24365],[-75.50629,5.24343],[-75.50626,5.24345],[-75.50622,5.24347],[-75.50618,5.2435],[-75.50616,5.24351],[-75.50614,5.24352],[-75.50614,5.24352],[-75.50608,5.24355],[-75.50606,5.24357],[-75.50606,5.24358],[-75.50607,5.24359],[-75.50608,5.24361],[-75.50608,5.24361],[-75.50612,5.24369],[-75.50613,5.2437],[-75.50613,5.2437],[-75.50614,5.24372],[-75.50616,5.24375],[-75.50617,5.24376],[-75.50618,5.24377],[-75.50621,5.2438],[-75.50623,5.24382],[-75.50624,5.24383],[-75.50625,5.24384],[-75.50631,5.24387],[-75.50635,5.2439],[-75.50642,5.24396],[-75.50646,5.24401],[-75.50645,5.24403],[-75.50644,5.24404],[-75.50643,5.24405],[-75.50643,5.24406],[-75.5064,5.24407],[-75.50629,5.24411]],[[-75.50654,5.24386],[-75.50653,5.24387],[-75.50651,5.24388],[-75.50651,5.24388],[-75.5065,5.24388],[-75.50649,5.24388],[-75.50648,5.24388],[-75.50648,5.24389],[-75.50646,5.24388],[-75.50646,5.24388],[-75.50645,5.24388],[-75.50645,5.24388],[-75.50645,5.24387],[-75.50645,5.24387],[-75.50645,5.24387],[-75.50645,5.24386],[-75.50647,5.24385],[-75.50647,5.24385],[-75.50647,5.24384],[-75.50648,5.24384],[-75.50648,5.24383],[-75.50648,5.24382],[-75.50648,5.2438],[-75.50648,5.24379],[-75.50648,5.24379],[-75.50648,5.24378],[-75.50648,5.24378],[-75.50649,5.24378],[-75.50649,5.24377],[-75.5065,5.24377],[-75.50646,5.24375],[-75.50647,5.24374],[-75.50651,5.2437],[-75.50656,5.24374],[-75.50659,5.24377],[-75.50657,5.2438],[-75.50657,5.2438],[-75.50657,5.24381],[-75.50657,5.24382],[-75.50656,5.24382],[-75.50656,5.24383],[-75.50655,5.24385],[-75.50654,5.24386]],[[-75.50644,5.2436],[-75.50639,5.24368],[-75.50634,5.24365],[-75.50638,5.24357],[-75.50644,5.2436]],[[-75.50633,5.24362],[-75.50629,5.24359],[-75.50635,5.24352],[-75.50639,5.24356],[-75.50633,5.24362]]],[[[-75.51013,5.24407],[-75.51032,5.24402],[-75.51032,5.24401],[-75.51032,5.24401],[-75.5103,5.244],[-75.5103,5.244],[-75.51029,5.244],[-75.51029,5.24399],[-75.51029,5.24399],[-75.51029,5.24398],[-75.51029,5.24397],[-75.51029,5.24396],[-75.51029,5.24395],[-75.51029,5.24394],[-75.51029,5.24394],[-75.51029,5.24393],[-75.51029,5.24393],[-75.51028,5.24392],[-75.51028,5.24392],[-75.51027,5.24392],[-75.51027,5.24392],[-75.51026,5.24392],[-75.51026,5.24392],[-75.51025,5.24392],[-75.51024,5.24392],[-75.51023,5.24393],[-75.51022,5.24393],[-75.5102,5.24394],[-75.51019,5.24394],[-75.51019,5.24394],[-75.51019,5.24394],[-75.51018,5.24394],[-75.51017,5.24393],[-75.51017,5.24393],[-75.51017,5.24393],[-75.51015,5.24395],[-75.51014,5.24394],[-75.51013,5.24394],[-75.51013,5.24395],[-75.5101,5.24398],[-75.51007,5.24397],[-75.51013,5.24407]]],[[[-75.51002,5.24387],[-75.51006,5.24395],[-75.51008,5.24393],[-75.51008,5.24393],[-75.51008,5.24391],[-75.51008,5.24391],[-75.51009,5.2439],[-75.51009,5.2439],[-75.5101,5.24389],[-75.51011,5.24388],[-75.51012,5.24387],[-75.51013,5.24387],[-75.51019,5.24379],[-75.5102,5.2438],[-75.5102,5.24379],[-75.51021,5.24377],[-75.51022,5.24376],[-75.51023,5.24373],[-75.51023,5.24373],[-75.51021,5.24376],[-75.51019,5.24375],[-75.51017,5.24373],[-75.51019,5.24372],[-75.51026,5.24363],[-75.51026,5.24362],[-75.51026,5.24361],[-75.51026,5.24359],[-75.51027,5.24358],[-75.51027,5.24357],[-75.51027,5.24356],[-75.51028,5.24355],[-75.51032,5.24351],[-75.51033,5.24349],[-75.51034,5.24348],[-75.51035,5.24346],[-75.51036,5.24342],[-75.51037,5.24341],[-75.51039,5.24338],[-75.51041,5.24335],[-75.51041,5.24335],[-75.51041,5.24334],[-75.51047,5.24316],[-75.51048,5.24313],[-75.5105,5.2431],[-75.51058,5.24302],[-75.51062,5.24294],[-75.51065,5.24291],[-75.51066,5.24288],[-75.51073,5.24267],[-75.51081,5.24247],[-75.51081,5.24247],[-75.51081,5.24247],[-75.51066,5.24256],[-75.5106,5.24262],[-75.5106,5.24262],[-75.5106,5.24262],[-75.5106,5.24262],[-75.5106,5.24262],[-75.5106,5.24262],[-75.51059,5.24263],[-75.51057,5.24265],[-75.51056,5.24266],[-75.51054,5.24267],[-75.51054,5.24267],[-75.51051,5.24271],[-75.51048,5.24274],[-75.51047,5.24275],[-75.51047,5.24276],[-75.51045,5.24277],[-75.51041,5.24279],[-75.5104,5.2428],[-75.51037,5.24282],[-75.51033,5.24285],[-75.51028,5.24288],[-75.51026,5.2429],[-75.51023,5.24292],[-75.5102,5.24295],[-75.51013,5.24301],[-75.51009,5.24304],[-75.51003,5.24311],[-75.51001,5.24312],[-75.51,5.24314],[-75.50999,5.24314],[-75.5099,5.24323],[-75.50985,5.24326],[-75.50984,5.24327],[-75.50983,5.24328],[-75.50979,5.24335],[-75.50978,5.24336],[-75.50978,5.24337],[-75.50977,5.24337],[-75.50975,5.24338],[-75.50973,5.24339],[-75.50973,5.24339],[-75.50969,5.24341],[-75.50967,5.24341],[-75.50967,5.24341],[-75.50965,5.24341],[-75.50965,5.24341],[-75.50965,5.24341],[-75.5097,5.24342],[-75.50972,5.24342],[-75.50973,5.24342],[-75.50974,5.24342],[-75.50975,5.24342],[-75.50975,5.24342],[-75.50977,5.24342],[-75.50982,5.24341],[-75.50984,5.2434],[-75.50985,5.2434],[-75.50991,5.24337],[-75.50991,5.24337],[-75.50992,5.24336],[-75.51001,5.24329],[-75.51002,5.24329],[-75.51003,5.24328],[-75.51017,5.24314],[-75.5103,5.24301],[-75.51037,5.24295],[-75.51042,5.2429],[-75.51049,5.24285],[-75.51056,5.24279],[-75.51055,5.24283],[-75.51049,5.24292],[-75.51039,5.24306],[-75.51038,5.24307],[-75.51038,5.24309],[-75.51034,5.24317],[-75.5103,5.24327],[-75.51027,5.24335],[-75.51027,5.24337],[-75.51024,5.24342],[-75.51021,5.24349],[-75.5102,5.24351],[-75.5102,5.24353],[-75.5102,5.24355],[-75.5102,5.24358],[-75.51016,5.24364],[-75.51006,5.24358],[-75.51003,5.24356],[-75.51001,5.24359],[-75.50991,5.24368],[-75.50994,5.24373],[-75.51002,5.24387]],[[-75.51009,5.24365],[-75.51005,5.24369],[-75.51005,5.2437],[-75.51003,5.24373],[-75.50997,5.24368],[-75.51003,5.2436],[-75.51009,5.24365]]],[[[-75.50788,5.24384],[-75.50788,5.24384],[-75.50787,5.24385],[-75.50787,5.24385],[-75.50786,5.24386],[-75.50785,5.24387],[-75.50783,5.24387],[-75.50782,5.24387],[-75.50784,5.2439],[-75.50784,5.24391],[-75.50804,5.2438],[-75.50812,5.24377],[-75.50807,5.2437],[-75.50806,5.24368],[-75.50822,5.24362],[-75.50822,5.24361],[-75.50823,5.24359],[-75.50823,5.24357],[-75.50823,5.24356],[-75.50822,5.24353],[-75.50822,5.24352],[-75.50822,5.24352],[-75.50822,5.24351],[-75.50821,5.24351],[-75.50821,5.24351],[-75.50821,5.24351],[-75.5082,5.24352],[-75.50819,5.24354],[-75.50818,5.24355],[-75.50817,5.24356],[-75.50814,5.24358],[-75.50812,5.24359],[-75.5081,5.24361],[-75.50808,5.24364],[-75.50806,5.24366],[-75.50805,5.24367],[-75.50806,5.2437],[-75.50802,5.24372],[-75.50801,5.24373],[-75.508,5.24373],[-75.50802,5.24379],[-75.50801,5.2438],[-75.50795,5.24382],[-75.50794,5.24381],[-75.50793,5.24378],[-75.50793,5.24378],[-75.50792,5.24379],[-75.50792,5.24379],[-75.5079,5.24381],[-75.5079,5.24381],[-75.50789,5.24382],[-75.50788,5.24384]]],[[[-75.50799,5.24369],[-75.508,5.24368],[-75.508,5.24368],[-75.50799,5.24368],[-75.50798,5.24367],[-75.50798,5.24367],[-75.50798,5.24367],[-75.50799,5.24369]]],[[[-75.51054,5.24342],[-75.51053,5.24343],[-75.51052,5.24344],[-75.5105,5.24348],[-75.51049,5.24349],[-75.51047,5.24353],[-75.51047,5.24353],[-75.51046,5.24355],[-75.51043,5.24357],[-75.51042,5.24358],[-75.51042,5.24358],[-75.51042,5.24359],[-75.51041,5.2436],[-75.51041,5.2436],[-75.51041,5.24361],[-75.51042,5.24361],[-75.51042,5.24362],[-75.51042,5.24362],[-75.51042,5.24363],[-75.51043,5.24363],[-75.51043,5.24363],[-75.51044,5.24364],[-75.51044,5.24364],[-75.51045,5.24364],[-75.51045,5.24363],[-75.51046,5.24363],[-75.51047,5.24362],[-75.51048,5.2436],[-75.51046,5.24359],[-75.51049,5.24354],[-75.51049,5.24353],[-75.51054,5.24342],[-75.51054,5.24342]]],[[[-75.50841,5.24355],[-75.50841,5.24355],[-75.5084,5.24355],[-75.50838,5.24356],[-75.50837,5.24357],[-75.50834,5.24357],[-75.50828,5.24359],[-75.50827,5.24359],[-75.50826,5.2436],[-75.50826,5.2436],[-75.50824,5.24361],[-75.50835,5.24357],[-75.50844,5.24356],[-75.50844,5.24356],[-75.50843,5.24355],[-75.50842,5.24355],[-75.50841,5.24355]]],[[[-75.50824,5.24355],[-75.50824,5.24355],[-75.50825,5.24356],[-75.50825,5.24356],[-75.50826,5.24356],[-75.50826,5.24356],[-75.50828,5.24357],[-75.5083,5.24357],[-75.50831,5.24357],[-75.50833,5.24356],[-75.50834,5.24356],[-75.50836,5.24355],[-75.50837,5.24355],[-75.50837,5.24355],[-75.50837,5.24355],[-75.50837,5.24355],[-75.50837,5.24354],[-75.50837,5.24354],[-75.50836,5.24354],[-75.50835,5.24354],[-75.50833,5.24354],[-75.50832,5.24354],[-75.50831,5.24354],[-75.5083,5.24354],[-75.5083,5.24354],[-75.5083,5.24353],[-75.5083,5.24353],[-75.5083,5.24353],[-75.5083,5.24352],[-75.5083,5.24352],[-75.50831,5.24351],[-75.50831,5.24351],[-75.50832,5.24351],[-75.50833,5.2435],[-75.50834,5.2435],[-75.50837,5.2435],[-75.50838,5.2435],[-75.50839,5.2435],[-75.50841,5.24349],[-75.50842,5.24349],[-75.50843,5.24349],[-75.50844,5.24349],[-75.50845,5.24349],[-75.50846,5.2435],[-75.50849,5.24351],[-75.50849,5.24351],[-75.50849,5.24352],[-75.50849,5.24352],[-75.50849,5.24352],[-75.50849,5.24352],[-75.50849,5.24353],[-75.50848,5.24354],[-75.50848,5.24354],[-75.50847,5.24354],[-75.50846,5.24355],[-75.50845,5.24355],[-75.50848,5.24355],[-75.50859,5.24353],[-75.50865,5.24351],[-75.50865,5.24349],[-75.50866,5.24349],[-75.50867,5.24349],[-75.50887,5.24342],[-75.50891,5.24341],[-75.50891,5.24341],[-75.5089,5.2434],[-75.5089,5.2434],[-75.5089,5.2434],[-75.50889,5.2434],[-75.50889,5.2434],[-75.50889,5.2434],[-75.50889,5.24341],[-75.50889,5.24341],[-75.50888,5.24341],[-75.50888,5.2434],[-75.50888,5.2434],[-75.50887,5.2434],[-75.50887,5.24339],[-75.50886,5.24338],[-75.50886,5.24337],[-75.50886,5.24337],[-75.50886,5.24337],[-75.50885,5.24337],[-75.50885,5.24337],[-75.50885,5.24339],[-75.50884,5.24339],[-75.50884,5.2434],[-75.50884,5.2434],[-75.50884,5.2434],[-75.50883,5.24339],[-75.50882,5.24337],[-75.50881,5.24337],[-75.50881,5.24336],[-75.5088,5.24336],[-75.50879,5.24336],[-75.50879,5.24335],[-75.50878,5.24335],[-75.50877,5.24335],[-75.50875,5.24335],[-75.50874,5.24335],[-75.50873,5.24335],[-75.50872,5.24335],[-75.50871,5.24336],[-75.5087,5.24337],[-75.5087,5.24337],[-75.50868,5.24338],[-75.50866,5.24339],[-75.5086,5.2434],[-75.50856,5.24341],[-75.50852,5.24342],[-75.5085,5.24342],[-75.50848,5.24342],[-75.50841,5.24343],[-75.50837,5.24343],[-75.50833,5.24343],[-75.50832,5.24344],[-75.50831,5.24344],[-75.50829,5.24345],[-75.50828,5.24345],[-75.50825,5.24347],[-75.50824,5.24348],[-75.50823,5.24348],[-75.50823,5.24349],[-75.50823,5.2435],[-75.50823,5.2435],[-75.50823,5.24351],[-75.50823,5.24353],[-75.50823,5.24353],[-75.50824,5.24354],[-75.50824,5.24355]]],[[[-75.50942,5.24353],[-75.50948,5.24352],[-75.50947,5.2435],[-75.50947,5.24352],[-75.50942,5.24353],[-75.50942,5.24349],[-75.50941,5.24349],[-75.50939,5.24342],[-75.50938,5.24343],[-75.50937,5.24343],[-75.50936,5.24344],[-75.50934,5.24345],[-75.5093,5.24345],[-75.50927,5.24346],[-75.50926,5.24347],[-75.50925,5.24347],[-75.50924,5.24347],[-75.50923,5.24346],[-75.50919,5.24345],[-75.50918,5.24345],[-75.50918,5.24346],[-75.50917,5.24346],[-75.50917,5.24349],[-75.50917,5.24349],[-75.50917,5.24349],[-75.50907,5.2435],[-75.50907,5.24348],[-75.50906,5.24348],[-75.50906,5.2435],[-75.50908,5.2435],[-75.50917,5.24349],[-75.50917,5.24349],[-75.50939,5.24352],[-75.50942,5.24353]]],[[[-75.50898,5.24348],[-75.50898,5.24349],[-75.50905,5.24348],[-75.50898,5.24348]]],[[[-75.50897,5.24342],[-75.50898,5.24344],[-75.50898,5.24348],[-75.50898,5.24345],[-75.50898,5.24342],[-75.50899,5.24342],[-75.50898,5.24341],[-75.50897,5.2434],[-75.50897,5.24342]]],[[[-75.50941,5.2434],[-75.5094,5.24341],[-75.5094,5.24341],[-75.50945,5.2434],[-75.50945,5.2434],[-75.50947,5.24339],[-75.50948,5.24339],[-75.50947,5.24338],[-75.50946,5.24338],[-75.50945,5.24339],[-75.50943,5.24339],[-75.50943,5.24339],[-75.50941,5.2434]]],[[[-75.50891,5.24337],[-75.50891,5.24338],[-75.50891,5.24338],[-75.50891,5.24339],[-75.50892,5.2434],[-75.50892,5.2434],[-75.50896,5.24339],[-75.50895,5.24339],[-75.50894,5.24338],[-75.50892,5.24338],[-75.50892,5.24337],[-75.50891,5.24337]]],[[[-75.51045,5.24329],[-75.51044,5.24332],[-75.51044,5.24333],[-75.51044,5.24334],[-75.51044,5.24334],[-75.51044,5.24335],[-75.51045,5.24335],[-75.51045,5.24335],[-75.51045,5.24335],[-75.51045,5.24335],[-75.51046,5.24334],[-75.51048,5.24331],[-75.51048,5.24331],[-75.51049,5.2433],[-75.51052,5.24328],[-75.51056,5.24325],[-75.51058,5.24325],[-75.51058,5.24324],[-75.51058,5.24324],[-75.51059,5.24325],[-75.51059,5.24325],[-75.5106,5.24325],[-75.5106,5.24325],[-75.5106,5.24326],[-75.5106,5.24326],[-75.51059,5.24326],[-75.51058,5.24328],[-75.51057,5.24329],[-75.51057,5.2433],[-75.51057,5.2433],[-75.51057,5.2433],[-75.51057,5.24331],[-75.51057,5.24331],[-75.51058,5.24331],[-75.51058,5.24331],[-75.5106,5.24327],[-75.51062,5.2432],[-75.51071,5.24308],[-75.51072,5.24307],[-75.51075,5.24302],[-75.51074,5.243],[-75.51073,5.24299],[-75.51073,5.24299],[-75.51073,5.24299],[-75.51073,5.24298],[-75.51074,5.24298],[-75.51074,5.24297],[-75.51074,5.24296],[-75.51074,5.24296],[-75.51074,5.24295],[-75.51074,5.24295],[-75.51075,5.24295],[-75.51077,5.24294],[-75.51077,5.24293],[-75.51078,5.24293],[-75.51078,5.24292],[-75.51078,5.24292],[-75.51078,5.24291],[-75.51079,5.2429],[-75.5108,5.2429],[-75.5108,5.2429],[-75.5108,5.24289],[-75.5108,5.24289],[-75.5108,5.24288],[-75.51081,5.24287],[-75.51081,5.24287],[-75.51082,5.24287],[-75.51082,5.24286],[-75.51082,5.24286],[-75.51081,5.24286],[-75.51079,5.24286],[-75.51078,5.24286],[-75.51078,5.24286],[-75.51078,5.24285],[-75.51077,5.24285],[-75.51077,5.24285],[-75.51077,5.24284],[-75.51078,5.24284],[-75.51078,5.24283],[-75.51078,5.24283],[-75.51079,5.24282],[-75.51081,5.24281],[-75.51082,5.2428],[-75.51084,5.24279],[-75.51084,5.24279],[-75.51084,5.24279],[-75.51084,5.24278],[-75.51084,5.24278],[-75.51083,5.24278],[-75.51081,5.24278],[-75.51081,5.24278],[-75.51081,5.24277],[-75.51081,5.24277],[-75.51081,5.24277],[-75.51083,5.24276],[-75.51084,5.24275],[-75.51085,5.24274],[-75.51086,5.24273],[-75.51086,5.24273],[-75.51086,5.24272],[-75.51086,5.2427],[-75.51087,5.24269],[-75.51087,5.24268],[-75.51087,5.24268],[-75.51087,5.24267],[-75.51088,5.24267],[-75.51088,5.24267],[-75.51089,5.24266],[-75.51091,5.24261],[-75.51094,5.24254],[-75.51095,5.24253],[-75.51097,5.24253],[-75.51102,5.24252],[-75.51104,5.24253],[-75.51112,5.24255],[-75.51113,5.24255],[-75.51115,5.24256],[-75.51117,5.24256],[-75.5112,5.24257],[-75.51123,5.24258],[-75.51125,5.24252],[-75.51122,5.2425],[-75.5112,5.24249],[-75.51118,5.24248],[-75.51113,5.24246],[-75.51109,5.24244],[-75.51107,5.24243],[-75.51105,5.24243],[-75.51103,5.24242],[-75.51102,5.24242],[-75.511,5.24242],[-75.51097,5.24242],[-75.51095,5.24243],[-75.51093,5.24243],[-75.51091,5.24244],[-75.51089,5.24244],[-75.51085,5.24247],[-75.5108,5.24258],[-75.51076,5.24267],[-75.51068,5.24291],[-75.51065,5.24296],[-75.51058,5.24305],[-75.51051,5.24316],[-75.51045,5.24329]]],[[[-75.50847,5.24326],[-75.50845,5.24326],[-75.50847,5.24327],[-75.50853,5.24327],[-75.50856,5.24328],[-75.50859,5.24329],[-75.50863,5.2433],[-75.50865,5.24331],[-75.50867,5.24331],[-75.50868,5.24332],[-75.50869,5.24332],[-75.5087,5.24332],[-75.50871,5.24331],[-75.50872,5.24331],[-75.50872,5.24331],[-75.50873,5.2433],[-75.50874,5.24329],[-75.50874,5.24329],[-75.50875,5.24328],[-75.50876,5.24328],[-75.50877,5.24327],[-75.50879,5.24327],[-75.5088,5.24326],[-75.50883,5.24325],[-75.50884,5.24325],[-75.50884,5.24325],[-75.50885,5.24325],[-75.50887,5.24325],[-75.50888,5.24326],[-75.50889,5.24325],[-75.5089,5.24325],[-75.50891,5.24325],[-75.50892,5.24325],[-75.50895,5.24324],[-75.50896,5.24323],[-75.50896,5.24322],[-75.50897,5.24322],[-75.50897,5.24321],[-75.50897,5.24321],[-75.50897,5.24321],[-75.50897,5.24321],[-75.50896,5.2432],[-75.50896,5.2432],[-75.50895,5.24321],[-75.50892,5.24322],[-75.50891,5.24322],[-75.5089,5.24322],[-75.5089,5.24322],[-75.5089,5.24322],[-75.50889,5.24321],[-75.50889,5.24321],[-75.50889,5.24321],[-75.50889,5.2432],[-75.50889,5.2432],[-75.50889,5.24319],[-75.50891,5.24316],[-75.50892,5.24315],[-75.50894,5.24312],[-75.50895,5.24311],[-75.50895,5.24311],[-75.50895,5.24311],[-75.50885,5.24314],[-75.50879,5.24316],[-75.50869,5.24319],[-75.50859,5.24323],[-75.50847,5.24326]]],[[[-75.5093,5.24316],[-75.50933,5.24317],[-75.50938,5.24318],[-75.50942,5.24319],[-75.50943,5.24319],[-75.50948,5.24321],[-75.50949,5.24322],[-75.50951,5.24322],[-75.50957,5.24322],[-75.50963,5.24323],[-75.50965,5.24323],[-75.50968,5.24323],[-75.50969,5.24323],[-75.5097,5.24322],[-75.50972,5.24322],[-75.50973,5.24321],[-75.50975,5.2432],[-75.50978,5.24319],[-75.50982,5.24315],[-75.50984,5.24314],[-75.50985,5.24313],[-75.50986,5.24312],[-75.50987,5.24312],[-75.50988,5.24312],[-75.50988,5.24312],[-75.50989,5.24312],[-75.5099,5.24312],[-75.5099,5.24312],[-75.50991,5.24313],[-75.50991,5.24313],[-75.50992,5.24313],[-75.50992,5.24314],[-75.50992,5.24315],[-75.50992,5.24315],[-75.50992,5.24316],[-75.51001,5.24308],[-75.51005,5.24304],[-75.51009,5.243],[-75.51015,5.24295],[-75.51018,5.24291],[-75.5102,5.24289],[-75.51021,5.24288],[-75.51022,5.24287],[-75.51022,5.24286],[-75.51022,5.24286],[-75.51022,5.24285],[-75.51022,5.24285],[-75.51022,5.24285],[-75.51021,5.24286],[-75.51021,5.24286],[-75.51016,5.24289],[-75.51016,5.2429],[-75.51015,5.2429],[-75.51015,5.2429],[-75.51015,5.2429],[-75.51016,5.24289],[-75.5102,5.24285],[-75.51021,5.24284],[-75.51022,5.24283],[-75.51023,5.24281],[-75.51024,5.24279],[-75.51025,5.24278],[-75.51027,5.24275],[-75.51028,5.24274],[-75.51028,5.24274],[-75.51028,5.24273],[-75.51028,5.24272],[-75.51029,5.2427],[-75.5103,5.24268],[-75.51031,5.24265],[-75.51032,5.24263],[-75.51033,5.24262],[-75.51034,5.24261],[-75.51034,5.24261],[-75.51035,5.24261],[-75.51035,5.24261],[-75.51036,5.24261],[-75.51036,5.24261],[-75.51037,5.24261],[-75.51037,5.24261],[-75.51037,5.2426],[-75.51036,5.24258],[-75.51036,5.24257],[-75.51036,5.24257],[-75.51037,5.24256],[-75.51034,5.24256],[-75.51033,5.24252],[-75.51039,5.24251],[-75.5104,5.24253],[-75.51041,5.24252],[-75.51042,5.24251],[-75.51042,5.2425],[-75.51043,5.24249],[-75.51043,5.24249],[-75.51043,5.24248],[-75.51043,5.24247],[-75.51043,5.24246],[-75.51043,5.24244],[-75.5104,5.24243],[-75.5104,5.2424],[-75.51042,5.2424],[-75.51042,5.24239],[-75.51042,5.24239],[-75.51042,5.24239],[-75.51042,5.24238],[-75.51042,5.24234],[-75.51042,5.24233],[-75.51041,5.24229],[-75.51041,5.24228],[-75.51036,5.24232],[-75.51035,5.24233],[-75.51033,5.24234],[-75.51031,5.24236],[-75.51028,5.24238],[-75.51026,5.24241],[-75.51016,5.24259],[-75.51019,5.24261],[-75.51026,5.24268],[-75.51019,5.24274],[-75.51019,5.24274],[-75.51019,5.24275],[-75.50998,5.24295],[-75.50985,5.24307],[-75.50984,5.24308],[-75.50977,5.24313],[-75.50974,5.24315],[-75.50973,5.24315],[-75.5097,5.24314],[-75.50941,5.24308],[-75.5094,5.24308],[-75.5094,5.24308],[-75.50925,5.24306],[-75.50923,5.24306],[-75.50922,5.24306],[-75.50917,5.24306],[-75.50918,5.24307],[-75.50918,5.24308],[-75.50918,5.24309],[-75.50918,5.2431],[-75.50919,5.2431],[-75.50919,5.24311],[-75.5092,5.24312],[-75.50921,5.24312],[-75.50921,5.24312],[-75.50927,5.24315],[-75.5093,5.24316]]],[[[-75.51047,5.24256],[-75.51046,5.24257],[-75.51044,5.24261],[-75.51043,5.24263],[-75.51042,5.24264],[-75.5104,5.24266],[-75.51037,5.2427],[-75.51034,5.24272],[-75.51031,5.24275],[-75.5103,5.24276],[-75.5103,5.24277],[-75.51029,5.24277],[-75.51029,5.24278],[-75.51029,5.24278],[-75.51029,5.24278],[-75.5103,5.24279],[-75.5103,5.24279],[-75.51031,5.24278],[-75.51032,5.24278],[-75.51033,5.24277],[-75.5104,5.24272],[-75.51045,5.24268],[-75.51049,5.24265],[-75.51049,5.24265],[-75.51053,5.24262],[-75.51056,5.24259],[-75.51057,5.24259],[-75.51059,5.24256],[-75.51061,5.24255],[-75.51066,5.24252],[-75.51068,5.24251],[-75.5107,5.24249],[-75.51072,5.24249],[-75.51073,5.24248],[-75.5108,5.24244],[-75.51081,5.24241],[-75.51083,5.24239],[-75.51083,5.24238],[-75.51084,5.24236],[-75.51084,5.24235],[-75.51085,5.24234],[-75.51085,5.24231],[-75.51085,5.2423],[-75.51086,5.2423],[-75.51086,5.24229],[-75.51086,5.24229],[-75.51087,5.24229],[-75.51087,5.24229],[-75.51087,5.24229],[-75.51088,5.24229],[-75.51088,5.2423],[-75.51088,5.2423],[-75.51089,5.24231],[-75.51089,5.24231],[-75.51088,5.24231],[-75.51088,5.24232],[-75.51087,5.24232],[-75.51087,5.24232],[-75.51088,5.24233],[-75.51088,5.24233],[-75.51088,5.24234],[-75.51089,5.24234],[-75.51089,5.24235],[-75.5109,5.24235],[-75.5109,5.24235],[-75.51091,5.24235],[-75.51091,5.24235],[-75.51091,5.24235],[-75.51091,5.24235],[-75.51091,5.24236],[-75.5109,5.24236],[-75.5109,5.24237],[-75.5109,5.24237],[-75.51091,5.24238],[-75.51091,5.24238],[-75.51096,5.24238],[-75.51096,5.24238],[-75.51097,5.24238],[-75.51098,5.24238],[-75.51098,5.24238],[-75.51104,5.24238],[-75.51105,5.24238],[-75.51107,5.24238],[-75.51108,5.24238],[-75.51108,5.24238],[-75.51112,5.2424],[-75.51112,5.2424],[-75.51113,5.24241],[-75.51117,5.24242],[-75.51117,5.24242],[-75.51118,5.24242],[-75.51119,5.24242],[-75.51123,5.24244],[-75.51124,5.24244],[-75.51125,5.24244],[-75.51127,5.24244],[-75.51134,5.2422],[-75.51142,5.24199],[-75.5114,5.24198],[-75.5114,5.24199],[-75.51137,5.24201],[-75.51136,5.24202],[-75.51131,5.24207],[-75.51129,5.24209],[-75.51126,5.24212],[-75.51122,5.24216],[-75.5112,5.24217],[-75.51119,5.24218],[-75.51119,5.24218],[-75.51118,5.24218],[-75.51117,5.24219],[-75.51116,5.24218],[-75.51115,5.24218],[-75.51114,5.24217],[-75.51113,5.24217],[-75.51112,5.24217],[-75.51112,5.24217],[-75.51111,5.24217],[-75.5111,5.24215],[-75.51109,5.24214],[-75.51109,5.24214],[-75.51109,5.24213],[-75.51109,5.24213],[-75.51107,5.24211],[-75.5111,5.24208],[-75.5111,5.24208],[-75.5111,5.24206],[-75.5111,5.24205],[-75.5111,5.24205],[-75.5111,5.24204],[-75.5111,5.24202],[-75.51109,5.24201],[-75.51108,5.242],[-75.51108,5.24199],[-75.51107,5.24198],[-75.51102,5.24199],[-75.51082,5.24205],[-75.5108,5.24206],[-75.51076,5.24207],[-75.51076,5.24207],[-75.51077,5.24208],[-75.51077,5.24208],[-75.51078,5.2421],[-75.51078,5.24213],[-75.51079,5.24215],[-75.51079,5.24217],[-75.51079,5.24219],[-75.51079,5.2422],[-75.51079,5.24222],[-75.51078,5.24223],[-75.51078,5.24223],[-75.51078,5.24224],[-75.51078,5.24224],[-75.51077,5.24224],[-75.51077,5.24224],[-75.51077,5.24223],[-75.51077,5.24223],[-75.51076,5.24222],[-75.51076,5.24222],[-75.51076,5.24221],[-75.51075,5.24221],[-75.51075,5.24221],[-75.51075,5.24222],[-75.51075,5.24224],[-75.51075,5.24225],[-75.51075,5.24226],[-75.51077,5.24228],[-75.51071,5.24234],[-75.51071,5.24234],[-75.5107,5.24235],[-75.51069,5.24236],[-75.51067,5.24238],[-75.51066,5.24239],[-75.51068,5.2424],[-75.51066,5.24242],[-75.51065,5.24244],[-75.51065,5.24243],[-75.51063,5.24242],[-75.51062,5.24243],[-75.51059,5.24245],[-75.51058,5.24246],[-75.51057,5.24247],[-75.51054,5.24248],[-75.51053,5.24248],[-75.51049,5.24256],[-75.51048,5.24255],[-75.51047,5.24255],[-75.51047,5.24256]],[[-75.51093,5.24227],[-75.51096,5.24227],[-75.51097,5.24229],[-75.51097,5.2423],[-75.51093,5.2423],[-75.51093,5.24227]]]]},"properties":{"OBJECTID":1,"Condicion":"Condicion de amenaza por movimientos en masa","CPR":"CPR Muelas","Area_m2":33703.7308745,"RuleID":1,"Override":null,"Shape_Length":8028.119910150803,"Shape_Area":33703.73099831742}}]}