{"type":"FeatureCollection","name":"Condicion_Riesgo_Mm_CPR_Muelas","crs":{"type":"name","properties":{"name":"urn:ogc:def:crs:OGC:1.3:CRS84"}},"features":[{"type":"Feature","id":1,"geometry":{"type":"MultiPolygon","coordinates":[[[[-75.50399,5.24525],[-75.504,5.24525],[-75.50398,5.24528],[-75.50399,5.24528],[-75.50399,5.24528],[-75.504,5.24528],[-75.504,5.24527],[-75.50401,5.24527],[-75.50401,5.24526],[-75.50402,5.24524],[-75.50401,5.24523],[-75.50399,5.24525]]],[[[-75.50409,5.24506],[-75.50409,5.24506],[-75.50409,5.24506],[-75.50409,5.24506]]],[[[-75.50417,5.24461],[-75.50416,5.24462],[-75.50416,5.24463],[-75.50416,5.24463],[-75.50416,5.24465],[-75.50417,5.24465],[-75.50418,5.24467],[-75.50419,5.24469],[-75.50421,5.24471],[-75.50421,5.24471],[-75.5042,5.24466],[-75.5042,5.24461],[-75.50417,5.24461]]],[[[-75.50291,5.24472],[-75.50291,5.24472],[-75.50291,5.24472],[-75.50291,5.24472]]],[[[-75.50263,5.24462],[-75.50264,5.24464],[-75.50266,5.24465],[-75.5027,5.24466],[-75.50275,5.24468],[-75.50259,5.2446],[-75.50263,5.24462]]],[[[-75.5022,5.24462],[-75.50226,5.24462],[-75.50228,5.24462],[-75.5022,5.24461],[-75.5022,5.24462]]],[[[-75.50218,5.24445],[-75.50218,5.24445],[-75.50219,5.24446],[-75.50223,5.24449],[-75.50227,5.24453],[-75.50229,5.24454],[-75.50229,5.24453],[-75.50225,5.2445],[-75.50226,5.24448],[-75.50223,5.24446],[-75.50223,5.24446],[-75.50222,5.24445],[-75.50219,5.24443],[-75.50218,5.24445]]],[[[-75.50111,5.24453],[-75.50111,5.24453],[-75.50111,5.24453],[-75.50111,5.24453],[-75.50111,5.24453]]],[[[-75.50214,5.24439],[-75.50215,5.2444],[-75.50215,5.24442],[-75.50216,5.24443],[-75.50217,5.24444],[-75.50217,5.24444],[-75.50218,5.24441],[-75.50217,5.2444],[-75.50216,5.24439],[-75.50214,5.24439],[-75.50214,5.24439]]],[[[-75.50116,5.24436],[-75.50116,5.24438],[-75.50117,5.24437],[-75.50119,5.24435],[-75.50121,5.24432],[-75.50123,5.24429],[-75.50123,5.24428],[-75.50116,5.24436]]],[[[-75.50505,5.2442],[-75.50505,5.2442],[-75.50505,5.2442],[-75.50505,5.24421],[-75.50506,5.24421],[-75.50507,5.24421],[-75.50507,5.24421],[-75.50508,5.24421],[-75.50508,5.24421],[-75.5051,5.2442],[-75.50512,5.2442],[-75.50514,5.24419],[-75.50514,5.24419],[-75.50514,5.24419],[-75.50505,5.2442]]],[[[-75.50672,5.24386],[-75.50673,5.24387],[-75.50674,5.24388],[-75.50674,5.24387],[-75.50672,5.24386],[-75.50672,5.24386]]],[[[-75.50799,5.2438],[-75.50797,5.2438],[-75.50796,5.2438],[-75.50795,5.2438],[-75.50794,5.24381],[-75.50795,5.24382],[-75.50801,5.2438],[-75.50799,5.2438]]],[[[-75.51019,5.24372],[-75.51019,5.24372],[-75.51017,5.24373],[-75.51019,5.24375],[-75.51019,5.24375],[-75.51019,5.24374],[-75.5102,5.24373],[-75.5102,5.24373],[-75.51019,5.24372],[-75.51019,5.24372],[-75.51019,5.24372],[-75.51019,5.24372]]],[[[-75.50647,5.24374],[-75.50647,5.24374],[-75.50647,5.24374],[-75.50648,5.24374],[-75.5065,5.24374],[-75.5065,5.24374],[-75.50651,5.24374],[-75.50653,5.24374],[-75.50655,5.24374],[-75.50656,5.24374],[-75.50656,5.24374],[-75.50651,5.2437],[-75.50647,5.24374]]],[[[-75.50797,5.24369],[-75.50797,5.24369],[-75.50797,5.2437],[-75.50798,5.24371],[-75.50799,5.24372],[-75.50801,5.24373],[-75.50802,5.24372],[-75.50802,5.24372],[-75.508,5.24372],[-75.50798,5.24369],[-75.50797,5.24369],[-75.50797,5.24369],[-75.50797,5.24369]]],[[[-75.50917,5.24349],[-75.50917,5.24349],[-75.50917,5.24349],[-75.50917,5.24349]]],[[[-75.51065,5.24243],[-75.51065,5.24243],[-75.51065,5.24244],[-75.51066,5.24242],[-75.51065,5.24243]]]]},"properties":{"OBJECTID":1,"Condicion":"Condicion de riesgo por movimientos en masa","CPR":"CPR Muelas","Area_m2":191.988861737,"RuleID":1,"Override":null,"Shape_Length":287.553999979073,"Shape_Area":191.98900241227224}}]}