{"type":"FeatureCollection","name":"AIA_URBANO","crs":{"type":"name","properties":{"name":"urn:ogc:def:crs:OGC:1.3:CRS84"}},"features":[{"type":"Feature","id":0,"geometry":{"type":"Polygon","coordinates":[[[-75.4849,5.40793],[-75.48487,5.40777],[-75.48488,5.40763],[-75.48495,5.40754],[-75.48501,5.40751],[-75.48515,5.40745],[-75.4852,5.40738],[-75.48519,5.40716],[-75.48519,5.40708],[-75.48521,5.407],[-75.4853,5.4069],[-75.48545,5.40679],[-75.4855,5.40672],[-75.48562,5.40656],[-75.4855,5.40608],[-75.48517,5.40614],[-75.48508,5.40591],[-75.48493,5.40571],[-75.4846,5.40567],[-75.48457,5.40554],[-75.48448,5.40555],[-75.48447,5.40537],[-75.48481,5.40521],[-75.4849,5.40509],[-75.48495,5.40496],[-75.48501,5.40471],[-75.4851,5.40456],[-75.48516,5.40452],[-75.48524,5.40448],[-75.48536,5.40441],[-75.48547,5.40435],[-75.48555,5.40431],[-75.48562,5.40422],[-75.48565,5.40412],[-75.48565,5.40403],[-75.48563,5.40391],[-75.4856,5.40381],[-75.48554,5.4037],[-75.48548,5.4036],[-75.48543,5.40355],[-75.48535,5.40352],[-75.48526,5.40349],[-75.48516,5.40348],[-75.48509,5.40345],[-75.48503,5.40341],[-75.48496,5.40334],[-75.48489,5.4033],[-75.48481,5.40329],[-75.4847,5.4033],[-75.48462,5.40329],[-75.48453,5.40325],[-75.48443,5.4032],[-75.48436,5.40319],[-75.48425,5.4032],[-75.48413,5.40323],[-75.48401,5.40328],[-75.48392,5.4033],[-75.48384,5.40331],[-75.48376,5.4033],[-75.48365,5.40328],[-75.48357,5.40328],[-75.48345,5.4033],[-75.4833,5.40336],[-75.48319,5.40345],[-75.48308,5.40354],[-75.48296,5.40362],[-75.4828,5.40371],[-75.48272,5.40377],[-75.48262,5.40388],[-75.48257,5.40402],[-75.48254,5.40417],[-75.48251,5.40451],[-75.48248,5.40471],[-75.48241,5.40487],[-75.48222,5.40512],[-75.48205,5.40532],[-75.48185,5.40558],[-75.48171,5.40586],[-75.48163,5.4061],[-75.48161,5.40631],[-75.48164,5.40654],[-75.48169,5.4067],[-75.48177,5.40691],[-75.48184,5.40716],[-75.48184,5.40735],[-75.48171,5.40763],[-75.48159,5.40778],[-75.48153,5.40791],[-75.48152,5.40807],[-75.48154,5.40821],[-75.48161,5.40842],[-75.48175,5.40864],[-75.4819,5.40878],[-75.48207,5.40888],[-75.48219,5.40891],[-75.48231,5.40891],[-75.48243,5.40888],[-75.48257,5.40881],[-75.4829,5.40861],[-75.48316,5.40851],[-75.48338,5.40847],[-75.48361,5.40848],[-75.48377,5.40853],[-75.48391,5.40859],[-75.48409,5.40862],[-75.48417,5.40862],[-75.4843,5.4086],[-75.48437,5.40856],[-75.48441,5.40856],[-75.48457,5.40857],[-75.4847,5.40864],[-75.48479,5.40845],[-75.4848,5.40822],[-75.4849,5.40793]]]},"properties":{"FID":0,"OBJECTID":1,"NOMBRE":"Vivero Cramsa","TIPO":"Relicto de Guadua","SHAPE_Leng":2048.64663309,"SHAPE_Area":203340.757487}},{"type":"Feature","id":1,"geometry":{"type":"Polygon","coordinates":[[[-75.4845,5.40923],[-75.48461,5.4091],[-75.48465,5.4089],[-75.48468,5.40874],[-75.48463,5.40871],[-75.48464,5.40859],[-75.48451,5.40858],[-75.48442,5.40858],[-75.48427,5.40865],[-75.48419,5.40866],[-75.48402,5.40868],[-75.48392,5.40868],[-75.48377,5.40865],[-75.4836,5.40868],[-75.48355,5.4088],[-75.48357,5.40894],[-75.48367,5.40905],[-75.48377,5.40921],[-75.48389,5.40934],[-75.48399,5.40947],[-75.48418,5.4095],[-75.48427,5.40944],[-75.48434,5.40939],[-75.48441,5.40936],[-75.48448,5.40929],[-75.4845,5.40923]]]},"properties":{"FID":1,"OBJECTID":2,"NOMBRE":"Guadual B. Cristo Rey","TIPO":"Relicto de Guadua","SHAPE_Leng":371.178434144,"SHAPE_Area":8673.83903469}},{"type":"Feature","id":2,"geometry":{"type":"Polygon","coordinates":[[[-75.48476,5.4107],[-75.48466,5.41077],[-75.48477,5.41087],[-75.48484,5.41094],[-75.48492,5.41105],[-75.48502,5.41106],[-75.48513,5.41101],[-75.48519,5.41096],[-75.48519,5.41089],[-75.48517,5.41081],[-75.48517,5.41067],[-75.48515,5.4106],[-75.48507,5.41055],[-75.48498,5.41056],[-75.48486,5.41058],[-75.48481,5.4106],[-75.48476,5.4107]]]},"properties":{"FID":2,"OBJECTID":3,"NOMBRE":"Relicto El Bosque","TIPO":"Relicto de Bosque","SHAPE_Leng":181.857837616,"SHAPE_Area":2220.61426631}},{"type":"Feature","id":3,"geometry":{"type":"Polygon","coordinates":[[[-75.48362,5.41022],[-75.48369,5.41025],[-75.48381,5.41021],[-75.48382,5.41012],[-75.48382,5.41004],[-75.48381,5.40998],[-75.48374,5.40987],[-75.48374,5.40984],[-75.48373,5.40977],[-75.48368,5.40969],[-75.48358,5.40962],[-75.48348,5.4096],[-75.48344,5.40955],[-75.48338,5.40949],[-75.48334,5.40943],[-75.4833,5.40934],[-75.48326,5.40925],[-75.48313,5.40916],[-75.48299,5.40916],[-75.48277,5.40918],[-75.48251,5.40915],[-75.48234,5.40932],[-75.48216,5.40963],[-75.48225,5.40996],[-75.48241,5.41009],[-75.48254,5.41019],[-75.48268,5.41024],[-75.48297,5.4103],[-75.48319,5.41033],[-75.48328,5.41033],[-75.4834,5.41026],[-75.48347,5.41023],[-75.48353,5.41021],[-75.48362,5.41022]]]},"properties":{"FID":3,"OBJECTID":4,"NOMBRE":"Guadual B. Bosque","TIPO":"Relicto de Guadua","SHAPE_Leng":512.73369048,"SHAPE_Area":17204.0757487}},{"type":"Feature","id":4,"geometry":{"type":"Polygon","coordinates":[[[-75.48663,5.41173],[-75.4865,5.41178],[-75.48638,5.41183],[-75.4863,5.41186],[-75.48623,5.41195],[-75.48623,5.41203],[-75.48627,5.41214],[-75.48629,5.41225],[-75.48627,5.41244],[-75.48617,5.41264],[-75.48611,5.41278],[-75.48612,5.41295],[-75.48613,5.41312],[-75.48617,5.41329],[-75.48625,5.41348],[-75.48629,5.41363],[-75.48623,5.41373],[-75.48606,5.41377],[-75.48591,5.41375],[-75.4858,5.41374],[-75.48562,5.41363],[-75.48545,5.41354],[-75.48519,5.41344],[-75.48514,5.41352],[-75.48516,5.41384],[-75.48512,5.41406],[-75.48595,5.41446],[-75.48778,5.41436],[-75.48779,5.41413],[-75.48774,5.41389],[-75.48775,5.41376],[-75.48773,5.41363],[-75.4876,5.41348],[-75.48752,5.41332],[-75.48746,5.41317],[-75.48741,5.41306],[-75.48731,5.41299],[-75.4872,5.41294],[-75.48713,5.41279],[-75.48707,5.41272],[-75.48701,5.4126],[-75.4871,5.41244],[-75.48727,5.4123],[-75.48736,5.41216],[-75.48741,5.41206],[-75.48746,5.41192],[-75.48758,5.41169],[-75.4876,5.41158],[-75.48766,5.41149],[-75.48776,5.41138],[-75.48786,5.41128],[-75.48792,5.41121],[-75.48795,5.41108],[-75.48791,5.41092],[-75.48785,5.41083],[-75.48775,5.4108],[-75.48766,5.41077],[-75.48758,5.41073],[-75.48753,5.41065],[-75.4875,5.41059],[-75.48748,5.41052],[-75.4875,5.41045],[-75.48758,5.4104],[-75.48767,5.41039],[-75.48774,5.41036],[-75.48779,5.41031],[-75.48781,5.41024],[-75.48776,5.41018],[-75.48771,5.41019],[-75.48757,5.4102],[-75.48752,5.41021],[-75.48746,5.41022],[-75.48742,5.41022],[-75.48732,5.41017],[-75.48732,5.41015],[-75.48724,5.41016],[-75.48713,5.41019],[-75.48703,5.41023],[-75.48699,5.41029],[-75.48696,5.41035],[-75.48696,5.41041],[-75.48702,5.41056],[-75.48714,5.41075],[-75.48715,5.41085],[-75.48715,5.41094],[-75.4871,5.41102],[-75.48707,5.41106],[-75.48704,5.41113],[-75.48699,5.4112],[-75.48696,5.41129],[-75.48696,5.41134],[-75.48696,5.41143],[-75.48695,5.41149],[-75.48693,5.41154],[-75.48681,5.41165],[-75.48673,5.41169],[-75.48663,5.41173]]]},"properties":{"FID":4,"OBJECTID":5,"NOMBRE":"Relicto Fundadores","TIPO":"Relicto de Bosque","SHAPE_Leng":1616.86492275,"SHAPE_Area":63204.062391}},{"type":"Feature","id":5,"geometry":{"type":"Polygon","coordinates":[[[-75.49033,5.40696],[-75.49046,5.40691],[-75.49059,5.40691],[-75.4907,5.4069],[-75.4909,5.40689],[-75.49099,5.40686],[-75.49105,5.40683],[-75.49112,5.40681],[-75.49118,5.40674],[-75.49125,5.40667],[-75.49131,5.40664],[-75.49139,5.40662],[-75.49156,5.40663],[-75.49161,5.40662],[-75.49169,5.40651],[-75.49177,5.40646],[-75.49186,5.40643],[-75.49196,5.4064],[-75.49204,5.4063],[-75.49207,5.40612],[-75.49205,5.40597],[-75.49202,5.40587],[-75.49193,5.40574],[-75.49186,5.40565],[-75.49176,5.4055],[-75.49167,5.40544],[-75.49155,5.40543],[-75.49142,5.40544],[-75.49133,5.40553],[-75.49127,5.4057],[-75.49118,5.40584],[-75.49106,5.40601],[-75.49093,5.40615],[-75.49075,5.40625],[-75.49062,5.40631],[-75.49047,5.40631],[-75.49034,5.40636],[-75.49021,5.40644],[-75.49014,5.40653],[-75.49013,5.40667],[-75.49013,5.40681],[-75.49015,5.40692],[-75.49027,5.40699],[-75.49033,5.40696]]]},"properties":{"FID":5,"OBJECTID":6,"NOMBRE":"Guadual Los Lavaderos","TIPO":"Relicto de Guadua","SHAPE_Leng":615.888361378,"SHAPE_Area":18687.1648215}},{"type":"Feature","id":6,"geometry":{"type":"Polygon","coordinates":[[[-75.48887,5.40541],[-75.48905,5.40549],[-75.48907,5.40549],[-75.48927,5.40547],[-75.48933,5.40547],[-75.48944,5.40543],[-75.48959,5.40546],[-75.48969,5.40554],[-75.48978,5.40558],[-75.48988,5.40561],[-75.49,5.40558],[-75.49016,5.40545],[-75.49025,5.40531],[-75.49024,5.40512],[-75.49021,5.40488],[-75.49019,5.40469],[-75.49011,5.40452],[-75.48994,5.40443],[-75.48971,5.40438],[-75.48942,5.40444],[-75.48901,5.40435],[-75.48891,5.40435],[-75.48883,5.40449],[-75.48886,5.40469],[-75.48883,5.40488],[-75.48881,5.40496],[-75.48879,5.40517],[-75.48881,5.4053],[-75.48887,5.40541]]]},"properties":{"FID":6,"OBJECTID":7,"NOMBRE":"Guadual La Platanera","TIPO":"Relicto de Guadua","SHAPE_Leng":524.412323978,"SHAPE_Area":18242.0080266}},{"type":"Feature","id":7,"geometry":{"type":"Polygon","coordinates":[[[-75.48779,5.40153],[-75.48813,5.40162],[-75.48816,5.40149],[-75.48827,5.40134],[-75.48832,5.40127],[-75.48837,5.40123],[-75.4884,5.40118],[-75.48844,5.40112],[-75.48846,5.40095],[-75.48844,5.40085],[-75.48838,5.40076],[-75.48834,5.40067],[-75.48831,5.40057],[-75.48828,5.4005],[-75.4882,5.40039],[-75.48808,5.40026],[-75.48801,5.4002],[-75.48797,5.40014],[-75.48791,5.40012],[-75.48785,5.40011],[-75.48779,5.40008],[-75.48764,5.40048],[-75.48768,5.40066],[-75.48768,5.40073],[-75.48766,5.40089],[-75.48764,5.40096],[-75.48772,5.40097],[-75.48781,5.401],[-75.48788,5.40107],[-75.4879,5.40113],[-75.48791,5.4012],[-75.48786,5.4013],[-75.48778,5.40144],[-75.48779,5.40153]]]},"properties":{"FID":7,"OBJECTID":8,"NOMBRE":"Guadual Los Alpes","TIPO":"Relicto de Guadua","SHAPE_Leng":439.776167528,"SHAPE_Area":9587.20938245}},{"type":"Feature","id":8,"geometry":{"type":"Polygon","coordinates":[[[-75.48736,5.39972],[-75.48737,5.39981],[-75.48741,5.39998],[-75.48746,5.40011],[-75.4875,5.40019],[-75.48758,5.40036],[-75.48764,5.40049],[-75.48779,5.40008],[-75.48774,5.39996],[-75.48772,5.3998],[-75.4877,5.39967],[-75.48772,5.39959],[-75.48778,5.39948],[-75.48791,5.39936],[-75.488,5.39935],[-75.48815,5.39932],[-75.4883,5.39924],[-75.48841,5.39912],[-75.48846,5.39893],[-75.48841,5.39888],[-75.48829,5.39886],[-75.48812,5.39887],[-75.488,5.39887],[-75.48788,5.39894],[-75.48768,5.39905],[-75.48758,5.39912],[-75.48752,5.39917],[-75.48744,5.39927],[-75.48741,5.39935],[-75.48738,5.39944],[-75.48737,5.39954],[-75.48736,5.39963],[-75.48736,5.39972]]]},"properties":{"FID":8,"OBJECTID":9,"NOMBRE":"Guadual Los Palomos","TIPO":"Relicto de Guadua","SHAPE_Leng":495.391471173,"SHAPE_Area":8404.562333}}]}