{"type":"FeatureCollection","name":"Estaciones_Clima","crs":{"type":"name","properties":{"name":"urn:ogc:def:crs:OGC:1.3:CRS84"}},"features":[{"type":"Feature","id":1,"geometry":{"type":"Point","coordinates":[-75.51715,5.06842]},"properties":{"OBJECTID":1,"id":1,"NOMBRE":"MÓVIL(GOBERNACIÓN)","PROPIETARI":"UniversidadNacionaldeColombia(UN)","TIPO":" ","CLASE":"M M","LUGAR":"TerrazagobernacióndeCaldas","GRADOS":5,"MINUTOS":4,"SEGUNDOS":6.5,"DIRECCION":"N","GRADOS1":75,"MINUTOS1":31,"SEGUNDOS1":1.7,"DIRECCION1":"W","ALTITUD":2256,"CUENCA":" ","SUBCUENCA":" ","x":840345.103,"y":1052395.464}},{"type":"Feature","id":2,"geometry":{"type":"Point","coordinates":[-75.4509,5.60361]},"properties":{"OBJECTID":2,"id":2,"NOMBRE":"AGUADAS_COMUNITARIA","PROPIETARI":"CorporaciónAutónomadeCaldas(Corpocaldas)","TIPO":" ","CLASE":"MET","LUGAR":"EstacióndeBomberosmunicipiodeAguadas","GRADOS":5,"MINUTOS":36,"SEGUNDOS":13.18,"DIRECCION":"N","GRADOS1":75,"MINUTOS1":27,"SEGUNDOS1":3.21,"DIRECCION1":"W","ALTITUD":2173,"CUENCA":" ","SUBCUENCA":" ","x":847824.786,"y":1111579.551}},{"type":"Feature","id":3,"geometry":{"type":"Point","coordinates":[-75.78542,5.23669]},"properties":{"OBJECTID":3,"id":3,"NOMBRE":"ANSERMA_COMUNITARIA","PROPIETARI":"CorporaciónAutónomadeCaldas(Corpocaldas)","TIPO":" ","CLASE":"MET","LUGAR":"EstacióndeBomberosmunicipiodeAnserma","GRADOS":5,"MINUTOS":14,"SEGUNDOS":12.3,"DIRECCION":"N","GRADOS1":75,"MINUTOS1":47,"SEGUNDOS1":7.48,"DIRECCION1":"W","ALTITUD":1790,"CUENCA":" ","SUBCUENCA":" ","x":810635.793,"y":1071084.325}},{"type":"Feature","id":4,"geometry":{"type":"Point","coordinates":[-75.52776,5.06667]},"properties":{"OBJECTID":4,"id":4,"NOMBRE":"ALCAZARESAUT","PROPIETARI":"AlcaldíadeManizales(UGR)","TIPO":"AUT","CLASE":"MET","LUGAR":"InstitutodeValoracióndeManizalesINVAMA","GRADOS":5,"MINUTOS":4,"SEGUNDOS":0.2,"DIRECCION":"N","GRADOS1":75,"MINUTOS1":31,"SEGUNDOS1":39.9,"DIRECCION1":"W","ALTITUD":2057,"CUENCA":"Chinchiná","SUBCUENCA":"LaFrancia","x":839167.668,"y":1052204.496}},{"type":"Feature","id":5,"geometry":{"type":"Point","coordinates":[-75.41828,5.08148]},"properties":{"OBJECTID":5,"id":5,"NOMBRE":"ALTODELACOCAAUT","PROPIETARI":"CorporaciónAutónomadeCaldas(Corpocaldas)","TIPO":"AUT","CLASE":"MET","LUGAR":"AltodeLaCoca-ReservaRíoBlanco","GRADOS":5,"MINUTOS":4,"SEGUNDOS":53.51,"DIRECCION":"N","GRADOS1":75,"MINUTOS1":25,"SEGUNDOS1":5.79,"DIRECCION1":"W","ALTITUD":2930,"CUENCA":" ","SUBCUENCA":" ","x":851313.992,"y":1053816.454}},{"type":"Feature","id":6,"geometry":{"type":"Point","coordinates":[-75.47873,5.09661]},"properties":{"OBJECTID":6,"id":6,"NOMBRE":"ANTENASALTODELGUAMOAUT","PROPIETARI":"CorporaciónAutónomadeCaldas(Corpocaldas)","TIPO":"AUT","CLASE":"MET","LUGAR":"RedSonora-AltodelGuamo","GRADOS":5,"MINUTOS":5,"SEGUNDOS":48,"DIRECCION":"N","GRADOS1":75,"MINUTOS1":28,"SEGUNDOS1":43.41,"DIRECCION1":"W","ALTITUD":2410,"CUENCA":" ","SUBCUENCA":" ","x":844612.732,"y":1055504.906}},{"type":"Feature","id":7,"geometry":{"type":"Point","coordinates":[-75.50045,5.04278]},"properties":{"OBJECTID":7,"id":7,"NOMBRE":"ARANJUEZAUT","PROPIETARI":"AlcaldíadeManizales(UGR)","TIPO":"AUT","CLASE":"MET","LUGAR":"LiceoMixtoAranjuez","GRADOS":5,"MINUTOS":2,"SEGUNDOS":34.2,"DIRECCION":"N","GRADOS1":75,"MINUTOS1":30,"SEGUNDOS1":1.6,"DIRECCION1":"W","ALTITUD":1915,"CUENCA":"Chinchiná","SUBCUENCA":" ","x":842190.684,"y":1049555.306}},{"type":"Feature","id":8,"geometry":{"type":"Point","coordinates":[-75.48542,5.27191]},"properties":{"OBJECTID":8,"id":8,"NOMBRE":"ARANZAZU_COMUNITARIA","PROPIETARI":"CorporaciónAutónomadeCaldas(Corpocaldas)","TIPO":" ","CLASE":"MET","LUGAR":"AlcaldíadelmunicipiodeAranzazu","GRADOS":5,"MINUTOS":16,"SEGUNDOS":19.07,"DIRECCION":"N","GRADOS1":75,"MINUTOS1":29,"SEGUNDOS1":7.48,"DIRECCION1":"W","ALTITUD":196,"CUENCA":" ","SUBCUENCA":" ","x":843914.057,"y":1074897.226}},{"type":"Feature","id":9,"geometry":{"type":"Point","coordinates":[-75.48862,5.083]},"properties":{"OBJECTID":9,"id":9,"NOMBRE":"BOSQUESDELNORTEAUT","PROPIETARI":"AlcaldíadeManizales(UGR)","TIPO":"AUT","CLASE":"MET","LUGAR":"ColegioBosquesdelNorte","GRADOS":5,"MINUTOS":4,"SEGUNDOS":59,"DIRECCION":"N","GRADOS1":75,"MINUTOS1":29,"SEGUNDOS1":19,"DIRECCION1":"W","ALTITUD":2126,"CUENCA":"Chinchiná","SUBCUENCA":"Chinchiná","x":843512.934,"y":1054001.681}},{"type":"Feature","id":10,"geometry":{"type":"Point","coordinates":[-75.60324,4.99176]},"properties":{"OBJECTID":10,"id":10,"NOMBRE":"CENICAFÉAUT","PROPIETARI":"GobernacióndeCaldas(UDEGER)","TIPO":"AUT","CLASE":"HMT","LUGAR":"Chinchiná","GRADOS":4,"MINUTOS":59,"SEGUNDOS":30.52,"DIRECCION":"N","GRADOS1":75,"MINUTOS1":36,"SEGUNDOS1":11.63,"DIRECCION1":"W","ALTITUD":1289,"CUENCA":" ","SUBCUENCA":" ","x":830775.757,"y":1043936.864}},{"type":"Feature","id":11,"geometry":{"type":"Point","coordinates":[-75.53505,5.05188]},"properties":{"OBJECTID":11,"id":11,"NOMBRE":"CHECURIBEAUT","PROPIETARI":"CHEC","TIPO":"AUT","CLASE":"MET","LUGAR":"SedeAdministraciónEstaciónUribeCHECS.AE.S.P","GRADOS":5,"MINUTOS":3,"SEGUNDOS":6.95,"DIRECCION":"N","GRADOS1":75,"MINUTOS1":32,"SEGUNDOS1":6.14,"DIRECCION1":"W","ALTITUD":1940,"CUENCA":"Chinchiná","SUBCUENCA":"Chinchiná","x":838355.507,"y":1050570.075}},{"type":"Feature","id":12,"geometry":{"type":"Point","coordinates":[-75.60142,4.98213]},"properties":{"OBJECTID":12,"id":12,"NOMBRE":"CHINCHINÁBOMBEROSUDEGER","PROPIETARI":"GobernacióndeCaldas(UDEGER)","TIPO":" ","CLASE":"MET","LUGAR":"EstacióndebomberosChinchiná","GRADOS":4,"MINUTOS":58,"SEGUNDOS":55.87,"DIRECCION":"N","GRADOS1":75,"MINUTOS1":36,"SEGUNDOS1":5.1,"DIRECCION1":"W","ALTITUD":1378,"CUENCA":" ","SUBCUENCA":" ","x":830974.534,"y":1042871.67}},{"type":"Feature","id":13,"geometry":{"type":"Point","coordinates":[-75.33947,4.89377]},"properties":{"OBJECTID":13,"id":13,"NOMBRE":"CUMANDAYP.N.N.NAUT","PROPIETARI":"CorporaciónAutónomadeCaldas(Corpocaldas)","TIPO":"AUT","CLASE":"MET","LUGAR":"ParqueNacionalNaturalLosNevados","GRADOS":4,"MINUTOS":53,"SEGUNDOS":37.7,"DIRECCION":"N","GRADOS1":75,"MINUTOS1":20,"SEGUNDOS1":22.1,"DIRECCION1":"W","ALTITUD":5072,"CUENCA":"Chinchiná","SUBCUENCA":"Molinos","x":860016.223,"y":1033036.651}},{"type":"Feature","id":14,"geometry":{"type":"Point","coordinates":[-75.51973,5.06133]},"properties":{"OBJECTID":14,"id":14,"NOMBRE":"ELCARMENAUT","PROPIETARI":"AlcaldíadeManizales(UGR)","TIPO":"AUT","CLASE":"MET","LUGAR":"CentroCulturalyComunitarioElCarmen","GRADOS":5,"MINUTOS":3,"SEGUNDOS":41,"DIRECCION":"N","GRADOS1":75,"MINUTOS1":31,"SEGUNDOS1":11,"DIRECCION1":"W","ALTITUD":2112,"CUENCA":"Chinchiná","SUBCUENCA":" ","x":840056.82,"y":1051612.558}},{"type":"Feature","id":15,"geometry":{"type":"Point","coordinates":[-75.43844,5.07246]},"properties":{"OBJECTID":15,"id":15,"NOMBRE":"ELMIRADORAUT","PROPIETARI":"CorporaciónAutónomadeCaldas(Corpocaldas)","TIPO":"AUT","CLASE":"MET","LUGAR":"ElMirador-ReservaRíoBlanco","GRADOS":5,"MINUTOS":4,"SEGUNDOS":21.05,"DIRECCION":"N","GRADOS1":75,"MINUTOS1":26,"SEGUNDOS1":18.35,"DIRECCION1":"W","ALTITUD":2570,"CUENCA":" ","SUBCUENCA":" ","x":849076.345,"y":1052823.74}},{"type":"Feature","id":16,"geometry":{"type":"Point","coordinates":[-75.50895,5.08034]},"properties":{"OBJECTID":16,"id":16,"NOMBRE":"EMASAUT","PROPIETARI":"EmpresaMetropolitanadeAseoManizales","TIPO":"AUT","CLASE":"MET","LUGAR":"RellenoSanitarioLaEsmeralda-EMASS.AE.S.P","GRADOS":5,"MINUTOS":4,"SEGUNDOS":49.42,"DIRECCION":"N","GRADOS1":75,"MINUTOS1":30,"SEGUNDOS1":32.19,"DIRECCION1":"W","ALTITUD":2060,"CUENCA":"Chinchiná","SUBCUENCA":"Olivares","x":841257.256,"y":1053712.257}},{"type":"Feature","id":17,"geometry":{"type":"Point","coordinates":[-75.41925,5.03437]},"properties":{"OBJECTID":17,"id":17,"NOMBRE":"FINCALAPAZAUT","PROPIETARI":"CorporaciónAutónomadeCaldas(Corpocaldas)","TIPO":"AUT","CLASE":"MET","LUGAR":"FincaLaPazkm9víaalMagdalena","GRADOS":5,"MINUTOS":2,"SEGUNDOS":3.93,"DIRECCION":"N","GRADOS1":75,"MINUTOS1":25,"SEGUNDOS1":9.27,"DIRECCION1":"W","ALTITUD":2502,"CUENCA":" ","SUBCUENCA":" ","x":851196.054,"y":1048606.201}},{"type":"Feature","id":18,"geometry":{"type":"Point","coordinates":[-75.51752,5.06864]},"properties":{"OBJECTID":18,"id":18,"NOMBRE":"GOBERNACIÓNDECALDASUDEGER","PROPIETARI":"GobernacióndeCaldas(UDEGER)","TIPO":" ","CLASE":"MET","LUGAR":"EdificiodelaGobernacióndeCaldas","GRADOS":5,"MINUTOS":4,"SEGUNDOS":7.3,"DIRECCION":"N","GRADOS1":75,"MINUTOS1":31,"SEGUNDOS1":3.06,"DIRECCION1":"O","ALTITUD":2200,"CUENCA":" ","SUBCUENCA":" ","x":840303.254,"y":1052420.138}},{"type":"Feature","id":19,"geometry":{"type":"Point","coordinates":[-75.41131,5.05445]},"properties":{"OBJECTID":19,"id":19,"NOMBRE":"HACIENDAMANZANARESAUT","PROPIETARI":"CorporaciónAutónomadeCaldas(Corpocaldas)","TIPO":"AUT","CLASE":"MET","LUGAR":"HaciendaManzanares(partealtacuencaQ.Manizales)","GRADOS":5,"MINUTOS":3,"SEGUNDOS":16.2,"DIRECCION":"N","GRADOS1":75,"MINUTOS1":24,"SEGUNDOS1":40.68,"DIRECCION1":"W","ALTITUD":2900,"CUENCA":" ","SUBCUENCA":" ","x":852081.494,"y":1050824.946}},{"type":"Feature","id":20,"geometry":{"type":"Point","coordinates":[-75.50059,5.06289]},"properties":{"OBJECTID":20,"id":20,"NOMBRE":"HOSPITALDECALDASAUT","PROPIETARI":"AlcaldíadeManizales(UGR)","TIPO":"AUT","CLASE":"MET","LUGAR":"Manizales","GRADOS":5,"MINUTOS":3,"SEGUNDOS":46.6,"DIRECCION":"N","GRADOS1":75,"MINUTOS1":30,"SEGUNDOS1":2.1,"DIRECCION1":"W","ALTITUD":2183,"CUENCA":"Chinchiná","SUBCUENCA":" ","x":842180.129,"y":1051779.96}},{"type":"Feature","id":21,"geometry":{"type":"Point","coordinates":[-75.52431,5.07139]},"properties":{"OBJECTID":21,"id":21,"NOMBRE":"INGEOMINASAUT","PROPIETARI":"AlcaldíadeManizales(UGR)","TIPO":"AUT","CLASE":"MET","LUGAR":"ObservatorioVulcanológicoySismológico-BarrioChipre","GRADOS":5,"MINUTOS":4,"SEGUNDOS":17.2,"DIRECCION":"N","GRADOS1":75,"MINUTOS1":31,"SEGUNDOS1":27.5,"DIRECCION1":"W","ALTITUD":2226,"CUENCA":"Chinchiná","SUBCUENCA":"LaFrancia","x":839550.896,"y":1052726.007}},{"type":"Feature","id":22,"geometry":{"type":"Point","coordinates":[-74.73701,5.34366]},"properties":{"OBJECTID":22,"id":22,"NOMBRE":"LADORADAALCALDÍA_COMUNITARIA","PROPIETARI":"CorporaciónAutónomadeCaldas(Corpocaldas)","TIPO":" ","CLASE":"MET","LUGAR":"AlcaldíadelmunicipioLaDorada","GRADOS":5,"MINUTOS":20,"SEGUNDOS":37.37,"DIRECCION":"N","GRADOS1":74,"MINUTOS1":44,"SEGUNDOS1":13.18,"DIRECCION1":"W","ALTITUD":164,"CUENCA":" ","SUBCUENCA":" ","x":926899.495,"y":1082695.179}},{"type":"Feature","id":23,"geometry":{"type":"Point","coordinates":[-74.73682,5.34358]},"properties":{"OBJECTID":23,"id":23,"NOMBRE":"LADORADAGUARINOCITO_COMUNITARIA","PROPIETARI":"CorporaciónAutónomadeCaldas(Corpocaldas)","TIPO":" ","CLASE":"MET","LUGAR":"EstacióndePolicíaGuarinocitoLaDorada","GRADOS":5,"MINUTOS":20,"SEGUNDOS":37.07,"DIRECCION":"N","GRADOS1":74,"MINUTOS1":44,"SEGUNDOS1":12.52,"DIRECCION1":"W","ALTITUD":203,"CUENCA":" ","SUBCUENCA":" ","x":926919.807,"y":1082685.941}},{"type":"Feature","id":24,"geometry":{"type":"Point","coordinates":[-74.66379,5.45624]},"properties":{"OBJECTID":24,"id":24,"NOMBRE":"LADORADABOMBEROSUDEGER","PROPIETARI":"GobernacióndeCaldas(UDEGER)","TIPO":" ","CLASE":"MET","LUGAR":"EstacióndebomberoslaDorada","GRADOS":5,"MINUTOS":27,"SEGUNDOS":22.66,"DIRECCION":"N","GRADOS1":74,"MINUTOS1":39,"SEGUNDOS1":49.61,"DIRECCION1":"W","ALTITUD":173,"CUENCA":" ","SUBCUENCA":" ","x":935026.795,"y":1095137.263}},{"type":"Feature","id":25,"geometry":{"type":"Point","coordinates":[-75.47167,5.02967]},"properties":{"OBJECTID":25,"id":25,"NOMBRE":"LANUBIAAUT","PROPIETARI":"UGR","TIPO":"AUT","CLASE":"MET","LUGAR":"CampusLaNubiaUniversidadNacionaldeColombiaBloqueW","GRADOS":5,"MINUTOS":1,"SEGUNDOS":47,"DIRECCION":"N","GRADOS1":75,"MINUTOS1":28,"SEGUNDOS1":18,"DIRECCION1":"W","ALTITUD":2091,"CUENCA":"Chinchiná","SUBCUENCA":"Chinchiná","x":845379.757,"y":1048098.145}},{"type":"Feature","id":26,"geometry":{"type":"Point","coordinates":[-75.52942,5.09592]},"properties":{"OBJECTID":26,"id":26,"NOMBRE":"LAPALMAAUT","PROPIETARI":"AlcaldíadeManizales(UGR)","TIPO":"AUT","CLASE":"MET","LUGAR":"HospitalGeriátricoSanIsidro","GRADOS":5,"MINUTOS":5,"SEGUNDOS":45.5,"DIRECCION":"N","GRADOS1":75,"MINUTOS1":31,"SEGUNDOS1":45.9,"DIRECCION1":"W","ALTITUD":1967,"CUENCA":"Chinchiná","SUBCUENCA":"Guacaica","x":838990.036,"y":1055440.484}},{"type":"Feature","id":27,"geometry":{"type":"Point","coordinates":[-75.47501,5.06631]},"properties":{"OBJECTID":27,"id":27,"NOMBRE":"LICEOISABELLACATÓLICA","PROPIETARI":"CorporaciónAutónomadeCaldas(Corpocaldas)","TIPO":" ","CLASE":"MET","LUGAR":"ColegioIsabelLaCatólica","GRADOS":5,"MINUTOS":3,"SEGUNDOS":58.9,"DIRECCION":"N","GRADOS1":75,"MINUTOS1":28,"SEGUNDOS1":30,"DIRECCION1":"W","ALTITUD":2156,"CUENCA":" ","SUBCUENCA":" ","x":845018.672,"y":1052151.752}},{"type":"Feature","id":28,"geometry":{"type":"Point","coordinates":[-75.15395,5.26108]},"properties":{"OBJECTID":28,"id":28,"NOMBRE":"MANZANARESAUT","PROPIETARI":"CorporaciónAutónomadeCaldas(Corpocaldas)","TIPO":"AUT","CLASE":"MET","LUGAR":"Antiguobotaderodebasura","GRADOS":5,"MINUTOS":15,"SEGUNDOS":40.1,"DIRECCION":"N","GRADOS1":75,"MINUTOS1":9,"SEGUNDOS1":14.2,"DIRECCION1":"W","ALTITUD":1941,"CUENCA":"Guarinó","SUBCUENCA":" ","x":880664.174,"y":1073627.008}},{"type":"Feature","id":29,"geometry":{"type":"Point","coordinates":[-75.12653,5.18454]},"properties":{"OBJECTID":29,"id":29,"NOMBRE":"MANZANARESAGUABONITA_COMUNITARIA","PROPIETARI":"CorporaciónAutónomadeCaldas(Corpocaldas)","TIPO":" ","CLASE":"MET","LUGAR":"ColegioAguabonitamunicipioManzanares","GRADOS":5,"MINUTOS":11,"SEGUNDOS":4.54,"DIRECCION":"N","GRADOS1":75,"MINUTOS1":7,"SEGUNDOS1":35.46,"DIRECCION1":"W","ALTITUD":1892,"CUENCA":" ","SUBCUENCA":" ","x":883691.107,"y":1065155.921}},{"type":"Feature","id":30,"geometry":{"type":"Point","coordinates":[-75.15668,5.25189]},"properties":{"OBJECTID":30,"id":30,"NOMBRE":"MANZANARESALCALDÍA_COMUNITARIA","PROPIETARI":"CorporaciónAutónomadeCaldas(Corpocaldas)","TIPO":" ","CLASE":"MET","LUGAR":"AlcaldíadelmunicipiodeManzanares","GRADOS":5,"MINUTOS":15,"SEGUNDOS":7,"DIRECCION":"N","GRADOS1":75,"MINUTOS1":9,"SEGUNDOS1":24,"DIRECCION1":"W","ALTITUD":1830,"CUENCA":" ","SUBCUENCA":" ","x":880360.606,"y":1072610.595}},{"type":"Feature","id":31,"geometry":{"type":"Point","coordinates":[-75.1548,5.25354]},"properties":{"OBJECTID":31,"id":31,"NOMBRE":"MANZANARESALCALDÍAUDEGER","PROPIETARI":"GobernacióndeCaldas(UDEGER)","TIPO":" ","CLASE":"MET","LUGAR":"AlcaldíadeManzanares","GRADOS":5,"MINUTOS":15,"SEGUNDOS":12.95,"DIRECCION":"N","GRADOS1":75,"MINUTOS1":9,"SEGUNDOS1":17.25,"DIRECCION1":"W","ALTITUD":1871,"CUENCA":" ","SUBCUENCA":" ","x":880568.809,"y":1072793.04}},{"type":"Feature","id":32,"geometry":{"type":"Point","coordinates":[-75.05726,5.299]},"properties":{"OBJECTID":32,"id":32,"NOMBRE":"MARQUETALIAALCALDÍAAUT","PROPIETARI":"CorporaciónAutónomadeCaldas(Corpocaldas)","TIPO":"AUT","CLASE":"MET","LUGAR":"Marquetalia","GRADOS":5,"MINUTOS":17,"SEGUNDOS":56.6,"DIRECCION":"N","GRADOS1":75,"MINUTOS1":3,"SEGUNDOS1":26.1,"DIRECCION1":"W","ALTITUD":1591,"CUENCA":" ","SUBCUENCA":" ","x":891391.359,"y":1077803.012}},{"type":"Feature","id":33,"geometry":{"type":"Point","coordinates":[-75.34954,5.30086]},"properties":{"OBJECTID":33,"id":33,"NOMBRE":"MARULANDAELPARAMOAUT","PROPIETARI":"CorporaciónAutónomadeCaldas(Corpocaldas)","TIPO":"AUT","CLASE":"MET","LUGAR":"VeredaElPáramo","GRADOS":5,"MINUTOS":18,"SEGUNDOS":3.3,"DIRECCION":"N","GRADOS1":75,"MINUTOS1":20,"SEGUNDOS1":58.3,"DIRECCION1":"W","ALTITUD":3110,"CUENCA":" ","SUBCUENCA":" ","x":858987.535,"y":1078067.438}},{"type":"Feature","id":34,"geometry":{"type":"Point","coordinates":[-75.47992,5.05427]},"properties":{"OBJECTID":34,"id":34,"NOMBRE":"MILANPLANTANIZAAUT","PROPIETARI":"UGR","TIPO":"AUT","CLASE":"MET","LUGAR":"PlantadetratamientoNiza-AguasdeManizalesS.AE.S.P","GRADOS":5,"MINUTOS":3,"SEGUNDOS":15.57,"DIRECCION":"N","GRADOS1":75,"MINUTOS1":28,"SEGUNDOS1":47.67,"DIRECCION1":"W","ALTITUD":2150,"CUENCA":"Chinchiná","SUBCUENCA":"Olivares","x":844471.374,"y":1050821.542}},{"type":"Feature","id":35,"geometry":{"type":"Point","coordinates":[-75.51715,5.15842]},"properties":{"OBJECTID":35,"id":35,"NOMBRE":"NEIRAHOGARESJUVENILESAUT","PROPIETARI":"CorporaciónAutónomadeCaldas(Corpocaldas)","TIPO":"AUT","CLASE":"MET","LUGAR":"GranjasJuvenilesCampesinas","GRADOS":5,"MINUTOS":9,"SEGUNDOS":30.5,"DIRECCION":"N","GRADOS1":75,"MINUTOS1":31,"SEGUNDOS1":1.7,"DIRECCION1":"W","ALTITUD":2053,"CUENCA":"Chinchiná","SUBCUENCA":"Guacaica","x":840367.327,"y":1062351.035}},{"type":"Feature","id":36,"geometry":{"type":"Point","coordinates":[-74.88849,5.57563]},"properties":{"OBJECTID":36,"id":36,"NOMBRE":"NORCASIA_COMUNITARIA","PROPIETARI":"CorporaciónAutónomadeCaldas(Corpocaldas)","TIPO":" ","CLASE":"MET","LUGAR":"AlcaldíadelmunicipiodeNorcasia","GRADOS":5,"MINUTOS":34,"SEGUNDOS":32.46,"DIRECCION":"N","GRADOS1":74,"MINUTOS1":53,"SEGUNDOS1":18.52,"DIRECCION1":"W","ALTITUD":726,"CUENCA":" ","SUBCUENCA":" ","x":910142.266,"y":1108369.79}},{"type":"Feature","id":37,"geometry":{"type":"Point","coordinates":[-75.1608,5.38378]},"properties":{"OBJECTID":37,"id":37,"NOMBRE":"PENSILVANIAALCALDÍAUDEGER","PROPIETARI":"GobernacióndeCaldas(UDEGER)","TIPO":" ","CLASE":"MET","LUGAR":"AlcaldíadePensilvania","GRADOS":5,"MINUTOS":23,"SEGUNDOS":1.8,"DIRECCION":"N","GRADOS1":75,"MINUTOS1":9,"SEGUNDOS1":38.84,"DIRECCION1":"W","ALTITUD":2050,"CUENCA":" ","SUBCUENCA":" ","x":879929.009,"y":1087198.707}},{"type":"Feature","id":38,"geometry":{"type":"Point","coordinates":[-75.16007,5.38195]},"properties":{"OBJECTID":38,"id":38,"NOMBRE":"PENSILVANIA_COMUNITARIA","PROPIETARI":"CorporaciónAutónomadeCaldas(Corpocaldas)","TIPO":" ","CLASE":"MET","LUGAR":"EstacióndeBomberosmunicipiodePensilvania","GRADOS":5,"MINUTOS":22,"SEGUNDOS":55.22,"DIRECCION":"N","GRADOS1":75,"MINUTOS1":9,"SEGUNDOS1":36.22,"DIRECCION1":"W","ALTITUD":2036,"CUENCA":" ","SUBCUENCA":" ","x":880009.328,"y":1086996.406}},{"type":"Feature","id":39,"geometry":{"type":"Point","coordinates":[-75.4994,5.07388]},"properties":{"OBJECTID":39,"id":39,"NOMBRE":"PERALONSOCHECAUT","PROPIETARI":"CorporaciónAutónomadeCaldas(Corpocaldas)","TIPO":"AUT","CLASE":"MET","LUGAR":"SubestaciónPeralonsoCHEC","GRADOS":5,"MINUTOS":4,"SEGUNDOS":26.16,"DIRECCION":"N","GRADOS1":75,"MINUTOS1":29,"SEGUNDOS1":57.82,"DIRECCION1":"W","ALTITUD":2094,"CUENCA":" ","SUBCUENCA":" ","x":842314.659,"y":1052995.224}},{"type":"Feature","id":40,"geometry":{"type":"Point","coordinates":[-75.4043,4.89565]},"properties":{"OBJECTID":40,"id":40,"NOMBRE":"PIRINEOSCHEC","PROPIETARI":"CentralHidroeléctricadeCaldas(CHEC)","TIPO":"AUT","CLASE":"MET","LUGAR":"Pirineos","GRADOS":4,"MINUTOS":53,"SEGUNDOS":44.5,"DIRECCION":"N","GRADOS1":75,"MINUTOS1":24,"SEGUNDOS1":15.5,"DIRECCION1":"W","ALTITUD":3358,"CUENCA":" ","SUBCUENCA":" ","x":852823.753,"y":1033259.109}},{"type":"Feature","id":41,"geometry":{"type":"Point","coordinates":[-75.49208,5.05602]},"properties":{"OBJECTID":41,"id":41,"NOMBRE":"POSGRADOSAUT","PROPIETARI":"UniversidadNacionaldeColombia(UN)","TIPO":"AUT","CLASE":"MET","LUGAR":"CampusPalograndeUniversidadNacionaldeColombiaBloqueI","GRADOS":5,"MINUTOS":3,"SEGUNDOS":21.86,"DIRECCION":"N","GRADOS1":75,"MINUTOS1":29,"SEGUNDOS1":31.46,"DIRECCION1":"W","ALTITUD":2179,"CUENCA":"Chinchiná","SUBCUENCA":"SanLuis","x":843122.544,"y":1051017.725}},{"type":"Feature","id":42,"geometry":{"type":"Point","coordinates":[-75.48659,5.39036]},"properties":{"OBJECTID":42,"id":42,"NOMBRE":"SALAMINACHEC","PROPIETARI":"CorporaciónAutónomadeCaldas(Corpocaldas)","TIPO":" ","CLASE":"MET","LUGAR":"SubestaciónHidroeléctrica","GRADOS":5,"MINUTOS":23,"SEGUNDOS":25.5,"DIRECCION":"N","GRADOS1":75,"MINUTOS1":29,"SEGUNDOS1":11.7,"DIRECCION1":"W","ALTITUD":2078,"CUENCA":" ","SUBCUENCA":" ","x":843813.922,"y":1088000.377}},{"type":"Feature","id":43,"geometry":{"type":"Point","coordinates":[-75.48734,5.40337]},"properties":{"OBJECTID":43,"id":43,"NOMBRE":"SALAMINA_COMUNITARIA","PROPIETARI":"CorporaciónAutónomadeCaldas(Corpocaldas)","TIPO":" ","CLASE":"MET","LUGAR":"EstacióndeBomberosmunicipiodeSalamina","GRADOS":5,"MINUTOS":24,"SEGUNDOS":0,"DIRECCION":"N","GRADOS1":75,"MINUTOS1":29,"SEGUNDOS1":14.4,"DIRECCION1":"W","ALTITUD":1793,"CUENCA":" ","SUBCUENCA":" ","x":843734.094,"y":1089439.511}},{"type":"Feature","id":44,"geometry":{"type":"Point","coordinates":[-75.79005,5.091]},"properties":{"OBJECTID":44,"id":44,"NOMBRE":"SANJOSÉ","PROPIETARI":"CorporaciónAutónomadeCaldas(Corpocaldas)","TIPO":" ","CLASE":"MET","LUGAR":"CentroEducativoSantaTeresita","GRADOS":5,"MINUTOS":5,"SEGUNDOS":27.8,"DIRECCION":"N","GRADOS1":75,"MINUTOS1":47,"SEGUNDOS1":24.15,"DIRECCION1":"W","ALTITUD":1728,"CUENCA":" ","SUBCUENCA":" ","x":810078.982,"y":1054967.254}},{"type":"Feature","id":45,"geometry":{"type":"Point","coordinates":[-75.36327,4.82346]},"properties":{"OBJECTID":45,"id":45,"NOMBRE":"SANTAISABELPNNN","PROPIETARI":"CorporaciónAutónomadeCaldas(Corpocaldas)","TIPO":" ","CLASE":"MET","LUGAR":"ParqueNacionalNaturalLosNevados","GRADOS":4,"MINUTOS":49,"SEGUNDOS":24.6,"DIRECCION":"N","GRADOS1":75,"MINUTOS1":21,"SEGUNDOS1":47.8,"DIRECCION1":"W","ALTITUD":4812,"CUENCA":" ","SUBCUENCA":" ","x":857360.742,"y":1025265.076}},{"type":"Feature","id":46,"geometry":{"type":"Point","coordinates":[-74.61068,5.32109]},"properties":{"OBJECTID":46,"id":46,"NOMBRE":"VICTORIACAÑAVERAL_COMUNITARIA","PROPIETARI":"CorporaciónAutónomadeCaldas(Corpocaldas)","TIPO":" ","CLASE":"MET","LUGAR":"ColegioCañaveralmunicipioVictoria","GRADOS":5,"MINUTOS":19,"SEGUNDOS":16.1,"DIRECCION":"N","GRADOS1":74,"MINUTOS1":36,"SEGUNDOS1":38.41,"DIRECCION1":"W","ALTITUD":1041,"CUENCA":" ","SUBCUENCA":" ","x":940899.804,"y":1080185.181}},{"type":"Feature","id":47,"geometry":{"type":"Point","coordinates":[-74.91218,5.332]},"properties":{"OBJECTID":47,"id":47,"NOMBRE":"VICTORIA_COMUNITARIA","PROPIETARI":"CorporaciónAutónomadeCaldas(Corpocaldas)","TIPO":" ","CLASE":"MET","LUGAR":"EstacióndeBomberosmunicipioVictoria","GRADOS":5,"MINUTOS":19,"SEGUNDOS":0,"DIRECCION":"N","GRADOS1":74,"MINUTOS1":54,"SEGUNDOS1":43.81,"DIRECCION1":"W","ALTITUD":936,"CUENCA":" ","SUBCUENCA":" ","x":907479.952,"y":1081429.254}},{"type":"Feature","id":48,"geometry":{"type":"Point","coordinates":[-75.51195,5.0453]},"properties":{"OBJECTID":48,"id":48,"NOMBRE":"VILLAMARÍAALCADÍAUDEGER","PROPIETARI":"GobernacióndeCaldas(UDEGER)","TIPO":" ","CLASE":"MET","LUGAR":"AlcaldíadeVillamaría","GRADOS":5,"MINUTOS":2,"SEGUNDOS":43.27,"DIRECCION":"N","GRADOS1":75,"MINUTOS1":30,"SEGUNDOS1":43.01,"DIRECCION1":"W","ALTITUD":1920,"CUENCA":" ","SUBCUENCA":" ","x":840915.345,"y":1049836.787}},{"type":"Feature","id":49,"geometry":{"type":"Point","coordinates":[-75.51859,5.04839]},"properties":{"OBJECTID":49,"id":49,"NOMBRE":"VILLAMARÍAHOSPITAL","PROPIETARI":"CorporaciónAutónomadeCaldas(Corpocaldas)","TIPO":" ","CLASE":"MET","LUGAR":"HospitalSanAntonio","GRADOS":5,"MINUTOS":2,"SEGUNDOS":54.4,"DIRECCION":"N","GRADOS1":75,"MINUTOS1":31,"SEGUNDOS1":6.9,"DIRECCION1":"W","ALTITUD":1790,"CUENCA":" ","SUBCUENCA":" ","x":840179.986,"y":1050180.398}},{"type":"Feature","id":50,"geometry":{"type":"Point","coordinates":[-75.87326,5.06094]},"properties":{"OBJECTID":50,"id":50,"NOMBRE":"VITERBO_COMUNITARIA","PROPIETARI":"CorporaciónAutónomadeCaldas(Corpocaldas)","TIPO":" ","CLASE":"MET","LUGAR":"EstacióndeLaDefensaCivilmunicipiodeViterbo","GRADOS":5,"MINUTOS":3,"SEGUNDOS":39.58,"DIRECCION":"N","GRADOS1":75,"MINUTOS1":52,"SEGUNDOS1":23.71,"DIRECCION1":"W","ALTITUD":980,"CUENCA":" ","SUBCUENCA":" ","x":800838.794,"y":1051666.412}},{"type":"Feature","id":51,"geometry":{"type":"Point","coordinates":[-75.48129,5.06317]},"properties":{"OBJECTID":51,"id":51,"NOMBRE":"YARUMOS","PROPIETARI":"AlcaldíadeManizales(UGR)","TIPO":" ","CLASE":"MET","LUGAR":"BiliotecaOrlandoSierraHernández-EcoparqueLosYarumos","GRADOS":5,"MINUTOS":3,"SEGUNDOS":47.6,"DIRECCION":"N","GRADOS1":75,"MINUTOS1":28,"SEGUNDOS1":52.63,"DIRECCION1":"W","ALTITUD":2195,"CUENCA":" ","SUBCUENCA":" ","x":844320.667,"y":1051806.042}},{"type":"Feature","id":52,"geometry":{"type":"Point","coordinates":[-75.43425,5.0377]},"properties":{"OBJECTID":52,"id":52,"NOMBRE":"Q.TESORITOAUT","PROPIETARI":"CorporaciónAutónomadeCaldas(Corpocaldas)","TIPO":"AUT","CLASE":"HMT","LUGAR":"QuebradaTesorito-Manizales","GRADOS":5,"MINUTOS":2,"SEGUNDOS":15.9,"DIRECCION":"N","GRADOS1":75,"MINUTOS1":26,"SEGUNDOS1":3.26,"DIRECCION1":"W","ALTITUD":2314,"CUENCA":"Chinchiná","SUBCUENCA":"Tesorito","x":849533.277,"y":1048977.416}},{"type":"Feature","id":53,"geometry":{"type":"Point","coordinates":[-75.45682,5.03795]},"properties":{"OBJECTID":53,"id":53,"NOMBRE":"Q.CRISTALESVALLEDELAALHAMBRAAUT","PROPIETARI":"CorporaciónAutónomadeCaldas(Corpocaldas)","TIPO":"AUT","CLASE":"HMT","LUGAR":"ConjuntoCerradoVallesdeLaAlhambra","GRADOS":5,"MINUTOS":2,"SEGUNDOS":16.81,"DIRECCION":"N","GRADOS1":75,"MINUTOS1":27,"SEGUNDOS1":24.54,"DIRECCION1":"W","ALTITUD":2102,"CUENCA":" ","SUBCUENCA":" ","x":847028.931,"y":1049010.61}},{"type":"Feature","id":54,"geometry":{"type":"Point","coordinates":[-75.51123,5.11188]},"properties":{"OBJECTID":54,"id":54,"NOMBRE":"Q.ELBOHÍOAUT","PROPIETARI":"CorporaciónAutónomadeCaldas(Corpocaldas)","TIPO":"AUT","CLASE":"HMT","LUGAR":"VeredaElÁguila-VíaaNeira","GRADOS":5,"MINUTOS":6,"SEGUNDOS":42.95,"DIRECCION":"N","GRADOS1":75,"MINUTOS1":30,"SEGUNDOS1":40.4,"DIRECCION1":"W","ALTITUD":1690,"CUENCA":" ","SUBCUENCA":" ","x":841012.027,"y":1057201.249}},{"type":"Feature","id":55,"geometry":{"type":"Point","coordinates":[-75.49031,5.08986]},"properties":{"OBJECTID":55,"id":55,"NOMBRE":"Q.ELGUAMOCDISANSEBASTIAN","PROPIETARI":"CorporaciónAutónomadeCaldas(Corpocaldas)","TIPO":"AUT","CLASE":"HMT","LUGAR":"CDISansebastían","GRADOS":5,"MINUTOS":5,"SEGUNDOS":23.7,"DIRECCION":"N","GRADOS1":75,"MINUTOS1":29,"SEGUNDOS1":25.1,"DIRECCION1":"W","ALTITUD":1659,"CUENCA":" ","SUBCUENCA":" ","x":843326.643,"y":1054761.04}},{"type":"Feature","id":56,"geometry":{"type":"Point","coordinates":[-75.49579,5.07078]},"properties":{"OBJECTID":56,"id":56,"NOMBRE":"Q.ELGUAMOLAVADEROLOSPUENTESAUT","PROPIETARI":"CorporaciónAutónomadeCaldas(Corpocaldas)","TIPO":"AUT","CLASE":"HMT","LUGAR":"LavaderoLosPuentes-Av.KevinAngel,crucevíaalGuamo","GRADOS":5,"MINUTOS":4,"SEGUNDOS":15,"DIRECCION":"N","GRADOS1":75,"MINUTOS1":29,"SEGUNDOS1":44.81,"DIRECCION1":"W","ALTITUD":2032,"CUENCA":" ","SUBCUENCA":" ","x":842714.762,"y":1052651.438}},{"type":"Feature","id":57,"geometry":{"type":"Point","coordinates":[-75.4749,5.04208]},"properties":{"OBJECTID":57,"id":57,"NOMBRE":"Q.ELPERROEXPOFERIASAUT","PROPIETARI":"CorporaciónAutónomadeCaldas(Corpocaldas)","TIPO":"AUT","CLASE":"HMT","LUGAR":"SectorExpoferias","GRADOS":5,"MINUTOS":2,"SEGUNDOS":31.69,"DIRECCION":"N","GRADOS1":75,"MINUTOS1":28,"SEGUNDOS1":29.6,"DIRECCION1":"W","ALTITUD":2032,"CUENCA":" ","SUBCUENCA":" ","x":845025.258,"y":1049472.071}},{"type":"Feature","id":58,"geometry":{"type":"Point","coordinates":[-75.54764,5.06387]},"properties":{"OBJECTID":58,"id":58,"NOMBRE":"Q.ELROSARIOSANMARCOSDE","PROPIETARI":"CorporaciónAutónomadeCaldas(Corpocaldas)","TIPO":"AUT","CLASE":"HMT","LUGAR":"AutopistasdelCafé-RestauranteSanMarcosdeLeón","GRADOS":5,"MINUTOS":3,"SEGUNDOS":50.14,"DIRECCION":"N","GRADOS1":75,"MINUTOS1":32,"SEGUNDOS1":51.47,"DIRECCION1":"W","ALTITUD":1630,"CUENCA":" ","SUBCUENCA":" ","x":836961.762,"y":1051900.326}},{"type":"Feature","id":59,"geometry":{"type":"Point","coordinates":[-75.52619,5.08909]},"properties":{"OBJECTID":59,"id":59,"NOMBRE":"Q.ELTRIUNFOMIRADORDEVILLAPILARAUT","PROPIETARI":"CorporaciónAutónomadeCaldas(Corpocaldas)","TIPO":"AUT","CLASE":"HMT","LUGAR":"ConjuntoCerradoMiradordeVillapilar-BarrioVillapilar","GRADOS":5,"MINUTOS":5,"SEGUNDOS":20.93,"DIRECCION":"N","GRADOS1":75,"MINUTOS1":31,"SEGUNDOS1":34.25,"DIRECCION1":"W","ALTITUD":2046,"CUENCA":" ","SUBCUENCA":" ","x":839347.288,"y":1054684.712}},{"type":"Feature","id":60,"geometry":{"type":"Point","coordinates":[-75.44569,5.04138]},"properties":{"OBJECTID":60,"id":60,"NOMBRE":"Q.GUAYABALRECINTODELPENSAMIENTOAUT","PROPIETARI":"CorporaciónAutónomadeCaldas(Corpocaldas)","TIPO":"AUT","CLASE":"HMT","LUGAR":"RecintodelPensamiento-SectorAuditorio","GRADOS":5,"MINUTOS":2,"SEGUNDOS":29.15,"DIRECCION":"N","GRADOS1":75,"MINUTOS1":26,"SEGUNDOS1":44.45,"DIRECCION1":"W","ALTITUD":2172,"CUENCA":" ","SUBCUENCA":" ","x":848264.982,"y":1049387.178}},{"type":"Feature","id":61,"geometry":{"type":"Point","coordinates":[-75.68781,4.97903]},"properties":{"OBJECTID":61,"id":61,"NOMBRE":"Q.LAESTRELLA","PROPIETARI":"CentralHidroeléctricadeCaldas(CHEC)","TIPO":" ","CLASE":"HMT","LUGAR":"BocatomaLaEstrella","GRADOS":4,"MINUTOS":58,"SEGUNDOS":44.7,"DIRECCION":"N","GRADOS1":75,"MINUTOS1":41,"SEGUNDOS1":16.1,"DIRECCION1":"W","ALTITUD":1232,"CUENCA":" ","SUBCUENCA":" ","x":821389.488,"y":1042551.121}},{"type":"Feature","id":62,"geometry":{"type":"Point","coordinates":[-75.54615,5.06216]},"properties":{"OBJECTID":62,"id":62,"NOMBRE":"Q.LAFRANCIALOSPUENTESAUT","PROPIETARI":"CorporaciónAutónomadeCaldas(Corpocaldas)","TIPO":"AUT","CLASE":"HMT","LUGAR":"LaFrancia-FincaLosPuentes","GRADOS":5,"MINUTOS":3,"SEGUNDOS":43.98,"DIRECCION":"N","GRADOS1":75,"MINUTOS1":32,"SEGUNDOS1":46.13,"DIRECCION1":"W","ALTITUD":1620,"CUENCA":" ","SUBCUENCA":" ","x":837125.872,"y":1051710.674}},{"type":"Feature","id":63,"geometry":{"type":"Point","coordinates":[-75.58743,5.0265]},"properties":{"OBJECTID":63,"id":63,"NOMBRE":"Q.LASPAVASAUTOPISTASDELCAFÉAUT","PROPIETARI":"CorporaciónAutónomadeCaldas(Corpocaldas)","TIPO":"AUT","CLASE":"HMT","LUGAR":"AutopistadelCafé-PeajeLasPavas","GRADOS":5,"MINUTOS":1,"SEGUNDOS":35.58,"DIRECCION":"N","GRADOS1":75,"MINUTOS1":35,"SEGUNDOS1":14.72,"DIRECCION1":"W","ALTITUD":1250,"CUENCA":" ","SUBCUENCA":" ","x":832538.325,"y":1047775.67}},{"type":"Feature","id":64,"geometry":{"type":"Point","coordinates":[-75.43031,5.03875]},"properties":{"OBJECTID":64,"id":64,"NOMBRE":"Q.MANIZALESSKINCOAUT","PROPIETARI":"CorporaciónAutónomadeCaldas(Corpocaldas)","TIPO":"AUT","CLASE":"HMT","LUGAR":"Skinco/Colombit-ZonaIndustrialJuanchitoVíaalMagdalena","GRADOS":5,"MINUTOS":2,"SEGUNDOS":19.68,"DIRECCION":"N","GRADOS1":75,"MINUTOS1":25,"SEGUNDOS1":49.08,"DIRECCION1":"W","ALTITUD":2750,"CUENCA":" ","SUBCUENCA":" ","x":849970.43,"y":1049092.656}},{"type":"Feature","id":65,"geometry":{"type":"Point","coordinates":[-75.60723,5.06012]},"properties":{"OBJECTID":65,"id":65,"NOMBRE":"Q.MANZANARESIBCAUT","PROPIETARI":"CorporaciónAutónomadeCaldas(Corpocaldas)","TIPO":"AUT","CLASE":"HMT","LUGAR":"IndustriasBásicasdeCaldas-SectorLaManuela","GRADOS":5,"MINUTOS":3,"SEGUNDOS":36.64,"DIRECCION":"N","GRADOS1":75,"MINUTOS1":36,"SEGUNDOS1":26.01,"DIRECCION1":"W","ALTITUD":1100,"CUENCA":" ","SUBCUENCA":" ","x":830350.254,"y":1051500.722}},{"type":"Feature","id":66,"geometry":{"type":"Point","coordinates":[-75.51769,5.05091]},"properties":{"OBJECTID":66,"id":66,"NOMBRE":"Q.MARMATOPLANTACHECAUT","PROPIETARI":"CorporaciónAutónomadeCaldas(Corpocaldas)","TIPO":"AUT","CLASE":"HMT","LUGAR":"PlantaintermediaCHEC","GRADOS":5,"MINUTOS":3,"SEGUNDOS":3.48,"DIRECCION":"N","GRADOS1":75,"MINUTOS1":31,"SEGUNDOS1":3.67,"DIRECCION1":"W","ALTITUD":1784,"CUENCA":" ","SUBCUENCA":" ","x":840280.126,"y":1050459.18}},{"type":"Feature","id":67,"geometry":{"type":"Point","coordinates":[-75.36547,4.91491]},"properties":{"OBJECTID":67,"id":67,"NOMBRE":"Q.MOLINOSP.N.N.N.AUT","PROPIETARI":"CorporaciónAutónomadeCaldas(Corpocaldas)","TIPO":"AUT","CLASE":"HMT","LUGAR":"ParqueNacionalNaturalLosNevados","GRADOS":4,"MINUTOS":54,"SEGUNDOS":53.8,"DIRECCION":"N","GRADOS1":75,"MINUTOS1":21,"SEGUNDOS1":55.7,"DIRECCION1":"W","ALTITUD":4240,"CUENCA":"Chinchiná","SUBCUENCA":"Molinos","x":857136.083,"y":1035380.158}},{"type":"Feature","id":68,"geometry":{"type":"Point","coordinates":[-75.35708,4.8808]},"properties":{"OBJECTID":68,"id":68,"NOMBRE":"Q.NEREIDASCHECAUT","PROPIETARI":"CentralHidroeléctricadeCaldas(CHEC)","TIPO":"AUT","CLASE":"HMT","LUGAR":"PNNNporlavíaantíguadeVillamaría","GRADOS":4,"MINUTOS":52,"SEGUNDOS":51,"DIRECCION":"N","GRADOS1":75,"MINUTOS1":21,"SEGUNDOS1":25.5,"DIRECCION1":"W","ALTITUD":4450,"CUENCA":" ","SUBCUENCA":" ","x":858059.73,"y":1031605.408}},{"type":"Feature","id":69,"geometry":{"type":"Point","coordinates":[-75.48545,5.06308]},"properties":{"OBJECTID":69,"id":69,"NOMBRE":"Q.NEREIDASP.N.N.N.AUT","PROPIETARI":"CorporaciónAutónomadeCaldas(Corpocaldas)","TIPO":"AUT","CLASE":"HMT","LUGAR":"ParqueNacionalNaturalLosNevados","GRADOS":5,"MINUTOS":3,"SEGUNDOS":47.28,"DIRECCION":"N","GRADOS1":75,"MINUTOS1":29,"SEGUNDOS1":7.6,"DIRECCION1":"W","ALTITUD":2064,"CUENCA":"Chinchiná","SUBCUENCA":"Nereidas","x":843859.4,"y":1051797.205}},{"type":"Feature","id":70,"geometry":{"type":"Point","coordinates":[-75.44714,5.0653]},"properties":{"OBJECTID":70,"id":70,"NOMBRE":"Q.OLIVARESAGUASDEMANIZALESAUT","PROPIETARI":"CorporaciónAutónomadeCaldas(Corpocaldas)","TIPO":"AUT","CLASE":"HMT","LUGAR":"AguasdeManizalesS.AE.S.P-SedeAdministrativa","GRADOS":5,"MINUTOS":3,"SEGUNDOS":55.28,"DIRECCION":"N","GRADOS1":75,"MINUTOS1":26,"SEGUNDOS1":49.69,"DIRECCION1":"W","ALTITUD":2240,"CUENCA":" ","SUBCUENCA":" ","x":848109.081,"y":1052033.955}},{"type":"Feature","id":71,"geometry":{"type":"Point","coordinates":[-75.50014,5.07067]},"properties":{"OBJECTID":71,"id":71,"NOMBRE":"Q.OLIVARESBOCATOMARÍOBLANCOAUT","PROPIETARI":"CorporaciónAutónomadeCaldas(Corpocaldas)","TIPO":"AUT","CLASE":"HMT","LUGAR":"BocatomaReservaRíoBlanco-AguasdeManizalesS.AE.S.P","GRADOS":5,"MINUTOS":4,"SEGUNDOS":14.62,"DIRECCION":"N","GRADOS1":75,"MINUTOS1":30,"SEGUNDOS1":0.46,"DIRECCION1":"W","ALTITUD":2030,"CUENCA":" ","SUBCUENCA":" ","x":842232.542,"y":1052640.815}},{"type":"Feature","id":72,"geometry":{"type":"Point","coordinates":[-75.47723,5.06489]},"properties":{"OBJECTID":72,"id":72,"NOMBRE":"Q.OLIVARESBOMBEROSVOLUNTARIOSAUT","PROPIETARI":"CorporaciónAutónomadeCaldas(Corpocaldas)","TIPO":"AUT","CLASE":"HMT","LUGAR":"QuebradaOlivares-Manizales","GRADOS":5,"MINUTOS":3,"SEGUNDOS":53.8,"DIRECCION":"N","GRADOS1":75,"MINUTOS1":28,"SEGUNDOS1":38,"DIRECCION1":"W","ALTITUD":1960,"CUENCA":" ","SUBCUENCA":" ","x":844771.846,"y":1051995.577}},{"type":"Feature","id":73,"geometry":{"type":"Point","coordinates":[-75.50419,5.05844]},"properties":{"OBJECTID":73,"id":73,"NOMBRE":"Q.OLIVARESELPOPALAUT","PROPIETARI":"CorporaciónAutónomadeCaldas(Corpocaldas)","TIPO":"AUT","CLASE":"HMT","LUGAR":"BodegaElPopal-AguasdeManizalesS.AE.S.P","GRADOS":5,"MINUTOS":3,"SEGUNDOS":30.58,"DIRECCION":"N","GRADOS1":75,"MINUTOS1":30,"SEGUNDOS1":15.07,"DIRECCION1":"W","ALTITUD":2002,"CUENCA":"Chinchiná","SUBCUENCA":"Olivares","x":841779.424,"y":1051288.59}},{"type":"Feature","id":74,"geometry":{"type":"Point","coordinates":[-75.50644,5.05014]},"properties":{"OBJECTID":74,"id":74,"NOMBRE":"Q.PALOGRANDETERMINALDETRANSPORTESAUT","PROPIETARI":"CorporaciónAutónomadeCaldas(Corpocaldas)","TIPO":"AUT","CLASE":"HMT","LUGAR":"TerminaldeTransportesManizales-SectorLosCámbulos","GRADOS":5,"MINUTOS":3,"SEGUNDOS":0.69,"DIRECCION":"N","GRADOS1":75,"MINUTOS1":30,"SEGUNDOS1":23.16,"DIRECCION1":"W","ALTITUD":1890,"CUENCA":" ","SUBCUENCA":" ","x":841528.145,"y":1050370.71}},{"type":"Feature","id":75,"geometry":{"type":"Point","coordinates":[-75.509,5.07869]},"properties":{"OBJECTID":75,"id":75,"NOMBRE":"Q.PALOGRANDERUTA30AUT","PROPIETARI":"UniversidadNacionaldeColombia(UN)","TIPO":"AUT","CLASE":"HMT","LUGAR":"QuebradaPalogrande-Manizales","GRADOS":5,"MINUTOS":4,"SEGUNDOS":43.49,"DIRECCION":"N","GRADOS1":75,"MINUTOS1":30,"SEGUNDOS1":32.37,"DIRECCION1":"W","ALTITUD":2014,"CUENCA":"Chinchiná","SUBCUENCA":"SanLuis","x":841251.308,"y":1053530.059}},{"type":"Feature","id":76,"geometry":{"type":"Point","coordinates":[-75.59674,5.04488]},"properties":{"OBJECTID":76,"id":76,"NOMBRE":"Q.ROSARIOAUTOPISTAS","PROPIETARI":"CorporaciónAutónomadeCaldas(Corpocaldas)","TIPO":" ","CLASE":"HMT","LUGAR":"PuenteQ.Rosario","GRADOS":5,"MINUTOS":2,"SEGUNDOS":41.77,"DIRECCION":"N","GRADOS1":75,"MINUTOS1":35,"SEGUNDOS1":48.25,"DIRECCION1":"W","ALTITUD":1131,"CUENCA":" ","SUBCUENCA":" ","x":831509.832,"y":1049811.948}},{"type":"Feature","id":77,"geometry":{"type":"Point","coordinates":[-75.42708,4.90907]},"properties":{"OBJECTID":77,"id":77,"NOMBRE":"Q.SALINASRELLENOSANITARIOEMASAUT","PROPIETARI":"CorporaciónAutónomadeCaldas(Corpocaldas)","TIPO":"AUT","CLASE":"HMT","LUGAR":"RellenoSanitarioLaEsmeralda-EmpresaMetropolitanadeAseoEMASS.AE.S.P","GRADOS":4,"MINUTOS":54,"SEGUNDOS":32.8,"DIRECCION":"N","GRADOS1":75,"MINUTOS1":25,"SEGUNDOS1":37.5,"DIRECCION1":"W","ALTITUD":4450,"CUENCA":" ","SUBCUENCA":" ","x":850299.575,"y":1034748.078}},{"type":"Feature","id":78,"geometry":{"type":"Point","coordinates":[-75.64742,5.00158]},"properties":{"OBJECTID":78,"id":78,"NOMBRE":"RIOCAMPOALEGREÍNSULA","PROPIETARI":"CentralHidroeléctricadeCaldas(CHEC)","TIPO":" ","CLASE":"HMT","LUGAR":"BocatomaLaEsmeralda","GRADOS":5,"MINUTOS":0,"SEGUNDOS":5.9,"DIRECCION":"N","GRADOS1":75,"MINUTOS1":38,"SEGUNDOS1":50.7,"DIRECCION1":"W","ALTITUD":1249,"CUENCA":" ","SUBCUENCA":" ","x":825876.337,"y":1045035.536}},{"type":"Feature","id":79,"geometry":{"type":"Point","coordinates":[-75.62298,4.96831]},"properties":{"OBJECTID":79,"id":79,"NOMBRE":"RIOCAMPOALEGRETARAPACÁ","PROPIETARI":"CentralHidroeléctricadeCaldas(CHEC)","TIPO":" ","CLASE":"HMT","LUGAR":"BocatomaCampoAlegre","GRADOS":4,"MINUTOS":58,"SEGUNDOS":6.1,"DIRECCION":"N","GRADOS1":75,"MINUTOS1":37,"SEGUNDOS1":22.7,"DIRECCION1":"W","ALTITUD":1385,"CUENCA":" ","SUBCUENCA":" ","x":828579.574,"y":1041347.862}},{"type":"Feature","id":80,"geometry":{"type":"Point","coordinates":[-75.58106,4.99703]},"properties":{"OBJECTID":80,"id":80,"NOMBRE":"RIOCHINCHINÁBOCATOMA","PROPIETARI":"CentralHidroeléctricadeCaldas(CHEC)","TIPO":" ","CLASE":"HMT","LUGAR":"BocatomaMontevideo","GRADOS":4,"MINUTOS":59,"SEGUNDOS":49.5,"DIRECCION":"N","GRADOS1":75,"MINUTOS1":34,"SEGUNDOS1":51.8,"DIRECCION1":"W","ALTITUD":1391,"CUENCA":" ","SUBCUENCA":" ","x":833237.142,"y":1044514.437}},{"type":"Feature","id":81,"geometry":{"type":"Point","coordinates":[-75.52098,5.05021]},"properties":{"OBJECTID":81,"id":81,"NOMBRE":"RIOCHINCHINÁBOCATOMAMUNICIPAL","PROPIETARI":"CentralHidroeléctricadeCaldas(CHEC)","TIPO":" ","CLASE":"HMT","LUGAR":"BocatomaMunicipalVillamaría","GRADOS":5,"MINUTOS":3,"SEGUNDOS":0.97,"DIRECCION":"N","GRADOS1":75,"MINUTOS1":31,"SEGUNDOS1":15.5,"DIRECCION1":"W","ALTITUD":1737,"CUENCA":" ","SUBCUENCA":" ","x":839915.445,"y":1050382.86}},{"type":"Feature","id":82,"geometry":{"type":"Point","coordinates":[-75.48317,5.0377]},"properties":{"OBJECTID":82,"id":82,"NOMBRE":"RIOCHINCHINÁBOCATOMASANCANCIO","PROPIETARI":"CentralHidroeléctricadeCaldas(CHEC)","TIPO":" ","CLASE":"HMT","LUGAR":"BocatomaSancancio-JardínesdeLaEsperanza","GRADOS":5,"MINUTOS":2,"SEGUNDOS":15.9,"DIRECCION":"N","GRADOS1":75,"MINUTOS1":28,"SEGUNDOS1":59.4,"DIRECCION1":"W","ALTITUD":1947,"CUENCA":" ","SUBCUENCA":" ","x":844106.01,"y":1048988.866}},{"type":"Feature","id":83,"geometry":{"type":"Point","coordinates":[-75.47792,5.03172]},"properties":{"OBJECTID":83,"id":83,"NOMBRE":"RÍOCHINCHINÁBOSQUEPOPULARAUT","PROPIETARI":"CorporaciónAutónomadeCaldas(Corpocaldas)","TIPO":"AUT","CLASE":"HMT","LUGAR":"BosquePopularElPrado","GRADOS":5,"MINUTOS":1,"SEGUNDOS":54.4,"DIRECCION":"N","GRADOS1":75,"MINUTOS1":28,"SEGUNDOS1":40.49,"DIRECCION1":"W","ALTITUD":1970,"CUENCA":" ","SUBCUENCA":" ","x":844687.262,"y":1048326.998}},{"type":"Feature","id":84,"geometry":{"type":"Point","coordinates":[-75.56036,4.99216]},"properties":{"OBJECTID":84,"id":84,"NOMBRE":"RÍOCHINCHINÁELBOSQUEAUT","PROPIETARI":"GobernacióndeCaldas(UDEGER)","TIPO":"AUT","CLASE":"HMT","LUGAR":"FincaElBosque","GRADOS":4,"MINUTOS":59,"SEGUNDOS":31.97,"DIRECCION":"N","GRADOS1":75,"MINUTOS1":33,"SEGUNDOS1":37.27,"DIRECCION1":"W","ALTITUD":1413,"CUENCA":" ","SUBCUENCA":" ","x":835532.622,"y":1043970.585}},{"type":"Feature","id":85,"geometry":{"type":"Point","coordinates":[-75.48656,5.04083]},"properties":{"OBJECTID":85,"id":85,"NOMBRE":"RÍOCHINCHINÁJARDINESAUT","PROPIETARI":"GobernacióndeCaldas(UDEGER)","TIPO":"AUT","CLASE":"HMT","LUGAR":"CrematorioJardinesdeLaEsperanza-VíaPanamericana","GRADOS":5,"MINUTOS":2,"SEGUNDOS":27.17,"DIRECCION":"N","GRADOS1":75,"MINUTOS1":29,"SEGUNDOS1":11.6,"DIRECCION1":"W","ALTITUD":1933,"CUENCA":" ","SUBCUENCA":" ","x":843730.842,"y":1049335.963}},{"type":"Feature","id":86,"geometry":{"type":"Point","coordinates":[-75.60324,4.99176]},"properties":{"OBJECTID":86,"id":86,"NOMBRE":"RÍOCHINCHINÁCENICAFÉ","PROPIETARI":"GobernacióndeCaldas(UDEGER)","TIPO":" ","CLASE":"HMT","LUGAR":"Cenicafé","GRADOS":4,"MINUTOS":59,"SEGUNDOS":30.52,"DIRECCION":"N","GRADOS1":75,"MINUTOS1":36,"SEGUNDOS1":11.63,"DIRECCION1":"W","ALTITUD":1289,"CUENCA":" ","SUBCUENCA":" ","x":830775.757,"y":1043936.864}},{"type":"Feature","id":87,"geometry":{"type":"Point","coordinates":[-74.69126,5.50027]},"properties":{"OBJECTID":87,"id":87,"NOMBRE":"RIODOÑAJUANAAUT","PROPIETARI":"CorporaciónAutónomadeCaldas(Corpocaldas)","TIPO":"AUT","CLASE":"HMT","LUGAR":"RíoDoñaJuanaVíaNorcasia-LaDorada","GRADOS":5,"MINUTOS":30,"SEGUNDOS":1.18,"DIRECCION":"N","GRADOS1":74,"MINUTOS1":41,"SEGUNDOS1":28.5,"DIRECCION1":"W","ALTITUD":210,"CUENCA":" ","SUBCUENCA":"DoñaJuana","x":931987.457,"y":1100009.936}},{"type":"Feature","id":88,"geometry":{"type":"Point","coordinates":[-75.49976,5.13975]},"properties":{"OBJECTID":88,"id":88,"NOMBRE":"RÍOGUACAICACHECAUT","PROPIETARI":"CorporaciónAutónomadeCaldas(Corpocaldas)","TIPO":"AUT","CLASE":"HMT","LUGAR":"RÍOGUACAICA-Neira","GRADOS":5,"MINUTOS":8,"SEGUNDOS":23.3,"DIRECCION":"N","GRADOS1":75,"MINUTOS1":29,"SEGUNDOS1":59.1,"DIRECCION1":"W","ALTITUD":1612,"CUENCA":"Chinchiná","SUBCUENCA":"Guacaica","x":842291.268,"y":1060281.873}},{"type":"Feature","id":89,"geometry":{"type":"Point","coordinates":[-75.65846,5.10981]},"properties":{"OBJECTID":89,"id":89,"NOMBRE":"RÍOGUACAICAELJORDANAUT","PROPIETARI":"CorporaciónAutónomadeCaldas(Corpocaldas)","TIPO":"AUT","CLASE":"HMT","LUGAR":"VeredaElJordan","GRADOS":5,"MINUTOS":6,"SEGUNDOS":35.5,"DIRECCION":"N","GRADOS1":75,"MINUTOS1":39,"SEGUNDOS1":30.44,"DIRECCION1":"W","ALTITUD":929,"CUENCA":"Chinchiná","SUBCUENCA":"Guacaica","x":824680.713,"y":1057010.483}},{"type":"Feature","id":90,"geometry":{"type":"Point","coordinates":[-75.49359,5.14233]},"properties":{"OBJECTID":90,"id":90,"NOMBRE":"RIOGUACAICABOCATOMA","PROPIETARI":"CentralHidroeléctricadeCaldas(CHEC)","TIPO":" ","CLASE":"HMT","LUGAR":"BocatomaGuacaica","GRADOS":5,"MINUTOS":8,"SEGUNDOS":32.6,"DIRECCION":"N","GRADOS1":75,"MINUTOS1":29,"SEGUNDOS1":36.9,"DIRECCION1":"W","ALTITUD":1645,"CUENCA":" ","SUBCUENCA":" ","x":842975.834,"y":1060566.119}},{"type":"Feature","id":91,"geometry":{"type":"Point","coordinates":[-75.45809,5.54097]},"properties":{"OBJECTID":91,"id":91,"NOMBRE":"RÍOPÁCORAAUT","PROPIETARI":"CorporaciónAutónomadeCaldas(Corpocaldas)","TIPO":"AUT","CLASE":"HMT","LUGAR":"UniónRíoPácora-RíoSanAntonio","GRADOS":5,"MINUTOS":32,"SEGUNDOS":27.7,"DIRECCION":"N","GRADOS1":75,"MINUTOS1":27,"SEGUNDOS1":29.1,"DIRECCION1":"W","ALTITUD":1718,"CUENCA":" ","SUBCUENCA":"Pácora","x":847011.627,"y":1104653.152}},{"type":"Feature","id":92,"geometry":{"type":"Point","coordinates":[-75.13498,5.38506]},"properties":{"OBJECTID":92,"id":92,"NOMBRE":"RÍOPENSILVANIAMICROCENTRALAUT","PROPIETARI":"CorporaciónAutónomadeCaldas(Corpocaldas)","TIPO":"AUT","CLASE":"HMT","LUGAR":"GranjaSanJosé-CentralHidroeléctrica","GRADOS":5,"MINUTOS":23,"SEGUNDOS":6.4,"DIRECCION":"N","GRADOS1":75,"MINUTOS1":8,"SEGUNDOS1":5.9,"DIRECCION1":"W","ALTITUD":1793,"CUENCA":"Guarinó","SUBCUENCA":"Pensilvania","x":882791.045,"y":1087335.038}},{"type":"Feature","id":93,"geometry":{"type":"Point","coordinates":[-75.55993,5.44542]},"properties":{"OBJECTID":93,"id":93,"NOMBRE":"RÍOPOZOAUT","PROPIETARI":"CorporaciónAutónomadeCaldas(Corpocaldas)","TIPO":"AUT","CLASE":"HMT","LUGAR":"VíaLaMerced-Pácora","GRADOS":5,"MINUTOS":26,"SEGUNDOS":43.7,"DIRECCION":"N","GRADOS1":75,"MINUTOS1":33,"SEGUNDOS1":35.7,"DIRECCION1":"W","ALTITUD":840,"CUENCA":"Pozo Maibá","SUBCUENCA":"Pozo","x":835698.645,"y":1094109.867}},{"type":"Feature","id":94,"geometry":{"type":"Point","coordinates":[-75.53683,4.96437]},"properties":{"OBJECTID":94,"id":94,"NOMBRE":"RÍORIOCLAROP.N.N.NAUT","PROPIETARI":"CorporaciónAutónomadeCaldas(Corpocaldas)","TIPO":"AUT","CLASE":"HMT","LUGAR":"ParqueNacionalNaturalLosNevados","GRADOS":4,"MINUTOS":57,"SEGUNDOS":51.91,"DIRECCION":"N","GRADOS1":75,"MINUTOS1":32,"SEGUNDOS1":12.55,"DIRECCION1":"W","ALTITUD":1650,"CUENCA":" ","SUBCUENCA":" ","x":838136.544,"y":1040890.206}},{"type":"Feature","id":95,"geometry":{"type":"Point","coordinates":[-75.53683,4.96437]},"properties":{"OBJECTID":95,"id":95,"NOMBRE":"RÍORIOCLAROLABATEAAUT","PROPIETARI":"GobernacióndeCaldas(UDEGER)","TIPO":"AUT","CLASE":"HMT","LUGAR":"FincaElSilencio","GRADOS":4,"MINUTOS":57,"SEGUNDOS":51.91,"DIRECCION":"N","GRADOS1":75,"MINUTOS1":32,"SEGUNDOS1":12.55,"DIRECCION1":"W","ALTITUD":1589,"CUENCA":" ","SUBCUENCA":" ","x":838136.544,"y":1040890.206}},{"type":"Feature","id":96,"geometry":{"type":"Point","coordinates":[-75.37046,4.84535]},"properties":{"OBJECTID":96,"id":96,"NOMBRE":"RÍORIOCLAROLAGUAYANAAUT","PROPIETARI":"CorporaciónAutónomadeCaldas(Corpocaldas)","TIPO":"AUT","CLASE":"HMT","LUGAR":"RíoRioclaro-Villamaría","GRADOS":4,"MINUTOS":50,"SEGUNDOS":43.4,"DIRECCION":"N","GRADOS1":75,"MINUTOS1":22,"SEGUNDOS1":13.7,"DIRECCION1":"W","ALTITUD":4178,"CUENCA":"Chinchiná","SUBCUENCA":"Rioclaro","x":856566.971,"y":1027687.673}},{"type":"Feature","id":97,"geometry":{"type":"Point","coordinates":[-75.8437,5.11541]},"properties":{"OBJECTID":97,"id":97,"NOMBRE":"RÍORISARALDALAPALMERAAUT","PROPIETARI":"CorporaciónAutónomadeCaldas(Corpocaldas)","TIPO":"AUT","CLASE":"HMT","LUGAR":"PuenteríoRisaralda-CampingLaPalmera","GRADOS":5,"MINUTOS":6,"SEGUNDOS":55.69,"DIRECCION":"N","GRADOS1":75,"MINUTOS1":50,"SEGUNDOS1":37.3,"DIRECCION1":"W","ALTITUD":1016,"CUENCA":"Risaralda","SUBCUENCA":"Risaralda","x":804134.47,"y":1057684.276}},{"type":"Feature","id":98,"geometry":{"type":"Point","coordinates":[-75.73209,5.01181]},"properties":{"OBJECTID":98,"id":98,"NOMBRE":"RIOSANFRANCISCO","PROPIETARI":"CentralHidroeléctricadeCaldas(CHEC)","TIPO":" ","CLASE":"HMT","LUGAR":"BocatomaSanFrancisco","GRADOS":5,"MINUTOS":0,"SEGUNDOS":42.7,"DIRECCION":"N","GRADOS1":75,"MINUTOS1":43,"SEGUNDOS1":55.5,"DIRECCION1":"W","ALTITUD":1118,"CUENCA":" ","SUBCUENCA":" ","x":816486.111,"y":1046189.381}},{"type":"Feature","id":99,"geometry":{"type":"Point","coordinates":[-75.14073,5.20892]},"properties":{"OBJECTID":99,"id":99,"NOMBRE":"RÍOSANTODOMINGOMANZANARESAUT","PROPIETARI":"CorporaciónAutónomadeCaldas(Corpocaldas)","TIPO":"AUT","CLASE":"HMT","LUGAR":"FincaLosNaranjos-VeredaLlanadas","GRADOS":5,"MINUTOS":12,"SEGUNDOS":32.3,"DIRECCION":"N","GRADOS1":75,"MINUTOS1":8,"SEGUNDOS1":26.6,"DIRECCION1":"W","ALTITUD":1450,"CUENCA":"Guarinó","SUBCUENCA":"SantoDomingo","x":882120.429,"y":1067854.764}},{"type":"Feature","id":100,"geometry":{"type":"Point","coordinates":[-75.61618,5.37942]},"properties":{"OBJECTID":100,"id":100,"NOMBRE":"RÍOSUPÍASUPÍAAUT","PROPIETARI":"CorporaciónAutónomadeCaldas(Corpocaldas)","TIPO":"AUT","CLASE":"HMT","LUGAR":"RíoSupía-CabeceraMunicipal","GRADOS":5,"MINUTOS":22,"SEGUNDOS":46.1,"DIRECCION":"N","GRADOS1":75,"MINUTOS1":36,"SEGUNDOS1":58.2,"DIRECCION1":"W","ALTITUD":817,"CUENCA":"Supía","SUBCUENCA":"Supía","x":829444.422,"y":1086824.282}},{"type":"Feature","id":101,"geometry":{"type":"Point","coordinates":[-75.657,5.45564]},"properties":{"OBJECTID":101,"id":101,"NOMBRE":"RÍOSUPÍALOSPIONONOSAUT","PROPIETARI":"CorporaciónAutónomadeCaldas(Corpocaldas)","TIPO":"AUT","CLASE":"HMT","LUGAR":"RíoSupía-VíaMedellín","GRADOS":5,"MINUTOS":27,"SEGUNDOS":20.52,"DIRECCION":"N","GRADOS1":75,"MINUTOS1":39,"SEGUNDOS1":25.16,"DIRECCION1":"W","ALTITUD":1239,"CUENCA":"Supía","SUBCUENCA":"Supía","x":824940.237,"y":1095268.534}},{"type":"Feature","id":102,"geometry":{"type":"Point","coordinates":[-75.63775,5.22262]},"properties":{"OBJECTID":102,"id":102,"NOMBRE":"RÍOTAPIASAUT","PROPIETARI":"CorporaciónAutónomadeCaldas(Corpocaldas)","TIPO":"AUT","CLASE":"HMT","LUGAR":"UniónRíoTapias-RíoTareas","GRADOS":5,"MINUTOS":13,"SEGUNDOS":21.63,"DIRECCION":"N","GRADOS1":75,"MINUTOS1":38,"SEGUNDOS1":15.87,"DIRECCION1":"W","ALTITUD":825,"CUENCA":"Tapias Tareas","SUBCUENCA":"Tapias","x":827008.834,"y":1069484.776}},{"type":"Feature","id":103,"geometry":{"type":"Point","coordinates":[-75.48659,5.39036]},"properties":{"OBJECTID":103,"id":103,"NOMBRE":"SALAMINACHECAUT","PROPIETARI":"CorporaciónAutónomadeCaldas(Corpocaldas)","TIPO":"AUT","CLASE":"MET","LUGAR":"Salamina","GRADOS":5,"MINUTOS":23,"SEGUNDOS":25.5,"DIRECCION":"N","GRADOS1":75,"MINUTOS1":29,"SEGUNDOS1":11.7,"DIRECCION1":"W","ALTITUD":2078,"CUENCA":"Pozo Maibá","SUBCUENCA":"Chamberí","x":843813.922,"y":1088000.377}},{"type":"Feature","id":104,"geometry":{"type":"Point","coordinates":[-75.79005,5.091]},"properties":{"OBJECTID":104,"id":104,"NOMBRE":"SANJOSÉAUT","PROPIETARI":"CorporaciónAutónomadeCaldas(Corpocaldas)","TIPO":"AUT","CLASE":"MET","LUGAR":"SanJose","GRADOS":5,"MINUTOS":5,"SEGUNDOS":27.8,"DIRECCION":"N","GRADOS1":75,"MINUTOS1":47,"SEGUNDOS1":24.15,"DIRECCION1":"W","ALTITUD":1728,"CUENCA":" ","SUBCUENCA":" ","x":810078.982,"y":1054967.254}},{"type":"Feature","id":105,"geometry":{"type":"Point","coordinates":[-75.36663,4.82346]},"properties":{"OBJECTID":105,"id":105,"NOMBRE":"SANTAISABELPNNNAUT","PROPIETARI":"CorporaciónAutónomadeCaldas(Corpocaldas)","TIPO":"AUT","CLASE":"MET","LUGAR":"Villamaría","GRADOS":4,"MINUTOS":49,"SEGUNDOS":24.6,"DIRECCION":"N","GRADOS1":75,"MINUTOS1":21,"SEGUNDOS1":59.9,"DIRECCION1":"W","ALTITUD":4812,"CUENCA":"Chinchiná","SUBCUENCA":"Rioclaro","x":856987.809,"y":1025265.763}},{"type":"Feature","id":106,"geometry":{"type":"Point","coordinates":[-75.62298,4.96831]},"properties":{"OBJECTID":106,"id":106,"NOMBRE":"SUBESTACIÓNCAMPOALEGREAUT","PROPIETARI":"CentralHidroeléctricadeCaldas CHEC","TIPO":"AUT","CLASE":"HMT","LUGAR":"Chinchiná","GRADOS":4,"MINUTOS":58,"SEGUNDOS":6.1,"DIRECCION":"N","GRADOS1":75,"MINUTOS1":37,"SEGUNDOS1":22.7,"DIRECCION1":"W","ALTITUD":1385,"CUENCA":" ","SUBCUENCA":" ","x":828579.574,"y":1041347.862}},{"type":"Feature","id":107,"geometry":{"type":"Point","coordinates":[-75.49359,5.14233]},"properties":{"OBJECTID":107,"id":107,"NOMBRE":"SUBESTACIÓNGUACAICAAUT","PROPIETARI":"CentralHidroeléctricadeCaldas CHEC","TIPO":"AUT","CLASE":"HMT","LUGAR":"Neira","GRADOS":5,"MINUTOS":8,"SEGUNDOS":32.6,"DIRECCION":"N","GRADOS1":75,"MINUTOS1":29,"SEGUNDOS1":36.9,"DIRECCION1":"W","ALTITUD":1645,"CUENCA":" ","SUBCUENCA":" ","x":842975.834,"y":1060566.119}},{"type":"Feature","id":108,"geometry":{"type":"Point","coordinates":[-75.64742,5.00158]},"properties":{"OBJECTID":108,"id":108,"NOMBRE":"SUBESTACIÓNLAESMERALDAAUT","PROPIETARI":"CentralHidroeléctricadeCaldas CHEC","TIPO":"AUT","CLASE":"HMT","LUGAR":"Palestina","GRADOS":5,"MINUTOS":0,"SEGUNDOS":5.9,"DIRECCION":"N","GRADOS1":75,"MINUTOS1":38,"SEGUNDOS1":50.7,"DIRECCION1":"W","ALTITUD":1249,"CUENCA":" ","SUBCUENCA":" ","x":825876.337,"y":1045035.536}},{"type":"Feature","id":109,"geometry":{"type":"Point","coordinates":[-75.68781,4.97903]},"properties":{"OBJECTID":109,"id":109,"NOMBRE":"SUBESTACIÓNLAESTRELLAAUT","PROPIETARI":"CentralHidroeléctricadeCaldas CHEC","TIPO":"AUT","CLASE":"HMT","LUGAR":"Chinchiná","GRADOS":4,"MINUTOS":58,"SEGUNDOS":44.7,"DIRECCION":"N","GRADOS1":75,"MINUTOS1":41,"SEGUNDOS1":16.1,"DIRECCION1":"W","ALTITUD":1232,"CUENCA":" ","SUBCUENCA":" ","x":821389.488,"y":1042551.121}},{"type":"Feature","id":110,"geometry":{"type":"Point","coordinates":[-75.58106,4.99703]},"properties":{"OBJECTID":110,"id":110,"NOMBRE":"SUBESTACIÓNMONTEVIDEOAUT","PROPIETARI":"CentralHidroeléctricadeCaldas CHEC","TIPO":"AUT","CLASE":"HMT","LUGAR":"Chinchiná","GRADOS":4,"MINUTOS":59,"SEGUNDOS":49.5,"DIRECCION":"N","GRADOS1":75,"MINUTOS1":34,"SEGUNDOS1":51.8,"DIRECCION1":"W","ALTITUD":1391,"CUENCA":" ","SUBCUENCA":" ","x":833237.142,"y":1044514.437}},{"type":"Feature","id":111,"geometry":{"type":"Point","coordinates":[-75.52098,5.05021]},"properties":{"OBJECTID":111,"id":111,"NOMBRE":"SUBESTACIÓNMUNICIPALAUT","PROPIETARI":"CentralHidroeléctricadeCaldas CHEC","TIPO":"AUT","CLASE":"HMT","LUGAR":"Villamaría","GRADOS":5,"MINUTOS":3,"SEGUNDOS":0.97,"DIRECCION":"N","GRADOS1":75,"MINUTOS1":31,"SEGUNDOS1":15.5,"DIRECCION1":"W","ALTITUD":1737,"CUENCA":" ","SUBCUENCA":" ","x":839915.445,"y":1050382.86}},{"type":"Feature","id":112,"geometry":{"type":"Point","coordinates":[-75.73209,5.01181]},"properties":{"OBJECTID":112,"id":112,"NOMBRE":"SUBESTACIÓNSANFRANCISCOAUT","PROPIETARI":"CentralHidroeléctricadeCaldas CHEC","TIPO":"AUT","CLASE":"HMT","LUGAR":"Chinchiná","GRADOS":5,"MINUTOS":0,"SEGUNDOS":42.7,"DIRECCION":"N","GRADOS1":75,"MINUTOS1":43,"SEGUNDOS1":55.5,"DIRECCION1":"W","ALTITUD":1118,"CUENCA":" ","SUBCUENCA":" ","x":816486.111,"y":1046189.381}},{"type":"Feature","id":113,"geometry":{"type":"Point","coordinates":[-75.48317,5.0377]},"properties":{"OBJECTID":113,"id":113,"NOMBRE":"SUBESTACIÓNSANCANCIOAUT","PROPIETARI":"CentralHidroeléctricadeCaldas CHEC","TIPO":"AUT","CLASE":"HMT","LUGAR":"Manizales","GRADOS":5,"MINUTOS":2,"SEGUNDOS":15.9,"DIRECCION":"N","GRADOS1":75,"MINUTOS1":28,"SEGUNDOS1":59.4,"DIRECCION1":"W","ALTITUD":1947,"CUENCA":" ","SUBCUENCA":" ","x":844106.01,"y":1048988.866}},{"type":"Feature","id":114,"geometry":{"type":"Point","coordinates":[-75.51859,5.04839]},"properties":{"OBJECTID":114,"id":114,"NOMBRE":"VILLAMARÍAHOSPITALAUT","PROPIETARI":"CorporaciónAutónomadeCaldas(Corpocaldas)","TIPO":"AUT","CLASE":"MET","LUGAR":"Villamaría","GRADOS":5,"MINUTOS":2,"SEGUNDOS":54.4,"DIRECCION":"N","GRADOS1":75,"MINUTOS1":31,"SEGUNDOS1":6.9,"DIRECCION1":"W","ALTITUD":1790,"CUENCA":"Chinchiná","SUBCUENCA":" ","x":840179.986,"y":1050180.398}},{"type":"Feature","id":115,"geometry":{"type":"Point","coordinates":[-75.48129,5.06317]},"properties":{"OBJECTID":115,"id":115,"NOMBRE":"YARUMOSAUT","PROPIETARI":"AlcaldíadeManizales(UGR)","TIPO":"AUT","CLASE":"MET","LUGAR":"Manizales","GRADOS":5,"MINUTOS":3,"SEGUNDOS":47.6,"DIRECCION":"N","GRADOS1":75,"MINUTOS1":28,"SEGUNDOS1":52.63,"DIRECCION1":"W","ALTITUD":2195,"CUENCA":"Chinchiná","SUBCUENCA":"Olivares","x":844320.667,"y":1051806.042}}]}