{"type":"FeatureCollection","name":"Estaciones_Clima_OtrasEntidades","crs":{"type":"name","properties":{"name":"urn:ogc:def:crs:OGC:1.3:CRS84"}},"features":[{"type":"Feature","id":1,"geometry":{"type":"Point","coordinates":[-75.35,5.1]},"properties":{"OBJECTID":1,"NOMBRE_ES":"LEONERA LA [23020130]","DEPARTAMEN":"CALDAS","COD_MPIO":368,"MUNICIPIO":"MARULANDA","CORRIENTE":"GUARINO","X":858891,"Y":1055850}},{"type":"Feature","id":2,"geometry":{"type":"Point","coordinates":[-75.26,5.28]},"properties":{"OBJECTID":2,"NOMBRE_ES":"ALTO DE LA VIRGEN [23020140]","DEPARTAMEN":"CALDAS","COD_MPIO":368,"MUNICIPIO":"MARULANDA","CORRIENTE":"GUARINO","X":868910,"Y":1075740}},{"type":"Feature","id":3,"geometry":{"type":"Point","coordinates":[-74.95,5.30999]},"properties":{"OBJECTID":3,"NOMBRE_ES":"PASTORITA LA [23020020]","DEPARTAMEN":"CALDAS","COD_MPIO":378,"MUNICIPIO":"VICTORIA","CORRIENTE":"GUARINO","X":903284,"Y":1079001}},{"type":"Feature","id":4,"geometry":{"type":"Point","coordinates":[-74.75,5.31]},"properties":{"OBJECTID":4,"NOMBRE_ES":"JULIA LA HDA [23020030]","DEPARTAMEN":"CALDAS","COD_MPIO":363,"MUNICIPIO":"LA DORADA","CORRIENTE":"GUARINO","X":925455,"Y":1078974}},{"type":"Feature","id":5,"geometry":{"type":"Point","coordinates":[-74.76,5.3]},"properties":{"OBJECTID":5,"NOMBRE_ES":"JAPON  EL HDA [23020040]","DEPARTAMEN":"CALDAS","COD_MPIO":363,"MUNICIPIO":"LA DORADA","CORRIENTE":"GUARINO","X":924345,"Y":1077869}},{"type":"Feature","id":6,"geometry":{"type":"Point","coordinates":[-74.96,5.31]},"properties":{"OBJECTID":6,"NOMBRE_ES":"MARZALA [23020050]","DEPARTAMEN":"CALDAS","COD_MPIO":378,"MUNICIPIO":"VICTORIA","CORRIENTE":"GUARINO","X":902175,"Y":1079003}},{"type":"Feature","id":7,"geometry":{"type":"Point","coordinates":[-74.96821,5.33017]},"properties":{"OBJECTID":7,"NOMBRE_ES":"SUB VICTORIA [23020070]","DEPARTAMEN":"CALDAS","COD_MPIO":378,"MUNICIPIO":"VICTORIA","CORRIENTE":"GUARINO","X":901269,"Y":1081235}},{"type":"Feature","id":8,"geometry":{"type":"Point","coordinates":[-75.13001,5.2]},"properties":{"OBJECTID":8,"NOMBRE_ES":"LLANADAS [23025010]","DEPARTAMEN":"CALDAS","COD_MPIO":365,"MUNICIPIO":"MANZANARES","CORRIENTE":"GUARINO","X":883308,"Y":1066866}},{"type":"Feature","id":9,"geometry":{"type":"Point","coordinates":[-75.06001,5.29999]},"properties":{"OBJECTID":9,"NOMBRE_ES":"STA HELENA [23025030]","DEPARTAMEN":"CALDAS","COD_MPIO":367,"MUNICIPIO":"MARQUETALIA","CORRIENTE":"GUARINO","X":891087,"Y":1077913}},{"type":"Feature","id":10,"geometry":{"type":"Point","coordinates":[-75.08312,5.2293]},"properties":{"OBJECTID":10,"NOMBRE_ES":"CAMPO ALEGRE [23027010]","DEPARTAMEN":"CALDAS","COD_MPIO":365,"MUNICIPIO":"MANZANARES","CORRIENTE":"STO DOMINGO","X":888512,"Y":1070098}},{"type":"Feature","id":11,"geometry":{"type":"Point","coordinates":[-75.21452,5.13597]},"properties":{"OBJECTID":11,"NOMBRE_ES":"LAGUNA LA [23027040]","DEPARTAMEN":"CALDAS","COD_MPIO":368,"MUNICIPIO":"MARULANDA","CORRIENTE":"PERILLO","X":873924,"Y":1059800}},{"type":"Feature","id":12,"geometry":{"type":"Point","coordinates":[-75.11521,5.16247]},"properties":{"OBJECTID":12,"NOMBRE_ES":"PLAYAS LAS 4-922 [23027050]","DEPARTAMEN":"CALDAS","COD_MPIO":365,"MUNICIPIO":"MANZANARES","CORRIENTE":"GUARINO","X":884942,"Y":1062713}},{"type":"Feature","id":13,"geometry":{"type":"Point","coordinates":[-74.8,5.3]},"properties":{"OBJECTID":13,"NOMBRE_ES":"PTE CARRETERA 4157 [23027070]","DEPARTAMEN":"CALDAS","COD_MPIO":378,"MUNICIPIO":"VICTORIA","CORRIENTE":"GUARINO","X":919911,"Y":1077874}},{"type":"Feature","id":14,"geometry":{"type":"Point","coordinates":[-74.68001,5.44999]},"properties":{"OBJECTID":14,"NOMBRE_ES":"AEROPUERTO HDA [23040020]","DEPARTAMEN":"CALDAS","COD_MPIO":363,"MUNICIPIO":"LA DORADA","CORRIENTE":"MAGDALENA","X":933229,"Y":1094448}},{"type":"Feature","id":15,"geometry":{"type":"Point","coordinates":[-74.91,5.35]},"properties":{"OBJECTID":15,"NOMBRE_ES":"SUB CAÑAVERAL [23040080]","DEPARTAMEN":"CALDAS","COD_MPIO":378,"MUNICIPIO":"VICTORIA","CORRIENTE":"LA MIEL","X":907724,"Y":1083419}},{"type":"Feature","id":16,"geometry":{"type":"Point","coordinates":[-74.68001,5.44999]},"properties":{"OBJECTID":16,"NOMBRE_ES":"SUB DORADA [23040100]","DEPARTAMEN":"CALDAS","COD_MPIO":363,"MUNICIPIO":"LA DORADA","CORRIENTE":"MAGDALENA","X":933229,"Y":1094448}},{"type":"Feature","id":17,"geometry":{"type":"Point","coordinates":[-74.66,5.44999]},"properties":{"OBJECTID":17,"NOMBRE_ES":"DORADA LA [23047010]","DEPARTAMEN":"CALDAS","COD_MPIO":363,"MUNICIPIO":"LA DORADA","CORRIENTE":"MAGDALENA","X":935446,"Y":1094446}},{"type":"Feature","id":18,"geometry":{"type":"Point","coordinates":[-74.95,5.54999]},"properties":{"OBJECTID":18,"NOMBRE_ES":"SAMANA [23050050]","DEPARTAMEN":"CALDAS","COD_MPIO":376,"MUNICIPIO":"SAMANÁ","CORRIENTE":"LA MIEL","X":903322,"Y":1105544}},{"type":"Feature","id":19,"geometry":{"type":"Point","coordinates":[-75.00001,5.41]},"properties":{"OBJECTID":19,"NOMBRE_ES":"BUTANTAN [23050110]","DEPARTAMEN":"CALDAS","COD_MPIO":376,"MUNICIPIO":"SAMANÁ","CORRIENTE":"SAMANA","X":897757,"Y":1090069}},{"type":"Feature","id":20,"geometry":{"type":"Point","coordinates":[-74.83,5.61]},"properties":{"OBJECTID":20,"NOMBRE_ES":"NORCASIA [23050160]","DEPARTAMEN":"CALDAS","COD_MPIO":376,"MUNICIPIO":"SAMANÁ","CORRIENTE":"LA MIEL","X":916628,"Y":1112162}},{"type":"Feature","id":21,"geometry":{"type":"Point","coordinates":[-75.05001,5.66]},"properties":{"OBJECTID":21,"NOMBRE_ES":"PTE LINDA [23050180]","DEPARTAMEN":"CALDAS","COD_MPIO":376,"MUNICIPIO":"SAMANÁ","CORRIENTE":"SAMANA SUR","X":892260,"Y":1117728}},{"type":"Feature","id":22,"geometry":{"type":"Point","coordinates":[-75.16,5.45999]},"properties":{"OBJECTID":22,"NOMBRE_ES":"GUACAS [23050200]","DEPARTAMEN":"CALDAS","COD_MPIO":372,"MUNICIPIO":"PENSILVANIA","CORRIENTE":"SAMANA","X":880032,"Y":1095628}},{"type":"Feature","id":23,"geometry":{"type":"Point","coordinates":[-75.16001,5.44999]},"properties":{"OBJECTID":23,"NOMBRE_ES":"ARBOLEDA [23050210]","DEPARTAMEN":"CALDAS","COD_MPIO":372,"MUNICIPIO":"PENSILVANIA","CORRIENTE":"SAMANA SUR","X":880030,"Y":1094522}},{"type":"Feature","id":24,"geometry":{"type":"Point","coordinates":[-75.15,5.40999]},"properties":{"OBJECTID":24,"NOMBRE_ES":"PLAYA LA [23050220]","DEPARTAMEN":"CALDAS","COD_MPIO":372,"MUNICIPIO":"PENSILVANIA","CORRIENTE":"LA MIEL","X":881131,"Y":1090096}},{"type":"Feature","id":25,"geometry":{"type":"Point","coordinates":[-75.03001,5.50999]},"properties":{"OBJECTID":25,"NOMBRE_ES":"BELEN [23050270]","DEPARTAMEN":"CALDAS","COD_MPIO":376,"MUNICIPIO":"SAMANÁ","CORRIENTE":"SAMANA","X":894449,"Y":1101134}},{"type":"Feature","id":26,"geometry":{"type":"Point","coordinates":[-75.18001,5.5]},"properties":{"OBJECTID":26,"NOMBRE_ES":"ARBOLEDA [23050340]","DEPARTAMEN":"CALDAS","COD_MPIO":372,"MUNICIPIO":"PENSILVANIA","CORRIENTE":"SAMANA","X":877823,"Y":1100057}},{"type":"Feature","id":27,"geometry":{"type":"Point","coordinates":[-74.93335,5.73188]},"properties":{"OBJECTID":27,"NOMBRE_ES":"BELEN SAN DIEGO [23050350]","DEPARTAMEN":"CALDAS","COD_MPIO":376,"MUNICIPIO":"SAMANÁ","CORRIENTE":"SAMANA","X":905197,"Y":1125658}},{"type":"Feature","id":28,"geometry":{"type":"Point","coordinates":[-75.18001,5.5]},"properties":{"OBJECTID":28,"NOMBRE_ES":"HOGAR JUVENIL [23050360]","DEPARTAMEN":"CALDAS","COD_MPIO":372,"MUNICIPIO":"PENSILVANIA","CORRIENTE":"SAMANA","X":877823,"Y":1100057}},{"type":"Feature","id":29,"geometry":{"type":"Point","coordinates":[-75.10001,5.33]},"properties":{"OBJECTID":29,"NOMBRE_ES":"GRANJA KENNEDY [23050380]","DEPARTAMEN":"CALDAS","COD_MPIO":372,"MUNICIPIO":"PENSILVANIA","CORRIENTE":"LA MIEL","X":886658,"Y":1081239}},{"type":"Feature","id":30,"geometry":{"type":"Point","coordinates":[-75.03001,5.35999]},"properties":{"OBJECTID":30,"NOMBRE_ES":"PARAISO EL [23050400]","DEPARTAMEN":"CALDAS","COD_MPIO":376,"MUNICIPIO":"SAMANÁ","CORRIENTE":"LA MIEL","X":894423,"Y":1084544}},{"type":"Feature","id":31,"geometry":{"type":"Point","coordinates":[-74.91355,5.73542]},"properties":{"OBJECTID":31,"NOMBRE_ES":"BUTANTAN [23055020]","DEPARTAMEN":"CALDAS","COD_MPIO":376,"MUNICIPIO":"SAMANÁ","CORRIENTE":"SAMANA","X":907390,"Y":1126046}},{"type":"Feature","id":32,"geometry":{"type":"Point","coordinates":[-74.88788,5.73919]},"properties":{"OBJECTID":32,"NOMBRE_ES":"TENDIDOS 4-9061 [23055030]","DEPARTAMEN":"CALDAS","COD_MPIO":376,"MUNICIPIO":"SAMANÁ","CORRIENTE":"SAMANA SUR","X":910234,"Y":1126459}},{"type":"Feature","id":33,"geometry":{"type":"Point","coordinates":[-74.95001,5.60999]},"properties":{"OBJECTID":33,"NOMBRE_ES":"VERGEL EL [23055060]","DEPARTAMEN":"CALDAS","COD_MPIO":376,"MUNICIPIO":"SAMANÁ","CORRIENTE":"LA MIEL","X":903331,"Y":1112180}},{"type":"Feature","id":34,"geometry":{"type":"Point","coordinates":[-75.05001,5.66]},"properties":{"OBJECTID":34,"NOMBRE_ES":"PTE LINDA [23055090]","DEPARTAMEN":"CALDAS","COD_MPIO":376,"MUNICIPIO":"SAMANÁ","CORRIENTE":"SAMANA SUR","X":892260,"Y":1117728}},{"type":"Feature","id":35,"geometry":{"type":"Point","coordinates":[-75.16,5.53]},"properties":{"OBJECTID":35,"NOMBRE_ES":"CIRCASIA HDA [23057070]","DEPARTAMEN":"CALDAS","COD_MPIO":372,"MUNICIPIO":"PENSILVANIA","CORRIENTE":"SAMANA SUR","X":880046,"Y":1103371}},{"type":"Feature","id":36,"geometry":{"type":"Point","coordinates":[-74.8,5.69999]},"properties":{"OBJECTID":36,"NOMBRE_ES":"BUTANTAN [23057080]","DEPARTAMEN":"CALDAS","COD_MPIO":376,"MUNICIPIO":"SAMANÁ","CORRIENTE":"SAMANA SUR","X":919964,"Y":1122111}},{"type":"Feature","id":37,"geometry":{"type":"Point","coordinates":[-74.95001,5.36]},"properties":{"OBJECTID":37,"NOMBRE_ES":"PTE SAMANA 4-153 [23057100]","DEPARTAMEN":"CALDAS","COD_MPIO":372,"MUNICIPIO":"PENSILVANIA","CORRIENTE":"LA MIEL","X":903291,"Y":1084531}},{"type":"Feature","id":38,"geometry":{"type":"Point","coordinates":[-75.05001,5.33]},"properties":{"OBJECTID":38,"NOMBRE_ES":"RIO LA MIEL 4-154 [23057120]","DEPARTAMEN":"CALDAS","COD_MPIO":367,"MUNICIPIO":"MARQUETALIA","CORRIENTE":"LA MIEL","X":892201,"Y":1081230}},{"type":"Feature","id":39,"geometry":{"type":"Point","coordinates":[-74.90001,5.53]},"properties":{"OBJECTID":39,"NOMBRE_ES":"EMBALSE 4-153A [23057170]","DEPARTAMEN":"CALDAS","COD_MPIO":376,"MUNICIPIO":"SAMANÁ","CORRIENTE":"LA MIEL","X":908859,"Y":1103325}},{"type":"Feature","id":40,"geometry":{"type":"Point","coordinates":[-75.03001,5.65999]},"properties":{"OBJECTID":40,"NOMBRE_ES":"TENDIDOS 4-944 [23057190]","DEPARTAMEN":"CALDAS","COD_MPIO":376,"MUNICIPIO":"SAMANÁ","CORRIENTE":"SAMANA SUR","X":894476,"Y":1117724}}]}