{"type":"FeatureCollection","name":"Funcion_amortiguadora_RFP_Diamante","crs":{"type":"name","properties":{"name":"urn:ogc:def:crs:OGC:1.3:CRS84"}},"features":[{"type":"Feature","id":0,"geometry":{"type":"MultiPolygon","coordinates":[[[[-75.38383,5.25165],[-75.38367,5.25192],[-75.38367,5.25221],[-75.38367,5.25235],[-75.38373,5.25247],[-75.38382,5.25268],[-75.38385,5.25271],[-75.38387,5.25272],[-75.38389,5.25274],[-75.38396,5.2528],[-75.38403,5.25287],[-75.38416,5.25291],[-75.38417,5.25292],[-75.38431,5.25308],[-75.38436,5.25314],[-75.38444,5.2532],[-75.38464,5.25334],[-75.38482,5.25341],[-75.38491,5.25345],[-75.38504,5.25358],[-75.38509,5.25363],[-75.38527,5.25383],[-75.38528,5.25387],[-75.38528,5.25387],[-75.38532,5.25363],[-75.3852,5.25277],[-75.38519,5.25267],[-75.38514,5.25263],[-75.38501,5.25253],[-75.38449,5.25213],[-75.38427,5.25195],[-75.38427,5.25195],[-75.38421,5.2519],[-75.38416,5.25186],[-75.38386,5.25163],[-75.38385,5.25161],[-75.38383,5.25165]]],[[[-75.46348,5.26627],[-75.46292,5.2663],[-75.46287,5.26627],[-75.4623,5.26597],[-75.46083,5.26602],[-75.4599,5.26637],[-75.4598,5.26642],[-75.45951,5.26653],[-75.45844,5.26696],[-75.45812,5.26709],[-75.45778,5.26723],[-75.45775,5.26724],[-75.45771,5.26726],[-75.45758,5.26731],[-75.45752,5.26733],[-75.45731,5.26726],[-75.4571,5.26719],[-75.45706,5.26718],[-75.45704,5.26717],[-75.45691,5.26713],[-75.45665,5.26705],[-75.45652,5.26701],[-75.4557,5.26688],[-75.45508,5.26644],[-75.45434,5.26672],[-75.45361,5.26697],[-75.45205,5.267],[-75.45163,5.26703],[-75.45112,5.26707],[-75.45045,5.26713],[-75.44877,5.26725],[-75.44698,5.2674],[-75.44531,5.26775],[-75.44382,5.26718],[-75.44334,5.267],[-75.44258,5.26671],[-75.44255,5.26669],[-75.44196,5.26666],[-75.44125,5.26662],[-75.44126,5.26661],[-75.44142,5.26653],[-75.44149,5.26653],[-75.44149,5.26644],[-75.44148,5.26636],[-75.44147,5.26632],[-75.44146,5.26625],[-75.44143,5.26603],[-75.44147,5.26601],[-75.44208,5.26575],[-75.4422,5.26562],[-75.44233,5.26552],[-75.44245,5.26537],[-75.44255,5.26523],[-75.44265,5.26513],[-75.44274,5.26505],[-75.44284,5.26492],[-75.44284,5.26491],[-75.44291,5.26485],[-75.44301,5.26474],[-75.44311,5.26463],[-75.44321,5.26451],[-75.44334,5.26433],[-75.44337,5.26424],[-75.44344,5.26406],[-75.44344,5.26391],[-75.44344,5.26378],[-75.44344,5.26375],[-75.44344,5.26371],[-75.44344,5.26368],[-75.44348,5.26361],[-75.44349,5.26358],[-75.44354,5.26346],[-75.44371,5.2633],[-75.44385,5.26323],[-75.44388,5.26321],[-75.44401,5.26315],[-75.44407,5.26311],[-75.44415,5.26305],[-75.44418,5.26292],[-75.44427,5.26272],[-75.44441,5.26262],[-75.44457,5.26255],[-75.44467,5.26242],[-75.4448,5.26232],[-75.44481,5.26231],[-75.44489,5.26216],[-75.44489,5.26215],[-75.44502,5.26198],[-75.44514,5.26178],[-75.44527,5.26158],[-75.44528,5.26155],[-75.4454,5.26138],[-75.44546,5.26131],[-75.44556,5.26121],[-75.44565,5.26112],[-75.44588,5.26096],[-75.44589,5.26096],[-75.44593,5.26094],[-75.44606,5.26089],[-75.44636,5.26086],[-75.44649,5.26087],[-75.4465,5.26086],[-75.44663,5.26084],[-75.44677,5.26078],[-75.4468,5.26077],[-75.4469,5.26074],[-75.44711,5.26068],[-75.44724,5.26065],[-75.44741,5.2606],[-75.44745,5.26059],[-75.44759,5.26056],[-75.44777,5.26046],[-75.44788,5.26036],[-75.44795,5.26023],[-75.44799,5.26017],[-75.44806,5.26007],[-75.44828,5.2599],[-75.44839,5.25977],[-75.44839,5.25976],[-75.4485,5.25961],[-75.44868,5.25947],[-75.44882,5.25941],[-75.44893,5.25934],[-75.449,5.25934],[-75.44924,5.25931],[-75.44938,5.25928],[-75.44952,5.25928],[-75.44973,5.25928],[-75.44994,5.25928],[-75.45009,5.25924],[-75.45022,5.25914],[-75.45036,5.25901],[-75.45047,5.25897],[-75.45061,5.25891],[-75.45072,5.25884],[-75.45093,5.25877],[-75.45103,5.25874],[-75.45127,5.25874],[-75.45145,5.25874],[-75.45165,5.25874],[-75.45186,5.25874],[-75.4519,5.25874],[-75.4521,5.25876],[-75.45217,5.25877],[-75.4523,5.2588],[-75.45251,5.2588],[-75.45259,5.25883],[-75.45261,5.25884],[-75.45278,5.25884],[-75.45292,5.25884],[-75.4531,5.25877],[-75.45314,5.25863],[-75.45314,5.2586],[-75.45315,5.2585],[-75.45316,5.25848],[-75.45319,5.2584],[-75.45306,5.25829],[-75.45314,5.25816],[-75.45322,5.25802],[-75.45324,5.25785],[-75.45323,5.25767],[-75.45314,5.2575],[-75.4531,5.25739],[-75.45309,5.25736],[-75.45304,5.25727],[-75.45295,5.25711],[-75.45286,5.2569],[-75.4528,5.25674],[-75.4528,5.25673],[-75.45279,5.2567],[-75.45274,5.25652],[-75.45267,5.25631],[-75.45263,5.25624],[-75.45261,5.25621],[-75.45256,5.25611],[-75.45249,5.25602],[-75.45236,5.25587],[-75.45225,5.25567],[-75.45221,5.25547],[-75.45217,5.2554],[-75.4521,5.25529],[-75.45209,5.25526],[-75.45207,5.25523],[-75.45205,5.25521],[-75.45198,5.25512],[-75.45194,5.25506],[-75.45183,5.25503],[-75.45164,5.25494],[-75.45158,5.25492],[-75.45151,5.25491],[-75.45147,5.2549],[-75.45135,5.25488],[-75.45124,5.25478],[-75.4511,5.2547],[-75.45102,5.25465],[-75.45095,5.25461],[-75.45087,5.25455],[-75.45086,5.25454],[-75.45078,5.25446],[-75.45072,5.25439],[-75.45061,5.25429],[-75.45047,5.25419],[-75.45036,5.25409],[-75.45028,5.25396],[-75.45019,5.25388],[-75.45015,5.25384],[-75.45014,5.25383],[-75.45012,5.25381],[-75.45011,5.2538],[-75.45003,5.2537],[-75.45,5.25365],[-75.44995,5.25354],[-75.44991,5.25338],[-75.44983,5.25329],[-75.44976,5.25316],[-75.44965,5.25303],[-75.4495,5.25294],[-75.44943,5.25285],[-75.44931,5.25272],[-75.44923,5.25257],[-75.44916,5.25244],[-75.44911,5.25232],[-75.44911,5.25219],[-75.44913,5.25204],[-75.44922,5.25188],[-75.44931,5.25176],[-75.44943,5.25157],[-75.44946,5.25147],[-75.44952,5.25132],[-75.44951,5.2512],[-75.44957,5.25104],[-75.44959,5.25089],[-75.44964,5.25076],[-75.44965,5.25073],[-75.44967,5.25058],[-75.4497,5.25046],[-75.44969,5.25034],[-75.44968,5.25012],[-75.44964,5.25],[-75.44963,5.24998],[-75.44961,5.2499],[-75.44951,5.24977],[-75.44937,5.24958],[-75.44924,5.24949],[-75.4491,5.24939],[-75.44904,5.2494],[-75.44884,5.24933],[-75.44864,5.24934],[-75.44844,5.24934],[-75.4483,5.24941],[-75.44807,5.24942],[-75.44791,5.24942],[-75.44775,5.24942],[-75.44768,5.24942],[-75.44745,5.24943],[-75.44729,5.24943],[-75.44715,5.24943],[-75.44699,5.24942],[-75.4469,5.24945],[-75.44671,5.24948],[-75.44651,5.24954],[-75.44638,5.24958],[-75.44615,5.24964],[-75.44599,5.24971],[-75.44582,5.24974],[-75.44559,5.24975],[-75.44546,5.24978],[-75.44523,5.24988],[-75.445,5.25006],[-75.44493,5.25009],[-75.44477,5.25023],[-75.4446,5.25027],[-75.44447,5.2503],[-75.44434,5.25034],[-75.44408,5.25035],[-75.44395,5.25038],[-75.44382,5.25039],[-75.44366,5.25039],[-75.4435,5.25036],[-75.44337,5.25037],[-75.44314,5.25027],[-75.44307,5.25028],[-75.44288,5.25023],[-75.44272,5.2502],[-75.44252,5.25021],[-75.44239,5.25029],[-75.44223,5.25036],[-75.4422,5.2504],[-75.44204,5.25044],[-75.44185,5.25051],[-75.44175,5.25063],[-75.44172,5.25065],[-75.44156,5.25086],[-75.44147,5.25093],[-75.44131,5.25104],[-75.44112,5.25107],[-75.44096,5.25104],[-75.44093,5.25104],[-75.44074,5.25098],[-75.44039,5.25099],[-75.44014,5.25094],[-75.44011,5.25094],[-75.43989,5.25086],[-75.4398,5.25081],[-75.43958,5.25069],[-75.43923,5.25057],[-75.43914,5.25058],[-75.43893,5.25059],[-75.43864,5.25061],[-75.43861,5.25061],[-75.43857,5.25063],[-75.43839,5.25071],[-75.43828,5.25076],[-75.43817,5.25081],[-75.43799,5.25092],[-75.43777,5.25099],[-75.43755,5.25109],[-75.43734,5.25116],[-75.4371,5.25133],[-75.43695,5.25143],[-75.43683,5.25153],[-75.43667,5.2516],[-75.43649,5.2517],[-75.43634,5.25174],[-75.43622,5.25183],[-75.43604,5.2519],[-75.43586,5.25194],[-75.43571,5.25195],[-75.43554,5.25187],[-75.43548,5.25184],[-75.4353,5.25176],[-75.43513,5.25174],[-75.43484,5.2517],[-75.4347,5.25174],[-75.4347,5.25175],[-75.43466,5.25177],[-75.43464,5.25178],[-75.43447,5.25188],[-75.43436,5.25189],[-75.43417,5.25197],[-75.43404,5.25205],[-75.43385,5.2521],[-75.43375,5.25212],[-75.43359,5.25214],[-75.43352,5.25212],[-75.43341,5.2521],[-75.43327,5.25201],[-75.43314,5.252],[-75.43299,5.25199],[-75.43289,5.25201],[-75.43287,5.25201],[-75.43265,5.25209],[-75.43258,5.25198],[-75.43253,5.25187],[-75.43246,5.25177],[-75.43237,5.25166],[-75.43229,5.25162],[-75.4322,5.25154],[-75.43214,5.2515],[-75.43207,5.25144],[-75.43199,5.25141],[-75.43181,5.2513],[-75.43164,5.25119],[-75.43162,5.25119],[-75.43155,5.25112],[-75.43147,5.25105],[-75.43141,5.25095],[-75.43135,5.25087],[-75.43125,5.25076],[-75.43106,5.25066],[-75.43101,5.25061],[-75.43084,5.25054],[-75.43076,5.25052],[-75.43069,5.2505],[-75.43055,5.25038],[-75.4305,5.25036],[-75.43042,5.25031],[-75.43022,5.25022],[-75.43015,5.2502],[-75.43005,5.25018],[-75.42988,5.25012],[-75.42976,5.25005],[-75.42963,5.25006],[-75.42943,5.25008],[-75.42933,5.25015],[-75.42931,5.25016],[-75.42932,5.25013],[-75.42933,5.24955],[-75.42934,5.24933],[-75.42934,5.24924],[-75.42934,5.24915],[-75.42935,5.24893],[-75.42935,5.24893],[-75.42943,5.24833],[-75.42949,5.24785],[-75.42949,5.24783],[-75.4295,5.24767],[-75.4295,5.24754],[-75.42951,5.24738],[-75.42953,5.24689],[-75.42836,5.24638],[-75.42817,5.2463],[-75.42779,5.24613],[-75.42747,5.24599],[-75.42745,5.24596],[-75.42726,5.24566],[-75.42703,5.24531],[-75.4268,5.24506],[-75.42676,5.24502],[-75.42644,5.24467],[-75.42616,5.24444],[-75.426,5.24378],[-75.42585,5.24335],[-75.4258,5.2432],[-75.42556,5.24246],[-75.4255,5.24227],[-75.42548,5.24153],[-75.42556,5.24048],[-75.42525,5.2404],[-75.42472,5.24026],[-75.42464,5.24024],[-75.42387,5.24035],[-75.42363,5.24039],[-75.42353,5.2404],[-75.42293,5.24049],[-75.42177,5.23992],[-75.42128,5.23968],[-75.42099,5.23953],[-75.42086,5.23947],[-75.42085,5.23946],[-75.42043,5.2393],[-75.4194,5.23892],[-75.41918,5.23884],[-75.41798,5.23884],[-75.41623,5.23896],[-75.4154,5.23865],[-75.41489,5.2381],[-75.41428,5.2377],[-75.41356,5.23737],[-75.41259,5.23714],[-75.41228,5.23706],[-75.41198,5.2369],[-75.41164,5.23649],[-75.41129,5.23608],[-75.41109,5.23567],[-75.41087,5.23551],[-75.41064,5.23505],[-75.41059,5.23493],[-75.41056,5.2349],[-75.41054,5.23487],[-75.41052,5.23485],[-75.41036,5.23465],[-75.41029,5.23456],[-75.41024,5.23452],[-75.40962,5.23404],[-75.40949,5.23385],[-75.40886,5.2336],[-75.40812,5.23314],[-75.40762,5.23283],[-75.40691,5.23258],[-75.40664,5.23249],[-75.40653,5.23247],[-75.40616,5.23183],[-75.4059,5.23118],[-75.40577,5.23057],[-75.40568,5.23015],[-75.40536,5.22965],[-75.40472,5.22929],[-75.40403,5.22907],[-75.40362,5.22893],[-75.40328,5.22883],[-75.4028,5.22867],[-75.40276,5.22867],[-75.40222,5.22858],[-75.40182,5.22842],[-75.40037,5.22804],[-75.39957,5.22753],[-75.39864,5.22727],[-75.39825,5.22704],[-75.3982,5.22699],[-75.39816,5.22694],[-75.39788,5.22658],[-75.39762,5.2263],[-75.39739,5.22612],[-75.39728,5.22603],[-75.39708,5.22594],[-75.397,5.2259],[-75.39664,5.22586],[-75.39648,5.22585],[-75.39647,5.22585],[-75.39636,5.2258],[-75.39627,5.22548],[-75.39605,5.22471],[-75.39581,5.22456],[-75.39578,5.22453],[-75.39533,5.22443],[-75.39501,5.22435],[-75.39487,5.22423],[-75.39484,5.2242],[-75.39469,5.22408],[-75.39429,5.22403],[-75.39384,5.2238],[-75.39347,5.22349],[-75.39325,5.22331],[-75.39301,5.22309],[-75.39284,5.22294],[-75.39237,5.22287],[-75.39235,5.22287],[-75.3919,5.2228],[-75.3909,5.2228],[-75.39054,5.22312],[-75.39018,5.2233],[-75.38991,5.22357],[-75.38964,5.22375],[-75.38959,5.22378],[-75.38959,5.22378],[-75.38958,5.22379],[-75.38927,5.22402],[-75.389,5.2242],[-75.38864,5.22447],[-75.38835,5.22465],[-75.38828,5.22469],[-75.38792,5.22492],[-75.38781,5.22521],[-75.38751,5.22534],[-75.38749,5.22534],[-75.38702,5.22552],[-75.38661,5.22562],[-75.38633,5.22568],[-75.38607,5.22565],[-75.38585,5.22566],[-75.38558,5.22584],[-75.38509,5.22607],[-75.38469,5.22624],[-75.38466,5.22627],[-75.38434,5.2264],[-75.3838,5.22677],[-75.38375,5.22676],[-75.38365,5.22675],[-75.38361,5.22675],[-75.38335,5.22672],[-75.3817,5.2264],[-75.38152,5.22639],[-75.38093,5.22636],[-75.38057,5.22635],[-75.37953,5.22603],[-75.37904,5.22571],[-75.37863,5.22566],[-75.37809,5.22566],[-75.37805,5.22568],[-75.37799,5.22563],[-75.37792,5.22556],[-75.37785,5.2255],[-75.37772,5.22537],[-75.37771,5.22536],[-75.3777,5.22536],[-75.37763,5.22529],[-75.37752,5.22516],[-75.37746,5.22511],[-75.37745,5.22509],[-75.37739,5.22502],[-75.37733,5.22495],[-75.37726,5.22488],[-75.3772,5.22481],[-75.37714,5.22474],[-75.37704,5.22468],[-75.37696,5.22463],[-75.37688,5.22457],[-75.3768,5.22452],[-75.37672,5.22447],[-75.37666,5.22443],[-75.37664,5.22441],[-75.37655,5.22436],[-75.37647,5.22431],[-75.3764,5.22426],[-75.37634,5.22422],[-75.37632,5.22421],[-75.37624,5.22416],[-75.37624,5.22416],[-75.37616,5.2241],[-75.37608,5.22405],[-75.37599,5.22401],[-75.3759,5.22397],[-75.37582,5.22392],[-75.37573,5.22388],[-75.37563,5.22383],[-75.37555,5.22379],[-75.37546,5.22375],[-75.37537,5.22371],[-75.37529,5.22366],[-75.37524,5.22364],[-75.37515,5.22361],[-75.37506,5.22358],[-75.37497,5.22355],[-75.37488,5.22352],[-75.3748,5.22349],[-75.37471,5.22346],[-75.37462,5.22343],[-75.37454,5.22341],[-75.37445,5.22338],[-75.37442,5.22337],[-75.37432,5.22331],[-75.37424,5.22326],[-75.37415,5.22321],[-75.37407,5.22316],[-75.37397,5.2231],[-75.37389,5.22305],[-75.37384,5.22301],[-75.37377,5.22296],[-75.37369,5.22291],[-75.37361,5.22285],[-75.37353,5.2228],[-75.37345,5.22274],[-75.37337,5.22268],[-75.37331,5.22264],[-75.37329,5.22262],[-75.37321,5.22257],[-75.37313,5.22251],[-75.37305,5.22245],[-75.37301,5.22242],[-75.37296,5.22238],[-75.37289,5.22232],[-75.37285,5.22229],[-75.37282,5.22227],[-75.37271,5.22218],[-75.37263,5.22212],[-75.37255,5.22205],[-75.37248,5.222],[-75.3722,5.22177],[-75.3723,5.22213],[-75.37233,5.22221],[-75.37236,5.2223],[-75.37236,5.22231],[-75.37239,5.22239],[-75.37242,5.22249],[-75.37244,5.22258],[-75.37247,5.22267],[-75.3725,5.22275],[-75.37252,5.22284],[-75.37255,5.22294],[-75.37258,5.22303],[-75.37261,5.22312],[-75.37263,5.22321],[-75.37266,5.2233],[-75.37269,5.22339],[-75.37272,5.22349],[-75.37275,5.22358],[-75.37277,5.22366],[-75.3728,5.22374],[-75.3728,5.22375],[-75.3728,5.22376],[-75.37283,5.22386],[-75.37287,5.22395],[-75.37291,5.22406],[-75.37293,5.22411],[-75.37295,5.22415],[-75.37298,5.22425],[-75.37302,5.22434],[-75.37305,5.22443],[-75.37309,5.22452],[-75.37312,5.2246],[-75.37315,5.22469],[-75.37319,5.22478],[-75.37322,5.22486],[-75.37325,5.22495],[-75.37329,5.22504],[-75.37332,5.22513],[-75.37336,5.22524],[-75.37338,5.22531],[-75.3734,5.2254],[-75.37343,5.22549],[-75.37346,5.22558],[-75.37348,5.22568],[-75.37351,5.22577],[-75.37351,5.22578],[-75.37354,5.22587],[-75.37356,5.22596],[-75.37359,5.22604],[-75.37361,5.22613],[-75.37364,5.22622],[-75.37366,5.22631],[-75.37369,5.22639],[-75.37371,5.22645],[-75.37372,5.22649],[-75.37372,5.2265],[-75.37374,5.22658],[-75.37379,5.22666],[-75.37384,5.22673],[-75.37389,5.22681],[-75.37395,5.2269],[-75.37397,5.22694],[-75.37399,5.22698],[-75.374,5.22699],[-75.37405,5.22706],[-75.3741,5.22715],[-75.37415,5.22723],[-75.37419,5.22729],[-75.3742,5.22731],[-75.37421,5.22732],[-75.37426,5.2274],[-75.37434,5.22756],[-75.37438,5.22765],[-75.37443,5.22773],[-75.37447,5.22782],[-75.37452,5.22791],[-75.37456,5.22799],[-75.37461,5.22809],[-75.37463,5.22814],[-75.37465,5.22817],[-75.37469,5.22826],[-75.37474,5.22834],[-75.37478,5.22843],[-75.37482,5.22851],[-75.37485,5.22857],[-75.37486,5.22859],[-75.37491,5.22869],[-75.37496,5.22878],[-75.375,5.22886],[-75.37509,5.22897],[-75.37514,5.22904],[-75.3752,5.22912],[-75.37526,5.22919],[-75.37533,5.22927],[-75.37538,5.22934],[-75.37545,5.22942],[-75.37551,5.22949],[-75.37557,5.22957],[-75.37563,5.22964],[-75.37569,5.22972],[-75.37575,5.22979],[-75.37581,5.22987],[-75.37588,5.22995],[-75.37594,5.23003],[-75.376,5.23011],[-75.37601,5.23012],[-75.37601,5.23012],[-75.37607,5.2302],[-75.37614,5.23028],[-75.3762,5.23036],[-75.37628,5.23044],[-75.37634,5.23051],[-75.37641,5.23059],[-75.37648,5.23066],[-75.37654,5.23073],[-75.37661,5.2308],[-75.37667,5.23087],[-75.37674,5.23094],[-75.3768,5.23101],[-75.37687,5.23108],[-75.37693,5.23115],[-75.377,5.23122],[-75.37707,5.23129],[-75.37713,5.23136],[-75.3772,5.23143],[-75.37725,5.23148],[-75.3774,5.23168],[-75.37757,5.23188],[-75.37771,5.23199],[-75.37784,5.23209],[-75.37795,5.23217],[-75.37798,5.23219],[-75.37841,5.23263],[-75.37851,5.2327],[-75.37851,5.2327],[-75.37857,5.23278],[-75.37871,5.23291],[-75.37876,5.23297],[-75.37884,5.23308],[-75.37889,5.23316],[-75.37901,5.23339],[-75.37903,5.23341],[-75.3791,5.23346],[-75.37926,5.23357],[-75.37958,5.23377],[-75.37975,5.23382],[-75.37979,5.23385],[-75.37995,5.23395],[-75.38002,5.23401],[-75.38011,5.23406],[-75.38018,5.23411],[-75.38019,5.23412],[-75.38027,5.23417],[-75.38035,5.23422],[-75.38035,5.23422],[-75.38036,5.23423],[-75.38037,5.23424],[-75.38038,5.23424],[-75.38043,5.23428],[-75.38045,5.23429],[-75.38052,5.23436],[-75.38064,5.23452],[-75.38065,5.23453],[-75.38068,5.23458],[-75.38088,5.23489],[-75.38091,5.23499],[-75.38096,5.23515],[-75.38102,5.23532],[-75.38124,5.23598],[-75.38135,5.23618],[-75.38143,5.23633],[-75.38148,5.23638],[-75.3815,5.2364],[-75.3815,5.23641],[-75.38151,5.23645],[-75.38159,5.23659],[-75.38164,5.23667],[-75.3817,5.23676],[-75.38175,5.23685],[-75.3818,5.23694],[-75.38189,5.23706],[-75.38195,5.23714],[-75.382,5.23721],[-75.38202,5.23723],[-75.3821,5.23733],[-75.38217,5.23739],[-75.38223,5.23746],[-75.3823,5.23753],[-75.38238,5.23761],[-75.3824,5.23763],[-75.38246,5.23767],[-75.38254,5.23773],[-75.38258,5.23776],[-75.3826,5.23777],[-75.38267,5.23781],[-75.38276,5.23785],[-75.3828,5.23787],[-75.38284,5.23789],[-75.38295,5.23795],[-75.38303,5.23799],[-75.38312,5.238],[-75.38312,5.238],[-75.38316,5.238],[-75.38331,5.23818],[-75.38349,5.23841],[-75.38374,5.23873],[-75.38412,5.23934],[-75.38418,5.23948],[-75.3842,5.23953],[-75.38433,5.2398],[-75.38438,5.23992],[-75.38439,5.23994],[-75.38446,5.24009],[-75.38447,5.24014],[-75.38469,5.2407],[-75.38482,5.24086],[-75.38482,5.24087],[-75.38493,5.241],[-75.38524,5.24116],[-75.38546,5.24133],[-75.38571,5.24159],[-75.38581,5.24171],[-75.38596,5.24191],[-75.38624,5.24214],[-75.3863,5.24218],[-75.38659,5.24256],[-75.3869,5.24295],[-75.38712,5.24321],[-75.38739,5.2436],[-75.38757,5.24409],[-75.38758,5.24415],[-75.38758,5.24422],[-75.38758,5.24445],[-75.38758,5.24448],[-75.38761,5.24443],[-75.38762,5.24441],[-75.3876,5.2439],[-75.3876,5.24384],[-75.38759,5.24353],[-75.38699,5.24269],[-75.38669,5.24237],[-75.38652,5.24219],[-75.38611,5.24177],[-75.38576,5.24147],[-75.38516,5.24097],[-75.38492,5.24066],[-75.38487,5.2406],[-75.38483,5.24055],[-75.38426,5.23946],[-75.38425,5.23946],[-75.38424,5.23943],[-75.38392,5.23884],[-75.38269,5.23744],[-75.3824,5.23712],[-75.38224,5.23694],[-75.38156,5.23617],[-75.38124,5.23567],[-75.38092,5.2349],[-75.38091,5.23487],[-75.38129,5.23446],[-75.38157,5.23416],[-75.38198,5.23372],[-75.38292,5.23314],[-75.38325,5.23293],[-75.38348,5.23265],[-75.38485,5.23089],[-75.38486,5.23087],[-75.38493,5.23071],[-75.38496,5.23061],[-75.38503,5.23044],[-75.3851,5.23003],[-75.38511,5.22997],[-75.38527,5.22909],[-75.38532,5.22879],[-75.38549,5.22787],[-75.3855,5.22782],[-75.38552,5.22767],[-75.38607,5.22783],[-75.38614,5.22785],[-75.38645,5.22806],[-75.38665,5.2282],[-75.38714,5.22855],[-75.38728,5.22869],[-75.38762,5.22907],[-75.38763,5.22909],[-75.38797,5.22963],[-75.38804,5.22974],[-75.38804,5.22975],[-75.38865,5.23122],[-75.38876,5.23132],[-75.38991,5.23237],[-75.39006,5.23263],[-75.39153,5.23339],[-75.39168,5.23372],[-75.39204,5.23453],[-75.3921,5.23467],[-75.39315,5.23546],[-75.39621,5.23785],[-75.39654,5.23798],[-75.39759,5.23839],[-75.39765,5.23842],[-75.39777,5.23855],[-75.3982,5.23901],[-75.39836,5.23918],[-75.39846,5.23919],[-75.39864,5.23919],[-75.39867,5.23925],[-75.3988,5.23948],[-75.39905,5.23972],[-75.39908,5.23974],[-75.39964,5.24002],[-75.40005,5.24023],[-75.40064,5.24061],[-75.40077,5.2407],[-75.40091,5.24084],[-75.40094,5.24087],[-75.40121,5.24113],[-75.40159,5.24184],[-75.40156,5.24215],[-75.40156,5.24216],[-75.40151,5.24224],[-75.40101,5.24313],[-75.40092,5.24359],[-75.40091,5.24363],[-75.40085,5.24393],[-75.40085,5.24393],[-75.40105,5.24416],[-75.40119,5.24432],[-75.40155,5.24453],[-75.40194,5.24475],[-75.40199,5.24476],[-75.40375,5.24512],[-75.40443,5.24542],[-75.40471,5.24565],[-75.40497,5.24587],[-75.40505,5.24593],[-75.40515,5.24601],[-75.4053,5.24614],[-75.40575,5.24676],[-75.40581,5.24684],[-75.40585,5.24689],[-75.40611,5.2477],[-75.40619,5.2484],[-75.40624,5.24889],[-75.40625,5.24905],[-75.40627,5.24927],[-75.40629,5.24944],[-75.40631,5.24957],[-75.40631,5.24959],[-75.40631,5.24963],[-75.40634,5.24991],[-75.40641,5.25062],[-75.40649,5.25109],[-75.4065,5.25118],[-75.40661,5.25188],[-75.40666,5.25226],[-75.40694,5.25322],[-75.40726,5.25301],[-75.40729,5.25296],[-75.408,5.2518],[-75.40836,5.251],[-75.40846,5.25041],[-75.40853,5.25004],[-75.40856,5.24989],[-75.40856,5.24987],[-75.40861,5.24957],[-75.40868,5.24918],[-75.40878,5.24865],[-75.40882,5.24842],[-75.40882,5.2484],[-75.40884,5.24831],[-75.40899,5.24745],[-75.40933,5.24646],[-75.40939,5.24636],[-75.40949,5.24616],[-75.4095,5.24614],[-75.40955,5.24605],[-75.40957,5.24602],[-75.40971,5.24574],[-75.41032,5.24513],[-75.41035,5.24511],[-75.41114,5.24451],[-75.41117,5.24449],[-75.4118,5.24414],[-75.41181,5.24413],[-75.41182,5.24413],[-75.41254,5.24404],[-75.41321,5.24395],[-75.41354,5.24391],[-75.41368,5.24399],[-75.41382,5.24424],[-75.41412,5.24476],[-75.41445,5.24573],[-75.41484,5.24906],[-75.41492,5.24908],[-75.4149,5.24913],[-75.41474,5.24956],[-75.41431,5.25073],[-75.41418,5.25106],[-75.41396,5.25166],[-75.41396,5.2517],[-75.41393,5.25191],[-75.41391,5.2521],[-75.41389,5.2522],[-75.41389,5.2522],[-75.414,5.25342],[-75.41403,5.2536],[-75.41405,5.25368],[-75.41419,5.2545],[-75.4143,5.25507],[-75.41434,5.2553],[-75.41436,5.25539],[-75.41435,5.25545],[-75.41433,5.25592],[-75.41433,5.25596],[-75.41432,5.25628],[-75.41431,5.2563],[-75.4143,5.25636],[-75.41429,5.25637],[-75.41427,5.25642],[-75.41395,5.25731],[-75.41373,5.25792],[-75.41374,5.25793],[-75.41375,5.25796],[-75.41407,5.25863],[-75.41412,5.25902],[-75.41411,5.25907],[-75.41406,5.25937],[-75.41372,5.26006],[-75.41332,5.26061],[-75.41291,5.26043],[-75.41272,5.26035],[-75.41236,5.2601],[-75.41151,5.25948],[-75.41129,5.25933],[-75.4109,5.25895],[-75.41064,5.2587],[-75.40996,5.25841],[-75.40984,5.25841],[-75.40971,5.25841],[-75.40946,5.25841],[-75.40894,5.25821],[-75.40888,5.25819],[-75.40877,5.25815],[-75.40864,5.25815],[-75.40832,5.25816],[-75.40762,5.25847],[-75.40722,5.25864],[-75.40722,5.25864],[-75.40708,5.25866],[-75.40672,5.2587],[-75.4063,5.25874],[-75.40621,5.25872],[-75.40573,5.25863],[-75.40564,5.25861],[-75.40563,5.25854],[-75.40477,5.25823],[-75.40442,5.25786],[-75.40421,5.2569],[-75.40401,5.25647],[-75.40377,5.25625],[-75.40329,5.25613],[-75.40328,5.25613],[-75.40275,5.256],[-75.40274,5.256],[-75.40274,5.256],[-75.4027,5.25599],[-75.40202,5.25583],[-75.40184,5.25578],[-75.40085,5.25576],[-75.40069,5.25576],[-75.40001,5.25601],[-75.40001,5.25601],[-75.39931,5.25597],[-75.39889,5.2558],[-75.39847,5.25563],[-75.39817,5.25562],[-75.39764,5.25584],[-75.39671,5.25602],[-75.39452,5.25546],[-75.39404,5.25539],[-75.39402,5.25539],[-75.39394,5.25554],[-75.39383,5.25573],[-75.39321,5.25684],[-75.3932,5.25686],[-75.39319,5.25687],[-75.3931,5.25696],[-75.3928,5.25724],[-75.39272,5.25731],[-75.39268,5.2574],[-75.39263,5.2575],[-75.39241,5.25797],[-75.39242,5.258],[-75.39243,5.25823],[-75.39243,5.25825],[-75.39245,5.25856],[-75.3925,5.25865],[-75.39264,5.25892],[-75.39278,5.25918],[-75.39303,5.25946],[-75.39322,5.25968],[-75.39336,5.25978],[-75.39357,5.25993],[-75.39362,5.25997],[-75.39383,5.26011],[-75.39378,5.26014],[-75.39329,5.26052],[-75.39298,5.26083],[-75.39239,5.2614],[-75.39214,5.26173],[-75.39199,5.26193],[-75.39195,5.26198],[-75.39179,5.2622],[-75.39167,5.26191],[-75.39162,5.26179],[-75.39159,5.26172],[-75.39157,5.26166],[-75.39156,5.26165],[-75.39141,5.26129],[-75.39139,5.26122],[-75.39113,5.26103],[-75.39069,5.26071],[-75.39066,5.26068],[-75.39055,5.2606],[-75.39047,5.26054],[-75.39031,5.26042],[-75.38994,5.26],[-75.38978,5.25987],[-75.38944,5.25961],[-75.38918,5.2594],[-75.38882,5.25897],[-75.38879,5.25893],[-75.38864,5.25873],[-75.38816,5.2581],[-75.38809,5.25802],[-75.38762,5.2574],[-75.38706,5.25696],[-75.38645,5.2566],[-75.38604,5.25635],[-75.3854,5.25539],[-75.38539,5.25544],[-75.38533,5.25568],[-75.38533,5.2562],[-75.38547,5.25667],[-75.38579,5.25704],[-75.38608,5.2573],[-75.38622,5.25741],[-75.3864,5.25756],[-75.38687,5.25785],[-75.38701,5.25793],[-75.38712,5.258],[-75.38733,5.25813],[-75.38746,5.25821],[-75.3875,5.25825],[-75.38756,5.25832],[-75.38763,5.25839],[-75.38769,5.25845],[-75.38776,5.25852],[-75.38782,5.25858],[-75.38789,5.25865],[-75.38794,5.25871],[-75.38797,5.25873],[-75.38799,5.25875],[-75.38803,5.2588],[-75.3881,5.25897],[-75.38831,5.25933],[-75.38859,5.25962],[-75.38879,5.25978],[-75.38901,5.25997],[-75.38912,5.26006],[-75.38914,5.26008],[-75.38914,5.26009],[-75.38918,5.26015],[-75.38918,5.26017],[-75.38924,5.26024],[-75.38929,5.26032],[-75.3893,5.26033],[-75.38935,5.26041],[-75.38938,5.26045],[-75.38938,5.26045],[-75.38945,5.26051],[-75.38948,5.26053],[-75.38953,5.26057],[-75.3896,5.26062],[-75.38969,5.26068],[-75.38971,5.2607],[-75.38974,5.26073],[-75.38981,5.26078],[-75.38988,5.26083],[-75.38996,5.26089],[-75.38999,5.26092],[-75.39003,5.26095],[-75.39007,5.26097],[-75.3902,5.26109],[-75.39026,5.26118],[-75.39026,5.26118],[-75.39034,5.26129],[-75.39046,5.26147],[-75.39068,5.26169],[-75.39076,5.26177],[-75.39087,5.26183],[-75.391,5.26198],[-75.3912,5.26219],[-75.39143,5.2625],[-75.39164,5.26285],[-75.39168,5.26295],[-75.39169,5.26298],[-75.39171,5.26301],[-75.39172,5.26304],[-75.39176,5.26313],[-75.3918,5.26322],[-75.39183,5.26331],[-75.39187,5.26342],[-75.39191,5.26352],[-75.39194,5.26361],[-75.39197,5.2637],[-75.392,5.26379],[-75.39202,5.26388],[-75.39203,5.26389],[-75.39203,5.2639],[-75.39203,5.26391],[-75.39208,5.26412],[-75.39208,5.26413],[-75.39207,5.2643],[-75.39207,5.26432],[-75.39205,5.26454],[-75.39204,5.26463],[-75.39204,5.26465],[-75.39203,5.26494],[-75.39201,5.26522],[-75.39202,5.26527],[-75.39207,5.2655],[-75.39221,5.26585],[-75.39224,5.2659],[-75.39225,5.26591],[-75.39225,5.26593],[-75.39226,5.26603],[-75.39227,5.26609],[-75.39228,5.26612],[-75.39234,5.26651],[-75.39241,5.26681],[-75.39238,5.26694],[-75.39233,5.26707],[-75.39232,5.26708],[-75.39224,5.26721],[-75.39211,5.26757],[-75.39187,5.26822],[-75.39191,5.26842],[-75.39193,5.26845],[-75.3919,5.26852],[-75.39186,5.26862],[-75.39194,5.26889],[-75.39203,5.26911],[-75.39215,5.26933],[-75.39235,5.26954],[-75.39261,5.26978],[-75.39299,5.27019],[-75.39324,5.2706],[-75.39331,5.27086],[-75.39334,5.27137],[-75.39334,5.27163],[-75.39335,5.27199],[-75.39335,5.27217],[-75.39332,5.2724],[-75.39329,5.27261],[-75.39328,5.27287],[-75.39328,5.27289],[-75.39322,5.27306],[-75.39328,5.27317],[-75.39328,5.27317],[-75.3933,5.27349],[-75.3934,5.2738],[-75.39362,5.27408],[-75.39374,5.27413],[-75.39375,5.27414],[-75.39378,5.27414],[-75.39385,5.27417],[-75.39418,5.27418],[-75.39422,5.27418],[-75.3944,5.27416],[-75.39448,5.27416],[-75.39482,5.27418],[-75.39493,5.2742],[-75.39505,5.27422],[-75.39531,5.27427],[-75.39577,5.27444],[-75.3958,5.27445],[-75.39596,5.27453],[-75.3961,5.27459],[-75.39627,5.27467],[-75.39636,5.27471],[-75.39649,5.27476],[-75.39651,5.27477],[-75.39682,5.27494],[-75.39708,5.27513],[-75.3973,5.27531],[-75.39731,5.27531],[-75.39732,5.27532],[-75.39761,5.27555],[-75.39765,5.27558],[-75.39781,5.27574],[-75.39782,5.27574],[-75.39796,5.27587],[-75.39815,5.27598],[-75.39839,5.27616],[-75.39872,5.27639],[-75.39905,5.27659],[-75.39909,5.27661],[-75.3991,5.27662],[-75.39934,5.27676],[-75.39945,5.27683],[-75.39949,5.27687],[-75.3995,5.27687],[-75.39981,5.27717],[-75.4002,5.27738],[-75.40077,5.27771],[-75.40124,5.27796],[-75.40173,5.2782],[-75.4019,5.27825],[-75.40205,5.27829],[-75.40214,5.27829],[-75.40244,5.27829],[-75.40269,5.27827],[-75.40315,5.27824],[-75.40315,5.27824],[-75.40321,5.27823],[-75.40356,5.27818],[-75.40368,5.27838],[-75.40386,5.27868],[-75.40397,5.27887],[-75.40405,5.27914],[-75.40406,5.27944],[-75.40406,5.27949],[-75.40406,5.27955],[-75.40401,5.28077],[-75.40411,5.28116],[-75.4041,5.28125],[-75.40415,5.28143],[-75.40429,5.28163],[-75.40433,5.28169],[-75.40435,5.28173],[-75.40439,5.28179],[-75.40451,5.28203],[-75.40453,5.2822],[-75.40461,5.28245],[-75.40473,5.28278],[-75.40474,5.28281],[-75.40474,5.28283],[-75.40481,5.28308],[-75.40489,5.28321],[-75.4049,5.28324],[-75.40501,5.28391],[-75.40515,5.28413],[-75.40519,5.28423],[-75.40524,5.28437],[-75.40529,5.2845],[-75.40536,5.28467],[-75.4054,5.28477],[-75.40542,5.28479],[-75.4055,5.28488],[-75.40552,5.28522],[-75.40553,5.28546],[-75.40558,5.28594],[-75.40562,5.28637],[-75.40576,5.28677],[-75.40587,5.28714],[-75.40598,5.28742],[-75.40601,5.28749],[-75.40607,5.28763],[-75.40608,5.28767],[-75.40611,5.28771],[-75.40607,5.28786],[-75.40607,5.28815],[-75.40611,5.28827],[-75.40621,5.28851],[-75.40624,5.28862],[-75.40625,5.28885],[-75.40636,5.28915],[-75.4064,5.28936],[-75.40642,5.28946],[-75.40645,5.28965],[-75.40657,5.28988],[-75.40689,5.29147],[-75.40689,5.2915],[-75.40689,5.29153],[-75.40692,5.29163],[-75.40693,5.29166],[-75.407,5.292],[-75.40702,5.29234],[-75.40704,5.2925],[-75.40704,5.29252],[-75.40704,5.29301],[-75.40709,5.29303],[-75.40709,5.29307],[-75.40705,5.29334],[-75.40711,5.29353],[-75.40711,5.29341],[-75.40713,5.29345],[-75.40735,5.29342],[-75.40743,5.29337],[-75.40757,5.29321],[-75.4077,5.29298],[-75.40792,5.29264],[-75.40808,5.29238],[-75.40815,5.29226],[-75.40823,5.2922],[-75.40845,5.29203],[-75.40848,5.292],[-75.40861,5.29182],[-75.40863,5.29181],[-75.40888,5.29168],[-75.40913,5.29171],[-75.40945,5.29179],[-75.40966,5.29177],[-75.40968,5.29177],[-75.40999,5.29166],[-75.41,5.29166],[-75.41027,5.29149],[-75.41033,5.29145],[-75.41048,5.29122],[-75.41066,5.29098],[-75.41072,5.29081],[-75.41075,5.29071],[-75.41081,5.29052],[-75.41088,5.29021],[-75.41103,5.28987],[-75.41108,5.28979],[-75.41127,5.28945],[-75.41144,5.2892],[-75.41164,5.28893],[-75.41175,5.28893],[-75.41192,5.28895],[-75.41221,5.28897],[-75.41221,5.28897],[-75.41275,5.28884],[-75.41291,5.28871],[-75.41294,5.28869],[-75.41307,5.28875],[-75.41318,5.28855],[-75.41346,5.28841],[-75.41375,5.28827],[-75.41378,5.28825],[-75.41393,5.28814],[-75.41405,5.28801],[-75.4142,5.28782],[-75.41422,5.2878],[-75.41426,5.28777],[-75.41427,5.28774],[-75.41433,5.28767],[-75.41455,5.28743],[-75.41459,5.28738],[-75.41464,5.2873],[-75.41471,5.28719],[-75.41484,5.28699],[-75.41494,5.28675],[-75.41501,5.28659],[-75.41501,5.28659],[-75.41512,5.28633],[-75.41517,5.28619],[-75.41522,5.28602],[-75.41524,5.28598],[-75.41527,5.28589],[-75.41533,5.28571],[-75.41535,5.28565],[-75.41536,5.28564],[-75.41548,5.28533],[-75.41553,5.28519],[-75.41567,5.28484],[-75.41589,5.28424],[-75.41595,5.28406],[-75.41609,5.28384],[-75.41613,5.28377],[-75.41616,5.28377],[-75.41641,5.28377],[-75.41644,5.28377],[-75.41647,5.28377],[-75.41697,5.28365],[-75.417,5.28364],[-75.4174,5.28362],[-75.41754,5.28362],[-75.41784,5.28361],[-75.4182,5.28361],[-75.41839,5.28351],[-75.41896,5.28335],[-75.41919,5.2833],[-75.41935,5.28326],[-75.41963,5.2832],[-75.41966,5.28319],[-75.41995,5.28326],[-75.42015,5.2834],[-75.42031,5.28352],[-75.42072,5.28382],[-75.42078,5.28387],[-75.42096,5.28404],[-75.4211,5.28418],[-75.42124,5.28431],[-75.42145,5.28445],[-75.42154,5.28451],[-75.4216,5.28455],[-75.42161,5.28456],[-75.42192,5.28499],[-75.422,5.28504],[-75.42231,5.28526],[-75.4225,5.28533],[-75.42261,5.28538],[-75.42293,5.28533],[-75.42301,5.28531],[-75.42316,5.28526],[-75.42318,5.28525],[-75.42356,5.28503],[-75.42379,5.28495],[-75.42428,5.28479],[-75.42443,5.28477],[-75.42479,5.2847],[-75.42502,5.28471],[-75.42524,5.28479],[-75.4254,5.28486],[-75.42549,5.28492],[-75.42555,5.28496],[-75.42565,5.28502],[-75.42586,5.28511],[-75.42618,5.28525],[-75.42651,5.28535],[-75.42679,5.2854],[-75.42711,5.28544],[-75.42741,5.28544],[-75.42767,5.28545],[-75.4278,5.28542],[-75.42783,5.28541],[-75.42802,5.28544],[-75.42803,5.28544],[-75.4282,5.28546],[-75.42911,5.28602],[-75.42917,5.28608],[-75.42924,5.28616],[-75.42932,5.28624],[-75.42938,5.28629],[-75.42943,5.2863],[-75.42955,5.28631],[-75.42961,5.28631],[-75.42974,5.28631],[-75.42985,5.28632],[-75.42995,5.28633],[-75.42996,5.28633],[-75.43042,5.28647],[-75.43151,5.28657],[-75.43166,5.28666],[-75.43176,5.28666],[-75.43181,5.2867],[-75.43196,5.28681],[-75.43209,5.28686],[-75.43216,5.28687],[-75.43228,5.28686],[-75.43239,5.28681],[-75.43239,5.28681],[-75.4325,5.28674],[-75.43252,5.28672],[-75.43262,5.28662],[-75.43275,5.28649],[-75.43286,5.28642],[-75.433,5.28632],[-75.43313,5.28625],[-75.43337,5.28616],[-75.43346,5.28613],[-75.43357,5.28606],[-75.43382,5.28592],[-75.43416,5.28568],[-75.43423,5.28563],[-75.43424,5.28562],[-75.43442,5.2855],[-75.43444,5.28548],[-75.43484,5.28525],[-75.43534,5.28507],[-75.43576,5.28536],[-75.43636,5.28537],[-75.43658,5.28537],[-75.43657,5.2856],[-75.43656,5.28595],[-75.43673,5.28607],[-75.43674,5.28608],[-75.43676,5.28609],[-75.43691,5.28623],[-75.43695,5.28626],[-75.43709,5.28633],[-75.43729,5.28643],[-75.43729,5.28643],[-75.43732,5.28644],[-75.43735,5.28646],[-75.43764,5.28654],[-75.43778,5.28661],[-75.43801,5.2867],[-75.43805,5.28671],[-75.43818,5.28677],[-75.43834,5.28682],[-75.43842,5.28683],[-75.43917,5.28708],[-75.44016,5.28705],[-75.44022,5.28696],[-75.44076,5.28625],[-75.44086,5.28618],[-75.44137,5.28586],[-75.44128,5.28563],[-75.44121,5.28543],[-75.44203,5.28544],[-75.44226,5.28545],[-75.44288,5.2849],[-75.44297,5.28483],[-75.44402,5.28401],[-75.44419,5.28387],[-75.4444,5.2837],[-75.44451,5.28359],[-75.44453,5.28357],[-75.44488,5.28317],[-75.44502,5.28301],[-75.44503,5.28253],[-75.44503,5.28252],[-75.44503,5.28242],[-75.44503,5.28227],[-75.44503,5.28226],[-75.44503,5.28185],[-75.44486,5.28154],[-75.44481,5.28145],[-75.44446,5.2808],[-75.44438,5.28065],[-75.4443,5.28046],[-75.44404,5.27986],[-75.44386,5.27964],[-75.44327,5.27893],[-75.44322,5.27888],[-75.44211,5.27764],[-75.44205,5.2776],[-75.44166,5.27736],[-75.43958,5.27605],[-75.43913,5.27565],[-75.4389,5.27545],[-75.43843,5.27501],[-75.43779,5.27444],[-75.43769,5.27435],[-75.43698,5.27371],[-75.43689,5.27345],[-75.4369,5.27345],[-75.43699,5.27346],[-75.43708,5.27346],[-75.43715,5.27349],[-75.43726,5.2735],[-75.43739,5.27353],[-75.43746,5.27353],[-75.43761,5.27356],[-75.4377,5.27361],[-75.43773,5.27363],[-75.43775,5.27363],[-75.43784,5.27367],[-75.43795,5.27372],[-75.43804,5.27377],[-75.43818,5.27384],[-75.43827,5.27389],[-75.43834,5.27395],[-75.43838,5.27404],[-75.43845,5.27414],[-75.43854,5.27419],[-75.43857,5.2742],[-75.43868,5.27425],[-75.4387,5.27426],[-75.43878,5.2743],[-75.4388,5.27431],[-75.43881,5.27431],[-75.43883,5.27431],[-75.43898,5.27432],[-75.43913,5.27427],[-75.43922,5.27423],[-75.43932,5.27417],[-75.43944,5.27414],[-75.43951,5.27405],[-75.43956,5.27398],[-75.43963,5.27388],[-75.43968,5.27379],[-75.43978,5.27375],[-75.43983,5.27373],[-75.43999,5.27372],[-75.44012,5.27372],[-75.44029,5.27381],[-75.44044,5.27384],[-75.44061,5.27387],[-75.44071,5.2739],[-75.44085,5.2739],[-75.44095,5.27388],[-75.44102,5.27385],[-75.44104,5.27384],[-75.4411,5.2738],[-75.4411,5.2738],[-75.44114,5.27377],[-75.44119,5.27374],[-75.44128,5.2737],[-75.44129,5.27369],[-75.44136,5.27364],[-75.44137,5.27363],[-75.4414,5.27359],[-75.44144,5.27353],[-75.44147,5.27348],[-75.44151,5.27341],[-75.44153,5.27332],[-75.44153,5.27332],[-75.44153,5.27317],[-75.44153,5.27306],[-75.44153,5.27294],[-75.44152,5.27279],[-75.44152,5.2727],[-75.44152,5.27258],[-75.44156,5.27248],[-75.44156,5.27246],[-75.44156,5.27239],[-75.44158,5.27234],[-75.44158,5.27233],[-75.44163,5.2722],[-75.44163,5.27218],[-75.44162,5.27208],[-75.4416,5.27199],[-75.44158,5.27194],[-75.44157,5.27189],[-75.44154,5.27182],[-75.44152,5.27168],[-75.44151,5.27159],[-75.4415,5.27142],[-75.44147,5.27123],[-75.44147,5.27112],[-75.44146,5.27098],[-75.4415,5.27084],[-75.44156,5.2707],[-75.44155,5.27063],[-75.44161,5.27049],[-75.44167,5.27033],[-75.44169,5.27024],[-75.44177,5.27012],[-75.44185,5.26998],[-75.44191,5.26989],[-75.44197,5.26983],[-75.44205,5.26976],[-75.44211,5.26969],[-75.4422,5.26962],[-75.44226,5.26956],[-75.44227,5.26954],[-75.44302,5.27009],[-75.4437,5.27095],[-75.4439,5.2712],[-75.44438,5.27131],[-75.44441,5.27132],[-75.44451,5.27134],[-75.44462,5.27136],[-75.44463,5.27136],[-75.4449,5.27156],[-75.44507,5.27169],[-75.44521,5.27179],[-75.44608,5.2724],[-75.44629,5.27254],[-75.44646,5.27262],[-75.44658,5.27267],[-75.44714,5.2729],[-75.44857,5.27351],[-75.44867,5.27355],[-75.44912,5.27374],[-75.4495,5.2739],[-75.4495,5.2739],[-75.45123,5.27457],[-75.45257,5.27564],[-75.45416,5.27643],[-75.45658,5.27631],[-75.45831,5.2763],[-75.4584,5.27629],[-75.45858,5.27629],[-75.45882,5.27628],[-75.45906,5.27627],[-75.46096,5.2762],[-75.4627,5.27494],[-75.46462,5.27347],[-75.46575,5.27288],[-75.4665,5.27249],[-75.46691,5.27234],[-75.46705,5.27229],[-75.46707,5.27229],[-75.4671,5.27228],[-75.46797,5.27198],[-75.46797,5.27198],[-75.46803,5.27196],[-75.46806,5.27195],[-75.46821,5.2719],[-75.46828,5.27187],[-75.46864,5.27175],[-75.46863,5.27139],[-75.46861,5.26979],[-75.46811,5.26944],[-75.46805,5.2694],[-75.46762,5.2691],[-75.46694,5.26863],[-75.46608,5.26803],[-75.46544,5.26768],[-75.46548,5.2676],[-75.4655,5.26756],[-75.46562,5.26757],[-75.46571,5.26759],[-75.4658,5.2676],[-75.46591,5.2676],[-75.46598,5.2676],[-75.46619,5.26761],[-75.4664,5.26761],[-75.46648,5.26758],[-75.46655,5.26754],[-75.46662,5.26748],[-75.46667,5.26744],[-75.46674,5.26737],[-75.46683,5.2673],[-75.46693,5.26722],[-75.46704,5.26715],[-75.46715,5.26707],[-75.4672,5.26697],[-75.46722,5.26694],[-75.46727,5.26687],[-75.46728,5.26685],[-75.4673,5.2668],[-75.4673,5.26678],[-75.46731,5.26676],[-75.46731,5.26669],[-75.46732,5.26659],[-75.46732,5.26656],[-75.46733,5.26645],[-75.46733,5.26641],[-75.46732,5.26634],[-75.4673,5.26624],[-75.46729,5.26616],[-75.46725,5.26608],[-75.46726,5.26599],[-75.46726,5.26593],[-75.46727,5.26587],[-75.46728,5.2658],[-75.4673,5.26571],[-75.4673,5.2657],[-75.46728,5.26564],[-75.46724,5.26558],[-75.46718,5.26555],[-75.46708,5.26552],[-75.46697,5.26551],[-75.46692,5.26549],[-75.46686,5.26548],[-75.46678,5.26546],[-75.46669,5.26541],[-75.46661,5.26537],[-75.46653,5.26529],[-75.46649,5.26525],[-75.46641,5.26519],[-75.46637,5.26515],[-75.46631,5.26512],[-75.46623,5.26508],[-75.4662,5.26506],[-75.46615,5.26505],[-75.46613,5.26504],[-75.46606,5.26501],[-75.46598,5.26496],[-75.46594,5.26494],[-75.46593,5.26493],[-75.46591,5.26491],[-75.46588,5.26488],[-75.46587,5.26488],[-75.46585,5.26486],[-75.46579,5.26482],[-75.46575,5.26479],[-75.46563,5.26476],[-75.46563,5.26476],[-75.46557,5.26473],[-75.46546,5.26465],[-75.46537,5.26468],[-75.4652,5.26473],[-75.46511,5.26468],[-75.46509,5.26469],[-75.46508,5.26469],[-75.46499,5.26466],[-75.46494,5.26464],[-75.46484,5.26465],[-75.46473,5.26465],[-75.46469,5.26465],[-75.46458,5.26467],[-75.46457,5.26467],[-75.46451,5.26467],[-75.46451,5.26468],[-75.4645,5.26467],[-75.46441,5.26461],[-75.4643,5.26456],[-75.46424,5.2645],[-75.46421,5.26447],[-75.4641,5.26447],[-75.4641,5.26449],[-75.46407,5.26459],[-75.46405,5.2647],[-75.46396,5.26476],[-75.46393,5.26476],[-75.46392,5.26477],[-75.46385,5.26479],[-75.46378,5.26483],[-75.46376,5.26484],[-75.46365,5.2649],[-75.46356,5.26496],[-75.46345,5.26499],[-75.46344,5.26499],[-75.46343,5.26499],[-75.46334,5.26499],[-75.46328,5.26499],[-75.46323,5.26499],[-75.46322,5.26499],[-75.46314,5.26504],[-75.46305,5.2651],[-75.463,5.26519],[-75.46294,5.26527],[-75.46294,5.26539],[-75.46294,5.2655],[-75.463,5.26558],[-75.46305,5.26567],[-75.46311,5.26575],[-75.4632,5.26584],[-75.46325,5.26593],[-75.46325,5.26604],[-75.46328,5.26615],[-75.46337,5.26624],[-75.46348,5.26627],[-75.46359,5.26629],[-75.4636,5.2663],[-75.46359,5.2663],[-75.46348,5.26627]]]]},"properties":{"FID":0,"OBJECTID":1,"area":2905.153626,"RuleID":1,"Shape_Leng":52681.1593942,"Shape_Area":29051536.1485,"nombre":"Funcion amortiguadora RFP Diamante"}}]}