{"type":"FeatureCollection","name":"RFP_El_Diamante","crs":{"type":"name","properties":{"name":"urn:ogc:def:crs:OGC:1.3:CRS84"}},"features":[{"type":"Feature","id":0,"geometry":{"type":"Polygon","coordinates":[[[-75.41184,5.25537],[-75.41182,5.25537],[-75.4118,5.25537],[-75.4118,5.25537],[-75.41177,5.25538],[-75.41176,5.25538],[-75.41175,5.25539],[-75.41173,5.25539],[-75.41172,5.2554],[-75.41171,5.2554],[-75.4117,5.25542],[-75.41168,5.25542],[-75.41168,5.25543],[-75.41166,5.25544],[-75.41165,5.25545],[-75.41165,5.25546],[-75.41163,5.25547],[-75.41162,5.25549],[-75.41162,5.25549],[-75.41161,5.25551],[-75.4116,5.25552],[-75.4116,5.25553],[-75.41159,5.25555],[-75.41159,5.25557],[-75.41159,5.25557],[-75.41158,5.25559],[-75.41158,5.25561],[-75.41158,5.25561],[-75.41158,5.25565],[-75.41158,5.25569],[-75.41158,5.25569],[-75.41159,5.25571],[-75.41159,5.25573],[-75.41159,5.25573],[-75.4116,5.25575],[-75.41161,5.25577],[-75.41161,5.25577],[-75.41162,5.25579],[-75.41163,5.2558],[-75.41163,5.25581],[-75.41165,5.25582],[-75.41166,5.25584],[-75.41166,5.25584],[-75.41168,5.25585],[-75.41169,5.25586],[-75.41169,5.25586],[-75.41171,5.25587],[-75.41173,5.25588],[-75.41173,5.25588],[-75.41175,5.25589],[-75.41177,5.2559],[-75.41177,5.2559],[-75.41179,5.25591],[-75.41181,5.25591],[-75.41181,5.25591],[-75.41185,5.25591],[-75.41188,5.25591],[-75.41191,5.2559],[-75.41195,5.25589],[-75.41198,5.25588],[-75.41202,5.25585],[-75.41205,5.25582],[-75.41207,5.25579],[-75.41207,5.25579],[-75.41207,5.25578],[-75.41209,5.25576],[-75.41209,5.25576],[-75.41209,5.25575],[-75.4121,5.25573],[-75.4121,5.25573],[-75.41211,5.2557],[-75.41212,5.25566],[-75.41212,5.25566],[-75.41212,5.25564],[-75.41212,5.25562],[-75.41212,5.25561],[-75.41211,5.2556],[-75.41211,5.25557],[-75.41211,5.25557],[-75.4121,5.25556],[-75.41209,5.25553],[-75.41209,5.25553],[-75.41209,5.25552],[-75.41207,5.2555],[-75.41207,5.25549],[-75.41206,5.25548],[-75.41205,5.25546],[-75.41204,5.25545],[-75.41203,5.25545],[-75.41202,5.25543],[-75.41201,5.25543],[-75.412,5.25542],[-75.41198,5.25541],[-75.41197,5.2554],[-75.41196,5.2554],[-75.41194,5.25539],[-75.41193,5.25538],[-75.41192,5.25538],[-75.4119,5.25538],[-75.41189,5.25537],[-75.41188,5.25537],[-75.41186,5.25537],[-75.41185,5.25537],[-75.41184,5.25537]]]},"properties":{"FID":0,"OBJECTID":1,"Nombre":"RFP El Diamante Zona General de Uso Publico","RuleID_1":41,"AREA_ha":0.28150129871,"Shape_Leng":188.271138254,"Shape_Area":2815.0129871}},{"type":"Feature","id":1,"geometry":{"type":"MultiPolygon","coordinates":[[[[-75.38515,5.23641],[-75.38527,5.23643],[-75.38535,5.23646],[-75.3854,5.23651],[-75.38546,5.23658],[-75.38557,5.23671],[-75.38564,5.23681],[-75.38565,5.23684],[-75.3857,5.23693],[-75.38573,5.23705],[-75.38574,5.23717],[-75.38574,5.23731],[-75.38574,5.23732],[-75.38573,5.23739],[-75.38572,5.23744],[-75.38566,5.23765],[-75.38566,5.23765],[-75.38564,5.23774],[-75.38564,5.23775],[-75.38564,5.23775],[-75.38564,5.23781],[-75.38563,5.23784],[-75.38563,5.23791],[-75.38562,5.23796],[-75.38561,5.23802],[-75.38556,5.23815],[-75.38553,5.23824],[-75.38553,5.23824],[-75.38548,5.2384],[-75.38548,5.2384],[-75.38548,5.2384],[-75.38548,5.23843],[-75.38546,5.23854],[-75.38546,5.23855],[-75.38545,5.23863],[-75.38544,5.23872],[-75.38544,5.23872],[-75.38543,5.23885],[-75.38543,5.23887],[-75.38543,5.23887],[-75.38542,5.23895],[-75.38542,5.23896],[-75.38542,5.23904],[-75.38542,5.23904],[-75.38542,5.23904],[-75.38544,5.23914],[-75.38544,5.23914],[-75.38546,5.23917],[-75.38546,5.2392],[-75.38547,5.2392],[-75.38547,5.23921],[-75.38547,5.23921],[-75.38547,5.23922],[-75.38548,5.23922],[-75.38552,5.23925],[-75.38554,5.23926],[-75.38556,5.23929],[-75.38561,5.23937],[-75.38563,5.2394],[-75.38563,5.23941],[-75.38565,5.23947],[-75.38569,5.23957],[-75.38569,5.23957],[-75.38569,5.23958],[-75.38576,5.2397],[-75.38576,5.2397],[-75.38576,5.23971],[-75.38578,5.23974],[-75.38581,5.23978],[-75.38581,5.23979],[-75.38582,5.23979],[-75.38582,5.23979],[-75.38582,5.2398],[-75.38591,5.23984],[-75.38593,5.23986],[-75.38594,5.23987],[-75.38595,5.23988],[-75.38597,5.23991],[-75.38599,5.23996],[-75.38599,5.24],[-75.38595,5.24006],[-75.38585,5.24015],[-75.38571,5.24025],[-75.38571,5.24025],[-75.3857,5.24025],[-75.38563,5.24032],[-75.38559,5.24036],[-75.38552,5.24041],[-75.38548,5.24042],[-75.38548,5.24042],[-75.38533,5.24047],[-75.38512,5.24052],[-75.38512,5.24052],[-75.38487,5.2406],[-75.38483,5.24061],[-75.38483,5.24061],[-75.38488,5.24067],[-75.38492,5.24066],[-75.38514,5.24059],[-75.38535,5.24054],[-75.38535,5.24054],[-75.3855,5.24049],[-75.38555,5.24047],[-75.38555,5.24047],[-75.38556,5.24047],[-75.38564,5.24041],[-75.38564,5.24041],[-75.38564,5.24041],[-75.38575,5.2403],[-75.38589,5.24021],[-75.3859,5.24021],[-75.3859,5.24021],[-75.38601,5.24011],[-75.38601,5.24011],[-75.38601,5.24011],[-75.38602,5.2401],[-75.38606,5.24002],[-75.38606,5.24002],[-75.38606,5.24001],[-75.38606,5.24001],[-75.38606,5.24],[-75.38606,5.23995],[-75.38606,5.23995],[-75.38605,5.23994],[-75.38603,5.23988],[-75.38603,5.23988],[-75.38601,5.23983],[-75.386,5.23983],[-75.386,5.23983],[-75.386,5.23982],[-75.38595,5.23979],[-75.38595,5.23979],[-75.38595,5.23978],[-75.38587,5.23974],[-75.38582,5.23967],[-75.38579,5.23961],[-75.38575,5.23955],[-75.38572,5.23944],[-75.38572,5.23944],[-75.3857,5.23938],[-75.38569,5.23937],[-75.38567,5.23933],[-75.38562,5.23925],[-75.38562,5.23924],[-75.38562,5.23924],[-75.3856,5.23922],[-75.38558,5.23921],[-75.38558,5.23921],[-75.38558,5.23921],[-75.38553,5.23917],[-75.38551,5.23912],[-75.38549,5.23903],[-75.38549,5.23901],[-75.38549,5.23896],[-75.3855,5.23887],[-75.38551,5.23873],[-75.38552,5.23867],[-75.38553,5.23856],[-75.38555,5.23844],[-75.38555,5.23841],[-75.3856,5.23826],[-75.38564,5.23815],[-75.38564,5.23814],[-75.38568,5.23804],[-75.38568,5.23804],[-75.38569,5.23797],[-75.38569,5.23797],[-75.3857,5.23792],[-75.3857,5.23792],[-75.38571,5.23782],[-75.38571,5.23782],[-75.38571,5.23776],[-75.38571,5.23775],[-75.38573,5.23767],[-75.38578,5.23747],[-75.38579,5.23745],[-75.38579,5.23745],[-75.3858,5.23741],[-75.38581,5.23734],[-75.38581,5.23733],[-75.38582,5.23733],[-75.38582,5.23717],[-75.38581,5.23717],[-75.38581,5.23708],[-75.3858,5.23704],[-75.3858,5.23704],[-75.3858,5.23704],[-75.38577,5.23691],[-75.38577,5.2369],[-75.38577,5.2369],[-75.38574,5.23685],[-75.38572,5.23681],[-75.3857,5.23678],[-75.3857,5.23677],[-75.38563,5.23667],[-75.38562,5.23666],[-75.38552,5.23653],[-75.38551,5.23653],[-75.38545,5.23646],[-75.38545,5.23646],[-75.38539,5.2364],[-75.38539,5.2364],[-75.38539,5.2364],[-75.38538,5.23639],[-75.38531,5.23637],[-75.38524,5.23635],[-75.38516,5.23633],[-75.38515,5.23633],[-75.38505,5.23633],[-75.38505,5.23633],[-75.38505,5.23633],[-75.38493,5.23634],[-75.38493,5.23634],[-75.38484,5.23632],[-75.38479,5.23629],[-75.38475,5.23626],[-75.38467,5.2362],[-75.38461,5.23616],[-75.38461,5.23616],[-75.3846,5.23615],[-75.38445,5.23608],[-75.38441,5.23605],[-75.38439,5.23601],[-75.38436,5.23594],[-75.38434,5.23584],[-75.38434,5.23583],[-75.38434,5.23583],[-75.38429,5.23574],[-75.38429,5.23574],[-75.38426,5.23569],[-75.38424,5.23563],[-75.38424,5.23563],[-75.38424,5.23562],[-75.38419,5.23557],[-75.38415,5.23548],[-75.38412,5.23542],[-75.38412,5.23539],[-75.38412,5.23529],[-75.38414,5.23517],[-75.38416,5.2351],[-75.38416,5.2351],[-75.38416,5.23502],[-75.38416,5.23496],[-75.38416,5.23496],[-75.38414,5.23487],[-75.38414,5.23486],[-75.38413,5.23477],[-75.38414,5.23468],[-75.38414,5.23468],[-75.38414,5.2346],[-75.38418,5.23455],[-75.38424,5.23446],[-75.38439,5.23431],[-75.38439,5.23431],[-75.3845,5.23417],[-75.38459,5.23407],[-75.38471,5.23399],[-75.38471,5.23399],[-75.38471,5.23399],[-75.38476,5.23394],[-75.38482,5.23389],[-75.38482,5.23388],[-75.38483,5.23388],[-75.3849,5.23378],[-75.3849,5.23378],[-75.3849,5.23378],[-75.38494,5.23368],[-75.38494,5.23368],[-75.38494,5.23368],[-75.38496,5.23362],[-75.38496,5.23361],[-75.38496,5.23361],[-75.38497,5.23353],[-75.38498,5.23345],[-75.38499,5.23342],[-75.38501,5.23336],[-75.38501,5.23336],[-75.38508,5.23315],[-75.38514,5.233],[-75.38521,5.2329],[-75.38521,5.2329],[-75.38521,5.2329],[-75.38521,5.23289],[-75.38521,5.23289],[-75.38521,5.23288],[-75.38521,5.2328],[-75.38521,5.23271],[-75.38521,5.23264],[-75.38521,5.23263],[-75.38519,5.23255],[-75.38519,5.23254],[-75.38519,5.23254],[-75.38518,5.23251],[-75.38516,5.23248],[-75.38512,5.23233],[-75.38509,5.2322],[-75.38508,5.23217],[-75.38506,5.23205],[-75.38504,5.23197],[-75.38503,5.23183],[-75.38504,5.2318],[-75.38507,5.23168],[-75.38512,5.23149],[-75.38512,5.23149],[-75.38518,5.23126],[-75.38524,5.231],[-75.38526,5.23088],[-75.38526,5.23088],[-75.38526,5.23088],[-75.38526,5.23079],[-75.38526,5.23079],[-75.38526,5.23073],[-75.38526,5.23072],[-75.38525,5.23072],[-75.38525,5.23071],[-75.38525,5.23071],[-75.3852,5.23065],[-75.3852,5.23065],[-75.3852,5.23065],[-75.3852,5.23064],[-75.38515,5.2306],[-75.38514,5.2306],[-75.38514,5.23059],[-75.38513,5.23059],[-75.38513,5.23059],[-75.38506,5.23059],[-75.38504,5.23059],[-75.38503,5.23059],[-75.38503,5.23059],[-75.38498,5.23059],[-75.38498,5.23061],[-75.38496,5.23066],[-75.38497,5.23066],[-75.38497,5.23066],[-75.38497,5.23066],[-75.38503,5.23066],[-75.38511,5.23066],[-75.38514,5.23069],[-75.38515,5.23069],[-75.38519,5.23074],[-75.38519,5.23079],[-75.38519,5.23087],[-75.38516,5.23098],[-75.38511,5.23124],[-75.38505,5.23147],[-75.38499,5.23169],[-75.38499,5.23169],[-75.38496,5.23182],[-75.38496,5.23183],[-75.38496,5.23183],[-75.38497,5.23197],[-75.38497,5.23198],[-75.38499,5.23206],[-75.38502,5.23221],[-75.38505,5.23235],[-75.38505,5.23235],[-75.38505,5.23235],[-75.38507,5.2324],[-75.38509,5.2325],[-75.3851,5.2325],[-75.3851,5.23251],[-75.38512,5.23257],[-75.38514,5.23264],[-75.38514,5.23271],[-75.38514,5.2328],[-75.38514,5.23286],[-75.38514,5.23287],[-75.38508,5.23297],[-75.38508,5.23297],[-75.38502,5.23312],[-75.38502,5.23313],[-75.38502,5.23313],[-75.38495,5.23334],[-75.38493,5.23337],[-75.38491,5.23343],[-75.38491,5.23343],[-75.38489,5.23352],[-75.38489,5.23352],[-75.38489,5.23352],[-75.38489,5.2336],[-75.38487,5.23366],[-75.38484,5.23374],[-75.38477,5.23383],[-75.38466,5.23393],[-75.38465,5.23394],[-75.38455,5.23402],[-75.38454,5.23402],[-75.38454,5.23402],[-75.38445,5.23412],[-75.38445,5.23412],[-75.38433,5.23426],[-75.38419,5.23441],[-75.38419,5.23441],[-75.38419,5.23442],[-75.38412,5.23451],[-75.38412,5.23451],[-75.38408,5.23457],[-75.38408,5.23457],[-75.38407,5.23458],[-75.38407,5.23458],[-75.38407,5.23459],[-75.38407,5.23468],[-75.38406,5.23477],[-75.38406,5.23477],[-75.38406,5.23478],[-75.38407,5.23488],[-75.38409,5.23496],[-75.38409,5.23502],[-75.38409,5.23509],[-75.38407,5.23516],[-75.38407,5.23516],[-75.38406,5.23524],[-75.38405,5.23528],[-75.38405,5.23529],[-75.38405,5.23543],[-75.38405,5.23544],[-75.38405,5.23544],[-75.38406,5.23545],[-75.38408,5.23551],[-75.38413,5.2356],[-75.38413,5.23561],[-75.38413,5.23561],[-75.38418,5.23566],[-75.3842,5.23572],[-75.3842,5.23572],[-75.38423,5.23577],[-75.38427,5.23586],[-75.38429,5.23595],[-75.3843,5.23596],[-75.38432,5.23603],[-75.38432,5.23603],[-75.38432,5.23604],[-75.38435,5.23609],[-75.38435,5.23609],[-75.38435,5.2361],[-75.38436,5.2361],[-75.38436,5.2361],[-75.38441,5.23614],[-75.38441,5.23614],[-75.38441,5.23614],[-75.38457,5.23622],[-75.38462,5.23626],[-75.38462,5.23626],[-75.38467,5.23629],[-75.38471,5.23632],[-75.38475,5.23635],[-75.38475,5.23635],[-75.38481,5.23638],[-75.38482,5.23639],[-75.38482,5.23639],[-75.38492,5.23641],[-75.38492,5.23641],[-75.38493,5.23641],[-75.38499,5.23641],[-75.38505,5.2364],[-75.38515,5.23641]]],[[[-75.41049,5.2554],[-75.41048,5.2554],[-75.41048,5.25541],[-75.41042,5.25546],[-75.41042,5.25547],[-75.41041,5.25548],[-75.41036,5.25553],[-75.41029,5.25561],[-75.4102,5.25566],[-75.41016,5.25567],[-75.41015,5.25567],[-75.41007,5.2557],[-75.41006,5.2557],[-75.41006,5.2557],[-75.41005,5.25571],[-75.41005,5.25571],[-75.41005,5.25572],[-75.41004,5.25572],[-75.41004,5.25573],[-75.41004,5.25574],[-75.41005,5.25574],[-75.41005,5.25575],[-75.41005,5.25575],[-75.41006,5.25576],[-75.41006,5.25576],[-75.41007,5.25577],[-75.41007,5.25577],[-75.41008,5.25577],[-75.41009,5.25577],[-75.41009,5.25577],[-75.41017,5.25574],[-75.41022,5.25573],[-75.41023,5.25573],[-75.41023,5.25572],[-75.41033,5.25567],[-75.41033,5.25567],[-75.41033,5.25567],[-75.41041,5.25558],[-75.41041,5.25558],[-75.41046,5.25553],[-75.41047,5.25551],[-75.41053,5.25546],[-75.4106,5.25542],[-75.41063,5.25541],[-75.41067,5.2554],[-75.41074,5.25539],[-75.4108,5.25539],[-75.41096,5.2554],[-75.41107,5.25544],[-75.41115,5.25547],[-75.41116,5.25547],[-75.41116,5.25547],[-75.41127,5.25548],[-75.41131,5.25551],[-75.41137,5.25556],[-75.41143,5.25563],[-75.41144,5.25563],[-75.41144,5.25563],[-75.41144,5.25564],[-75.41154,5.25568],[-75.41154,5.25568],[-75.41154,5.25568],[-75.41158,5.25569],[-75.41158,5.25565],[-75.41158,5.25562],[-75.41156,5.25561],[-75.41148,5.25557],[-75.41142,5.25551],[-75.41136,5.25546],[-75.41136,5.25545],[-75.41136,5.25545],[-75.4113,5.25542],[-75.41129,5.25541],[-75.41129,5.25541],[-75.41128,5.25541],[-75.41117,5.2554],[-75.41109,5.25537],[-75.41098,5.25533],[-75.41097,5.25533],[-75.41097,5.25533],[-75.4108,5.25532],[-75.4108,5.25532],[-75.41073,5.25532],[-75.41073,5.25532],[-75.41066,5.25533],[-75.41066,5.25533],[-75.41066,5.25533],[-75.41058,5.25535],[-75.41058,5.25535],[-75.41057,5.25535],[-75.41049,5.2554]]],[[[-75.41384,5.25623],[-75.41394,5.25627],[-75.41402,5.2563],[-75.4141,5.25636],[-75.41411,5.25636],[-75.41413,5.25637],[-75.41417,5.25639],[-75.41417,5.2564],[-75.41417,5.2564],[-75.41427,5.25642],[-75.41428,5.25643],[-75.41429,5.2564],[-75.41431,5.25636],[-75.4143,5.25636],[-75.41429,5.25636],[-75.4142,5.25633],[-75.41415,5.2563],[-75.41414,5.2563],[-75.41406,5.25624],[-75.41406,5.25624],[-75.41406,5.25624],[-75.41397,5.2562],[-75.41397,5.2562],[-75.41397,5.2562],[-75.41386,5.25616],[-75.41385,5.25616],[-75.41385,5.25616],[-75.41373,5.25615],[-75.41373,5.25615],[-75.41373,5.25615],[-75.41357,5.25617],[-75.41357,5.25617],[-75.41357,5.25618],[-75.4134,5.25622],[-75.41327,5.25624],[-75.41318,5.25624],[-75.41303,5.25617],[-75.41291,5.2561],[-75.41273,5.25599],[-75.41273,5.25599],[-75.41272,5.25599],[-75.41255,5.25592],[-75.41245,5.25588],[-75.41234,5.2558],[-75.41234,5.2558],[-75.41217,5.25568],[-75.41217,5.25567],[-75.41216,5.25567],[-75.41216,5.25567],[-75.41212,5.25566],[-75.41211,5.2557],[-75.4121,5.25573],[-75.4121,5.25573],[-75.41214,5.25574],[-75.4123,5.25585],[-75.41241,5.25594],[-75.41241,5.25594],[-75.41242,5.25594],[-75.41252,5.25599],[-75.41252,5.25599],[-75.41269,5.25606],[-75.41287,5.25617],[-75.41287,5.25617],[-75.41288,5.25617],[-75.413,5.25623],[-75.413,5.25623],[-75.41315,5.2563],[-75.41316,5.25631],[-75.41316,5.25631],[-75.41317,5.25631],[-75.41327,5.25631],[-75.41327,5.25631],[-75.41327,5.25631],[-75.41341,5.2563],[-75.41341,5.2563],[-75.41342,5.25629],[-75.41359,5.25625],[-75.41373,5.25623],[-75.41384,5.25623]]]]},"properties":{"FID":1,"OBJECTID":2,"Nombre":"RFP El Diamante Zona General de Uso Publico","RuleID_1":41,"AREA_ha":1.47421919792,"Shape_Leng":3734.07781535,"Shape_Area":14742.1906516}},{"type":"Feature","id":2,"geometry":{"type":"MultiPolygon","coordinates":[[[[-75.38576,5.23992],[-75.38583,5.23992],[-75.38589,5.23992],[-75.38589,5.23992],[-75.38592,5.2399],[-75.38592,5.2399],[-75.38593,5.23986],[-75.38591,5.23984],[-75.38582,5.2398],[-75.38582,5.23979],[-75.38582,5.23979],[-75.38581,5.23979],[-75.38579,5.23977],[-75.38578,5.23974],[-75.38576,5.23971],[-75.38576,5.2397],[-75.38576,5.2397],[-75.38569,5.23958],[-75.38569,5.23957],[-75.38569,5.23957],[-75.38565,5.23947],[-75.38563,5.23941],[-75.38557,5.23934],[-75.38552,5.23925],[-75.38548,5.23922],[-75.38547,5.23922],[-75.38547,5.23921],[-75.38547,5.23921],[-75.38547,5.2392],[-75.38546,5.2392],[-75.38546,5.23917],[-75.38544,5.23914],[-75.38544,5.23914],[-75.38542,5.23904],[-75.38542,5.23904],[-75.38542,5.23904],[-75.38542,5.23896],[-75.38542,5.23895],[-75.38543,5.23887],[-75.38543,5.23887],[-75.38543,5.23885],[-75.38544,5.23872],[-75.38544,5.23872],[-75.38545,5.23863],[-75.38546,5.23855],[-75.38546,5.23854],[-75.38548,5.23843],[-75.38548,5.2384],[-75.38548,5.2384],[-75.38548,5.2384],[-75.38553,5.23824],[-75.38553,5.23824],[-75.38556,5.23815],[-75.38561,5.23802],[-75.38562,5.23796],[-75.38563,5.23791],[-75.38563,5.23784],[-75.38564,5.23781],[-75.38564,5.23775],[-75.38564,5.23775],[-75.38564,5.23774],[-75.38566,5.23765],[-75.38566,5.23765],[-75.38572,5.23744],[-75.38573,5.23739],[-75.38574,5.23732],[-75.38574,5.23731],[-75.38574,5.23717],[-75.38573,5.23705],[-75.3857,5.23693],[-75.38565,5.23684],[-75.38564,5.23681],[-75.38557,5.23671],[-75.38546,5.23658],[-75.3854,5.23651],[-75.38535,5.23646],[-75.38527,5.23643],[-75.38515,5.23641],[-75.38505,5.2364],[-75.38499,5.23641],[-75.38493,5.23641],[-75.38492,5.23641],[-75.38492,5.23641],[-75.38482,5.23639],[-75.38482,5.23639],[-75.38481,5.23638],[-75.38475,5.23635],[-75.38475,5.23635],[-75.38471,5.23632],[-75.38467,5.23629],[-75.38462,5.23626],[-75.38462,5.23626],[-75.38457,5.23622],[-75.38441,5.23614],[-75.38441,5.23614],[-75.38441,5.23614],[-75.38436,5.2361],[-75.38436,5.2361],[-75.38435,5.2361],[-75.38435,5.23609],[-75.38435,5.23609],[-75.38432,5.23604],[-75.38432,5.23603],[-75.38432,5.23603],[-75.3843,5.23596],[-75.38429,5.23595],[-75.38427,5.23586],[-75.38423,5.23577],[-75.3842,5.23572],[-75.3842,5.23572],[-75.38418,5.23566],[-75.38413,5.23561],[-75.38413,5.23561],[-75.38413,5.2356],[-75.38408,5.23551],[-75.38406,5.23545],[-75.38405,5.23544],[-75.38405,5.23544],[-75.38405,5.23543],[-75.38405,5.23529],[-75.38405,5.23528],[-75.38406,5.23524],[-75.38407,5.23516],[-75.38407,5.23516],[-75.38409,5.23509],[-75.38409,5.23502],[-75.38409,5.23496],[-75.38407,5.23488],[-75.38406,5.23478],[-75.38406,5.23477],[-75.38406,5.23477],[-75.38407,5.23468],[-75.38407,5.23459],[-75.38407,5.23458],[-75.38407,5.23458],[-75.38408,5.23457],[-75.38408,5.23457],[-75.38412,5.23451],[-75.38412,5.23451],[-75.38419,5.23442],[-75.38419,5.23441],[-75.38419,5.23441],[-75.38433,5.23426],[-75.38445,5.23412],[-75.38445,5.23412],[-75.38454,5.23402],[-75.38454,5.23402],[-75.38455,5.23402],[-75.38465,5.23394],[-75.38466,5.23393],[-75.38477,5.23383],[-75.38484,5.23374],[-75.38487,5.23366],[-75.38489,5.2336],[-75.38489,5.23352],[-75.38489,5.23352],[-75.38489,5.23352],[-75.38491,5.23343],[-75.38491,5.23343],[-75.38493,5.23337],[-75.38495,5.23334],[-75.38502,5.23313],[-75.38502,5.23313],[-75.38502,5.23312],[-75.38508,5.23297],[-75.38508,5.23297],[-75.38514,5.23287],[-75.38514,5.23286],[-75.38514,5.2328],[-75.38514,5.23271],[-75.38514,5.23264],[-75.38512,5.23257],[-75.3851,5.23251],[-75.3851,5.2325],[-75.38509,5.2325],[-75.38507,5.2324],[-75.38505,5.23235],[-75.38505,5.23235],[-75.38505,5.23235],[-75.38502,5.23221],[-75.38499,5.23206],[-75.38497,5.23198],[-75.38497,5.23197],[-75.38496,5.23183],[-75.38496,5.23183],[-75.38496,5.23182],[-75.38499,5.23169],[-75.38499,5.23169],[-75.38505,5.23147],[-75.38511,5.23124],[-75.38516,5.23098],[-75.38519,5.23087],[-75.38519,5.23079],[-75.38519,5.23074],[-75.38515,5.23069],[-75.38514,5.23069],[-75.38511,5.23071],[-75.38497,5.23082],[-75.38487,5.23096],[-75.38474,5.23119],[-75.38459,5.23139],[-75.38449,5.23158],[-75.38434,5.23188],[-75.38423,5.23212],[-75.38407,5.23231],[-75.38393,5.23241],[-75.38367,5.23254],[-75.38359,5.23264],[-75.38344,5.23279],[-75.38338,5.23282],[-75.38324,5.23299],[-75.38266,5.23335],[-75.3826,5.23344],[-75.38248,5.2336],[-75.38245,5.23365],[-75.38233,5.23374],[-75.38227,5.23391],[-75.38219,5.23401],[-75.38207,5.23406],[-75.38194,5.23413],[-75.38181,5.23418],[-75.38165,5.23426],[-75.3815,5.2343],[-75.38146,5.23432],[-75.38143,5.23436],[-75.38139,5.23446],[-75.38138,5.2346],[-75.38143,5.23477],[-75.38151,5.23497],[-75.38152,5.23518],[-75.38159,5.23533],[-75.38164,5.23536],[-75.3818,5.23547],[-75.38202,5.23568],[-75.38227,5.23588],[-75.38246,5.23608],[-75.38246,5.23614],[-75.38244,5.23623],[-75.38236,5.23632],[-75.38226,5.23636],[-75.38217,5.23642],[-75.38213,5.23649],[-75.38214,5.23657],[-75.3822,5.23669],[-75.38224,5.23676],[-75.38225,5.2369],[-75.38224,5.23694],[-75.38223,5.23695],[-75.38223,5.23699],[-75.38246,5.23725],[-75.38265,5.23747],[-75.38312,5.238],[-75.38316,5.238],[-75.38331,5.23818],[-75.38349,5.23841],[-75.38392,5.23889],[-75.38422,5.23947],[-75.38422,5.23947],[-75.38423,5.23948],[-75.38425,5.23947],[-75.38425,5.23946],[-75.38425,5.23946],[-75.3843,5.23941],[-75.38435,5.2394],[-75.38438,5.23939],[-75.38445,5.23943],[-75.38451,5.23948],[-75.38457,5.23948],[-75.38462,5.23946],[-75.38468,5.23944],[-75.38472,5.23944],[-75.38474,5.23943],[-75.38477,5.23946],[-75.38477,5.23947],[-75.38484,5.23955],[-75.38489,5.23958],[-75.38496,5.23959],[-75.38504,5.23957],[-75.38507,5.23956],[-75.38508,5.23955],[-75.38514,5.23952],[-75.38519,5.23959],[-75.38523,5.23963],[-75.38524,5.23964],[-75.38532,5.2397],[-75.38541,5.23975],[-75.38548,5.23978],[-75.38563,5.23988],[-75.38568,5.2399],[-75.38576,5.23992]]],[[[-75.38595,5.24806],[-75.38595,5.24806],[-75.38594,5.24808],[-75.38592,5.24812],[-75.38595,5.24809],[-75.38596,5.24808],[-75.38599,5.24802],[-75.386,5.24798],[-75.38599,5.24796],[-75.38595,5.24806]]],[[[-75.38581,5.24843],[-75.38581,5.24844],[-75.38584,5.24848],[-75.38587,5.24852],[-75.38589,5.24856],[-75.38589,5.24858],[-75.38589,5.24863],[-75.38589,5.24865],[-75.38589,5.24867],[-75.38589,5.24874],[-75.38589,5.2488],[-75.38591,5.24884],[-75.38594,5.24882],[-75.38594,5.24878],[-75.38593,5.24872],[-75.38595,5.24863],[-75.38602,5.24856],[-75.38607,5.24851],[-75.38608,5.2485],[-75.38607,5.24845],[-75.38603,5.24842],[-75.38597,5.2484],[-75.38593,5.24837],[-75.38593,5.24837],[-75.38588,5.24834],[-75.38587,5.24829],[-75.38586,5.24828],[-75.38581,5.24843]]],[[[-75.3903,5.26048],[-75.39037,5.26053],[-75.39053,5.26065],[-75.39062,5.26071],[-75.39064,5.26073],[-75.39109,5.26106],[-75.39138,5.26127],[-75.39138,5.26129],[-75.39153,5.26164],[-75.39154,5.26166],[-75.39163,5.2619],[-75.39163,5.2619],[-75.39167,5.26191],[-75.3918,5.26195],[-75.39194,5.26198],[-75.39195,5.26198],[-75.39198,5.26199],[-75.392,5.26196],[-75.39216,5.26176],[-75.39238,5.26146],[-75.39299,5.26086],[-75.39328,5.26057],[-75.39382,5.26017],[-75.39378,5.26014],[-75.39354,5.25997],[-75.39352,5.25996],[-75.39351,5.26],[-75.3935,5.26007],[-75.3935,5.26009],[-75.39349,5.26014],[-75.39349,5.26022],[-75.39349,5.26023],[-75.39347,5.26024],[-75.39345,5.26023],[-75.39345,5.26023],[-75.39345,5.2602],[-75.3934,5.26018],[-75.39339,5.26018],[-75.39334,5.26014],[-75.39331,5.26011],[-75.39329,5.26005],[-75.39325,5.25998],[-75.39324,5.25996],[-75.39324,5.25993],[-75.39318,5.25982],[-75.39315,5.25971],[-75.39313,5.25965],[-75.39304,5.25955],[-75.39277,5.25924],[-75.39251,5.25875],[-75.3925,5.25877],[-75.39249,5.2588],[-75.39248,5.25889],[-75.39251,5.25893],[-75.3926,5.25903],[-75.39262,5.25904],[-75.39268,5.2591],[-75.39271,5.25914],[-75.3927,5.25921],[-75.39266,5.25924],[-75.39261,5.25924],[-75.39253,5.25925],[-75.39244,5.25924],[-75.39234,5.25924],[-75.39231,5.25924],[-75.39226,5.25925],[-75.39219,5.25925],[-75.39211,5.25926],[-75.39205,5.25924],[-75.39205,5.25922],[-75.39205,5.25919],[-75.39207,5.25914],[-75.3921,5.25911],[-75.39211,5.2591],[-75.39215,5.25907],[-75.3922,5.25899],[-75.39221,5.25898],[-75.39223,5.25894],[-75.39224,5.25891],[-75.39228,5.25877],[-75.39229,5.25874],[-75.39233,5.25868],[-75.39237,5.25859],[-75.39237,5.25851],[-75.39237,5.25846],[-75.39236,5.25841],[-75.39237,5.25836],[-75.39239,5.25835],[-75.3924,5.25835],[-75.39243,5.25837],[-75.39242,5.25826],[-75.39241,5.25802],[-75.39242,5.258],[-75.39264,5.25753],[-75.39263,5.2575],[-75.39262,5.25743],[-75.39257,5.25731],[-75.3926,5.2572],[-75.39269,5.25708],[-75.39273,5.25698],[-75.39276,5.25687],[-75.39277,5.25676],[-75.3928,5.25665],[-75.39287,5.25661],[-75.39298,5.25659],[-75.39304,5.2566],[-75.3931,5.2566],[-75.3931,5.25667],[-75.39317,5.25669],[-75.39318,5.25674],[-75.39319,5.25685],[-75.39319,5.25686],[-75.39319,5.25687],[-75.39319,5.25692],[-75.39321,5.2569],[-75.39322,5.25687],[-75.39386,5.25572],[-75.39396,5.25554],[-75.39401,5.25544],[-75.39403,5.25545],[-75.39451,5.25552],[-75.3967,5.25607],[-75.39763,5.25589],[-75.39816,5.25567],[-75.39847,5.25569],[-75.39874,5.2558],[-75.3993,5.25602],[-75.39998,5.25606],[-75.4,5.25606],[-75.40068,5.25581],[-75.40081,5.25581],[-75.40183,5.25584],[-75.40195,5.25587],[-75.40272,5.25605],[-75.40273,5.25606],[-75.40326,5.25618],[-75.40347,5.25623],[-75.40377,5.25631],[-75.404,5.25652],[-75.4042,5.25695],[-75.40441,5.25791],[-75.40476,5.25828],[-75.40562,5.2586],[-75.40563,5.25867],[-75.40571,5.25868],[-75.40571,5.25866],[-75.40573,5.25863],[-75.40575,5.25861],[-75.40575,5.25856],[-75.40575,5.25852],[-75.40575,5.25847],[-75.4058,5.25843],[-75.4058,5.2584],[-75.4058,5.25838],[-75.40584,5.25833],[-75.40589,5.25833],[-75.40594,5.25833],[-75.40598,5.25833],[-75.40603,5.25833],[-75.40607,5.25838],[-75.40607,5.25843],[-75.40612,5.25843],[-75.40614,5.25844],[-75.40617,5.25847],[-75.40621,5.25847],[-75.40621,5.25852],[-75.40621,5.25856],[-75.40621,5.25861],[-75.40621,5.25866],[-75.40621,5.2587],[-75.40621,5.25872],[-75.40621,5.25875],[-75.40626,5.25875],[-75.40626,5.25879],[-75.40627,5.25879],[-75.4063,5.2588],[-75.40638,5.25879],[-75.40667,5.25876],[-75.40667,5.25875],[-75.40672,5.25875],[-75.40672,5.2587],[-75.40672,5.2587],[-75.40672,5.25865],[-75.40672,5.25861],[-75.40672,5.25856],[-75.40672,5.25852],[-75.40676,5.25847],[-75.40681,5.25842],[-75.40686,5.25838],[-75.4069,5.25838],[-75.40695,5.25838],[-75.40699,5.25838],[-75.40704,5.25838],[-75.40709,5.25838],[-75.40713,5.25838],[-75.40722,5.25838],[-75.40732,5.25842],[-75.40736,5.25842],[-75.40736,5.25847],[-75.40741,5.25847],[-75.40745,5.25847],[-75.4075,5.25847],[-75.40755,5.25847],[-75.40759,5.25847],[-75.40762,5.25847],[-75.40768,5.25847],[-75.40773,5.25847],[-75.40774,5.25847],[-75.40831,5.25822],[-75.40839,5.25822],[-75.40842,5.25819],[-75.40847,5.25819],[-75.40851,5.25819],[-75.40856,5.25819],[-75.4086,5.25819],[-75.40864,5.25815],[-75.40865,5.25814],[-75.4087,5.25814],[-75.40874,5.25814],[-75.40879,5.25814],[-75.40883,5.25814],[-75.40888,5.25814],[-75.40893,5.25814],[-75.40897,5.25814],[-75.40902,5.25814],[-75.40906,5.25814],[-75.40911,5.25814],[-75.40916,5.2581],[-75.4092,5.25805],[-75.40925,5.258],[-75.40929,5.25796],[-75.40934,5.25796],[-75.40939,5.25796],[-75.40941,5.25796],[-75.40943,5.25796],[-75.40948,5.25796],[-75.40952,5.25796],[-75.40957,5.25796],[-75.40962,5.25796],[-75.40966,5.25796],[-75.40966,5.258],[-75.40971,5.25805],[-75.40975,5.2581],[-75.40975,5.25819],[-75.40971,5.25823],[-75.40971,5.25825],[-75.40971,5.25833],[-75.40971,5.25837],[-75.40971,5.25841],[-75.40971,5.25842],[-75.40973,5.25846],[-75.40989,5.25847],[-75.40995,5.25847],[-75.41063,5.25875],[-75.41075,5.25887],[-75.41128,5.25938],[-75.41151,5.25954],[-75.41199,5.25989],[-75.41201,5.25989],[-75.41206,5.25989],[-75.4121,5.25993],[-75.41215,5.25998],[-75.41215,5.26],[-75.41229,5.26011],[-75.41271,5.26041],[-75.41283,5.26046],[-75.41331,5.26067],[-75.41371,5.26011],[-75.41405,5.25942],[-75.41411,5.25907],[-75.41411,5.25907],[-75.41406,5.25869],[-75.41373,5.25798],[-75.41374,5.25793],[-75.41397,5.2573],[-75.41428,5.25643],[-75.41427,5.25642],[-75.41417,5.2564],[-75.41417,5.2564],[-75.41417,5.25639],[-75.41413,5.25637],[-75.41411,5.25636],[-75.4141,5.25636],[-75.41402,5.2563],[-75.41394,5.25627],[-75.41384,5.25623],[-75.41373,5.25623],[-75.41359,5.25625],[-75.41342,5.25629],[-75.41341,5.2563],[-75.41341,5.2563],[-75.41327,5.25631],[-75.41327,5.25631],[-75.41327,5.25631],[-75.41317,5.25631],[-75.41316,5.25631],[-75.41316,5.25631],[-75.41315,5.2563],[-75.413,5.25623],[-75.413,5.25623],[-75.41288,5.25617],[-75.41287,5.25617],[-75.41287,5.25617],[-75.41269,5.25606],[-75.41252,5.25599],[-75.41252,5.25599],[-75.41242,5.25594],[-75.41241,5.25594],[-75.41241,5.25594],[-75.4123,5.25585],[-75.41214,5.25574],[-75.4121,5.25573],[-75.41209,5.25575],[-75.41209,5.25576],[-75.41209,5.25577],[-75.41207,5.25578],[-75.41207,5.25579],[-75.41207,5.25579],[-75.41205,5.25582],[-75.41202,5.25585],[-75.41198,5.25588],[-75.41195,5.25589],[-75.41191,5.2559],[-75.41188,5.25591],[-75.41185,5.25591],[-75.41181,5.25591],[-75.41181,5.25591],[-75.41179,5.25591],[-75.41177,5.2559],[-75.41176,5.2559],[-75.41175,5.25589],[-75.41173,5.25588],[-75.41173,5.25588],[-75.41171,5.25587],[-75.41169,5.25586],[-75.41169,5.25586],[-75.41168,5.25585],[-75.41166,5.25584],[-75.41166,5.25584],[-75.41165,5.25582],[-75.41163,5.2558],[-75.41163,5.2558],[-75.41162,5.25579],[-75.41161,5.25577],[-75.41161,5.25577],[-75.4116,5.25575],[-75.41159,5.25573],[-75.41159,5.25573],[-75.41159,5.25571],[-75.41158,5.25569],[-75.41158,5.25569],[-75.41154,5.25568],[-75.41154,5.25568],[-75.41154,5.25568],[-75.41144,5.25564],[-75.41144,5.25563],[-75.41144,5.25563],[-75.41143,5.25563],[-75.41137,5.25556],[-75.41131,5.25551],[-75.41127,5.25548],[-75.41116,5.25547],[-75.41116,5.25547],[-75.41115,5.25547],[-75.41107,5.25544],[-75.41096,5.2554],[-75.4108,5.25539],[-75.41074,5.25539],[-75.41067,5.2554],[-75.41063,5.25541],[-75.4106,5.25542],[-75.41053,5.25546],[-75.41047,5.25551],[-75.41046,5.25553],[-75.41041,5.25558],[-75.41041,5.25558],[-75.41033,5.25567],[-75.41033,5.25567],[-75.41033,5.25567],[-75.41023,5.25572],[-75.41023,5.25573],[-75.41022,5.25573],[-75.41017,5.25574],[-75.41009,5.25577],[-75.41009,5.25577],[-75.41008,5.25577],[-75.41007,5.25577],[-75.41007,5.25577],[-75.41006,5.25576],[-75.41006,5.25576],[-75.41005,5.25575],[-75.41005,5.25575],[-75.41005,5.25574],[-75.41004,5.25574],[-75.41004,5.25573],[-75.41004,5.25572],[-75.41005,5.25572],[-75.41005,5.25571],[-75.41005,5.25571],[-75.41006,5.2557],[-75.41006,5.2557],[-75.41007,5.2557],[-75.41015,5.25567],[-75.41016,5.25567],[-75.4102,5.25566],[-75.41029,5.25561],[-75.41036,5.25553],[-75.41041,5.25548],[-75.41042,5.25547],[-75.41042,5.25546],[-75.41048,5.25541],[-75.41048,5.2554],[-75.41049,5.2554],[-75.41057,5.25535],[-75.41058,5.25535],[-75.41058,5.25535],[-75.41066,5.25533],[-75.41066,5.25533],[-75.41066,5.25533],[-75.41073,5.25532],[-75.41073,5.25532],[-75.4108,5.25532],[-75.4108,5.25532],[-75.41097,5.25533],[-75.41097,5.25533],[-75.41098,5.25533],[-75.41109,5.25537],[-75.41117,5.2554],[-75.41128,5.25541],[-75.41129,5.25541],[-75.41129,5.25541],[-75.4113,5.25542],[-75.41136,5.25545],[-75.41136,5.25545],[-75.41136,5.25546],[-75.41142,5.25551],[-75.41148,5.25557],[-75.41156,5.25561],[-75.41158,5.25562],[-75.41158,5.25561],[-75.41158,5.25559],[-75.41158,5.25557],[-75.41159,5.25557],[-75.41159,5.25555],[-75.4116,5.25553],[-75.4116,5.25553],[-75.41161,5.25551],[-75.41162,5.2555],[-75.41162,5.25549],[-75.41163,5.25547],[-75.41164,5.25546],[-75.41165,5.25546],[-75.41166,5.25544],[-75.41167,5.25543],[-75.41168,5.25543],[-75.4117,5.25542],[-75.41171,5.25541],[-75.41171,5.2554],[-75.41173,5.25539],[-75.41175,5.25539],[-75.41175,5.25539],[-75.41177,5.25538],[-75.41179,5.25538],[-75.4118,5.25537],[-75.41182,5.25537],[-75.41183,5.25537],[-75.41184,5.25537],[-75.41186,5.25537],[-75.41187,5.25537],[-75.41188,5.25537],[-75.4119,5.25538],[-75.41191,5.25538],[-75.41192,5.25538],[-75.41194,5.25539],[-75.41195,5.25539],[-75.41196,5.2554],[-75.41198,5.25541],[-75.41199,5.25541],[-75.412,5.25542],[-75.41202,5.25543],[-75.41202,5.25544],[-75.41203,5.25545],[-75.41205,5.25546],[-75.41205,5.25547],[-75.41206,5.25548],[-75.41207,5.2555],[-75.41208,5.2555],[-75.41209,5.25552],[-75.41209,5.25553],[-75.4121,5.25554],[-75.4121,5.25556],[-75.41211,5.25557],[-75.41211,5.25558],[-75.41211,5.2556],[-75.41212,5.25562],[-75.41212,5.25562],[-75.41212,5.25564],[-75.41212,5.25566],[-75.41212,5.25566],[-75.41216,5.25567],[-75.41216,5.25567],[-75.41217,5.25567],[-75.41217,5.25568],[-75.41234,5.2558],[-75.41234,5.2558],[-75.41245,5.25588],[-75.41255,5.25592],[-75.41272,5.25599],[-75.41273,5.25599],[-75.41273,5.25599],[-75.41291,5.2561],[-75.41303,5.25617],[-75.41318,5.25624],[-75.41327,5.25624],[-75.4134,5.25622],[-75.41357,5.25618],[-75.41357,5.25617],[-75.41357,5.25617],[-75.41373,5.25615],[-75.41373,5.25615],[-75.41373,5.25615],[-75.41385,5.25616],[-75.41385,5.25616],[-75.41386,5.25616],[-75.41397,5.2562],[-75.41397,5.2562],[-75.41397,5.2562],[-75.41406,5.25624],[-75.41406,5.25624],[-75.41406,5.25624],[-75.41414,5.2563],[-75.41415,5.2563],[-75.4142,5.25633],[-75.41429,5.25636],[-75.4143,5.25636],[-75.41431,5.25636],[-75.41431,5.25634],[-75.41431,5.2563],[-75.41433,5.25598],[-75.41435,5.25544],[-75.41434,5.25541],[-75.41434,5.2554],[-75.4143,5.25516],[-75.41418,5.25454],[-75.41411,5.25411],[-75.41409,5.25409],[-75.41402,5.25405],[-75.41395,5.254],[-75.41396,5.25393],[-75.41397,5.25382],[-75.41402,5.25374],[-75.41402,5.2537],[-75.414,5.25365],[-75.414,5.2536],[-75.414,5.25355],[-75.41399,5.25347],[-75.41388,5.25226],[-75.41389,5.2522],[-75.41391,5.25209],[-75.41393,5.25191],[-75.41395,5.25175],[-75.41391,5.25172],[-75.41387,5.25168],[-75.41386,5.25167],[-75.41385,5.25157],[-75.4139,5.25151],[-75.41395,5.25143],[-75.414,5.25136],[-75.41404,5.25124],[-75.41408,5.25116],[-75.41411,5.25106],[-75.41418,5.25093],[-75.41424,5.25079],[-75.41428,5.25073],[-75.41431,5.25073],[-75.41432,5.25073],[-75.41474,5.2496],[-75.41491,5.24914],[-75.4149,5.24913],[-75.41483,5.24911],[-75.41444,5.24578],[-75.41411,5.24482],[-75.41379,5.24425],[-75.41367,5.24404],[-75.41353,5.24397],[-75.41322,5.24401],[-75.4125,5.2441],[-75.4118,5.24418],[-75.41117,5.24454],[-75.41116,5.24455],[-75.41031,5.24519],[-75.4097,5.2458],[-75.40932,5.24652],[-75.40898,5.2475],[-75.4089,5.24794],[-75.40891,5.24793],[-75.40894,5.24789],[-75.40898,5.24785],[-75.40906,5.24779],[-75.40912,5.24774],[-75.40922,5.24772],[-75.40926,5.24772],[-75.40937,5.24773],[-75.40946,5.24777],[-75.40956,5.24784],[-75.40964,5.24795],[-75.40973,5.24805],[-75.40977,5.24811],[-75.40981,5.24817],[-75.40983,5.24822],[-75.40983,5.24828],[-75.40983,5.24831],[-75.4098,5.24837],[-75.40973,5.24848],[-75.40964,5.24858],[-75.40957,5.24865],[-75.40951,5.24868],[-75.4095,5.24868],[-75.40947,5.24866],[-75.40946,5.24865],[-75.40941,5.24856],[-75.40934,5.24852],[-75.40929,5.24854],[-75.40926,5.24859],[-75.40926,5.24865],[-75.40926,5.2487],[-75.40926,5.2487],[-75.40927,5.24874],[-75.40928,5.24878],[-75.40928,5.24886],[-75.40926,5.24896],[-75.40924,5.249],[-75.40924,5.249],[-75.40922,5.24902],[-75.40915,5.24907],[-75.40908,5.24909],[-75.40903,5.24906],[-75.40902,5.24903],[-75.40899,5.24896],[-75.40899,5.24895],[-75.40894,5.2489],[-75.40886,5.2489],[-75.40886,5.2489],[-75.40881,5.24894],[-75.40878,5.249],[-75.40875,5.24904],[-75.40873,5.24909],[-75.40873,5.24911],[-75.40869,5.24918],[-75.40868,5.24919],[-75.40861,5.24957],[-75.40861,5.24958],[-75.40863,5.24959],[-75.40867,5.24961],[-75.40877,5.24965],[-75.40881,5.24964],[-75.40884,5.24961],[-75.40889,5.24956],[-75.40896,5.24957],[-75.40902,5.24959],[-75.40904,5.24963],[-75.40904,5.24969],[-75.40904,5.24973],[-75.40904,5.24982],[-75.40901,5.24994],[-75.40899,5.25],[-75.40894,5.25004],[-75.40888,5.25004],[-75.40887,5.25004],[-75.40885,5.25001],[-75.40886,5.24992],[-75.40886,5.24984],[-75.40875,5.2498],[-75.4087,5.24983],[-75.40867,5.24988],[-75.40862,5.24996],[-75.40859,5.25002],[-75.40852,5.25012],[-75.40846,5.25041],[-75.40835,5.25106],[-75.40799,5.25185],[-75.4073,5.25298],[-75.40725,5.25306],[-75.40693,5.25327],[-75.40666,5.25231],[-75.40662,5.25205],[-75.40649,5.25122],[-75.40647,5.25113],[-75.4064,5.25068],[-75.40632,5.24985],[-75.4063,5.24964],[-75.40624,5.24904],[-75.40622,5.24888],[-75.40616,5.24832],[-75.40611,5.24776],[-75.40584,5.24695],[-75.4058,5.24689],[-75.40569,5.24674],[-75.40567,5.24672],[-75.40565,5.24669],[-75.40529,5.24619],[-75.40525,5.24616],[-75.40522,5.24614],[-75.40518,5.2461],[-75.40502,5.24597],[-75.40472,5.24572],[-75.40455,5.24558],[-75.40442,5.24547],[-75.40374,5.24517],[-75.40212,5.24484],[-75.40207,5.24483],[-75.40205,5.24483],[-75.40201,5.24482],[-75.40193,5.2448],[-75.40173,5.24469],[-75.40151,5.24456],[-75.40118,5.24437],[-75.401,5.24416],[-75.40084,5.24398],[-75.40085,5.24393],[-75.40091,5.24363],[-75.40092,5.2436],[-75.40101,5.24319],[-75.40152,5.24227],[-75.40155,5.24221],[-75.40156,5.24216],[-75.40158,5.24189],[-75.4012,5.24119],[-75.40094,5.24094],[-75.40093,5.24092],[-75.40076,5.24075],[-75.40069,5.24071],[-75.40004,5.24028],[-75.39924,5.23988],[-75.39909,5.2398],[-75.39904,5.23978],[-75.39903,5.23977],[-75.39901,5.23975],[-75.39879,5.23954],[-75.39864,5.23926],[-75.39863,5.23925],[-75.39854,5.23924],[-75.39835,5.23924],[-75.39825,5.23913],[-75.39772,5.23856],[-75.39764,5.23847],[-75.39759,5.23845],[-75.39665,5.23808],[-75.39621,5.23791],[-75.39314,5.23552],[-75.39209,5.23473],[-75.39204,5.23462],[-75.39179,5.23405],[-75.3917,5.23383],[-75.39162,5.23366],[-75.39152,5.23345],[-75.39005,5.23268],[-75.3899,5.23242],[-75.38882,5.23144],[-75.38864,5.23128],[-75.38803,5.2298],[-75.38797,5.22969],[-75.38761,5.22912],[-75.38718,5.22866],[-75.38714,5.22861],[-75.38665,5.22826],[-75.38664,5.22827],[-75.38664,5.22829],[-75.38662,5.22832],[-75.3866,5.22835],[-75.38659,5.22839],[-75.38658,5.22842],[-75.38658,5.22844],[-75.38657,5.22848],[-75.38659,5.22854],[-75.38659,5.22855],[-75.3866,5.22858],[-75.38658,5.22863],[-75.38653,5.22865],[-75.38653,5.22863],[-75.38652,5.22863],[-75.38651,5.22859],[-75.38644,5.22857],[-75.3864,5.22856],[-75.38635,5.22856],[-75.3863,5.22857],[-75.38624,5.2286],[-75.38622,5.22862],[-75.38621,5.22866],[-75.38621,5.22866],[-75.3862,5.22874],[-75.3862,5.2288],[-75.3862,5.22886],[-75.38619,5.22889],[-75.38619,5.2289],[-75.38617,5.22896],[-75.38614,5.22899],[-75.3861,5.22901],[-75.38603,5.22899],[-75.38595,5.22897],[-75.3859,5.22896],[-75.38589,5.22895],[-75.38589,5.22891],[-75.38589,5.2289],[-75.38588,5.22887],[-75.38586,5.22884],[-75.38579,5.22881],[-75.38576,5.2288],[-75.38573,5.22878],[-75.38573,5.22878],[-75.38571,5.22875],[-75.38572,5.22869],[-75.38573,5.22867],[-75.38577,5.22861],[-75.38578,5.22856],[-75.38578,5.22851],[-75.38578,5.22849],[-75.38574,5.22841],[-75.3857,5.22835],[-75.38565,5.22833],[-75.38562,5.22832],[-75.38561,5.22832],[-75.3856,5.22832],[-75.38559,5.22827],[-75.3856,5.2282],[-75.38562,5.22815],[-75.38563,5.22811],[-75.38563,5.22804],[-75.38563,5.228],[-75.38563,5.22799],[-75.38563,5.22794],[-75.38561,5.22789],[-75.38557,5.22787],[-75.38557,5.22786],[-75.38554,5.22783],[-75.3855,5.22782],[-75.3855,5.22782],[-75.38549,5.22787],[-75.38533,5.22878],[-75.38527,5.22909],[-75.38511,5.22997],[-75.3851,5.23003],[-75.38504,5.23038],[-75.38529,5.23028],[-75.38544,5.23025],[-75.38558,5.23021],[-75.38572,5.23017],[-75.38582,5.23008],[-75.38597,5.22993],[-75.38616,5.2299],[-75.38633,5.22995],[-75.38663,5.23],[-75.38697,5.23003],[-75.38719,5.23009],[-75.38725,5.23023],[-75.38725,5.23051],[-75.38719,5.23064],[-75.38705,5.23081],[-75.38699,5.23085],[-75.38686,5.23093],[-75.38664,5.23104],[-75.38649,5.23113],[-75.38634,5.23116],[-75.38616,5.23114],[-75.386,5.23116],[-75.38599,5.23117],[-75.38589,5.23105],[-75.38587,5.23103],[-75.38586,5.23081],[-75.38575,5.23067],[-75.38563,5.2306],[-75.38554,5.23059],[-75.38544,5.23059],[-75.38524,5.23063],[-75.3852,5.23065],[-75.38525,5.23071],[-75.38525,5.23071],[-75.38525,5.23072],[-75.38526,5.23072],[-75.38526,5.23073],[-75.38526,5.23079],[-75.38526,5.23079],[-75.38526,5.23088],[-75.38526,5.23088],[-75.38526,5.23088],[-75.38524,5.231],[-75.38518,5.23126],[-75.38512,5.23149],[-75.38512,5.23149],[-75.38507,5.23168],[-75.38504,5.2318],[-75.38503,5.23183],[-75.38504,5.23197],[-75.38506,5.23205],[-75.38508,5.23217],[-75.38509,5.2322],[-75.38512,5.23233],[-75.38516,5.23248],[-75.38518,5.23251],[-75.38519,5.23254],[-75.38519,5.23254],[-75.38519,5.23255],[-75.38521,5.23263],[-75.38521,5.23264],[-75.38521,5.23271],[-75.38521,5.2328],[-75.38521,5.23288],[-75.38521,5.23289],[-75.38521,5.23289],[-75.38521,5.2329],[-75.38521,5.2329],[-75.38521,5.2329],[-75.38514,5.233],[-75.38508,5.23315],[-75.38501,5.23336],[-75.38501,5.23336],[-75.38499,5.23342],[-75.38498,5.23345],[-75.38497,5.23353],[-75.38496,5.23361],[-75.38496,5.23361],[-75.38496,5.23362],[-75.38494,5.23368],[-75.38494,5.23368],[-75.38494,5.23368],[-75.3849,5.23378],[-75.3849,5.23378],[-75.3849,5.23378],[-75.38483,5.23388],[-75.38482,5.23388],[-75.38482,5.23389],[-75.38476,5.23394],[-75.38471,5.23399],[-75.38471,5.23399],[-75.38471,5.23399],[-75.38459,5.23407],[-75.3845,5.23417],[-75.38439,5.23431],[-75.38439,5.23431],[-75.38424,5.23446],[-75.38418,5.23455],[-75.38414,5.2346],[-75.38414,5.23468],[-75.38414,5.23468],[-75.38413,5.23477],[-75.38414,5.23486],[-75.38414,5.23487],[-75.38416,5.23496],[-75.38416,5.23496],[-75.38416,5.23502],[-75.38416,5.2351],[-75.38416,5.2351],[-75.38414,5.23517],[-75.38412,5.23529],[-75.38412,5.23539],[-75.38412,5.23542],[-75.38415,5.23548],[-75.38419,5.23557],[-75.38424,5.23562],[-75.38424,5.23563],[-75.38424,5.23563],[-75.38426,5.23569],[-75.38429,5.23574],[-75.38429,5.23574],[-75.38434,5.23583],[-75.38434,5.23583],[-75.38434,5.23584],[-75.38436,5.23594],[-75.38439,5.23601],[-75.38441,5.23605],[-75.38445,5.23608],[-75.3846,5.23615],[-75.38461,5.23616],[-75.38461,5.23616],[-75.38467,5.2362],[-75.38475,5.23626],[-75.38479,5.23629],[-75.38484,5.23632],[-75.38493,5.23634],[-75.38493,5.23634],[-75.38505,5.23633],[-75.38505,5.23633],[-75.38505,5.23633],[-75.38515,5.23633],[-75.38516,5.23633],[-75.38524,5.23635],[-75.38531,5.23637],[-75.38538,5.23639],[-75.38539,5.2364],[-75.38539,5.2364],[-75.38539,5.2364],[-75.38545,5.23646],[-75.38545,5.23646],[-75.38551,5.23653],[-75.38552,5.23653],[-75.38562,5.23666],[-75.38563,5.23667],[-75.3857,5.23677],[-75.3857,5.23678],[-75.38572,5.23681],[-75.38574,5.23685],[-75.38577,5.2369],[-75.38577,5.2369],[-75.38577,5.23691],[-75.3858,5.23704],[-75.3858,5.23704],[-75.3858,5.23704],[-75.38581,5.23708],[-75.38581,5.23717],[-75.38582,5.23717],[-75.38582,5.23733],[-75.38581,5.23733],[-75.38581,5.23734],[-75.3858,5.23741],[-75.38579,5.23745],[-75.38579,5.23745],[-75.38578,5.23747],[-75.38573,5.23767],[-75.38571,5.23775],[-75.38571,5.23776],[-75.38571,5.23782],[-75.38571,5.23782],[-75.3857,5.23792],[-75.3857,5.23792],[-75.38569,5.23797],[-75.38569,5.23797],[-75.38568,5.23804],[-75.38568,5.23804],[-75.38564,5.23814],[-75.38568,5.23815],[-75.38569,5.23815],[-75.3858,5.2383],[-75.38596,5.23836],[-75.38615,5.23843],[-75.38626,5.23844],[-75.38638,5.23842],[-75.3865,5.23842],[-75.38658,5.23846],[-75.38659,5.23847],[-75.38662,5.23853],[-75.38667,5.23858],[-75.38667,5.23859],[-75.38667,5.23859],[-75.38675,5.23864],[-75.38684,5.23873],[-75.38686,5.23876],[-75.38688,5.23881],[-75.38691,5.23888],[-75.38696,5.23891],[-75.38713,5.23891],[-75.38723,5.23892],[-75.38733,5.23896],[-75.38737,5.23895],[-75.38741,5.23894],[-75.38749,5.23888],[-75.38753,5.23879],[-75.38756,5.23874],[-75.38756,5.23868],[-75.38756,5.23862],[-75.38758,5.23853],[-75.38762,5.23847],[-75.38766,5.23841],[-75.38771,5.23839],[-75.38779,5.23842],[-75.38783,5.23848],[-75.38785,5.2385],[-75.38785,5.23861],[-75.38783,5.23871],[-75.38783,5.23877],[-75.38785,5.23886],[-75.38797,5.23896],[-75.38805,5.239],[-75.38812,5.23902],[-75.38821,5.23906],[-75.38823,5.2391],[-75.38818,5.23915],[-75.38815,5.23916],[-75.38817,5.23921],[-75.38825,5.23922],[-75.38829,5.23929],[-75.38836,5.23939],[-75.38842,5.23948],[-75.38848,5.23958],[-75.38858,5.23965],[-75.38868,5.23971],[-75.38879,5.23976],[-75.38882,5.23979],[-75.38883,5.23981],[-75.38883,5.23988],[-75.38876,5.23991],[-75.38868,5.23991],[-75.38861,5.2399],[-75.38853,5.2399],[-75.38847,5.2399],[-75.38845,5.2399],[-75.38839,5.23991],[-75.38834,5.23994],[-75.38834,5.23995],[-75.38829,5.24003],[-75.3884,5.24006],[-75.3885,5.24014],[-75.38867,5.24022],[-75.38878,5.24026],[-75.38879,5.24034],[-75.38879,5.24036],[-75.38882,5.24056],[-75.38878,5.24073],[-75.38877,5.2408],[-75.38868,5.24098],[-75.38833,5.24133],[-75.38817,5.24148],[-75.38806,5.24158],[-75.38798,5.24165],[-75.38771,5.2417],[-75.3875,5.24181],[-75.38742,5.2418],[-75.38732,5.24179],[-75.38721,5.24179],[-75.38713,5.24184],[-75.38709,5.24195],[-75.3871,5.24203],[-75.38712,5.2421],[-75.38707,5.24215],[-75.38705,5.24217],[-75.387,5.24219],[-75.38691,5.24223],[-75.38688,5.24229],[-75.38688,5.24236],[-75.38688,5.24236],[-75.38689,5.24243],[-75.38694,5.24252],[-75.38702,5.24256],[-75.38705,5.24256],[-75.38712,5.24256],[-75.38727,5.24249],[-75.38742,5.24253],[-75.38749,5.24253],[-75.38759,5.2426],[-75.38767,5.2427],[-75.38772,5.24286],[-75.38774,5.24295],[-75.38776,5.243],[-75.38781,5.24313],[-75.38785,5.24324],[-75.38786,5.2433],[-75.38786,5.24338],[-75.38787,5.24345],[-75.38787,5.24354],[-75.38787,5.24378],[-75.38787,5.24401],[-75.38787,5.24413],[-75.38787,5.24417],[-75.38784,5.24431],[-75.38784,5.24437],[-75.38787,5.24443],[-75.38792,5.24449],[-75.38795,5.24455],[-75.38796,5.24463],[-75.38791,5.24471],[-75.38782,5.24477],[-75.38769,5.24487],[-75.38759,5.245],[-75.38754,5.24509],[-75.3875,5.24517],[-75.38746,5.24523],[-75.38734,5.24534],[-75.38729,5.24538],[-75.38724,5.24545],[-75.38723,5.24546],[-75.38714,5.24575],[-75.3871,5.24581],[-75.38706,5.24588],[-75.38706,5.246],[-75.38708,5.24612],[-75.38712,5.24623],[-75.38712,5.24631],[-75.38712,5.2464],[-75.38709,5.24648],[-75.38704,5.24653],[-75.38695,5.24661],[-75.38687,5.24676],[-75.38686,5.24689],[-75.38684,5.24697],[-75.3868,5.24711],[-75.38673,5.24727],[-75.38671,5.2474],[-75.38675,5.24755],[-75.38686,5.24762],[-75.38688,5.24768],[-75.38688,5.24768],[-75.38688,5.2477],[-75.38688,5.24781],[-75.38685,5.24795],[-75.38679,5.24809],[-75.38677,5.24822],[-75.38678,5.24838],[-75.38674,5.24853],[-75.38667,5.24871],[-75.3866,5.24883],[-75.38651,5.249],[-75.38644,5.24913],[-75.38625,5.24951],[-75.38618,5.2497],[-75.38613,5.24981],[-75.38602,5.24993],[-75.38599,5.24997],[-75.38589,5.25005],[-75.38589,5.25005],[-75.38585,5.25001],[-75.38583,5.24999],[-75.3858,5.24996],[-75.3858,5.24993],[-75.38581,5.24989],[-75.38582,5.24986],[-75.38582,5.24983],[-75.38578,5.24982],[-75.38576,5.24982],[-75.38574,5.2498],[-75.38573,5.24976],[-75.38576,5.24971],[-75.38576,5.24966],[-75.38578,5.24958],[-75.3858,5.24953],[-75.38583,5.24947],[-75.38583,5.24945],[-75.38584,5.2494],[-75.38586,5.24936],[-75.38588,5.24931],[-75.3859,5.24925],[-75.38591,5.24924],[-75.38593,5.2492],[-75.38595,5.24915],[-75.38594,5.24912],[-75.38592,5.2491],[-75.38588,5.24908],[-75.38586,5.24907],[-75.38583,5.24906],[-75.38583,5.24906],[-75.38573,5.249],[-75.38569,5.24894],[-75.38566,5.24884],[-75.38556,5.24911],[-75.38553,5.24917],[-75.38557,5.24921],[-75.38559,5.24924],[-75.38558,5.24926],[-75.38553,5.24928],[-75.3855,5.24929],[-75.38545,5.24942],[-75.38547,5.24943],[-75.38551,5.24946],[-75.38551,5.24951],[-75.38547,5.24956],[-75.38545,5.24964],[-75.38544,5.24975],[-75.38543,5.24985],[-75.38543,5.24995],[-75.38543,5.25003],[-75.38548,5.25011],[-75.3855,5.25018],[-75.38547,5.25025],[-75.38542,5.25034],[-75.38536,5.25039],[-75.38533,5.25042],[-75.38526,5.25048],[-75.38521,5.25058],[-75.38516,5.25065],[-75.38505,5.25075],[-75.38499,5.25081],[-75.38493,5.25091],[-75.38494,5.25101],[-75.38498,5.25111],[-75.38478,5.25132],[-75.38467,5.25134],[-75.38437,5.25148],[-75.3843,5.25151],[-75.38421,5.25157],[-75.38414,5.25165],[-75.38414,5.25174],[-75.38421,5.2518],[-75.38422,5.25182],[-75.38422,5.25184],[-75.38421,5.2519],[-75.3842,5.25194],[-75.3842,5.25196],[-75.38426,5.252],[-75.38427,5.25201],[-75.38447,5.25217],[-75.385,5.25259],[-75.38518,5.25273],[-75.38531,5.25368],[-75.38528,5.25387],[-75.38528,5.25387],[-75.38539,5.25418],[-75.38541,5.25485],[-75.38543,5.25529],[-75.3854,5.25539],[-75.38539,5.25544],[-75.38603,5.25641],[-75.38639,5.25662],[-75.38705,5.25702],[-75.38761,5.25746],[-75.38803,5.258],[-75.38803,5.25801],[-75.38863,5.25878],[-75.38881,5.25902],[-75.38881,5.25902],[-75.38917,5.25945],[-75.38948,5.2597],[-75.3897,5.25987],[-75.38993,5.26005],[-75.3903,5.26048]],[[-75.40732,5.25617],[-75.40736,5.25611],[-75.40738,5.25604],[-75.40742,5.25601],[-75.40746,5.25601],[-75.40751,5.25603],[-75.40752,5.25606],[-75.40756,5.25613],[-75.40759,5.25618],[-75.40763,5.25624],[-75.40773,5.2563],[-75.40785,5.2563],[-75.40799,5.25627],[-75.40806,5.25624],[-75.40815,5.2562],[-75.40824,5.25614],[-75.40831,5.25612],[-75.4084,5.25613],[-75.40846,5.25614],[-75.40855,5.25611],[-75.40858,5.25615],[-75.4086,5.25621],[-75.40857,5.25628],[-75.40852,5.25637],[-75.40849,5.25646],[-75.40849,5.25657],[-75.40849,5.25669],[-75.40851,5.25681],[-75.40849,5.25689],[-75.40847,5.25692],[-75.40836,5.25695],[-75.40817,5.25696],[-75.40801,5.25698],[-75.40786,5.25701],[-75.40773,5.25704],[-75.40761,5.25711],[-75.4075,5.25719],[-75.40744,5.25729],[-75.40727,5.25736],[-75.40714,5.25738],[-75.40706,5.2574],[-75.40697,5.25743],[-75.40688,5.25749],[-75.40679,5.25755],[-75.40669,5.25762],[-75.40659,5.25764],[-75.40651,5.2576],[-75.40651,5.25754],[-75.40651,5.25749],[-75.40651,5.25742],[-75.40651,5.25733],[-75.40651,5.25719],[-75.40652,5.25707],[-75.40658,5.25695],[-75.40654,5.25692],[-75.4065,5.2569],[-75.40645,5.2569],[-75.40641,5.2569],[-75.40635,5.25686],[-75.40635,5.25681],[-75.40635,5.25676],[-75.40636,5.25669],[-75.40641,5.25663],[-75.40644,5.25654],[-75.40646,5.25649],[-75.40654,5.25646],[-75.40658,5.25644],[-75.40664,5.2564],[-75.4067,5.25637],[-75.40675,5.25636],[-75.40684,5.25636],[-75.40694,5.25634],[-75.40699,5.25629],[-75.40705,5.25626],[-75.40714,5.25621],[-75.40723,5.25622],[-75.40732,5.25617]],[[-75.40224,5.25331],[-75.40227,5.25338],[-75.40227,5.25349],[-75.40224,5.25357],[-75.40217,5.25363],[-75.40211,5.25365],[-75.40199,5.25363],[-75.40194,5.25356],[-75.40188,5.25351],[-75.40179,5.25351],[-75.40172,5.25355],[-75.40164,5.25361],[-75.40152,5.25359],[-75.40142,5.25355],[-75.40135,5.25347],[-75.40132,5.25344],[-75.40124,5.25345],[-75.40117,5.25345],[-75.40108,5.25347],[-75.40104,5.25348],[-75.40091,5.2535],[-75.40076,5.25342],[-75.40063,5.25336],[-75.40052,5.25332],[-75.40041,5.25332],[-75.40034,5.25337],[-75.40026,5.25345],[-75.40014,5.25347],[-75.4001,5.25344],[-75.40009,5.25333],[-75.40007,5.25323],[-75.40007,5.25313],[-75.40009,5.25303],[-75.40018,5.25294],[-75.40027,5.25281],[-75.40037,5.25273],[-75.40045,5.25264],[-75.40049,5.25258],[-75.4005,5.2525],[-75.4005,5.25238],[-75.4005,5.25231],[-75.4005,5.25215],[-75.4005,5.25206],[-75.4005,5.25199],[-75.40049,5.2519],[-75.40046,5.25183],[-75.40039,5.25178],[-75.40032,5.25174],[-75.40026,5.2517],[-75.40017,5.25166],[-75.40012,5.25164],[-75.40006,5.25164],[-75.4,5.25166],[-75.39996,5.2517],[-75.39992,5.25175],[-75.3999,5.25175],[-75.39985,5.25175],[-75.3998,5.2518],[-75.39976,5.2518],[-75.39971,5.2518],[-75.39967,5.2518],[-75.39962,5.2518],[-75.39957,5.2518],[-75.39953,5.2518],[-75.39951,5.25176],[-75.39949,5.25175],[-75.39943,5.25173],[-75.39935,5.25171],[-75.39932,5.25169],[-75.39932,5.25163],[-75.39934,5.25158],[-75.39936,5.25155],[-75.3994,5.2515],[-75.39945,5.25145],[-75.3995,5.25142],[-75.39958,5.2514],[-75.39967,5.25135],[-75.39975,5.25125],[-75.39981,5.25116],[-75.39983,5.2511],[-75.39994,5.25099],[-75.40016,5.25098],[-75.40026,5.251],[-75.40042,5.25105],[-75.40055,5.25113],[-75.40065,5.25121],[-75.40077,5.25124],[-75.40077,5.25124],[-75.40081,5.25126],[-75.40093,5.25134],[-75.40103,5.25141],[-75.40117,5.25145],[-75.40125,5.25151],[-75.40132,5.25162],[-75.4014,5.25182],[-75.40144,5.25193],[-75.40145,5.252],[-75.40145,5.25209],[-75.40143,5.25218],[-75.40143,5.25226],[-75.40143,5.25232],[-75.40144,5.25235],[-75.40148,5.25243],[-75.40152,5.25252],[-75.40156,5.25257],[-75.40166,5.25262],[-75.40177,5.25266],[-75.40186,5.25264],[-75.40194,5.25265],[-75.40204,5.25265],[-75.40213,5.2527],[-75.40222,5.25274],[-75.40231,5.25273],[-75.40237,5.25266],[-75.4024,5.25254],[-75.40241,5.25248],[-75.4024,5.25239],[-75.40244,5.25226],[-75.40245,5.25212],[-75.40246,5.25199],[-75.40247,5.25196],[-75.40249,5.25188],[-75.40254,5.25174],[-75.4026,5.25165],[-75.4027,5.25159],[-75.40281,5.25157],[-75.4029,5.25158],[-75.40298,5.25162],[-75.40298,5.25168],[-75.40297,5.25175],[-75.40293,5.25182],[-75.40293,5.25183],[-75.40292,5.25187],[-75.40287,5.25197],[-75.40286,5.25199],[-75.40284,5.25209],[-75.40284,5.25221],[-75.40284,5.25233],[-75.40284,5.25242],[-75.40285,5.25252],[-75.40284,5.25259],[-75.40281,5.25266],[-75.40277,5.25268],[-75.40263,5.25273],[-75.40257,5.25276],[-75.40254,5.25277],[-75.40249,5.25282],[-75.40244,5.25291],[-75.4024,5.25298],[-75.40232,5.25307],[-75.40229,5.25312],[-75.40226,5.25318],[-75.40223,5.25324],[-75.40224,5.25331]],[[-75.39432,5.25268],[-75.39426,5.2527],[-75.3942,5.25277],[-75.39412,5.25288],[-75.39405,5.25295],[-75.39398,5.25297],[-75.3939,5.25296],[-75.39387,5.25296],[-75.39387,5.25286],[-75.39389,5.25276],[-75.39395,5.25264],[-75.39397,5.25252],[-75.39394,5.25243],[-75.39388,5.25235],[-75.39387,5.25224],[-75.39388,5.25216],[-75.3939,5.25204],[-75.3939,5.25197],[-75.3939,5.25188],[-75.3939,5.25181],[-75.3939,5.25167],[-75.39397,5.25157],[-75.39407,5.25148],[-75.39413,5.25133],[-75.39419,5.25126],[-75.39429,5.25118],[-75.39437,5.25113],[-75.39448,5.25109],[-75.3946,5.25108],[-75.39468,5.25101],[-75.3947,5.25088],[-75.39469,5.25083],[-75.39465,5.25068],[-75.39462,5.25056],[-75.39453,5.25046],[-75.39446,5.25033],[-75.39441,5.2502],[-75.3944,5.25011],[-75.39437,5.25001],[-75.39424,5.24995],[-75.39417,5.24986],[-75.39409,5.2497],[-75.39406,5.2496],[-75.39406,5.24945],[-75.39415,5.24938],[-75.39432,5.24925],[-75.39442,5.24923],[-75.39458,5.24921],[-75.39468,5.24922],[-75.39486,5.24922],[-75.39511,5.24921],[-75.39527,5.2492],[-75.39543,5.24921],[-75.39557,5.24925],[-75.3957,5.24931],[-75.39588,5.24933],[-75.39606,5.24933],[-75.39625,5.2493],[-75.39636,5.24924],[-75.39647,5.24916],[-75.39652,5.24907],[-75.39658,5.24898],[-75.39664,5.24889],[-75.39675,5.24881],[-75.39688,5.2488],[-75.39705,5.24882],[-75.39726,5.24886],[-75.39742,5.24891],[-75.39751,5.24897],[-75.39761,5.2491],[-75.3977,5.24909],[-75.39774,5.24903],[-75.39784,5.24888],[-75.39788,5.24882],[-75.39791,5.24877],[-75.39801,5.24866],[-75.39822,5.24855],[-75.39823,5.24855],[-75.39824,5.24854],[-75.39837,5.24847],[-75.39845,5.24844],[-75.39857,5.2484],[-75.39867,5.24836],[-75.39872,5.24828],[-75.39875,5.24822],[-75.39881,5.2481],[-75.39885,5.24803],[-75.39892,5.24803],[-75.399,5.24805],[-75.39902,5.24807],[-75.39905,5.24815],[-75.39905,5.24823],[-75.39902,5.24832],[-75.39897,5.24848],[-75.39894,5.24858],[-75.39894,5.24868],[-75.39896,5.2488],[-75.399,5.24887],[-75.39908,5.24897],[-75.39916,5.24902],[-75.39929,5.24909],[-75.39939,5.24916],[-75.39958,5.24928],[-75.39968,5.24933],[-75.39973,5.24936],[-75.39985,5.24941],[-75.39995,5.24952],[-75.39995,5.24961],[-75.39994,5.24971],[-75.3999,5.24978],[-75.39984,5.24987],[-75.39984,5.24997],[-75.39987,5.25003],[-75.39987,5.25009],[-75.3998,5.25016],[-75.39964,5.2502],[-75.39946,5.2503],[-75.39934,5.25044],[-75.39931,5.25045],[-75.39922,5.25052],[-75.39914,5.25062],[-75.39909,5.2507],[-75.39899,5.25076],[-75.39886,5.25084],[-75.39878,5.2509],[-75.39864,5.25097],[-75.39856,5.25102],[-75.39853,5.25109],[-75.39853,5.25118],[-75.39852,5.25128],[-75.39852,5.25136],[-75.39852,5.25152],[-75.39848,5.25163],[-75.39841,5.25171],[-75.39832,5.25178],[-75.39821,5.25184],[-75.39809,5.25189],[-75.39794,5.25194],[-75.39779,5.252],[-75.39764,5.25202],[-75.39752,5.25203],[-75.39743,5.252],[-75.39739,5.25196],[-75.39727,5.25184],[-75.39717,5.25174],[-75.3971,5.25161],[-75.39711,5.2515],[-75.39712,5.25141],[-75.39712,5.2513],[-75.39712,5.25123],[-75.39711,5.25116],[-75.39696,5.2511],[-75.39691,5.25107],[-75.39688,5.251],[-75.39688,5.25093],[-75.39689,5.25083],[-75.39689,5.25076],[-75.39688,5.25068],[-75.39687,5.2506],[-75.3968,5.25048],[-75.39673,5.25041],[-75.39668,5.25037],[-75.39662,5.25035],[-75.39652,5.25032],[-75.39642,5.25028],[-75.39631,5.25024],[-75.39626,5.25024],[-75.39621,5.25024],[-75.39617,5.25024],[-75.39612,5.25024],[-75.39608,5.25024],[-75.39598,5.25029],[-75.39589,5.25033],[-75.39578,5.25041],[-75.39574,5.25047],[-75.39572,5.25054],[-75.39569,5.2506],[-75.39567,5.25071],[-75.39564,5.25081],[-75.39562,5.25098],[-75.39563,5.25106],[-75.39563,5.25116],[-75.39565,5.25126],[-75.39565,5.25141],[-75.3956,5.25152],[-75.39553,5.25159],[-75.39547,5.25164],[-75.39535,5.25169],[-75.39529,5.25175],[-75.39523,5.25183],[-75.39517,5.25194],[-75.39511,5.25207],[-75.39507,5.25212],[-75.39505,5.25214],[-75.39496,5.25219],[-75.39483,5.25222],[-75.39474,5.25228],[-75.39469,5.25236],[-75.39469,5.25243],[-75.39469,5.25251],[-75.39467,5.25261],[-75.39456,5.25267],[-75.39446,5.25267],[-75.39432,5.25268]],[[-75.40046,5.24919],[-75.40037,5.24917],[-75.40033,5.24914],[-75.40033,5.24909],[-75.40033,5.24903],[-75.40035,5.24899],[-75.40037,5.24894],[-75.40039,5.24889],[-75.40041,5.24884],[-75.40041,5.24876],[-75.40039,5.2487],[-75.40038,5.24864],[-75.40039,5.24856],[-75.40042,5.24849],[-75.40048,5.24841],[-75.40052,5.24841],[-75.40057,5.24841],[-75.40058,5.24841],[-75.4007,5.24841],[-75.40075,5.24844],[-75.40081,5.24846],[-75.40083,5.2485],[-75.40084,5.24855],[-75.40085,5.24861],[-75.40085,5.24866],[-75.40086,5.24872],[-75.40087,5.24875],[-75.40093,5.24878],[-75.40099,5.24883],[-75.401,5.24883],[-75.40108,5.24884],[-75.40116,5.24882],[-75.40119,5.24876],[-75.40119,5.24871],[-75.40122,5.24869],[-75.40129,5.2487],[-75.40132,5.24873],[-75.40135,5.2488],[-75.40138,5.24886],[-75.40141,5.24895],[-75.40147,5.24903],[-75.40148,5.24917],[-75.40145,5.24922],[-75.40135,5.24925],[-75.40127,5.24922],[-75.40109,5.24915],[-75.40098,5.2491],[-75.40088,5.24909],[-75.40079,5.24912],[-75.4007,5.24916],[-75.40056,5.2492],[-75.40046,5.24919]],[[-75.41188,5.25082],[-75.41188,5.25088],[-75.41188,5.251],[-75.41188,5.25106],[-75.41188,5.25112],[-75.41182,5.25112],[-75.4117,5.25112],[-75.41164,5.25112],[-75.41158,5.25106],[-75.41152,5.251],[-75.41129,5.25082],[-75.41123,5.25082],[-75.41117,5.25088],[-75.41111,5.25094],[-75.41105,5.25094],[-75.41099,5.251],[-75.41069,5.25101],[-75.41063,5.25101],[-75.41057,5.25101],[-75.41051,5.25101],[-75.41045,5.25101],[-75.41039,5.25101],[-75.41033,5.25101],[-75.41033,5.25089],[-75.41033,5.25083],[-75.41027,5.25065],[-75.41027,5.25059],[-75.41027,5.25053],[-75.41027,5.25047],[-75.41027,5.25041],[-75.41027,5.25029],[-75.41027,5.25023],[-75.41027,5.25011],[-75.41027,5.25006],[-75.41027,5.25005],[-75.41027,5.24999],[-75.41027,5.24993],[-75.41027,5.24987],[-75.41027,5.24969],[-75.41027,5.24963],[-75.41033,5.24957],[-75.41033,5.24951],[-75.41033,5.24951],[-75.41039,5.24951],[-75.41044,5.24951],[-75.41045,5.24951],[-75.41051,5.24939],[-75.41063,5.24939],[-75.41075,5.24933],[-75.41081,5.24927],[-75.4108,5.24921],[-75.41086,5.24915],[-75.41086,5.24909],[-75.41091,5.249],[-75.41092,5.24897],[-75.41092,5.24891],[-75.41098,5.24885],[-75.4111,5.24879],[-75.41116,5.24879],[-75.41118,5.24879],[-75.41122,5.24879],[-75.41134,5.24879],[-75.4114,5.24879],[-75.41146,5.24879],[-75.41152,5.24867],[-75.41158,5.24867],[-75.41158,5.24861],[-75.41164,5.24855],[-75.4117,5.24855],[-75.4117,5.24849],[-75.41176,5.24849],[-75.41176,5.24843],[-75.41182,5.24843],[-75.41188,5.24843],[-75.41194,5.24843],[-75.41212,5.24843],[-75.41218,5.24843],[-75.41222,5.24843],[-75.41223,5.24843],[-75.41229,5.24843],[-75.41235,5.24837],[-75.41235,5.24831],[-75.41235,5.24831],[-75.41235,5.24825],[-75.41241,5.24819],[-75.41247,5.24813],[-75.41247,5.24807],[-75.41247,5.24801],[-75.41247,5.24795],[-75.41247,5.24777],[-75.41253,5.24777],[-75.41259,5.24777],[-75.41271,5.24777],[-75.41277,5.24777],[-75.41284,5.24777],[-75.41289,5.24777],[-75.41295,5.24777],[-75.41295,5.24783],[-75.41301,5.24789],[-75.41307,5.24801],[-75.41313,5.24807],[-75.41325,5.24819],[-75.41331,5.24825],[-75.41331,5.24831],[-75.41331,5.24837],[-75.41343,5.24837],[-75.41349,5.24837],[-75.41355,5.24837],[-75.41367,5.24843],[-75.41367,5.24849],[-75.41373,5.24855],[-75.41382,5.2486],[-75.41385,5.24861],[-75.41391,5.24873],[-75.41391,5.24879],[-75.41385,5.24879],[-75.41385,5.24885],[-75.41373,5.24891],[-75.41373,5.24897],[-75.41367,5.24897],[-75.41367,5.24903],[-75.41361,5.24903],[-75.41355,5.24909],[-75.41361,5.24915],[-75.41367,5.24915],[-75.41373,5.24921],[-75.41367,5.24921],[-75.41361,5.24921],[-75.41349,5.24921],[-75.41343,5.24921],[-75.41337,5.24927],[-75.41335,5.24929],[-75.41331,5.24933],[-75.41327,5.24933],[-75.41325,5.24933],[-75.41319,5.24933],[-75.41313,5.24933],[-75.41301,5.24933],[-75.41295,5.24933],[-75.41289,5.24933],[-75.41283,5.24933],[-75.41277,5.24933],[-75.41271,5.24933],[-75.41265,5.24933],[-75.41259,5.24933],[-75.41254,5.24933],[-75.41242,5.24933],[-75.41236,5.24939],[-75.41236,5.24945],[-75.4123,5.24951],[-75.4123,5.24957],[-75.4123,5.24963],[-75.4123,5.24969],[-75.4123,5.24975],[-75.4123,5.24981],[-75.4123,5.24999],[-75.4123,5.25005],[-75.41224,5.25011],[-75.41218,5.25017],[-75.41212,5.25023],[-75.412,5.25023],[-75.41194,5.25023],[-75.41182,5.25029],[-75.41182,5.25035],[-75.41188,5.2504],[-75.41188,5.25046],[-75.41188,5.25052],[-75.41188,5.25058],[-75.41188,5.25064],[-75.41188,5.2507],[-75.41188,5.25082]]]]},"properties":{"FID":2,"OBJECTID":3,"Nombre":"RFP El Diamante Zona de Preservacion","RuleID_1":42,"AREA_ha":585.982815791,"Shape_Leng":28547.8743655,"Shape_Area":5859828.16747}},{"type":"Feature","id":3,"geometry":{"type":"MultiPolygon","coordinates":[[[[-75.38578,5.22856],[-75.38577,5.22861],[-75.38573,5.22867],[-75.38572,5.22869],[-75.38571,5.22875],[-75.38573,5.22878],[-75.38573,5.22878],[-75.38576,5.2288],[-75.38579,5.22881],[-75.38586,5.22884],[-75.38588,5.22887],[-75.38589,5.2289],[-75.38589,5.22891],[-75.38589,5.22895],[-75.3859,5.22896],[-75.38595,5.22897],[-75.38603,5.22899],[-75.3861,5.22901],[-75.38614,5.22899],[-75.38617,5.22896],[-75.38619,5.2289],[-75.38619,5.22889],[-75.3862,5.22886],[-75.3862,5.2288],[-75.3862,5.22874],[-75.38621,5.22866],[-75.38621,5.22866],[-75.38622,5.22862],[-75.38624,5.2286],[-75.3863,5.22857],[-75.38635,5.22856],[-75.3864,5.22856],[-75.38644,5.22857],[-75.38651,5.22859],[-75.38652,5.22863],[-75.38653,5.22863],[-75.38653,5.22865],[-75.38658,5.22863],[-75.3866,5.22858],[-75.38659,5.22855],[-75.38659,5.22854],[-75.38657,5.22848],[-75.38658,5.22844],[-75.38658,5.22842],[-75.38659,5.22839],[-75.3866,5.22835],[-75.38662,5.22832],[-75.38664,5.22829],[-75.38664,5.22827],[-75.38665,5.22826],[-75.38662,5.22824],[-75.38658,5.22821],[-75.38613,5.2279],[-75.38603,5.22787],[-75.38552,5.22773],[-75.3855,5.22782],[-75.38554,5.22783],[-75.38557,5.22786],[-75.38557,5.22787],[-75.38561,5.22789],[-75.38563,5.22794],[-75.38563,5.22799],[-75.38563,5.228],[-75.38563,5.22804],[-75.38563,5.22811],[-75.38562,5.22815],[-75.3856,5.2282],[-75.38559,5.22827],[-75.3856,5.22832],[-75.38561,5.22832],[-75.38562,5.22832],[-75.38565,5.22833],[-75.3857,5.22835],[-75.38574,5.22841],[-75.38578,5.22849],[-75.38578,5.22851],[-75.38578,5.22856]]],[[[-75.38599,5.23117],[-75.386,5.23116],[-75.38616,5.23114],[-75.38634,5.23116],[-75.38649,5.23113],[-75.38664,5.23104],[-75.38686,5.23093],[-75.38699,5.23085],[-75.38705,5.23081],[-75.38719,5.23064],[-75.38725,5.23051],[-75.38725,5.23023],[-75.38719,5.23009],[-75.38697,5.23003],[-75.38663,5.23],[-75.38633,5.22995],[-75.38616,5.2299],[-75.38597,5.22993],[-75.38582,5.23008],[-75.38572,5.23017],[-75.38558,5.23021],[-75.38544,5.23025],[-75.38529,5.23028],[-75.38504,5.23038],[-75.38502,5.23049],[-75.38498,5.23059],[-75.38503,5.23059],[-75.38503,5.23059],[-75.38504,5.23059],[-75.38506,5.23059],[-75.38513,5.23059],[-75.38513,5.23059],[-75.38514,5.23059],[-75.38514,5.2306],[-75.38515,5.2306],[-75.3852,5.23064],[-75.3852,5.23065],[-75.3852,5.23065],[-75.3852,5.23065],[-75.38524,5.23063],[-75.38544,5.23059],[-75.38554,5.23059],[-75.38563,5.2306],[-75.38575,5.23067],[-75.38586,5.23081],[-75.38587,5.23103],[-75.38589,5.23105],[-75.38599,5.23117]]],[[[-75.38485,5.23093],[-75.38338,5.23282],[-75.38344,5.23279],[-75.38359,5.23264],[-75.38367,5.23254],[-75.38393,5.23241],[-75.38407,5.23231],[-75.38423,5.23212],[-75.38434,5.23188],[-75.38449,5.23158],[-75.38459,5.23139],[-75.38474,5.23119],[-75.38487,5.23096],[-75.38497,5.23082],[-75.38511,5.23071],[-75.38514,5.23069],[-75.38511,5.23066],[-75.38503,5.23066],[-75.38497,5.23066],[-75.38497,5.23066],[-75.38497,5.23066],[-75.38496,5.23066],[-75.38485,5.23093]]],[[[-75.38198,5.23378],[-75.38146,5.23432],[-75.3815,5.2343],[-75.38165,5.23426],[-75.38181,5.23418],[-75.38194,5.23413],[-75.38207,5.23406],[-75.38219,5.23401],[-75.38227,5.23391],[-75.38233,5.23374],[-75.38245,5.23365],[-75.38248,5.2336],[-75.3826,5.23344],[-75.38266,5.23335],[-75.38198,5.23378]]],[[[-75.38121,5.23459],[-75.38097,5.23485],[-75.38092,5.2349],[-75.3809,5.23492],[-75.38098,5.23512],[-75.38124,5.23572],[-75.38155,5.23623],[-75.38186,5.23658],[-75.38223,5.23699],[-75.38223,5.23695],[-75.38224,5.23694],[-75.38225,5.2369],[-75.38224,5.23676],[-75.3822,5.23669],[-75.38214,5.23657],[-75.38213,5.23649],[-75.38217,5.23642],[-75.38226,5.23636],[-75.38236,5.23632],[-75.38244,5.23623],[-75.38246,5.23614],[-75.38246,5.23608],[-75.38227,5.23588],[-75.38202,5.23568],[-75.3818,5.23547],[-75.38164,5.23536],[-75.38159,5.23533],[-75.38152,5.23518],[-75.38151,5.23497],[-75.38143,5.23477],[-75.38138,5.2346],[-75.38139,5.23446],[-75.38143,5.23436],[-75.38121,5.23459]]],[[[-75.38557,5.23934],[-75.38563,5.23941],[-75.38563,5.2394],[-75.38561,5.23937],[-75.38556,5.23929],[-75.38554,5.23926],[-75.38552,5.23925],[-75.38557,5.23934]]],[[[-75.38579,5.23977],[-75.38581,5.23979],[-75.38581,5.23978],[-75.38578,5.23974],[-75.38579,5.23977]]],[[[-75.38483,5.24061],[-75.38483,5.24061],[-75.38483,5.24061],[-75.38487,5.2406],[-75.38512,5.24052],[-75.38512,5.24052],[-75.38533,5.24047],[-75.38548,5.24042],[-75.38548,5.24042],[-75.38552,5.24041],[-75.38559,5.24036],[-75.38563,5.24032],[-75.3857,5.24025],[-75.38571,5.24025],[-75.38571,5.24025],[-75.38585,5.24015],[-75.38595,5.24006],[-75.38599,5.24],[-75.38599,5.23996],[-75.38597,5.23991],[-75.38595,5.23988],[-75.38594,5.23987],[-75.38593,5.23986],[-75.38592,5.2399],[-75.38592,5.2399],[-75.38589,5.23992],[-75.38589,5.23992],[-75.38583,5.23992],[-75.38576,5.23992],[-75.38568,5.2399],[-75.38563,5.23988],[-75.38548,5.23978],[-75.38541,5.23975],[-75.38532,5.2397],[-75.38524,5.23964],[-75.38523,5.23963],[-75.38519,5.23959],[-75.38514,5.23952],[-75.38508,5.23955],[-75.38507,5.23956],[-75.38504,5.23957],[-75.38496,5.23959],[-75.38489,5.23958],[-75.38484,5.23955],[-75.38477,5.23947],[-75.38477,5.23946],[-75.38474,5.23943],[-75.38472,5.23944],[-75.38468,5.23944],[-75.38462,5.23946],[-75.38457,5.23948],[-75.38451,5.23948],[-75.38445,5.23943],[-75.38438,5.23939],[-75.38435,5.2394],[-75.3843,5.23941],[-75.38425,5.23946],[-75.38425,5.23946],[-75.38425,5.23947],[-75.38423,5.23948],[-75.38483,5.24061]]],[[[-75.40868,5.24917],[-75.40868,5.24919],[-75.40869,5.24918],[-75.40873,5.24911],[-75.40873,5.24909],[-75.40875,5.24904],[-75.40878,5.249],[-75.40881,5.24894],[-75.40886,5.2489],[-75.40886,5.2489],[-75.40894,5.2489],[-75.40899,5.24895],[-75.40899,5.24896],[-75.40902,5.24903],[-75.40903,5.24906],[-75.40908,5.24909],[-75.40915,5.24907],[-75.40922,5.24902],[-75.40924,5.249],[-75.40924,5.249],[-75.40926,5.24896],[-75.40928,5.24886],[-75.40928,5.24878],[-75.40927,5.24874],[-75.40926,5.2487],[-75.40926,5.2487],[-75.40926,5.24865],[-75.40926,5.24859],[-75.40929,5.24854],[-75.40934,5.24852],[-75.40941,5.24856],[-75.40946,5.24865],[-75.40947,5.24866],[-75.4095,5.24868],[-75.40951,5.24868],[-75.40957,5.24865],[-75.40964,5.24858],[-75.40973,5.24848],[-75.4098,5.24837],[-75.40983,5.24831],[-75.40983,5.24828],[-75.40983,5.24822],[-75.40981,5.24817],[-75.40977,5.24811],[-75.40973,5.24805],[-75.40964,5.24795],[-75.40956,5.24784],[-75.40946,5.24777],[-75.40937,5.24773],[-75.40926,5.24772],[-75.40922,5.24772],[-75.40912,5.24774],[-75.40906,5.24779],[-75.40898,5.24785],[-75.40894,5.24789],[-75.40891,5.24793],[-75.4089,5.24794],[-75.40882,5.2484],[-75.40882,5.24841],[-75.40878,5.24865],[-75.40868,5.24917]]],[[[-75.3855,5.24929],[-75.38553,5.24928],[-75.38558,5.24926],[-75.38559,5.24924],[-75.38557,5.24921],[-75.38553,5.24917],[-75.3855,5.24929]]],[[[-75.40098,5.2491],[-75.40109,5.24915],[-75.40127,5.24922],[-75.40135,5.24925],[-75.40145,5.24922],[-75.40148,5.24917],[-75.40147,5.24903],[-75.40141,5.24895],[-75.40138,5.24886],[-75.40135,5.2488],[-75.40132,5.24873],[-75.40129,5.2487],[-75.40122,5.24869],[-75.40119,5.24871],[-75.40119,5.24876],[-75.40116,5.24882],[-75.40108,5.24884],[-75.401,5.24883],[-75.40099,5.24883],[-75.40093,5.24878],[-75.40087,5.24875],[-75.40086,5.24872],[-75.40085,5.24866],[-75.40085,5.24861],[-75.40084,5.24855],[-75.40083,5.2485],[-75.40081,5.24846],[-75.40075,5.24844],[-75.4007,5.24841],[-75.40058,5.24841],[-75.40057,5.24841],[-75.40052,5.24841],[-75.40048,5.24841],[-75.40042,5.24849],[-75.40039,5.24856],[-75.40038,5.24864],[-75.40039,5.2487],[-75.40041,5.24876],[-75.40041,5.24884],[-75.40039,5.24889],[-75.40037,5.24894],[-75.40035,5.24899],[-75.40033,5.24903],[-75.40033,5.24909],[-75.40033,5.24914],[-75.40037,5.24917],[-75.40046,5.24919],[-75.40056,5.2492],[-75.4007,5.24916],[-75.40079,5.24912],[-75.40088,5.24909],[-75.40098,5.2491]]],[[[-75.38569,5.24894],[-75.38573,5.249],[-75.38583,5.24906],[-75.38583,5.24906],[-75.38586,5.24907],[-75.38588,5.24908],[-75.38592,5.2491],[-75.38594,5.24912],[-75.38595,5.24915],[-75.38593,5.2492],[-75.38591,5.24924],[-75.3859,5.24925],[-75.38588,5.24931],[-75.38586,5.24936],[-75.38584,5.2494],[-75.38583,5.24945],[-75.38583,5.24947],[-75.3858,5.24953],[-75.38578,5.24958],[-75.38576,5.24966],[-75.38576,5.24971],[-75.38573,5.24976],[-75.38574,5.2498],[-75.38576,5.24982],[-75.38578,5.24982],[-75.38582,5.24983],[-75.38582,5.24986],[-75.38581,5.24989],[-75.3858,5.24993],[-75.3858,5.24996],[-75.38583,5.24999],[-75.38585,5.25001],[-75.38589,5.25005],[-75.38589,5.25005],[-75.38599,5.24997],[-75.38602,5.24993],[-75.38613,5.24981],[-75.38618,5.2497],[-75.38625,5.24951],[-75.38644,5.24913],[-75.38651,5.249],[-75.3866,5.24883],[-75.38667,5.24871],[-75.38674,5.24853],[-75.38678,5.24838],[-75.38677,5.24822],[-75.38679,5.24809],[-75.38685,5.24795],[-75.38688,5.24781],[-75.38688,5.2477],[-75.38688,5.24768],[-75.38688,5.24768],[-75.38686,5.24762],[-75.38675,5.24755],[-75.38671,5.2474],[-75.38673,5.24727],[-75.3868,5.24711],[-75.38684,5.24697],[-75.38686,5.24689],[-75.38687,5.24676],[-75.38695,5.24661],[-75.38704,5.24653],[-75.38709,5.24648],[-75.38712,5.2464],[-75.38712,5.24631],[-75.38712,5.24623],[-75.38708,5.24612],[-75.38706,5.246],[-75.38706,5.24588],[-75.3871,5.24581],[-75.38714,5.24575],[-75.38723,5.24546],[-75.38724,5.24545],[-75.38729,5.24538],[-75.38734,5.24534],[-75.38746,5.24523],[-75.3875,5.24517],[-75.38754,5.24509],[-75.38759,5.245],[-75.38769,5.24487],[-75.38782,5.24477],[-75.38791,5.24471],[-75.38796,5.24463],[-75.38795,5.24455],[-75.38792,5.24449],[-75.38787,5.24443],[-75.38784,5.24437],[-75.38784,5.24431],[-75.38787,5.24417],[-75.38787,5.24413],[-75.38787,5.24401],[-75.38787,5.24378],[-75.38787,5.24354],[-75.38787,5.24345],[-75.38786,5.24338],[-75.38786,5.2433],[-75.38785,5.24324],[-75.38781,5.24313],[-75.38776,5.243],[-75.38774,5.24295],[-75.38772,5.24286],[-75.38767,5.2427],[-75.38759,5.2426],[-75.38749,5.24253],[-75.38742,5.24253],[-75.38727,5.24249],[-75.38712,5.24256],[-75.38705,5.24256],[-75.38702,5.24256],[-75.38694,5.24252],[-75.38689,5.24243],[-75.38688,5.24236],[-75.38688,5.24236],[-75.38688,5.24229],[-75.38691,5.24223],[-75.387,5.24219],[-75.38705,5.24217],[-75.38707,5.24215],[-75.38712,5.2421],[-75.3871,5.24203],[-75.38709,5.24195],[-75.38713,5.24184],[-75.38721,5.24179],[-75.38732,5.24179],[-75.38742,5.2418],[-75.3875,5.24181],[-75.38771,5.2417],[-75.38798,5.24165],[-75.38806,5.24158],[-75.38817,5.24148],[-75.38833,5.24133],[-75.38868,5.24098],[-75.38877,5.2408],[-75.38878,5.24073],[-75.38882,5.24056],[-75.38879,5.24036],[-75.38879,5.24034],[-75.38878,5.24026],[-75.38867,5.24022],[-75.3885,5.24014],[-75.3884,5.24006],[-75.38829,5.24003],[-75.38834,5.23995],[-75.38834,5.23994],[-75.38839,5.23991],[-75.38845,5.2399],[-75.38847,5.2399],[-75.38853,5.2399],[-75.38861,5.2399],[-75.38868,5.23991],[-75.38876,5.23991],[-75.38883,5.23988],[-75.38883,5.23981],[-75.38882,5.23979],[-75.38879,5.23976],[-75.38868,5.23971],[-75.38858,5.23965],[-75.38848,5.23958],[-75.38842,5.23948],[-75.38836,5.23939],[-75.38829,5.23929],[-75.38825,5.23922],[-75.38817,5.23921],[-75.38815,5.23916],[-75.38818,5.23915],[-75.38823,5.2391],[-75.38821,5.23906],[-75.38812,5.23902],[-75.38805,5.239],[-75.38797,5.23896],[-75.38785,5.23886],[-75.38783,5.23877],[-75.38783,5.23871],[-75.38785,5.23861],[-75.38785,5.2385],[-75.38783,5.23848],[-75.38779,5.23842],[-75.38771,5.23839],[-75.38766,5.23841],[-75.38762,5.23847],[-75.38758,5.23853],[-75.38756,5.23862],[-75.38756,5.23868],[-75.38756,5.23874],[-75.38753,5.23879],[-75.38749,5.23888],[-75.38741,5.23894],[-75.38737,5.23895],[-75.38733,5.23896],[-75.38723,5.23892],[-75.38713,5.23891],[-75.38696,5.23891],[-75.38691,5.23888],[-75.38688,5.23881],[-75.38686,5.23876],[-75.38684,5.23873],[-75.38675,5.23864],[-75.38667,5.23859],[-75.38667,5.23859],[-75.38667,5.23858],[-75.38662,5.23853],[-75.38659,5.23847],[-75.38658,5.23846],[-75.3865,5.23842],[-75.38638,5.23842],[-75.38626,5.23844],[-75.38615,5.23843],[-75.38596,5.23836],[-75.3858,5.2383],[-75.38569,5.23815],[-75.38568,5.23815],[-75.38564,5.23814],[-75.38564,5.23815],[-75.3856,5.23826],[-75.38555,5.23841],[-75.38555,5.23844],[-75.38553,5.23856],[-75.38552,5.23867],[-75.38551,5.23873],[-75.3855,5.23887],[-75.38549,5.23896],[-75.38549,5.23901],[-75.38549,5.23903],[-75.38551,5.23912],[-75.38553,5.23917],[-75.38558,5.23921],[-75.38558,5.23921],[-75.38558,5.23921],[-75.3856,5.23922],[-75.38562,5.23924],[-75.38562,5.23924],[-75.38562,5.23925],[-75.38567,5.23933],[-75.38569,5.23937],[-75.3857,5.23938],[-75.38572,5.23944],[-75.38572,5.23944],[-75.38575,5.23955],[-75.38579,5.23961],[-75.38582,5.23967],[-75.38587,5.23974],[-75.38595,5.23978],[-75.38595,5.23979],[-75.38595,5.23979],[-75.386,5.23982],[-75.386,5.23983],[-75.386,5.23983],[-75.38601,5.23983],[-75.38603,5.23988],[-75.38603,5.23988],[-75.38605,5.23994],[-75.38606,5.23995],[-75.38606,5.23995],[-75.38606,5.24],[-75.38606,5.24001],[-75.38606,5.24001],[-75.38606,5.24002],[-75.38606,5.24002],[-75.38602,5.2401],[-75.38601,5.24011],[-75.38601,5.24011],[-75.38601,5.24011],[-75.3859,5.24021],[-75.3859,5.24021],[-75.38589,5.24021],[-75.38575,5.2403],[-75.38564,5.24041],[-75.38564,5.24041],[-75.38564,5.24041],[-75.38556,5.24047],[-75.38555,5.24047],[-75.38555,5.24047],[-75.3855,5.24049],[-75.38535,5.24054],[-75.38535,5.24054],[-75.38514,5.24059],[-75.38492,5.24066],[-75.38488,5.24067],[-75.38516,5.24102],[-75.38578,5.24155],[-75.3861,5.24182],[-75.38699,5.24274],[-75.38758,5.24358],[-75.38761,5.24443],[-75.38762,5.24447],[-75.38758,5.24452],[-75.38758,5.24454],[-75.38755,5.24467],[-75.38748,5.2449],[-75.38739,5.24512],[-75.38737,5.24514],[-75.38731,5.24519],[-75.38724,5.24524],[-75.38717,5.2453],[-75.38717,5.2453],[-75.38702,5.24546],[-75.38696,5.24556],[-75.38682,5.24576],[-75.38671,5.24592],[-75.38666,5.24609],[-75.38662,5.24629],[-75.38663,5.24647],[-75.38661,5.2466],[-75.38655,5.24672],[-75.38646,5.24692],[-75.3862,5.24745],[-75.38599,5.24796],[-75.386,5.24798],[-75.38599,5.24802],[-75.38596,5.24808],[-75.38595,5.24809],[-75.38592,5.24812],[-75.38589,5.24818],[-75.38587,5.24827],[-75.38586,5.24828],[-75.38587,5.24829],[-75.38588,5.24834],[-75.38593,5.24837],[-75.38593,5.24837],[-75.38597,5.2484],[-75.38603,5.24842],[-75.38607,5.24845],[-75.38608,5.2485],[-75.38607,5.24851],[-75.38602,5.24856],[-75.38595,5.24863],[-75.38593,5.24872],[-75.38594,5.24878],[-75.38594,5.24882],[-75.38591,5.24884],[-75.38589,5.2488],[-75.38589,5.24874],[-75.38589,5.24867],[-75.38589,5.24865],[-75.38589,5.24863],[-75.38589,5.24858],[-75.38589,5.24856],[-75.38587,5.24852],[-75.38584,5.24848],[-75.38581,5.24844],[-75.38577,5.24854],[-75.38571,5.24872],[-75.38569,5.24878],[-75.38566,5.24884],[-75.38569,5.24894]]],[[[-75.40856,5.24987],[-75.40856,5.24989],[-75.40853,5.25004],[-75.40852,5.25012],[-75.40859,5.25002],[-75.40862,5.24996],[-75.40867,5.24988],[-75.4087,5.24983],[-75.40875,5.2498],[-75.40886,5.24984],[-75.40886,5.24992],[-75.40885,5.25001],[-75.40887,5.25004],[-75.40888,5.25004],[-75.40894,5.25004],[-75.40899,5.25],[-75.40901,5.24994],[-75.40904,5.24982],[-75.40904,5.24973],[-75.40904,5.24969],[-75.40904,5.24963],[-75.40902,5.24959],[-75.40896,5.24957],[-75.40889,5.24956],[-75.40884,5.24961],[-75.40881,5.24964],[-75.40877,5.24965],[-75.40867,5.24961],[-75.40863,5.24959],[-75.40861,5.24958],[-75.40856,5.24987]]],[[[-75.41129,5.25082],[-75.41152,5.251],[-75.41158,5.25106],[-75.41164,5.25112],[-75.4117,5.25112],[-75.41182,5.25112],[-75.41188,5.25112],[-75.41188,5.25106],[-75.41188,5.251],[-75.41188,5.25088],[-75.41188,5.25082],[-75.41188,5.2507],[-75.41188,5.25064],[-75.41188,5.25058],[-75.41188,5.25052],[-75.41188,5.25046],[-75.41188,5.2504],[-75.41182,5.25035],[-75.41182,5.25029],[-75.41194,5.25023],[-75.412,5.25023],[-75.41212,5.25023],[-75.41218,5.25017],[-75.41224,5.25011],[-75.4123,5.25005],[-75.4123,5.24999],[-75.4123,5.24981],[-75.4123,5.24975],[-75.4123,5.24969],[-75.4123,5.24963],[-75.4123,5.24957],[-75.4123,5.24951],[-75.41236,5.24945],[-75.41236,5.24939],[-75.41242,5.24933],[-75.41254,5.24933],[-75.41259,5.24933],[-75.41265,5.24933],[-75.41271,5.24933],[-75.41277,5.24933],[-75.41283,5.24933],[-75.41289,5.24933],[-75.41295,5.24933],[-75.41301,5.24933],[-75.41313,5.24933],[-75.41319,5.24933],[-75.41325,5.24933],[-75.41327,5.24933],[-75.41331,5.24933],[-75.41335,5.24929],[-75.41337,5.24927],[-75.41343,5.24921],[-75.41349,5.24921],[-75.41361,5.24921],[-75.41367,5.24921],[-75.41373,5.24921],[-75.41367,5.24915],[-75.41361,5.24915],[-75.41355,5.24909],[-75.41361,5.24903],[-75.41367,5.24903],[-75.41367,5.24897],[-75.41373,5.24897],[-75.41373,5.24891],[-75.41385,5.24885],[-75.41385,5.24879],[-75.41391,5.24879],[-75.41391,5.24873],[-75.41385,5.24861],[-75.41382,5.2486],[-75.41373,5.24855],[-75.41367,5.24849],[-75.41367,5.24843],[-75.41355,5.24837],[-75.41349,5.24837],[-75.41343,5.24837],[-75.41331,5.24837],[-75.41331,5.24831],[-75.41331,5.24825],[-75.41325,5.24819],[-75.41313,5.24807],[-75.41307,5.24801],[-75.41301,5.24789],[-75.41295,5.24783],[-75.41295,5.24777],[-75.41289,5.24777],[-75.41284,5.24777],[-75.41277,5.24777],[-75.41271,5.24777],[-75.41259,5.24777],[-75.41253,5.24777],[-75.41247,5.24777],[-75.41247,5.24795],[-75.41247,5.24801],[-75.41247,5.24807],[-75.41247,5.24813],[-75.41241,5.24819],[-75.41235,5.24825],[-75.41235,5.24831],[-75.41235,5.24831],[-75.41235,5.24837],[-75.41229,5.24843],[-75.41223,5.24843],[-75.41222,5.24843],[-75.41218,5.24843],[-75.41212,5.24843],[-75.41194,5.24843],[-75.41188,5.24843],[-75.41182,5.24843],[-75.41176,5.24843],[-75.41176,5.24849],[-75.4117,5.24849],[-75.4117,5.24855],[-75.41164,5.24855],[-75.41158,5.24861],[-75.41158,5.24867],[-75.41152,5.24867],[-75.41146,5.24879],[-75.4114,5.24879],[-75.41134,5.24879],[-75.41122,5.24879],[-75.41118,5.24879],[-75.41116,5.24879],[-75.4111,5.24879],[-75.41098,5.24885],[-75.41092,5.24891],[-75.41092,5.24897],[-75.41091,5.249],[-75.41086,5.24909],[-75.41086,5.24915],[-75.4108,5.24921],[-75.41081,5.24927],[-75.41075,5.24933],[-75.41063,5.24939],[-75.41051,5.24939],[-75.41045,5.24951],[-75.41044,5.24951],[-75.41039,5.24951],[-75.41033,5.24951],[-75.41033,5.24951],[-75.41033,5.24957],[-75.41027,5.24963],[-75.41027,5.24969],[-75.41027,5.24987],[-75.41027,5.24993],[-75.41027,5.24999],[-75.41027,5.25005],[-75.41027,5.25006],[-75.41027,5.25011],[-75.41027,5.25023],[-75.41027,5.25029],[-75.41027,5.25041],[-75.41027,5.25047],[-75.41027,5.25053],[-75.41027,5.25059],[-75.41027,5.25065],[-75.41033,5.25083],[-75.41033,5.25089],[-75.41033,5.25101],[-75.41039,5.25101],[-75.41045,5.25101],[-75.41051,5.25101],[-75.41057,5.25101],[-75.41063,5.25101],[-75.41069,5.25101],[-75.41099,5.251],[-75.41105,5.25094],[-75.41111,5.25094],[-75.41117,5.25088],[-75.41123,5.25082],[-75.41129,5.25082]]],[[[-75.41424,5.25079],[-75.41418,5.25093],[-75.41411,5.25106],[-75.41408,5.25116],[-75.41404,5.25124],[-75.414,5.25136],[-75.41395,5.25143],[-75.4139,5.25151],[-75.41385,5.25157],[-75.41386,5.25167],[-75.41387,5.25168],[-75.41391,5.25172],[-75.41395,5.25175],[-75.41396,5.25171],[-75.41396,5.2517],[-75.41422,5.251],[-75.41432,5.25073],[-75.41431,5.25073],[-75.41428,5.25073],[-75.41424,5.25079]]],[[[-75.38544,5.24947],[-75.38539,5.24965],[-75.38532,5.24975],[-75.38532,5.24975],[-75.3847,5.25072],[-75.38464,5.25078],[-75.38453,5.25094],[-75.38437,5.25112],[-75.38422,5.25128],[-75.38417,5.25132],[-75.38387,5.25157],[-75.38385,5.25161],[-75.38383,5.25165],[-75.38385,5.25168],[-75.38412,5.25189],[-75.3842,5.25196],[-75.3842,5.25194],[-75.38421,5.2519],[-75.38422,5.25184],[-75.38422,5.25182],[-75.38421,5.2518],[-75.38414,5.25174],[-75.38414,5.25165],[-75.38421,5.25157],[-75.3843,5.25151],[-75.38437,5.25148],[-75.38467,5.25134],[-75.38478,5.25132],[-75.38498,5.25111],[-75.38494,5.25101],[-75.38493,5.25091],[-75.38499,5.25081],[-75.38505,5.25075],[-75.38516,5.25065],[-75.38521,5.25058],[-75.38526,5.25048],[-75.38533,5.25042],[-75.38536,5.25039],[-75.38542,5.25034],[-75.38547,5.25025],[-75.3855,5.25018],[-75.38548,5.25011],[-75.38543,5.25003],[-75.38543,5.24995],[-75.38543,5.24985],[-75.38544,5.24975],[-75.38545,5.24964],[-75.38547,5.24956],[-75.38551,5.24951],[-75.38551,5.24946],[-75.38547,5.24943],[-75.38545,5.24942],[-75.38544,5.24947]]],[[[-75.39389,5.25276],[-75.39387,5.25286],[-75.39387,5.25296],[-75.3939,5.25296],[-75.39398,5.25297],[-75.39405,5.25295],[-75.39412,5.25288],[-75.3942,5.25277],[-75.39426,5.2527],[-75.39432,5.25268],[-75.39446,5.25267],[-75.39456,5.25267],[-75.39467,5.25261],[-75.39469,5.25251],[-75.39469,5.25243],[-75.39469,5.25236],[-75.39474,5.25228],[-75.39483,5.25222],[-75.39496,5.25219],[-75.39505,5.25214],[-75.39507,5.25212],[-75.39511,5.25207],[-75.39517,5.25194],[-75.39523,5.25183],[-75.39529,5.25175],[-75.39535,5.25169],[-75.39547,5.25164],[-75.39553,5.25159],[-75.3956,5.25152],[-75.39565,5.25141],[-75.39565,5.25126],[-75.39563,5.25116],[-75.39563,5.25106],[-75.39562,5.25098],[-75.39564,5.25081],[-75.39567,5.25071],[-75.39569,5.2506],[-75.39572,5.25054],[-75.39574,5.25047],[-75.39578,5.25041],[-75.39589,5.25033],[-75.39598,5.25029],[-75.39608,5.25024],[-75.39612,5.25024],[-75.39617,5.25024],[-75.39621,5.25024],[-75.39626,5.25024],[-75.39631,5.25024],[-75.39642,5.25028],[-75.39652,5.25032],[-75.39662,5.25035],[-75.39668,5.25037],[-75.39673,5.25041],[-75.3968,5.25048],[-75.39687,5.2506],[-75.39688,5.25068],[-75.39689,5.25076],[-75.39689,5.25083],[-75.39688,5.25093],[-75.39688,5.251],[-75.39691,5.25107],[-75.39696,5.2511],[-75.39711,5.25116],[-75.39712,5.25123],[-75.39712,5.2513],[-75.39712,5.25141],[-75.39711,5.2515],[-75.3971,5.25161],[-75.39717,5.25174],[-75.39727,5.25184],[-75.39739,5.25196],[-75.39743,5.252],[-75.39752,5.25203],[-75.39764,5.25202],[-75.39779,5.252],[-75.39794,5.25194],[-75.39809,5.25189],[-75.39821,5.25184],[-75.39832,5.25178],[-75.39841,5.25171],[-75.39848,5.25163],[-75.39852,5.25152],[-75.39852,5.25136],[-75.39852,5.25128],[-75.39853,5.25118],[-75.39853,5.25109],[-75.39856,5.25102],[-75.39864,5.25097],[-75.39878,5.2509],[-75.39886,5.25084],[-75.39899,5.25076],[-75.39909,5.2507],[-75.39914,5.25062],[-75.39922,5.25052],[-75.39931,5.25045],[-75.39934,5.25044],[-75.39946,5.2503],[-75.39964,5.2502],[-75.3998,5.25016],[-75.39987,5.25009],[-75.39987,5.25003],[-75.39984,5.24997],[-75.39984,5.24987],[-75.3999,5.24978],[-75.39994,5.24971],[-75.39995,5.24961],[-75.39995,5.24952],[-75.39985,5.24941],[-75.39973,5.24936],[-75.39968,5.24933],[-75.39958,5.24928],[-75.39939,5.24916],[-75.39929,5.24909],[-75.39916,5.24902],[-75.39908,5.24897],[-75.399,5.24887],[-75.39896,5.2488],[-75.39894,5.24868],[-75.39894,5.24858],[-75.39897,5.24848],[-75.39902,5.24832],[-75.39905,5.24823],[-75.39905,5.24815],[-75.39902,5.24807],[-75.399,5.24805],[-75.39892,5.24803],[-75.39885,5.24803],[-75.39881,5.2481],[-75.39875,5.24822],[-75.39872,5.24828],[-75.39867,5.24836],[-75.39857,5.2484],[-75.39845,5.24844],[-75.39837,5.24847],[-75.39824,5.24854],[-75.39823,5.24855],[-75.39822,5.24855],[-75.39801,5.24866],[-75.39791,5.24877],[-75.39788,5.24882],[-75.39784,5.24888],[-75.39774,5.24903],[-75.3977,5.24909],[-75.39761,5.2491],[-75.39751,5.24897],[-75.39742,5.24891],[-75.39726,5.24886],[-75.39705,5.24882],[-75.39688,5.2488],[-75.39675,5.24881],[-75.39664,5.24889],[-75.39658,5.24898],[-75.39652,5.24907],[-75.39647,5.24916],[-75.39636,5.24924],[-75.39625,5.2493],[-75.39606,5.24933],[-75.39588,5.24933],[-75.3957,5.24931],[-75.39557,5.24925],[-75.39543,5.24921],[-75.39527,5.2492],[-75.39511,5.24921],[-75.39486,5.24922],[-75.39468,5.24922],[-75.39458,5.24921],[-75.39442,5.24923],[-75.39432,5.24925],[-75.39415,5.24938],[-75.39406,5.24945],[-75.39406,5.2496],[-75.39409,5.2497],[-75.39417,5.24986],[-75.39424,5.24995],[-75.39437,5.25001],[-75.3944,5.25011],[-75.39441,5.2502],[-75.39446,5.25033],[-75.39453,5.25046],[-75.39462,5.25056],[-75.39465,5.25068],[-75.39469,5.25083],[-75.3947,5.25088],[-75.39468,5.25101],[-75.3946,5.25108],[-75.39448,5.25109],[-75.39437,5.25113],[-75.39429,5.25118],[-75.39419,5.25126],[-75.39413,5.25133],[-75.39407,5.25148],[-75.39397,5.25157],[-75.3939,5.25167],[-75.3939,5.25181],[-75.3939,5.25188],[-75.3939,5.25197],[-75.3939,5.25204],[-75.39388,5.25216],[-75.39387,5.25224],[-75.39388,5.25235],[-75.39394,5.25243],[-75.39397,5.25252],[-75.39395,5.25264],[-75.39389,5.25276]]],[[[-75.40194,5.25356],[-75.40199,5.25363],[-75.40211,5.25365],[-75.40217,5.25363],[-75.40224,5.25357],[-75.40227,5.25349],[-75.40227,5.25338],[-75.40224,5.25331],[-75.40223,5.25324],[-75.40226,5.25318],[-75.40229,5.25312],[-75.40232,5.25307],[-75.4024,5.25298],[-75.40244,5.25291],[-75.40249,5.25282],[-75.40254,5.25277],[-75.40257,5.25276],[-75.40263,5.25273],[-75.40277,5.25268],[-75.40281,5.25266],[-75.40284,5.25259],[-75.40285,5.25252],[-75.40284,5.25242],[-75.40284,5.25233],[-75.40284,5.25221],[-75.40284,5.25209],[-75.40286,5.25199],[-75.40287,5.25197],[-75.40292,5.25187],[-75.40293,5.25183],[-75.40293,5.25182],[-75.40297,5.25175],[-75.40298,5.25168],[-75.40298,5.25162],[-75.4029,5.25158],[-75.40281,5.25157],[-75.4027,5.25159],[-75.4026,5.25165],[-75.40254,5.25174],[-75.40249,5.25188],[-75.40247,5.25196],[-75.40246,5.25199],[-75.40245,5.25212],[-75.40244,5.25226],[-75.4024,5.25239],[-75.40241,5.25248],[-75.4024,5.25254],[-75.40237,5.25266],[-75.40231,5.25273],[-75.40222,5.25274],[-75.40213,5.2527],[-75.40204,5.25265],[-75.40194,5.25265],[-75.40186,5.25264],[-75.40177,5.25266],[-75.40166,5.25262],[-75.40156,5.25257],[-75.40152,5.25252],[-75.40148,5.25243],[-75.40144,5.25235],[-75.40143,5.25232],[-75.40143,5.25226],[-75.40143,5.25218],[-75.40145,5.25209],[-75.40145,5.252],[-75.40144,5.25193],[-75.4014,5.25182],[-75.40132,5.25162],[-75.40125,5.25151],[-75.40117,5.25145],[-75.40103,5.25141],[-75.40093,5.25134],[-75.40081,5.25126],[-75.40077,5.25124],[-75.40077,5.25124],[-75.40065,5.25121],[-75.40055,5.25113],[-75.40042,5.25105],[-75.40026,5.251],[-75.40016,5.25098],[-75.39994,5.25099],[-75.39983,5.2511],[-75.39981,5.25116],[-75.39975,5.25125],[-75.39967,5.25135],[-75.39958,5.2514],[-75.3995,5.25142],[-75.39945,5.25145],[-75.3994,5.2515],[-75.39936,5.25155],[-75.39934,5.25158],[-75.39932,5.25163],[-75.39932,5.25169],[-75.39935,5.25171],[-75.39943,5.25173],[-75.39949,5.25175],[-75.39951,5.25176],[-75.39953,5.2518],[-75.39957,5.2518],[-75.39962,5.2518],[-75.39967,5.2518],[-75.39971,5.2518],[-75.39976,5.2518],[-75.3998,5.2518],[-75.39985,5.25175],[-75.3999,5.25175],[-75.39992,5.25175],[-75.39996,5.2517],[-75.4,5.25166],[-75.40006,5.25164],[-75.40012,5.25164],[-75.40017,5.25166],[-75.40026,5.2517],[-75.40032,5.25174],[-75.40039,5.25178],[-75.40046,5.25183],[-75.40049,5.2519],[-75.4005,5.25199],[-75.4005,5.25206],[-75.4005,5.25215],[-75.4005,5.25231],[-75.4005,5.25238],[-75.4005,5.2525],[-75.40049,5.25258],[-75.40045,5.25264],[-75.40037,5.25273],[-75.40027,5.25281],[-75.40018,5.25294],[-75.40009,5.25303],[-75.40007,5.25313],[-75.40007,5.25323],[-75.40009,5.25333],[-75.4001,5.25344],[-75.40014,5.25347],[-75.40026,5.25345],[-75.40034,5.25337],[-75.40041,5.25332],[-75.40052,5.25332],[-75.40063,5.25336],[-75.40076,5.25342],[-75.40091,5.2535],[-75.40104,5.25348],[-75.40108,5.25347],[-75.40117,5.25345],[-75.40124,5.25345],[-75.40132,5.25344],[-75.40135,5.25347],[-75.40142,5.25355],[-75.40152,5.25359],[-75.40164,5.25361],[-75.40172,5.25355],[-75.40179,5.25351],[-75.40188,5.25351],[-75.40194,5.25356]]],[[[-75.414,5.2536],[-75.414,5.25365],[-75.41402,5.2537],[-75.41402,5.25374],[-75.41397,5.25382],[-75.41396,5.25393],[-75.41395,5.254],[-75.41402,5.25405],[-75.41409,5.25409],[-75.41411,5.25411],[-75.41402,5.25366],[-75.41402,5.25364],[-75.414,5.25355],[-75.414,5.2536]]],[[[-75.39287,5.25661],[-75.3928,5.25665],[-75.39277,5.25676],[-75.39276,5.25687],[-75.39273,5.25698],[-75.39269,5.25708],[-75.3926,5.2572],[-75.39257,5.25731],[-75.39262,5.25743],[-75.39263,5.2575],[-75.39264,5.25753],[-75.39268,5.25745],[-75.39272,5.25737],[-75.39282,5.25727],[-75.3931,5.257],[-75.39319,5.25692],[-75.39319,5.25687],[-75.39319,5.25686],[-75.39319,5.25685],[-75.39318,5.25674],[-75.39317,5.25669],[-75.3931,5.25667],[-75.3931,5.2566],[-75.39304,5.2566],[-75.39298,5.25659],[-75.39287,5.25661]]],[[[-75.4067,5.25637],[-75.40664,5.2564],[-75.40658,5.25644],[-75.40654,5.25646],[-75.40646,5.25649],[-75.40644,5.25654],[-75.40641,5.25663],[-75.40636,5.25669],[-75.40635,5.25676],[-75.40635,5.25681],[-75.40635,5.25686],[-75.40641,5.2569],[-75.40645,5.2569],[-75.4065,5.2569],[-75.40654,5.25692],[-75.40658,5.25695],[-75.40652,5.25707],[-75.40651,5.25719],[-75.40651,5.25733],[-75.40651,5.25742],[-75.40651,5.25749],[-75.40651,5.25754],[-75.40651,5.2576],[-75.40659,5.25764],[-75.40669,5.25762],[-75.40679,5.25755],[-75.40688,5.25749],[-75.40697,5.25743],[-75.40706,5.2574],[-75.40714,5.25738],[-75.40727,5.25736],[-75.40744,5.25729],[-75.4075,5.25719],[-75.40761,5.25711],[-75.40773,5.25704],[-75.40786,5.25701],[-75.40801,5.25698],[-75.40817,5.25696],[-75.40836,5.25695],[-75.40847,5.25692],[-75.40849,5.25689],[-75.40851,5.25681],[-75.40849,5.25669],[-75.40849,5.25657],[-75.40849,5.25646],[-75.40852,5.25637],[-75.40857,5.25628],[-75.4086,5.25621],[-75.40858,5.25615],[-75.40855,5.25611],[-75.40846,5.25614],[-75.4084,5.25613],[-75.40831,5.25612],[-75.40824,5.25614],[-75.40815,5.2562],[-75.40806,5.25624],[-75.40799,5.25627],[-75.40785,5.2563],[-75.40773,5.2563],[-75.40763,5.25624],[-75.40759,5.25618],[-75.40756,5.25613],[-75.40752,5.25606],[-75.40751,5.25603],[-75.40746,5.25601],[-75.40742,5.25601],[-75.40738,5.25604],[-75.40736,5.25611],[-75.40732,5.25617],[-75.40723,5.25622],[-75.40714,5.25621],[-75.40705,5.25626],[-75.40699,5.25629],[-75.40694,5.25634],[-75.40684,5.25636],[-75.40675,5.25636],[-75.4067,5.25637]]],[[[-75.40885,5.25824],[-75.40896,5.25828],[-75.40946,5.25846],[-75.40973,5.25846],[-75.40971,5.25842],[-75.40971,5.25841],[-75.40971,5.25837],[-75.40971,5.25833],[-75.40971,5.25825],[-75.40971,5.25823],[-75.40975,5.25819],[-75.40975,5.2581],[-75.40971,5.25805],[-75.40966,5.258],[-75.40966,5.25796],[-75.40962,5.25796],[-75.40957,5.25796],[-75.40952,5.25796],[-75.40948,5.25796],[-75.40943,5.25796],[-75.40941,5.25796],[-75.40939,5.25796],[-75.40934,5.25796],[-75.40929,5.25796],[-75.40925,5.258],[-75.4092,5.25805],[-75.40916,5.2581],[-75.40911,5.25814],[-75.40906,5.25814],[-75.40902,5.25814],[-75.40897,5.25814],[-75.40893,5.25814],[-75.40888,5.25814],[-75.40883,5.25814],[-75.40879,5.25814],[-75.40874,5.25814],[-75.4087,5.25814],[-75.40865,5.25814],[-75.40864,5.25815],[-75.4086,5.25819],[-75.40856,5.25819],[-75.40851,5.25819],[-75.40847,5.25819],[-75.40842,5.25819],[-75.40839,5.25822],[-75.40876,5.2582],[-75.40885,5.25824]]],[[[-75.40667,5.25876],[-75.40703,5.25872],[-75.40722,5.2587],[-75.40723,5.25869],[-75.40774,5.25847],[-75.40773,5.25847],[-75.40768,5.25847],[-75.40762,5.25847],[-75.40759,5.25847],[-75.40755,5.25847],[-75.4075,5.25847],[-75.40745,5.25847],[-75.40741,5.25847],[-75.40736,5.25847],[-75.40736,5.25842],[-75.40732,5.25842],[-75.40722,5.25838],[-75.40713,5.25838],[-75.40709,5.25838],[-75.40704,5.25838],[-75.40699,5.25838],[-75.40695,5.25838],[-75.4069,5.25838],[-75.40686,5.25838],[-75.40681,5.25842],[-75.40676,5.25847],[-75.40672,5.25852],[-75.40672,5.25856],[-75.40672,5.25861],[-75.40672,5.25865],[-75.40672,5.2587],[-75.40672,5.2587],[-75.40672,5.25875],[-75.40667,5.25875],[-75.40667,5.25876]]],[[[-75.4058,5.25838],[-75.4058,5.2584],[-75.4058,5.25843],[-75.40575,5.25847],[-75.40575,5.25852],[-75.40575,5.25856],[-75.40575,5.25861],[-75.40573,5.25863],[-75.40571,5.25866],[-75.40571,5.25868],[-75.40626,5.25879],[-75.40626,5.25875],[-75.40621,5.25875],[-75.40621,5.25872],[-75.40621,5.2587],[-75.40621,5.25866],[-75.40621,5.25861],[-75.40621,5.25856],[-75.40621,5.25852],[-75.40621,5.25847],[-75.40617,5.25847],[-75.40614,5.25844],[-75.40612,5.25843],[-75.40607,5.25843],[-75.40607,5.25838],[-75.40603,5.25833],[-75.40598,5.25833],[-75.40594,5.25833],[-75.40589,5.25833],[-75.40584,5.25833],[-75.4058,5.25838]]],[[[-75.39211,5.25926],[-75.39219,5.25925],[-75.39226,5.25925],[-75.39231,5.25924],[-75.39234,5.25924],[-75.39244,5.25924],[-75.39253,5.25925],[-75.39261,5.25924],[-75.39266,5.25924],[-75.3927,5.25921],[-75.39271,5.25914],[-75.39268,5.2591],[-75.39262,5.25904],[-75.3926,5.25903],[-75.39251,5.25893],[-75.39248,5.25889],[-75.39249,5.2588],[-75.3925,5.25877],[-75.39251,5.25875],[-75.39248,5.25868],[-75.39244,5.25861],[-75.39243,5.25837],[-75.3924,5.25835],[-75.39239,5.25835],[-75.39237,5.25836],[-75.39236,5.25841],[-75.39237,5.25846],[-75.39237,5.25851],[-75.39237,5.25859],[-75.39233,5.25868],[-75.39229,5.25874],[-75.39228,5.25877],[-75.39224,5.25891],[-75.39223,5.25894],[-75.39221,5.25898],[-75.3922,5.25899],[-75.39215,5.25907],[-75.39211,5.2591],[-75.3921,5.25911],[-75.39207,5.25914],[-75.39205,5.25919],[-75.39205,5.25922],[-75.39205,5.25924],[-75.39211,5.25926]]],[[[-75.41215,5.26],[-75.41215,5.25998],[-75.4121,5.25993],[-75.41206,5.25989],[-75.41201,5.25989],[-75.41199,5.25989],[-75.41215,5.26]]],[[[-75.39315,5.25971],[-75.39318,5.25982],[-75.39324,5.25993],[-75.39324,5.25996],[-75.39325,5.25998],[-75.39329,5.26005],[-75.39331,5.26011],[-75.39334,5.26014],[-75.39339,5.26018],[-75.3934,5.26018],[-75.39345,5.2602],[-75.39345,5.26023],[-75.39345,5.26023],[-75.39347,5.26024],[-75.39349,5.26023],[-75.39349,5.26022],[-75.39349,5.26014],[-75.3935,5.26009],[-75.3935,5.26007],[-75.39351,5.26],[-75.39352,5.25996],[-75.39321,5.25974],[-75.39313,5.25965],[-75.39315,5.25971]]],[[[-75.39178,5.26225],[-75.39198,5.26199],[-75.39195,5.26198],[-75.39194,5.26198],[-75.3918,5.26195],[-75.39167,5.26191],[-75.39163,5.2619],[-75.39163,5.2619],[-75.39178,5.26225]]]]},"properties":{"FID":3,"OBJECTID":4,"Nombre":"RFP El Diamante Zona de Restauracion","RuleID_1":43,"AREA_ha":58.2729841724,"Shape_Leng":17530.6641581,"Shape_Area":582729.838309}}]}