{"type":"FeatureCollection","name":"Fajas_Proteccion_Cauces_CPU_ElEden","crs":{"type":"name","properties":{"name":"urn:ogc:def:crs:OGC:1.3:CRS84"}},"features":[{"type":"Feature","id":0,"geometry":{"type":"MultiPolygon","coordinates":[[[[-75.48772,5.29033],[-75.48777,5.29028],[-75.48788,5.29018],[-75.48797,5.29011],[-75.48802,5.29008],[-75.48804,5.29007],[-75.48809,5.29009],[-75.48812,5.2901],[-75.48823,5.29013],[-75.48825,5.29014],[-75.48825,5.29014],[-75.48827,5.29014],[-75.48832,5.29013],[-75.48834,5.29013],[-75.48836,5.29013],[-75.48838,5.29012],[-75.4884,5.2901],[-75.48842,5.29008],[-75.48843,5.29007],[-75.48849,5.28998],[-75.48849,5.28998],[-75.48849,5.28997],[-75.48854,5.28988],[-75.48858,5.28993],[-75.48859,5.29],[-75.48861,5.28998],[-75.48868,5.28998],[-75.48868,5.28998],[-75.48875,5.28997],[-75.48879,5.28997],[-75.48885,5.28996],[-75.48887,5.28996],[-75.48883,5.28984],[-75.48883,5.28982],[-75.48882,5.28981],[-75.48881,5.28979],[-75.4888,5.28978],[-75.48878,5.28975],[-75.48874,5.28969],[-75.48873,5.28968],[-75.48872,5.28967],[-75.48868,5.28962],[-75.48865,5.28957],[-75.48865,5.28957],[-75.48862,5.28944],[-75.48849,5.28945],[-75.48849,5.28945],[-75.48845,5.28945],[-75.48842,5.28946],[-75.48838,5.28948],[-75.48835,5.2895],[-75.4882,5.28961],[-75.48818,5.28963],[-75.48817,5.28964],[-75.48799,5.28983],[-75.48798,5.28985],[-75.48796,5.28986],[-75.48796,5.28987],[-75.48794,5.28988],[-75.48793,5.2899],[-75.48793,5.2899],[-75.48792,5.28993],[-75.48791,5.28993],[-75.48772,5.29033]]],[[[-75.48828,5.29034],[-75.48827,5.29034],[-75.48828,5.29035],[-75.48828,5.2904],[-75.48829,5.29039],[-75.4883,5.29036],[-75.48831,5.29035],[-75.48832,5.29033],[-75.48828,5.29034]]],[[[-75.48352,5.29368],[-75.4835,5.29373],[-75.4835,5.29373],[-75.48354,5.29378],[-75.48355,5.29381],[-75.48357,5.29384],[-75.48359,5.29387],[-75.48355,5.29391],[-75.48354,5.29392],[-75.48353,5.29393],[-75.48354,5.29394],[-75.48358,5.294],[-75.48361,5.29404],[-75.48366,5.29409],[-75.48368,5.29405],[-75.48371,5.29402],[-75.48371,5.29402],[-75.48373,5.29398],[-75.48374,5.29393],[-75.48374,5.29389],[-75.48374,5.29384],[-75.48373,5.2938],[-75.48371,5.29376],[-75.48368,5.29372],[-75.48365,5.29369],[-75.48362,5.29366],[-75.48358,5.29364],[-75.48355,5.29363],[-75.48355,5.29363],[-75.48352,5.29368]]]]},"properties":{"FID":0,"OBJECTID":2,"area":0.59830314438,"uso_actual":"Faja de Protección de Cauces CPU El Edén","RuleID":6,"uso_potec":"Faja de Protección de Cauces CPU El Edén","Shape_Leng":524.655130695,"Shape_Area":5983.03145142}}]}