{"type":"FeatureCollection","name":"_4_Bosque_Natural_CPU_ElEden","crs":{"type":"name","properties":{"name":"urn:ogc:def:crs:OGC:1.3:CRS84"}},"features":[{"type":"Feature","id":0,"geometry":{"type":"MultiPolygon","coordinates":[[[[-75.4885,5.28925],[-75.48848,5.28931],[-75.48848,5.28939],[-75.48848,5.28939],[-75.48849,5.28945],[-75.48849,5.28946],[-75.48849,5.28946],[-75.48849,5.28947],[-75.48849,5.28948],[-75.48849,5.28949],[-75.48849,5.2895],[-75.48849,5.28951],[-75.4885,5.28952],[-75.4885,5.28954],[-75.4885,5.28955],[-75.48851,5.28956],[-75.48851,5.28958],[-75.48852,5.28959],[-75.48852,5.2896],[-75.48852,5.2896],[-75.48853,5.28961],[-75.48853,5.28962],[-75.48854,5.28963],[-75.48854,5.28964],[-75.48855,5.28965],[-75.48856,5.28966],[-75.48857,5.28967],[-75.48857,5.28968],[-75.48858,5.28969],[-75.48859,5.2897],[-75.4886,5.28971],[-75.48861,5.28972],[-75.48861,5.28973],[-75.48862,5.28973],[-75.48863,5.28974],[-75.48863,5.28975],[-75.48864,5.28976],[-75.48864,5.28977],[-75.48865,5.28978],[-75.48865,5.28979],[-75.48866,5.2898],[-75.48866,5.28981],[-75.48867,5.28981],[-75.48868,5.28982],[-75.4887,5.28982],[-75.48871,5.28982],[-75.48872,5.28982],[-75.48873,5.28981],[-75.48874,5.28981],[-75.48875,5.2898],[-75.48875,5.2898],[-75.48876,5.2898],[-75.48877,5.28979],[-75.48878,5.28979],[-75.48878,5.28979],[-75.4888,5.28978],[-75.48878,5.28975],[-75.48874,5.28969],[-75.48873,5.28968],[-75.48872,5.28967],[-75.48868,5.28962],[-75.48865,5.28957],[-75.48865,5.28957],[-75.48862,5.28944],[-75.48861,5.28941],[-75.4886,5.28936],[-75.4886,5.28931],[-75.4886,5.2893],[-75.4886,5.28922],[-75.48857,5.28921],[-75.48851,5.2892],[-75.4885,5.28925]]],[[[-75.48808,5.29004],[-75.48809,5.29004],[-75.4881,5.29004],[-75.48811,5.29005],[-75.48812,5.29005],[-75.48814,5.29005],[-75.48815,5.29005],[-75.48816,5.29005],[-75.48817,5.29005],[-75.48818,5.29005],[-75.48819,5.29005],[-75.4882,5.29005],[-75.48821,5.29005],[-75.48823,5.29004],[-75.48823,5.29004],[-75.48824,5.29003],[-75.48824,5.29002],[-75.48824,5.29001],[-75.48824,5.29001],[-75.48823,5.29001],[-75.48822,5.29],[-75.48821,5.29],[-75.48821,5.28999],[-75.4882,5.28999],[-75.48819,5.28998],[-75.48818,5.28997],[-75.48817,5.28997],[-75.48817,5.28996],[-75.48816,5.28995],[-75.48816,5.28995],[-75.48815,5.28994],[-75.48814,5.28993],[-75.48813,5.28993],[-75.48813,5.28992],[-75.48813,5.28992],[-75.48813,5.28991],[-75.48812,5.2899],[-75.48812,5.28989],[-75.48812,5.28988],[-75.48811,5.28987],[-75.4881,5.28986],[-75.4881,5.28986],[-75.48809,5.28985],[-75.48808,5.28985],[-75.48807,5.28985],[-75.48806,5.28986],[-75.48805,5.28985],[-75.48805,5.28984],[-75.48805,5.28984],[-75.48804,5.28983],[-75.48804,5.28982],[-75.48803,5.28982],[-75.48802,5.28983],[-75.48802,5.28983],[-75.48801,5.28984],[-75.488,5.28984],[-75.48799,5.28983],[-75.48799,5.28983],[-75.48798,5.28983],[-75.48797,5.28983],[-75.48797,5.28984],[-75.48797,5.28985],[-75.48798,5.28985],[-75.48796,5.28986],[-75.48796,5.28986],[-75.48795,5.28986],[-75.48794,5.28987],[-75.48794,5.28988],[-75.48794,5.28988],[-75.48793,5.28989],[-75.48792,5.2899],[-75.48792,5.28991],[-75.48791,5.28991],[-75.48791,5.28992],[-75.48792,5.28993],[-75.48792,5.28993],[-75.48792,5.28994],[-75.48792,5.28995],[-75.48792,5.28995],[-75.48793,5.28996],[-75.48793,5.28997],[-75.48793,5.28998],[-75.48793,5.28998],[-75.48793,5.28999],[-75.48793,5.29],[-75.48794,5.29001],[-75.48794,5.29002],[-75.48796,5.29002],[-75.48796,5.29002],[-75.48797,5.29002],[-75.48799,5.29002],[-75.488,5.29001],[-75.48801,5.29001],[-75.48801,5.29002],[-75.48802,5.29003],[-75.48803,5.29003],[-75.48804,5.29003],[-75.48806,5.29004],[-75.48807,5.29004],[-75.48808,5.29004]]],[[[-75.48858,5.29023],[-75.48858,5.29024],[-75.48858,5.29024],[-75.48859,5.29024],[-75.4886,5.29024],[-75.48861,5.29023],[-75.48861,5.29023],[-75.48862,5.29022],[-75.48862,5.29021],[-75.48861,5.2902],[-75.48861,5.29019],[-75.48861,5.29018],[-75.48862,5.29017],[-75.48862,5.29016],[-75.48863,5.29016],[-75.48864,5.29017],[-75.48865,5.29018],[-75.48866,5.29018],[-75.48866,5.29018],[-75.48867,5.29018],[-75.48868,5.29017],[-75.48868,5.29016],[-75.48869,5.29009],[-75.4887,5.29006],[-75.48869,5.29005],[-75.48869,5.29005],[-75.48869,5.29001],[-75.48868,5.28998],[-75.48865,5.28994],[-75.48865,5.28994],[-75.48864,5.28993],[-75.48863,5.28992],[-75.48862,5.28992],[-75.48861,5.28992],[-75.4886,5.28991],[-75.48859,5.2899],[-75.48858,5.28989],[-75.48858,5.28989],[-75.48857,5.28988],[-75.48857,5.28987],[-75.48856,5.28987],[-75.48855,5.28986],[-75.48854,5.28986],[-75.48853,5.28986],[-75.48852,5.28986],[-75.4885,5.28986],[-75.4885,5.28987],[-75.48849,5.28987],[-75.48847,5.28988],[-75.48846,5.28988],[-75.48845,5.28989],[-75.48844,5.28989],[-75.48843,5.2899],[-75.48842,5.2899],[-75.48841,5.28991],[-75.4884,5.28991],[-75.48839,5.28992],[-75.48838,5.28993],[-75.48837,5.28995],[-75.48837,5.28996],[-75.48837,5.28997],[-75.48836,5.28998],[-75.48836,5.28999],[-75.48836,5.29],[-75.48836,5.29001],[-75.48835,5.29002],[-75.48835,5.29004],[-75.48834,5.29004],[-75.48833,5.29005],[-75.48832,5.29005],[-75.48832,5.29006],[-75.48831,5.29007],[-75.4883,5.29007],[-75.48829,5.29007],[-75.48828,5.29008],[-75.48827,5.29008],[-75.48825,5.29008],[-75.48824,5.29008],[-75.48823,5.29008],[-75.48822,5.29008],[-75.48821,5.29008],[-75.4882,5.29008],[-75.48819,5.29008],[-75.48818,5.29008],[-75.48817,5.29008],[-75.48816,5.29008],[-75.48815,5.29007],[-75.48813,5.29007],[-75.48812,5.29007],[-75.48811,5.29007],[-75.4881,5.29007],[-75.48809,5.29006],[-75.48808,5.29006],[-75.48807,5.29006],[-75.48806,5.29006],[-75.48805,5.29006],[-75.48804,5.29006],[-75.48803,5.29005],[-75.48802,5.29005],[-75.48801,5.29005],[-75.488,5.29005],[-75.48799,5.29005],[-75.48798,5.29005],[-75.48797,5.29005],[-75.48796,5.29005],[-75.48795,5.29005],[-75.48793,5.29005],[-75.48792,5.29006],[-75.48791,5.29006],[-75.4879,5.29007],[-75.4879,5.29007],[-75.4879,5.29008],[-75.48789,5.29009],[-75.48789,5.2901],[-75.48788,5.29012],[-75.48788,5.29012],[-75.48788,5.29013],[-75.48787,5.29014],[-75.48787,5.29015],[-75.48787,5.29016],[-75.48788,5.29018],[-75.48797,5.29011],[-75.48802,5.29008],[-75.48804,5.29007],[-75.48809,5.29009],[-75.48812,5.2901],[-75.48823,5.29013],[-75.48825,5.29014],[-75.48825,5.29014],[-75.48827,5.29014],[-75.48832,5.29013],[-75.48834,5.29013],[-75.48836,5.29013],[-75.48838,5.29012],[-75.4884,5.2901],[-75.48842,5.29008],[-75.48843,5.29007],[-75.48849,5.28998],[-75.48849,5.28998],[-75.48849,5.28997],[-75.48854,5.28988],[-75.48858,5.28993],[-75.48859,5.29],[-75.4886,5.29001],[-75.48861,5.29004],[-75.48861,5.29012],[-75.48858,5.29023]]],[[[-75.48828,5.2904],[-75.48828,5.29041],[-75.48828,5.29041],[-75.48829,5.29041],[-75.4883,5.29041],[-75.48831,5.29041],[-75.48832,5.2904],[-75.48832,5.2904],[-75.48833,5.29039],[-75.48834,5.2904],[-75.48835,5.2904],[-75.48836,5.2904],[-75.48836,5.2904],[-75.48837,5.29039],[-75.48838,5.29039],[-75.48838,5.29038],[-75.48838,5.29037],[-75.48839,5.29037],[-75.4884,5.29036],[-75.4884,5.29035],[-75.48841,5.29035],[-75.48842,5.29035],[-75.48843,5.29035],[-75.48844,5.29034],[-75.48845,5.29035],[-75.48845,5.29035],[-75.48846,5.29035],[-75.48847,5.29036],[-75.48848,5.29036],[-75.48849,5.29036],[-75.4885,5.29035],[-75.48851,5.29035],[-75.48852,5.29035],[-75.48853,5.29035],[-75.48854,5.29035],[-75.48855,5.29035],[-75.48856,5.29034],[-75.48856,5.29033],[-75.48857,5.29032],[-75.48857,5.29031],[-75.48857,5.2903],[-75.48856,5.2903],[-75.48856,5.29029],[-75.48855,5.29028],[-75.48856,5.29027],[-75.48856,5.29026],[-75.48857,5.29026],[-75.48849,5.29028],[-75.48835,5.29032],[-75.48832,5.29033],[-75.48828,5.29034],[-75.48827,5.29034],[-75.48828,5.29035],[-75.48828,5.2904]]],[[[-75.4835,5.29373],[-75.48354,5.29378],[-75.48353,5.29378],[-75.48353,5.29377],[-75.48353,5.29376],[-75.48352,5.29375],[-75.48352,5.29374],[-75.48351,5.29374],[-75.48351,5.29373],[-75.4835,5.29373],[-75.4835,5.29373]]],[[[-75.48353,5.29393],[-75.48354,5.29394],[-75.48354,5.29394],[-75.48354,5.29393],[-75.48354,5.29392],[-75.48353,5.29393]]]]},"properties":{"FID":0,"OBJECTID":1,"area":0.268569553289,"uso_actual":"Bosque Natural CPU El Edén","RuleID":5,"uso_potec":"Bosque Natural CPU El Edén","Shape_Leng":676.56746772,"Shape_Area":2685.69583349}}]}