{"type":"FeatureCollection","name":"Faja_Proteccion_Cauces_CPU_Alto_Ocampos","crs":{"type":"name","properties":{"name":"urn:ogc:def:crs:OGC:1.3:CRS84"}},"features":[{"type":"Feature","id":0,"geometry":{"type":"MultiPolygon","coordinates":[[[[-75.48407,5.28369],[-75.48403,5.2837],[-75.48401,5.28371],[-75.48403,5.28378],[-75.48399,5.28382],[-75.48384,5.2839],[-75.48383,5.28392],[-75.48383,5.28396],[-75.48383,5.28401],[-75.48386,5.28416],[-75.48386,5.28428],[-75.48387,5.28431],[-75.48387,5.28432],[-75.48389,5.28444],[-75.48391,5.28443],[-75.48398,5.28438],[-75.48423,5.28423],[-75.4844,5.28413],[-75.4844,5.28412],[-75.4844,5.28412],[-75.48439,5.28409],[-75.48437,5.28397],[-75.48436,5.28392],[-75.48435,5.28387],[-75.48434,5.28383],[-75.48431,5.28379],[-75.48428,5.28376],[-75.48425,5.28373],[-75.48421,5.28371],[-75.48417,5.2837],[-75.48416,5.2837],[-75.48413,5.28369],[-75.48412,5.28369],[-75.48407,5.28369]]],[[[-75.48187,5.28034],[-75.48188,5.28039],[-75.48188,5.28039],[-75.4819,5.28043],[-75.48194,5.2805],[-75.48196,5.28054],[-75.48197,5.28055],[-75.48203,5.28061],[-75.48205,5.28063],[-75.48208,5.28066],[-75.48212,5.28068],[-75.48217,5.28069],[-75.48221,5.2807],[-75.48225,5.2807],[-75.4823,5.28069],[-75.48234,5.28068],[-75.48238,5.28066],[-75.48241,5.28063],[-75.48243,5.28061],[-75.48239,5.28059],[-75.4823,5.28054],[-75.48219,5.28045],[-75.48205,5.28039],[-75.48189,5.28033],[-75.48186,5.28032],[-75.48187,5.28034]]],[[[-75.48099,5.28001],[-75.48101,5.28002],[-75.48104,5.28005],[-75.48108,5.28007],[-75.48113,5.28009],[-75.48117,5.28009],[-75.48121,5.28009],[-75.48126,5.28009],[-75.4813,5.28007],[-75.4812,5.28003],[-75.48107,5.27998],[-75.48099,5.28001]]]]},"properties":{"FID":0,"OBJECTID":2,"Area":0.484628998712,"uso_actual":"Fajas de Protección de Cauces CPU Alto Ocampos","uso_potenc":"Fajas de Protección de Cauces CPU Alto Ocampos","RuleID":2,"Shape_Leng":469.847243265,"Shape_Area":4846.28998712}}]}