{"type":"FeatureCollection","name":"_3_Bosque_Natural_CPU_Alto_Ocampos","crs":{"type":"name","properties":{"name":"urn:ogc:def:crs:OGC:1.3:CRS84"}},"features":[{"type":"Feature","id":0,"geometry":{"type":"MultiPolygon","coordinates":[[[[-75.48706,5.28579],[-75.48707,5.28579],[-75.48708,5.28579],[-75.48708,5.28579],[-75.48709,5.28579],[-75.48709,5.28578],[-75.48709,5.28578],[-75.48709,5.28577],[-75.48709,5.28576],[-75.48708,5.28575],[-75.48708,5.28574],[-75.48708,5.28574],[-75.48707,5.28573],[-75.48707,5.28572],[-75.48708,5.2857],[-75.48708,5.28569],[-75.48708,5.28568],[-75.48708,5.28567],[-75.48708,5.28566],[-75.48707,5.28565],[-75.48707,5.28565],[-75.48706,5.28564],[-75.48704,5.28564],[-75.48704,5.28564],[-75.48704,5.28564],[-75.48706,5.28579]]],[[[-75.48511,5.28502],[-75.48513,5.28502],[-75.48513,5.28502],[-75.48512,5.28501],[-75.48512,5.285],[-75.48512,5.28499],[-75.48511,5.28499],[-75.4851,5.28498],[-75.48511,5.28502]]],[[[-75.4851,5.28498],[-75.4851,5.28497],[-75.48512,5.28496],[-75.48512,5.28495],[-75.48513,5.28494],[-75.48513,5.28493],[-75.48512,5.28491],[-75.48511,5.28491],[-75.4851,5.28491],[-75.48509,5.28491],[-75.48508,5.2849],[-75.4851,5.28498]]],[[[-75.48344,5.28457],[-75.48344,5.28458],[-75.48344,5.28459],[-75.48344,5.2846],[-75.48344,5.28461],[-75.48344,5.28462],[-75.48344,5.28463],[-75.48344,5.28463],[-75.48344,5.28464],[-75.48344,5.28465],[-75.48344,5.28466],[-75.48345,5.28466],[-75.48345,5.28467],[-75.48345,5.28468],[-75.48345,5.28469],[-75.48345,5.2847],[-75.48345,5.28471],[-75.48346,5.28472],[-75.48347,5.28472],[-75.48349,5.28471],[-75.4835,5.28471],[-75.4835,5.28471],[-75.48357,5.28464],[-75.4837,5.28455],[-75.48386,5.28446],[-75.48386,5.28446],[-75.48385,5.28444],[-75.48385,5.28444],[-75.48384,5.28444],[-75.48383,5.28443],[-75.48382,5.28442],[-75.48382,5.28441],[-75.48382,5.2844],[-75.48381,5.2844],[-75.4838,5.2844],[-75.48379,5.2844],[-75.48379,5.2844],[-75.48378,5.28439],[-75.48378,5.28437],[-75.48378,5.28437],[-75.48377,5.28436],[-75.48376,5.28435],[-75.48374,5.28434],[-75.48373,5.28435],[-75.48372,5.28436],[-75.48373,5.28437],[-75.48373,5.28438],[-75.48373,5.28439],[-75.48372,5.2844],[-75.48369,5.28451],[-75.48362,5.28449],[-75.4836,5.28449],[-75.48359,5.28449],[-75.48357,5.28449],[-75.48357,5.28449],[-75.48356,5.28451],[-75.48355,5.28451],[-75.48354,5.28452],[-75.48353,5.28451],[-75.48352,5.28449],[-75.4835,5.28449],[-75.48349,5.28449],[-75.4835,5.2845],[-75.4835,5.28451],[-75.48349,5.28452],[-75.48348,5.28454],[-75.48348,5.28455],[-75.48348,5.28456],[-75.48347,5.28457],[-75.48345,5.28457],[-75.48344,5.28457]]],[[[-75.48391,5.28437],[-75.48391,5.28438],[-75.48392,5.28438],[-75.48393,5.28439],[-75.48394,5.2844],[-75.48395,5.28441],[-75.48395,5.2844],[-75.48398,5.28438],[-75.48423,5.28423],[-75.48425,5.28423],[-75.48424,5.28421],[-75.48424,5.2842],[-75.48422,5.28419],[-75.48424,5.28418],[-75.48424,5.28417],[-75.48425,5.28416],[-75.48425,5.28416],[-75.48426,5.28415],[-75.48426,5.28414],[-75.48425,5.28413],[-75.48425,5.28412],[-75.48424,5.28412],[-75.48423,5.28411],[-75.48422,5.28411],[-75.48421,5.28412],[-75.4842,5.28412],[-75.48419,5.28412],[-75.48419,5.28413],[-75.48418,5.28413],[-75.48417,5.28413],[-75.48416,5.28413],[-75.48416,5.28412],[-75.48417,5.28412],[-75.48418,5.28412],[-75.48418,5.28411],[-75.48418,5.2841],[-75.48418,5.28409],[-75.48417,5.28408],[-75.48416,5.28408],[-75.48415,5.28408],[-75.48415,5.28409],[-75.48414,5.28408],[-75.48414,5.28407],[-75.48413,5.28407],[-75.48412,5.28407],[-75.48411,5.28408],[-75.4841,5.28408],[-75.4841,5.28409],[-75.48409,5.2841],[-75.48409,5.28411],[-75.48408,5.28411],[-75.48408,5.28412],[-75.48407,5.28413],[-75.48407,5.28414],[-75.48406,5.28415],[-75.48406,5.28415],[-75.48405,5.28415],[-75.48404,5.28415],[-75.48403,5.28416],[-75.48403,5.28416],[-75.48402,5.28415],[-75.48402,5.28414],[-75.48401,5.28414],[-75.484,5.28415],[-75.48399,5.28415],[-75.48399,5.28416],[-75.484,5.28417],[-75.48399,5.28417],[-75.48398,5.28418],[-75.48399,5.28419],[-75.48399,5.2842],[-75.48399,5.28421],[-75.48398,5.28421],[-75.48398,5.28422],[-75.48397,5.28423],[-75.48396,5.28423],[-75.48396,5.28424],[-75.48396,5.28425],[-75.48395,5.28426],[-75.48395,5.28427],[-75.48395,5.28427],[-75.48396,5.28428],[-75.48396,5.28429],[-75.48397,5.2843],[-75.48396,5.2843],[-75.48395,5.28431],[-75.48394,5.28431],[-75.48393,5.28431],[-75.48393,5.28431],[-75.48392,5.28431],[-75.48391,5.28432],[-75.4839,5.28433],[-75.4839,5.28433],[-75.48389,5.28435],[-75.48388,5.28435],[-75.48388,5.28436],[-75.48388,5.28437],[-75.48389,5.28437],[-75.4839,5.28437],[-75.48391,5.28437]]],[[[-75.48572,5.28408],[-75.48571,5.28409],[-75.4857,5.28409],[-75.48569,5.2841],[-75.48569,5.2841],[-75.48568,5.28412],[-75.48568,5.28413],[-75.48567,5.28414],[-75.48567,5.28415],[-75.48567,5.28416],[-75.48565,5.28417],[-75.48563,5.28418],[-75.48562,5.28418],[-75.48561,5.28419],[-75.48561,5.28421],[-75.4856,5.28422],[-75.4856,5.28423],[-75.48561,5.28424],[-75.48562,5.28424],[-75.48563,5.28423],[-75.48563,5.28423],[-75.48574,5.28407],[-75.48573,5.28407],[-75.48572,5.28408]]],[[[-75.48359,5.28303],[-75.48359,5.28303],[-75.4836,5.28304],[-75.48361,5.28304],[-75.48361,5.28304],[-75.48362,5.28304],[-75.48362,5.28304],[-75.48363,5.28304],[-75.48363,5.28303],[-75.48364,5.28303],[-75.48364,5.28303],[-75.48365,5.28303],[-75.48366,5.28303],[-75.48366,5.28303],[-75.48367,5.28303],[-75.48368,5.28303],[-75.48368,5.28303],[-75.48369,5.28303],[-75.48369,5.28303],[-75.4837,5.28302],[-75.4837,5.28301],[-75.4837,5.28301],[-75.48371,5.28301],[-75.48371,5.28301],[-75.48372,5.28301],[-75.48372,5.28302],[-75.48372,5.28302],[-75.48373,5.28303],[-75.48373,5.28303],[-75.48374,5.28303],[-75.48375,5.28303],[-75.48376,5.28303],[-75.48376,5.28302],[-75.48376,5.28299],[-75.48376,5.28299],[-75.48376,5.28299],[-75.48376,5.28298],[-75.48375,5.28298],[-75.48375,5.28298],[-75.48375,5.28298],[-75.48375,5.28297],[-75.48375,5.28297],[-75.48375,5.28297],[-75.48375,5.28296],[-75.48375,5.28295],[-75.48375,5.28295],[-75.48375,5.28295],[-75.48375,5.28294],[-75.48374,5.28294],[-75.48374,5.28294],[-75.48373,5.28295],[-75.48373,5.28295],[-75.48373,5.28295],[-75.48372,5.28295],[-75.48372,5.28295],[-75.48371,5.28295],[-75.48371,5.28295],[-75.48371,5.28295],[-75.48371,5.28294],[-75.48371,5.28293],[-75.48371,5.28293],[-75.48371,5.28292],[-75.48371,5.28292],[-75.48372,5.28292],[-75.48372,5.28291],[-75.48372,5.2829],[-75.48372,5.2829],[-75.48371,5.28289],[-75.48371,5.28289],[-75.48371,5.28288],[-75.48372,5.28288],[-75.48372,5.28287],[-75.48373,5.28286],[-75.48373,5.28285],[-75.48373,5.28284],[-75.48373,5.28283],[-75.48373,5.28283],[-75.48373,5.28283],[-75.48374,5.28282],[-75.48374,5.28282],[-75.48375,5.28281],[-75.48375,5.2828],[-75.48374,5.2828],[-75.48374,5.28279],[-75.48373,5.28279],[-75.48373,5.28278],[-75.48374,5.28277],[-75.48374,5.28277],[-75.48375,5.28276],[-75.48375,5.28275],[-75.48375,5.28275],[-75.48375,5.28274],[-75.48376,5.28273],[-75.48376,5.28273],[-75.48376,5.28272],[-75.48376,5.28271],[-75.48376,5.28271],[-75.48376,5.28267],[-75.48375,5.28267],[-75.48367,5.28264],[-75.48367,5.28266],[-75.48367,5.28267],[-75.48367,5.28268],[-75.48366,5.28269],[-75.48366,5.28269],[-75.48365,5.28269],[-75.48365,5.28269],[-75.48365,5.2827],[-75.48365,5.2827],[-75.48364,5.2827],[-75.48363,5.2827],[-75.48363,5.2827],[-75.48362,5.2827],[-75.48362,5.2827],[-75.48361,5.2827],[-75.4836,5.2827],[-75.4836,5.2827],[-75.48359,5.2827],[-75.48359,5.2827],[-75.48358,5.28269],[-75.48358,5.28269],[-75.48358,5.28268],[-75.48358,5.28267],[-75.48358,5.28266],[-75.48359,5.28266],[-75.48359,5.28265],[-75.48358,5.28264],[-75.48358,5.28264],[-75.48357,5.28264],[-75.48356,5.28264],[-75.48356,5.28264],[-75.48355,5.28265],[-75.48355,5.28265],[-75.48354,5.28265],[-75.48352,5.28265],[-75.48351,5.28265],[-75.48351,5.28265],[-75.4835,5.28265],[-75.48349,5.28265],[-75.48349,5.28264],[-75.48348,5.28264],[-75.48348,5.28263],[-75.48348,5.28263],[-75.48347,5.28263],[-75.48347,5.28262],[-75.48346,5.28262],[-75.48345,5.28261],[-75.48345,5.28261],[-75.48344,5.2826],[-75.48344,5.2826],[-75.48343,5.2826],[-75.48342,5.28259],[-75.48342,5.28259],[-75.48342,5.28259],[-75.48343,5.28258],[-75.48343,5.28258],[-75.48344,5.28258],[-75.48345,5.28257],[-75.48345,5.28256],[-75.48345,5.28255],[-75.48345,5.28254],[-75.48344,5.28253],[-75.48343,5.28251],[-75.48342,5.2825],[-75.48342,5.2825],[-75.4834,5.2825],[-75.48339,5.28249],[-75.48339,5.28249],[-75.48338,5.28248],[-75.48338,5.28248],[-75.48337,5.28247],[-75.48337,5.28246],[-75.48335,5.28246],[-75.48335,5.28246],[-75.48334,5.28246],[-75.48334,5.28245],[-75.48333,5.28244],[-75.48332,5.28244],[-75.48331,5.28244],[-75.48331,5.28244],[-75.4833,5.28244],[-75.4833,5.28244],[-75.48358,5.28288],[-75.48358,5.28297],[-75.48359,5.28298],[-75.48359,5.28299],[-75.48359,5.283],[-75.48359,5.28301],[-75.48359,5.28302],[-75.48359,5.28303]]],[[[-75.4833,5.28243],[-75.4833,5.28243],[-75.4833,5.28242],[-75.4833,5.28241],[-75.4833,5.28241],[-75.48329,5.2824],[-75.48329,5.28239],[-75.48329,5.28239],[-75.48328,5.28238],[-75.48328,5.28238],[-75.48326,5.28237],[-75.48325,5.28237],[-75.4833,5.28243]]],[[[-75.48316,5.28222],[-75.48323,5.28234],[-75.48323,5.28233],[-75.48323,5.28233],[-75.48323,5.28232],[-75.48323,5.28231],[-75.48323,5.28231],[-75.48324,5.2823],[-75.48324,5.2823],[-75.48324,5.28229],[-75.48324,5.28228],[-75.48324,5.28228],[-75.48324,5.28227],[-75.48324,5.28226],[-75.48324,5.28225],[-75.48324,5.28224],[-75.48324,5.28223],[-75.48322,5.28223],[-75.48321,5.28222],[-75.4832,5.28222],[-75.48319,5.28221],[-75.48318,5.28221],[-75.48317,5.2822],[-75.48316,5.2822],[-75.48315,5.28219],[-75.48314,5.28218],[-75.48314,5.28217],[-75.48313,5.28217],[-75.48311,5.28217],[-75.48308,5.28216],[-75.48307,5.28216],[-75.48306,5.28216],[-75.48305,5.28215],[-75.48304,5.28215],[-75.48303,5.28215],[-75.48301,5.28215],[-75.483,5.28215],[-75.48299,5.28215],[-75.48298,5.28214],[-75.48297,5.28214],[-75.48296,5.28214],[-75.48295,5.28213],[-75.48294,5.28213],[-75.48293,5.28214],[-75.48293,5.28214],[-75.48292,5.28214],[-75.48292,5.28214],[-75.48291,5.28214],[-75.4829,5.28213],[-75.4829,5.28213],[-75.48289,5.28212],[-75.48288,5.28213],[-75.48287,5.28213],[-75.48285,5.28213],[-75.48284,5.28212],[-75.48283,5.28212],[-75.48282,5.28212],[-75.48281,5.28212],[-75.48281,5.28213],[-75.4828,5.28213],[-75.48278,5.28213],[-75.48278,5.28213],[-75.48277,5.28213],[-75.48276,5.28212],[-75.48276,5.28211],[-75.48276,5.2821],[-75.48275,5.2821],[-75.48275,5.28209],[-75.48274,5.28209],[-75.48273,5.28209],[-75.48272,5.28208],[-75.48271,5.28208],[-75.4827,5.28208],[-75.48269,5.28208],[-75.48268,5.28208],[-75.48267,5.28208],[-75.48267,5.28207],[-75.48265,5.28207],[-75.48263,5.28206],[-75.48262,5.28206],[-75.48261,5.28205],[-75.4826,5.28204],[-75.4826,5.28203],[-75.48259,5.28203],[-75.48259,5.28202],[-75.48259,5.28201],[-75.48258,5.282],[-75.48258,5.28199],[-75.48258,5.28198],[-75.48257,5.28197],[-75.48256,5.28196],[-75.48256,5.28195],[-75.48255,5.28194],[-75.48255,5.28194],[-75.48255,5.28193],[-75.48254,5.28192],[-75.48253,5.28191],[-75.48252,5.2819],[-75.48251,5.28189],[-75.4825,5.28188],[-75.48248,5.28186],[-75.48248,5.28186],[-75.48247,5.28185],[-75.48246,5.28184],[-75.48246,5.28183],[-75.48245,5.28182],[-75.48245,5.28181],[-75.48245,5.2818],[-75.48244,5.28179],[-75.48244,5.28178],[-75.48244,5.28176],[-75.48243,5.28175],[-75.48243,5.28174],[-75.48243,5.28173],[-75.48243,5.28172],[-75.48244,5.28171],[-75.48244,5.28169],[-75.48245,5.28168],[-75.48245,5.28168],[-75.48245,5.28167],[-75.48246,5.28166],[-75.48245,5.28165],[-75.48244,5.28165],[-75.48243,5.28164],[-75.48243,5.28163],[-75.48244,5.28162],[-75.48245,5.28162],[-75.48245,5.2816],[-75.48245,5.28158],[-75.48245,5.28158],[-75.48244,5.28157],[-75.48243,5.28156],[-75.48243,5.28155],[-75.48243,5.28154],[-75.48243,5.28154],[-75.48242,5.28153],[-75.48242,5.28153],[-75.48241,5.28152],[-75.48241,5.28151],[-75.4824,5.2815],[-75.4824,5.2815],[-75.4824,5.28149],[-75.4824,5.28147],[-75.48239,5.28146],[-75.48238,5.28145],[-75.48237,5.28144],[-75.48237,5.28143],[-75.48235,5.28142],[-75.48234,5.28141],[-75.48233,5.28141],[-75.48231,5.28141],[-75.4823,5.28141],[-75.4823,5.2814],[-75.48229,5.2814],[-75.48228,5.2814],[-75.48228,5.28139],[-75.48227,5.28139],[-75.48226,5.28139],[-75.48225,5.28139],[-75.48225,5.28139],[-75.48224,5.2814],[-75.48223,5.2814],[-75.48222,5.2814],[-75.48222,5.28141],[-75.48221,5.2814],[-75.4822,5.2814],[-75.48221,5.28139],[-75.4822,5.28138],[-75.48219,5.28137],[-75.48219,5.28136],[-75.48218,5.28135],[-75.48218,5.28135],[-75.48218,5.28135],[-75.48218,5.28134],[-75.48217,5.28134],[-75.48217,5.28134],[-75.48217,5.28132],[-75.48217,5.28132],[-75.48213,5.28131],[-75.48211,5.28131],[-75.4821,5.28131],[-75.4821,5.28132],[-75.48209,5.28132],[-75.48209,5.28133],[-75.48209,5.28133],[-75.48208,5.28134],[-75.48208,5.28134],[-75.48208,5.28135],[-75.48207,5.28135],[-75.48206,5.28135],[-75.48205,5.28135],[-75.48204,5.28135],[-75.48204,5.28135],[-75.48203,5.28135],[-75.48203,5.28135],[-75.48202,5.28135],[-75.48202,5.28135],[-75.48202,5.28136],[-75.48201,5.28136],[-75.482,5.28135],[-75.482,5.28134],[-75.48199,5.28133],[-75.48199,5.28132],[-75.48198,5.28132],[-75.48197,5.28132],[-75.48196,5.28132],[-75.48196,5.28132],[-75.48195,5.28132],[-75.48195,5.28131],[-75.48195,5.28131],[-75.48194,5.2813],[-75.48193,5.28129],[-75.48193,5.28128],[-75.48192,5.28128],[-75.48191,5.28129],[-75.48191,5.2813],[-75.48191,5.2813],[-75.48191,5.28131],[-75.48191,5.28132],[-75.48191,5.28133],[-75.48192,5.28133],[-75.48192,5.28134],[-75.48192,5.28135],[-75.48192,5.28136],[-75.48191,5.28136],[-75.4819,5.28137],[-75.4819,5.28137],[-75.48188,5.28135],[-75.48188,5.28133],[-75.48188,5.28132],[-75.48186,5.28132],[-75.48185,5.28133],[-75.48184,5.28134],[-75.48184,5.28134],[-75.48184,5.28135],[-75.48185,5.28136],[-75.48186,5.28137],[-75.48186,5.28138],[-75.48185,5.28139],[-75.48184,5.28139],[-75.48183,5.28138],[-75.48182,5.28137],[-75.48181,5.28136],[-75.4818,5.28136],[-75.48179,5.28135],[-75.48179,5.28134],[-75.48178,5.28133],[-75.48175,5.28132],[-75.48174,5.28131],[-75.48172,5.2813],[-75.48171,5.28129],[-75.4817,5.28128],[-75.48169,5.28127],[-75.48168,5.28126],[-75.48167,5.28126],[-75.48166,5.28126],[-75.48165,5.28126],[-75.48165,5.28126],[-75.48164,5.28127],[-75.48164,5.28128],[-75.48163,5.28129],[-75.48163,5.2813],[-75.48164,5.28131],[-75.48165,5.28132],[-75.48167,5.28133],[-75.48168,5.28134],[-75.4817,5.28136],[-75.48173,5.28137],[-75.48174,5.28138],[-75.48175,5.28139],[-75.48176,5.28139],[-75.48175,5.2814],[-75.48174,5.2814],[-75.48173,5.2814],[-75.48172,5.2814],[-75.48172,5.28141],[-75.48171,5.28142],[-75.4817,5.28143],[-75.48169,5.28143],[-75.48168,5.28144],[-75.48167,5.28145],[-75.48164,5.28145],[-75.48163,5.28145],[-75.48162,5.28145],[-75.48161,5.28144],[-75.48159,5.28143],[-75.48158,5.28143],[-75.48157,5.28143],[-75.48156,5.28143],[-75.48155,5.28144],[-75.48154,5.28145],[-75.48154,5.28145],[-75.48153,5.28146],[-75.48152,5.28147],[-75.48153,5.28149],[-75.48152,5.2815],[-75.48152,5.28151],[-75.48151,5.28152],[-75.48149,5.28152],[-75.48149,5.28153],[-75.48148,5.28153],[-75.48147,5.28153],[-75.48146,5.28152],[-75.48145,5.28152],[-75.48143,5.28152],[-75.48142,5.28152],[-75.4814,5.28152],[-75.48139,5.28152],[-75.48137,5.28153],[-75.48137,5.28154],[-75.48136,5.28155],[-75.48136,5.28156],[-75.48135,5.28156],[-75.48134,5.28156],[-75.48133,5.28156],[-75.48132,5.28156],[-75.48131,5.28156],[-75.48127,5.28157],[-75.48126,5.28156],[-75.48125,5.28156],[-75.48123,5.28156],[-75.48122,5.28157],[-75.48121,5.28158],[-75.48121,5.28159],[-75.4812,5.28159],[-75.48118,5.28159],[-75.48118,5.28159],[-75.48117,5.2816],[-75.48116,5.28161],[-75.48116,5.28162],[-75.48115,5.28163],[-75.48114,5.28163],[-75.48113,5.28164],[-75.48111,5.28165],[-75.48111,5.28165],[-75.4811,5.28167],[-75.48109,5.28167],[-75.48106,5.28167],[-75.48105,5.28167],[-75.48104,5.28167],[-75.48103,5.28167],[-75.48108,5.28168],[-75.48126,5.28165],[-75.48166,5.28153],[-75.48166,5.28153],[-75.48167,5.28151],[-75.48168,5.2815],[-75.48169,5.28149],[-75.4817,5.28148],[-75.48172,5.28148],[-75.48173,5.28148],[-75.48175,5.28147],[-75.48176,5.28147],[-75.48176,5.28148],[-75.48177,5.28149],[-75.48177,5.2815],[-75.48178,5.28151],[-75.48179,5.28151],[-75.48179,5.28152],[-75.4818,5.28153],[-75.48194,5.28156],[-75.48194,5.28155],[-75.48195,5.28154],[-75.48195,5.28154],[-75.48196,5.28154],[-75.48196,5.28156],[-75.48198,5.28157],[-75.48201,5.28157],[-75.48201,5.28157],[-75.48202,5.28156],[-75.48203,5.28156],[-75.48204,5.28156],[-75.48204,5.28156],[-75.48205,5.28157],[-75.48206,5.28158],[-75.48207,5.28159],[-75.48208,5.28159],[-75.48209,5.28158],[-75.48211,5.28158],[-75.48212,5.28159],[-75.48214,5.28159],[-75.48214,5.2816],[-75.48215,5.2816],[-75.48215,5.28161],[-75.48215,5.28162],[-75.48215,5.28163],[-75.48214,5.28164],[-75.48214,5.28165],[-75.48214,5.28166],[-75.48214,5.28166],[-75.48223,5.28173],[-75.48224,5.28173],[-75.48225,5.28172],[-75.48226,5.28172],[-75.48227,5.28172],[-75.48228,5.28172],[-75.48229,5.28173],[-75.48229,5.28174],[-75.48229,5.28175],[-75.48229,5.28176],[-75.4823,5.28176],[-75.4823,5.28176],[-75.48231,5.28176],[-75.48232,5.28177],[-75.48233,5.28177],[-75.48234,5.28177],[-75.48234,5.28178],[-75.48235,5.2818],[-75.48235,5.2818],[-75.48236,5.2818],[-75.48236,5.28179],[-75.48237,5.28179],[-75.48238,5.28178],[-75.48238,5.28178],[-75.48239,5.28179],[-75.48239,5.2818],[-75.48239,5.28181],[-75.48239,5.28182],[-75.4824,5.28183],[-75.48242,5.28187],[-75.48243,5.28188],[-75.48244,5.2819],[-75.48244,5.28191],[-75.48245,5.28192],[-75.48245,5.28192],[-75.48245,5.28193],[-75.48247,5.28194],[-75.48248,5.28195],[-75.4825,5.28195],[-75.4825,5.28196],[-75.48251,5.28197],[-75.48252,5.28198],[-75.48253,5.28199],[-75.48254,5.282],[-75.48255,5.28201],[-75.48255,5.28202],[-75.48256,5.28203],[-75.48256,5.28203],[-75.48258,5.28206],[-75.48273,5.28216],[-75.48316,5.28222]]],[[[-75.48378,5.28219],[-75.4838,5.28219],[-75.48381,5.28219],[-75.48381,5.28219],[-75.48381,5.28219],[-75.48381,5.28218],[-75.48382,5.28218],[-75.48382,5.28218],[-75.48382,5.28217],[-75.48382,5.28217],[-75.48383,5.28217],[-75.48383,5.28217],[-75.48383,5.28217],[-75.48384,5.28217],[-75.48384,5.28217],[-75.48384,5.28217],[-75.48384,5.28217],[-75.48385,5.28217],[-75.48385,5.28214],[-75.48385,5.28213],[-75.48385,5.28213],[-75.48384,5.28212],[-75.48384,5.28212],[-75.48384,5.28211],[-75.48383,5.2821],[-75.48383,5.2821],[-75.48382,5.28209],[-75.48382,5.28208],[-75.48381,5.28207],[-75.4838,5.28205],[-75.4838,5.28204],[-75.4838,5.28204],[-75.48381,5.28202],[-75.48381,5.28201],[-75.48381,5.282],[-75.48381,5.28199],[-75.48382,5.28198],[-75.48382,5.28197],[-75.48383,5.28197],[-75.48384,5.28197],[-75.48384,5.28197],[-75.48385,5.28197],[-75.48386,5.28196],[-75.48386,5.28195],[-75.48386,5.28194],[-75.48386,5.28193],[-75.48387,5.28192],[-75.48388,5.28191],[-75.48388,5.2819],[-75.4839,5.28189],[-75.4839,5.28189],[-75.48391,5.28188],[-75.48391,5.28188],[-75.48392,5.28187],[-75.48393,5.28186],[-75.48393,5.28186],[-75.48394,5.28184],[-75.48394,5.28184],[-75.48395,5.28183],[-75.48395,5.28183],[-75.48395,5.28182],[-75.48395,5.28181],[-75.48395,5.28181],[-75.48396,5.2818],[-75.48396,5.28179],[-75.48395,5.28179],[-75.48393,5.28179],[-75.48392,5.28178],[-75.48391,5.28177],[-75.48389,5.28176],[-75.48389,5.28175],[-75.48388,5.28175],[-75.48387,5.28175],[-75.48386,5.28174],[-75.48386,5.28173],[-75.48387,5.28172],[-75.48387,5.28171],[-75.48387,5.2817],[-75.48385,5.2817],[-75.48385,5.28168],[-75.48384,5.28168],[-75.48383,5.28168],[-75.48382,5.28168],[-75.48381,5.28168],[-75.48381,5.28167],[-75.4838,5.28168],[-75.48375,5.28169],[-75.4837,5.28171],[-75.48368,5.28171],[-75.48366,5.28174],[-75.48366,5.28174],[-75.48366,5.28175],[-75.48365,5.28176],[-75.48364,5.28176],[-75.48363,5.28178],[-75.48363,5.28178],[-75.48363,5.28179],[-75.48363,5.2818],[-75.48362,5.28181],[-75.48362,5.28182],[-75.48362,5.28182],[-75.48362,5.28183],[-75.48361,5.28184],[-75.48361,5.28185],[-75.4836,5.28186],[-75.4836,5.28187],[-75.48359,5.28188],[-75.4836,5.28189],[-75.4836,5.2819],[-75.4836,5.2819],[-75.48361,5.28191],[-75.48361,5.28192],[-75.4836,5.28193],[-75.4836,5.28193],[-75.48361,5.28195],[-75.4836,5.28195],[-75.48359,5.28198],[-75.4836,5.28199],[-75.48361,5.28199],[-75.48361,5.282],[-75.48361,5.28201],[-75.4836,5.28202],[-75.48359,5.28204],[-75.48359,5.28204],[-75.4836,5.28205],[-75.48361,5.28205],[-75.48362,5.28205],[-75.48363,5.28206],[-75.48364,5.28207],[-75.48365,5.28207],[-75.48366,5.28208],[-75.48367,5.28208],[-75.48367,5.28208],[-75.48366,5.2821],[-75.48367,5.28211],[-75.48367,5.28211],[-75.48368,5.28211],[-75.4837,5.28211],[-75.48371,5.28211],[-75.48372,5.2821],[-75.48373,5.2821],[-75.48373,5.28211],[-75.48373,5.28212],[-75.48374,5.28213],[-75.48374,5.28214],[-75.48375,5.28215],[-75.48376,5.28215],[-75.48377,5.28216],[-75.48377,5.28217],[-75.48378,5.28219]]]]},"properties":{"FID":0,"OBJECTID":1,"Area":0.741487948441,"uso_actual":"Bosque Natural CPU Alto de los Ocampos","uso_potenc":"Bosque Natural CPU Alto de los Ocampos","RuleID":1,"Shape_Leng":1560.61846892,"Shape_Area":7414.87948441}}]}