{"type":"FeatureCollection","name":"Fajas_Proteccion_Cauces_Urbanos","crs":{"type":"name","properties":{"name":"urn:ogc:def:crs:OGC:1.3:CRS84"}},"features":[{"type":"Feature","id":0,"geometry":{"type":"MultiPolygon","coordinates":[[[[-75.48982,5.26664],[-75.48981,5.26666],[-75.48981,5.26667],[-75.4898,5.26669],[-75.48979,5.2667],[-75.48978,5.26672],[-75.48976,5.26674],[-75.48976,5.26674],[-75.48977,5.26673],[-75.48979,5.26672],[-75.4898,5.26671],[-75.48981,5.2667],[-75.48982,5.26668],[-75.48983,5.26667],[-75.48984,5.26666],[-75.48982,5.26664],[-75.48982,5.26664]]],[[[-75.48975,5.26676],[-75.48973,5.26677],[-75.48972,5.26679],[-75.48971,5.26679],[-75.48969,5.26681],[-75.48969,5.26681],[-75.4897,5.26683],[-75.4897,5.26685],[-75.4897,5.26686],[-75.4897,5.26691],[-75.48969,5.26692],[-75.48969,5.26694],[-75.48969,5.26696],[-75.48969,5.26698],[-75.48968,5.26699],[-75.48968,5.26701],[-75.48967,5.26702],[-75.48966,5.26704],[-75.48966,5.26706],[-75.48965,5.26707],[-75.48964,5.26708],[-75.48963,5.2671],[-75.48966,5.26712],[-75.48966,5.26712],[-75.48966,5.26711],[-75.48968,5.2671],[-75.48969,5.26708],[-75.4897,5.26707],[-75.4897,5.26706],[-75.48971,5.26704],[-75.48972,5.26703],[-75.48972,5.26702],[-75.48973,5.267],[-75.48973,5.267],[-75.48973,5.26698],[-75.48974,5.26698],[-75.48974,5.26695],[-75.48974,5.26694],[-75.48975,5.26692],[-75.48975,5.2669],[-75.48975,5.26689],[-75.48975,5.26688],[-75.48975,5.26687],[-75.48975,5.26686],[-75.48975,5.26684],[-75.48975,5.26683],[-75.48974,5.26682],[-75.48974,5.26682],[-75.48974,5.26682],[-75.48975,5.26681],[-75.48975,5.2668],[-75.48975,5.26678],[-75.48975,5.26677],[-75.48975,5.26675],[-75.48975,5.26676]]],[[[-75.48965,5.26743],[-75.48966,5.26744],[-75.48966,5.26743],[-75.48966,5.26742],[-75.48967,5.2674],[-75.48965,5.26743]]],[[[-75.49289,5.26806],[-75.49287,5.26808],[-75.49286,5.26808],[-75.49286,5.26808],[-75.49285,5.26809],[-75.49285,5.26809],[-75.4929,5.26806],[-75.4929,5.26804],[-75.49289,5.26806]]],[[[-75.49441,5.26797],[-75.49441,5.26797],[-75.49449,5.26799],[-75.49462,5.2682],[-75.49474,5.2682],[-75.49473,5.26818],[-75.49479,5.26807],[-75.49476,5.26801],[-75.49476,5.26801],[-75.49476,5.268],[-75.49472,5.26796],[-75.49467,5.26795],[-75.49465,5.26795],[-75.4946,5.26795],[-75.49456,5.26794],[-75.49455,5.26793],[-75.49455,5.26793],[-75.49454,5.26791],[-75.49453,5.26791],[-75.49452,5.26789],[-75.49456,5.26782],[-75.49445,5.2678],[-75.49437,5.26778],[-75.49432,5.26765],[-75.49432,5.26764],[-75.49431,5.26762],[-75.4943,5.26758],[-75.4943,5.26756],[-75.4943,5.26755],[-75.4943,5.26754],[-75.49429,5.26748],[-75.49429,5.26747],[-75.49429,5.26746],[-75.49429,5.26745],[-75.49428,5.26744],[-75.49428,5.26743],[-75.49428,5.26742],[-75.49427,5.26741],[-75.49426,5.2674],[-75.49426,5.26739],[-75.49425,5.26738],[-75.49424,5.26737],[-75.49424,5.26737],[-75.4942,5.26733],[-75.49417,5.26729],[-75.49417,5.26729],[-75.49416,5.26728],[-75.49415,5.26727],[-75.49415,5.26727],[-75.49414,5.26726],[-75.49411,5.26719],[-75.49411,5.26719],[-75.49411,5.26718],[-75.4941,5.26717],[-75.4941,5.26716],[-75.49409,5.26715],[-75.49409,5.26715],[-75.49407,5.26711],[-75.49404,5.26707],[-75.49404,5.26707],[-75.49403,5.26706],[-75.49403,5.26705],[-75.494,5.26702],[-75.49399,5.26701],[-75.49399,5.26701],[-75.49396,5.26696],[-75.49396,5.26694],[-75.49396,5.26688],[-75.49375,5.26673],[-75.49374,5.26673],[-75.49374,5.26675],[-75.49374,5.26677],[-75.49374,5.26679],[-75.49374,5.2668],[-75.49375,5.26682],[-75.49376,5.26685],[-75.49377,5.26688],[-75.49379,5.26692],[-75.49381,5.26696],[-75.49381,5.26699],[-75.49381,5.26703],[-75.49391,5.2671],[-75.49391,5.2671],[-75.49391,5.2671],[-75.49391,5.26711],[-75.4939,5.26714],[-75.4939,5.26714],[-75.4939,5.26714],[-75.49389,5.26716],[-75.49389,5.26716],[-75.49389,5.26717],[-75.49389,5.26718],[-75.49389,5.26719],[-75.49389,5.26719],[-75.49388,5.2672],[-75.49388,5.26722],[-75.49388,5.26723],[-75.49387,5.26725],[-75.49387,5.26725],[-75.49387,5.26725],[-75.49387,5.26725],[-75.49392,5.26733],[-75.49394,5.26736],[-75.49394,5.26737],[-75.49394,5.26737],[-75.49395,5.26738],[-75.49399,5.26743],[-75.494,5.26745],[-75.49402,5.26748],[-75.49402,5.26748],[-75.49408,5.26756],[-75.49408,5.26756],[-75.49414,5.26765],[-75.49415,5.26767],[-75.49415,5.26767],[-75.49416,5.26767],[-75.49418,5.26769],[-75.49419,5.2677],[-75.49419,5.26771],[-75.49418,5.26773],[-75.49416,5.26779],[-75.49412,5.26791],[-75.4941,5.26794],[-75.49417,5.26799],[-75.49418,5.268],[-75.49419,5.268],[-75.4942,5.26801],[-75.49421,5.26801],[-75.49422,5.26802],[-75.49422,5.26802],[-75.49425,5.26803],[-75.49427,5.26803],[-75.49427,5.26803],[-75.49428,5.26804],[-75.49439,5.26797],[-75.49441,5.26797]]],[[[-75.4923,5.26802],[-75.49229,5.26803],[-75.49228,5.26805],[-75.49227,5.26807],[-75.49226,5.26808],[-75.49225,5.26811],[-75.49224,5.26813],[-75.49224,5.26816],[-75.49224,5.26819],[-75.49224,5.26821],[-75.49224,5.26822],[-75.49224,5.26823],[-75.49224,5.26823],[-75.49224,5.26826],[-75.49225,5.26827],[-75.49226,5.26827],[-75.49227,5.26827],[-75.49229,5.26827],[-75.4923,5.26827],[-75.49231,5.26826],[-75.49231,5.26821],[-75.49232,5.26821],[-75.49234,5.2682],[-75.49235,5.26818],[-75.49237,5.26816],[-75.49238,5.26814],[-75.49238,5.26812],[-75.49239,5.26809],[-75.49238,5.26807],[-75.49238,5.26805],[-75.49237,5.26802],[-75.49235,5.268],[-75.49234,5.26799],[-75.49233,5.26798],[-75.49233,5.26798],[-75.4923,5.26802]]],[[[-75.49516,5.26831],[-75.49517,5.26831],[-75.49517,5.26831],[-75.49519,5.26831],[-75.4952,5.26831],[-75.4952,5.26831],[-75.49517,5.2683],[-75.49516,5.26831]]],[[[-75.49282,5.26829],[-75.4928,5.2683],[-75.49279,5.26832],[-75.49278,5.26834],[-75.49277,5.26837],[-75.49277,5.26839],[-75.49281,5.26835],[-75.49283,5.26829],[-75.49283,5.26828],[-75.49282,5.26829]]],[[[-75.49526,5.26835],[-75.49527,5.26835],[-75.49527,5.26836],[-75.49528,5.26837],[-75.49528,5.26837],[-75.49529,5.26839],[-75.4953,5.2684],[-75.49531,5.26841],[-75.49531,5.26841],[-75.49532,5.26842],[-75.49533,5.26843],[-75.49534,5.26844],[-75.49536,5.26846],[-75.49537,5.26843],[-75.49537,5.26842],[-75.49537,5.26834],[-75.49528,5.26834],[-75.49526,5.26833],[-75.49526,5.26835]]],[[[-75.49278,5.26856],[-75.49279,5.26854],[-75.49278,5.26853],[-75.49278,5.26853],[-75.49278,5.26856]]],[[[-75.49279,5.2686],[-75.49279,5.26864],[-75.4928,5.26864],[-75.4928,5.26862],[-75.49281,5.26861],[-75.49279,5.2686],[-75.49279,5.26859],[-75.49279,5.2686]]],[[[-75.4898,5.26866],[-75.48983,5.26869],[-75.48984,5.2687],[-75.48982,5.26877],[-75.48986,5.2688],[-75.48992,5.26877],[-75.48993,5.26877],[-75.48993,5.26876],[-75.48994,5.26875],[-75.48994,5.26874],[-75.48995,5.26873],[-75.48995,5.26872],[-75.48996,5.26871],[-75.48996,5.26869],[-75.48996,5.26868],[-75.48996,5.26867],[-75.48996,5.26866],[-75.48996,5.26865],[-75.48996,5.26864],[-75.48996,5.26862],[-75.48996,5.26862],[-75.48996,5.26861],[-75.48995,5.2686],[-75.48995,5.26859],[-75.48994,5.26858],[-75.48994,5.26857],[-75.48993,5.26856],[-75.48993,5.26855],[-75.4899,5.26851],[-75.48989,5.26846],[-75.48988,5.26846],[-75.48988,5.26845],[-75.48988,5.26844],[-75.48987,5.26843],[-75.48987,5.26841],[-75.48986,5.2684],[-75.48985,5.2684],[-75.48984,5.26839],[-75.48984,5.26838],[-75.48983,5.26837],[-75.48983,5.26837],[-75.48979,5.26831],[-75.48978,5.26825],[-75.48974,5.26817],[-75.48963,5.26814],[-75.48963,5.26814],[-75.48962,5.26813],[-75.48962,5.26812],[-75.48955,5.26804],[-75.48953,5.26802],[-75.4895,5.26805],[-75.48947,5.26809],[-75.48945,5.26815],[-75.48942,5.2682],[-75.48945,5.26822],[-75.48949,5.26824],[-75.48948,5.26829],[-75.48954,5.26832],[-75.48956,5.26833],[-75.48954,5.26837],[-75.48953,5.26841],[-75.4896,5.26842],[-75.4896,5.2684],[-75.4896,5.26832],[-75.48972,5.2683],[-75.48982,5.26837],[-75.48983,5.26839],[-75.48973,5.26837],[-75.48971,5.26847],[-75.4898,5.26849],[-75.48982,5.26857],[-75.48986,5.26858],[-75.48986,5.26862],[-75.48981,5.26861],[-75.4898,5.26866]]],[[[-75.49393,5.26836],[-75.49393,5.26837],[-75.49396,5.26841],[-75.49396,5.26841],[-75.49396,5.26841],[-75.49396,5.26842],[-75.49397,5.26845],[-75.49398,5.26846],[-75.49399,5.26847],[-75.494,5.26848],[-75.494,5.26848],[-75.494,5.26849],[-75.49405,5.26857],[-75.49406,5.26858],[-75.49408,5.26864],[-75.49409,5.26868],[-75.4941,5.26872],[-75.4941,5.26876],[-75.49406,5.26888],[-75.49398,5.26906],[-75.49398,5.26906],[-75.49398,5.26907],[-75.49402,5.26909],[-75.49401,5.26914],[-75.494,5.26916],[-75.494,5.26916],[-75.494,5.26917],[-75.49399,5.26919],[-75.49413,5.26919],[-75.49412,5.26917],[-75.4941,5.26912],[-75.49407,5.26909],[-75.49407,5.26906],[-75.49407,5.26903],[-75.49408,5.26902],[-75.49407,5.269],[-75.49407,5.26897],[-75.49407,5.26894],[-75.49408,5.26889],[-75.4941,5.26883],[-75.49412,5.2688],[-75.49413,5.26876],[-75.49413,5.26868],[-75.49414,5.26864],[-75.49414,5.26862],[-75.49414,5.26862],[-75.49414,5.26861],[-75.49414,5.26861],[-75.49414,5.26861],[-75.49413,5.2686],[-75.49413,5.2686],[-75.49412,5.26857],[-75.49411,5.26854],[-75.49411,5.26854],[-75.4941,5.26853],[-75.4941,5.26853],[-75.4941,5.26852],[-75.4941,5.26852],[-75.49408,5.2685],[-75.49412,5.26818],[-75.49411,5.26811],[-75.49404,5.26805],[-75.494,5.26811],[-75.49401,5.26824],[-75.49401,5.26827],[-75.49401,5.26836],[-75.494,5.26835],[-75.49396,5.26832],[-75.49393,5.26836]]],[[[-75.49524,5.26972],[-75.49525,5.26972],[-75.49526,5.26972],[-75.49527,5.26969],[-75.49527,5.26969],[-75.49528,5.26967],[-75.4953,5.26963],[-75.49531,5.2696],[-75.49533,5.26959],[-75.49534,5.26957],[-75.49535,5.26954],[-75.49536,5.26952],[-75.49533,5.26954],[-75.49532,5.26954],[-75.49531,5.26954],[-75.4953,5.26954],[-75.49529,5.26954],[-75.49522,5.26964],[-75.49522,5.26964],[-75.49521,5.26963],[-75.49521,5.26963],[-75.49521,5.26963],[-75.4952,5.26963],[-75.4952,5.26962],[-75.49519,5.26962],[-75.49519,5.26962],[-75.49518,5.26962],[-75.49518,5.26961],[-75.49517,5.26961],[-75.49517,5.26961],[-75.49517,5.26961],[-75.49516,5.26961],[-75.49515,5.26961],[-75.49515,5.26961],[-75.49514,5.26961],[-75.49514,5.26961],[-75.49513,5.26961],[-75.49513,5.26961],[-75.49511,5.26961],[-75.49511,5.26961],[-75.4951,5.26961],[-75.4951,5.2696],[-75.49509,5.2696],[-75.49508,5.2696],[-75.49508,5.2696],[-75.49507,5.2696],[-75.49506,5.2696],[-75.49506,5.2696],[-75.49505,5.2696],[-75.49505,5.2696],[-75.49505,5.2696],[-75.49504,5.2696],[-75.49504,5.26959],[-75.49503,5.26959],[-75.49503,5.26959],[-75.49502,5.26958],[-75.49502,5.26958],[-75.49501,5.26958],[-75.49501,5.26958],[-75.495,5.26958],[-75.495,5.26958],[-75.49499,5.26957],[-75.49499,5.26957],[-75.49499,5.26957],[-75.49499,5.26957],[-75.49498,5.26956],[-75.49498,5.26956],[-75.49497,5.26954],[-75.49497,5.26954],[-75.49496,5.26953],[-75.49496,5.26953],[-75.49495,5.26952],[-75.49495,5.26952],[-75.49494,5.26951],[-75.49494,5.26951],[-75.49493,5.2695],[-75.49493,5.2695],[-75.49492,5.26949],[-75.49492,5.26949],[-75.4949,5.26948],[-75.4949,5.26948],[-75.4949,5.26948],[-75.49489,5.26948],[-75.49489,5.26948],[-75.49489,5.26948],[-75.49487,5.26947],[-75.49487,5.26947],[-75.49486,5.26947],[-75.49486,5.26947],[-75.49484,5.26947],[-75.49484,5.26946],[-75.49481,5.26945],[-75.4948,5.26928],[-75.4948,5.26928],[-75.4948,5.26928],[-75.4948,5.26927],[-75.49479,5.26926],[-75.49478,5.26925],[-75.49477,5.26924],[-75.49476,5.26923],[-75.49476,5.26922],[-75.49475,5.26922],[-75.49458,5.26934],[-75.49448,5.26942],[-75.49441,5.26947],[-75.49443,5.26958],[-75.49443,5.26958],[-75.49444,5.26959],[-75.49444,5.2696],[-75.49445,5.26962],[-75.49446,5.2696],[-75.49447,5.26958],[-75.49449,5.26957],[-75.49449,5.26957],[-75.4945,5.26956],[-75.49451,5.26955],[-75.49453,5.26955],[-75.49455,5.26955],[-75.49455,5.26955],[-75.49456,5.26955],[-75.49457,5.26955],[-75.49457,5.26954],[-75.49456,5.26952],[-75.49457,5.26951],[-75.49458,5.26949],[-75.49459,5.26947],[-75.49458,5.26946],[-75.49456,5.26947],[-75.49455,5.26947],[-75.49453,5.26947],[-75.49455,5.26945],[-75.49455,5.26943],[-75.49461,5.26935],[-75.49461,5.26935],[-75.49463,5.26935],[-75.49465,5.26936],[-75.49467,5.26936],[-75.49468,5.26937],[-75.49468,5.26937],[-75.4947,5.26937],[-75.49471,5.26938],[-75.49471,5.2694],[-75.49473,5.26941],[-75.49475,5.26941],[-75.49475,5.26943],[-75.49475,5.26944],[-75.49476,5.26945],[-75.49477,5.26947],[-75.49477,5.2695],[-75.49477,5.26951],[-75.49477,5.26951],[-75.49477,5.26951],[-75.49477,5.26951],[-75.49483,5.26952],[-75.49483,5.26953],[-75.49482,5.26954],[-75.49483,5.26954],[-75.49483,5.26955],[-75.49487,5.26955],[-75.49487,5.26955],[-75.49488,5.26956],[-75.4949,5.26958],[-75.49492,5.2696],[-75.49491,5.26961],[-75.49492,5.26962],[-75.49493,5.26964],[-75.49493,5.26965],[-75.49494,5.26966],[-75.49496,5.26967],[-75.49498,5.26968],[-75.49499,5.26968],[-75.495,5.26968],[-75.495,5.26968],[-75.49502,5.26968],[-75.49504,5.26968],[-75.49506,5.26969],[-75.49508,5.26969],[-75.49509,5.26969],[-75.49511,5.2697],[-75.49513,5.2697],[-75.49515,5.2697],[-75.49516,5.26971],[-75.49518,5.26971],[-75.4952,5.26971],[-75.49522,5.26971],[-75.49524,5.26972]]],[[[-75.48803,5.27053],[-75.48801,5.27057],[-75.48804,5.27058],[-75.48806,5.27058],[-75.48808,5.27059],[-75.48808,5.27058],[-75.48809,5.27056],[-75.48809,5.27054],[-75.4881,5.27052],[-75.48811,5.2705],[-75.48811,5.27049],[-75.48812,5.27048],[-75.48812,5.27047],[-75.48812,5.27047],[-75.48813,5.27046],[-75.48813,5.27044],[-75.48813,5.27043],[-75.48813,5.27042],[-75.48813,5.2704],[-75.48813,5.27037],[-75.48813,5.27036],[-75.48814,5.27033],[-75.48813,5.27029],[-75.48812,5.27025],[-75.48812,5.27022],[-75.48813,5.27016],[-75.48813,5.27014],[-75.48813,5.27011],[-75.48813,5.27007],[-75.48812,5.27005],[-75.48809,5.27],[-75.48804,5.26996],[-75.48802,5.26995],[-75.48797,5.26994],[-75.48794,5.26994],[-75.48783,5.26984],[-75.48778,5.26983],[-75.48773,5.26982],[-75.48767,5.26982],[-75.48765,5.26982],[-75.4876,5.2698],[-75.48753,5.26977],[-75.48745,5.26974],[-75.48738,5.26971],[-75.48736,5.26969],[-75.48735,5.2697],[-75.48736,5.26971],[-75.48731,5.26976],[-75.48732,5.26977],[-75.48732,5.26977],[-75.48733,5.26978],[-75.48734,5.26979],[-75.48735,5.26979],[-75.48735,5.26979],[-75.48735,5.26979],[-75.48735,5.26979],[-75.48735,5.26979],[-75.48737,5.2698],[-75.48737,5.2698],[-75.48739,5.2698],[-75.4874,5.26981],[-75.48741,5.26981],[-75.48742,5.26981],[-75.48744,5.26982],[-75.48744,5.26982],[-75.48746,5.26983],[-75.48747,5.26983],[-75.48748,5.26983],[-75.48748,5.26984],[-75.48748,5.26984],[-75.48748,5.26984],[-75.4875,5.26984],[-75.4875,5.26984],[-75.4875,5.26984],[-75.48751,5.26985],[-75.48752,5.26985],[-75.48753,5.26985],[-75.48754,5.26986],[-75.48756,5.26986],[-75.48756,5.26986],[-75.48757,5.26987],[-75.48757,5.26987],[-75.48758,5.26987],[-75.4876,5.26987],[-75.48761,5.26988],[-75.48762,5.26988],[-75.48763,5.26988],[-75.48764,5.26989],[-75.48764,5.26989],[-75.48766,5.2699],[-75.48767,5.2699],[-75.48769,5.26991],[-75.48772,5.26993],[-75.48773,5.26993],[-75.48774,5.26994],[-75.48775,5.26995],[-75.48775,5.26995],[-75.48778,5.26997],[-75.48778,5.26997],[-75.4878,5.26999],[-75.48781,5.26999],[-75.48783,5.27002],[-75.48783,5.27002],[-75.48784,5.27005],[-75.48784,5.27005],[-75.48785,5.27005],[-75.48785,5.27006],[-75.48787,5.27006],[-75.48787,5.27007],[-75.48788,5.27007],[-75.48788,5.27007],[-75.4879,5.27008],[-75.4879,5.27009],[-75.48792,5.2701],[-75.48792,5.2701],[-75.48793,5.27011],[-75.48794,5.27012],[-75.48794,5.27012],[-75.48794,5.27012],[-75.48794,5.27012],[-75.48794,5.27012],[-75.48794,5.27013],[-75.48796,5.27014],[-75.48796,5.27014],[-75.48796,5.27014],[-75.48797,5.27015],[-75.48797,5.27015],[-75.48798,5.27016],[-75.48799,5.27017],[-75.488,5.27018],[-75.488,5.27018],[-75.48801,5.27019],[-75.48801,5.27019],[-75.48801,5.27019],[-75.48802,5.27021],[-75.48802,5.27021],[-75.48803,5.27022],[-75.48804,5.27023],[-75.48804,5.27023],[-75.48804,5.27024],[-75.48804,5.27024],[-75.48805,5.27025],[-75.48805,5.27025],[-75.48805,5.27025],[-75.48805,5.27025],[-75.48806,5.27027],[-75.48806,5.27027],[-75.48806,5.27028],[-75.48806,5.27028],[-75.48806,5.27028],[-75.48806,5.27028],[-75.48806,5.27028],[-75.48807,5.2703],[-75.48808,5.27032],[-75.48808,5.27032],[-75.48808,5.27032],[-75.48808,5.27033],[-75.48808,5.27034],[-75.48809,5.27036],[-75.48809,5.27037],[-75.48809,5.27038],[-75.48809,5.27039],[-75.48809,5.2704],[-75.48809,5.2704],[-75.48809,5.27042],[-75.48809,5.27043],[-75.48809,5.27044],[-75.48809,5.27045],[-75.48809,5.27047],[-75.48809,5.27047],[-75.48809,5.27048],[-75.48809,5.27049],[-75.48809,5.27049],[-75.48809,5.27049],[-75.48809,5.27049],[-75.48809,5.27049],[-75.48807,5.27049],[-75.48807,5.27049],[-75.48802,5.27049],[-75.48803,5.27053]]],[[[-75.48825,5.27143],[-75.48826,5.27145],[-75.48828,5.27147],[-75.4883,5.27149],[-75.4883,5.2715],[-75.48832,5.27155],[-75.48836,5.27159],[-75.48838,5.27162],[-75.48839,5.27163],[-75.48843,5.27167],[-75.48845,5.2717],[-75.48848,5.27174],[-75.48851,5.27178],[-75.48853,5.27178],[-75.48856,5.27177],[-75.48858,5.27176],[-75.48861,5.27175],[-75.48862,5.27174],[-75.48863,5.27174],[-75.48864,5.27173],[-75.48865,5.27173],[-75.48866,5.27172],[-75.48867,5.27171],[-75.48868,5.2717],[-75.48868,5.27169],[-75.48869,5.27168],[-75.4887,5.27167],[-75.4887,5.27166],[-75.48871,5.27165],[-75.48871,5.27164],[-75.48871,5.27163],[-75.48872,5.27162],[-75.48872,5.27161],[-75.48872,5.27159],[-75.48872,5.27158],[-75.48872,5.27157],[-75.48872,5.27156],[-75.48872,5.27155],[-75.48871,5.27154],[-75.48871,5.27152],[-75.48871,5.27151],[-75.4887,5.2715],[-75.4887,5.27149],[-75.48869,5.27148],[-75.48868,5.27147],[-75.48868,5.27146],[-75.48867,5.27145],[-75.48866,5.27145],[-75.48865,5.27144],[-75.48864,5.27143],[-75.48863,5.27143],[-75.48862,5.27142],[-75.48861,5.27142],[-75.4886,5.27141],[-75.48859,5.27141],[-75.48858,5.27141],[-75.48854,5.2714],[-75.48849,5.27141],[-75.48849,5.27139],[-75.48848,5.27133],[-75.48846,5.27128],[-75.48842,5.27124],[-75.48838,5.27122],[-75.48835,5.27121],[-75.48835,5.27121],[-75.48832,5.27116],[-75.48833,5.27115],[-75.48833,5.27113],[-75.48834,5.27111],[-75.48833,5.27108],[-75.48833,5.27106],[-75.48832,5.27104],[-75.4883,5.27102],[-75.4883,5.27102],[-75.48838,5.2709],[-75.48837,5.27089],[-75.48835,5.27088],[-75.48834,5.27087],[-75.48832,5.27086],[-75.4883,5.27086],[-75.48829,5.27085],[-75.48827,5.27085],[-75.48825,5.27084],[-75.48824,5.27084],[-75.48822,5.27084],[-75.48821,5.27084],[-75.4882,5.27089],[-75.48819,5.27095],[-75.48814,5.27101],[-75.48804,5.27103],[-75.48805,5.27109],[-75.48809,5.27128],[-75.48816,5.27128],[-75.48818,5.27131],[-75.4882,5.27134],[-75.48822,5.27137],[-75.48823,5.2714],[-75.48824,5.2714],[-75.48825,5.27143]]],[[[-75.48854,5.27225],[-75.48855,5.27225],[-75.48854,5.2722],[-75.48855,5.2722],[-75.48855,5.2722],[-75.48858,5.2722],[-75.4886,5.2722],[-75.48862,5.2722],[-75.48864,5.2722],[-75.48866,5.27219],[-75.48868,5.27218],[-75.48871,5.27217],[-75.48873,5.27215],[-75.48875,5.27213],[-75.48877,5.27211],[-75.48878,5.27208],[-75.48879,5.27205],[-75.4888,5.27202],[-75.48879,5.27199],[-75.48879,5.27196],[-75.48878,5.27193],[-75.48876,5.27191],[-75.48874,5.27188],[-75.48872,5.27186],[-75.48869,5.27185],[-75.48866,5.27184],[-75.48863,5.27183],[-75.4886,5.27183],[-75.48857,5.27184],[-75.48856,5.27184],[-75.48857,5.27185],[-75.48857,5.27186],[-75.48861,5.27188],[-75.48864,5.27189],[-75.48868,5.27191],[-75.48871,5.27194],[-75.48873,5.27199],[-75.4887,5.27204],[-75.48861,5.27207],[-75.48855,5.2721],[-75.48853,5.27216],[-75.48854,5.27225]]],[[[-75.4888,5.27254],[-75.48881,5.27255],[-75.48883,5.27255],[-75.48883,5.27255],[-75.48884,5.27256],[-75.48886,5.27257],[-75.48886,5.27257],[-75.48888,5.27259],[-75.48888,5.27259],[-75.48889,5.27259],[-75.48893,5.27259],[-75.48896,5.2726],[-75.48902,5.27261],[-75.48902,5.2726],[-75.48898,5.27255],[-75.48893,5.27251],[-75.48892,5.2725],[-75.48888,5.27248],[-75.48883,5.27247],[-75.48878,5.27245],[-75.4888,5.27254]]],[[[-75.48986,5.27384],[-75.48998,5.27389],[-75.48998,5.27389],[-75.49003,5.27382],[-75.49,5.27382],[-75.49,5.27382],[-75.49,5.27382],[-75.48999,5.27382],[-75.48999,5.27382],[-75.48998,5.27382],[-75.48997,5.27381],[-75.48997,5.27381],[-75.48996,5.27381],[-75.48996,5.27381],[-75.4899,5.27368],[-75.4899,5.27368],[-75.4899,5.27367],[-75.48989,5.27358],[-75.48989,5.27357],[-75.48987,5.27351],[-75.48985,5.27348],[-75.48985,5.27347],[-75.48986,5.27337],[-75.48987,5.27337],[-75.48989,5.27337],[-75.48991,5.27336],[-75.48993,5.27334],[-75.48995,5.27333],[-75.48996,5.27331],[-75.48997,5.27328],[-75.48998,5.27326],[-75.48998,5.27324],[-75.48998,5.27321],[-75.48997,5.27319],[-75.48996,5.27317],[-75.48995,5.27315],[-75.48993,5.27313],[-75.48991,5.27312],[-75.48989,5.27311],[-75.48987,5.2731],[-75.48984,5.2731],[-75.48983,5.2731],[-75.48976,5.27298],[-75.4897,5.27299],[-75.48967,5.27299],[-75.48964,5.273],[-75.48961,5.273],[-75.4896,5.27301],[-75.48956,5.27302],[-75.48953,5.27303],[-75.48953,5.27303],[-75.48953,5.27304],[-75.48954,5.27305],[-75.48954,5.27305],[-75.48955,5.27305],[-75.48956,5.27306],[-75.48957,5.27306],[-75.48961,5.27309],[-75.48962,5.2731],[-75.48963,5.27311],[-75.48964,5.27311],[-75.48964,5.27312],[-75.48964,5.27312],[-75.48965,5.27312],[-75.48966,5.27313],[-75.48967,5.27315],[-75.48967,5.27315],[-75.48968,5.27315],[-75.48969,5.27317],[-75.4897,5.27318],[-75.48971,5.2732],[-75.48971,5.27321],[-75.48972,5.27323],[-75.48973,5.27324],[-75.48973,5.27326],[-75.48974,5.27327],[-75.48974,5.27328],[-75.48975,5.27332],[-75.48975,5.27333],[-75.48975,5.27334],[-75.48976,5.27338],[-75.48976,5.27338],[-75.48976,5.27339],[-75.48976,5.2734],[-75.48976,5.27342],[-75.48976,5.27342],[-75.48976,5.27345],[-75.48977,5.27345],[-75.48979,5.27347],[-75.48979,5.27347],[-75.4898,5.27348],[-75.4898,5.27348],[-75.48982,5.2735],[-75.48982,5.2735],[-75.48984,5.27352],[-75.48984,5.27352],[-75.48984,5.27353],[-75.48984,5.27353],[-75.48985,5.27353],[-75.48987,5.27356],[-75.48988,5.27357],[-75.48988,5.27358],[-75.48988,5.27358],[-75.48983,5.27366],[-75.48983,5.27366],[-75.48989,5.27373],[-75.48986,5.27384]]],[[[-75.49024,5.27395],[-75.49021,5.27402],[-75.49023,5.27403],[-75.49026,5.27397],[-75.49028,5.27394],[-75.49031,5.27386],[-75.49031,5.27384],[-75.49034,5.27387],[-75.49036,5.27389],[-75.49038,5.27387],[-75.49036,5.27383],[-75.49038,5.27386],[-75.49041,5.2739],[-75.49039,5.2739],[-75.49041,5.27391],[-75.49042,5.27393],[-75.49043,5.27394],[-75.49045,5.27396],[-75.49045,5.27396],[-75.49048,5.274],[-75.49042,5.27385],[-75.49042,5.27385],[-75.49042,5.27384],[-75.49042,5.27384],[-75.49041,5.27382],[-75.4904,5.27381],[-75.49038,5.27379],[-75.49037,5.27378],[-75.49036,5.27377],[-75.49016,5.27384],[-75.49016,5.27384],[-75.49015,5.27384],[-75.49015,5.27384],[-75.49014,5.27384],[-75.49013,5.27383],[-75.49013,5.27383],[-75.49012,5.27383],[-75.49012,5.27383],[-75.49011,5.27383],[-75.49011,5.27383],[-75.4901,5.27383],[-75.4901,5.27383],[-75.49009,5.27382],[-75.49009,5.27382],[-75.49012,5.27384],[-75.49006,5.27389],[-75.49016,5.27399],[-75.49019,5.27396],[-75.49021,5.27393],[-75.49024,5.27395]]],[[[-75.49246,5.27419],[-75.49247,5.2742],[-75.49249,5.2742],[-75.49251,5.27421],[-75.49252,5.27421],[-75.49253,5.27421],[-75.49248,5.27418],[-75.49246,5.27419]]],[[[-75.49329,5.27446],[-75.49331,5.27458],[-75.49335,5.2744],[-75.49329,5.27446]]],[[[-75.49325,5.27471],[-75.49321,5.27473],[-75.49312,5.27473],[-75.49319,5.27477],[-75.49329,5.27468],[-75.49331,5.2746],[-75.49325,5.27471]]],[[[-75.48895,5.27513],[-75.48897,5.27514],[-75.48902,5.27517],[-75.48914,5.27521],[-75.48913,5.27521],[-75.48913,5.27522],[-75.48914,5.27523],[-75.48916,5.27524],[-75.48916,5.27525],[-75.48917,5.27522],[-75.48916,5.27522],[-75.48916,5.27521],[-75.48915,5.2752],[-75.48914,5.27519],[-75.48913,5.27519],[-75.48911,5.27517],[-75.48911,5.27517],[-75.4891,5.27517],[-75.4891,5.27516],[-75.4891,5.27516],[-75.4891,5.27515],[-75.48909,5.27514],[-75.48908,5.27514],[-75.48907,5.27513],[-75.48907,5.27512],[-75.48906,5.27512],[-75.48905,5.27511],[-75.48904,5.2751],[-75.48903,5.2751],[-75.48902,5.27509],[-75.48901,5.27509],[-75.48901,5.27508],[-75.48901,5.27508],[-75.489,5.27507],[-75.48899,5.27506],[-75.48898,5.27505],[-75.48898,5.27505],[-75.48897,5.27504],[-75.48896,5.27504],[-75.48895,5.27503],[-75.48894,5.27503],[-75.48894,5.27503],[-75.48895,5.27513]]],[[[-75.49178,5.27513],[-75.49179,5.27514],[-75.49179,5.27515],[-75.4918,5.27516],[-75.4918,5.27517],[-75.49181,5.27517],[-75.49181,5.27518],[-75.49182,5.27519],[-75.49182,5.2752],[-75.49183,5.27521],[-75.49184,5.27521],[-75.49184,5.27522],[-75.49185,5.27522],[-75.49186,5.27523],[-75.49186,5.27523],[-75.49187,5.27524],[-75.49188,5.27524],[-75.49189,5.27525],[-75.4919,5.27525],[-75.49191,5.27525],[-75.49192,5.27526],[-75.49194,5.27526],[-75.49195,5.27526],[-75.49196,5.27526],[-75.49197,5.27526],[-75.49198,5.27526],[-75.49199,5.27526],[-75.49201,5.27525],[-75.49202,5.27525],[-75.49203,5.27525],[-75.49204,5.27524],[-75.49205,5.27524],[-75.49206,5.27523],[-75.49206,5.27523],[-75.49221,5.27519],[-75.49225,5.27515],[-75.49226,5.27513],[-75.49226,5.27512],[-75.49227,5.27511],[-75.49228,5.27508],[-75.4922,5.27506],[-75.49189,5.27512],[-75.4919,5.27506],[-75.49194,5.27505],[-75.49193,5.27498],[-75.49193,5.27496],[-75.49196,5.27495],[-75.492,5.27495],[-75.492,5.27494],[-75.492,5.27494],[-75.492,5.27494],[-75.49199,5.27493],[-75.49198,5.2749],[-75.49198,5.2749],[-75.49197,5.27488],[-75.49196,5.27484],[-75.49196,5.27484],[-75.49196,5.27483],[-75.49196,5.2748],[-75.49215,5.27472],[-75.49214,5.27467],[-75.49213,5.27464],[-75.49209,5.27468],[-75.49208,5.27468],[-75.49206,5.2747],[-75.49205,5.2747],[-75.49206,5.27469],[-75.49206,5.27467],[-75.49207,5.27466],[-75.49208,5.27465],[-75.49209,5.27463],[-75.4921,5.27461],[-75.49211,5.2746],[-75.49211,5.27459],[-75.4921,5.27455],[-75.49207,5.27456],[-75.49205,5.27454],[-75.49205,5.27454],[-75.49206,5.27453],[-75.49207,5.27453],[-75.49206,5.2745],[-75.49204,5.27452],[-75.49203,5.27452],[-75.49202,5.27453],[-75.49201,5.27454],[-75.49197,5.27472],[-75.49196,5.27473],[-75.49196,5.27474],[-75.49195,5.27475],[-75.49194,5.27476],[-75.49194,5.27476],[-75.49192,5.2748],[-75.4919,5.27485],[-75.49188,5.27489],[-75.49181,5.27497],[-75.49181,5.27498],[-75.4918,5.27499],[-75.4918,5.275],[-75.49179,5.27501],[-75.49179,5.27502],[-75.49178,5.27503],[-75.49178,5.27504],[-75.49178,5.27506],[-75.49178,5.27507],[-75.49178,5.27508],[-75.49178,5.27509],[-75.49178,5.2751],[-75.49178,5.27511],[-75.49178,5.27513]]],[[[-75.49237,5.27522],[-75.4924,5.27537],[-75.49239,5.27538],[-75.49239,5.27539],[-75.49239,5.2754],[-75.49239,5.27541],[-75.4924,5.27542],[-75.4924,5.27544],[-75.4924,5.27545],[-75.4924,5.27546],[-75.49241,5.27547],[-75.49246,5.27546],[-75.49248,5.27535],[-75.49245,5.27528],[-75.4924,5.27519],[-75.49237,5.27522]]],[[[-75.49095,5.27575],[-75.49098,5.27575],[-75.49099,5.27578],[-75.49099,5.27579],[-75.49099,5.2758],[-75.49099,5.2758],[-75.49099,5.2758],[-75.49102,5.27576],[-75.49098,5.2757],[-75.49098,5.2757],[-75.49097,5.27568],[-75.49097,5.27568],[-75.49097,5.27568],[-75.49096,5.27567],[-75.49096,5.27567],[-75.49095,5.27566],[-75.49095,5.27566],[-75.49095,5.27565],[-75.49094,5.27565],[-75.49094,5.27565],[-75.49093,5.27564],[-75.49089,5.27532],[-75.49088,5.27532],[-75.49088,5.27531],[-75.49087,5.27529],[-75.49086,5.27528],[-75.49085,5.27527],[-75.49085,5.27526],[-75.49084,5.27526],[-75.49083,5.27524],[-75.49081,5.27523],[-75.4908,5.27522],[-75.49079,5.27521],[-75.49079,5.27521],[-75.49079,5.27521],[-75.4908,5.2752],[-75.49081,5.27519],[-75.49081,5.27518],[-75.49082,5.27516],[-75.49082,5.27514],[-75.49082,5.27514],[-75.49083,5.27513],[-75.49083,5.27512],[-75.49084,5.2751],[-75.49084,5.27509],[-75.49085,5.27507],[-75.49085,5.27507],[-75.49085,5.27506],[-75.49085,5.27506],[-75.49086,5.27504],[-75.49086,5.27503],[-75.49086,5.27503],[-75.49086,5.27502],[-75.49086,5.27502],[-75.49087,5.275],[-75.49087,5.27499],[-75.49087,5.27497],[-75.49088,5.27497],[-75.4909,5.27492],[-75.49091,5.27492],[-75.49092,5.2749],[-75.49092,5.27489],[-75.49093,5.27487],[-75.49093,5.27487],[-75.49094,5.27485],[-75.49094,5.27483],[-75.49095,5.27482],[-75.49095,5.27482],[-75.49095,5.2748],[-75.49095,5.27479],[-75.49096,5.27476],[-75.49096,5.27475],[-75.49096,5.27475],[-75.49096,5.27473],[-75.49096,5.27471],[-75.49096,5.27471],[-75.49096,5.27469],[-75.49096,5.27467],[-75.49096,5.27467],[-75.49096,5.27465],[-75.49096,5.27464],[-75.49096,5.27462],[-75.49095,5.2746],[-75.49095,5.27459],[-75.49081,5.27449],[-75.49081,5.27448],[-75.49081,5.27447],[-75.49081,5.27446],[-75.49081,5.27445],[-75.49081,5.27443],[-75.49081,5.27442],[-75.4908,5.27441],[-75.4908,5.2744],[-75.4908,5.2744],[-75.4908,5.27439],[-75.49079,5.27438],[-75.49079,5.27437],[-75.49078,5.27436],[-75.49078,5.27435],[-75.49077,5.27434],[-75.49077,5.27433],[-75.49077,5.27433],[-75.49076,5.27432],[-75.49075,5.27432],[-75.49074,5.27431],[-75.49073,5.2743],[-75.49073,5.2743],[-75.49073,5.2743],[-75.49071,5.27426],[-75.49071,5.27425],[-75.4907,5.27424],[-75.4907,5.27424],[-75.49067,5.2742],[-75.49067,5.27419],[-75.49066,5.27418],[-75.49066,5.27418],[-75.49064,5.27415],[-75.49064,5.27415],[-75.49063,5.27414],[-75.49062,5.27414],[-75.4906,5.27411],[-75.49059,5.27411],[-75.49058,5.2741],[-75.49058,5.2741],[-75.49057,5.27409],[-75.49056,5.27408],[-75.49055,5.27408],[-75.49055,5.27407],[-75.49054,5.27407],[-75.49054,5.27407],[-75.49054,5.27407],[-75.49053,5.27406],[-75.49051,5.27406],[-75.4905,5.27405],[-75.49049,5.27403],[-75.49049,5.27403],[-75.4905,5.27407],[-75.49051,5.27407],[-75.49052,5.27407],[-75.49053,5.27407],[-75.49053,5.27411],[-75.49053,5.27412],[-75.49055,5.27417],[-75.49059,5.27422],[-75.49057,5.27423],[-75.49057,5.27427],[-75.49059,5.27427],[-75.4906,5.27427],[-75.49061,5.2743],[-75.49065,5.2743],[-75.49066,5.27439],[-75.49068,5.2745],[-75.49069,5.27454],[-75.49069,5.27456],[-75.49068,5.27457],[-75.49067,5.2746],[-75.49067,5.27461],[-75.49068,5.27461],[-75.49069,5.27463],[-75.49067,5.27464],[-75.49067,5.27468],[-75.49069,5.27469],[-75.4907,5.27469],[-75.49071,5.27471],[-75.49072,5.27471],[-75.49072,5.27469],[-75.49074,5.27469],[-75.49075,5.27469],[-75.49075,5.27469],[-75.4908,5.27469],[-75.4908,5.27468],[-75.49084,5.27468],[-75.49084,5.27469],[-75.49083,5.2747],[-75.49083,5.27471],[-75.49083,5.27472],[-75.49084,5.27472],[-75.49084,5.27472],[-75.49084,5.27477],[-75.49084,5.27477],[-75.49086,5.27476],[-75.49088,5.27476],[-75.4909,5.27477],[-75.49091,5.27477],[-75.49093,5.27478],[-75.49094,5.2748],[-75.49093,5.27481],[-75.49091,5.27482],[-75.4909,5.27484],[-75.49088,5.27485],[-75.49088,5.27487],[-75.49087,5.27488],[-75.49087,5.2749],[-75.49086,5.27492],[-75.49085,5.27493],[-75.49084,5.27495],[-75.49083,5.27496],[-75.49082,5.27497],[-75.4908,5.27508],[-75.49079,5.27511],[-75.49078,5.27513],[-75.49074,5.27523],[-75.49075,5.27527],[-75.49075,5.27528],[-75.49072,5.27527],[-75.49072,5.27533],[-75.49077,5.27534],[-75.49077,5.27534],[-75.49076,5.27534],[-75.49076,5.27535],[-75.49073,5.27535],[-75.49073,5.27541],[-75.49072,5.27541],[-75.49073,5.27547],[-75.49074,5.27547],[-75.49074,5.27549],[-75.49074,5.27551],[-75.49076,5.27555],[-75.49077,5.27555],[-75.49076,5.27556],[-75.49078,5.27561],[-75.49079,5.27561],[-75.49079,5.27562],[-75.4908,5.27563],[-75.49081,5.27567],[-75.49083,5.27566],[-75.49088,5.27565],[-75.49095,5.27575]]],[[[-75.49089,5.276],[-75.49094,5.27591],[-75.49096,5.27586],[-75.49095,5.27585],[-75.49089,5.276]]],[[[-75.49079,5.27591],[-75.49081,5.27594],[-75.49081,5.27595],[-75.49082,5.27596],[-75.49083,5.27596],[-75.49083,5.27597],[-75.49087,5.27601],[-75.49087,5.27601],[-75.49088,5.27597],[-75.49089,5.27597],[-75.4909,5.27594],[-75.49089,5.27593],[-75.4909,5.27591],[-75.49077,5.27587],[-75.49077,5.27589],[-75.49076,5.27589],[-75.49072,5.27587],[-75.49065,5.27585],[-75.49063,5.27589],[-75.49079,5.27591]]],[[[-75.49087,5.27602],[-75.49088,5.27602],[-75.49089,5.27601],[-75.49087,5.27602]]],[[[-75.48942,5.27621],[-75.48942,5.27622],[-75.48943,5.27623],[-75.48943,5.27624],[-75.48944,5.27624],[-75.48944,5.27625],[-75.48945,5.27626],[-75.48946,5.27627],[-75.48947,5.27628],[-75.48948,5.27629],[-75.48949,5.2763],[-75.48956,5.27637],[-75.48956,5.27637],[-75.48957,5.27642],[-75.4896,5.27641],[-75.4896,5.27641],[-75.48962,5.27641],[-75.48963,5.2764],[-75.48964,5.2764],[-75.48965,5.27639],[-75.48966,5.27638],[-75.48967,5.27638],[-75.48968,5.27637],[-75.48968,5.27637],[-75.48966,5.27632],[-75.48967,5.2763],[-75.48968,5.27628],[-75.48969,5.27626],[-75.48969,5.27623],[-75.48969,5.27621],[-75.48968,5.27619],[-75.48967,5.27617],[-75.48966,5.27615],[-75.48964,5.27613],[-75.48962,5.27612],[-75.4896,5.27611],[-75.4896,5.27611],[-75.48959,5.27601],[-75.48958,5.276],[-75.48957,5.27599],[-75.48957,5.27599],[-75.48956,5.27599],[-75.48955,5.27598],[-75.48954,5.27597],[-75.48954,5.27597],[-75.48954,5.27596],[-75.48954,5.27596],[-75.48954,5.27595],[-75.48953,5.27594],[-75.48953,5.27594],[-75.48952,5.27556],[-75.48952,5.27556],[-75.48952,5.27556],[-75.48951,5.27554],[-75.48951,5.27554],[-75.4895,5.27553],[-75.4895,5.27551],[-75.48949,5.2755],[-75.48949,5.2755],[-75.4893,5.27553],[-75.4893,5.27553],[-75.4893,5.27553],[-75.48929,5.27552],[-75.48929,5.27552],[-75.48928,5.27551],[-75.4893,5.27559],[-75.4893,5.27561],[-75.4893,5.27561],[-75.4893,5.27563],[-75.4893,5.27565],[-75.4893,5.27565],[-75.4893,5.27567],[-75.48929,5.27569],[-75.48928,5.27569],[-75.48928,5.2757],[-75.48927,5.27571],[-75.4893,5.27573],[-75.48929,5.27577],[-75.48929,5.27578],[-75.4893,5.27578],[-75.48938,5.27577],[-75.48938,5.2758],[-75.48938,5.2758],[-75.4894,5.27586],[-75.4894,5.27586],[-75.48938,5.27586],[-75.48936,5.27587],[-75.48929,5.2759],[-75.48926,5.27591],[-75.48927,5.27593],[-75.48927,5.27595],[-75.48928,5.27598],[-75.48929,5.27602],[-75.4893,5.27606],[-75.4893,5.27606],[-75.48931,5.27609],[-75.48931,5.2761],[-75.48932,5.27612],[-75.48934,5.27613],[-75.48935,5.27614],[-75.48936,5.27616],[-75.48939,5.27617],[-75.48939,5.27617],[-75.48942,5.27619],[-75.48941,5.27619],[-75.48942,5.27621],[-75.48942,5.27621],[-75.48942,5.27621]]]]},"properties":{"FID":0,"OBJECTID":1,"AREA_ha":2.34818938058,"nom":"Fajas de protección de cauces urbanos","RuleID":1,"Shape_Leng":4541.99718305,"Shape_Area":23481.8938058}}]}