{"type":"FeatureCollection","name":"_1_Bosques_Naturales_Urbanos","crs":{"type":"name","properties":{"name":"urn:ogc:def:crs:OGC:1.3:CRS84"}},"features":[{"type":"Feature","id":0,"geometry":{"type":"MultiPolygon","coordinates":[[[[-75.49211,5.267],[-75.49216,5.267],[-75.49216,5.26699],[-75.49211,5.267]]],[[[-75.49209,5.26699],[-75.49209,5.267],[-75.4921,5.267],[-75.49209,5.26697],[-75.49209,5.26699]]],[[[-75.48983,5.26667],[-75.48982,5.26668],[-75.48981,5.2667],[-75.4898,5.26671],[-75.48979,5.26672],[-75.48977,5.26673],[-75.48976,5.26674],[-75.48976,5.26674],[-75.48976,5.26675],[-75.48976,5.26675],[-75.48975,5.26675],[-75.48975,5.26677],[-75.48975,5.26678],[-75.48975,5.2668],[-75.48975,5.26681],[-75.48974,5.26682],[-75.48974,5.26682],[-75.48974,5.26682],[-75.48975,5.26683],[-75.48975,5.26684],[-75.48975,5.26686],[-75.48975,5.26687],[-75.48975,5.26688],[-75.48975,5.26689],[-75.48975,5.2669],[-75.48975,5.26692],[-75.48974,5.26694],[-75.48974,5.26695],[-75.48974,5.26698],[-75.48973,5.26698],[-75.48973,5.267],[-75.48973,5.267],[-75.48972,5.26702],[-75.48972,5.26703],[-75.48971,5.26704],[-75.4897,5.26706],[-75.4897,5.26707],[-75.48969,5.26708],[-75.48968,5.2671],[-75.48966,5.26711],[-75.48966,5.26712],[-75.48966,5.26712],[-75.48978,5.26725],[-75.48978,5.26725],[-75.48978,5.26725],[-75.48978,5.26724],[-75.48975,5.26721],[-75.48974,5.26718],[-75.48976,5.26714],[-75.48976,5.26711],[-75.48974,5.26708],[-75.48974,5.26704],[-75.48975,5.26701],[-75.48976,5.26697],[-75.48976,5.26693],[-75.48977,5.2669],[-75.48978,5.26686],[-75.48979,5.26683],[-75.4898,5.2668],[-75.48982,5.26676],[-75.48984,5.26673],[-75.48985,5.2667],[-75.48985,5.26668],[-75.48984,5.26666],[-75.48983,5.26667]]],[[[-75.49261,5.26769],[-75.49262,5.26768],[-75.49263,5.26767],[-75.49264,5.26765],[-75.49263,5.26764],[-75.49261,5.26769]]],[[[-75.49233,5.26798],[-75.49233,5.26798],[-75.49233,5.26798],[-75.49236,5.26796],[-75.49233,5.26798]]],[[[-75.49511,5.26836],[-75.49511,5.26838],[-75.49512,5.26839],[-75.49513,5.26838],[-75.49513,5.26836],[-75.49514,5.26835],[-75.49515,5.26835],[-75.49515,5.26836],[-75.49515,5.26834],[-75.49516,5.26833],[-75.49517,5.26831],[-75.49516,5.26831],[-75.49516,5.26833],[-75.49515,5.26833],[-75.49511,5.26832],[-75.49511,5.26833],[-75.49511,5.26834],[-75.49511,5.26836]]],[[[-75.49278,5.26859],[-75.49278,5.2686],[-75.49279,5.2686],[-75.49279,5.2686],[-75.49279,5.26859],[-75.49278,5.26859],[-75.49278,5.26859],[-75.49278,5.26859]]],[[[-75.48873,5.26933],[-75.48873,5.26933],[-75.48873,5.26932],[-75.48873,5.26933]]],[[[-75.48988,5.26939],[-75.4899,5.26939],[-75.48992,5.26939],[-75.48994,5.26939],[-75.48996,5.26939],[-75.48998,5.26938],[-75.48999,5.26937],[-75.49,5.26937],[-75.49002,5.26936],[-75.49002,5.26935],[-75.49001,5.26934],[-75.49001,5.26932],[-75.49001,5.26931],[-75.49004,5.26929],[-75.49005,5.26927],[-75.49005,5.26926],[-75.49002,5.26926],[-75.49002,5.26927],[-75.48996,5.26927],[-75.48994,5.26936],[-75.48989,5.26935],[-75.48988,5.26936],[-75.48988,5.26937],[-75.48988,5.26939]]],[[[-75.4896,5.26938],[-75.48962,5.26939],[-75.48963,5.2694],[-75.48966,5.2694],[-75.48967,5.26939],[-75.48969,5.26938],[-75.48971,5.26937],[-75.48972,5.26936],[-75.48974,5.26936],[-75.48975,5.26935],[-75.4897,5.26935],[-75.48961,5.26937],[-75.48958,5.26938],[-75.48959,5.26938],[-75.4896,5.26938]]],[[[-75.49451,5.26911],[-75.49448,5.26913],[-75.49447,5.26914],[-75.49446,5.26916],[-75.49446,5.26919],[-75.4944,5.26922],[-75.49441,5.26925],[-75.49443,5.26931],[-75.49444,5.26935],[-75.49444,5.26935],[-75.49445,5.26935],[-75.49446,5.26937],[-75.49447,5.26938],[-75.49447,5.2694],[-75.49448,5.26942],[-75.49458,5.26934],[-75.49457,5.26933],[-75.49455,5.26932],[-75.49454,5.2693],[-75.49455,5.26928],[-75.49456,5.26927],[-75.49456,5.26925],[-75.49456,5.26923],[-75.49455,5.26922],[-75.49454,5.26921],[-75.49455,5.2692],[-75.49455,5.26918],[-75.49454,5.26918],[-75.49454,5.26918],[-75.49454,5.26915],[-75.49453,5.26915],[-75.49453,5.26912],[-75.49453,5.26911],[-75.49452,5.26911],[-75.49451,5.26911]]],[[[-75.48727,5.26955],[-75.48729,5.26951],[-75.48728,5.2695],[-75.48728,5.26948],[-75.48728,5.26946],[-75.48727,5.26945],[-75.48726,5.26945],[-75.48724,5.26944],[-75.48722,5.26944],[-75.4872,5.26944],[-75.48719,5.26945],[-75.48717,5.26944],[-75.48716,5.26944],[-75.48727,5.26955]]],[[[-75.48727,5.26955],[-75.48731,5.26957],[-75.48731,5.26957],[-75.48727,5.26955],[-75.48727,5.26955]]],[[[-75.48909,5.26957],[-75.48911,5.26957],[-75.48911,5.26959],[-75.48913,5.26959],[-75.48913,5.26956],[-75.48917,5.26956],[-75.48918,5.26956],[-75.48919,5.26955],[-75.4892,5.26954],[-75.48921,5.26952],[-75.48923,5.26951],[-75.48926,5.26951],[-75.48927,5.2695],[-75.4893,5.26949],[-75.48933,5.26948],[-75.48935,5.26947],[-75.4894,5.26947],[-75.48944,5.26945],[-75.48946,5.26944],[-75.48948,5.26942],[-75.4895,5.26941],[-75.48951,5.2694],[-75.48952,5.2694],[-75.48953,5.26939],[-75.48955,5.26938],[-75.48956,5.26938],[-75.48955,5.26938],[-75.48947,5.2694],[-75.48944,5.2694],[-75.48942,5.2694],[-75.48937,5.26939],[-75.48926,5.26937],[-75.48925,5.26937],[-75.48921,5.26937],[-75.48918,5.26937],[-75.48916,5.26937],[-75.48912,5.26936],[-75.48908,5.26936],[-75.48899,5.26933],[-75.48893,5.26931],[-75.48887,5.26947],[-75.48887,5.26946],[-75.48884,5.26944],[-75.48882,5.26943],[-75.48883,5.26941],[-75.48878,5.26938],[-75.48883,5.26941],[-75.48881,5.26944],[-75.48885,5.26945],[-75.48883,5.26949],[-75.48887,5.26951],[-75.48888,5.26949],[-75.48889,5.2695],[-75.48889,5.26949],[-75.48891,5.2695],[-75.48891,5.26952],[-75.48894,5.26954],[-75.48896,5.2695],[-75.48901,5.26952],[-75.48902,5.2695],[-75.48907,5.26952],[-75.48907,5.26952],[-75.4891,5.26953],[-75.48909,5.26957]]],[[[-75.48733,5.2696],[-75.48734,5.26961],[-75.48735,5.26959],[-75.48733,5.26958],[-75.48733,5.2696]]],[[[-75.48767,5.26965],[-75.48768,5.26966],[-75.48769,5.26968],[-75.48771,5.26968],[-75.48773,5.26969],[-75.48775,5.26969],[-75.48776,5.26969],[-75.48778,5.26968],[-75.48779,5.26966],[-75.48777,5.26965],[-75.48773,5.26961],[-75.48769,5.26956],[-75.48766,5.26952],[-75.48761,5.26946],[-75.48759,5.26942],[-75.48757,5.26937],[-75.48755,5.26932],[-75.48752,5.26925],[-75.48751,5.26925],[-75.4875,5.26925],[-75.48748,5.26924],[-75.48745,5.26924],[-75.48742,5.26924],[-75.48739,5.26924],[-75.48737,5.26925],[-75.48735,5.26925],[-75.48732,5.26926],[-75.48729,5.26927],[-75.48729,5.26928],[-75.48726,5.26929],[-75.48724,5.2693],[-75.48723,5.2693],[-75.48722,5.26931],[-75.48721,5.26932],[-75.48721,5.26932],[-75.48721,5.26932],[-75.4872,5.26933],[-75.48718,5.26934],[-75.48718,5.26935],[-75.48715,5.26936],[-75.48714,5.26937],[-75.48713,5.26938],[-75.48712,5.26938],[-75.48711,5.26938],[-75.48711,5.26938],[-75.48713,5.2694],[-75.48713,5.2694],[-75.48714,5.26939],[-75.48716,5.2694],[-75.48717,5.26941],[-75.48719,5.26942],[-75.4872,5.26943],[-75.48722,5.26943],[-75.48724,5.26943],[-75.48725,5.26942],[-75.48727,5.2694],[-75.48729,5.2694],[-75.48731,5.2694],[-75.48732,5.2694],[-75.48734,5.26941],[-75.48736,5.2694],[-75.48737,5.26939],[-75.48738,5.26937],[-75.48739,5.26936],[-75.4874,5.26934],[-75.48741,5.26933],[-75.48743,5.26931],[-75.48744,5.2693],[-75.48746,5.2693],[-75.48747,5.26931],[-75.48748,5.26933],[-75.48747,5.26935],[-75.48748,5.26937],[-75.48748,5.26939],[-75.48748,5.2694],[-75.48748,5.26942],[-75.48748,5.26944],[-75.48749,5.26946],[-75.48749,5.26948],[-75.48751,5.26949],[-75.48752,5.26949],[-75.48754,5.26949],[-75.48756,5.2695],[-75.48758,5.26951],[-75.48759,5.26952],[-75.4876,5.26953],[-75.48762,5.26955],[-75.48763,5.26956],[-75.48763,5.26958],[-75.48763,5.2696],[-75.48762,5.26961],[-75.48762,5.26963],[-75.48764,5.26963],[-75.48766,5.26963],[-75.48767,5.26965]]],[[[-75.49292,5.27],[-75.49294,5.27001],[-75.49295,5.27001],[-75.49297,5.27],[-75.49298,5.26998],[-75.49298,5.26996],[-75.49299,5.26995],[-75.49302,5.26994],[-75.49302,5.26984],[-75.49302,5.26979],[-75.49313,5.2698],[-75.49313,5.2698],[-75.49315,5.2698],[-75.49315,5.26977],[-75.49315,5.26972],[-75.49316,5.26968],[-75.49316,5.26963],[-75.49316,5.26959],[-75.49315,5.26956],[-75.49315,5.26955],[-75.49314,5.26953],[-75.49314,5.26951],[-75.49312,5.26949],[-75.4931,5.26946],[-75.49306,5.26942],[-75.493,5.26936],[-75.49288,5.26928],[-75.49285,5.26925],[-75.49285,5.26928],[-75.49284,5.26929],[-75.49283,5.2693],[-75.49281,5.26931],[-75.4928,5.26932],[-75.49279,5.26934],[-75.4928,5.26934],[-75.49281,5.26935],[-75.49282,5.26936],[-75.49282,5.26938],[-75.49281,5.26939],[-75.49279,5.26938],[-75.49278,5.26938],[-75.49276,5.26939],[-75.49274,5.26939],[-75.49273,5.26939],[-75.49272,5.26939],[-75.49271,5.26939],[-75.4927,5.26942],[-75.49276,5.26944],[-75.49276,5.26945],[-75.49283,5.26946],[-75.49283,5.26949],[-75.49279,5.26949],[-75.49279,5.2695],[-75.49278,5.2695],[-75.49278,5.26953],[-75.49281,5.26954],[-75.49281,5.26959],[-75.4928,5.26959],[-75.49279,5.26964],[-75.49276,5.26963],[-75.49275,5.26964],[-75.49276,5.26964],[-75.49276,5.26967],[-75.49275,5.26972],[-75.49273,5.26976],[-75.49272,5.26975],[-75.49272,5.26977],[-75.49272,5.26977],[-75.49272,5.26981],[-75.4927,5.26981],[-75.4927,5.26984],[-75.49269,5.26984],[-75.49269,5.26989],[-75.49272,5.26989],[-75.49274,5.26988],[-75.49274,5.26988],[-75.49275,5.26989],[-75.49277,5.2699],[-75.49278,5.2699],[-75.49279,5.2699],[-75.49281,5.2699],[-75.49282,5.2699],[-75.49283,5.2699],[-75.49283,5.26991],[-75.49283,5.26992],[-75.49284,5.26994],[-75.49285,5.26994],[-75.49285,5.26995],[-75.49286,5.26996],[-75.49286,5.26998],[-75.49286,5.26999],[-75.49288,5.27],[-75.49289,5.27],[-75.49291,5.27],[-75.49292,5.27]]],[[[-75.49378,5.27012],[-75.49379,5.27014],[-75.49381,5.27015],[-75.49382,5.27014],[-75.49382,5.27011],[-75.49382,5.2701],[-75.49382,5.27008],[-75.49382,5.27007],[-75.49383,5.27005],[-75.49383,5.27003],[-75.49384,5.27002],[-75.49386,5.27001],[-75.49386,5.26998],[-75.49385,5.26998],[-75.49385,5.26997],[-75.49385,5.26998],[-75.49385,5.26996],[-75.49385,5.26996],[-75.49385,5.26993],[-75.49383,5.26988],[-75.49383,5.26986],[-75.49382,5.26986],[-75.4938,5.26987],[-75.49378,5.26987],[-75.49377,5.26989],[-75.49376,5.2699],[-75.49376,5.26992],[-75.49375,5.26993],[-75.49374,5.26992],[-75.49373,5.2699],[-75.49371,5.26989],[-75.4937,5.26988],[-75.49369,5.26986],[-75.49368,5.26985],[-75.49367,5.26983],[-75.49367,5.26981],[-75.49367,5.26979],[-75.49366,5.26978],[-75.49365,5.26977],[-75.49363,5.26976],[-75.49361,5.26976],[-75.49359,5.26975],[-75.49358,5.26973],[-75.49357,5.26971],[-75.49356,5.2697],[-75.49358,5.26969],[-75.4936,5.26968],[-75.49363,5.26967],[-75.49365,5.26966],[-75.49367,5.26964],[-75.49369,5.26961],[-75.4937,5.26959],[-75.49372,5.26958],[-75.49372,5.26956],[-75.49374,5.26955],[-75.49375,5.26954],[-75.49377,5.26953],[-75.49378,5.26951],[-75.49379,5.2695],[-75.49379,5.26948],[-75.49379,5.26946],[-75.49379,5.26944],[-75.49379,5.26942],[-75.49378,5.26941],[-75.49377,5.26939],[-75.49377,5.26937],[-75.49376,5.26935],[-75.49376,5.26935],[-75.49375,5.26935],[-75.49375,5.26933],[-75.49375,5.26931],[-75.49374,5.26929],[-75.49374,5.26927],[-75.49375,5.26925],[-75.4936,5.26928],[-75.4936,5.26929],[-75.49361,5.26931],[-75.49362,5.26932],[-75.49363,5.26934],[-75.49363,5.26935],[-75.49363,5.26937],[-75.49362,5.26939],[-75.4936,5.2694],[-75.49359,5.26942],[-75.49359,5.26943],[-75.49359,5.26945],[-75.49359,5.26947],[-75.49359,5.26949],[-75.4936,5.2695],[-75.49362,5.26952],[-75.49363,5.26952],[-75.49365,5.26953],[-75.49367,5.26953],[-75.49368,5.26955],[-75.49367,5.26957],[-75.49367,5.26959],[-75.49366,5.2696],[-75.49362,5.26961],[-75.49359,5.26962],[-75.49357,5.26962],[-75.49356,5.26961],[-75.49354,5.26961],[-75.49352,5.26961],[-75.49351,5.26962],[-75.4935,5.26963],[-75.49348,5.26965],[-75.49347,5.26966],[-75.49345,5.26967],[-75.49344,5.26968],[-75.49341,5.26968],[-75.49339,5.26966],[-75.49338,5.26966],[-75.49336,5.26966],[-75.49334,5.26966],[-75.49334,5.26968],[-75.49334,5.26969],[-75.49333,5.2697],[-75.49333,5.26972],[-75.49334,5.26975],[-75.49336,5.2698],[-75.49337,5.26984],[-75.49338,5.26986],[-75.49339,5.26991],[-75.4934,5.26995],[-75.4934,5.26996],[-75.49347,5.26996],[-75.49346,5.26996],[-75.49348,5.26996],[-75.49349,5.27002],[-75.49352,5.27002],[-75.49352,5.27],[-75.49359,5.27],[-75.49359,5.27002],[-75.4936,5.27002],[-75.4936,5.27005],[-75.49359,5.27005],[-75.49359,5.2701],[-75.49359,5.27013],[-75.49361,5.27012],[-75.49362,5.27011],[-75.49363,5.27011],[-75.49365,5.2701],[-75.49368,5.27011],[-75.49369,5.27011],[-75.4937,5.27013],[-75.49371,5.27013],[-75.49372,5.27014],[-75.49373,5.27013],[-75.49375,5.27012],[-75.49376,5.27012],[-75.49378,5.27012]]],[[[-75.48813,5.2704],[-75.48813,5.27042],[-75.48813,5.27043],[-75.48813,5.27044],[-75.48813,5.27046],[-75.48812,5.27047],[-75.48813,5.27047],[-75.48814,5.27045],[-75.48814,5.27043],[-75.48814,5.27042],[-75.48814,5.2704],[-75.48814,5.27039],[-75.48813,5.27037],[-75.48813,5.27037],[-75.48813,5.2704]]],[[[-75.48853,5.27178],[-75.48851,5.27178],[-75.48851,5.27179],[-75.48852,5.27179],[-75.48854,5.27179],[-75.48856,5.27179],[-75.48856,5.27177],[-75.48856,5.27177],[-75.48853,5.27178]]],[[[-75.49308,5.27214],[-75.49303,5.27219],[-75.4931,5.27213],[-75.4931,5.27213],[-75.49308,5.27214]]],[[[-75.49205,5.27189],[-75.49204,5.2719],[-75.49205,5.27191],[-75.49203,5.27192],[-75.49204,5.27194],[-75.49204,5.27197],[-75.49204,5.27199],[-75.49203,5.27201],[-75.492,5.27203],[-75.49199,5.27205],[-75.49197,5.27207],[-75.49196,5.27208],[-75.49195,5.2721],[-75.49195,5.27211],[-75.49196,5.27213],[-75.49196,5.27214],[-75.49197,5.27214],[-75.49198,5.27215],[-75.49199,5.27216],[-75.492,5.27216],[-75.49212,5.27222],[-75.49214,5.27218],[-75.49216,5.27214],[-75.49219,5.27209],[-75.4922,5.27207],[-75.49222,5.27206],[-75.49223,5.27205],[-75.49225,5.27204],[-75.49227,5.27203],[-75.49228,5.27202],[-75.4923,5.27201],[-75.49231,5.27199],[-75.49232,5.27197],[-75.49232,5.27195],[-75.49232,5.27189],[-75.49232,5.27185],[-75.49233,5.27179],[-75.49233,5.27179],[-75.49232,5.27179],[-75.49232,5.2718],[-75.49229,5.27179],[-75.49229,5.2718],[-75.49224,5.27178],[-75.49223,5.27182],[-75.49222,5.27182],[-75.49222,5.27184],[-75.49222,5.27186],[-75.49219,5.27185],[-75.49219,5.27185],[-75.49218,5.27184],[-75.49218,5.27184],[-75.49217,5.27184],[-75.49216,5.27184],[-75.49216,5.27183],[-75.49215,5.27183],[-75.49215,5.27182],[-75.49214,5.27181],[-75.49213,5.27182],[-75.49213,5.27182],[-75.49212,5.27184],[-75.49208,5.27182],[-75.49205,5.27189]]],[[[-75.49169,5.27235],[-75.49171,5.27236],[-75.49172,5.27236],[-75.49172,5.27234],[-75.49173,5.27232],[-75.49174,5.27231],[-75.49175,5.27231],[-75.49177,5.27231],[-75.49181,5.27232],[-75.49183,5.27233],[-75.49186,5.27234],[-75.49186,5.27232],[-75.49192,5.2722],[-75.49191,5.27218],[-75.49191,5.27217],[-75.49192,5.27216],[-75.49191,5.27215],[-75.4919,5.27214],[-75.49188,5.27212],[-75.49186,5.27211],[-75.49185,5.27211],[-75.49183,5.2721],[-75.49182,5.27211],[-75.4918,5.27211],[-75.49179,5.27213],[-75.49178,5.27212],[-75.49176,5.27215],[-75.49175,5.27214],[-75.49172,5.27219],[-75.49171,5.27219],[-75.49171,5.27219],[-75.49166,5.27216],[-75.49166,5.27217],[-75.49165,5.27217],[-75.49164,5.2722],[-75.49165,5.27221],[-75.49165,5.27221],[-75.49165,5.27222],[-75.49164,5.27223],[-75.49164,5.27224],[-75.49162,5.27229],[-75.49161,5.27228],[-75.4916,5.27229],[-75.49161,5.2723],[-75.49161,5.27231],[-75.49162,5.27232],[-75.49163,5.27234],[-75.49165,5.27234],[-75.49166,5.27235],[-75.49168,5.27234],[-75.49169,5.27235]]],[[[-75.48985,5.27348],[-75.48987,5.27351],[-75.48989,5.27357],[-75.48991,5.27354],[-75.4899,5.27353],[-75.48991,5.27352],[-75.48988,5.27349],[-75.48985,5.27347],[-75.48985,5.27347],[-75.48985,5.27348]]],[[[-75.49213,5.27369],[-75.49211,5.2737],[-75.4921,5.27372],[-75.49208,5.27373],[-75.49207,5.27374],[-75.49205,5.27375],[-75.49207,5.27374],[-75.4921,5.27373],[-75.49212,5.2737],[-75.49214,5.27369],[-75.49213,5.27369]]],[[[-75.492,5.27384],[-75.49199,5.27386],[-75.492,5.27387],[-75.492,5.27385],[-75.492,5.27384],[-75.492,5.27384],[-75.492,5.27384]]],[[[-75.49208,5.27443],[-75.49207,5.27444],[-75.49207,5.27446],[-75.49207,5.27446],[-75.49208,5.27446],[-75.49209,5.27444],[-75.49209,5.27444],[-75.49208,5.27443],[-75.49208,5.27443]]],[[[-75.49335,5.27439],[-75.49338,5.27428],[-75.49336,5.27428],[-75.49332,5.27428],[-75.49331,5.2743],[-75.4933,5.2743],[-75.49328,5.27432],[-75.49327,5.27433],[-75.49325,5.27433],[-75.49323,5.27434],[-75.49322,5.27435],[-75.49321,5.27436],[-75.49321,5.27438],[-75.49321,5.2744],[-75.49321,5.27442],[-75.49322,5.27443],[-75.49324,5.27445],[-75.49325,5.27446],[-75.49326,5.27447],[-75.49329,5.27446],[-75.49335,5.2744],[-75.49335,5.27439],[-75.49335,5.27439]]],[[[-75.49173,5.27519],[-75.49174,5.2752],[-75.49174,5.27521],[-75.49175,5.27521],[-75.49178,5.27521],[-75.4918,5.27522],[-75.49186,5.27523],[-75.49186,5.27523],[-75.49185,5.27522],[-75.49184,5.27522],[-75.49184,5.27521],[-75.49183,5.27521],[-75.49182,5.2752],[-75.49182,5.27519],[-75.49181,5.27518],[-75.49181,5.27517],[-75.49178,5.27517],[-75.49173,5.27519]]],[[[-75.49099,5.2758],[-75.491,5.27586],[-75.491,5.27586],[-75.491,5.27586],[-75.49099,5.27586],[-75.49098,5.27586],[-75.49098,5.27586],[-75.49099,5.27586],[-75.491,5.27586],[-75.49101,5.27586],[-75.49101,5.27585],[-75.491,5.27583],[-75.491,5.2758],[-75.49099,5.2758],[-75.49099,5.2758]]],[[[-75.49094,5.27591],[-75.49095,5.27592],[-75.49097,5.27591],[-75.49098,5.2759],[-75.49098,5.2759],[-75.49098,5.2759],[-75.49099,5.27588],[-75.49098,5.27587],[-75.49098,5.27588],[-75.49098,5.2759],[-75.49096,5.27586],[-75.49094,5.27591]]],[[[-75.49037,5.27594],[-75.49039,5.27595],[-75.49039,5.27594],[-75.49034,5.27592],[-75.49031,5.27589],[-75.49037,5.27594]]],[[[-75.49094,5.27612],[-75.49097,5.27612],[-75.49105,5.27615],[-75.49117,5.27619],[-75.49115,5.27618],[-75.49113,5.27617],[-75.4911,5.27615],[-75.49106,5.27614],[-75.49104,5.27613],[-75.49102,5.27612],[-75.491,5.27612],[-75.49098,5.27611],[-75.49097,5.2761],[-75.49096,5.2761],[-75.49094,5.2761],[-75.49093,5.2761],[-75.49092,5.27609],[-75.49091,5.27609],[-75.49088,5.2761],[-75.49084,5.2761],[-75.49082,5.2761],[-75.49078,5.27609],[-75.49077,5.27609],[-75.49081,5.2761],[-75.49088,5.27611],[-75.49094,5.27612]]],[[[-75.49117,5.27619],[-75.4912,5.27627],[-75.4912,5.27626],[-75.4912,5.27623],[-75.49119,5.27622],[-75.49118,5.27621],[-75.49117,5.27619],[-75.49117,5.27619],[-75.49117,5.27619]]],[[[-75.49121,5.27631],[-75.49122,5.27631],[-75.49125,5.27631],[-75.49121,5.2763],[-75.4912,5.2763],[-75.49121,5.27631]]],[[[-75.49135,5.27628],[-75.49135,5.27632],[-75.49133,5.27633],[-75.49135,5.27633],[-75.49135,5.27628],[-75.49135,5.27626],[-75.49135,5.27628]]],[[[-75.48934,5.27659],[-75.48932,5.27659],[-75.4893,5.27659],[-75.48928,5.2766],[-75.48926,5.2766],[-75.48928,5.27661],[-75.48951,5.27664],[-75.48952,5.27664],[-75.48954,5.27661],[-75.48952,5.27661],[-75.48942,5.27659],[-75.48941,5.27659],[-75.48938,5.27659],[-75.48936,5.27658],[-75.48934,5.27659]]]]},"properties":{"FID":0,"OBJECTID_1":2,"NOM_CEBERT":"Bosque Natural Urbano","AREA_ha":1.02192586564,"RuleID":1,"Shape_Leng":2345.05470894,"Shape_Area":10219.2586564}}]}