{"type":"FeatureCollection","name":"Abacos_Corpocaldas","crs":{"type":"name","properties":{"name":"urn:ogc:def:crs:OGC:1.3:CRS84"}},"features":[{"type":"Feature","id":0,"geometry":{"type":"Polygon","coordinates":[[[-75.46501,5.25121],[-75.46502,5.25121],[-75.46504,5.25124],[-75.46506,5.25128],[-75.46507,5.25132],[-75.46511,5.25134],[-75.46512,5.25136],[-75.46514,5.25141],[-75.46513,5.25142],[-75.46516,5.25142],[-75.46524,5.25136],[-75.46528,5.25128],[-75.46533,5.25119],[-75.46535,5.2511],[-75.46537,5.251],[-75.46538,5.2509],[-75.46542,5.25082],[-75.46546,5.25073],[-75.46552,5.25064],[-75.46557,5.25055],[-75.46562,5.25047],[-75.46564,5.25037],[-75.46566,5.25027],[-75.46566,5.25017],[-75.4657,5.25008],[-75.46571,5.24998],[-75.4657,5.24992],[-75.46569,5.24988],[-75.46569,5.24985],[-75.46571,5.24976],[-75.4657,5.24973],[-75.46568,5.24969],[-75.46566,5.24967],[-75.46562,5.24962],[-75.46561,5.24962],[-75.46554,5.24958],[-75.46548,5.24956],[-75.46544,5.24955],[-75.46544,5.24955],[-75.46542,5.24955],[-75.46537,5.24955],[-75.46534,5.24955],[-75.46529,5.24955],[-75.46524,5.24956],[-75.46518,5.24958],[-75.46513,5.24961],[-75.46507,5.24965],[-75.46506,5.24965],[-75.46503,5.24969],[-75.46499,5.24974],[-75.46496,5.24979],[-75.46492,5.24982],[-75.46492,5.24986],[-75.46486,5.24994],[-75.46478,5.25001],[-75.46471,5.25008],[-75.46463,5.25012],[-75.46457,5.25018],[-75.46457,5.25018],[-75.46456,5.25019],[-75.46455,5.2502],[-75.46449,5.25026],[-75.46442,5.25033],[-75.4644,5.25035],[-75.46437,5.25038],[-75.46436,5.25039],[-75.46435,5.2504],[-75.46427,5.25046],[-75.46418,5.2505],[-75.4641,5.25055],[-75.46403,5.25062],[-75.46395,5.25069],[-75.46385,5.25069],[-75.46375,5.2507],[-75.46366,5.25072],[-75.46363,5.25074],[-75.46366,5.25075],[-75.46371,5.25076],[-75.46377,5.25077],[-75.4638,5.25078],[-75.46383,5.2508],[-75.46384,5.25082],[-75.46388,5.25086],[-75.4639,5.25087],[-75.46398,5.2509],[-75.46404,5.25093],[-75.4641,5.25095],[-75.46419,5.25098],[-75.46428,5.25101],[-75.46432,5.25104],[-75.46435,5.25105],[-75.46439,5.25107],[-75.46445,5.25109],[-75.46452,5.25111],[-75.46452,5.25111],[-75.46453,5.25111],[-75.46453,5.25111],[-75.46458,5.25111],[-75.46463,5.25112],[-75.46469,5.25114],[-75.46474,5.25116],[-75.46478,5.25118],[-75.46478,5.25119],[-75.46479,5.25119],[-75.46483,5.25119],[-75.46488,5.25119],[-75.46492,5.25119],[-75.46496,5.25119],[-75.46499,5.25119],[-75.46501,5.25121]]]},"properties":{"FID":0,"OBJECTID":1,"Nombre":"Abaco Berto Ramirez","RuleID_1":4,"AREA_ha":2.25812532206,"Shape_Leng":689.760101028,"Shape_Area":22581.2525107}},{"type":"Feature","id":1,"geometry":{"type":"Polygon","coordinates":[[[-75.52411,5.28118],[-75.52411,5.28127],[-75.52411,5.28135],[-75.52411,5.28144],[-75.52411,5.28152],[-75.52411,5.28161],[-75.5242,5.28161],[-75.52428,5.28161],[-75.52437,5.28161],[-75.52446,5.2817],[-75.52454,5.28178],[-75.52463,5.28178],[-75.52471,5.28178],[-75.5248,5.28178],[-75.52488,5.28178],[-75.52497,5.28178],[-75.52506,5.28178],[-75.52514,5.28178],[-75.52523,5.28178],[-75.52531,5.28178],[-75.5254,5.28178],[-75.52543,5.28178],[-75.5254,5.28094],[-75.52533,5.28086],[-75.52532,5.2808],[-75.52522,5.28069],[-75.52521,5.28053],[-75.52529,5.28041],[-75.52544,5.28015],[-75.52586,5.27976],[-75.52617,5.27946],[-75.52618,5.27916],[-75.52611,5.27911],[-75.52582,5.27907],[-75.52579,5.27907],[-75.52567,5.2791],[-75.52515,5.27921],[-75.52465,5.2795],[-75.52428,5.27981],[-75.52428,5.27989],[-75.52428,5.27998],[-75.52428,5.28006],[-75.52428,5.28015],[-75.52428,5.28024],[-75.52428,5.28032],[-75.52428,5.28041],[-75.52428,5.28049],[-75.52428,5.28058],[-75.52428,5.28067],[-75.52428,5.28075],[-75.52428,5.28084],[-75.52428,5.28092],[-75.52428,5.28101],[-75.5242,5.2811],[-75.52411,5.2811],[-75.52411,5.28118]]]},"properties":{"FID":1,"OBJECTID":2,"Nombre":"Abaco Morritos 3","RuleID_1":20,"AREA_ha":3.91543511657,"Shape_Leng":941.703469917,"Shape_Area":39154.3507352}},{"type":"Feature","id":2,"geometry":{"type":"Polygon","coordinates":[[[-75.4664,5.25247],[-75.46649,5.25251],[-75.46658,5.25256],[-75.46663,5.25257],[-75.46665,5.25258],[-75.46667,5.25259],[-75.46667,5.25259],[-75.46676,5.25262],[-75.46685,5.25266],[-75.46695,5.25269],[-75.46704,5.25273],[-75.46713,5.25277],[-75.46719,5.25279],[-75.46722,5.2528],[-75.46732,5.25282],[-75.46738,5.25283],[-75.46742,5.25283],[-75.46751,5.25286],[-75.46755,5.25287],[-75.46756,5.25287],[-75.4676,5.25289],[-75.46765,5.2529],[-75.46769,5.25291],[-75.46779,5.25291],[-75.46789,5.25291],[-75.46799,5.2529],[-75.46805,5.25288],[-75.46808,5.25288],[-75.46808,5.25288],[-75.46813,5.25285],[-75.46816,5.25284],[-75.46817,5.25283],[-75.46824,5.25277],[-75.46831,5.2527],[-75.46838,5.25263],[-75.46846,5.25257],[-75.46853,5.25252],[-75.46861,5.25246],[-75.46864,5.25243],[-75.46867,5.25243],[-75.46873,5.25241],[-75.46883,5.25233],[-75.46885,5.25232],[-75.4689,5.25228],[-75.4689,5.25228],[-75.46894,5.25223],[-75.46906,5.25219],[-75.46915,5.25214],[-75.46929,5.25205],[-75.46938,5.252],[-75.46943,5.25197],[-75.46954,5.25194],[-75.46965,5.25194],[-75.46976,5.25192],[-75.46983,5.25187],[-75.46981,5.25182],[-75.46981,5.25171],[-75.46977,5.2516],[-75.46972,5.25149],[-75.46968,5.25144],[-75.4696,5.25142],[-75.46953,5.25142],[-75.4695,5.25142],[-75.46949,5.25142],[-75.46949,5.25142],[-75.46942,5.25139],[-75.46937,5.25132],[-75.46934,5.25128],[-75.46934,5.25127],[-75.46934,5.2512],[-75.46935,5.25108],[-75.46935,5.25107],[-75.46935,5.25106],[-75.46935,5.25106],[-75.46935,5.25102],[-75.46935,5.25092],[-75.46933,5.25087],[-75.46932,5.25085],[-75.46927,5.2508],[-75.46925,5.25074],[-75.46924,5.25071],[-75.46923,5.25063],[-75.46921,5.2506],[-75.46916,5.2506],[-75.46909,5.25058],[-75.469,5.25056],[-75.46894,5.25056],[-75.46893,5.25056],[-75.46878,5.25057],[-75.46871,5.25057],[-75.4686,5.2506],[-75.46855,5.25063],[-75.46848,5.25069],[-75.46842,5.25074],[-75.46839,5.2508],[-75.46833,5.25089],[-75.46833,5.25095],[-75.46831,5.25106],[-75.46829,5.25112],[-75.46825,5.25117],[-75.46822,5.25122],[-75.46822,5.25122],[-75.46813,5.2513],[-75.46808,5.25134],[-75.46804,5.25135],[-75.46799,5.25135],[-75.46796,5.25137],[-75.46785,5.2514],[-75.46778,5.25143],[-75.46777,5.25144],[-75.4677,5.25145],[-75.46765,5.25149],[-75.46756,5.2515],[-75.46748,5.25155],[-75.46743,5.25162],[-75.4674,5.25164],[-75.46736,5.25168],[-75.46729,5.25173],[-75.46724,5.25178],[-75.46714,5.25184],[-75.4671,5.25184],[-75.46708,5.25185],[-75.46698,5.25189],[-75.46697,5.25189],[-75.46696,5.25189],[-75.4669,5.25191],[-75.46682,5.25192],[-75.46672,5.25192],[-75.46662,5.25194],[-75.46654,5.25194],[-75.46646,5.25195],[-75.46638,5.25197],[-75.46629,5.25198],[-75.46621,5.25202],[-75.46616,5.25208],[-75.46618,5.25214],[-75.46618,5.25216],[-75.46616,5.25219],[-75.46619,5.25228],[-75.46625,5.25236],[-75.46633,5.25241],[-75.4664,5.25247]]]},"properties":{"FID":2,"OBJECTID":3,"Nombre":"Abaco La Vieja","RuleID_1":15,"AREA_ha":5.16856489542,"Shape_Leng":1065.55111448,"Shape_Area":51685.6491118}},{"type":"Feature","id":3,"geometry":{"type":"Polygon","coordinates":[[[-75.43795,5.27372],[-75.43804,5.27377],[-75.43818,5.27384],[-75.43827,5.27389],[-75.43834,5.27395],[-75.43838,5.27404],[-75.43845,5.27414],[-75.43854,5.27419],[-75.43857,5.2742],[-75.43868,5.27425],[-75.4387,5.27426],[-75.43878,5.2743],[-75.4388,5.27431],[-75.43881,5.27431],[-75.43883,5.27431],[-75.43898,5.27432],[-75.43913,5.27427],[-75.43922,5.27423],[-75.43932,5.27417],[-75.43944,5.27414],[-75.43951,5.27405],[-75.43956,5.27398],[-75.43963,5.27388],[-75.43968,5.27379],[-75.43978,5.27375],[-75.43983,5.27373],[-75.43999,5.27372],[-75.44012,5.27372],[-75.44029,5.27381],[-75.44044,5.27384],[-75.44061,5.27387],[-75.44071,5.2739],[-75.44085,5.2739],[-75.44095,5.27388],[-75.44102,5.27385],[-75.44104,5.27384],[-75.4411,5.2738],[-75.4411,5.2738],[-75.44114,5.27377],[-75.44119,5.27374],[-75.44128,5.2737],[-75.44129,5.27369],[-75.44136,5.27364],[-75.44137,5.27363],[-75.4414,5.27359],[-75.44144,5.27353],[-75.44147,5.27348],[-75.44151,5.27341],[-75.44153,5.27332],[-75.44153,5.27332],[-75.44153,5.27317],[-75.44153,5.27306],[-75.44153,5.27294],[-75.44152,5.27279],[-75.44152,5.2727],[-75.44152,5.27258],[-75.44156,5.27248],[-75.44156,5.27246],[-75.44156,5.27239],[-75.44158,5.27234],[-75.44158,5.27233],[-75.44163,5.2722],[-75.44163,5.27218],[-75.44162,5.27208],[-75.4416,5.27199],[-75.44158,5.27194],[-75.44157,5.27189],[-75.44154,5.27182],[-75.44152,5.27168],[-75.44151,5.27159],[-75.4415,5.27142],[-75.44147,5.27123],[-75.44147,5.27112],[-75.44146,5.27098],[-75.4415,5.27084],[-75.44156,5.2707],[-75.44155,5.27063],[-75.44161,5.27049],[-75.44167,5.27033],[-75.44169,5.27024],[-75.44177,5.27012],[-75.44185,5.26998],[-75.44191,5.26989],[-75.44197,5.26983],[-75.44205,5.26976],[-75.44211,5.26969],[-75.4422,5.26962],[-75.44226,5.26956],[-75.44227,5.26954],[-75.44232,5.26949],[-75.44235,5.26944],[-75.44236,5.26942],[-75.44237,5.26934],[-75.44239,5.26928],[-75.4424,5.26925],[-75.44242,5.26913],[-75.44242,5.26902],[-75.44238,5.26895],[-75.44234,5.26886],[-75.44233,5.26885],[-75.44229,5.26877],[-75.44224,5.26869],[-75.44219,5.26866],[-75.44214,5.26862],[-75.44209,5.26853],[-75.44197,5.26845],[-75.44187,5.26838],[-75.44183,5.26836],[-75.4418,5.26834],[-75.44175,5.26831],[-75.44169,5.26826],[-75.44168,5.26826],[-75.44155,5.26819],[-75.44143,5.26813],[-75.44136,5.26811],[-75.44119,5.268],[-75.44107,5.26792],[-75.44107,5.26792],[-75.44098,5.26788],[-75.44088,5.26784],[-75.44081,5.26775],[-75.44069,5.26763],[-75.44066,5.26755],[-75.44063,5.26747],[-75.4406,5.26739],[-75.44059,5.26731],[-75.44059,5.26723],[-75.44063,5.2672],[-75.44072,5.2671],[-75.44078,5.267],[-75.44086,5.26693],[-75.44086,5.26692],[-75.44095,5.26687],[-75.44096,5.26686],[-75.44098,5.26685],[-75.44113,5.26672],[-75.44125,5.26662],[-75.44126,5.26661],[-75.44142,5.26653],[-75.44149,5.26653],[-75.44149,5.26644],[-75.44149,5.26636],[-75.44149,5.26633],[-75.44149,5.26631],[-75.44147,5.26627],[-75.44146,5.26625],[-75.44145,5.26621],[-75.44139,5.26613],[-75.4413,5.26606],[-75.44128,5.26604],[-75.44115,5.2661],[-75.44103,5.26605],[-75.44092,5.26606],[-75.44089,5.26607],[-75.44085,5.26607],[-75.44084,5.26607],[-75.44071,5.26608],[-75.44052,5.26614],[-75.4404,5.26615],[-75.44029,5.26617],[-75.44018,5.26624],[-75.44008,5.26631],[-75.43995,5.26631],[-75.43974,5.26631],[-75.43955,5.26631],[-75.43935,5.26634],[-75.43935,5.26634],[-75.43926,5.26637],[-75.43915,5.26635],[-75.43902,5.26633],[-75.43893,5.2663],[-75.43882,5.26627],[-75.4387,5.26627],[-75.43865,5.26627],[-75.43853,5.26627],[-75.43852,5.26627],[-75.4385,5.26628],[-75.43849,5.26628],[-75.43848,5.26628],[-75.43836,5.26628],[-75.43828,5.26635],[-75.43825,5.26641],[-75.43822,5.26645],[-75.43813,5.26647],[-75.43811,5.26647],[-75.43801,5.26647],[-75.43794,5.26643],[-75.43788,5.2664],[-75.43779,5.26637],[-75.43768,5.26634],[-75.43767,5.26634],[-75.43766,5.26634],[-75.43765,5.26634],[-75.43764,5.26633],[-75.43762,5.26633],[-75.43761,5.26633],[-75.4376,5.26633],[-75.43757,5.26632],[-75.43747,5.2663],[-75.43741,5.2663],[-75.4374,5.2663],[-75.43739,5.2663],[-75.43738,5.2663],[-75.43738,5.2663],[-75.43737,5.26631],[-75.43737,5.26631],[-75.43736,5.26631],[-75.43731,5.26631],[-75.43725,5.26637],[-75.43719,5.26644],[-75.43714,5.26646],[-75.43714,5.26646],[-75.43713,5.26646],[-75.43712,5.26646],[-75.43712,5.26646],[-75.43711,5.26647],[-75.4371,5.26647],[-75.43705,5.26648],[-75.437,5.26648],[-75.437,5.26648],[-75.43699,5.26648],[-75.43698,5.26648],[-75.43698,5.26648],[-75.43697,5.26648],[-75.43697,5.26648],[-75.43696,5.26648],[-75.43696,5.26648],[-75.43691,5.26648],[-75.43686,5.26647],[-75.43685,5.26647],[-75.43685,5.26647],[-75.43684,5.26647],[-75.43684,5.26647],[-75.43683,5.26647],[-75.43682,5.26647],[-75.43682,5.26647],[-75.43681,5.26646],[-75.4368,5.26646],[-75.43675,5.26645],[-75.43671,5.26646],[-75.4367,5.26646],[-75.43669,5.26647],[-75.43668,5.26647],[-75.43668,5.26647],[-75.43667,5.26647],[-75.43666,5.26647],[-75.43666,5.26647],[-75.43665,5.26647],[-75.43665,5.26647],[-75.43665,5.26647],[-75.43664,5.26647],[-75.43664,5.26648],[-75.43663,5.26648],[-75.43663,5.26648],[-75.43661,5.26648],[-75.43661,5.26648],[-75.43661,5.26648],[-75.4366,5.26648],[-75.43659,5.26648],[-75.43659,5.26648],[-75.43658,5.26649],[-75.43658,5.26649],[-75.43657,5.26649],[-75.43652,5.2665],[-75.43647,5.26649],[-75.43645,5.26649],[-75.43645,5.26649],[-75.43644,5.26649],[-75.43643,5.26649],[-75.43643,5.26649],[-75.43643,5.26649],[-75.43642,5.26649],[-75.43641,5.26649],[-75.4364,5.26649],[-75.43639,5.26649],[-75.43639,5.26649],[-75.43638,5.26649],[-75.43638,5.26649],[-75.43636,5.26649],[-75.43636,5.26649],[-75.43635,5.26649],[-75.43634,5.26649],[-75.43629,5.26648],[-75.43625,5.26646],[-75.43624,5.26646],[-75.43624,5.26645],[-75.43623,5.26645],[-75.43622,5.26645],[-75.43622,5.26644],[-75.43621,5.26644],[-75.4362,5.26644],[-75.43619,5.26643],[-75.43619,5.26643],[-75.43619,5.26643],[-75.43618,5.26642],[-75.43618,5.26642],[-75.43617,5.26642],[-75.43612,5.2664],[-75.43609,5.26636],[-75.43608,5.26635],[-75.43608,5.26635],[-75.43607,5.26634],[-75.43607,5.26634],[-75.43606,5.26633],[-75.43605,5.26632],[-75.43605,5.26632],[-75.43604,5.26632],[-75.43604,5.26631],[-75.43603,5.26631],[-75.43603,5.2663],[-75.436,5.26627],[-75.43596,5.26624],[-75.43595,5.26623],[-75.43595,5.26623],[-75.43594,5.26622],[-75.43594,5.26622],[-75.43593,5.26621],[-75.43593,5.26621],[-75.43593,5.26621],[-75.43592,5.2662],[-75.43592,5.2662],[-75.43591,5.26619],[-75.43591,5.26619],[-75.4359,5.26618],[-75.4359,5.26618],[-75.43589,5.26618],[-75.43589,5.26617],[-75.43585,5.26614],[-75.43582,5.2661],[-75.43581,5.26609],[-75.43581,5.26609],[-75.43581,5.26609],[-75.43581,5.26609],[-75.43581,5.26608],[-75.4358,5.26608],[-75.4358,5.26607],[-75.43579,5.26607],[-75.43579,5.26606],[-75.43578,5.26605],[-75.43578,5.26605],[-75.43577,5.26605],[-75.43577,5.26605],[-75.43577,5.26604],[-75.43576,5.26603],[-75.43576,5.26603],[-75.43576,5.26603],[-75.43576,5.26602],[-75.43575,5.26602],[-75.43575,5.26602],[-75.43575,5.26601],[-75.43574,5.26601],[-75.43574,5.26601],[-75.43573,5.266],[-75.43573,5.266],[-75.43573,5.26599],[-75.43573,5.26599],[-75.4357,5.26595],[-75.43568,5.26591],[-75.43568,5.2659],[-75.43567,5.2659],[-75.43567,5.26589],[-75.43567,5.26588],[-75.43567,5.26588],[-75.43567,5.26587],[-75.43566,5.26586],[-75.43566,5.26586],[-75.43566,5.26585],[-75.43564,5.2658],[-75.43562,5.26574],[-75.43561,5.26573],[-75.43561,5.26573],[-75.4356,5.26568],[-75.43558,5.26564],[-75.43557,5.26563],[-75.43557,5.26562],[-75.43557,5.26562],[-75.43557,5.26562],[-75.43556,5.26561],[-75.43556,5.2656],[-75.43556,5.2656],[-75.43554,5.26555],[-75.43552,5.26551],[-75.43551,5.2655],[-75.43551,5.2655],[-75.43551,5.2655],[-75.4355,5.26549],[-75.4355,5.26549],[-75.4355,5.26548],[-75.43549,5.26547],[-75.43549,5.26547],[-75.43549,5.26547],[-75.43547,5.26543],[-75.43544,5.26539],[-75.43544,5.26538],[-75.43544,5.26538],[-75.43544,5.26537],[-75.43543,5.26537],[-75.43543,5.26536],[-75.43541,5.26533],[-75.43539,5.26528],[-75.43538,5.26527],[-75.43538,5.26526],[-75.43538,5.26525],[-75.43538,5.26525],[-75.43537,5.26524],[-75.43537,5.26524],[-75.43537,5.26523],[-75.43537,5.26522],[-75.43536,5.26522],[-75.43536,5.26521],[-75.43536,5.26521],[-75.43536,5.2652],[-75.43534,5.26515],[-75.4353,5.26507],[-75.43525,5.26503],[-75.43523,5.26498],[-75.43522,5.26498],[-75.43522,5.26498],[-75.43518,5.26491],[-75.43518,5.26491],[-75.43515,5.26487],[-75.43514,5.26486],[-75.43513,5.26486],[-75.43513,5.26485],[-75.43513,5.26485],[-75.43513,5.26485],[-75.43512,5.26484],[-75.43512,5.26484],[-75.43511,5.26483],[-75.43511,5.26483],[-75.4351,5.26482],[-75.4351,5.26482],[-75.4351,5.26481],[-75.43509,5.26481],[-75.43509,5.2648],[-75.43509,5.2648],[-75.43508,5.2648],[-75.43508,5.26479],[-75.43508,5.26479],[-75.43507,5.26478],[-75.43507,5.26478],[-75.43507,5.26478],[-75.43506,5.26477],[-75.43506,5.26477],[-75.43506,5.26477],[-75.43506,5.26476],[-75.43505,5.26476],[-75.43505,5.26476],[-75.43505,5.26475],[-75.43505,5.26475],[-75.43504,5.26475],[-75.43504,5.26474],[-75.43504,5.26474],[-75.43503,5.26474],[-75.43503,5.26473],[-75.43502,5.26473],[-75.43502,5.26472],[-75.43502,5.26472],[-75.43501,5.26471],[-75.43501,5.26471],[-75.435,5.2647],[-75.435,5.26469],[-75.43499,5.26469],[-75.43499,5.26468],[-75.43499,5.26468],[-75.43499,5.26468],[-75.43498,5.26468],[-75.43495,5.26464],[-75.43493,5.2646],[-75.43493,5.26459],[-75.43493,5.26459],[-75.43492,5.26458],[-75.43492,5.26458],[-75.43492,5.26457],[-75.43492,5.26457],[-75.43492,5.26457],[-75.43491,5.26456],[-75.43491,5.26455],[-75.4349,5.26454],[-75.4349,5.26454],[-75.4349,5.26453],[-75.4349,5.26453],[-75.4349,5.26453],[-75.43489,5.26452],[-75.43489,5.26452],[-75.43489,5.26451],[-75.43489,5.26451],[-75.43489,5.26451],[-75.43488,5.2645],[-75.43488,5.2645],[-75.43488,5.2645],[-75.43488,5.26449],[-75.43488,5.26449],[-75.43488,5.26449],[-75.43488,5.26449],[-75.43485,5.26444],[-75.43481,5.26441],[-75.43481,5.2644],[-75.43481,5.2644],[-75.4348,5.2644],[-75.4348,5.26439],[-75.4348,5.26439],[-75.43479,5.26438],[-75.43479,5.26438],[-75.43478,5.26438],[-75.43478,5.26438],[-75.43474,5.26434],[-75.4347,5.26433],[-75.43469,5.26433],[-75.43468,5.26433],[-75.43467,5.26432],[-75.43467,5.26432],[-75.43466,5.26432],[-75.43466,5.26432],[-75.43465,5.26432],[-75.43464,5.26432],[-75.43464,5.26431],[-75.43463,5.26431],[-75.43462,5.26431],[-75.43462,5.26431],[-75.43461,5.26431],[-75.4346,5.2643],[-75.4346,5.2643],[-75.43459,5.2643],[-75.43458,5.2643],[-75.43458,5.2643],[-75.43457,5.2643],[-75.43457,5.2643],[-75.43456,5.26429],[-75.43456,5.26429],[-75.43455,5.26429],[-75.43454,5.26429],[-75.43453,5.26429],[-75.43453,5.26429],[-75.43452,5.26428],[-75.43452,5.26428],[-75.43451,5.26428],[-75.4345,5.26428],[-75.4345,5.26428],[-75.43447,5.26427],[-75.43444,5.26427],[-75.43444,5.26427],[-75.43443,5.26427],[-75.43443,5.26427],[-75.43442,5.26427],[-75.43441,5.26427],[-75.43441,5.26427],[-75.4344,5.26427],[-75.4344,5.26427],[-75.43439,5.26427],[-75.43439,5.26428],[-75.43439,5.26428],[-75.43438,5.26428],[-75.43438,5.26428],[-75.43437,5.26428],[-75.43436,5.26428],[-75.43436,5.26428],[-75.43435,5.26428],[-75.43435,5.26428],[-75.43434,5.26428],[-75.43434,5.26428],[-75.43433,5.26428],[-75.43433,5.26428],[-75.43432,5.26428],[-75.43428,5.26428],[-75.43424,5.26431],[-75.43424,5.26431],[-75.43423,5.26431],[-75.43422,5.26432],[-75.43418,5.26434],[-75.43416,5.26439],[-75.43415,5.2644],[-75.43415,5.2644],[-75.43415,5.26441],[-75.43415,5.26441],[-75.43415,5.26441],[-75.43412,5.26445],[-75.43407,5.26448],[-75.43402,5.2645],[-75.43392,5.26454],[-75.43392,5.26454],[-75.4338,5.2646],[-75.43371,5.26465],[-75.43363,5.26471],[-75.43347,5.26485],[-75.43341,5.265],[-75.43337,5.26515],[-75.43337,5.26516],[-75.43334,5.26531],[-75.43334,5.26534],[-75.43334,5.2655],[-75.43335,5.2656],[-75.4334,5.26571],[-75.43349,5.26581],[-75.43354,5.26587],[-75.43356,5.26593],[-75.43357,5.26597],[-75.43359,5.26611],[-75.4336,5.26613],[-75.43361,5.26626],[-75.43361,5.26631],[-75.43361,5.26638],[-75.4336,5.2665],[-75.4336,5.26655],[-75.43358,5.26659],[-75.43357,5.26663],[-75.43347,5.26673],[-75.43345,5.26675],[-75.43344,5.26701],[-75.4335,5.26722],[-75.43351,5.26725],[-75.43358,5.26744],[-75.43364,5.26758],[-75.43371,5.2678],[-75.43371,5.26799],[-75.4337,5.26801],[-75.43369,5.26802],[-75.43368,5.26805],[-75.43365,5.26812],[-75.43365,5.26814],[-75.43363,5.26821],[-75.43359,5.26831],[-75.43358,5.26835],[-75.43357,5.26842],[-75.43355,5.26847],[-75.43353,5.26851],[-75.4335,5.26864],[-75.43346,5.26871],[-75.43346,5.26872],[-75.43344,5.26875],[-75.4334,5.26886],[-75.43336,5.26892],[-75.43332,5.26901],[-75.43326,5.26914],[-75.43322,5.26923],[-75.43318,5.26935],[-75.43316,5.26951],[-75.43313,5.26955],[-75.43313,5.26972],[-75.43318,5.26989],[-75.4332,5.26996],[-75.43325,5.27004],[-75.43327,5.27013],[-75.43328,5.27026],[-75.43328,5.27029],[-75.4333,5.27037],[-75.4333,5.27038],[-75.4333,5.27038],[-75.43331,5.27039],[-75.43331,5.27039],[-75.43332,5.2704],[-75.43334,5.2704],[-75.43335,5.2704],[-75.43336,5.27041],[-75.43336,5.27041],[-75.43336,5.27041],[-75.43358,5.27052],[-75.43368,5.27058],[-75.43376,5.27065],[-75.43388,5.27071],[-75.43397,5.27076],[-75.43411,5.27082],[-75.43424,5.27085],[-75.43432,5.27087],[-75.43443,5.27091],[-75.4346,5.27094],[-75.43473,5.27098],[-75.43484,5.27102],[-75.43489,5.27104],[-75.43499,5.27109],[-75.4351,5.27113],[-75.43525,5.2712],[-75.43532,5.27124],[-75.43535,5.27126],[-75.43538,5.27127],[-75.43541,5.27129],[-75.43545,5.27131],[-75.43547,5.27133],[-75.43556,5.27143],[-75.43556,5.27143],[-75.43567,5.27154],[-75.43571,5.27161],[-75.4358,5.27168],[-75.43582,5.27176],[-75.43583,5.2718],[-75.4358,5.2719],[-75.4358,5.27191],[-75.4358,5.27208],[-75.4358,5.27214],[-75.43576,5.27226],[-75.43575,5.2723],[-75.43574,5.27233],[-75.43572,5.27242],[-75.43566,5.27269],[-75.43566,5.27293],[-75.43574,5.27311],[-75.43585,5.27313],[-75.43604,5.27316],[-75.4361,5.27317],[-75.43612,5.27318],[-75.43613,5.27318],[-75.43613,5.27318],[-75.43618,5.27318],[-75.43633,5.27319],[-75.43643,5.27319],[-75.4365,5.27321],[-75.43655,5.27325],[-75.4366,5.27331],[-75.43671,5.27336],[-75.43679,5.27343],[-75.43689,5.27345],[-75.4369,5.27345],[-75.43699,5.27346],[-75.43708,5.27346],[-75.43715,5.27349],[-75.43726,5.2735],[-75.43739,5.27353],[-75.43746,5.27353],[-75.43761,5.27356],[-75.4377,5.27361],[-75.43773,5.27363],[-75.43775,5.27363],[-75.43784,5.27367],[-75.43795,5.27372]]]},"properties":{"FID":3,"OBJECTID":4,"Nombre":"Abaco La Guaira","RuleID_1":16,"AREA_ha":70.5161241103,"Shape_Leng":3922.84505847,"Shape_Area":705161.234901}},{"type":"Feature","id":4,"geometry":{"type":"Polygon","coordinates":[[[-75.46619,5.26761],[-75.4664,5.26761],[-75.46648,5.26758],[-75.46655,5.26754],[-75.46662,5.26748],[-75.46667,5.26744],[-75.46674,5.26737],[-75.46683,5.2673],[-75.46693,5.26722],[-75.46704,5.26715],[-75.46715,5.26707],[-75.4672,5.26697],[-75.46722,5.26694],[-75.46727,5.26687],[-75.46728,5.26685],[-75.4673,5.2668],[-75.4673,5.26678],[-75.46731,5.26676],[-75.46731,5.26669],[-75.46732,5.26659],[-75.46732,5.26656],[-75.46733,5.26645],[-75.46733,5.26641],[-75.46732,5.26634],[-75.4673,5.26624],[-75.46729,5.26616],[-75.46725,5.26608],[-75.46726,5.26599],[-75.46726,5.26593],[-75.46727,5.26587],[-75.46728,5.2658],[-75.4673,5.26571],[-75.4673,5.2657],[-75.46728,5.26564],[-75.46724,5.26558],[-75.46718,5.26555],[-75.46708,5.26552],[-75.46697,5.26551],[-75.46692,5.26549],[-75.46686,5.26548],[-75.46678,5.26546],[-75.46669,5.26541],[-75.46661,5.26537],[-75.46653,5.26529],[-75.46649,5.26525],[-75.46641,5.26519],[-75.46637,5.26515],[-75.46631,5.26512],[-75.46623,5.26508],[-75.4662,5.26506],[-75.46615,5.26505],[-75.46613,5.26504],[-75.46606,5.26501],[-75.46598,5.26496],[-75.46594,5.26494],[-75.46593,5.26493],[-75.46591,5.26491],[-75.46588,5.26488],[-75.46587,5.26488],[-75.46585,5.26486],[-75.46579,5.26482],[-75.46575,5.26479],[-75.46563,5.26476],[-75.46563,5.26476],[-75.46557,5.26473],[-75.46546,5.26465],[-75.46537,5.26468],[-75.4652,5.26473],[-75.46511,5.26468],[-75.46509,5.26469],[-75.46508,5.26469],[-75.46499,5.26466],[-75.46494,5.26464],[-75.46484,5.26465],[-75.46473,5.26465],[-75.46469,5.26465],[-75.46458,5.26467],[-75.46457,5.26467],[-75.46451,5.26467],[-75.46451,5.26468],[-75.4645,5.26467],[-75.46441,5.26461],[-75.4643,5.26456],[-75.46424,5.2645],[-75.46421,5.26447],[-75.4641,5.26447],[-75.4641,5.26449],[-75.46407,5.26459],[-75.46405,5.2647],[-75.46396,5.26476],[-75.46393,5.26476],[-75.46392,5.26477],[-75.46385,5.26479],[-75.46378,5.26483],[-75.46376,5.26484],[-75.46365,5.2649],[-75.46356,5.26496],[-75.46345,5.26499],[-75.46344,5.26499],[-75.46343,5.26499],[-75.46334,5.26499],[-75.46328,5.26499],[-75.46323,5.26499],[-75.46322,5.26499],[-75.46314,5.26504],[-75.46305,5.2651],[-75.463,5.26519],[-75.46294,5.26527],[-75.46294,5.26539],[-75.46294,5.2655],[-75.463,5.26558],[-75.46305,5.26567],[-75.46311,5.26575],[-75.4632,5.26584],[-75.46325,5.26593],[-75.46325,5.26604],[-75.46328,5.26615],[-75.46337,5.26624],[-75.46348,5.26627],[-75.46359,5.26629],[-75.4636,5.2663],[-75.46359,5.2663],[-75.46359,5.26638],[-75.46359,5.26638],[-75.46362,5.26645],[-75.46363,5.26646],[-75.46367,5.26649],[-75.46368,5.2665],[-75.46369,5.26651],[-75.46372,5.26653],[-75.46374,5.26654],[-75.46381,5.26657],[-75.46389,5.26661],[-75.46392,5.26663],[-75.46395,5.26663],[-75.46402,5.26666],[-75.46408,5.26667],[-75.46415,5.2667],[-75.46415,5.2667],[-75.46421,5.26673],[-75.46428,5.26682],[-75.46433,5.26689],[-75.46438,5.26697],[-75.46443,5.267],[-75.4645,5.26705],[-75.46452,5.26706],[-75.46455,5.26708],[-75.46462,5.26711],[-75.46473,5.26716],[-75.46483,5.2672],[-75.46484,5.26723],[-75.46484,5.26723],[-75.46488,5.26726],[-75.4649,5.26727],[-75.46498,5.26731],[-75.46512,5.2674],[-75.46521,5.26745],[-75.46527,5.26748],[-75.46535,5.26751],[-75.4655,5.26756],[-75.46562,5.26757],[-75.46571,5.26759],[-75.4658,5.2676],[-75.46591,5.2676],[-75.46598,5.2676],[-75.46619,5.26761]]]},"properties":{"FID":4,"OBJECTID":5,"Nombre":"Abaco Altomira","RuleID_1":3,"AREA_ha":11.2112097917,"Shape_Leng":1348.44340303,"Shape_Area":112112.09232}},{"type":"Feature","id":5,"geometry":{"type":"Polygon","coordinates":[[[-75.46259,5.25341],[-75.4626,5.25343],[-75.46262,5.25348],[-75.46265,5.25352],[-75.46267,5.25355],[-75.46269,5.25356],[-75.46272,5.25354],[-75.46279,5.25344],[-75.46288,5.25341],[-75.46297,5.25338],[-75.46307,5.25338],[-75.46316,5.25338],[-75.46325,5.25338],[-75.46335,5.25338],[-75.46344,5.25335],[-75.46354,5.25328],[-75.46363,5.25325],[-75.46372,5.25316],[-75.46377,5.25311],[-75.46382,5.25306],[-75.46391,5.253],[-75.464,5.253],[-75.4641,5.25303],[-75.46419,5.25309],[-75.46421,5.25314],[-75.46422,5.25319],[-75.46432,5.25325],[-75.46441,5.25331],[-75.46441,5.25331],[-75.46451,5.25338],[-75.46452,5.25339],[-75.46453,5.25338],[-75.46454,5.25333],[-75.46457,5.25329],[-75.46458,5.25328],[-75.46459,5.25328],[-75.46463,5.25326],[-75.46466,5.25325],[-75.46467,5.25325],[-75.4647,5.25324],[-75.46472,5.25323],[-75.46473,5.25322],[-75.46476,5.2532],[-75.46479,5.25318],[-75.46479,5.25313],[-75.46479,5.25312],[-75.46481,5.25309],[-75.46488,5.25304],[-75.4649,5.25304],[-75.46499,5.253],[-75.46502,5.25299],[-75.46502,5.25298],[-75.46504,5.25297],[-75.46507,5.25294],[-75.46508,5.25289],[-75.4651,5.25284],[-75.46511,5.25283],[-75.46512,5.2528],[-75.46514,5.25276],[-75.46516,5.25272],[-75.46516,5.25271],[-75.46518,5.25264],[-75.46518,5.25261],[-75.46518,5.25258],[-75.46518,5.25254],[-75.46517,5.25249],[-75.46517,5.25246],[-75.46517,5.25242],[-75.46517,5.25239],[-75.46519,5.25235],[-75.46521,5.25232],[-75.46523,5.25228],[-75.46523,5.25225],[-75.46524,5.25222],[-75.46524,5.25218],[-75.46526,5.25213],[-75.46527,5.25209],[-75.46527,5.25203],[-75.46526,5.25201],[-75.46525,5.25198],[-75.46522,5.25193],[-75.46519,5.25189],[-75.46517,5.25188],[-75.46515,5.25184],[-75.4651,5.25181],[-75.46508,5.25176],[-75.46508,5.25175],[-75.46508,5.25172],[-75.46507,5.25167],[-75.46507,5.25163],[-75.46507,5.2516],[-75.46509,5.25155],[-75.46509,5.25151],[-75.46511,5.25148],[-75.46513,5.25144],[-75.46513,5.25142],[-75.46514,5.25141],[-75.46512,5.25136],[-75.46511,5.25134],[-75.46507,5.25132],[-75.46506,5.25128],[-75.46504,5.25124],[-75.46502,5.25121],[-75.46501,5.25121],[-75.46499,5.25119],[-75.46496,5.25119],[-75.46492,5.25119],[-75.46488,5.25119],[-75.46483,5.25119],[-75.46479,5.25119],[-75.46478,5.25119],[-75.46478,5.25118],[-75.46474,5.25116],[-75.46469,5.25114],[-75.46463,5.25112],[-75.46458,5.25111],[-75.46453,5.25111],[-75.46453,5.25111],[-75.46452,5.25111],[-75.46452,5.25111],[-75.46445,5.25109],[-75.46439,5.25107],[-75.46435,5.25105],[-75.46432,5.25104],[-75.46428,5.25101],[-75.46419,5.25098],[-75.4641,5.25095],[-75.46404,5.25093],[-75.46398,5.2509],[-75.4639,5.25087],[-75.46388,5.25086],[-75.46384,5.25082],[-75.46383,5.2508],[-75.4638,5.25078],[-75.46377,5.25077],[-75.46371,5.25076],[-75.46366,5.25075],[-75.46363,5.25074],[-75.46361,5.25073],[-75.4636,5.25073],[-75.46358,5.25069],[-75.46358,5.25068],[-75.46355,5.25065],[-75.46353,5.25062],[-75.4635,5.2506],[-75.46347,5.2506],[-75.46342,5.25059],[-75.4634,5.25058],[-75.46339,5.25058],[-75.46334,5.25057],[-75.46331,5.25057],[-75.46328,5.25054],[-75.46323,5.25054],[-75.46317,5.25053],[-75.46315,5.25053],[-75.46312,5.25052],[-75.46306,5.2505],[-75.46305,5.2505],[-75.463,5.25048],[-75.46299,5.25049],[-75.46293,5.25048],[-75.4629,5.25047],[-75.46287,5.25047],[-75.46286,5.25047],[-75.46283,5.25047],[-75.46282,5.25047],[-75.46277,5.25045],[-75.46274,5.25045],[-75.46268,5.25045],[-75.46264,5.25046],[-75.4626,5.25046],[-75.46259,5.25046],[-75.46258,5.25046],[-75.46253,5.25048],[-75.46249,5.2505],[-75.46245,5.25052],[-75.46242,5.25055],[-75.4624,5.25057],[-75.46238,5.2506],[-75.46236,5.25063],[-75.46236,5.25068],[-75.46236,5.25073],[-75.46236,5.25079],[-75.46234,5.25082],[-75.46233,5.25085],[-75.46232,5.25088],[-75.46231,5.25091],[-75.46231,5.25092],[-75.46229,5.25094],[-75.46227,5.25098],[-75.46225,5.251],[-75.46223,5.25105],[-75.46222,5.25106],[-75.46221,5.25108],[-75.46221,5.25109],[-75.46219,5.25112],[-75.46218,5.25113],[-75.46217,5.25115],[-75.46217,5.25117],[-75.46214,5.25122],[-75.46211,5.25125],[-75.4621,5.25127],[-75.46207,5.25132],[-75.46204,5.25136],[-75.46202,5.2514],[-75.462,5.25144],[-75.46199,5.25146],[-75.46198,5.25149],[-75.46195,5.25155],[-75.46194,5.25158],[-75.46194,5.25161],[-75.46193,5.25164],[-75.46192,5.25167],[-75.46192,5.2517],[-75.46191,5.25171],[-75.46191,5.25171],[-75.46191,5.25173],[-75.46191,5.25176],[-75.46191,5.25182],[-75.46191,5.25187],[-75.46191,5.25192],[-75.46191,5.25196],[-75.46191,5.25197],[-75.46192,5.25201],[-75.46192,5.25202],[-75.46191,5.25205],[-75.46191,5.25209],[-75.46191,5.25213],[-75.46191,5.25218],[-75.46193,5.25222],[-75.46193,5.25225],[-75.46193,5.25226],[-75.46194,5.25231],[-75.46196,5.25237],[-75.46197,5.25241],[-75.46198,5.25242],[-75.462,5.25251],[-75.46205,5.2526],[-75.46208,5.25263],[-75.4621,5.25266],[-75.46215,5.2527],[-75.46215,5.25271],[-75.46217,5.25273],[-75.46219,5.25278],[-75.46224,5.25283],[-75.46226,5.25285],[-75.46229,5.25288],[-75.46231,5.2529],[-75.46231,5.2529],[-75.46231,5.2529],[-75.46232,5.25293],[-75.46235,5.25298],[-75.46235,5.25298],[-75.46235,5.25298],[-75.46236,5.25301],[-75.46238,5.25304],[-75.46241,5.2531],[-75.46243,5.25314],[-75.46244,5.25318],[-75.46246,5.25322],[-75.46248,5.25325],[-75.46251,5.25328],[-75.46252,5.2533],[-75.46253,5.25334],[-75.46256,5.25337],[-75.46259,5.25341]]]},"properties":{"FID":5,"OBJECTID":6,"Nombre":"Abaco Los Chorros","RuleID_1":17,"AREA_ha":9.139195446,"Shape_Leng":1223.33568905,"Shape_Area":91391.9557162}},{"type":"Feature","id":6,"geometry":{"type":"Polygon","coordinates":[[[-75.50861,5.27139],[-75.50862,5.2714],[-75.50865,5.27139],[-75.5087,5.27139],[-75.50873,5.27138],[-75.50876,5.27138],[-75.50879,5.27138],[-75.50882,5.27136],[-75.50887,5.27136],[-75.50889,5.27135],[-75.50891,5.27135],[-75.50896,5.27134],[-75.50898,5.27134],[-75.50901,5.27134],[-75.50901,5.27134],[-75.50902,5.27134],[-75.50904,5.27133],[-75.50905,5.27133],[-75.50908,5.27134],[-75.50914,5.27135],[-75.50918,5.27135],[-75.50922,5.27135],[-75.50926,5.27135],[-75.50926,5.27135],[-75.50928,5.27135],[-75.50931,5.27136],[-75.50936,5.27135],[-75.50937,5.27135],[-75.5094,5.27136],[-75.50945,5.27135],[-75.50947,5.27135],[-75.50952,5.27136],[-75.50955,5.27134],[-75.50959,5.27135],[-75.50965,5.27135],[-75.50968,5.27136],[-75.50972,5.27136],[-75.50977,5.27136],[-75.50981,5.27137],[-75.50984,5.27137],[-75.50987,5.27136],[-75.50991,5.27136],[-75.50995,5.27133],[-75.50997,5.27131],[-75.50999,5.27129],[-75.51002,5.27127],[-75.51004,5.27124],[-75.51004,5.27124],[-75.51004,5.27123],[-75.51006,5.27122],[-75.5101,5.2712],[-75.51013,5.27119],[-75.51014,5.27117],[-75.51017,5.27114],[-75.51018,5.27113],[-75.51018,5.27111],[-75.5102,5.27107],[-75.51021,5.27104],[-75.51021,5.27101],[-75.51021,5.27099],[-75.51021,5.27096],[-75.51021,5.27093],[-75.51022,5.27091],[-75.51022,5.2709],[-75.51023,5.27091],[-75.51043,5.27087],[-75.51039,5.27068],[-75.51039,5.27067],[-75.51039,5.27067],[-75.5104,5.27065],[-75.51041,5.2706],[-75.51042,5.27057],[-75.51042,5.27047],[-75.51047,5.27039],[-75.51052,5.27031],[-75.51057,5.27024],[-75.51059,5.27014],[-75.51062,5.27004],[-75.51064,5.26995],[-75.51064,5.26993],[-75.51065,5.26992],[-75.51069,5.26986],[-75.51074,5.26978],[-75.51079,5.26971],[-75.51079,5.26961],[-75.51074,5.26953],[-75.51064,5.26956],[-75.51057,5.26961],[-75.51049,5.26966],[-75.51039,5.26966],[-75.51031,5.26971],[-75.51029,5.26974],[-75.51026,5.26976],[-75.51025,5.26975],[-75.51024,5.26974],[-75.51024,5.26974],[-75.51022,5.26972],[-75.5102,5.26971],[-75.51019,5.26969],[-75.51017,5.26965],[-75.51016,5.26965],[-75.51015,5.26963],[-75.51013,5.26962],[-75.51012,5.26961],[-75.51009,5.26959],[-75.51006,5.26958],[-75.51003,5.26957],[-75.50998,5.26956],[-75.50994,5.26955],[-75.50992,5.26955],[-75.50989,5.26953],[-75.50985,5.26951],[-75.50984,5.26951],[-75.50982,5.26951],[-75.50978,5.2695],[-75.50975,5.2695],[-75.50973,5.2695],[-75.50971,5.2695],[-75.50968,5.2695],[-75.50966,5.2695],[-75.50962,5.2695],[-75.50959,5.2695],[-75.50956,5.2695],[-75.50952,5.26952],[-75.50949,5.26955],[-75.50947,5.26957],[-75.50944,5.2696],[-75.50942,5.26963],[-75.5094,5.26964],[-75.50939,5.26964],[-75.50938,5.26965],[-75.50935,5.26966],[-75.50931,5.26966],[-75.50928,5.26965],[-75.50925,5.26964],[-75.50922,5.26963],[-75.5092,5.26962],[-75.50915,5.2696],[-75.50913,5.26958],[-75.5091,5.26956],[-75.50907,5.26955],[-75.50904,5.26953],[-75.50902,5.26952],[-75.50899,5.2695],[-75.50897,5.26949],[-75.50894,5.26947],[-75.50891,5.26945],[-75.50888,5.26944],[-75.50885,5.26943],[-75.50883,5.26942],[-75.50879,5.26942],[-75.50876,5.26942],[-75.50873,5.26941],[-75.50869,5.26941],[-75.50865,5.26941],[-75.50861,5.26943],[-75.50858,5.26944],[-75.50856,5.26946],[-75.50856,5.26947],[-75.50852,5.2695],[-75.5085,5.26952],[-75.50847,5.26954],[-75.50844,5.26956],[-75.50843,5.26957],[-75.50842,5.26958],[-75.5084,5.26961],[-75.50839,5.26963],[-75.50837,5.26969],[-75.50837,5.26972],[-75.50836,5.26977],[-75.50836,5.26979],[-75.50836,5.26982],[-75.50836,5.26984],[-75.50835,5.26987],[-75.50835,5.2699],[-75.50834,5.26993],[-75.50834,5.26997],[-75.50834,5.27001],[-75.50834,5.27004],[-75.50834,5.27007],[-75.50834,5.27009],[-75.50834,5.27013],[-75.50834,5.27017],[-75.50834,5.27021],[-75.50833,5.27025],[-75.50833,5.27027],[-75.50833,5.2703],[-75.50833,5.27033],[-75.50833,5.27035],[-75.50834,5.27038],[-75.50835,5.27042],[-75.50836,5.27044],[-75.50837,5.27047],[-75.50837,5.27049],[-75.50838,5.27052],[-75.5084,5.27055],[-75.50842,5.27056],[-75.50843,5.27059],[-75.50845,5.2706],[-75.50848,5.27062],[-75.5085,5.27065],[-75.50852,5.27068],[-75.50854,5.2707],[-75.50855,5.27073],[-75.50855,5.27076],[-75.50856,5.27079],[-75.50856,5.27083],[-75.50856,5.27085],[-75.50857,5.27088],[-75.50857,5.27091],[-75.50855,5.27095],[-75.50855,5.27099],[-75.50855,5.27103],[-75.50855,5.27108],[-75.50856,5.27109],[-75.50857,5.27114],[-75.50857,5.27118],[-75.50857,5.27122],[-75.50857,5.27126],[-75.50858,5.27129],[-75.50859,5.27131],[-75.5086,5.27134],[-75.50861,5.27136],[-75.50861,5.27139]]]},"properties":{"FID":6,"OBJECTID":7,"Nombre":"Abaco Buenavista","RuleID_1":5,"AREA_ha":4.43459422117,"Shape_Leng":903.886794371,"Shape_Area":44345.942158}},{"type":"Feature","id":7,"geometry":{"type":"Polygon","coordinates":[[[-75.43624,5.26646],[-75.43625,5.26646],[-75.43629,5.26648],[-75.43634,5.26649],[-75.43635,5.26649],[-75.43636,5.26649],[-75.43636,5.26649],[-75.43638,5.26649],[-75.43638,5.26649],[-75.43639,5.26649],[-75.43639,5.26649],[-75.4364,5.26649],[-75.43641,5.26649],[-75.43642,5.26649],[-75.43643,5.26649],[-75.43643,5.26649],[-75.43643,5.26649],[-75.43644,5.26649],[-75.43645,5.26649],[-75.43645,5.26649],[-75.43647,5.26649],[-75.43652,5.2665],[-75.43657,5.26649],[-75.43658,5.26649],[-75.43658,5.26649],[-75.43659,5.26648],[-75.43659,5.26648],[-75.4366,5.26648],[-75.43661,5.26648],[-75.43661,5.26648],[-75.43661,5.26648],[-75.43663,5.26648],[-75.43663,5.26648],[-75.43664,5.26648],[-75.43664,5.26647],[-75.43665,5.26647],[-75.43665,5.26647],[-75.43665,5.26647],[-75.43666,5.26647],[-75.43666,5.26647],[-75.43667,5.26647],[-75.43668,5.26647],[-75.43668,5.26647],[-75.43669,5.26647],[-75.4367,5.26646],[-75.43671,5.26646],[-75.43675,5.26645],[-75.4368,5.26646],[-75.43681,5.26646],[-75.43682,5.26647],[-75.43682,5.26647],[-75.43683,5.26647],[-75.43684,5.26647],[-75.43684,5.26647],[-75.43685,5.26647],[-75.43685,5.26647],[-75.43686,5.26647],[-75.43691,5.26648],[-75.43696,5.26648],[-75.43696,5.26648],[-75.43697,5.26648],[-75.43697,5.26648],[-75.43698,5.26648],[-75.43698,5.26648],[-75.43699,5.26648],[-75.437,5.26648],[-75.437,5.26648],[-75.43705,5.26648],[-75.4371,5.26647],[-75.43711,5.26647],[-75.43712,5.26646],[-75.43712,5.26646],[-75.43713,5.26646],[-75.43714,5.26646],[-75.43714,5.26646],[-75.43719,5.26644],[-75.43725,5.26637],[-75.43731,5.26631],[-75.43736,5.26631],[-75.43737,5.26631],[-75.43737,5.26631],[-75.43738,5.2663],[-75.43738,5.2663],[-75.43739,5.2663],[-75.4374,5.2663],[-75.43741,5.2663],[-75.43747,5.2663],[-75.43757,5.26632],[-75.4376,5.26633],[-75.43761,5.26633],[-75.43762,5.26633],[-75.43764,5.26633],[-75.43765,5.26634],[-75.43766,5.26634],[-75.43767,5.26634],[-75.43768,5.26634],[-75.43779,5.26637],[-75.43788,5.2664],[-75.43794,5.26643],[-75.43801,5.26647],[-75.43811,5.26647],[-75.43813,5.26647],[-75.43822,5.26645],[-75.43825,5.26641],[-75.43828,5.26635],[-75.43836,5.26628],[-75.43848,5.26628],[-75.43849,5.26628],[-75.4385,5.26628],[-75.43852,5.26627],[-75.43853,5.26627],[-75.43865,5.26627],[-75.4387,5.26627],[-75.43882,5.26627],[-75.43893,5.2663],[-75.43902,5.26633],[-75.43915,5.26635],[-75.43926,5.26637],[-75.43935,5.26634],[-75.43935,5.26634],[-75.43955,5.26631],[-75.43974,5.26631],[-75.43995,5.26631],[-75.44008,5.26631],[-75.44018,5.26624],[-75.44029,5.26617],[-75.4404,5.26615],[-75.44052,5.26614],[-75.44071,5.26608],[-75.44084,5.26607],[-75.44085,5.26607],[-75.44089,5.26607],[-75.44092,5.26606],[-75.44103,5.26605],[-75.44115,5.2661],[-75.44128,5.26604],[-75.4413,5.26606],[-75.44134,5.26604],[-75.44143,5.26603],[-75.44147,5.26602],[-75.44161,5.26598],[-75.44177,5.26592],[-75.44192,5.26582],[-75.44208,5.26575],[-75.4422,5.26562],[-75.44233,5.26552],[-75.44245,5.26537],[-75.44255,5.26523],[-75.44265,5.26513],[-75.44274,5.26505],[-75.44284,5.26492],[-75.44284,5.26491],[-75.44291,5.26485],[-75.44301,5.26474],[-75.44311,5.26463],[-75.44321,5.26451],[-75.44334,5.26433],[-75.44337,5.26424],[-75.44344,5.26406],[-75.44344,5.26391],[-75.44344,5.26378],[-75.44344,5.26375],[-75.44344,5.26371],[-75.44344,5.26368],[-75.44348,5.26361],[-75.44349,5.26358],[-75.44354,5.26346],[-75.44371,5.2633],[-75.44385,5.26323],[-75.44388,5.26321],[-75.44401,5.26315],[-75.44407,5.26311],[-75.44415,5.26305],[-75.44418,5.26292],[-75.44427,5.26272],[-75.44441,5.26262],[-75.44457,5.26255],[-75.44467,5.26242],[-75.4448,5.26232],[-75.44481,5.26231],[-75.44489,5.26216],[-75.44489,5.26215],[-75.44502,5.26198],[-75.44514,5.26178],[-75.44527,5.26158],[-75.44528,5.26155],[-75.4454,5.26138],[-75.44546,5.26131],[-75.44556,5.26121],[-75.44565,5.26112],[-75.44588,5.26096],[-75.44589,5.26096],[-75.44593,5.26094],[-75.44606,5.26089],[-75.44636,5.26086],[-75.44649,5.26087],[-75.4465,5.26086],[-75.44663,5.26084],[-75.44677,5.26078],[-75.4468,5.26077],[-75.4469,5.26074],[-75.44711,5.26068],[-75.44724,5.26065],[-75.44741,5.2606],[-75.44745,5.26059],[-75.44759,5.26056],[-75.44777,5.26046],[-75.44788,5.26036],[-75.44795,5.26023],[-75.44799,5.26017],[-75.44806,5.26007],[-75.44828,5.2599],[-75.44839,5.25977],[-75.44839,5.25976],[-75.4485,5.25961],[-75.44868,5.25947],[-75.44882,5.25941],[-75.44893,5.25934],[-75.449,5.25934],[-75.44924,5.25931],[-75.44938,5.25928],[-75.44952,5.25928],[-75.44973,5.25928],[-75.44994,5.25928],[-75.45009,5.25924],[-75.45022,5.25914],[-75.45036,5.25901],[-75.45047,5.25897],[-75.45061,5.25891],[-75.45072,5.25884],[-75.45093,5.25877],[-75.45103,5.25874],[-75.45127,5.25874],[-75.45145,5.25874],[-75.45165,5.25874],[-75.45186,5.25874],[-75.4519,5.25874],[-75.4521,5.25876],[-75.45217,5.25877],[-75.4523,5.2588],[-75.45251,5.2588],[-75.45259,5.25883],[-75.45261,5.25884],[-75.45278,5.25884],[-75.45292,5.25884],[-75.4531,5.25877],[-75.45314,5.25863],[-75.45314,5.2586],[-75.45315,5.2585],[-75.45316,5.25848],[-75.45319,5.2584],[-75.45306,5.25829],[-75.45314,5.25816],[-75.45322,5.25802],[-75.45324,5.25785],[-75.45323,5.25767],[-75.45314,5.2575],[-75.4531,5.25739],[-75.45309,5.25736],[-75.45304,5.25727],[-75.45295,5.25711],[-75.45286,5.2569],[-75.4528,5.25674],[-75.4528,5.25673],[-75.45279,5.2567],[-75.45274,5.25652],[-75.45267,5.25631],[-75.45263,5.25624],[-75.45261,5.25621],[-75.45256,5.25611],[-75.45249,5.25602],[-75.45236,5.25587],[-75.45225,5.25567],[-75.45221,5.25547],[-75.45217,5.2554],[-75.4521,5.25529],[-75.45209,5.25526],[-75.45207,5.25523],[-75.45205,5.25521],[-75.45198,5.25512],[-75.45194,5.25506],[-75.45183,5.25503],[-75.45164,5.25494],[-75.45158,5.25492],[-75.45151,5.25491],[-75.45147,5.2549],[-75.45135,5.25488],[-75.45124,5.25478],[-75.4511,5.2547],[-75.45102,5.25465],[-75.45095,5.25461],[-75.45087,5.25455],[-75.45086,5.25454],[-75.45078,5.25446],[-75.45072,5.25439],[-75.45061,5.25429],[-75.45047,5.25419],[-75.45036,5.25409],[-75.45028,5.25396],[-75.45019,5.25388],[-75.45015,5.25384],[-75.45014,5.25383],[-75.45012,5.25381],[-75.45011,5.2538],[-75.45003,5.2537],[-75.45,5.25365],[-75.44995,5.25354],[-75.44991,5.25338],[-75.44983,5.25329],[-75.44976,5.25316],[-75.44965,5.25303],[-75.4495,5.25294],[-75.44943,5.25285],[-75.44931,5.25272],[-75.44923,5.25257],[-75.44916,5.25244],[-75.44911,5.25232],[-75.44911,5.25219],[-75.44913,5.25204],[-75.44922,5.25188],[-75.44931,5.25176],[-75.44943,5.25157],[-75.44946,5.25147],[-75.44952,5.25132],[-75.44951,5.2512],[-75.44957,5.25104],[-75.44959,5.25089],[-75.44964,5.25076],[-75.44965,5.25073],[-75.44967,5.25058],[-75.4497,5.25046],[-75.44969,5.25034],[-75.44968,5.25012],[-75.44964,5.25],[-75.44963,5.24998],[-75.44961,5.2499],[-75.44951,5.24977],[-75.44937,5.24958],[-75.44924,5.24949],[-75.4491,5.24939],[-75.44904,5.2494],[-75.44884,5.24933],[-75.44864,5.24934],[-75.44844,5.24934],[-75.4483,5.24941],[-75.44807,5.24942],[-75.44791,5.24942],[-75.44775,5.24942],[-75.44768,5.24942],[-75.44745,5.24943],[-75.44729,5.24943],[-75.44715,5.24943],[-75.44699,5.24942],[-75.4469,5.24945],[-75.44671,5.24948],[-75.44651,5.24954],[-75.44638,5.24958],[-75.44615,5.24964],[-75.44599,5.24971],[-75.44582,5.24974],[-75.44559,5.24975],[-75.44546,5.24978],[-75.44523,5.24988],[-75.445,5.25006],[-75.44493,5.25009],[-75.44477,5.25023],[-75.4446,5.25027],[-75.44447,5.2503],[-75.44434,5.25034],[-75.44408,5.25035],[-75.44395,5.25038],[-75.44382,5.25039],[-75.44366,5.25039],[-75.4435,5.25036],[-75.44337,5.25037],[-75.44314,5.25027],[-75.44307,5.25028],[-75.44288,5.25023],[-75.44272,5.2502],[-75.44252,5.25021],[-75.44239,5.25029],[-75.44223,5.25036],[-75.4422,5.2504],[-75.44204,5.25044],[-75.44185,5.25051],[-75.44175,5.25063],[-75.44172,5.25065],[-75.44156,5.25086],[-75.44147,5.25093],[-75.44131,5.25104],[-75.44112,5.25107],[-75.44096,5.25104],[-75.44093,5.25104],[-75.44074,5.25098],[-75.44039,5.25099],[-75.44014,5.25094],[-75.44011,5.25094],[-75.43989,5.25086],[-75.4398,5.25081],[-75.43958,5.25069],[-75.43923,5.25057],[-75.43914,5.25058],[-75.43893,5.25059],[-75.43864,5.25061],[-75.43861,5.25061],[-75.43857,5.25063],[-75.43839,5.25071],[-75.43828,5.25076],[-75.43817,5.25081],[-75.43799,5.25092],[-75.43777,5.25099],[-75.43755,5.25109],[-75.43734,5.25116],[-75.4371,5.25133],[-75.43695,5.25143],[-75.43683,5.25153],[-75.43667,5.2516],[-75.43649,5.2517],[-75.43634,5.25174],[-75.43622,5.25183],[-75.43604,5.2519],[-75.43586,5.25194],[-75.43571,5.25195],[-75.43554,5.25187],[-75.43548,5.25184],[-75.4353,5.25176],[-75.43513,5.25174],[-75.43484,5.2517],[-75.4347,5.25174],[-75.4347,5.25175],[-75.43466,5.25177],[-75.43464,5.25178],[-75.43447,5.25188],[-75.43436,5.25189],[-75.43417,5.25197],[-75.43404,5.25205],[-75.43385,5.2521],[-75.43375,5.25212],[-75.43359,5.25214],[-75.43352,5.25212],[-75.43341,5.2521],[-75.43327,5.25201],[-75.43314,5.252],[-75.43299,5.25199],[-75.43289,5.25201],[-75.43287,5.25201],[-75.43265,5.25209],[-75.43258,5.25198],[-75.43253,5.25187],[-75.43246,5.25177],[-75.43237,5.25166],[-75.43229,5.25162],[-75.4322,5.25154],[-75.43214,5.2515],[-75.43207,5.25144],[-75.43199,5.25141],[-75.43181,5.2513],[-75.43164,5.25119],[-75.43162,5.25119],[-75.43155,5.25112],[-75.43147,5.25105],[-75.43141,5.25095],[-75.43135,5.25087],[-75.43125,5.25076],[-75.43106,5.25066],[-75.43101,5.25061],[-75.43084,5.25054],[-75.43076,5.25052],[-75.43069,5.2505],[-75.43055,5.25038],[-75.4305,5.25036],[-75.43042,5.25031],[-75.43022,5.25022],[-75.43015,5.2502],[-75.43005,5.25018],[-75.42988,5.25012],[-75.42976,5.25005],[-75.42963,5.25006],[-75.42943,5.25008],[-75.42933,5.25015],[-75.42931,5.25016],[-75.42931,5.25017],[-75.42928,5.25022],[-75.42926,5.25026],[-75.42925,5.25027],[-75.42916,5.25038],[-75.42915,5.25054],[-75.42914,5.2506],[-75.42914,5.25062],[-75.42912,5.25081],[-75.42912,5.25084],[-75.42912,5.25093],[-75.42911,5.25117],[-75.42903,5.25134],[-75.42895,5.25152],[-75.4289,5.25171],[-75.42889,5.25188],[-75.42887,5.25201],[-75.42887,5.25204],[-75.42885,5.25218],[-75.42885,5.25223],[-75.42879,5.25253],[-75.42877,5.25264],[-75.42873,5.25281],[-75.4287,5.25297],[-75.42868,5.25308],[-75.42865,5.25324],[-75.42865,5.25343],[-75.42863,5.25351],[-75.42861,5.25362],[-75.42857,5.25381],[-75.42853,5.254],[-75.42851,5.25411],[-75.4285,5.25416],[-75.42855,5.25434],[-75.42864,5.25452],[-75.4287,5.25466],[-75.42873,5.25471],[-75.42875,5.25473],[-75.42878,5.25478],[-75.42879,5.2548],[-75.42884,5.25485],[-75.42889,5.25492],[-75.42902,5.25513],[-75.42911,5.25536],[-75.42918,5.25553],[-75.42922,5.2557],[-75.42922,5.25573],[-75.42927,5.25585],[-75.42928,5.25599],[-75.4293,5.25614],[-75.4293,5.25615],[-75.42932,5.25628],[-75.42933,5.25632],[-75.42934,5.25636],[-75.42937,5.25646],[-75.42939,5.25664],[-75.42942,5.25675],[-75.42943,5.25679],[-75.42945,5.25687],[-75.42956,5.25705],[-75.42964,5.25723],[-75.42975,5.25738],[-75.42999,5.25768],[-75.43012,5.25786],[-75.43018,5.25798],[-75.43027,5.25816],[-75.43033,5.25831],[-75.43039,5.25846],[-75.43048,5.25864],[-75.43048,5.25867],[-75.43054,5.25882],[-75.4306,5.25897],[-75.43066,5.25906],[-75.43072,5.25921],[-75.43082,5.25942],[-75.4309,5.25957],[-75.43093,5.25969],[-75.43101,5.25984],[-75.4311,5.26002],[-75.43116,5.26017],[-75.43125,5.26035],[-75.43125,5.26038],[-75.43133,5.26056],[-75.43143,5.26071],[-75.43152,5.26089],[-75.43161,5.26104],[-75.43164,5.26116],[-75.43173,5.26134],[-75.43174,5.26135],[-75.43183,5.26149],[-75.43186,5.26155],[-75.43201,5.26175],[-75.43201,5.26176],[-75.43204,5.26181],[-75.43214,5.26204],[-75.43225,5.26222],[-75.43232,5.26236],[-75.43233,5.26239],[-75.43235,5.26251],[-75.43238,5.26258],[-75.43241,5.26265],[-75.43241,5.26266],[-75.43244,5.26281],[-75.43246,5.26283],[-75.43251,5.26292],[-75.43258,5.26304],[-75.43262,5.26312],[-75.43274,5.26321],[-75.43278,5.26324],[-75.43281,5.26327],[-75.4329,5.26336],[-75.43301,5.26344],[-75.43316,5.26351],[-75.43332,5.26358],[-75.43333,5.26359],[-75.43334,5.26359],[-75.43336,5.2636],[-75.43339,5.2636],[-75.43353,5.26371],[-75.43355,5.26373],[-75.43376,5.26407],[-75.43382,5.26419],[-75.43382,5.26419],[-75.43382,5.26431],[-75.43385,5.26442],[-75.43388,5.26451],[-75.43392,5.26454],[-75.43392,5.26454],[-75.43402,5.2645],[-75.43407,5.26448],[-75.43412,5.26445],[-75.43415,5.26441],[-75.43415,5.26441],[-75.43415,5.26441],[-75.43415,5.2644],[-75.43415,5.2644],[-75.43416,5.26439],[-75.43418,5.26434],[-75.43422,5.26432],[-75.43423,5.26431],[-75.43424,5.26431],[-75.43424,5.26431],[-75.43428,5.26428],[-75.43432,5.26428],[-75.43433,5.26428],[-75.43433,5.26428],[-75.43434,5.26428],[-75.43434,5.26428],[-75.43435,5.26428],[-75.43435,5.26428],[-75.43436,5.26428],[-75.43436,5.26428],[-75.43437,5.26428],[-75.43438,5.26428],[-75.43438,5.26428],[-75.43439,5.26428],[-75.43439,5.26428],[-75.43439,5.26427],[-75.4344,5.26427],[-75.4344,5.26427],[-75.43441,5.26427],[-75.43441,5.26427],[-75.43442,5.26427],[-75.43443,5.26427],[-75.43443,5.26427],[-75.43444,5.26427],[-75.43444,5.26427],[-75.43447,5.26427],[-75.4345,5.26428],[-75.4345,5.26428],[-75.43451,5.26428],[-75.43452,5.26428],[-75.43452,5.26428],[-75.43453,5.26429],[-75.43453,5.26429],[-75.43454,5.26429],[-75.43455,5.26429],[-75.43456,5.26429],[-75.43456,5.26429],[-75.43457,5.2643],[-75.43457,5.2643],[-75.43458,5.2643],[-75.43458,5.2643],[-75.43459,5.2643],[-75.4346,5.2643],[-75.4346,5.2643],[-75.43461,5.26431],[-75.43462,5.26431],[-75.43462,5.26431],[-75.43463,5.26431],[-75.43464,5.26431],[-75.43464,5.26432],[-75.43465,5.26432],[-75.43466,5.26432],[-75.43466,5.26432],[-75.43467,5.26432],[-75.43467,5.26432],[-75.43468,5.26433],[-75.43469,5.26433],[-75.4347,5.26433],[-75.43474,5.26434],[-75.43478,5.26438],[-75.43478,5.26438],[-75.43479,5.26438],[-75.43479,5.26438],[-75.4348,5.26439],[-75.4348,5.26439],[-75.4348,5.2644],[-75.43481,5.2644],[-75.43481,5.2644],[-75.43481,5.26441],[-75.43485,5.26444],[-75.43488,5.26449],[-75.43488,5.26449],[-75.43488,5.26449],[-75.43488,5.26449],[-75.43488,5.2645],[-75.43488,5.2645],[-75.43488,5.2645],[-75.43489,5.26451],[-75.43489,5.26451],[-75.43489,5.26451],[-75.43489,5.26452],[-75.43489,5.26452],[-75.4349,5.26453],[-75.4349,5.26453],[-75.4349,5.26453],[-75.4349,5.26454],[-75.4349,5.26454],[-75.43491,5.26455],[-75.43491,5.26456],[-75.43492,5.26457],[-75.43492,5.26457],[-75.43492,5.26457],[-75.43492,5.26458],[-75.43492,5.26458],[-75.43493,5.26459],[-75.43493,5.26459],[-75.43493,5.2646],[-75.43495,5.26464],[-75.43498,5.26468],[-75.43499,5.26468],[-75.43499,5.26468],[-75.43499,5.26468],[-75.43499,5.26469],[-75.435,5.26469],[-75.435,5.2647],[-75.43501,5.26471],[-75.43501,5.26471],[-75.43502,5.26472],[-75.43502,5.26472],[-75.43502,5.26473],[-75.43503,5.26473],[-75.43503,5.26474],[-75.43504,5.26474],[-75.43504,5.26474],[-75.43504,5.26475],[-75.43505,5.26475],[-75.43505,5.26475],[-75.43505,5.26476],[-75.43505,5.26476],[-75.43506,5.26476],[-75.43506,5.26477],[-75.43506,5.26477],[-75.43506,5.26477],[-75.43507,5.26478],[-75.43507,5.26478],[-75.43507,5.26478],[-75.43508,5.26479],[-75.43508,5.26479],[-75.43508,5.2648],[-75.43509,5.2648],[-75.43509,5.2648],[-75.43509,5.26481],[-75.4351,5.26481],[-75.4351,5.26482],[-75.4351,5.26482],[-75.43511,5.26483],[-75.43511,5.26483],[-75.43512,5.26484],[-75.43512,5.26484],[-75.43513,5.26485],[-75.43513,5.26485],[-75.43513,5.26485],[-75.43513,5.26486],[-75.43514,5.26486],[-75.43515,5.26487],[-75.43518,5.26491],[-75.43518,5.26491],[-75.43522,5.26498],[-75.43522,5.26498],[-75.43523,5.26498],[-75.43525,5.26503],[-75.4353,5.26507],[-75.43534,5.26515],[-75.43536,5.2652],[-75.43536,5.26521],[-75.43536,5.26521],[-75.43536,5.26522],[-75.43537,5.26522],[-75.43537,5.26523],[-75.43537,5.26524],[-75.43537,5.26524],[-75.43538,5.26525],[-75.43538,5.26525],[-75.43538,5.26526],[-75.43538,5.26527],[-75.43539,5.26528],[-75.43541,5.26533],[-75.43543,5.26536],[-75.43543,5.26537],[-75.43544,5.26537],[-75.43544,5.26538],[-75.43544,5.26538],[-75.43544,5.26539],[-75.43547,5.26543],[-75.43549,5.26547],[-75.43549,5.26547],[-75.43549,5.26547],[-75.4355,5.26548],[-75.4355,5.26549],[-75.4355,5.26549],[-75.43551,5.2655],[-75.43551,5.2655],[-75.43551,5.2655],[-75.43552,5.26551],[-75.43554,5.26555],[-75.43556,5.2656],[-75.43556,5.2656],[-75.43556,5.26561],[-75.43557,5.26562],[-75.43557,5.26562],[-75.43557,5.26562],[-75.43557,5.26563],[-75.43558,5.26564],[-75.4356,5.26568],[-75.43561,5.26573],[-75.43561,5.26573],[-75.43562,5.26574],[-75.43564,5.2658],[-75.43566,5.26585],[-75.43566,5.26586],[-75.43566,5.26586],[-75.43567,5.26587],[-75.43567,5.26588],[-75.43567,5.26588],[-75.43567,5.26589],[-75.43567,5.2659],[-75.43568,5.2659],[-75.43568,5.26591],[-75.4357,5.26595],[-75.43573,5.26599],[-75.43573,5.26599],[-75.43573,5.266],[-75.43573,5.266],[-75.43574,5.26601],[-75.43574,5.26601],[-75.43575,5.26601],[-75.43575,5.26602],[-75.43575,5.26602],[-75.43576,5.26602],[-75.43576,5.26603],[-75.43576,5.26603],[-75.43576,5.26603],[-75.43577,5.26604],[-75.43577,5.26605],[-75.43577,5.26605],[-75.43578,5.26605],[-75.43578,5.26605],[-75.43579,5.26606],[-75.43579,5.26607],[-75.4358,5.26607],[-75.4358,5.26608],[-75.43581,5.26608],[-75.43581,5.26609],[-75.43581,5.26609],[-75.43581,5.26609],[-75.43581,5.26609],[-75.43582,5.2661],[-75.43585,5.26614],[-75.43589,5.26617],[-75.43589,5.26618],[-75.4359,5.26618],[-75.4359,5.26618],[-75.43591,5.26619],[-75.43591,5.26619],[-75.43592,5.2662],[-75.43592,5.2662],[-75.43593,5.26621],[-75.43593,5.26621],[-75.43593,5.26621],[-75.43594,5.26622],[-75.43594,5.26622],[-75.43595,5.26623],[-75.43595,5.26623],[-75.43596,5.26624],[-75.436,5.26627],[-75.43603,5.2663],[-75.43603,5.26631],[-75.43604,5.26631],[-75.43604,5.26632],[-75.43605,5.26632],[-75.43605,5.26632],[-75.43606,5.26633],[-75.43607,5.26634],[-75.43607,5.26634],[-75.43608,5.26635],[-75.43608,5.26635],[-75.43609,5.26636],[-75.43612,5.2664],[-75.43617,5.26642],[-75.43618,5.26642],[-75.43618,5.26642],[-75.43619,5.26643],[-75.43619,5.26643],[-75.43619,5.26643],[-75.4362,5.26644],[-75.43621,5.26644],[-75.43622,5.26644],[-75.43622,5.26645],[-75.43623,5.26645],[-75.43624,5.26645],[-75.43624,5.26646]]]},"properties":{"FID":7,"OBJECTID":8,"Nombre":"Abaco Taparal - Quebrada negra","RuleID_1":28,"AREA_ha":331.574025392,"Shape_Leng":8143.22123216,"Shape_Area":3315740.22922}},{"type":"Feature","id":8,"geometry":{"type":"Polygon","coordinates":[[[-75.40738,5.29189],[-75.40729,5.29226],[-75.4072,5.29271],[-75.40711,5.29308],[-75.40711,5.29341],[-75.40713,5.29345],[-75.40735,5.29342],[-75.40743,5.29337],[-75.40757,5.29321],[-75.4077,5.29298],[-75.40792,5.29264],[-75.40808,5.29238],[-75.40815,5.29226],[-75.40823,5.2922],[-75.40845,5.29203],[-75.40848,5.292],[-75.40861,5.29182],[-75.40863,5.29181],[-75.40888,5.29168],[-75.40913,5.29171],[-75.40945,5.29179],[-75.40966,5.29177],[-75.40968,5.29177],[-75.40999,5.29166],[-75.41,5.29166],[-75.41027,5.29149],[-75.41033,5.29145],[-75.41048,5.29122],[-75.41066,5.29098],[-75.41072,5.29081],[-75.41075,5.29071],[-75.41081,5.29052],[-75.41088,5.29021],[-75.41103,5.28987],[-75.41108,5.28979],[-75.41127,5.28945],[-75.41144,5.2892],[-75.41164,5.28893],[-75.41175,5.28893],[-75.41192,5.28895],[-75.41221,5.28897],[-75.41221,5.28897],[-75.41275,5.28884],[-75.41291,5.28871],[-75.41294,5.28869],[-75.41287,5.28866],[-75.4127,5.28858],[-75.41252,5.28846],[-75.41233,5.28832],[-75.412,5.28815],[-75.41196,5.28813],[-75.4115,5.28814],[-75.41114,5.28812],[-75.41105,5.28812],[-75.41042,5.28809],[-75.41006,5.28788],[-75.40962,5.28775],[-75.40925,5.28774],[-75.40879,5.28782],[-75.40875,5.28785],[-75.40851,5.28802],[-75.40823,5.28842],[-75.40804,5.2888],[-75.40804,5.28927],[-75.40794,5.28964],[-75.40794,5.29002],[-75.40785,5.29058],[-75.40775,5.29086],[-75.40774,5.2909],[-75.40771,5.29097],[-75.40758,5.29127],[-75.40752,5.29141],[-75.40748,5.29151],[-75.40747,5.29152],[-75.40738,5.29189]]]},"properties":{"FID":8,"OBJECTID":9,"Nombre":"Abaco El Uvito","RuleID_1":12,"AREA_ha":17.0383982652,"Shape_Leng":2081.95533892,"Shape_Area":170383.987379}},{"type":"Feature","id":9,"geometry":{"type":"MultiPolygon","coordinates":[[[[-75.45359,5.21213],[-75.45394,5.21254],[-75.45401,5.21262],[-75.45407,5.2127],[-75.45412,5.21276],[-75.45418,5.21284],[-75.45422,5.21289],[-75.45438,5.21312],[-75.4545,5.2133],[-75.45453,5.21335],[-75.45456,5.21339],[-75.45487,5.2139],[-75.45491,5.21397],[-75.45491,5.21398],[-75.45495,5.21423],[-75.45495,5.21425],[-75.45496,5.21433],[-75.45503,5.21482],[-75.45503,5.21514],[-75.45502,5.21536],[-75.45501,5.21561],[-75.45501,5.21565],[-75.45501,5.21568],[-75.45508,5.21578],[-75.45534,5.21616],[-75.45578,5.21688],[-75.45588,5.21697],[-75.45601,5.21707],[-75.45629,5.21753],[-75.45639,5.21755],[-75.45642,5.2176],[-75.45627,5.21688],[-75.45576,5.21462],[-75.45567,5.21435],[-75.45556,5.21403],[-75.45549,5.21385],[-75.4554,5.21372],[-75.45509,5.21328],[-75.45478,5.21286],[-75.45444,5.21257],[-75.45428,5.21242],[-75.45388,5.2122],[-75.45356,5.21202],[-75.45359,5.21213]]],[[[-75.46752,5.22462],[-75.46795,5.2249],[-75.46796,5.2249],[-75.46822,5.22484],[-75.4686,5.2248],[-75.4691,5.22465],[-75.46928,5.2246],[-75.46965,5.22449],[-75.46962,5.2245],[-75.46947,5.2245],[-75.46913,5.22443],[-75.46854,5.2243],[-75.46836,5.22417],[-75.46809,5.22396],[-75.46805,5.22391],[-75.46795,5.22377],[-75.46775,5.22349],[-75.46765,5.22331],[-75.46742,5.22292],[-75.4672,5.22265],[-75.4663,5.2223],[-75.46558,5.2221],[-75.46547,5.22207],[-75.46525,5.22201],[-75.46507,5.22196],[-75.4638,5.22161],[-75.46276,5.2213],[-75.46266,5.22128],[-75.46265,5.22128],[-75.46259,5.22127],[-75.46239,5.22123],[-75.46225,5.22121],[-75.46183,5.22113],[-75.46175,5.22112],[-75.46052,5.22096],[-75.45965,5.22065],[-75.45954,5.22061],[-75.45914,5.22043],[-75.45904,5.22038],[-75.45904,5.22038],[-75.45845,5.21996],[-75.45832,5.21986],[-75.45817,5.21976],[-75.45765,5.21928],[-75.45713,5.2188],[-75.45707,5.21871],[-75.45667,5.21821],[-75.45671,5.21838],[-75.45677,5.21873],[-75.4568,5.21896],[-75.45687,5.21927],[-75.4571,5.21956],[-75.4576,5.21987],[-75.4581,5.22029],[-75.45829,5.22061],[-75.45833,5.22068],[-75.45858,5.22088],[-75.45886,5.2211],[-75.45919,5.22122],[-75.45927,5.22125],[-75.45946,5.22126],[-75.45977,5.22129],[-75.45978,5.22129],[-75.45985,5.2213],[-75.46023,5.22132],[-75.46045,5.22132],[-75.46077,5.22133],[-75.46106,5.22134],[-75.46121,5.22134],[-75.46142,5.22135],[-75.46148,5.22135],[-75.46193,5.22136],[-75.4626,5.22156],[-75.46275,5.22161],[-75.46285,5.22164],[-75.46327,5.22175],[-75.46378,5.22194],[-75.46422,5.22224],[-75.46459,5.22256],[-75.46484,5.22274],[-75.46516,5.22269],[-75.46558,5.22263],[-75.46578,5.2226],[-75.46583,5.22259],[-75.46623,5.22265],[-75.46659,5.2229],[-75.46682,5.22337],[-75.46683,5.2234],[-75.46688,5.22362],[-75.46693,5.22382],[-75.46694,5.22383],[-75.46715,5.22421],[-75.46716,5.22423],[-75.46724,5.22436],[-75.46732,5.22448],[-75.46732,5.22448],[-75.46752,5.22462]]],[[[-75.47597,5.22514],[-75.47642,5.22523],[-75.47677,5.2253],[-75.47677,5.2253],[-75.47761,5.22565],[-75.47849,5.22614],[-75.47875,5.22635],[-75.47903,5.22656],[-75.4795,5.22675],[-75.47954,5.22677],[-75.48003,5.2268],[-75.48015,5.22681],[-75.48069,5.22681],[-75.4811,5.22677],[-75.48102,5.22671],[-75.48101,5.22671],[-75.48084,5.22656],[-75.4806,5.22645],[-75.48026,5.22639],[-75.48021,5.22636],[-75.47972,5.22604],[-75.47938,5.22582],[-75.47836,5.22532],[-75.47814,5.22529],[-75.47809,5.22526],[-75.47788,5.22516],[-75.47751,5.2251],[-75.47691,5.22501],[-75.47629,5.22495],[-75.47608,5.22493],[-75.47606,5.22493],[-75.4757,5.22491],[-75.47362,5.22459],[-75.47361,5.22459],[-75.47314,5.22451],[-75.47311,5.22451],[-75.47358,5.22485],[-75.47358,5.22485],[-75.47359,5.22486],[-75.47402,5.22511],[-75.47411,5.22516],[-75.47414,5.22517],[-75.47472,5.22519],[-75.4748,5.22519],[-75.47522,5.22512],[-75.47557,5.22506],[-75.47597,5.22514]]]]},"properties":{"FID":9,"OBJECTID":10,"Nombre":"Abaco El Silencio - Cestillal","RuleID_1":11,"AREA_ha":17.8775981306,"Shape_Leng":6811.67350376,"Shape_Area":178775.974345}},{"type":"Feature","id":10,"geometry":{"type":"MultiPolygon","coordinates":[[[[-75.48517,5.22967],[-75.48528,5.22968],[-75.4858,5.22974],[-75.4863,5.22987],[-75.48683,5.23008],[-75.48721,5.23033],[-75.48726,5.23037],[-75.48724,5.23028],[-75.48707,5.22999],[-75.48654,5.22973],[-75.48652,5.22971],[-75.48644,5.22966],[-75.48637,5.22962],[-75.48621,5.22952],[-75.48584,5.22934],[-75.48571,5.22928],[-75.4855,5.22919],[-75.48534,5.22913],[-75.48464,5.22879],[-75.48415,5.22863],[-75.48379,5.22841],[-75.48378,5.22841],[-75.48365,5.22833],[-75.48355,5.22827],[-75.4826,5.22789],[-75.48214,5.22774],[-75.48213,5.22784],[-75.48236,5.22833],[-75.48246,5.2287],[-75.48275,5.22908],[-75.48299,5.22931],[-75.4831,5.22936],[-75.48341,5.22952],[-75.48348,5.22953],[-75.48401,5.22961],[-75.48439,5.22959],[-75.48441,5.22959],[-75.4848,5.22957],[-75.48517,5.22967]]],[[[-75.48905,5.23264],[-75.48926,5.23264],[-75.48955,5.23264],[-75.48988,5.23268],[-75.49025,5.23272],[-75.4906,5.23281],[-75.4908,5.23284],[-75.49097,5.23286],[-75.49138,5.23291],[-75.49155,5.23291],[-75.49177,5.2329],[-75.49192,5.2329],[-75.49199,5.2329],[-75.492,5.2329],[-75.49217,5.2329],[-75.49234,5.2329],[-75.49283,5.23283],[-75.49295,5.23281],[-75.49295,5.2328],[-75.49314,5.23273],[-75.49363,5.23254],[-75.4944,5.23232],[-75.49522,5.23223],[-75.49574,5.23212],[-75.49636,5.23205],[-75.49661,5.23199],[-75.49685,5.23189],[-75.49701,5.23182],[-75.49723,5.23167],[-75.49741,5.23155],[-75.4978,5.23129],[-75.49781,5.23128],[-75.49808,5.23102],[-75.49829,5.23061],[-75.4985,5.23029],[-75.49884,5.23],[-75.4992,5.22981],[-75.49935,5.22973],[-75.4997,5.22958],[-75.49986,5.22948],[-75.50002,5.22938],[-75.50018,5.22928],[-75.50022,5.22925],[-75.5004,5.22913],[-75.50052,5.22905],[-75.50073,5.2289],[-75.50101,5.22852],[-75.50129,5.22824],[-75.50137,5.22816],[-75.50138,5.22815],[-75.50162,5.22796],[-75.50122,5.228],[-75.50122,5.228],[-75.50113,5.22813],[-75.50101,5.22829],[-75.50092,5.22846],[-75.50087,5.22842],[-75.50075,5.22815],[-75.50067,5.22823],[-75.50059,5.22838],[-75.50054,5.22863],[-75.50044,5.22867],[-75.50009,5.22885],[-75.49988,5.22898],[-75.49945,5.2293],[-75.49932,5.22939],[-75.49924,5.22945],[-75.49923,5.22946],[-75.49891,5.22964],[-75.49879,5.22973],[-75.49867,5.22983],[-75.49866,5.22984],[-75.49834,5.23007],[-75.49832,5.23008],[-75.49802,5.23032],[-75.49768,5.2306],[-75.49728,5.23084],[-75.49703,5.23109],[-75.49678,5.23128],[-75.49677,5.23128],[-75.49625,5.23147],[-75.49566,5.23168],[-75.49556,5.23171],[-75.49539,5.23172],[-75.49516,5.23174],[-75.495,5.23177],[-75.49484,5.2318],[-75.49452,5.23186],[-75.49435,5.2319],[-75.49416,5.23194],[-75.49412,5.23195],[-75.49386,5.232],[-75.49346,5.23208],[-75.49333,5.23215],[-75.49325,5.23219],[-75.49313,5.23238],[-75.4931,5.23244],[-75.49281,5.23248],[-75.49278,5.23248],[-75.49271,5.2325],[-75.49267,5.23252],[-75.49247,5.23258],[-75.49242,5.2326],[-75.49238,5.2326],[-75.49221,5.2326],[-75.49185,5.2326],[-75.49155,5.2326],[-75.49119,5.2325],[-75.49077,5.23233],[-75.4898,5.23197],[-75.48879,5.23147],[-75.4881,5.23106],[-75.48836,5.23148],[-75.48844,5.2319],[-75.48854,5.23218],[-75.48862,5.23236],[-75.48865,5.23243],[-75.4887,5.23246],[-75.48905,5.23264]]]]},"properties":{"FID":10,"OBJECTID":11,"Nombre":"Abaco Los Chorros 2","RuleID_1":18,"AREA_ha":12.9059377611,"Shape_Leng":4896.46850835,"Shape_Area":129059.388969}},{"type":"Feature","id":11,"geometry":{"type":"Polygon","coordinates":[[[-75.49183,5.23296],[-75.49176,5.23298],[-75.49149,5.23308],[-75.49172,5.23326],[-75.4925,5.23386],[-75.49273,5.23404],[-75.49289,5.2345],[-75.49351,5.23512],[-75.4936,5.23521],[-75.49406,5.23578],[-75.49448,5.23614],[-75.49452,5.23617],[-75.49507,5.23662],[-75.49516,5.2367],[-75.4956,5.23732],[-75.4956,5.23732],[-75.49561,5.23732],[-75.49592,5.23748],[-75.49608,5.2378],[-75.49622,5.23808],[-75.49627,5.23842],[-75.49629,5.2386],[-75.49629,5.23861],[-75.49631,5.23877],[-75.49632,5.23877],[-75.49634,5.23895],[-75.49634,5.23902],[-75.49635,5.23961],[-75.49636,5.24018],[-75.49636,5.24028],[-75.49602,5.24148],[-75.49601,5.24156],[-75.49595,5.2418],[-75.49593,5.24205],[-75.49593,5.24254],[-75.49593,5.24288],[-75.49593,5.2429],[-75.49599,5.24302],[-75.4961,5.24323],[-75.49615,5.24325],[-75.49628,5.24332],[-75.49669,5.24334],[-75.49715,5.24336],[-75.49716,5.24335],[-75.49738,5.24307],[-75.49744,5.243],[-75.49753,5.24289],[-75.49771,5.24267],[-75.49774,5.24265],[-75.49791,5.24253],[-75.498,5.24247],[-75.49802,5.24246],[-75.49809,5.24241],[-75.49839,5.24219],[-75.49844,5.24214],[-75.49847,5.24212],[-75.49858,5.24202],[-75.49865,5.24196],[-75.49865,5.24195],[-75.49886,5.2414],[-75.49899,5.24111],[-75.499,5.24109],[-75.49903,5.24102],[-75.49938,5.2403],[-75.49967,5.23992],[-75.49989,5.23941],[-75.4999,5.23884],[-75.49978,5.2384],[-75.49957,5.23802],[-75.49955,5.23798],[-75.4995,5.23789],[-75.4995,5.23787],[-75.49944,5.23776],[-75.49944,5.23775],[-75.49935,5.23758],[-75.49934,5.23757],[-75.49929,5.23747],[-75.49904,5.2372],[-75.49878,5.23702],[-75.49839,5.23661],[-75.49819,5.23619],[-75.4981,5.236],[-75.49798,5.23569],[-75.49761,5.23514],[-75.49753,5.23481],[-75.49752,5.23479],[-75.49752,5.23444],[-75.49761,5.23414],[-75.49795,5.2335],[-75.49801,5.23325],[-75.49811,5.23283],[-75.49821,5.23238],[-75.49827,5.23212],[-75.49821,5.23208],[-75.49807,5.23198],[-75.49806,5.23198],[-75.49788,5.23189],[-75.49763,5.23177],[-75.49763,5.23177],[-75.4973,5.23184],[-75.49708,5.23189],[-75.49685,5.23189],[-75.49661,5.23199],[-75.49636,5.23205],[-75.49574,5.23212],[-75.49567,5.23213],[-75.49522,5.23223],[-75.4944,5.23232],[-75.49363,5.23254],[-75.49314,5.23273],[-75.49295,5.2328],[-75.49295,5.23281],[-75.49283,5.23283],[-75.49234,5.2329],[-75.49217,5.2329],[-75.492,5.2329],[-75.49199,5.2329],[-75.49183,5.23296]]]},"properties":{"FID":11,"OBJECTID":12,"Nombre":"Abaco Q. Muelas","RuleID_1":24,"AREA_ha":50.237617021,"Shape_Leng":3707.73228966,"Shape_Area":502376.15783}},{"type":"Feature","id":12,"geometry":{"type":"Polygon","coordinates":[[[-75.49438,5.33236],[-75.49379,5.33314],[-75.4933,5.33358],[-75.4931,5.33377],[-75.49277,5.33409],[-75.49266,5.33422],[-75.4923,5.3346],[-75.49194,5.33514],[-75.49167,5.33547],[-75.49123,5.33613],[-75.49102,5.33658],[-75.49102,5.33712],[-75.49099,5.3375],[-75.49096,5.33793],[-75.49099,5.33834],[-75.49099,5.33843],[-75.49117,5.33866],[-75.49144,5.339],[-75.49162,5.33912],[-75.49168,5.33916],[-75.49172,5.33918],[-75.49198,5.33936],[-75.49225,5.33972],[-75.49255,5.34031],[-75.49286,5.3405],[-75.49297,5.34056],[-75.49321,5.3407],[-75.49323,5.34071],[-75.49362,5.34091],[-75.49364,5.34092],[-75.49443,5.341],[-75.49457,5.34097],[-75.49512,5.34088],[-75.49515,5.34088],[-75.49568,5.3407],[-75.49613,5.34031],[-75.49625,5.33995],[-75.49625,5.33947],[-75.49625,5.33875],[-75.496,5.33806],[-75.49573,5.33744],[-75.49535,5.33663],[-75.49513,5.3357],[-75.49522,5.33496],[-75.49525,5.33415],[-75.49522,5.33325],[-75.49501,5.33271],[-75.49471,5.33218],[-75.49438,5.33236]]]},"properties":{"FID":12,"OBJECTID":13,"Nombre":"Abaco Volcán Azul","RuleID_1":30,"AREA_ha":36.5043662951,"Shape_Leng":2496.5519516,"Shape_Area":365043.666903}},{"type":"Feature","id":13,"geometry":{"type":"Polygon","coordinates":[[[-75.51136,5.26899],[-75.51136,5.26899],[-75.51137,5.269],[-75.51139,5.26901],[-75.51141,5.26902],[-75.51146,5.26903],[-75.51151,5.26904],[-75.51152,5.26905],[-75.51156,5.26906],[-75.51159,5.26907],[-75.51164,5.26909],[-75.51165,5.2691],[-75.51166,5.2691],[-75.51168,5.26911],[-75.51171,5.26913],[-75.51173,5.26914],[-75.51175,5.26914],[-75.51177,5.26915],[-75.51179,5.26916],[-75.51183,5.26917],[-75.51187,5.26918],[-75.51189,5.26918],[-75.51191,5.26919],[-75.51194,5.26919],[-75.51196,5.26919],[-75.51197,5.2692],[-75.51201,5.2692],[-75.51204,5.2692],[-75.51208,5.2692],[-75.51211,5.26919],[-75.51214,5.26918],[-75.51216,5.26917],[-75.5122,5.26915],[-75.51222,5.26913],[-75.51225,5.26911],[-75.51226,5.2691],[-75.51228,5.26909],[-75.5123,5.26908],[-75.51232,5.26907],[-75.51233,5.26906],[-75.51236,5.26905],[-75.5124,5.26903],[-75.51241,5.26902],[-75.51244,5.26901],[-75.51246,5.269],[-75.51249,5.26898],[-75.51252,5.26897],[-75.51255,5.26896],[-75.51259,5.26893],[-75.51263,5.26891],[-75.51265,5.2689],[-75.51268,5.26889],[-75.5127,5.26888],[-75.51273,5.26888],[-75.51276,5.26888],[-75.5128,5.26891],[-75.51281,5.26892],[-75.51283,5.26893],[-75.51285,5.26896],[-75.51286,5.26897],[-75.51286,5.26897],[-75.5129,5.269],[-75.51291,5.26901],[-75.51295,5.26903],[-75.51298,5.26905],[-75.51301,5.26906],[-75.51304,5.26907],[-75.51305,5.26907],[-75.51307,5.26908],[-75.5131,5.26908],[-75.51314,5.26908],[-75.51317,5.26907],[-75.51319,5.26905],[-75.5132,5.26903],[-75.51321,5.26899],[-75.51321,5.26896],[-75.51321,5.26893],[-75.51321,5.26893],[-75.5132,5.26891],[-75.51321,5.26888],[-75.51321,5.26883],[-75.51321,5.2688],[-75.51322,5.26874],[-75.51322,5.26874],[-75.51322,5.2687],[-75.51322,5.2687],[-75.51322,5.26868],[-75.51321,5.26866],[-75.51322,5.26864],[-75.51322,5.26861],[-75.51324,5.26855],[-75.51326,5.2685],[-75.51328,5.26844],[-75.5133,5.26841],[-75.5133,5.26841],[-75.51332,5.26837],[-75.51333,5.26835],[-75.51335,5.2683],[-75.51337,5.26829],[-75.5134,5.26825],[-75.51344,5.26822],[-75.51348,5.2682],[-75.5135,5.26818],[-75.51351,5.26817],[-75.51354,5.26816],[-75.51354,5.26816],[-75.51356,5.26813],[-75.5136,5.26811],[-75.51365,5.26804],[-75.51369,5.268],[-75.51371,5.26797],[-75.51373,5.26795],[-75.51371,5.26792],[-75.51373,5.26788],[-75.51374,5.26784],[-75.51373,5.26781],[-75.51373,5.26778],[-75.51375,5.26776],[-75.51375,5.26772],[-75.51376,5.2677],[-75.51376,5.26767],[-75.51377,5.26764],[-75.51377,5.26764],[-75.51377,5.26762],[-75.51377,5.26761],[-75.51376,5.2676],[-75.5137,5.26758],[-75.51367,5.26756],[-75.51363,5.26755],[-75.51361,5.26754],[-75.51356,5.26752],[-75.51352,5.26751],[-75.51348,5.26752],[-75.51342,5.26752],[-75.51341,5.26752],[-75.51334,5.26752],[-75.51329,5.26753],[-75.51325,5.26753],[-75.51321,5.26753],[-75.51316,5.26754],[-75.51314,5.26754],[-75.51309,5.26756],[-75.51308,5.26757],[-75.51306,5.26757],[-75.51304,5.26758],[-75.51303,5.26758],[-75.51298,5.26759],[-75.51294,5.26759],[-75.51294,5.26759],[-75.51291,5.26759],[-75.51288,5.2676],[-75.51285,5.26759],[-75.51282,5.26759],[-75.51281,5.26758],[-75.5128,5.26757],[-75.51278,5.26757],[-75.51276,5.26756],[-75.51272,5.26754],[-75.5127,5.26752],[-75.51268,5.26748],[-75.51267,5.26746],[-75.51264,5.26743],[-75.51259,5.26741],[-75.51259,5.26741],[-75.51258,5.26741],[-75.51254,5.26739],[-75.51252,5.26738],[-75.51248,5.26737],[-75.51244,5.26736],[-75.51242,5.26736],[-75.5124,5.26737],[-75.51238,5.26738],[-75.51236,5.26738],[-75.51234,5.2674],[-75.51228,5.26742],[-75.51228,5.26742],[-75.51225,5.26742],[-75.51222,5.26745],[-75.51221,5.26745],[-75.51219,5.26746],[-75.51216,5.26749],[-75.51212,5.26752],[-75.5121,5.26754],[-75.51207,5.26757],[-75.51206,5.26757],[-75.51201,5.26758],[-75.51194,5.26759],[-75.51192,5.2676],[-75.51189,5.26762],[-75.51186,5.26763],[-75.51181,5.26766],[-75.51177,5.2677],[-75.51176,5.26772],[-75.51173,5.26775],[-75.51171,5.26776],[-75.51168,5.26778],[-75.51165,5.26779],[-75.51163,5.2678],[-75.5116,5.2678],[-75.51156,5.26781],[-75.51151,5.26781],[-75.51148,5.26781],[-75.51145,5.26781],[-75.51141,5.26781],[-75.51138,5.26781],[-75.51136,5.26781],[-75.51133,5.2678],[-75.5113,5.2678],[-75.51126,5.2678],[-75.51122,5.26781],[-75.5112,5.26781],[-75.51117,5.26784],[-75.51117,5.26784],[-75.51116,5.26786],[-75.51116,5.26788],[-75.51115,5.2679],[-75.51115,5.26795],[-75.51115,5.26797],[-75.51114,5.26799],[-75.51114,5.26801],[-75.51113,5.26804],[-75.51113,5.26806],[-75.51112,5.2681],[-75.51112,5.26813],[-75.51112,5.26815],[-75.51111,5.26818],[-75.51111,5.26821],[-75.51111,5.26823],[-75.5111,5.26826],[-75.5111,5.26829],[-75.5111,5.2683],[-75.5111,5.2683],[-75.5111,5.26832],[-75.5111,5.26835],[-75.5111,5.26838],[-75.5111,5.26841],[-75.5111,5.26842],[-75.51104,5.26842],[-75.51094,5.26842],[-75.51084,5.26839],[-75.51079,5.26831],[-75.51069,5.26829],[-75.51059,5.26829],[-75.51051,5.26834],[-75.51044,5.26839],[-75.51049,5.26847],[-75.51051,5.26857],[-75.51054,5.26867],[-75.51054,5.26877],[-75.51056,5.26887],[-75.51059,5.26897],[-75.51064,5.26905],[-75.51067,5.26915],[-75.51077,5.26915],[-75.51087,5.26915],[-75.51097,5.26912],[-75.51107,5.26912],[-75.51115,5.26907],[-75.51125,5.26905],[-75.51129,5.26902],[-75.5113,5.26901],[-75.51132,5.269],[-75.51134,5.26899],[-75.51136,5.26899]]]},"properties":{"FID":13,"OBJECTID":14,"Nombre":"Abaco Naranjal","RuleID_1":22,"AREA_ha":4.71834665953,"Shape_Leng":1040.38568851,"Shape_Area":47183.4666826}},{"type":"Feature","id":14,"geometry":{"type":"Polygon","coordinates":[[[-75.49816,5.32515],[-75.4981,5.32586],[-75.49799,5.32641],[-75.49791,5.32681],[-75.49766,5.32743],[-75.49734,5.32803],[-75.49697,5.32874],[-75.49665,5.32963],[-75.4967,5.33017],[-75.49681,5.33052],[-75.49716,5.33069],[-75.4977,5.33096],[-75.4982,5.33117],[-75.49855,5.3315],[-75.49903,5.33173],[-75.49953,5.33213],[-75.49968,5.33225],[-75.49975,5.33242],[-75.49992,5.33264],[-75.50005,5.33281],[-75.5003,5.33309],[-75.50069,5.33332],[-75.50073,5.33334],[-75.501,5.33339],[-75.50134,5.33347],[-75.50153,5.33347],[-75.50159,5.33347],[-75.50174,5.33346],[-75.50229,5.33326],[-75.50265,5.33306],[-75.50269,5.33304],[-75.50337,5.33264],[-75.50357,5.33242],[-75.50417,5.33203],[-75.50468,5.33171],[-75.50506,5.33133],[-75.5053,5.33119],[-75.50531,5.33119],[-75.50616,5.33088],[-75.50681,5.33052],[-75.50744,5.33017],[-75.50806,5.32988],[-75.50904,5.3294],[-75.50972,5.32903],[-75.51033,5.32861],[-75.51092,5.32833],[-75.51093,5.32829],[-75.51097,5.32814],[-75.51104,5.32783],[-75.51105,5.3278],[-75.5105,5.3269],[-75.51026,5.32659],[-75.51025,5.32656],[-75.5102,5.32647],[-75.5101,5.3263],[-75.50999,5.32584],[-75.50995,5.32573],[-75.50988,5.3255],[-75.50983,5.32537],[-75.50982,5.32517],[-75.50982,5.32505],[-75.50974,5.32484],[-75.50955,5.32483],[-75.50951,5.32482],[-75.50947,5.32482],[-75.50913,5.32492],[-75.50908,5.32493],[-75.5089,5.32497],[-75.50865,5.32501],[-75.50851,5.32504],[-75.50824,5.32509],[-75.50792,5.32509],[-75.5078,5.32509],[-75.50753,5.32501],[-75.50705,5.32465],[-75.50697,5.3246],[-75.5067,5.32444],[-75.5065,5.32433],[-75.50626,5.32421],[-75.50613,5.32415],[-75.50573,5.32372],[-75.50519,5.32355],[-75.50486,5.3235],[-75.50452,5.32336],[-75.5041,5.32318],[-75.50391,5.32312],[-75.50351,5.32298],[-75.50347,5.32297],[-75.50337,5.32295],[-75.50317,5.3229],[-75.50265,5.32281],[-75.50229,5.32275],[-75.50211,5.32271],[-75.50141,5.32247],[-75.50122,5.3224],[-75.50048,5.32224],[-75.50027,5.32216],[-75.49989,5.32216],[-75.49947,5.32236],[-75.49915,5.32254],[-75.49914,5.32254],[-75.4991,5.32267],[-75.49907,5.32278],[-75.49892,5.32302],[-75.49882,5.3232],[-75.4988,5.32323],[-75.49863,5.32345],[-75.49861,5.32347],[-75.4985,5.3237],[-75.49842,5.32386],[-75.49829,5.3241],[-75.49823,5.32423],[-75.49816,5.32515]]]},"properties":{"FID":14,"OBJECTID":15,"Nombre":"Abaco El Curador","RuleID_1":10,"AREA_ha":123.153869548,"Shape_Leng":4464.4668396,"Shape_Area":1231538.70639}},{"type":"Feature","id":15,"geometry":{"type":"Polygon","coordinates":[[[-75.44107,5.26792],[-75.4412,5.2685],[-75.44126,5.26877],[-75.44127,5.26881],[-75.44129,5.26883],[-75.44227,5.26954],[-75.44302,5.27009],[-75.4437,5.27095],[-75.4439,5.2712],[-75.44438,5.27131],[-75.44441,5.27132],[-75.44451,5.27134],[-75.44462,5.27136],[-75.44463,5.27136],[-75.4449,5.27156],[-75.44507,5.27169],[-75.44521,5.27179],[-75.44608,5.2724],[-75.44629,5.27254],[-75.44646,5.27262],[-75.44658,5.27267],[-75.44714,5.2729],[-75.44857,5.27351],[-75.44867,5.27355],[-75.44912,5.27374],[-75.4495,5.2739],[-75.4495,5.2739],[-75.45123,5.27457],[-75.45257,5.27564],[-75.45416,5.27643],[-75.45658,5.27631],[-75.45831,5.2763],[-75.4584,5.27629],[-75.45858,5.27629],[-75.45882,5.27628],[-75.45906,5.27627],[-75.46096,5.2762],[-75.4627,5.27494],[-75.46462,5.27347],[-75.46575,5.27288],[-75.4665,5.27249],[-75.46691,5.27234],[-75.46705,5.27229],[-75.46707,5.27229],[-75.4671,5.27228],[-75.46797,5.27198],[-75.46797,5.27198],[-75.46803,5.27196],[-75.46806,5.27195],[-75.46821,5.2719],[-75.46828,5.27187],[-75.46864,5.27175],[-75.46863,5.27139],[-75.46861,5.26979],[-75.46811,5.26944],[-75.46805,5.2694],[-75.46762,5.2691],[-75.46694,5.26863],[-75.46608,5.26803],[-75.46544,5.26768],[-75.46397,5.26688],[-75.46397,5.26688],[-75.46392,5.26685],[-75.46391,5.26684],[-75.46357,5.26666],[-75.46353,5.26663],[-75.46341,5.26657],[-75.46292,5.2663],[-75.46287,5.26627],[-75.4623,5.26597],[-75.46083,5.26602],[-75.4599,5.26637],[-75.4598,5.26642],[-75.45951,5.26653],[-75.45844,5.26696],[-75.45812,5.26709],[-75.45778,5.26723],[-75.45775,5.26724],[-75.45771,5.26726],[-75.45758,5.26731],[-75.45752,5.26733],[-75.45731,5.26726],[-75.4571,5.26719],[-75.45706,5.26718],[-75.45704,5.26717],[-75.45691,5.26713],[-75.45665,5.26705],[-75.45652,5.26701],[-75.4557,5.26688],[-75.45508,5.26644],[-75.45434,5.26672],[-75.45361,5.26697],[-75.45205,5.267],[-75.45163,5.26703],[-75.45112,5.26707],[-75.45045,5.26713],[-75.44877,5.26725],[-75.44698,5.2674],[-75.44531,5.26775],[-75.44382,5.26718],[-75.44334,5.267],[-75.44258,5.26671],[-75.44255,5.26669],[-75.44196,5.26666],[-75.44125,5.26662],[-75.44086,5.2666],[-75.44078,5.2666],[-75.44086,5.26693],[-75.44107,5.26792]]]},"properties":{"FID":15,"OBJECTID":16,"Nombre":"Abaco EL BILLANTE - PENDIENTE","RuleID_1":9,"AREA_ha":229.757290736,"Shape_Leng":7190.27329339,"Shape_Area":2297572.81622}},{"type":"Feature","id":16,"geometry":{"type":"Polygon","coordinates":[[[-75.40492,5.28312],[-75.40497,5.28331],[-75.40501,5.28346],[-75.40524,5.28437],[-75.40529,5.2845],[-75.40536,5.28467],[-75.4054,5.28477],[-75.40542,5.28479],[-75.4055,5.28488],[-75.40552,5.28522],[-75.40553,5.28546],[-75.40558,5.28594],[-75.40562,5.28637],[-75.40576,5.28677],[-75.40587,5.28714],[-75.40598,5.28742],[-75.40601,5.28749],[-75.40607,5.28763],[-75.40608,5.28767],[-75.40611,5.28771],[-75.40607,5.28786],[-75.40607,5.28815],[-75.40611,5.28827],[-75.40621,5.28851],[-75.40624,5.28862],[-75.40625,5.28885],[-75.40636,5.28915],[-75.4064,5.28936],[-75.40642,5.28946],[-75.40676,5.28974],[-75.40718,5.29098],[-75.40729,5.2911],[-75.40747,5.29133],[-75.40758,5.29127],[-75.40827,5.29091],[-75.4086,5.29074],[-75.40933,5.29061],[-75.41013,5.29047],[-75.41035,5.29043],[-75.41051,5.29009],[-75.41066,5.28974],[-75.41072,5.28962],[-75.41076,5.28953],[-75.41087,5.28938],[-75.41116,5.289],[-75.41119,5.28896],[-75.41131,5.2888],[-75.41139,5.28879],[-75.41158,5.28876],[-75.41203,5.2887],[-75.41247,5.28849],[-75.41252,5.28846],[-75.41341,5.28803],[-75.41345,5.288],[-75.41367,5.28788],[-75.41464,5.2873],[-75.41471,5.28719],[-75.41484,5.28699],[-75.41494,5.28675],[-75.41496,5.28671],[-75.41501,5.28659],[-75.41501,5.28659],[-75.41512,5.28633],[-75.41517,5.28619],[-75.41522,5.28602],[-75.41524,5.28598],[-75.41527,5.28586],[-75.41532,5.28566],[-75.41542,5.28523],[-75.41544,5.28514],[-75.41566,5.28458],[-75.41597,5.28355],[-75.41621,5.28338],[-75.4164,5.28326],[-75.41653,5.28317],[-75.41683,5.28297],[-75.41715,5.28303],[-75.41835,5.28325],[-75.41902,5.28292],[-75.41949,5.28277],[-75.41981,5.28267],[-75.4204,5.28319],[-75.42083,5.28373],[-75.4209,5.28382],[-75.42111,5.28408],[-75.42117,5.28416],[-75.42129,5.28431],[-75.42203,5.28485],[-75.42269,5.28499],[-75.42296,5.28504],[-75.4236,5.28471],[-75.42385,5.28458],[-75.42517,5.28463],[-75.42636,5.2848],[-75.4266,5.28484],[-75.42667,5.28486],[-75.428,5.28537],[-75.42813,5.28542],[-75.4282,5.28546],[-75.42838,5.28549],[-75.42843,5.28553],[-75.42857,5.28562],[-75.42874,5.28568],[-75.42896,5.28588],[-75.42906,5.28597],[-75.42911,5.28602],[-75.42925,5.2861],[-75.42927,5.28611],[-75.4298,5.28628],[-75.42996,5.28633],[-75.43019,5.28636],[-75.43029,5.28637],[-75.43029,5.28637],[-75.43036,5.28638],[-75.43049,5.28642],[-75.43057,5.28644],[-75.43058,5.28644],[-75.43068,5.28644],[-75.4307,5.28644],[-75.43083,5.28642],[-75.4309,5.2864],[-75.43101,5.28638],[-75.4312,5.28635],[-75.4312,5.28635],[-75.43123,5.28635],[-75.43124,5.28636],[-75.4313,5.28641],[-75.43135,5.28645],[-75.43135,5.28645],[-75.43135,5.28645],[-75.43143,5.28652],[-75.43148,5.28656],[-75.43151,5.28657],[-75.43182,5.2866],[-75.432,5.28662],[-75.43221,5.28664],[-75.43424,5.28562],[-75.43442,5.2855],[-75.43444,5.28548],[-75.43484,5.28525],[-75.43534,5.28507],[-75.43576,5.28536],[-75.43636,5.28537],[-75.43658,5.28537],[-75.43657,5.2856],[-75.43656,5.28595],[-75.43673,5.28607],[-75.43674,5.28608],[-75.43676,5.28609],[-75.43691,5.28623],[-75.43695,5.28626],[-75.43709,5.28633],[-75.43729,5.28643],[-75.43729,5.28643],[-75.43732,5.28644],[-75.43735,5.28646],[-75.43764,5.28654],[-75.43778,5.28661],[-75.43801,5.2867],[-75.43805,5.28671],[-75.43811,5.28672],[-75.43842,5.28683],[-75.43856,5.28684],[-75.4387,5.28683],[-75.43883,5.28682],[-75.43898,5.28676],[-75.43903,5.28676],[-75.43929,5.28678],[-75.43929,5.28678],[-75.43936,5.28681],[-75.43943,5.28685],[-75.43949,5.28689],[-75.4396,5.28694],[-75.43962,5.28694],[-75.43978,5.28692],[-75.43982,5.28692],[-75.44008,5.28692],[-75.44021,5.28695],[-75.44022,5.28696],[-75.44076,5.28625],[-75.44086,5.28618],[-75.44137,5.28586],[-75.44128,5.28563],[-75.44121,5.28543],[-75.44203,5.28544],[-75.44226,5.28545],[-75.44288,5.2849],[-75.44297,5.28483],[-75.44402,5.28401],[-75.44419,5.28387],[-75.4444,5.2837],[-75.44451,5.28359],[-75.44453,5.28357],[-75.44488,5.28317],[-75.44502,5.28301],[-75.44503,5.28253],[-75.44503,5.28252],[-75.44503,5.28242],[-75.44503,5.28227],[-75.44503,5.28226],[-75.44503,5.28185],[-75.44486,5.28154],[-75.44481,5.28145],[-75.44446,5.2808],[-75.44438,5.28065],[-75.4443,5.28046],[-75.44404,5.27986],[-75.44386,5.27964],[-75.44327,5.27893],[-75.44322,5.27888],[-75.44211,5.27764],[-75.44205,5.2776],[-75.44166,5.27736],[-75.43958,5.27605],[-75.43913,5.27565],[-75.4389,5.27545],[-75.43843,5.27501],[-75.43779,5.27444],[-75.43769,5.27435],[-75.43698,5.27371],[-75.43689,5.27345],[-75.43638,5.27205],[-75.43634,5.27193],[-75.43573,5.27025],[-75.4357,5.27016],[-75.4354,5.26933],[-75.4354,5.26932],[-75.43408,5.26567],[-75.43394,5.26528],[-75.43383,5.26497],[-75.43379,5.26487],[-75.43371,5.26465],[-75.43334,5.26362],[-75.43333,5.26359],[-75.43333,5.26359],[-75.43309,5.26292],[-75.43308,5.2629],[-75.43302,5.26274],[-75.43297,5.2626],[-75.43293,5.26256],[-75.4328,5.26245],[-75.43274,5.2624],[-75.43233,5.26204],[-75.43223,5.26195],[-75.43218,5.26191],[-75.43201,5.26176],[-75.43169,5.26148],[-75.43163,5.26141],[-75.43072,5.26027],[-75.43054,5.25887],[-75.42992,5.25772],[-75.42894,5.25655],[-75.42882,5.25629],[-75.42853,5.25563],[-75.42855,5.25555],[-75.42873,5.25471],[-75.42874,5.25466],[-75.4288,5.25438],[-75.42882,5.2542],[-75.42888,5.25314],[-75.42877,5.25264],[-75.42871,5.25241],[-75.42887,5.25201],[-75.42906,5.25154],[-75.42931,5.25089],[-75.42932,5.25085],[-75.4293,5.25061],[-75.42926,5.25026],[-75.42925,5.25021],[-75.42926,5.25018],[-75.42928,5.24989],[-75.42928,5.24984],[-75.4293,5.24963],[-75.42931,5.24947],[-75.42932,5.24935],[-75.42933,5.24924],[-75.42934,5.24912],[-75.42935,5.24893],[-75.42935,5.24893],[-75.42943,5.24833],[-75.42949,5.24785],[-75.42949,5.24783],[-75.4295,5.24767],[-75.4295,5.24754],[-75.42951,5.24738],[-75.42953,5.24689],[-75.42836,5.24638],[-75.42817,5.2463],[-75.42779,5.24613],[-75.42747,5.24599],[-75.42745,5.24596],[-75.42726,5.24566],[-75.42703,5.24531],[-75.4268,5.24506],[-75.42676,5.24502],[-75.42644,5.24467],[-75.42616,5.24444],[-75.426,5.24378],[-75.42585,5.24335],[-75.4258,5.2432],[-75.42556,5.24246],[-75.4255,5.24227],[-75.42548,5.24153],[-75.42556,5.24048],[-75.42525,5.2404],[-75.42472,5.24026],[-75.42464,5.24024],[-75.42387,5.24035],[-75.42363,5.24039],[-75.42353,5.2404],[-75.42293,5.24049],[-75.42177,5.23992],[-75.42128,5.23968],[-75.42099,5.23953],[-75.42086,5.23947],[-75.42085,5.23946],[-75.42043,5.2393],[-75.4194,5.23892],[-75.41901,5.2389],[-75.41792,5.2393],[-75.41678,5.2397],[-75.41657,5.23958],[-75.41521,5.23881],[-75.41452,5.23845],[-75.41397,5.23816],[-75.41346,5.2379],[-75.41341,5.23788],[-75.41332,5.23784],[-75.41285,5.2376],[-75.41171,5.23696],[-75.4117,5.23695],[-75.41129,5.23608],[-75.41097,5.23571],[-75.41087,5.23551],[-75.41056,5.23528],[-75.4102,5.23501],[-75.40971,5.23466],[-75.40958,5.23456],[-75.40931,5.23437],[-75.40911,5.23426],[-75.40846,5.23388],[-75.40807,5.23366],[-75.4072,5.23344],[-75.40697,5.23338],[-75.4069,5.23329],[-75.40681,5.23319],[-75.40633,5.23261],[-75.40633,5.23261],[-75.40595,5.23205],[-75.40577,5.23178],[-75.40566,5.23162],[-75.40557,5.23089],[-75.40553,5.2306],[-75.40552,5.23056],[-75.40552,5.23054],[-75.4055,5.23041],[-75.4055,5.23039],[-75.40546,5.23037],[-75.40543,5.23035],[-75.40378,5.22939],[-75.40346,5.22919],[-75.40344,5.22919],[-75.40316,5.22902],[-75.40285,5.22884],[-75.40222,5.22858],[-75.40135,5.22844],[-75.40089,5.22837],[-75.40076,5.22829],[-75.40057,5.22817],[-75.40037,5.22804],[-75.4003,5.22802],[-75.39978,5.22785],[-75.3991,5.22764],[-75.39898,5.2276],[-75.39769,5.22671],[-75.39761,5.22665],[-75.3969,5.22621],[-75.39662,5.22604],[-75.39662,5.22604],[-75.39661,5.22604],[-75.39652,5.22604],[-75.39534,5.2261],[-75.39533,5.22609],[-75.39527,5.22605],[-75.39481,5.22568],[-75.39477,5.22565],[-75.39454,5.22547],[-75.39401,5.22523],[-75.39383,5.22514],[-75.3933,5.22489],[-75.39317,5.22483],[-75.39256,5.22454],[-75.39244,5.22449],[-75.39239,5.22444],[-75.39202,5.22406],[-75.39182,5.22385],[-75.39172,5.22375],[-75.39023,5.22369],[-75.38902,5.22469],[-75.38806,5.22547],[-75.38769,5.22558],[-75.38763,5.22559],[-75.38686,5.22581],[-75.38562,5.22588],[-75.38466,5.22627],[-75.38442,5.22649],[-75.38427,5.22679],[-75.38427,5.22681],[-75.3838,5.22677],[-75.38373,5.22681],[-75.38348,5.22699],[-75.38335,5.22707],[-75.38249,5.22726],[-75.38156,5.22721],[-75.3809,5.22685],[-75.37986,5.22628],[-75.37864,5.22656],[-75.37861,5.22656],[-75.37829,5.22664],[-75.37777,5.22715],[-75.37724,5.22775],[-75.37711,5.22883],[-75.37715,5.23042],[-75.37729,5.23144],[-75.37771,5.23199],[-75.37784,5.23209],[-75.37795,5.23217],[-75.37798,5.23219],[-75.37841,5.23263],[-75.37851,5.2327],[-75.37851,5.2327],[-75.37857,5.23278],[-75.37871,5.23291],[-75.37876,5.23297],[-75.37884,5.23308],[-75.37889,5.23316],[-75.37901,5.23339],[-75.37903,5.23341],[-75.3791,5.23346],[-75.37926,5.23357],[-75.37958,5.23377],[-75.37975,5.23382],[-75.37979,5.23385],[-75.37995,5.23395],[-75.38002,5.23401],[-75.38011,5.23406],[-75.38018,5.23411],[-75.38019,5.23412],[-75.38027,5.23417],[-75.38035,5.23422],[-75.38035,5.23422],[-75.38036,5.23423],[-75.38037,5.23424],[-75.38038,5.23424],[-75.38043,5.23428],[-75.38045,5.23429],[-75.38052,5.23436],[-75.38064,5.23452],[-75.38065,5.23453],[-75.38068,5.23458],[-75.38088,5.23489],[-75.38091,5.23499],[-75.38096,5.23515],[-75.38102,5.23532],[-75.38124,5.23598],[-75.38135,5.23618],[-75.38143,5.23633],[-75.38148,5.23638],[-75.3815,5.2364],[-75.3815,5.23641],[-75.38151,5.23645],[-75.38159,5.23659],[-75.38164,5.23667],[-75.3817,5.23676],[-75.38175,5.23685],[-75.3818,5.23694],[-75.38189,5.23706],[-75.38195,5.23714],[-75.382,5.23721],[-75.38202,5.23723],[-75.3821,5.23733],[-75.38217,5.23739],[-75.38223,5.23746],[-75.3823,5.23753],[-75.38238,5.23761],[-75.3824,5.23763],[-75.38246,5.23767],[-75.38254,5.23773],[-75.38258,5.23776],[-75.3826,5.23777],[-75.38267,5.23781],[-75.38276,5.23785],[-75.3828,5.23787],[-75.38284,5.23789],[-75.38295,5.23795],[-75.38303,5.23799],[-75.38312,5.238],[-75.38312,5.238],[-75.38316,5.238],[-75.38331,5.23818],[-75.38349,5.23841],[-75.38374,5.23873],[-75.38412,5.23934],[-75.38418,5.23948],[-75.3842,5.23953],[-75.38433,5.2398],[-75.38438,5.23992],[-75.38439,5.23994],[-75.38446,5.24009],[-75.38447,5.24014],[-75.38469,5.2407],[-75.38482,5.24086],[-75.38482,5.24087],[-75.38493,5.241],[-75.38524,5.24116],[-75.38546,5.24133],[-75.38571,5.24159],[-75.38581,5.24171],[-75.38596,5.24191],[-75.38624,5.24214],[-75.3863,5.24218],[-75.38659,5.24256],[-75.3869,5.24295],[-75.38712,5.24321],[-75.38739,5.2436],[-75.38757,5.24409],[-75.38758,5.24415],[-75.38758,5.24422],[-75.38758,5.24445],[-75.38758,5.24448],[-75.38758,5.24452],[-75.38758,5.24454],[-75.38755,5.24467],[-75.38748,5.2449],[-75.38739,5.24512],[-75.38737,5.24514],[-75.38731,5.24519],[-75.38724,5.24524],[-75.38717,5.2453],[-75.38717,5.2453],[-75.38702,5.24546],[-75.38696,5.24556],[-75.38682,5.24576],[-75.38671,5.24592],[-75.38666,5.24609],[-75.38662,5.24629],[-75.38663,5.24647],[-75.38661,5.2466],[-75.38655,5.24672],[-75.38646,5.24692],[-75.3862,5.24745],[-75.38599,5.24796],[-75.38595,5.24806],[-75.38595,5.24806],[-75.38594,5.24808],[-75.38592,5.24812],[-75.38589,5.24818],[-75.38587,5.24827],[-75.38586,5.24828],[-75.38581,5.24843],[-75.38581,5.24844],[-75.38577,5.24854],[-75.38571,5.24872],[-75.38569,5.24878],[-75.38566,5.24884],[-75.38556,5.24911],[-75.38553,5.24917],[-75.3855,5.24929],[-75.38545,5.24942],[-75.38544,5.24947],[-75.38539,5.24965],[-75.38532,5.24975],[-75.38532,5.24975],[-75.3847,5.25072],[-75.38464,5.25078],[-75.38453,5.25094],[-75.38437,5.25112],[-75.38422,5.25128],[-75.38437,5.25148],[-75.38447,5.2516],[-75.38449,5.25163],[-75.38467,5.25186],[-75.38494,5.25221],[-75.385,5.25233],[-75.38514,5.25263],[-75.3852,5.25277],[-75.38558,5.25359],[-75.38662,5.25454],[-75.38756,5.25514],[-75.38786,5.25591],[-75.3883,5.25704],[-75.38861,5.25803],[-75.38863,5.25811],[-75.38879,5.25893],[-75.38881,5.25902],[-75.38884,5.2592],[-75.38922,5.25984],[-75.38914,5.26008],[-75.38914,5.26009],[-75.38918,5.26015],[-75.38918,5.26017],[-75.38924,5.26024],[-75.38929,5.26032],[-75.3893,5.26033],[-75.38935,5.26041],[-75.38938,5.26045],[-75.38938,5.26045],[-75.38945,5.26051],[-75.38948,5.26053],[-75.38953,5.26057],[-75.3896,5.26062],[-75.38969,5.26068],[-75.38971,5.2607],[-75.38974,5.26073],[-75.38981,5.26078],[-75.38988,5.26083],[-75.38996,5.26089],[-75.38999,5.26092],[-75.39003,5.26095],[-75.39007,5.26097],[-75.3902,5.26109],[-75.39026,5.26118],[-75.39026,5.26118],[-75.39036,5.26122],[-75.39091,5.26146],[-75.39105,5.26152],[-75.39107,5.26153],[-75.39112,5.26155],[-75.39177,5.26249],[-75.39178,5.26252],[-75.39187,5.26274],[-75.39208,5.26324],[-75.3921,5.26331],[-75.39211,5.26333],[-75.39229,5.26376],[-75.39227,5.2643],[-75.39226,5.26474],[-75.39224,5.26529],[-75.39223,5.2657],[-75.39224,5.2659],[-75.39225,5.26591],[-75.39225,5.26593],[-75.39226,5.26603],[-75.39227,5.26609],[-75.39228,5.26612],[-75.39234,5.26651],[-75.39241,5.26681],[-75.39238,5.26694],[-75.39233,5.26707],[-75.39232,5.26708],[-75.39232,5.26771],[-75.39232,5.26774],[-75.39234,5.26775],[-75.39327,5.26813],[-75.39326,5.26929],[-75.3937,5.27068],[-75.39359,5.27188],[-75.39328,5.27289],[-75.39328,5.27317],[-75.39374,5.27413],[-75.39378,5.27414],[-75.39447,5.27408],[-75.39501,5.27403],[-75.39566,5.27398],[-75.39651,5.27477],[-75.39682,5.27494],[-75.39708,5.27513],[-75.3973,5.27531],[-75.39731,5.27531],[-75.39783,5.27559],[-75.39853,5.27598],[-75.40005,5.27719],[-75.40129,5.27751],[-75.40181,5.27743],[-75.40186,5.27742],[-75.40195,5.27741],[-75.40233,5.27735],[-75.40285,5.27763],[-75.40296,5.27769],[-75.40335,5.2779],[-75.40346,5.27796],[-75.40423,5.27836],[-75.40436,5.2804],[-75.40447,5.28079],[-75.40466,5.28144],[-75.40481,5.28271],[-75.40487,5.28292],[-75.40492,5.28312]]]},"properties":{"FID":16,"OBJECTID":17,"Nombre":"Abaco CHAMBERY","RuleID_1":6,"AREA_ha":2822.86727546,"Shape_Leng":26017.675289,"Shape_Area":28228672.7121}}]}