{"type":"FeatureCollection","name":"Clase_Agrologica_VIII","crs":{"type":"name","properties":{"name":"urn:ogc:def:crs:OGC:1.3:CRS84"}},"features":[{"type":"Feature","id":0,"geometry":{"type":"MultiPolygon","coordinates":[[[[-75.44166,5.21527],[-75.44165,5.21528],[-75.44148,5.21551],[-75.44134,5.2157],[-75.44125,5.21581],[-75.44121,5.21584],[-75.44108,5.21604],[-75.44097,5.21617],[-75.44087,5.2163],[-75.44085,5.21633],[-75.44047,5.21655],[-75.43968,5.21702],[-75.43737,5.21742],[-75.4356,5.21793],[-75.43499,5.21825],[-75.43489,5.21837],[-75.43463,5.21867],[-75.43461,5.21868],[-75.43454,5.21876],[-75.43435,5.21894],[-75.43419,5.21912],[-75.43417,5.21914],[-75.43408,5.21924],[-75.43414,5.21924],[-75.43416,5.21924],[-75.43452,5.21925],[-75.43506,5.21928],[-75.43515,5.21928],[-75.43515,5.21928],[-75.43554,5.2193],[-75.43555,5.2193],[-75.43579,5.21931],[-75.43657,5.21934],[-75.43695,5.21943],[-75.43698,5.21944],[-75.43758,5.21958],[-75.4377,5.21961],[-75.4379,5.21966],[-75.43883,5.21988],[-75.43922,5.2196],[-75.43928,5.21956],[-75.43959,5.21933],[-75.43964,5.2193],[-75.43976,5.21921],[-75.44036,5.21877],[-75.441,5.21831],[-75.44113,5.21822],[-75.44126,5.21812],[-75.4419,5.21766],[-75.44189,5.21759],[-75.44189,5.21758],[-75.44184,5.21704],[-75.44184,5.21703],[-75.4418,5.21657],[-75.44179,5.21646],[-75.44178,5.21639],[-75.44172,5.21571],[-75.4417,5.21548],[-75.44169,5.21535],[-75.44168,5.21524],[-75.44166,5.21527]]],[[[-75.4171,5.24648],[-75.4173,5.24673],[-75.41738,5.24683],[-75.41763,5.24716],[-75.41784,5.24742],[-75.41949,5.24755],[-75.42119,5.24699],[-75.4213,5.24694],[-75.42213,5.24655],[-75.42307,5.24611],[-75.42441,5.24648],[-75.42489,5.2466],[-75.42497,5.24661],[-75.42542,5.24673],[-75.42542,5.24673],[-75.4255,5.24674],[-75.42643,5.24698],[-75.42733,5.24663],[-75.42804,5.24635],[-75.42807,5.24634],[-75.42817,5.2463],[-75.42817,5.2463],[-75.42822,5.24628],[-75.42859,5.24529],[-75.42861,5.24522],[-75.42862,5.24519],[-75.42884,5.24459],[-75.42885,5.24455],[-75.42895,5.24429],[-75.42947,5.24312],[-75.43,5.24194],[-75.43128,5.24069],[-75.43227,5.2409],[-75.4331,5.24107],[-75.43321,5.24109],[-75.43326,5.2411],[-75.4345,5.24216],[-75.43549,5.24188],[-75.43606,5.24171],[-75.43619,5.24168],[-75.4362,5.24167],[-75.43641,5.24161],[-75.43648,5.2416],[-75.43661,5.24152],[-75.43674,5.24146],[-75.43682,5.24141],[-75.43709,5.24126],[-75.43727,5.24117],[-75.43741,5.24109],[-75.43751,5.24104],[-75.43854,5.24048],[-75.43957,5.23997],[-75.44059,5.23946],[-75.44161,5.23895],[-75.44327,5.23931],[-75.44486,5.2398],[-75.44491,5.23975],[-75.44565,5.23903],[-75.44578,5.2389],[-75.44606,5.23863],[-75.44609,5.2386],[-75.44613,5.23856],[-75.44617,5.23852],[-75.44645,5.23825],[-75.44724,5.23747],[-75.44674,5.23687],[-75.44667,5.23679],[-75.44638,5.23645],[-75.44588,5.23557],[-75.4457,5.23412],[-75.44569,5.23401],[-75.44572,5.23397],[-75.44601,5.23364],[-75.44638,5.23321],[-75.44678,5.23276],[-75.44663,5.23265],[-75.44646,5.23252],[-75.44623,5.23235],[-75.4454,5.2311],[-75.4462,5.23062],[-75.44695,5.23016],[-75.44699,5.23014],[-75.447,5.23013],[-75.4471,5.23009],[-75.44714,5.23008],[-75.44745,5.22995],[-75.44861,5.22948],[-75.44862,5.22944],[-75.44911,5.2281],[-75.44857,5.2274],[-75.44848,5.22729],[-75.44842,5.22722],[-75.44839,5.22718],[-75.44829,5.22705],[-75.44779,5.2264],[-75.44768,5.22626],[-75.44735,5.22624],[-75.44702,5.22623],[-75.4468,5.22622],[-75.44677,5.22623],[-75.44635,5.22649],[-75.44618,5.2266],[-75.44613,5.22662],[-75.44597,5.22672],[-75.44589,5.22677],[-75.44497,5.22733],[-75.44414,5.22778],[-75.44399,5.22786],[-75.4439,5.22791],[-75.44387,5.22793],[-75.44387,5.22793],[-75.44288,5.22847],[-75.4428,5.22852],[-75.44277,5.22853],[-75.44272,5.22851],[-75.44266,5.22848],[-75.44193,5.2281],[-75.44192,5.22809],[-75.44185,5.22805],[-75.44159,5.22792],[-75.44128,5.22776],[-75.44118,5.2277],[-75.44093,5.22757],[-75.44144,5.22676],[-75.44154,5.22661],[-75.44186,5.22609],[-75.44196,5.22594],[-75.44201,5.22587],[-75.44238,5.22529],[-75.44238,5.22528],[-75.44248,5.22512],[-75.44324,5.22442],[-75.44398,5.22372],[-75.444,5.22371],[-75.44401,5.2237],[-75.44455,5.2232],[-75.44477,5.223],[-75.44462,5.22269],[-75.44416,5.2217],[-75.44412,5.22162],[-75.44381,5.22163],[-75.443,5.22165],[-75.44246,5.22167],[-75.44212,5.22175],[-75.44143,5.22193],[-75.44134,5.22195],[-75.4404,5.22218],[-75.43937,5.22269],[-75.43874,5.22301],[-75.43846,5.22315],[-75.43835,5.2232],[-75.43825,5.22325],[-75.4382,5.22328],[-75.43809,5.22333],[-75.43798,5.22339],[-75.43776,5.2235],[-75.43732,5.22371],[-75.43725,5.22373],[-75.43683,5.22386],[-75.43627,5.22402],[-75.43521,5.22434],[-75.43416,5.22465],[-75.43385,5.22447],[-75.43341,5.22423],[-75.43343,5.22428],[-75.43345,5.2244],[-75.43348,5.22451],[-75.43348,5.22452],[-75.43342,5.22461],[-75.43339,5.22466],[-75.43337,5.2247],[-75.43332,5.22478],[-75.43327,5.22487],[-75.43318,5.225],[-75.43313,5.22508],[-75.43306,5.22523],[-75.43301,5.22532],[-75.43292,5.22543],[-75.43286,5.2255],[-75.4328,5.22558],[-75.43275,5.22566],[-75.43273,5.22569],[-75.43268,5.22577],[-75.43262,5.22586],[-75.43257,5.22594],[-75.43251,5.22603],[-75.43242,5.2262],[-75.43237,5.22628],[-75.43232,5.22638],[-75.43227,5.22646],[-75.43226,5.22663],[-75.43225,5.22672],[-75.43224,5.22686],[-75.43223,5.22696],[-75.43222,5.22706],[-75.43221,5.22717],[-75.4322,5.22727],[-75.4322,5.22746],[-75.4322,5.22762],[-75.4322,5.22763],[-75.4322,5.22765],[-75.4322,5.22775],[-75.43215,5.22789],[-75.43212,5.22797],[-75.43208,5.22806],[-75.43205,5.22815],[-75.43201,5.22825],[-75.43201,5.22836],[-75.43195,5.22847],[-75.4319,5.22856],[-75.43185,5.22865],[-75.43182,5.22869],[-75.43115,5.22902],[-75.43092,5.22929],[-75.43073,5.22946],[-75.4307,5.22946],[-75.43061,5.22953],[-75.43053,5.22959],[-75.43052,5.2296],[-75.43037,5.22966],[-75.4303,5.22967],[-75.43021,5.22969],[-75.43011,5.2297],[-75.43002,5.22972],[-75.42992,5.22973],[-75.42982,5.22974],[-75.42975,5.22974],[-75.42962,5.22974],[-75.42952,5.22974],[-75.42942,5.22974],[-75.42931,5.22975],[-75.42928,5.22976],[-75.42918,5.22977],[-75.42908,5.2298],[-75.42899,5.22983],[-75.4289,5.22986],[-75.42871,5.22989],[-75.42862,5.22991],[-75.42852,5.22992],[-75.42842,5.22993],[-75.42833,5.22997],[-75.42824,5.23],[-75.42816,5.23003],[-75.42803,5.23007],[-75.42801,5.23007],[-75.42792,5.2301],[-75.42778,5.23013],[-75.42769,5.23015],[-75.42759,5.23017],[-75.42752,5.23017],[-75.42746,5.23015],[-75.42726,5.23009],[-75.42634,5.23018],[-75.42617,5.23035],[-75.42615,5.23042],[-75.42607,5.23045],[-75.42602,5.23057],[-75.42602,5.23058],[-75.42598,5.23059],[-75.42596,5.2306],[-75.42592,5.23062],[-75.42587,5.23064],[-75.42578,5.23069],[-75.42569,5.23073],[-75.42561,5.23077],[-75.42554,5.23084],[-75.42551,5.23088],[-75.42551,5.23088],[-75.42545,5.23095],[-75.42537,5.23103],[-75.42528,5.23113],[-75.42521,5.2312],[-75.42514,5.23127],[-75.42512,5.23128],[-75.42501,5.23136],[-75.42493,5.23143],[-75.42485,5.23148],[-75.42475,5.23163],[-75.42468,5.23172],[-75.42461,5.23178],[-75.42454,5.23185],[-75.42451,5.23188],[-75.42447,5.23191],[-75.42442,5.23204],[-75.42438,5.23213],[-75.42435,5.23221],[-75.42431,5.2323],[-75.42428,5.23239],[-75.42423,5.23248],[-75.42418,5.23257],[-75.42413,5.23266],[-75.42409,5.23274],[-75.42403,5.23287],[-75.42399,5.23296],[-75.42395,5.23311],[-75.42393,5.2332],[-75.4239,5.23329],[-75.42388,5.23339],[-75.42388,5.23342],[-75.42387,5.23352],[-75.42385,5.23362],[-75.42383,5.2338],[-75.42382,5.2339],[-75.4238,5.234],[-75.42377,5.23416],[-75.42375,5.23426],[-75.42373,5.23436],[-75.42371,5.23448],[-75.42368,5.23457],[-75.42366,5.23467],[-75.42364,5.23478],[-75.42362,5.23488],[-75.42361,5.23497],[-75.42359,5.23507],[-75.42357,5.23519],[-75.42354,5.23529],[-75.42352,5.23538],[-75.4235,5.23548],[-75.42348,5.23557],[-75.42346,5.23567],[-75.42344,5.23576],[-75.42342,5.23586],[-75.42339,5.23604],[-75.42337,5.23613],[-75.42335,5.23624],[-75.42329,5.23642],[-75.42329,5.23642],[-75.42326,5.23651],[-75.42323,5.2366],[-75.42317,5.23677],[-75.42314,5.23686],[-75.4231,5.23695],[-75.42307,5.23704],[-75.42304,5.23713],[-75.423,5.23722],[-75.42297,5.23731],[-75.42295,5.23745],[-75.42288,5.23757],[-75.42283,5.23766],[-75.42278,5.23774],[-75.42273,5.23783],[-75.42267,5.23792],[-75.42262,5.238],[-75.42257,5.23808],[-75.42252,5.23817],[-75.4225,5.2382],[-75.42235,5.23836],[-75.42217,5.23889],[-75.42216,5.23891],[-75.42208,5.23896],[-75.422,5.23902],[-75.42195,5.23906],[-75.42193,5.23906],[-75.4195,5.23892],[-75.4194,5.23892],[-75.41901,5.2389],[-75.41887,5.23889],[-75.41804,5.23884],[-75.41798,5.23884],[-75.41623,5.23896],[-75.4154,5.23865],[-75.41489,5.2381],[-75.41428,5.2377],[-75.41356,5.23737],[-75.41259,5.23714],[-75.41228,5.23706],[-75.41198,5.2369],[-75.41164,5.23649],[-75.41129,5.23608],[-75.41097,5.23571],[-75.41087,5.23551],[-75.41064,5.23505],[-75.41059,5.23493],[-75.41056,5.2349],[-75.41054,5.23487],[-75.41052,5.23485],[-75.41036,5.23465],[-75.41029,5.23456],[-75.41024,5.23452],[-75.40962,5.23404],[-75.40949,5.23385],[-75.40886,5.2336],[-75.40812,5.23314],[-75.40762,5.23283],[-75.40691,5.23258],[-75.40664,5.23249],[-75.40653,5.23247],[-75.40616,5.23183],[-75.4059,5.23118],[-75.40577,5.23057],[-75.40553,5.23056],[-75.40552,5.23056],[-75.4055,5.23055],[-75.40546,5.23055],[-75.40488,5.23051],[-75.40398,5.23045],[-75.40307,5.23038],[-75.40194,5.23052],[-75.40131,5.2306],[-75.40131,5.2306],[-75.40081,5.23066],[-75.40054,5.232],[-75.40049,5.23215],[-75.40046,5.23222],[-75.40005,5.23341],[-75.40087,5.23371],[-75.40094,5.23373],[-75.40102,5.23376],[-75.40182,5.23406],[-75.40271,5.23438],[-75.40292,5.23482],[-75.403,5.23499],[-75.40331,5.23561],[-75.40334,5.23568],[-75.40345,5.2359],[-75.40391,5.23691],[-75.40438,5.23793],[-75.40518,5.23843],[-75.40599,5.23894],[-75.40649,5.23914],[-75.40649,5.23914],[-75.407,5.23935],[-75.40703,5.23936],[-75.40765,5.23962],[-75.40825,5.23992],[-75.40903,5.24031],[-75.40932,5.24089],[-75.40954,5.24132],[-75.40958,5.24166],[-75.40963,5.24199],[-75.40968,5.24238],[-75.40974,5.24251],[-75.40975,5.24251],[-75.40989,5.2428],[-75.41007,5.24318],[-75.41013,5.24329],[-75.41017,5.24337],[-75.41047,5.24399],[-75.41063,5.24411],[-75.41087,5.24431],[-75.41114,5.24451],[-75.41117,5.24454],[-75.4116,5.24487],[-75.41176,5.245],[-75.41265,5.24467],[-75.4127,5.24465],[-75.41353,5.24435],[-75.41379,5.24425],[-75.41382,5.24424],[-75.41442,5.24402],[-75.41612,5.24388],[-75.41636,5.24554],[-75.4171,5.24648]],[[-75.43779,5.2293],[-75.43822,5.22989],[-75.43804,5.23085],[-75.43738,5.23152],[-75.43726,5.23164],[-75.43708,5.23233],[-75.43715,5.23288],[-75.43723,5.23348],[-75.43714,5.23464],[-75.43604,5.23551],[-75.43462,5.23593],[-75.43337,5.23603],[-75.43181,5.23613],[-75.43171,5.23617],[-75.43126,5.23636],[-75.4311,5.23645],[-75.4303,5.23692],[-75.42966,5.23724],[-75.42896,5.23632],[-75.42928,5.23535],[-75.42929,5.23534],[-75.42931,5.23527],[-75.4296,5.23438],[-75.4293,5.23413],[-75.429,5.23388],[-75.429,5.23388],[-75.42863,5.23296],[-75.42863,5.23296],[-75.4287,5.23289],[-75.4297,5.23188],[-75.42986,5.23171],[-75.42993,5.23169],[-75.43056,5.23152],[-75.43068,5.2314],[-75.43092,5.23115],[-75.43104,5.23106],[-75.43184,5.23046],[-75.43294,5.23004],[-75.43386,5.23013],[-75.4339,5.23013],[-75.4339,5.23013],[-75.43425,5.2301],[-75.43501,5.23003],[-75.43541,5.22989],[-75.43566,5.2298],[-75.43592,5.22971],[-75.43693,5.22929],[-75.43751,5.22922],[-75.43771,5.2292],[-75.43779,5.2293]]],[[[-75.38532,5.23682],[-75.38541,5.23682],[-75.38565,5.23684],[-75.38571,5.23684],[-75.38574,5.23685],[-75.38626,5.23688],[-75.3863,5.23705],[-75.38631,5.23705],[-75.38634,5.23721],[-75.38644,5.2376],[-75.3866,5.2382],[-75.38666,5.23844],[-75.38666,5.23846],[-75.38667,5.2385],[-75.38668,5.23854],[-75.38667,5.23856],[-75.38667,5.23858],[-75.3866,5.23874],[-75.38618,5.23979],[-75.38601,5.24022],[-75.38578,5.24078],[-75.38568,5.24103],[-75.38576,5.24147],[-75.38578,5.24155],[-75.38581,5.24171],[-75.38596,5.24191],[-75.38624,5.24214],[-75.3863,5.24218],[-75.38659,5.24256],[-75.3869,5.24295],[-75.38712,5.24321],[-75.38739,5.2436],[-75.38757,5.24409],[-75.38758,5.24415],[-75.38758,5.24422],[-75.38758,5.24445],[-75.38758,5.24448],[-75.38758,5.24452],[-75.38758,5.24454],[-75.38755,5.24467],[-75.38748,5.2449],[-75.38739,5.24512],[-75.38737,5.24514],[-75.38731,5.24519],[-75.38724,5.24524],[-75.38717,5.2453],[-75.38723,5.24542],[-75.38724,5.24545],[-75.38726,5.2455],[-75.38731,5.24645],[-75.38736,5.2474],[-75.38737,5.24759],[-75.38741,5.24835],[-75.38677,5.24997],[-75.38593,5.25059],[-75.3859,5.25062],[-75.38546,5.25095],[-75.38527,5.25109],[-75.38503,5.25126],[-75.38492,5.25134],[-75.38466,5.25152],[-75.38449,5.25163],[-75.38436,5.25173],[-75.38422,5.25182],[-75.38416,5.25186],[-75.38412,5.25189],[-75.38375,5.25214],[-75.38367,5.25221],[-75.38367,5.25235],[-75.38373,5.25247],[-75.38382,5.25268],[-75.38385,5.25271],[-75.38387,5.25272],[-75.38389,5.25274],[-75.38396,5.2528],[-75.38403,5.25287],[-75.38416,5.25291],[-75.38417,5.25292],[-75.38431,5.25308],[-75.38436,5.25314],[-75.38444,5.2532],[-75.38464,5.25334],[-75.38482,5.25341],[-75.38491,5.25345],[-75.38504,5.25358],[-75.38509,5.25363],[-75.38527,5.25383],[-75.38528,5.25387],[-75.38528,5.25387],[-75.38539,5.25418],[-75.38541,5.25485],[-75.38543,5.25529],[-75.3854,5.25539],[-75.38539,5.25544],[-75.38533,5.25568],[-75.38533,5.2562],[-75.38547,5.25667],[-75.38579,5.25704],[-75.38608,5.2573],[-75.38622,5.25741],[-75.3864,5.25756],[-75.38687,5.25785],[-75.38701,5.25793],[-75.38712,5.258],[-75.38733,5.25813],[-75.38746,5.25821],[-75.3875,5.25825],[-75.38756,5.25832],[-75.38763,5.25839],[-75.38769,5.25845],[-75.38776,5.25852],[-75.38782,5.25858],[-75.38789,5.25865],[-75.38794,5.25871],[-75.38797,5.25873],[-75.38799,5.25875],[-75.38803,5.2588],[-75.3881,5.25897],[-75.38831,5.25933],[-75.38859,5.25962],[-75.38879,5.25978],[-75.38901,5.25997],[-75.38912,5.26006],[-75.38914,5.26008],[-75.38914,5.26009],[-75.38918,5.26015],[-75.38918,5.26017],[-75.38924,5.26024],[-75.38929,5.26032],[-75.3893,5.26033],[-75.38935,5.26041],[-75.38938,5.26045],[-75.38938,5.26045],[-75.38945,5.26051],[-75.38948,5.26053],[-75.38953,5.26057],[-75.3896,5.26062],[-75.38969,5.26068],[-75.38971,5.2607],[-75.38974,5.26073],[-75.38981,5.26078],[-75.38988,5.26083],[-75.38996,5.26089],[-75.38999,5.26092],[-75.39003,5.26095],[-75.39007,5.26097],[-75.3902,5.26109],[-75.39026,5.26118],[-75.39026,5.26118],[-75.39034,5.26129],[-75.39046,5.26147],[-75.39068,5.26169],[-75.39076,5.26177],[-75.39087,5.26183],[-75.391,5.26198],[-75.3912,5.26219],[-75.39143,5.2625],[-75.39164,5.26285],[-75.39168,5.26295],[-75.39169,5.26298],[-75.39171,5.26301],[-75.39172,5.26304],[-75.39176,5.26313],[-75.3918,5.26322],[-75.39183,5.26331],[-75.39187,5.26342],[-75.39191,5.26352],[-75.39194,5.26361],[-75.39197,5.2637],[-75.392,5.26379],[-75.39202,5.26388],[-75.39203,5.26389],[-75.39203,5.2639],[-75.39203,5.26391],[-75.39208,5.26412],[-75.39208,5.26413],[-75.39207,5.2643],[-75.39207,5.26432],[-75.39205,5.26454],[-75.39204,5.26463],[-75.39204,5.26465],[-75.39203,5.26494],[-75.39201,5.26522],[-75.39202,5.26527],[-75.39224,5.26529],[-75.39233,5.2653],[-75.39278,5.26535],[-75.39371,5.26544],[-75.39368,5.26452],[-75.39366,5.26359],[-75.39364,5.2631],[-75.39363,5.26266],[-75.39342,5.26208],[-75.39324,5.26156],[-75.39316,5.26133],[-75.39303,5.26097],[-75.39299,5.26086],[-75.39298,5.26083],[-75.39284,5.26045],[-75.39251,5.25958],[-75.39234,5.25924],[-75.39231,5.25919],[-75.39226,5.25907],[-75.39221,5.25898],[-75.39217,5.25891],[-75.39208,5.25872],[-75.39165,5.25786],[-75.39129,5.25716],[-75.39121,5.257],[-75.39088,5.25619],[-75.39082,5.25604],[-75.39066,5.25565],[-75.39052,5.25531],[-75.39042,5.25507],[-75.3903,5.25466],[-75.3901,5.254],[-75.38977,5.25292],[-75.38945,5.25185],[-75.38956,5.25095],[-75.38967,5.25005],[-75.3904,5.24906],[-75.39113,5.24806],[-75.39196,5.24732],[-75.39278,5.24658],[-75.39303,5.24575],[-75.39308,5.24561],[-75.39312,5.24548],[-75.3932,5.24522],[-75.39337,5.24465],[-75.39295,5.24303],[-75.3927,5.24263],[-75.3924,5.24215],[-75.39237,5.24211],[-75.39235,5.24207],[-75.39204,5.24158],[-75.3918,5.2412],[-75.39162,5.24092],[-75.3911,5.24011],[-75.39099,5.23995],[-75.39041,5.23903],[-75.38996,5.23819],[-75.38991,5.23809],[-75.38963,5.23756],[-75.38951,5.23735],[-75.38906,5.2365],[-75.38897,5.23617],[-75.38874,5.23538],[-75.38863,5.235],[-75.38863,5.23499],[-75.38847,5.23445],[-75.38841,5.23425],[-75.38843,5.23331],[-75.38845,5.23238],[-75.38847,5.23145],[-75.38766,5.23116],[-75.38699,5.23085],[-75.38697,5.23084],[-75.38647,5.23071],[-75.38589,5.23062],[-75.38527,5.23053],[-75.38506,5.23059],[-75.38498,5.23061],[-75.38496,5.23061],[-75.38371,5.23097],[-75.38362,5.23099],[-75.3835,5.23107],[-75.38327,5.2312],[-75.38324,5.23122],[-75.38317,5.23126],[-75.38292,5.23141],[-75.38281,5.23147],[-75.382,5.23195],[-75.38119,5.23243],[-75.3802,5.23213],[-75.37921,5.23184],[-75.37879,5.2311],[-75.37842,5.23016],[-75.37805,5.22921],[-75.37722,5.22816],[-75.37786,5.22751],[-75.37864,5.227],[-75.38011,5.22709],[-75.3809,5.22685],[-75.38163,5.22662],[-75.38155,5.22646],[-75.38152,5.22639],[-75.38093,5.22636],[-75.38057,5.22635],[-75.37953,5.22603],[-75.37904,5.22571],[-75.37863,5.22566],[-75.37809,5.22566],[-75.37805,5.22568],[-75.37799,5.22563],[-75.37792,5.22556],[-75.37785,5.2255],[-75.37772,5.22537],[-75.37771,5.22536],[-75.3777,5.22536],[-75.37763,5.22529],[-75.37752,5.22516],[-75.37746,5.22511],[-75.37745,5.22509],[-75.37739,5.22502],[-75.37733,5.22495],[-75.37726,5.22488],[-75.3772,5.22481],[-75.37714,5.22474],[-75.37704,5.22468],[-75.37696,5.22463],[-75.37688,5.22457],[-75.3768,5.22452],[-75.37672,5.22447],[-75.37666,5.22443],[-75.37664,5.22441],[-75.37655,5.22436],[-75.37647,5.22431],[-75.3764,5.22426],[-75.37634,5.22422],[-75.37632,5.22421],[-75.37624,5.22416],[-75.37624,5.22416],[-75.37616,5.2241],[-75.37608,5.22405],[-75.37599,5.22401],[-75.3759,5.22397],[-75.37582,5.22392],[-75.37573,5.22388],[-75.37563,5.22383],[-75.37555,5.22379],[-75.37546,5.22375],[-75.37537,5.22371],[-75.37529,5.22366],[-75.37524,5.22364],[-75.37515,5.22361],[-75.37506,5.22358],[-75.37497,5.22355],[-75.37488,5.22352],[-75.3748,5.22349],[-75.37471,5.22346],[-75.37462,5.22343],[-75.37454,5.22341],[-75.37445,5.22338],[-75.37442,5.22337],[-75.37432,5.22331],[-75.37424,5.22326],[-75.37415,5.22321],[-75.37407,5.22316],[-75.37397,5.2231],[-75.37389,5.22305],[-75.37384,5.22301],[-75.37377,5.22296],[-75.37369,5.22291],[-75.37361,5.22285],[-75.37353,5.2228],[-75.37345,5.22274],[-75.37337,5.22268],[-75.37331,5.22264],[-75.37329,5.22262],[-75.37321,5.22257],[-75.37313,5.22251],[-75.37305,5.22245],[-75.37301,5.22242],[-75.37296,5.22238],[-75.37289,5.22232],[-75.37285,5.22229],[-75.37282,5.22227],[-75.37271,5.22218],[-75.37263,5.22212],[-75.37255,5.22205],[-75.37248,5.222],[-75.3722,5.22177],[-75.3723,5.22213],[-75.37233,5.22221],[-75.37236,5.2223],[-75.37236,5.22231],[-75.37239,5.22239],[-75.37242,5.22249],[-75.37244,5.22258],[-75.37247,5.22267],[-75.3725,5.22275],[-75.37252,5.22284],[-75.37255,5.22294],[-75.37258,5.22303],[-75.37261,5.22312],[-75.37263,5.22321],[-75.37266,5.2233],[-75.37269,5.22339],[-75.37272,5.22349],[-75.37275,5.22358],[-75.37277,5.22366],[-75.3728,5.22374],[-75.3728,5.22375],[-75.3728,5.22376],[-75.37283,5.22386],[-75.37287,5.22395],[-75.37291,5.22406],[-75.37293,5.22411],[-75.37295,5.22415],[-75.37298,5.22425],[-75.37302,5.22434],[-75.37305,5.22443],[-75.37309,5.22452],[-75.37312,5.2246],[-75.37315,5.22469],[-75.37319,5.22478],[-75.37322,5.22486],[-75.37325,5.22495],[-75.37329,5.22504],[-75.37332,5.22513],[-75.37336,5.22524],[-75.37338,5.22531],[-75.3734,5.2254],[-75.37343,5.22549],[-75.37346,5.22558],[-75.37348,5.22568],[-75.37351,5.22577],[-75.37351,5.22578],[-75.37354,5.22587],[-75.37356,5.22596],[-75.37359,5.22604],[-75.37361,5.22613],[-75.37364,5.22622],[-75.37366,5.22631],[-75.37369,5.22639],[-75.37371,5.22645],[-75.37372,5.22649],[-75.37372,5.2265],[-75.37374,5.22658],[-75.37379,5.22666],[-75.37384,5.22673],[-75.37389,5.22681],[-75.37395,5.2269],[-75.37397,5.22694],[-75.37399,5.22698],[-75.374,5.22699],[-75.37405,5.22706],[-75.3741,5.22715],[-75.37415,5.22723],[-75.37419,5.22729],[-75.3742,5.22731],[-75.37421,5.22732],[-75.37426,5.2274],[-75.37434,5.22756],[-75.37438,5.22765],[-75.37443,5.22773],[-75.37447,5.22782],[-75.37452,5.22791],[-75.37456,5.22799],[-75.37461,5.22809],[-75.37463,5.22814],[-75.37465,5.22817],[-75.37469,5.22826],[-75.37474,5.22834],[-75.37478,5.22843],[-75.37482,5.22851],[-75.37485,5.22857],[-75.37486,5.22859],[-75.37491,5.22869],[-75.37496,5.22878],[-75.375,5.22886],[-75.37509,5.22897],[-75.37514,5.22904],[-75.3752,5.22912],[-75.37526,5.22919],[-75.37533,5.22927],[-75.37538,5.22934],[-75.37545,5.22942],[-75.37551,5.22949],[-75.37557,5.22957],[-75.37563,5.22964],[-75.37569,5.22972],[-75.37575,5.22979],[-75.37581,5.22987],[-75.37588,5.22995],[-75.37594,5.23003],[-75.376,5.23011],[-75.37601,5.23012],[-75.37601,5.23012],[-75.37607,5.2302],[-75.37614,5.23028],[-75.3762,5.23036],[-75.37628,5.23044],[-75.37634,5.23051],[-75.37641,5.23059],[-75.37648,5.23066],[-75.37654,5.23073],[-75.37661,5.2308],[-75.37667,5.23087],[-75.37674,5.23094],[-75.3768,5.23101],[-75.37687,5.23108],[-75.37693,5.23115],[-75.377,5.23122],[-75.37707,5.23129],[-75.37713,5.23136],[-75.3772,5.23143],[-75.37725,5.23148],[-75.3774,5.23168],[-75.37757,5.23188],[-75.37771,5.23199],[-75.37784,5.23209],[-75.37795,5.23217],[-75.37798,5.23219],[-75.37841,5.23263],[-75.37851,5.2327],[-75.37851,5.2327],[-75.37857,5.23278],[-75.37871,5.23291],[-75.37876,5.23297],[-75.37884,5.23308],[-75.37889,5.23316],[-75.37901,5.23339],[-75.37903,5.23341],[-75.3791,5.23346],[-75.37926,5.23357],[-75.37958,5.23377],[-75.37975,5.23382],[-75.37979,5.23385],[-75.37995,5.23395],[-75.38002,5.23401],[-75.38011,5.23406],[-75.38018,5.23411],[-75.38019,5.23412],[-75.38027,5.23417],[-75.38035,5.23422],[-75.38035,5.23422],[-75.38036,5.23423],[-75.38037,5.23424],[-75.38038,5.23424],[-75.38043,5.23428],[-75.38045,5.23429],[-75.38052,5.23436],[-75.38064,5.23452],[-75.38065,5.23453],[-75.38068,5.23458],[-75.38088,5.23489],[-75.38091,5.23499],[-75.38096,5.23515],[-75.38102,5.23532],[-75.38124,5.23598],[-75.38135,5.23618],[-75.38143,5.23633],[-75.38148,5.23638],[-75.3815,5.2364],[-75.3815,5.23641],[-75.38151,5.23645],[-75.38159,5.23659],[-75.38164,5.23667],[-75.3817,5.23676],[-75.38175,5.23685],[-75.3818,5.23694],[-75.38189,5.23706],[-75.38195,5.23714],[-75.382,5.23721],[-75.38202,5.23723],[-75.38206,5.23729],[-75.3821,5.23733],[-75.38217,5.23739],[-75.38223,5.23746],[-75.3823,5.23753],[-75.38238,5.23761],[-75.3824,5.23763],[-75.38258,5.23751],[-75.38265,5.23747],[-75.38269,5.23744],[-75.38305,5.23722],[-75.38438,5.23675],[-75.38532,5.23682]]]]},"properties":{"FID":0,"OBJECTID":1,"Nombre":"Clase Agrologica VIII","RuleID_1":32,"AREA_ha":844.062780918,"Shape_Leng":36421.4647989,"Shape_Area":8440627.92936}}]}