{"type":"FeatureCollection","name":"EES Urbano Montebonito","crs":{"type":"name","properties":{"name":"urn:ogc:def:crs:OGC:1.3:CRS84"}},"features":[{"type":"Feature","id":0,"geometry":{"type":"Polygon","coordinates":[[[-75.19843,5.16638],[-75.19844,5.16639],[-75.19844,5.16638],[-75.19846,5.16638],[-75.19847,5.16637],[-75.19848,5.16637],[-75.19849,5.16635],[-75.19849,5.16634],[-75.1985,5.16633],[-75.1985,5.16632],[-75.19849,5.1663],[-75.19847,5.16628],[-75.19849,5.16626],[-75.19855,5.16622],[-75.19858,5.16627],[-75.1986,5.16626],[-75.1986,5.16627],[-75.1986,5.16628],[-75.1986,5.16629],[-75.19858,5.16629],[-75.19857,5.1663],[-75.19856,5.16632],[-75.19856,5.16632],[-75.19857,5.16633],[-75.19859,5.16632],[-75.1986,5.1663],[-75.19862,5.16629],[-75.19863,5.16627],[-75.19864,5.16626],[-75.19863,5.16625],[-75.19862,5.16624],[-75.19862,5.16623],[-75.19861,5.16622],[-75.19862,5.1662],[-75.19861,5.16618],[-75.19862,5.16617],[-75.19861,5.16617],[-75.19861,5.16616],[-75.19861,5.16615],[-75.19861,5.16613],[-75.19861,5.16612],[-75.1986,5.1661],[-75.19859,5.16609],[-75.19858,5.16609],[-75.19857,5.16608],[-75.19856,5.16608],[-75.19854,5.16607],[-75.1985,5.16607],[-75.19848,5.16607],[-75.19846,5.16607],[-75.19845,5.16608],[-75.19844,5.1661],[-75.19843,5.16612],[-75.19842,5.16614],[-75.19842,5.16616],[-75.19841,5.16618],[-75.19841,5.1662],[-75.19842,5.16621],[-75.19842,5.16623],[-75.19846,5.16627],[-75.19846,5.16628],[-75.19847,5.16629],[-75.19848,5.16631],[-75.19848,5.16633],[-75.19848,5.16635],[-75.19846,5.16636],[-75.19843,5.16638]]]},"properties":{"FID":0,"OBJECTID":329,"Id":0,"Categ_TTO":"Estructura ecologica principal","SubCat_TTO":"Areas de interes ambiental","Uso_Suelo":"Laderas ambientales urbanas","Actividad":"Bosque fragmentado","Shape_Leng":134.534922181,"Shape_Area":456.117353463}},{"type":"Feature","id":1,"geometry":{"type":"Polygon","coordinates":[[[-75.19912,5.16588],[-75.19912,5.1659],[-75.19912,5.16591],[-75.19912,5.16593],[-75.19912,5.16595],[-75.19913,5.16597],[-75.19915,5.16598],[-75.19915,5.16598],[-75.19916,5.16597],[-75.19917,5.16598],[-75.19918,5.16598],[-75.19918,5.166],[-75.19917,5.16601],[-75.19916,5.16602],[-75.19916,5.16603],[-75.19917,5.16604],[-75.19917,5.16605],[-75.19918,5.16606],[-75.19918,5.16606],[-75.19917,5.16607],[-75.19916,5.16608],[-75.19916,5.16609],[-75.19919,5.16611],[-75.19921,5.1661],[-75.19922,5.1661],[-75.19924,5.1661],[-75.19928,5.1661],[-75.19932,5.16611],[-75.19934,5.1661],[-75.19937,5.16606],[-75.19937,5.16603],[-75.19936,5.16602],[-75.19935,5.16601],[-75.19933,5.16599],[-75.19933,5.16596],[-75.19935,5.16595],[-75.19936,5.16593],[-75.19939,5.16592],[-75.19942,5.16592],[-75.19944,5.16591],[-75.19945,5.16593],[-75.19946,5.16595],[-75.19948,5.16597],[-75.1995,5.16597],[-75.19952,5.16597],[-75.19952,5.16598],[-75.19951,5.16599],[-75.1995,5.16603],[-75.1995,5.16604],[-75.19952,5.16606],[-75.19953,5.16604],[-75.19954,5.16603],[-75.19957,5.16602],[-75.1996,5.16602],[-75.19962,5.166],[-75.19964,5.166],[-75.19966,5.166],[-75.19969,5.166],[-75.19971,5.16597],[-75.19971,5.16595],[-75.1997,5.16593],[-75.19969,5.16593],[-75.19967,5.16593],[-75.19966,5.16593],[-75.19966,5.16592],[-75.19965,5.1659],[-75.19964,5.1659],[-75.19962,5.16592],[-75.19961,5.16591],[-75.19961,5.1659],[-75.1996,5.16588],[-75.19959,5.16587],[-75.19959,5.16585],[-75.1996,5.16582],[-75.1996,5.16579],[-75.19959,5.16577],[-75.19957,5.16577],[-75.19957,5.16579],[-75.19955,5.1658],[-75.19954,5.16581],[-75.19954,5.16581],[-75.19954,5.16579],[-75.19953,5.16578],[-75.19952,5.16576],[-75.19951,5.16575],[-75.1995,5.16573],[-75.19948,5.16572],[-75.19947,5.16571],[-75.19948,5.16569],[-75.19947,5.16568],[-75.19946,5.16568],[-75.19945,5.1657],[-75.19944,5.16572],[-75.19943,5.16574],[-75.19938,5.16577],[-75.19936,5.16575],[-75.19934,5.16576],[-75.19931,5.16575],[-75.19928,5.16578],[-75.19926,5.16574],[-75.19924,5.16576],[-75.19923,5.16579],[-75.19919,5.16581],[-75.19917,5.16582],[-75.19915,5.16584],[-75.19912,5.16588]]]},"properties":{"FID":1,"OBJECTID":334,"Id":0,"Categ_TTO":"Estructura ecologica principal","SubCat_TTO":"Areas de interes ambiental","Uso_Suelo":"Laderas ambientales urbanas","Actividad":"Bosque fragmentado","Shape_Leng":248.088137959,"Shape_Area":1574.1097245}},{"type":"Feature","id":2,"geometry":{"type":"Polygon","coordinates":[[[-75.19937,5.16564],[-75.19938,5.16565],[-75.1994,5.16568],[-75.1994,5.1657],[-75.19943,5.16574],[-75.19944,5.16572],[-75.19945,5.1657],[-75.19946,5.16568],[-75.19947,5.16568],[-75.19948,5.16569],[-75.19947,5.16571],[-75.19948,5.16572],[-75.1995,5.16573],[-75.19951,5.16575],[-75.19952,5.16576],[-75.19953,5.16578],[-75.19954,5.16579],[-75.19954,5.16581],[-75.19954,5.16581],[-75.19955,5.1658],[-75.19957,5.16579],[-75.19957,5.16577],[-75.19959,5.16577],[-75.1996,5.16579],[-75.1996,5.16582],[-75.19959,5.16585],[-75.19959,5.16587],[-75.1996,5.16588],[-75.19961,5.1659],[-75.19962,5.16592],[-75.19964,5.1659],[-75.19965,5.1659],[-75.19966,5.16592],[-75.19966,5.16593],[-75.19967,5.16593],[-75.19969,5.16593],[-75.1997,5.16593],[-75.19971,5.16595],[-75.19971,5.16597],[-75.19969,5.166],[-75.19966,5.166],[-75.19964,5.166],[-75.19962,5.166],[-75.1996,5.16602],[-75.19957,5.16602],[-75.19954,5.16603],[-75.19953,5.16604],[-75.19952,5.16606],[-75.19952,5.16608],[-75.19952,5.1661],[-75.19952,5.1661],[-75.19953,5.16609],[-75.19954,5.16607],[-75.19955,5.16605],[-75.19957,5.16604],[-75.19959,5.16603],[-75.19961,5.16603],[-75.19962,5.16602],[-75.19965,5.16602],[-75.19968,5.16601],[-75.1997,5.166],[-75.19973,5.16598],[-75.19975,5.16597],[-75.19978,5.16596],[-75.19981,5.16594],[-75.19983,5.16593],[-75.19983,5.16592],[-75.19983,5.16592],[-75.19984,5.16591],[-75.19986,5.1659],[-75.19988,5.1659],[-75.1999,5.1659],[-75.19991,5.16589],[-75.19993,5.16589],[-75.19994,5.16588],[-75.19996,5.16587],[-75.19998,5.16587],[-75.2,5.16587],[-75.20002,5.16586],[-75.20004,5.16585],[-75.20006,5.16585],[-75.20008,5.16584],[-75.2001,5.16582],[-75.20011,5.16582],[-75.20014,5.16582],[-75.20016,5.16582],[-75.20019,5.16582],[-75.20023,5.16582],[-75.20026,5.16582],[-75.20028,5.16583],[-75.20032,5.16582],[-75.20032,5.16582],[-75.20032,5.16581],[-75.20031,5.1658],[-75.2003,5.16579],[-75.20029,5.16578],[-75.2003,5.16577],[-75.20032,5.16576],[-75.20034,5.16574],[-75.20035,5.16573],[-75.20035,5.16571],[-75.20034,5.16572],[-75.20032,5.16572],[-75.2003,5.16571],[-75.20029,5.1657],[-75.20028,5.16568],[-75.20029,5.16567],[-75.20031,5.16565],[-75.20033,5.16565],[-75.20033,5.16564],[-75.20033,5.16563],[-75.20033,5.16561],[-75.20034,5.16559],[-75.20035,5.16559],[-75.20036,5.16559],[-75.20037,5.16557],[-75.20036,5.16555],[-75.20035,5.16553],[-75.20035,5.16552],[-75.20035,5.16549],[-75.20036,5.16547],[-75.20035,5.16544],[-75.20035,5.16542],[-75.20033,5.16541],[-75.20032,5.16539],[-75.20031,5.16538],[-75.2003,5.16536],[-75.20029,5.16537],[-75.20028,5.16537],[-75.20026,5.16537],[-75.20025,5.16537],[-75.20024,5.16536],[-75.20023,5.16536],[-75.20022,5.16535],[-75.20021,5.16535],[-75.20021,5.16533],[-75.2002,5.16532],[-75.20019,5.16533],[-75.20018,5.16532],[-75.20015,5.16531],[-75.20015,5.16532],[-75.20013,5.16533],[-75.20013,5.16533],[-75.20012,5.16533],[-75.20011,5.16533],[-75.2001,5.16533],[-75.2001,5.16534],[-75.20011,5.16535],[-75.20012,5.16537],[-75.20011,5.16539],[-75.20012,5.16541],[-75.2001,5.16544],[-75.20008,5.16546],[-75.20007,5.16548],[-75.20006,5.16547],[-75.20005,5.16546],[-75.20005,5.16547],[-75.20004,5.16549],[-75.20004,5.1655],[-75.20002,5.16552],[-75.20001,5.16552],[-75.19999,5.16553],[-75.19996,5.16553],[-75.19994,5.16553],[-75.19993,5.16554],[-75.19991,5.16554],[-75.19989,5.16553],[-75.19988,5.16553],[-75.19987,5.16554],[-75.19984,5.16555],[-75.19982,5.16554],[-75.1998,5.16553],[-75.19978,5.16551],[-75.19977,5.1655],[-75.19974,5.16549],[-75.19971,5.16549],[-75.1997,5.16548],[-75.19968,5.16547],[-75.19963,5.16551],[-75.19962,5.1655],[-75.19955,5.16556],[-75.19953,5.16558],[-75.1995,5.1656],[-75.19949,5.16559],[-75.19948,5.16558],[-75.19947,5.16555],[-75.19945,5.16557],[-75.19944,5.16558],[-75.19942,5.1656],[-75.19939,5.16563],[-75.19937,5.16564]]]},"properties":{"FID":2,"OBJECTID":336,"Id":0,"Categ_TTO":"Estructura ecologica principal","SubCat_TTO":"Areas de interes ambiental","Uso_Suelo":"Laderas ambientales urbanas","Actividad":"Pastos","Shape_Leng":426.710844803,"Shape_Area":4249.08375483}},{"type":"Feature","id":3,"geometry":{"type":"Polygon","coordinates":[[[-75.20004,5.16512],[-75.20005,5.16512],[-75.20007,5.16511],[-75.20009,5.16511],[-75.2001,5.16512],[-75.20012,5.16513],[-75.20013,5.16514],[-75.20014,5.16515],[-75.20015,5.16515],[-75.20016,5.16516],[-75.20015,5.1652],[-75.20016,5.16521],[-75.20019,5.16522],[-75.2002,5.16524],[-75.2002,5.16526],[-75.20022,5.16526],[-75.20024,5.16527],[-75.20026,5.16527],[-75.20027,5.16527],[-75.20029,5.16528],[-75.2003,5.16528],[-75.20031,5.16527],[-75.20032,5.16526],[-75.20032,5.16525],[-75.20033,5.16525],[-75.20035,5.16525],[-75.20037,5.16527],[-75.20038,5.16527],[-75.20041,5.16528],[-75.20041,5.16526],[-75.20041,5.16524],[-75.20041,5.16524],[-75.20041,5.16522],[-75.20042,5.16522],[-75.20043,5.16519],[-75.20042,5.16518],[-75.20039,5.16516],[-75.20037,5.16515],[-75.20036,5.16514],[-75.20037,5.16512],[-75.20038,5.1651],[-75.2004,5.16506],[-75.20043,5.165],[-75.20041,5.165],[-75.20041,5.16498],[-75.20041,5.16496],[-75.20041,5.16494],[-75.2004,5.16493],[-75.20041,5.16491],[-75.20042,5.16488],[-75.20044,5.16485],[-75.20047,5.1648],[-75.20046,5.16478],[-75.20047,5.16477],[-75.20046,5.16476],[-75.20045,5.16476],[-75.20044,5.16477],[-75.20044,5.16477],[-75.20043,5.1648],[-75.20041,5.16483],[-75.20039,5.16485],[-75.20039,5.16486],[-75.20039,5.16487],[-75.20039,5.16488],[-75.20037,5.16489],[-75.20036,5.1649],[-75.20036,5.1649],[-75.20034,5.16493],[-75.20033,5.16496],[-75.20031,5.16498],[-75.20029,5.16502],[-75.20027,5.16505],[-75.20025,5.16507],[-75.20023,5.16511],[-75.2002,5.16512],[-75.20019,5.16512],[-75.20017,5.16512],[-75.20015,5.16511],[-75.20013,5.16511],[-75.2001,5.1651],[-75.20008,5.16509],[-75.20006,5.16509],[-75.20005,5.1651],[-75.20004,5.16512]]]},"properties":{"FID":3,"OBJECTID":340,"Id":0,"Categ_TTO":"Estructura ecologica principal","SubCat_TTO":"Areas de interes ambiental","Uso_Suelo":"Laderas ambientales urbanas","Actividad":"Pastos arbolados","Shape_Leng":197.241774415,"Shape_Area":815.868298684}},{"type":"Feature","id":4,"geometry":{"type":"Polygon","coordinates":[[[-75.20041,5.16528],[-75.20038,5.16527],[-75.20037,5.16527],[-75.20035,5.16525],[-75.20033,5.16525],[-75.20032,5.16525],[-75.20032,5.16526],[-75.20031,5.16527],[-75.2003,5.16528],[-75.20029,5.16528],[-75.20027,5.16527],[-75.20026,5.16527],[-75.20024,5.16527],[-75.20022,5.16526],[-75.2002,5.16526],[-75.2002,5.16524],[-75.20019,5.16522],[-75.20016,5.16521],[-75.20015,5.1652],[-75.20013,5.16523],[-75.20013,5.16524],[-75.20013,5.16527],[-75.20012,5.16528],[-75.20011,5.16531],[-75.20012,5.16533],[-75.20013,5.16533],[-75.20013,5.16533],[-75.20015,5.16532],[-75.20015,5.16531],[-75.20018,5.16532],[-75.20019,5.16533],[-75.2002,5.16532],[-75.20021,5.16533],[-75.20021,5.16535],[-75.20022,5.16535],[-75.20023,5.16536],[-75.20024,5.16536],[-75.20025,5.16537],[-75.20026,5.16537],[-75.20028,5.16537],[-75.20029,5.16537],[-75.2003,5.16536],[-75.20031,5.16538],[-75.20032,5.16539],[-75.20033,5.16541],[-75.20035,5.16542],[-75.20035,5.16544],[-75.20036,5.16547],[-75.20035,5.16552],[-75.20035,5.16553],[-75.20036,5.16555],[-75.20037,5.16557],[-75.20038,5.16558],[-75.20039,5.1656],[-75.20041,5.1656],[-75.20044,5.16559],[-75.20045,5.16558],[-75.20046,5.16556],[-75.20046,5.16556],[-75.20047,5.16556],[-75.20048,5.16555],[-75.20048,5.16554],[-75.20048,5.16552],[-75.20047,5.16552],[-75.20047,5.16551],[-75.20047,5.1655],[-75.20047,5.16549],[-75.20046,5.16548],[-75.20046,5.16546],[-75.20047,5.16543],[-75.20046,5.16542],[-75.20046,5.16542],[-75.20046,5.1654],[-75.20046,5.16539],[-75.20046,5.16538],[-75.20046,5.16536],[-75.20046,5.16534],[-75.20045,5.16532],[-75.20043,5.16532],[-75.20042,5.16532],[-75.20042,5.1653],[-75.20042,5.16529],[-75.20041,5.16529],[-75.20041,5.16528]]]},"properties":{"FID":4,"OBJECTID":341,"Id":0,"Categ_TTO":"Estructura ecologica principal","SubCat_TTO":"Areas de interes ambiental","Uso_Suelo":"Laderas ambientales urbanas","Actividad":"Bosque fragmentado","Shape_Leng":153.714408162,"Shape_Area":704.537677149}},{"type":"Feature","id":5,"geometry":{"type":"Polygon","coordinates":[[[-75.20048,5.16552],[-75.20048,5.16554],[-75.20048,5.16555],[-75.20047,5.16556],[-75.20046,5.16556],[-75.20046,5.16556],[-75.20045,5.16558],[-75.20044,5.16559],[-75.20041,5.1656],[-75.20039,5.1656],[-75.20038,5.16558],[-75.20037,5.16557],[-75.20036,5.16559],[-75.20035,5.16559],[-75.20034,5.16559],[-75.20033,5.16561],[-75.20033,5.16563],[-75.20033,5.16565],[-75.20031,5.16565],[-75.20029,5.16567],[-75.20028,5.16568],[-75.20029,5.1657],[-75.2003,5.16571],[-75.20032,5.16572],[-75.20034,5.16572],[-75.20035,5.16571],[-75.20035,5.16573],[-75.20034,5.16574],[-75.20032,5.16576],[-75.2003,5.16577],[-75.20029,5.16578],[-75.2003,5.16579],[-75.20031,5.1658],[-75.20032,5.16581],[-75.20032,5.16582],[-75.20032,5.16582],[-75.20028,5.16583],[-75.20029,5.16584],[-75.2003,5.16584],[-75.20032,5.16584],[-75.20032,5.16584],[-75.20032,5.16586],[-75.20032,5.16586],[-75.20034,5.16585],[-75.20036,5.16583],[-75.20037,5.16581],[-75.20037,5.16579],[-75.20037,5.16578],[-75.20038,5.16577],[-75.20038,5.16574],[-75.20039,5.16571],[-75.20037,5.16571],[-75.20037,5.1657],[-75.20036,5.16568],[-75.20035,5.16568],[-75.20035,5.16566],[-75.20036,5.16565],[-75.20036,5.16563],[-75.20037,5.16563],[-75.20039,5.16563],[-75.2004,5.16563],[-75.20043,5.16562],[-75.20045,5.16561],[-75.20046,5.1656],[-75.20047,5.16558],[-75.20049,5.16557],[-75.20049,5.16555],[-75.2005,5.16552],[-75.20048,5.16552]]]},"properties":{"FID":5,"OBJECTID":342,"Id":0,"Categ_TTO":"Estructura ecologica principal","SubCat_TTO":"Areas de interes ambiental","Uso_Suelo":"Laderas ambientales urbanas","Actividad":"Pastos enmalezados","Shape_Leng":132.938423115,"Shape_Area":223.998657569}},{"type":"Feature","id":6,"geometry":{"type":"Polygon","coordinates":[[[-75.20049,5.16557],[-75.20047,5.16558],[-75.20046,5.1656],[-75.20045,5.16561],[-75.20043,5.16562],[-75.2004,5.16563],[-75.20039,5.16563],[-75.20037,5.16563],[-75.20036,5.16563],[-75.20036,5.16565],[-75.20035,5.16566],[-75.20035,5.16568],[-75.20036,5.16568],[-75.20037,5.1657],[-75.20037,5.16571],[-75.20039,5.16571],[-75.20038,5.16574],[-75.20038,5.16577],[-75.20037,5.16578],[-75.20037,5.16579],[-75.20037,5.16581],[-75.20036,5.16583],[-75.20034,5.16585],[-75.20032,5.16586],[-75.20035,5.16586],[-75.20039,5.16584],[-75.20042,5.16582],[-75.20045,5.1658],[-75.20048,5.16578],[-75.20048,5.16577],[-75.20049,5.16573],[-75.20049,5.16569],[-75.20049,5.16565],[-75.20049,5.16561],[-75.20049,5.16558],[-75.20049,5.16557]]]},"properties":{"FID":6,"OBJECTID":343,"Id":0,"Categ_TTO":"Estructura ecologica principal","SubCat_TTO":"Areas de interes ambiental","Uso_Suelo":"Laderas ambientales urbanas","Actividad":"Obras de mitigación del riesgo","Shape_Leng":91.319026376,"Shape_Area":315.050417727}},{"type":"Feature","id":7,"geometry":{"type":"Polygon","coordinates":[[[-75.19975,5.16597],[-75.1998,5.16596],[-75.19983,5.16595],[-75.19986,5.16594],[-75.1999,5.16592],[-75.19992,5.16591],[-75.19996,5.16591],[-75.19998,5.1659],[-75.20001,5.1659],[-75.20005,5.1659],[-75.20009,5.16589],[-75.20013,5.16588],[-75.20016,5.16587],[-75.20018,5.16587],[-75.20022,5.16588],[-75.20025,5.16588],[-75.20028,5.16588],[-75.20031,5.16587],[-75.20032,5.16586],[-75.20032,5.16586],[-75.20032,5.16584],[-75.20032,5.16584],[-75.2003,5.16584],[-75.20029,5.16584],[-75.20028,5.16583],[-75.20026,5.16582],[-75.20023,5.16582],[-75.20019,5.16582],[-75.20016,5.16582],[-75.20011,5.16582],[-75.2001,5.16582],[-75.20008,5.16584],[-75.20006,5.16585],[-75.20004,5.16585],[-75.20002,5.16586],[-75.2,5.16587],[-75.19998,5.16587],[-75.19996,5.16587],[-75.19994,5.16588],[-75.19993,5.16589],[-75.19991,5.16589],[-75.1999,5.1659],[-75.19988,5.1659],[-75.19986,5.1659],[-75.19984,5.16591],[-75.19983,5.16592],[-75.19983,5.16592],[-75.19983,5.16593],[-75.19981,5.16594],[-75.19978,5.16596],[-75.19975,5.16597]]]},"properties":{"FID":7,"OBJECTID":345,"Id":0,"Categ_TTO":"Estructura ecologica principal","SubCat_TTO":"Areas de interes ambiental","Uso_Suelo":"Laderas ambientales urbanas","Actividad":"Pastos arbolados","Shape_Leng":138.171578772,"Shape_Area":273.985348728}},{"type":"Feature","id":8,"geometry":{"type":"Polygon","coordinates":[[[-75.20001,5.16504],[-75.20001,5.16507],[-75.2,5.16508],[-75.19999,5.1651],[-75.19999,5.1651],[-75.19999,5.1651],[-75.19997,5.16516],[-75.19997,5.16516],[-75.19996,5.16517],[-75.19993,5.16523],[-75.19995,5.16524],[-75.19996,5.16522],[-75.19997,5.1652],[-75.19998,5.16518],[-75.19998,5.16517],[-75.19999,5.16515],[-75.2,5.16513],[-75.20001,5.16511],[-75.20002,5.16509],[-75.20003,5.16507],[-75.20003,5.16506],[-75.20001,5.16504]]]},"properties":{"FID":8,"OBJECTID":355,"Id":0,"Categ_TTO":"Infraestructura ecologica","SubCat_TTO":"Zonas verdes urbanas","Uso_Suelo":"Centros de manzana","Actividad":"Pastos","Shape_Leng":50.1233108639,"Shape_Area":44.6472896822}},{"type":"Feature","id":9,"geometry":{"type":"Polygon","coordinates":[[[-75.20004,5.16506],[-75.20005,5.16505],[-75.20006,5.16505],[-75.20007,5.16504],[-75.2001,5.165],[-75.20009,5.16499],[-75.20009,5.16498],[-75.2001,5.16496],[-75.20011,5.16494],[-75.20013,5.16493],[-75.20015,5.1649],[-75.20016,5.16486],[-75.20016,5.16483],[-75.20017,5.1648],[-75.20015,5.16479],[-75.20014,5.1648],[-75.20014,5.16481],[-75.20013,5.16481],[-75.20012,5.16481],[-75.20013,5.16483],[-75.20013,5.16483],[-75.20014,5.16484],[-75.20013,5.16486],[-75.20013,5.16486],[-75.20013,5.16488],[-75.20012,5.16488],[-75.2001,5.16489],[-75.20009,5.16489],[-75.20008,5.16488],[-75.20008,5.1649],[-75.20007,5.16491],[-75.20007,5.16492],[-75.20007,5.16494],[-75.20007,5.16496],[-75.20007,5.16496],[-75.20006,5.16495],[-75.20005,5.16495],[-75.20004,5.16494],[-75.20004,5.16493],[-75.20003,5.16491],[-75.20002,5.16491],[-75.20001,5.16491],[-75.20001,5.16491],[-75.20001,5.16492],[-75.20001,5.16493],[-75.20001,5.16494],[-75.20001,5.16496],[-75.20001,5.16497],[-75.19998,5.16497],[-75.19997,5.16498],[-75.19989,5.16512],[-75.19997,5.16516],[-75.19997,5.16516],[-75.19999,5.1651],[-75.19999,5.1651],[-75.19999,5.1651],[-75.2,5.16508],[-75.20001,5.16507],[-75.20001,5.16504],[-75.20003,5.16502],[-75.20004,5.16502],[-75.20006,5.16505],[-75.20004,5.16506]]]},"properties":{"FID":9,"OBJECTID":356,"Id":0,"Categ_TTO":"Infraestructura ecologica","SubCat_TTO":"Zonas verdes urbanas","Uso_Suelo":"Centros de manzana","Actividad":"Pastos arbolados","Shape_Leng":139.781553108,"Shape_Area":331.180354451}},{"type":"Feature","id":10,"geometry":{"type":"Polygon","coordinates":[[[-75.20012,5.16456],[-75.20015,5.16454],[-75.20016,5.16452],[-75.20015,5.16451],[-75.20014,5.16449],[-75.20013,5.16449],[-75.20012,5.16449],[-75.2001,5.16451],[-75.20009,5.16451],[-75.20009,5.16452],[-75.2001,5.16453],[-75.20009,5.16455],[-75.2001,5.16457],[-75.20008,5.16459],[-75.20006,5.1646],[-75.20005,5.16463],[-75.20002,5.16467],[-75.2,5.16468],[-75.19998,5.16472],[-75.19993,5.16475],[-75.19993,5.16477],[-75.19989,5.1648],[-75.19987,5.16481],[-75.19988,5.16482],[-75.19987,5.16483],[-75.19987,5.16483],[-75.19986,5.16485],[-75.19983,5.16488],[-75.19982,5.16492],[-75.19983,5.16494],[-75.19985,5.16496],[-75.19987,5.16497],[-75.1999,5.16497],[-75.19993,5.16497],[-75.20001,5.16497],[-75.20001,5.16496],[-75.20001,5.16494],[-75.20001,5.16493],[-75.20001,5.16492],[-75.20001,5.16491],[-75.20001,5.16491],[-75.20002,5.16491],[-75.20003,5.16491],[-75.20004,5.16493],[-75.20004,5.16494],[-75.20005,5.16495],[-75.20006,5.16495],[-75.20007,5.16496],[-75.20007,5.16496],[-75.20007,5.16494],[-75.20007,5.16492],[-75.20007,5.16491],[-75.20008,5.1649],[-75.20008,5.16488],[-75.20009,5.16489],[-75.2001,5.16489],[-75.20012,5.16488],[-75.20013,5.16488],[-75.20013,5.16486],[-75.20013,5.16486],[-75.20014,5.16484],[-75.20013,5.16483],[-75.20013,5.16483],[-75.20012,5.16481],[-75.20013,5.16481],[-75.20014,5.16481],[-75.20014,5.1648],[-75.20015,5.16479],[-75.20013,5.16478],[-75.20016,5.16472],[-75.20019,5.16468],[-75.20022,5.1647],[-75.20022,5.16467],[-75.20023,5.16467],[-75.20024,5.16466],[-75.20024,5.16464],[-75.20023,5.16462],[-75.20023,5.16461],[-75.20022,5.1646],[-75.20021,5.16459],[-75.2002,5.16458],[-75.20018,5.16457],[-75.20017,5.16456],[-75.20015,5.16457],[-75.20012,5.16456]]]},"properties":{"FID":10,"OBJECTID":357,"Id":0,"Categ_TTO":"Estructura ecologica principal","SubCat_TTO":"Areas de interes ambiental","Uso_Suelo":"Laderas ambientales urbanas","Actividad":"Bosque fragmentado","Shape_Leng":188.484439881,"Shape_Area":1086.29070585}},{"type":"Feature","id":11,"geometry":{"type":"Polygon","coordinates":[[[-75.20019,5.16457],[-75.2002,5.16458],[-75.20022,5.1646],[-75.20023,5.16461],[-75.20023,5.16462],[-75.20024,5.16464],[-75.20024,5.16466],[-75.20023,5.16467],[-75.20022,5.16467],[-75.20022,5.1647],[-75.20024,5.16468],[-75.20027,5.1647],[-75.20029,5.16473],[-75.20031,5.16473],[-75.20031,5.16475],[-75.20032,5.16473],[-75.20032,5.16472],[-75.20033,5.1647],[-75.20035,5.16471],[-75.20035,5.1647],[-75.20033,5.16468],[-75.20033,5.16466],[-75.20032,5.16465],[-75.20031,5.16463],[-75.2003,5.16461],[-75.20029,5.16459],[-75.20028,5.16458],[-75.20026,5.16457],[-75.20025,5.16457],[-75.20023,5.16457],[-75.20021,5.16457],[-75.20019,5.16457]]]},"properties":{"FID":11,"OBJECTID":358,"Id":0,"Categ_TTO":"Infraestructura ecologica","SubCat_TTO":"Zonas verdes urbanas","Uso_Suelo":"Centros de manzana","Actividad":"Pastos enmalezados","Shape_Leng":64.3238568311,"Shape_Area":149.501878845}},{"type":"Feature","id":12,"geometry":{"type":"Polygon","coordinates":[[[-75.20036,5.16484],[-75.2003,5.1648],[-75.2003,5.16481],[-75.20031,5.16482],[-75.20032,5.16484],[-75.20032,5.16486],[-75.20032,5.16487],[-75.20033,5.16488],[-75.20032,5.16488],[-75.20032,5.16488],[-75.20032,5.16487],[-75.20031,5.16486],[-75.20031,5.16484],[-75.20031,5.16483],[-75.2003,5.16482],[-75.20029,5.16481],[-75.20028,5.1648],[-75.20029,5.16477],[-75.20029,5.16475],[-75.20028,5.16474],[-75.20026,5.16479],[-75.20025,5.16481],[-75.20023,5.16484],[-75.2002,5.16487],[-75.20023,5.16488],[-75.20024,5.16486],[-75.20025,5.16485],[-75.20027,5.16486],[-75.2003,5.16488],[-75.20032,5.16489],[-75.20036,5.16484]]]},"properties":{"FID":12,"OBJECTID":360,"Id":0,"Categ_TTO":"Infraestructura ecologica","SubCat_TTO":"Zonas verdes urbanas","Uso_Suelo":"Centros de manzana","Actividad":"Pastos enmalezados","Shape_Leng":74.1261413238,"Shape_Area":93.6054849754}},{"type":"Feature","id":13,"geometry":{"type":"Polygon","coordinates":[[[-75.20087,5.16422],[-75.20086,5.16421],[-75.20084,5.16416],[-75.20081,5.16411],[-75.20068,5.16415],[-75.20069,5.16418],[-75.20065,5.1642],[-75.20058,5.16422],[-75.20058,5.16422],[-75.20058,5.16423],[-75.20058,5.16423],[-75.20058,5.16423],[-75.20058,5.16424],[-75.20058,5.16424],[-75.20058,5.16424],[-75.20059,5.16424],[-75.20059,5.16424],[-75.20059,5.16425],[-75.20059,5.16425],[-75.20059,5.16425],[-75.20059,5.16425],[-75.20059,5.16426],[-75.20059,5.16426],[-75.20059,5.16426],[-75.20062,5.16427],[-75.20062,5.16429],[-75.2007,5.16429],[-75.20078,5.16429],[-75.20079,5.16431],[-75.2008,5.1643],[-75.20082,5.16432],[-75.20083,5.16432],[-75.2009,5.16429],[-75.2009,5.16432],[-75.20098,5.16429],[-75.20097,5.16426],[-75.20091,5.16421],[-75.20087,5.16422]]]},"properties":{"FID":13,"OBJECTID":374,"Id":0,"Categ_TTO":"Infraestructura ecologica","SubCat_TTO":"Zonas verdes urbanas","Uso_Suelo":"Centros de manzana","Actividad":"Pastos arbolados","Shape_Leng":120.365797267,"Shape_Area":548.673467251}},{"type":"Feature","id":14,"geometry":{"type":"Polygon","coordinates":[[[-75.20131,5.16403],[-75.20131,5.16403],[-75.20132,5.16404],[-75.20132,5.16404],[-75.20131,5.16405],[-75.20131,5.16406],[-75.20132,5.16407],[-75.20132,5.16407],[-75.20133,5.16407],[-75.20133,5.16408],[-75.20133,5.16408],[-75.20133,5.16409],[-75.20132,5.16409],[-75.20131,5.16409],[-75.20131,5.16409],[-75.2013,5.16409],[-75.2013,5.1641],[-75.2013,5.1641],[-75.20131,5.16411],[-75.20132,5.16411],[-75.20132,5.16411],[-75.20133,5.16411],[-75.20133,5.16411],[-75.20133,5.16413],[-75.20134,5.16413],[-75.20134,5.16414],[-75.20135,5.16413],[-75.20135,5.16413],[-75.20136,5.16413],[-75.20137,5.16412],[-75.20138,5.16412],[-75.20138,5.16411],[-75.20139,5.16411],[-75.20139,5.16411],[-75.20139,5.1641],[-75.20139,5.1641],[-75.2014,5.1641],[-75.20141,5.1641],[-75.20141,5.16409],[-75.20141,5.16409],[-75.20142,5.1641],[-75.20142,5.1641],[-75.20142,5.1641],[-75.20143,5.16409],[-75.20143,5.16409],[-75.20143,5.16409],[-75.20143,5.1641],[-75.20143,5.1641],[-75.20143,5.16411],[-75.20143,5.16411],[-75.20143,5.1641],[-75.20144,5.16411],[-75.20144,5.16412],[-75.20145,5.16412],[-75.20145,5.16411],[-75.20145,5.16411],[-75.20145,5.1641],[-75.20145,5.1641],[-75.20145,5.1641],[-75.20146,5.1641],[-75.20147,5.16409],[-75.20147,5.16409],[-75.20148,5.16409],[-75.20148,5.16409],[-75.20148,5.16409],[-75.20149,5.16408],[-75.2015,5.16409],[-75.20151,5.16408],[-75.20152,5.16407],[-75.20152,5.16407],[-75.20151,5.16406],[-75.20151,5.16405],[-75.20151,5.16405],[-75.20152,5.16404],[-75.20152,5.16403],[-75.20152,5.16403],[-75.20151,5.16402],[-75.20151,5.16401],[-75.20145,5.16403],[-75.20139,5.16404],[-75.20138,5.16404],[-75.20138,5.16402],[-75.20131,5.16403]]]},"properties":{"FID":14,"OBJECTID":407,"Id":0,"Categ_TTO":"Infraestructura ecologica","SubCat_TTO":"Zonas verdes urbanas","Uso_Suelo":"Centros de manzana","Actividad":"Bosque fragmentado","Shape_Leng":79.6611231798,"Shape_Area":194.985044405}},{"type":"Feature","id":15,"geometry":{"type":"Polygon","coordinates":[[[-75.20133,5.16413],[-75.20133,5.16412],[-75.20133,5.16411],[-75.20133,5.16411],[-75.20132,5.16411],[-75.20132,5.16411],[-75.20131,5.16411],[-75.2013,5.1641],[-75.2013,5.1641],[-75.2013,5.16409],[-75.20131,5.16409],[-75.20131,5.16409],[-75.20132,5.16409],[-75.20133,5.16409],[-75.20133,5.16408],[-75.20133,5.16408],[-75.20133,5.16407],[-75.20132,5.16407],[-75.20132,5.16407],[-75.20131,5.16406],[-75.20131,5.16405],[-75.20132,5.16404],[-75.20132,5.16404],[-75.20131,5.16403],[-75.2013,5.16404],[-75.20129,5.16404],[-75.20127,5.16405],[-75.20124,5.16406],[-75.20121,5.16407],[-75.20119,5.16408],[-75.20119,5.16409],[-75.20119,5.1641],[-75.2012,5.16412],[-75.20121,5.16414],[-75.20121,5.16416],[-75.20122,5.16417],[-75.20123,5.16419],[-75.20124,5.16419],[-75.20125,5.16418],[-75.20126,5.16418],[-75.20128,5.16418],[-75.2013,5.16417],[-75.20129,5.16415],[-75.20129,5.16415],[-75.20129,5.16414],[-75.2013,5.16414],[-75.20131,5.16414],[-75.20132,5.16414],[-75.20133,5.16413],[-75.20133,5.16413]]]},"properties":{"FID":15,"OBJECTID":408,"Id":0,"Categ_TTO":"Infraestructura ecologica","SubCat_TTO":"Zonas verdes urbanas","Uso_Suelo":"Centros de manzana","Actividad":"Pastos","Shape_Leng":60.0968104665,"Shape_Area":168.010208542}},{"type":"Feature","id":16,"geometry":{"type":"Polygon","coordinates":[[[-75.20117,5.16401],[-75.20118,5.16402],[-75.20113,5.16404],[-75.2011,5.16405],[-75.20111,5.16406],[-75.20108,5.16407],[-75.20108,5.16408],[-75.20111,5.16407],[-75.20114,5.16407],[-75.20115,5.16414],[-75.20115,5.16415],[-75.20116,5.16418],[-75.20112,5.16419],[-75.2011,5.16418],[-75.2011,5.16417],[-75.20108,5.16415],[-75.20108,5.16414],[-75.20103,5.16415],[-75.20105,5.16421],[-75.20106,5.16421],[-75.20108,5.16426],[-75.20114,5.16423],[-75.20114,5.16422],[-75.20113,5.1642],[-75.20115,5.1642],[-75.20116,5.16419],[-75.20117,5.16419],[-75.20118,5.16418],[-75.2012,5.16417],[-75.20121,5.16417],[-75.20122,5.16417],[-75.20121,5.16416],[-75.20121,5.16414],[-75.2012,5.16412],[-75.20119,5.1641],[-75.20119,5.16409],[-75.20119,5.16408],[-75.20121,5.16407],[-75.20124,5.16406],[-75.20127,5.16405],[-75.20129,5.16404],[-75.20131,5.16403],[-75.20131,5.16403],[-75.20131,5.16403],[-75.2013,5.16397],[-75.20123,5.16399],[-75.20117,5.16401]]]},"properties":{"FID":16,"OBJECTID":409,"Id":0,"Categ_TTO":"Infraestructura ecologica","SubCat_TTO":"Zonas verdes urbanas","Uso_Suelo":"Centros de manzana","Actividad":"Pastos arbolados","Shape_Leng":134.842155058,"Shape_Area":298.219161909}},{"type":"Feature","id":17,"geometry":{"type":"Polygon","coordinates":[[[-75.20151,5.16401],[-75.20151,5.16402],[-75.20152,5.16403],[-75.20152,5.16403],[-75.20152,5.16404],[-75.20151,5.16405],[-75.20151,5.16405],[-75.20151,5.16406],[-75.20152,5.16407],[-75.20152,5.16407],[-75.20151,5.16408],[-75.2015,5.16409],[-75.20149,5.16408],[-75.20148,5.16409],[-75.20149,5.16411],[-75.2015,5.16412],[-75.2015,5.16414],[-75.20152,5.16415],[-75.20154,5.16415],[-75.20155,5.16415],[-75.20156,5.16416],[-75.20156,5.16416],[-75.20158,5.16415],[-75.20159,5.16414],[-75.20159,5.16412],[-75.2016,5.1641],[-75.20163,5.16408],[-75.20165,5.16408],[-75.20165,5.16405],[-75.20165,5.16401],[-75.20163,5.16401],[-75.20163,5.16398],[-75.20158,5.16399],[-75.20151,5.16401]]]},"properties":{"FID":17,"OBJECTID":411,"Id":0,"Categ_TTO":"Infraestructura ecologica","SubCat_TTO":"Zonas verdes urbanas","Uso_Suelo":"Centros de manzana","Actividad":"Pastos arbolados","Shape_Leng":68.9814666322,"Shape_Area":231.070590414}},{"type":"Feature","id":18,"geometry":{"type":"Polygon","coordinates":[[[-75.20176,5.16389],[-75.20174,5.16394],[-75.20179,5.16396],[-75.20177,5.16404],[-75.20171,5.16402],[-75.20169,5.16406],[-75.20165,5.16405],[-75.20165,5.16408],[-75.20166,5.16408],[-75.20166,5.16411],[-75.20167,5.16414],[-75.20168,5.16414],[-75.20169,5.16414],[-75.2017,5.16414],[-75.20171,5.16415],[-75.20171,5.16413],[-75.20171,5.16412],[-75.20173,5.16412],[-75.20174,5.16412],[-75.20175,5.16412],[-75.20175,5.16411],[-75.20175,5.1641],[-75.20175,5.16409],[-75.20175,5.16408],[-75.20176,5.16408],[-75.20177,5.16406],[-75.20178,5.16404],[-75.20179,5.16403],[-75.20179,5.16402],[-75.20181,5.16401],[-75.20182,5.16401],[-75.20182,5.164],[-75.20183,5.16399],[-75.20182,5.16398],[-75.20182,5.16397],[-75.20184,5.16395],[-75.20184,5.16394],[-75.20176,5.16389]]]},"properties":{"FID":18,"OBJECTID":412,"Id":0,"Categ_TTO":"Infraestructura ecologica","SubCat_TTO":"Zonas verdes urbanas","Uso_Suelo":"Centros de manzana","Actividad":"Pastos enmalezados","Shape_Leng":96.5331472331,"Shape_Area":189.515491997}},{"type":"Feature","id":19,"geometry":{"type":"Polygon","coordinates":[[[-75.20217,5.16367],[-75.20225,5.16355],[-75.20224,5.16352],[-75.20216,5.16347],[-75.20207,5.16359],[-75.20207,5.16359],[-75.20204,5.16364],[-75.20202,5.16366],[-75.202,5.16369],[-75.202,5.16369],[-75.20195,5.16374],[-75.20194,5.16373],[-75.20194,5.16374],[-75.20198,5.16377],[-75.20201,5.16373],[-75.20202,5.16373],[-75.20203,5.16372],[-75.20205,5.16373],[-75.20205,5.16371],[-75.20208,5.16368],[-75.20206,5.16367],[-75.2021,5.16362],[-75.20212,5.16363],[-75.20214,5.16364],[-75.20217,5.16367]]]},"properties":{"FID":19,"OBJECTID":453,"Id":0,"Categ_TTO":"Infraestructura ecologica","SubCat_TTO":"Zonas verdes urbanas","Uso_Suelo":"Centros de manzana","Actividad":"Pastos","Shape_Leng":112.249222265,"Shape_Area":349.998877004}},{"type":"Feature","id":20,"geometry":{"type":"Polygon","coordinates":[[[-75.20366,5.16204],[-75.20351,5.16214],[-75.20332,5.16227],[-75.20325,5.16231],[-75.20312,5.16238],[-75.20312,5.16239],[-75.20322,5.16236],[-75.2033,5.16233],[-75.20334,5.16232],[-75.20338,5.16232],[-75.20343,5.16231],[-75.20348,5.16229],[-75.20351,5.16228],[-75.20348,5.16221],[-75.20354,5.16218],[-75.20362,5.16215],[-75.20369,5.16212],[-75.20366,5.16204]]]},"properties":{"FID":20,"OBJECTID":474,"Id":0,"Categ_TTO":"Estructura ecologica principal","SubCat_TTO":"Areas de interes ambiental","Uso_Suelo":"Laderas ambientales urbanas","Actividad":"Pastos","Shape_Leng":159.410249867,"Shape_Area":441.683137511}},{"type":"Feature","id":21,"geometry":{"type":"Polygon","coordinates":[[[-75.20308,5.16236],[-75.20302,5.1623],[-75.20292,5.16224],[-75.20291,5.16225],[-75.20289,5.16223],[-75.20287,5.16222],[-75.20283,5.16218],[-75.20274,5.16229],[-75.20269,5.16239],[-75.20269,5.16246],[-75.20269,5.1625],[-75.2027,5.16254],[-75.20271,5.16257],[-75.20274,5.16257],[-75.20277,5.16259],[-75.20282,5.16263],[-75.20284,5.1626],[-75.20281,5.16257],[-75.20283,5.16253],[-75.20292,5.16259],[-75.20295,5.16254],[-75.20295,5.16254],[-75.20295,5.16254],[-75.20293,5.16252],[-75.20275,5.1624],[-75.20277,5.16232],[-75.2028,5.16227],[-75.20287,5.16223],[-75.20294,5.16228],[-75.20288,5.16238],[-75.20297,5.16245],[-75.20295,5.16249],[-75.20293,5.16252],[-75.20295,5.16254],[-75.20308,5.16236]]]},"properties":{"FID":21,"OBJECTID":475,"Id":0,"Categ_TTO":"Infraestructura ecologica","SubCat_TTO":"Zonas verdes urbanas","Uso_Suelo":"Centros de manzana","Actividad":"Pastos","Shape_Leng":254.986942737,"Shape_Area":834.964703905}},{"type":"Feature","id":22,"geometry":{"type":"Polygon","coordinates":[[[-75.2027,5.16267],[-75.20269,5.16269],[-75.20267,5.16272],[-75.20267,5.16276],[-75.20268,5.1628],[-75.20267,5.16282],[-75.20264,5.16287],[-75.20267,5.16288],[-75.20265,5.16292],[-75.20269,5.16294],[-75.20279,5.16277],[-75.20275,5.16274],[-75.20277,5.16271],[-75.20272,5.16268],[-75.2027,5.16267]]]},"properties":{"FID":22,"OBJECTID":477,"Id":0,"Categ_TTO":"Infraestructura ecologica","SubCat_TTO":"Zonas verdes urbanas","Uso_Suelo":"Centros de manzana","Actividad":"Pastos","Shape_Leng":76.1829397438,"Shape_Area":246.964398903}},{"type":"Feature","id":23,"geometry":{"type":"Polygon","coordinates":[[[-75.20237,5.16252],[-75.20238,5.16259],[-75.2024,5.16268],[-75.20242,5.16281],[-75.20243,5.16285],[-75.20243,5.1629],[-75.20249,5.1629],[-75.20256,5.16291],[-75.20257,5.16287],[-75.20263,5.16288],[-75.20264,5.16287],[-75.20267,5.16282],[-75.20268,5.1628],[-75.20267,5.16276],[-75.20267,5.16272],[-75.20269,5.16269],[-75.20264,5.16268],[-75.20263,5.16268],[-75.20261,5.1627],[-75.20259,5.1627],[-75.20258,5.16271],[-75.20258,5.16273],[-75.20256,5.16271],[-75.20255,5.16267],[-75.20253,5.16265],[-75.20253,5.16261],[-75.20253,5.1626],[-75.20251,5.16259],[-75.2025,5.16259],[-75.20248,5.16257],[-75.20243,5.16256],[-75.20241,5.16254],[-75.20239,5.16253],[-75.20237,5.16252]]]},"properties":{"FID":23,"OBJECTID":478,"Id":0,"Categ_TTO":"Infraestructura ecologica","SubCat_TTO":"Zonas verdes urbanas","Uso_Suelo":"Centros de manzana","Actividad":"Pastos enmalezados","Shape_Leng":145.328600694,"Shape_Area":846.375678029}},{"type":"Feature","id":24,"geometry":{"type":"Polygon","coordinates":[[[-75.20265,5.16292],[-75.20267,5.16288],[-75.20264,5.16287],[-75.20263,5.16288],[-75.20257,5.16287],[-75.20256,5.16291],[-75.20249,5.1629],[-75.20243,5.1629],[-75.20243,5.16297],[-75.20244,5.16303],[-75.20244,5.16308],[-75.20243,5.16311],[-75.20241,5.16316],[-75.20238,5.1632],[-75.20237,5.16325],[-75.20235,5.16327],[-75.20234,5.16329],[-75.20234,5.1633],[-75.20235,5.16331],[-75.20237,5.16332],[-75.20239,5.16334],[-75.20244,5.16327],[-75.20245,5.16327],[-75.2025,5.1632],[-75.20254,5.16315],[-75.20256,5.16313],[-75.20253,5.16309],[-75.20256,5.16305],[-75.20261,5.16295],[-75.20265,5.16292]]]},"properties":{"FID":24,"OBJECTID":479,"Id":0,"Categ_TTO":"Infraestructura ecologica","SubCat_TTO":"Zonas verdes urbanas","Uso_Suelo":"Centros de manzana","Actividad":"Pastos arbolados","Shape_Leng":149.313495389,"Shape_Area":690.321124517}},{"type":"Feature","id":25,"geometry":{"type":"Polygon","coordinates":[[[-75.20223,5.16435],[-75.20232,5.16434],[-75.20242,5.16431],[-75.2025,5.16426],[-75.20262,5.16421],[-75.20267,5.16414],[-75.20272,5.16403],[-75.20276,5.16395],[-75.20281,5.16384],[-75.20284,5.16376],[-75.20284,5.16375],[-75.20285,5.16372],[-75.20284,5.1637],[-75.20283,5.16368],[-75.20282,5.16367],[-75.20279,5.16366],[-75.20277,5.16366],[-75.20272,5.16365],[-75.2027,5.16366],[-75.20267,5.16368],[-75.20265,5.1637],[-75.20263,5.16371],[-75.20261,5.1637],[-75.20259,5.16369],[-75.20258,5.16367],[-75.20256,5.16364],[-75.20253,5.16362],[-75.20252,5.16362],[-75.2025,5.16363],[-75.20251,5.16366],[-75.20253,5.16368],[-75.20251,5.1637],[-75.20249,5.16369],[-75.20247,5.16368],[-75.20246,5.1637],[-75.20245,5.16372],[-75.20245,5.16374],[-75.20247,5.16374],[-75.20249,5.16375],[-75.20252,5.16376],[-75.20255,5.16378],[-75.20258,5.1638],[-75.20261,5.16385],[-75.20262,5.16389],[-75.20261,5.16393],[-75.20259,5.16394],[-75.20258,5.16394],[-75.20256,5.16394],[-75.20254,5.16394],[-75.20255,5.16397],[-75.20254,5.164],[-75.20253,5.16401],[-75.20252,5.16403],[-75.20251,5.16405],[-75.2025,5.16408],[-75.20249,5.16411],[-75.20246,5.16411],[-75.20245,5.16413],[-75.20242,5.16417],[-75.2024,5.1642],[-75.20239,5.16425],[-75.20237,5.16424],[-75.20234,5.16422],[-75.2023,5.16423],[-75.20227,5.16424],[-75.20225,5.16423],[-75.20221,5.16423],[-75.20218,5.16424],[-75.20214,5.16425],[-75.20213,5.1643],[-75.20212,5.16434],[-75.20212,5.16438],[-75.20215,5.16437],[-75.20219,5.16436],[-75.20223,5.16435]]]},"properties":{"FID":25,"OBJECTID":484,"Id":0,"Categ_TTO":"Estructura ecologica principal","SubCat_TTO":"Areas de interes ambiental","Uso_Suelo":"Laderas ambientales urbanas","Actividad":"Bosque fragmentado","Shape_Leng":314.87177311,"Shape_Area":2083.70730716}},{"type":"Feature","id":26,"geometry":{"type":"Polygon","coordinates":[[[-75.20276,5.16314],[-75.20277,5.16311],[-75.20279,5.16307],[-75.20284,5.16299],[-75.20283,5.16294],[-75.20282,5.16287],[-75.20281,5.16281],[-75.20278,5.16288],[-75.20274,5.16294],[-75.20271,5.16299],[-75.20266,5.16306],[-75.20262,5.16312],[-75.20259,5.16316],[-75.20257,5.16319],[-75.20263,5.16323],[-75.2026,5.16328],[-75.20262,5.16329],[-75.20261,5.1633],[-75.20258,5.16332],[-75.20257,5.16331],[-75.20256,5.16331],[-75.20253,5.16336],[-75.20253,5.16336],[-75.20251,5.16338],[-75.20249,5.16341],[-75.20247,5.16343],[-75.20247,5.16343],[-75.20249,5.16342],[-75.20258,5.16337],[-75.2026,5.16338],[-75.2026,5.16343],[-75.20258,5.16344],[-75.20258,5.1634],[-75.20258,5.16339],[-75.2025,5.16343],[-75.20247,5.16345],[-75.20239,5.16346],[-75.20241,5.16348],[-75.20239,5.16353],[-75.20238,5.16354],[-75.2024,5.16356],[-75.20238,5.16359],[-75.20236,5.16358],[-75.20235,5.16358],[-75.20233,5.16361],[-75.20228,5.16358],[-75.20226,5.16362],[-75.20225,5.16364],[-75.20222,5.16368],[-75.2022,5.16372],[-75.20218,5.16372],[-75.2022,5.16373],[-75.20222,5.16375],[-75.20222,5.16381],[-75.20222,5.16382],[-75.20223,5.16383],[-75.20221,5.16386],[-75.20221,5.16386],[-75.20216,5.16391],[-75.20215,5.1639],[-75.20211,5.16397],[-75.20211,5.16398],[-75.2021,5.16401],[-75.20209,5.16402],[-75.20211,5.16404],[-75.20213,5.16409],[-75.20213,5.16418],[-75.20214,5.16425],[-75.20218,5.16424],[-75.20221,5.16423],[-75.20225,5.16423],[-75.20227,5.16424],[-75.2023,5.16423],[-75.20234,5.16422],[-75.20237,5.16424],[-75.20239,5.16425],[-75.2024,5.1642],[-75.20242,5.16417],[-75.20245,5.16413],[-75.20246,5.16411],[-75.20249,5.16411],[-75.2025,5.16408],[-75.20251,5.16405],[-75.20252,5.16403],[-75.20253,5.16401],[-75.20254,5.164],[-75.20255,5.16397],[-75.20254,5.16394],[-75.20256,5.16394],[-75.20258,5.16394],[-75.20259,5.16394],[-75.20261,5.16393],[-75.20262,5.16389],[-75.20261,5.16385],[-75.20258,5.1638],[-75.20255,5.16378],[-75.20252,5.16376],[-75.20249,5.16375],[-75.20247,5.16374],[-75.20245,5.16374],[-75.20245,5.16372],[-75.20241,5.16369],[-75.20245,5.16362],[-75.20249,5.16357],[-75.20252,5.16354],[-75.20258,5.16353],[-75.20258,5.16353],[-75.20268,5.16336],[-75.20273,5.16324],[-75.2027,5.16323],[-75.20275,5.16313],[-75.20276,5.16314]]]},"properties":{"FID":26,"OBJECTID":487,"Id":0,"Categ_TTO":"Estructura ecologica principal","SubCat_TTO":"Areas de interes ambiental","Uso_Suelo":"Laderas ambientales urbanas","Actividad":"Obras de mitigación del riesgo","Shape_Leng":501.880337084,"Shape_Area":3750.80378351}},{"type":"Feature","id":27,"geometry":{"type":"Polygon","coordinates":[[[-75.20212,5.1646],[-75.20214,5.16459],[-75.20218,5.16457],[-75.2022,5.16458],[-75.20222,5.16461],[-75.20224,5.16466],[-75.20226,5.16471],[-75.20226,5.16475],[-75.20227,5.16479],[-75.20227,5.16481],[-75.20221,5.16482],[-75.20223,5.16486],[-75.20224,5.16488],[-75.20226,5.16489],[-75.20229,5.16493],[-75.2023,5.16492],[-75.20231,5.16494],[-75.20233,5.16493],[-75.20239,5.165],[-75.20245,5.16506],[-75.20249,5.16511],[-75.20253,5.16518],[-75.20255,5.16518],[-75.20243,5.16495],[-75.20236,5.16485],[-75.20233,5.16479],[-75.20232,5.16475],[-75.20232,5.16468],[-75.20231,5.16465],[-75.2023,5.16462],[-75.20227,5.16458],[-75.20226,5.16454],[-75.20223,5.16438],[-75.20223,5.16435],[-75.20219,5.16436],[-75.20215,5.16437],[-75.20212,5.16438],[-75.20208,5.16438],[-75.20209,5.16441],[-75.20211,5.16445],[-75.20209,5.16447],[-75.20207,5.16447],[-75.20209,5.16453],[-75.20209,5.16453],[-75.2021,5.16455],[-75.20211,5.16459],[-75.20212,5.1646],[-75.20212,5.1646]]]},"properties":{"FID":27,"OBJECTID":489,"Id":0,"Categ_TTO":"Estructura ecologica principal","SubCat_TTO":"Areas de interes ambiental","Uso_Suelo":"Laderas ambientales urbanas","Actividad":"Obras de mitigación del riesgo","Shape_Leng":234.721450668,"Shape_Area":1117.33321351}},{"type":"Feature","id":28,"geometry":{"type":"Polygon","coordinates":[[[-75.2021,5.16462],[-75.2021,5.16467],[-75.20211,5.16468],[-75.20213,5.16468],[-75.20213,5.16474],[-75.20215,5.16473],[-75.20215,5.16477],[-75.2021,5.16477],[-75.2021,5.1648],[-75.20215,5.1648],[-75.20215,5.16483],[-75.20214,5.16485],[-75.20214,5.16488],[-75.20214,5.16489],[-75.20214,5.16492],[-75.20214,5.16495],[-75.20214,5.16499],[-75.20212,5.16499],[-75.20212,5.165],[-75.20212,5.16502],[-75.20211,5.16502],[-75.20211,5.16505],[-75.20211,5.16505],[-75.2021,5.16507],[-75.2021,5.16507],[-75.2021,5.16509],[-75.20204,5.16509],[-75.20204,5.16509],[-75.20204,5.1651],[-75.20204,5.16511],[-75.20204,5.16513],[-75.20205,5.16515],[-75.20205,5.16516],[-75.20207,5.16518],[-75.20208,5.16519],[-75.20217,5.16516],[-75.20226,5.16513],[-75.20224,5.16511],[-75.20223,5.16507],[-75.20223,5.16504],[-75.20223,5.16504],[-75.20222,5.16503],[-75.20222,5.16502],[-75.20221,5.16499],[-75.20221,5.16496],[-75.20219,5.16496],[-75.20217,5.16495],[-75.20218,5.16492],[-75.20218,5.1649],[-75.20217,5.16487],[-75.20216,5.16483],[-75.20219,5.16483],[-75.20219,5.16481],[-75.20219,5.1648],[-75.20219,5.16479],[-75.20219,5.16478],[-75.20218,5.16476],[-75.20218,5.16475],[-75.20217,5.16473],[-75.20217,5.16471],[-75.20216,5.16468],[-75.20215,5.16465],[-75.20214,5.16463],[-75.20214,5.16463],[-75.20213,5.16462],[-75.2021,5.16462]]]},"properties":{"FID":28,"OBJECTID":490,"Id":0,"Categ_TTO":"Estructura ecologica principal","SubCat_TTO":"Areas de interes ambiental","Uso_Suelo":"Laderas ambientales urbanas","Actividad":"Obras de mitigación del riesgo","Shape_Leng":174.514475731,"Shape_Area":577.656714243}},{"type":"Feature","id":29,"geometry":{"type":"Polygon","coordinates":[[[-75.202,5.16192],[-75.20191,5.16196],[-75.20191,5.16196],[-75.20192,5.162],[-75.20194,5.16202],[-75.20195,5.16203],[-75.20197,5.16202],[-75.202,5.16201],[-75.202,5.16198],[-75.20203,5.16198],[-75.20203,5.16203],[-75.20204,5.16204],[-75.20205,5.16206],[-75.20205,5.16207],[-75.20204,5.16209],[-75.20204,5.1621],[-75.20206,5.16212],[-75.20209,5.16216],[-75.20212,5.16218],[-75.20215,5.16221],[-75.20215,5.16222],[-75.20217,5.16226],[-75.2022,5.16224],[-75.20218,5.16218],[-75.20214,5.16211],[-75.20211,5.16207],[-75.20209,5.16203],[-75.20206,5.162],[-75.20206,5.16198],[-75.20204,5.16194],[-75.202,5.16192]]]},"properties":{"FID":29,"OBJECTID":493,"Id":0,"Categ_TTO":"Infraestructura ecologica","SubCat_TTO":"Zonas verdes urbanas","Uso_Suelo":"Centros de manzana","Actividad":"Cultivos permanentes","Shape_Leng":117.989565979,"Shape_Area":302.720412557}},{"type":"Feature","id":30,"geometry":{"type":"Polygon","coordinates":[[[-75.20211,5.16207],[-75.20208,5.162],[-75.20207,5.16196],[-75.20209,5.16195],[-75.2021,5.16193],[-75.2021,5.16191],[-75.2021,5.1619],[-75.20209,5.1619],[-75.20208,5.16188],[-75.20204,5.16188],[-75.20202,5.16188],[-75.20201,5.16186],[-75.202,5.16185],[-75.20196,5.16185],[-75.20195,5.16187],[-75.20194,5.16188],[-75.20193,5.16186],[-75.20192,5.16187],[-75.20191,5.16188],[-75.20189,5.16189],[-75.20188,5.16189],[-75.20186,5.16188],[-75.20185,5.16184],[-75.20182,5.16181],[-75.20179,5.16177],[-75.20178,5.16174],[-75.20177,5.16171],[-75.20175,5.16171],[-75.20175,5.16174],[-75.20174,5.16178],[-75.20175,5.16182],[-75.20176,5.16186],[-75.20201,5.16214],[-75.20203,5.16214],[-75.20204,5.16213],[-75.20204,5.16212],[-75.20203,5.1621],[-75.20203,5.16208],[-75.20203,5.16206],[-75.20198,5.16207],[-75.20197,5.16202],[-75.20195,5.16203],[-75.20194,5.16202],[-75.20191,5.16196],[-75.20191,5.16196],[-75.202,5.16192],[-75.20204,5.16194],[-75.20206,5.16198],[-75.20206,5.162],[-75.20209,5.16203],[-75.20211,5.16207]]]},"properties":{"FID":30,"OBJECTID":494,"Id":0,"Categ_TTO":"Infraestructura ecologica","SubCat_TTO":"Zonas verdes urbanas","Uso_Suelo":"Centros de manzana","Actividad":"Pastos arbolados","Shape_Leng":201.53574714,"Shape_Area":506.264246857}},{"type":"Feature","id":31,"geometry":{"type":"Polygon","coordinates":[[[-75.20012,5.16436],[-75.20013,5.16437],[-75.20014,5.16437],[-75.20015,5.16437],[-75.20014,5.16439],[-75.20013,5.1644],[-75.20014,5.16441],[-75.20015,5.1644],[-75.20016,5.16439],[-75.20017,5.16438],[-75.20018,5.16439],[-75.20019,5.16439],[-75.20019,5.16438],[-75.2002,5.16438],[-75.20022,5.16438],[-75.20023,5.16438],[-75.20023,5.1644],[-75.20024,5.1644],[-75.20026,5.16439],[-75.20027,5.16438],[-75.20026,5.16437],[-75.20026,5.16436],[-75.20027,5.16436],[-75.20028,5.16437],[-75.20029,5.16438],[-75.2003,5.16438],[-75.2003,5.16435],[-75.20038,5.16432],[-75.20039,5.16429],[-75.20041,5.16428],[-75.20043,5.16429],[-75.20044,5.1643],[-75.20045,5.16429],[-75.20046,5.16429],[-75.20047,5.16429],[-75.2005,5.1643],[-75.20051,5.16431],[-75.20052,5.16432],[-75.20054,5.16433],[-75.20055,5.16434],[-75.20056,5.16434],[-75.20058,5.16426],[-75.20059,5.16426],[-75.20059,5.16426],[-75.20059,5.16426],[-75.20059,5.16425],[-75.20059,5.16425],[-75.20059,5.16425],[-75.20059,5.16425],[-75.20059,5.16424],[-75.20059,5.16424],[-75.20058,5.16424],[-75.20058,5.16424],[-75.20058,5.16424],[-75.20058,5.16423],[-75.20058,5.16423],[-75.20058,5.16423],[-75.20058,5.16422],[-75.20058,5.16422],[-75.20055,5.16423],[-75.2005,5.16425],[-75.20047,5.16421],[-75.20038,5.16419],[-75.20036,5.16419],[-75.2003,5.16419],[-75.20031,5.16421],[-75.20022,5.16425],[-75.20019,5.16432],[-75.20017,5.16436],[-75.20014,5.16434],[-75.20012,5.16436]]]},"properties":{"FID":31,"OBJECTID":497,"Id":0,"Categ_TTO":"Estructura ecologica principal","SubCat_TTO":"Areas de interes ambiental","Uso_Suelo":"Laderas ambientales urbanas","Actividad":"Bosque fragmentado","Shape_Leng":156.004880911,"Shape_Area":575.115491625}},{"type":"Feature","id":32,"geometry":{"type":"Polygon","coordinates":[[[-75.19986,5.16485],[-75.19987,5.16483],[-75.19987,5.16483],[-75.19988,5.16482],[-75.19987,5.16481],[-75.19989,5.1648],[-75.19993,5.16477],[-75.19993,5.16475],[-75.19998,5.16472],[-75.2,5.16468],[-75.20002,5.16467],[-75.20005,5.16463],[-75.20005,5.16462],[-75.20006,5.1646],[-75.20008,5.16459],[-75.2001,5.16457],[-75.20009,5.16455],[-75.2001,5.16453],[-75.20009,5.16452],[-75.20009,5.16451],[-75.2001,5.16451],[-75.20012,5.16449],[-75.20013,5.16449],[-75.20014,5.16449],[-75.20015,5.16451],[-75.20016,5.16452],[-75.20021,5.16443],[-75.20022,5.16443],[-75.20023,5.16443],[-75.20027,5.16442],[-75.20027,5.16442],[-75.20028,5.1644],[-75.20028,5.16439],[-75.20029,5.16438],[-75.20029,5.16438],[-75.20028,5.16437],[-75.20027,5.16436],[-75.20026,5.16436],[-75.20026,5.16437],[-75.20027,5.16438],[-75.20026,5.16439],[-75.20024,5.1644],[-75.20023,5.1644],[-75.20023,5.16438],[-75.20022,5.16438],[-75.2002,5.16438],[-75.20019,5.16438],[-75.20019,5.16439],[-75.20018,5.16439],[-75.20017,5.16438],[-75.20016,5.16439],[-75.20015,5.1644],[-75.20014,5.16441],[-75.20013,5.1644],[-75.20014,5.16439],[-75.20015,5.16437],[-75.20014,5.16437],[-75.20013,5.16437],[-75.20012,5.16436],[-75.20006,5.16446],[-75.20008,5.16449],[-75.20002,5.16458],[-75.19991,5.16473],[-75.19986,5.1648],[-75.19986,5.16485]]]},"properties":{"FID":32,"OBJECTID":498,"Id":0,"Categ_TTO":"Estructura ecologica principal","SubCat_TTO":"Areas de interes ambiental","Uso_Suelo":"Laderas ambientales urbanas","Actividad":"Pastos enmalezados","Shape_Leng":182.785844341,"Shape_Area":424.940573325}},{"type":"Feature","id":33,"geometry":{"type":"Polygon","coordinates":[[[-75.20039,5.16431],[-75.2004,5.16433],[-75.20043,5.16432],[-75.20045,5.16435],[-75.20049,5.16434],[-75.20055,5.16434],[-75.20054,5.16433],[-75.20052,5.16432],[-75.20051,5.16431],[-75.20047,5.16429],[-75.20046,5.16429],[-75.20045,5.16429],[-75.20044,5.1643],[-75.20043,5.16429],[-75.20041,5.16428],[-75.20039,5.16429],[-75.20038,5.16432],[-75.20039,5.16431]]]},"properties":{"FID":33,"OBJECTID":499,"Id":0,"Categ_TTO":"Estructura ecologica principal","SubCat_TTO":"Areas de interes ambiental","Uso_Suelo":"Laderas ambientales urbanas","Actividad":"Pastos arbolados","Shape_Leng":44.6636266723,"Shape_Area":70.3633687489}},{"type":"Feature","id":34,"geometry":{"type":"Polygon","coordinates":[[[-75.20059,5.16563],[-75.20076,5.1656],[-75.20087,5.16558],[-75.20091,5.16538],[-75.20078,5.1652],[-75.20078,5.16518],[-75.20075,5.16524],[-75.2007,5.16522],[-75.20068,5.16527],[-75.2007,5.16528],[-75.20068,5.16535],[-75.20066,5.16534],[-75.20063,5.1655],[-75.2006,5.16558],[-75.20059,5.16563]]]},"properties":{"FID":34,"OBJECTID":500,"Id":0,"Categ_TTO":"Infraestructura ecologica","SubCat_TTO":"Zonas verdes urbanas","Uso_Suelo":"Centros de manzana","Actividad":"Pastos enmalezados","Shape_Leng":146.425431663,"Shape_Area":1057.865199}},{"type":"Feature","id":35,"geometry":{"type":"Polygon","coordinates":[[[-75.20118,5.16464],[-75.20132,5.1646],[-75.20142,5.1646],[-75.20144,5.16472],[-75.20151,5.16473],[-75.20151,5.16471],[-75.2015,5.1647],[-75.20151,5.16469],[-75.20151,5.16468],[-75.20153,5.16467],[-75.20154,5.16466],[-75.20157,5.16466],[-75.20159,5.16465],[-75.2016,5.16465],[-75.2016,5.16463],[-75.20159,5.16462],[-75.20158,5.16462],[-75.20157,5.16461],[-75.20156,5.16461],[-75.20157,5.1646],[-75.20157,5.16458],[-75.20158,5.16457],[-75.20159,5.16457],[-75.2016,5.16456],[-75.20159,5.16455],[-75.20158,5.16453],[-75.20158,5.16452],[-75.2016,5.16452],[-75.20162,5.16452],[-75.20164,5.16453],[-75.20165,5.16453],[-75.20168,5.16451],[-75.20168,5.16446],[-75.2016,5.16447],[-75.20154,5.16448],[-75.20155,5.16452],[-75.20152,5.16453],[-75.20151,5.16455],[-75.20144,5.16456],[-75.20135,5.16456],[-75.20135,5.16456],[-75.20129,5.16459],[-75.20129,5.16459],[-75.20121,5.16463],[-75.20118,5.16464]]]},"properties":{"FID":35,"OBJECTID":501,"Id":0,"Categ_TTO":"Infraestructura ecologica","SubCat_TTO":"Zonas verdes urbanas","Uso_Suelo":"Centros de manzana","Actividad":"Pastos arbolados","Shape_Leng":165.21830031,"Shape_Area":441.82242396}},{"type":"Feature","id":36,"geometry":{"type":"Polygon","coordinates":[[[-75.20153,5.16467],[-75.20161,5.16467],[-75.20161,5.16474],[-75.20172,5.16475],[-75.20176,5.16472],[-75.20173,5.16464],[-75.20182,5.16461],[-75.20179,5.16455],[-75.20178,5.16449],[-75.20175,5.1645],[-75.20175,5.1645],[-75.20168,5.16451],[-75.20165,5.16453],[-75.20164,5.16453],[-75.20162,5.16452],[-75.2016,5.16452],[-75.20158,5.16452],[-75.20158,5.16453],[-75.20159,5.16455],[-75.2016,5.16456],[-75.20159,5.16457],[-75.20158,5.16457],[-75.20157,5.16458],[-75.20157,5.1646],[-75.20156,5.16461],[-75.20157,5.16461],[-75.20158,5.16462],[-75.20159,5.16462],[-75.2016,5.16463],[-75.2016,5.16465],[-75.20159,5.16465],[-75.20157,5.16466],[-75.20154,5.16466],[-75.20153,5.16467]]]},"properties":{"FID":36,"OBJECTID":502,"Id":0,"Categ_TTO":"Infraestructura ecologica","SubCat_TTO":"Zonas verdes urbanas","Uso_Suelo":"Centros de manzana","Actividad":"Pastos","Shape_Leng":118.133272728,"Shape_Area":511.166125771}},{"type":"Feature","id":37,"geometry":{"type":"Polygon","coordinates":[[[-75.2019,5.16479],[-75.20185,5.16481],[-75.20186,5.16486],[-75.20185,5.16487],[-75.20186,5.16491],[-75.20186,5.16495],[-75.20186,5.165],[-75.20188,5.16505],[-75.20188,5.16507],[-75.2019,5.16507],[-75.2019,5.16502],[-75.2019,5.16494],[-75.20189,5.16488],[-75.2019,5.16479]]]},"properties":{"FID":37,"OBJECTID":504,"Id":0,"Categ_TTO":"Infraestructura ecologica","SubCat_TTO":"Zonas verdes urbanas","Uso_Suelo":"Centros de manzana","Actividad":"Pastos arbolados","Shape_Leng":67.8718465777,"Shape_Area":120.268304228}},{"type":"Feature","id":38,"geometry":{"type":"Polygon","coordinates":[[[-75.20253,5.16518],[-75.20253,5.16517],[-75.20252,5.16518],[-75.20252,5.16518],[-75.20251,5.16518],[-75.2025,5.16517],[-75.20249,5.16516],[-75.20248,5.16515],[-75.20247,5.16515],[-75.20245,5.16516],[-75.20244,5.16516],[-75.20244,5.16517],[-75.20244,5.16518],[-75.20243,5.16519],[-75.20243,5.16519],[-75.20242,5.16519],[-75.20241,5.1652],[-75.2024,5.1652],[-75.20239,5.16521],[-75.20238,5.16522],[-75.20238,5.16523],[-75.20239,5.16524],[-75.20239,5.16524],[-75.2024,5.16526],[-75.2024,5.16527],[-75.20241,5.16528],[-75.20243,5.16528],[-75.20243,5.16529],[-75.20243,5.1653],[-75.20242,5.16531],[-75.2024,5.16532],[-75.20239,5.16532],[-75.20241,5.16533],[-75.20242,5.16535],[-75.20242,5.16537],[-75.20242,5.16538],[-75.20241,5.16541],[-75.20241,5.16543],[-75.20241,5.16544],[-75.20241,5.16548],[-75.20243,5.1655],[-75.20244,5.16551],[-75.20245,5.16553],[-75.20244,5.16555],[-75.20244,5.16557],[-75.20245,5.16559],[-75.20247,5.16561],[-75.20249,5.16561],[-75.2025,5.1656],[-75.20261,5.16551],[-75.20268,5.16544],[-75.20269,5.16537],[-75.20267,5.16528],[-75.20261,5.16521],[-75.20257,5.16516],[-75.20255,5.16518],[-75.20253,5.16518]]]},"properties":{"FID":38,"OBJECTID":505,"Id":0,"Categ_TTO":"Estructura ecologica principal","SubCat_TTO":"Areas de interes ambiental","Uso_Suelo":"Laderas ambientales urbanas","Actividad":"Bosque fragmentado","Shape_Leng":148.029925904,"Shape_Area":1152.02404569}},{"type":"Feature","id":39,"geometry":{"type":"Polygon","coordinates":[[[-75.20253,5.16517],[-75.20249,5.16511],[-75.20238,5.1652],[-75.20237,5.16519],[-75.20234,5.16521],[-75.20232,5.16522],[-75.20231,5.16524],[-75.2023,5.16528],[-75.20228,5.16533],[-75.20226,5.16535],[-75.20225,5.16538],[-75.20224,5.1654],[-75.20224,5.16541],[-75.20227,5.16543],[-75.2023,5.16545],[-75.20231,5.16546],[-75.20232,5.16547],[-75.20234,5.16548],[-75.20234,5.16549],[-75.20235,5.1655],[-75.20236,5.16552],[-75.20237,5.16554],[-75.20236,5.16556],[-75.20236,5.16556],[-75.20236,5.16557],[-75.20238,5.16559],[-75.20242,5.16562],[-75.20245,5.16565],[-75.20249,5.16561],[-75.20247,5.16561],[-75.20245,5.16559],[-75.20244,5.16557],[-75.20245,5.16553],[-75.20244,5.16551],[-75.20243,5.1655],[-75.20241,5.16548],[-75.20241,5.16544],[-75.20241,5.16543],[-75.20241,5.16541],[-75.20242,5.16538],[-75.20242,5.16537],[-75.20242,5.16535],[-75.20241,5.16533],[-75.20239,5.16532],[-75.2024,5.16532],[-75.20242,5.16531],[-75.20243,5.1653],[-75.20243,5.16529],[-75.20243,5.16528],[-75.20241,5.16528],[-75.2024,5.16527],[-75.2024,5.16526],[-75.20239,5.16524],[-75.20239,5.16524],[-75.20238,5.16523],[-75.20238,5.16522],[-75.20239,5.16521],[-75.2024,5.1652],[-75.20241,5.1652],[-75.20242,5.16519],[-75.20243,5.16519],[-75.20243,5.16519],[-75.20244,5.16518],[-75.20244,5.16517],[-75.20244,5.16516],[-75.20245,5.16516],[-75.20247,5.16515],[-75.20248,5.16515],[-75.20249,5.16516],[-75.2025,5.16517],[-75.20251,5.16518],[-75.20252,5.16518],[-75.20252,5.16518],[-75.20253,5.16517]]]},"properties":{"FID":39,"OBJECTID":506,"Id":0,"Categ_TTO":"Estructura ecologica principal","SubCat_TTO":"Areas de interes ambiental","Uso_Suelo":"Laderas ambientales urbanas","Actividad":"Pastos","Shape_Leng":176.941831627,"Shape_Area":599.249400058}},{"type":"Feature","id":40,"geometry":{"type":"Polygon","coordinates":[[[-75.20237,5.16519],[-75.20223,5.16504],[-75.20223,5.16504],[-75.20223,5.16507],[-75.20224,5.16511],[-75.20226,5.16513],[-75.20208,5.16519],[-75.20207,5.1652],[-75.20208,5.16522],[-75.20209,5.16524],[-75.20211,5.16528],[-75.20213,5.16532],[-75.20214,5.16535],[-75.20214,5.16538],[-75.20217,5.16546],[-75.2022,5.16551],[-75.20227,5.16554],[-75.20233,5.16556],[-75.20236,5.16557],[-75.20236,5.16556],[-75.20236,5.16556],[-75.20237,5.16554],[-75.20236,5.16552],[-75.20235,5.1655],[-75.20234,5.16549],[-75.20234,5.16548],[-75.20232,5.16547],[-75.20231,5.16546],[-75.2023,5.16545],[-75.20227,5.16543],[-75.20224,5.16541],[-75.20224,5.1654],[-75.20225,5.16538],[-75.20228,5.16533],[-75.2023,5.16528],[-75.20231,5.16524],[-75.20232,5.16522],[-75.20234,5.16521],[-75.20237,5.16519]]]},"properties":{"FID":40,"OBJECTID":507,"Id":0,"Categ_TTO":"Estructura ecologica principal","SubCat_TTO":"Areas de interes ambiental","Uso_Suelo":"Laderas ambientales urbanas","Actividad":"Pastos arbolados","Shape_Leng":168.529552678,"Shape_Area":861.337498172}},{"type":"Feature","id":41,"geometry":{"type":"Polygon","coordinates":[[[-75.20285,5.16304],[-75.20287,5.16305],[-75.20287,5.16293],[-75.20295,5.16298],[-75.20307,5.16278],[-75.20299,5.16272],[-75.20293,5.16282],[-75.20285,5.16276],[-75.20282,5.16279],[-75.20285,5.16298],[-75.20285,5.16304]]]},"properties":{"FID":41,"OBJECTID":508,"Id":0,"Categ_TTO":"Estructura ecologica principal","SubCat_TTO":"Areas de interes ambiental","Uso_Suelo":"Laderas ambientales urbanas","Actividad":"Pastos arbolados","Shape_Leng":121.448585947,"Shape_Area":453.143438787}},{"type":"Feature","id":42,"geometry":{"type":"Polygon","coordinates":[[[-75.20419,5.162],[-75.20428,5.16194],[-75.20434,5.1619],[-75.2043,5.1618],[-75.20427,5.16182],[-75.20425,5.16183],[-75.20422,5.16184],[-75.2042,5.16186],[-75.20416,5.1619],[-75.20412,5.16194],[-75.20416,5.16199],[-75.20417,5.16198],[-75.20417,5.16194],[-75.2042,5.16189],[-75.20427,5.16184],[-75.20429,5.16187],[-75.20425,5.16192],[-75.20419,5.162]]]},"properties":{"FID":42,"OBJECTID":509,"Id":0,"Categ_TTO":"Infraestructura ecologica","SubCat_TTO":"Zonas verdes urbanas","Uso_Suelo":"Centros de manzana","Actividad":"Pastos","Shape_Leng":109.525297948,"Shape_Area":170.229897452}},{"type":"Feature","id":43,"geometry":{"type":"Polygon","coordinates":[[[-75.20429,5.16179],[-75.20392,5.16164],[-75.20392,5.16171],[-75.20391,5.16173],[-75.20391,5.16175],[-75.20387,5.16181],[-75.20381,5.16189],[-75.20374,5.16196],[-75.2037,5.16199],[-75.20376,5.16215],[-75.20378,5.16215],[-75.20381,5.16211],[-75.20387,5.16204],[-75.20392,5.162],[-75.20395,5.16198],[-75.20404,5.16197],[-75.20407,5.16195],[-75.20405,5.16193],[-75.20408,5.16189],[-75.2041,5.16193],[-75.20413,5.16191],[-75.20416,5.16188],[-75.20419,5.16186],[-75.2042,5.16184],[-75.20422,5.16183],[-75.20424,5.16182],[-75.20427,5.16181],[-75.20429,5.16179]]]},"properties":{"FID":43,"OBJECTID":510,"Id":0,"Categ_TTO":"Estructura ecologica principal","SubCat_TTO":"Areas de interes ambiental","Uso_Suelo":"Laderas ambientales urbanas","Actividad":"Mosaico de pastos y cultivos","Shape_Leng":192.185367148,"Shape_Area":1404.63887141}},{"type":"Feature","id":44,"geometry":{"type":"Polygon","coordinates":[[[-75.20272,5.16365],[-75.20269,5.16361],[-75.20258,5.16353],[-75.20258,5.16353],[-75.20252,5.16354],[-75.20249,5.16357],[-75.20245,5.16362],[-75.20241,5.16369],[-75.20245,5.16372],[-75.20246,5.1637],[-75.20247,5.16368],[-75.20249,5.16369],[-75.20251,5.1637],[-75.20253,5.16368],[-75.20251,5.16366],[-75.2025,5.16363],[-75.20252,5.16362],[-75.20253,5.16362],[-75.20256,5.16364],[-75.20258,5.16367],[-75.20259,5.16369],[-75.20261,5.1637],[-75.20263,5.16371],[-75.20265,5.1637],[-75.20267,5.16368],[-75.2027,5.16366],[-75.20272,5.16365]]]},"properties":{"FID":44,"OBJECTID":0,"Id":0,"Categ_TTO":"Estructura ecologica principal","SubCat_TTO":"Areas de interes ambiental","Uso_Suelo":"Laderas ambientales urbanas","Actividad":"Pastos","Shape_Leng":0,"Shape_Area":0}}]}