{"type":"FeatureCollection","name":"AREAS_COND_RIESGOMM_SAMANÁ","crs":{"type":"name","properties":{"name":"urn:ogc:def:crs:OGC:1.3:CRS84"}},"features":[{"type":"Feature","id":0,"geometry":{"type":"MultiPolygon","coordinates":[[[[-74.98848,5.40971],[-74.98849,5.40967],[-74.98848,5.40967],[-74.98848,5.40967],[-74.98844,5.40965],[-74.98843,5.40969],[-74.98847,5.40971],[-74.98847,5.40971],[-74.98848,5.40971]]],[[[-74.98862,5.40981],[-74.98861,5.40984],[-74.98862,5.40984],[-74.98862,5.40983],[-74.98864,5.4098],[-74.98864,5.40979],[-74.98862,5.40981]]],[[[-74.98874,5.40986],[-74.98876,5.40987],[-74.98877,5.40986],[-74.98874,5.40986],[-74.98874,5.40986]]],[[[-74.9887,5.40987],[-74.9887,5.40988],[-74.9887,5.40987],[-74.98871,5.40987],[-74.9887,5.40987]]],[[[-74.98887,5.4099],[-74.98887,5.4099],[-74.98887,5.40989],[-74.98887,5.4099]]],[[[-74.98916,5.4099],[-74.98923,5.40991],[-74.98928,5.40991],[-74.98929,5.40991],[-74.98928,5.40991],[-74.9891,5.40989],[-74.98907,5.40989],[-74.9891,5.40989],[-74.98916,5.4099]]],[[[-74.98916,5.4099],[-74.98903,5.4099],[-74.98903,5.40994],[-74.98916,5.40994],[-74.98916,5.4099]]],[[[-74.99504,5.40994],[-74.99504,5.40994],[-74.99505,5.40998],[-74.99506,5.40999],[-74.99508,5.41],[-74.99506,5.40999],[-74.99505,5.40997],[-74.99506,5.40994],[-74.99509,5.4099],[-74.99504,5.40994]]],[[[-74.98954,5.41014],[-74.98956,5.41016],[-74.98961,5.41019],[-74.98952,5.41012],[-74.98954,5.41014]]],[[[-74.99052,5.4105],[-74.99053,5.41049],[-74.99052,5.41049],[-74.99052,5.4105]]],[[[-74.99052,5.41054],[-74.99052,5.41054],[-74.99054,5.41054],[-74.99052,5.41051],[-74.99052,5.41054]]],[[[-74.99092,5.41063],[-74.99126,5.41061],[-74.99128,5.41061],[-74.99131,5.41061],[-74.99134,5.41061],[-74.9914,5.41061],[-74.99152,5.4106],[-74.99159,5.4106],[-74.99163,5.4106],[-74.99163,5.41052],[-74.99162,5.41048],[-74.9916,5.41048],[-74.99159,5.41046],[-74.99159,5.41044],[-74.99152,5.41044],[-74.99152,5.41045],[-74.99145,5.41046],[-74.99145,5.41045],[-74.99139,5.41046],[-74.99139,5.41047],[-74.99133,5.41047],[-74.99133,5.41039],[-74.9913,5.4104],[-74.9913,5.41048],[-74.99126,5.41048],[-74.99126,5.41049],[-74.99123,5.41049],[-74.99122,5.4105],[-74.99123,5.41058],[-74.99117,5.41059],[-74.99117,5.41052],[-74.99114,5.41052],[-74.99114,5.4106],[-74.99114,5.4106],[-74.99111,5.4106],[-74.99111,5.41062],[-74.99104,5.41062],[-74.991,5.41062],[-74.99094,5.41062],[-74.99092,5.41062],[-74.99092,5.41063]]],[[[-74.9908,5.41065],[-74.99084,5.41064],[-74.99089,5.41063],[-74.99088,5.41062],[-74.99084,5.41062],[-74.99081,5.41062],[-74.99081,5.41063],[-74.9908,5.41063],[-74.9908,5.41065]]],[[[-74.99057,5.41064],[-74.99058,5.41065],[-74.99059,5.41065],[-74.99059,5.41065],[-74.99058,5.41063],[-74.99057,5.41064]]],[[[-74.99535,5.41077],[-74.99535,5.41077],[-74.99535,5.41077],[-74.99535,5.41077]]],[[[-74.99523,5.41097],[-74.99525,5.41094],[-74.99524,5.41094],[-74.99523,5.41097]]],[[[-74.99857,5.41134],[-74.99857,5.41134],[-74.99868,5.41122],[-74.99857,5.41134]]],[[[-74.9987,5.4112],[-74.99887,5.41137],[-74.99888,5.41137],[-74.9987,5.4112],[-74.9987,5.4112]]],[[[-74.99873,5.41167],[-74.99873,5.41167],[-74.99877,5.41164],[-74.99888,5.41154],[-74.99886,5.41152],[-74.99895,5.41144],[-74.99894,5.41144],[-74.99873,5.41167]]],[[[-74.99617,5.41187],[-74.99618,5.41188],[-74.99617,5.41187],[-74.99617,5.41187]]],[[[-74.99501,5.41189],[-74.99502,5.41189],[-74.99502,5.41189],[-74.99501,5.41189],[-74.99501,5.41189]]],[[[-74.99513,5.41193],[-74.99514,5.41193],[-74.99514,5.41191],[-74.99513,5.41193]]],[[[-74.99541,5.41192],[-74.99541,5.41193],[-74.99546,5.41193],[-74.99541,5.41192],[-74.99541,5.41192]]],[[[-74.99507,5.41194],[-74.99511,5.41194],[-74.99511,5.41194],[-74.99508,5.41194],[-74.99507,5.41191],[-74.99507,5.41194]]],[[[-74.99524,5.41195],[-74.99524,5.41195],[-74.99524,5.41195],[-74.99524,5.41195]]],[[[-74.9949,5.41193],[-74.99486,5.41196],[-74.99486,5.41196],[-74.99488,5.41194],[-74.9949,5.41193],[-74.9949,5.41192],[-74.9949,5.41192],[-74.9949,5.41193]]],[[[-74.99519,5.41196],[-74.9952,5.41196],[-74.99522,5.41197],[-74.99522,5.41195],[-74.9952,5.41196],[-74.9952,5.41195],[-74.99519,5.41196]]],[[[-74.99639,5.41199],[-74.99641,5.412],[-74.99638,5.41199],[-74.99639,5.41199]]],[[[-74.99485,5.41202],[-74.99485,5.41201],[-74.99486,5.412],[-74.99484,5.412],[-74.99485,5.41202]]],[[[-74.99671,5.41203],[-74.99669,5.41203],[-74.99669,5.41203],[-74.99671,5.41203]]],[[[-74.99484,5.41205],[-74.99485,5.41204],[-74.99485,5.41204],[-74.99484,5.41205]]],[[[-74.98893,5.41208],[-74.98893,5.41209],[-74.98894,5.41208],[-74.9889,5.41207],[-74.98893,5.41208]]],[[[-74.99684,5.41207],[-74.99684,5.41207],[-74.99682,5.41206],[-74.99684,5.41207]]],[[[-74.98895,5.41213],[-74.98896,5.41214],[-74.98897,5.41213],[-74.98895,5.41212],[-74.98895,5.41213]]],[[[-74.99481,5.41214],[-74.99481,5.41213],[-74.99481,5.41212],[-74.99481,5.41214]]],[[[-74.9948,5.41216],[-74.9948,5.41216],[-74.9948,5.41216],[-74.99481,5.41215],[-74.9948,5.41216]]],[[[-74.99477,5.41218],[-74.99477,5.4122],[-74.99479,5.41217],[-74.99477,5.41218]]],[[[-74.99703,5.41228],[-74.99704,5.41229],[-74.99706,5.41231],[-74.99703,5.41228],[-74.99703,5.41228]]],[[[-74.9948,5.41235],[-74.9948,5.41235],[-74.99478,5.4123],[-74.9948,5.41235]]],[[[-74.99709,5.41235],[-74.9971,5.41236],[-74.99709,5.41235],[-74.99709,5.41235]]],[[[-74.99475,5.41247],[-74.99479,5.41247],[-74.99479,5.41246],[-74.99475,5.41247]]],[[[-74.99745,5.41262],[-74.99745,5.41262],[-74.99745,5.41262],[-74.99745,5.41262]]],[[[-74.99439,5.41276],[-74.9944,5.41276],[-74.9944,5.41276],[-74.99439,5.41276]]],[[[-74.99436,5.41275],[-74.99436,5.41276],[-74.99436,5.41276],[-74.99436,5.41275],[-74.99436,5.41274],[-74.99436,5.41275]]],[[[-74.99444,5.41276],[-74.99445,5.41276],[-74.99445,5.41276],[-74.99444,5.41276]]],[[[-74.98884,5.41276],[-74.98884,5.41279],[-74.98885,5.41279],[-74.98885,5.41276],[-74.98884,5.41276]]],[[[-74.99762,5.41295],[-74.99762,5.41295],[-74.99762,5.41295],[-74.99762,5.41295]]],[[[-74.99762,5.41296],[-74.99763,5.41296],[-74.99762,5.41296],[-74.99762,5.41296]]],[[[-74.98916,5.4136],[-74.98916,5.4136],[-74.98915,5.41355],[-74.98915,5.41355],[-74.98914,5.41355],[-74.98916,5.4136]]],[[[-74.98942,5.4136],[-74.98948,5.4136],[-74.98948,5.41359],[-74.98947,5.41359],[-74.98947,5.4136],[-74.98944,5.4136],[-74.98942,5.4136],[-74.98942,5.4136],[-74.98942,5.4136]]],[[[-74.99503,5.41385],[-74.99503,5.41387],[-74.99503,5.41385],[-74.99504,5.41384],[-74.99504,5.41384],[-74.99503,5.41385]]],[[[-74.99435,5.41388],[-74.99435,5.41389],[-74.99435,5.41389],[-74.99435,5.41388],[-74.99435,5.41388],[-74.99435,5.41388]]],[[[-74.99503,5.41392],[-74.99503,5.41391],[-74.99503,5.41391],[-74.99503,5.41389],[-74.99503,5.41392]]],[[[-74.99435,5.4139],[-74.99434,5.41394],[-74.99435,5.41389],[-74.99435,5.4139]]],[[[-74.99384,5.414],[-74.99384,5.414],[-74.99384,5.414],[-74.99384,5.414]]],[[[-74.99378,5.41404],[-74.99381,5.41403],[-74.99379,5.41402],[-74.99378,5.41404]]],[[[-74.99511,5.41409],[-74.99511,5.41409],[-74.99511,5.41409],[-74.99511,5.41409]]],[[[-74.99376,5.41407],[-74.9938,5.4141],[-74.99381,5.4141],[-74.99377,5.41408],[-74.99377,5.41405],[-74.99376,5.41407]]],[[[-74.99368,5.41416],[-74.99368,5.41415],[-74.99375,5.41416],[-74.99378,5.41416],[-74.99372,5.41415],[-74.99372,5.41415],[-74.99368,5.41415],[-74.99368,5.41416]]],[[[-74.99379,5.41417],[-74.99381,5.41417],[-74.9938,5.41417],[-74.9938,5.41416],[-74.99379,5.41416],[-74.99379,5.41417]]],[[[-74.99358,5.41415],[-74.99358,5.41419],[-74.99359,5.41419],[-74.99359,5.41415],[-74.99355,5.41415],[-74.99358,5.41415]]],[[[-74.99589,5.41426],[-74.99589,5.41426],[-74.99589,5.41426],[-74.99589,5.41426],[-74.99589,5.41426]]],[[[-74.99584,5.41427],[-74.99585,5.41427],[-74.99585,5.41427],[-74.99584,5.41427]]],[[[-74.99579,5.41429],[-74.99579,5.41429],[-74.99582,5.41428],[-74.99582,5.41428],[-74.99579,5.41429]]],[[[-74.99378,5.41431],[-74.99377,5.41431],[-74.99379,5.4143],[-74.99378,5.4143],[-74.99378,5.41431]]],[[[-74.99382,5.41432],[-74.99385,5.41431],[-74.99382,5.41431],[-74.99382,5.41432]]],[[[-74.99575,5.41432],[-74.99575,5.41432],[-74.99576,5.41431],[-74.99575,5.41432]]],[[[-74.99502,5.41435],[-74.99502,5.41435],[-74.99502,5.41435],[-74.99502,5.41435],[-74.99502,5.41435]]],[[[-74.99524,5.41432],[-74.99527,5.41435],[-74.99527,5.41435],[-74.99524,5.41432],[-74.99524,5.41432],[-74.99524,5.41432]]],[[[-74.99509,5.41438],[-74.99509,5.41438],[-74.99508,5.41438],[-74.99509,5.41438]]],[[[-74.9951,5.4144],[-74.9951,5.41439],[-74.99509,5.41439],[-74.9951,5.4144]]],[[[-74.9951,5.41441],[-74.99511,5.41442],[-74.9951,5.41441],[-74.9951,5.41441]]],[[[-74.99048,5.41445],[-74.99049,5.41449],[-74.99049,5.41445],[-74.9905,5.41444],[-74.99048,5.41445]]],[[[-74.99559,5.41447],[-74.99557,5.41448],[-74.99559,5.41447],[-74.99559,5.41447],[-74.99559,5.41447]]],[[[-74.99546,5.41448],[-74.99549,5.41448],[-74.99546,5.41448],[-74.99546,5.41448]]],[[[-74.9905,5.4145],[-74.9905,5.41451],[-74.99053,5.4145],[-74.9905,5.4145]]],[[[-74.99067,5.41457],[-74.99069,5.41457],[-74.99069,5.41459],[-74.99071,5.41458],[-74.99071,5.41458],[-74.99071,5.41457],[-74.99066,5.41455],[-74.99064,5.41454],[-74.99061,5.41453],[-74.99058,5.41453],[-74.99057,5.4145],[-74.99056,5.4145],[-74.99058,5.41454],[-74.99061,5.41453],[-74.99067,5.41457]]],[[[-74.99472,5.41466],[-74.99473,5.41466],[-74.99473,5.41466],[-74.99471,5.41466],[-74.99472,5.41466]]],[[[-74.99479,5.41468],[-74.9948,5.41469],[-74.9948,5.41468],[-74.99479,5.41468]]],[[[-74.99481,5.4147],[-74.99482,5.41471],[-74.99482,5.41471],[-74.99482,5.41471],[-74.9948,5.41469],[-74.99481,5.4147]]],[[[-74.99483,5.41472],[-74.99483,5.41472],[-74.99483,5.41472],[-74.99483,5.41472]]],[[[-74.99494,5.41486],[-74.99495,5.41485],[-74.99493,5.41483],[-74.99494,5.41486]]],[[[-74.99496,5.41489],[-74.99496,5.41489],[-74.99496,5.41489],[-74.99496,5.41488],[-74.99496,5.41489]]],[[[-74.99456,5.4149],[-74.99459,5.41493],[-74.99458,5.41492],[-74.99457,5.4149],[-74.99456,5.4149]]],[[[-74.99462,5.41496],[-74.99461,5.41497],[-74.99464,5.415],[-74.99464,5.415],[-74.99466,5.41502],[-74.99466,5.41502],[-74.99464,5.41499],[-74.99461,5.41495],[-74.99462,5.41496]]],[[[-74.99466,5.41503],[-74.99466,5.41503],[-74.99466,5.41503],[-74.99466,5.41503],[-74.99466,5.41503]]],[[[-74.99467,5.41504],[-74.99467,5.41505],[-74.99467,5.41504],[-74.99467,5.41504],[-74.99467,5.41504]]],[[[-74.99503,5.41524],[-74.99503,5.41522],[-74.99503,5.41522],[-74.99503,5.41524]]],[[[-74.99502,5.41524],[-74.99502,5.41524],[-74.99502,5.41524],[-74.99502,5.41524],[-74.99502,5.41524],[-74.99502,5.41524]]],[[[-74.99501,5.41525],[-74.99501,5.41525],[-74.99501,5.41525],[-74.99501,5.41525],[-74.99501,5.41525]]],[[[-74.99535,5.41561],[-74.99535,5.41561],[-74.99535,5.41559],[-74.99535,5.41561]]],[[[-74.99574,5.41667],[-74.99574,5.41667],[-74.99574,5.41667],[-74.99574,5.41667]]],[[[-74.99574,5.4167],[-74.99574,5.4167],[-74.99574,5.4167],[-74.99574,5.4167]]],[[[-74.99329,5.41671],[-74.9933,5.41672],[-74.99329,5.41671],[-74.99328,5.4167],[-74.99328,5.41669],[-74.99329,5.41671]]]]},"properties":{"FID":0,"OBJECTID":1,"gridcode":3,"Amenaza":"Alta","Area_ha":8.96972596946,"Shape_Leng":1117.93165397,"Shape_Area":1093.21371173}}]}