{"type":"FeatureCollection","name":"ACR_IND_SAMANÁ","crs":{"type":"name","properties":{"name":"urn:ogc:def:crs:OGC:1.3:CRS84"}},"features":[{"type":"Feature","id":0,"geometry":{"type":"MultiPolygon","coordinates":[[[[-74.99502,5.41087],[-74.99503,5.41085],[-74.99503,5.41086],[-74.99503,5.41085],[-74.99502,5.41084],[-74.99501,5.41083],[-74.99501,5.41084],[-74.99498,5.41084],[-74.99498,5.41083],[-74.99499,5.41082],[-74.995,5.41082],[-74.99503,5.41082],[-74.99503,5.41078],[-74.99502,5.41078],[-74.995,5.41078],[-74.99503,5.41078],[-74.99503,5.41077],[-74.99502,5.41076],[-74.99501,5.41074],[-74.99499,5.41074],[-74.99499,5.41074],[-74.99499,5.41072],[-74.99499,5.41072],[-74.99498,5.4107],[-74.99497,5.41072],[-74.99498,5.41073],[-74.99499,5.41076],[-74.99498,5.41077],[-74.99494,5.41077],[-74.99495,5.41086],[-74.99499,5.41086],[-74.99502,5.41087]]],[[[-74.99497,5.41102],[-74.995,5.41102],[-74.995,5.41099],[-74.99497,5.41099],[-74.99497,5.41102]]],[[[-74.9948,5.41141],[-74.99483,5.41143],[-74.99483,5.41142],[-74.9948,5.41141],[-74.9948,5.41141]]],[[[-74.99513,5.41142],[-74.99514,5.41143],[-74.99515,5.41143],[-74.99515,5.41142],[-74.99515,5.41141],[-74.99514,5.41141],[-74.99513,5.41142]]],[[[-74.99484,5.41143],[-74.99484,5.41144],[-74.99484,5.41144],[-74.99487,5.41149],[-74.9949,5.41149],[-74.9949,5.41149],[-74.99492,5.41145],[-74.99484,5.41143],[-74.99484,5.41143]]],[[[-74.99491,5.4115],[-74.99491,5.4115],[-74.99501,5.41151],[-74.99502,5.41149],[-74.99495,5.41148],[-74.99494,5.41149],[-74.99496,5.41144],[-74.99493,5.41143],[-74.99492,5.41145],[-74.99492,5.41147],[-74.99491,5.4115]]],[[[-74.9936,5.41151],[-74.99359,5.41154],[-74.99361,5.41155],[-74.99363,5.41155],[-74.99364,5.41152],[-74.99362,5.41151],[-74.99362,5.41149],[-74.99361,5.41149],[-74.99361,5.4115],[-74.9936,5.4115],[-74.9936,5.41151]]],[[[-74.99554,5.41172],[-74.99554,5.41172],[-74.99558,5.41171],[-74.99554,5.41172]]],[[[-74.99528,5.41167],[-74.99529,5.41168],[-74.99532,5.41172],[-74.99536,5.41173],[-74.9954,5.41173],[-74.99531,5.41169],[-74.99528,5.41167],[-74.99528,5.41167]]],[[[-74.99445,5.41199],[-74.9945,5.41204],[-74.99452,5.41206],[-74.99457,5.41218],[-74.99462,5.41211],[-74.9946,5.41203],[-74.99457,5.41196],[-74.99453,5.41192],[-74.99451,5.41198],[-74.99449,5.41196],[-74.99445,5.41199]]],[[[-74.9945,5.41225],[-74.99457,5.41224],[-74.99458,5.41224],[-74.99459,5.41225],[-74.99464,5.41223],[-74.99462,5.41215],[-74.99462,5.41212],[-74.99457,5.41219],[-74.99447,5.4122],[-74.99446,5.41216],[-74.99443,5.41216],[-74.99442,5.41212],[-74.9944,5.41212],[-74.9944,5.4121],[-74.99433,5.41211],[-74.99432,5.41208],[-74.99428,5.41208],[-74.99429,5.41214],[-74.99425,5.41214],[-74.99422,5.41217],[-74.9942,5.41215],[-74.99413,5.41215],[-74.99406,5.41214],[-74.99409,5.41216],[-74.99413,5.41218],[-74.99415,5.41219],[-74.99422,5.4122],[-74.99433,5.41219],[-74.99441,5.4122],[-74.99446,5.41222],[-74.9945,5.41225]]],[[[-74.99721,5.41222],[-74.99723,5.41224],[-74.99728,5.41228],[-74.9973,5.41229],[-74.99735,5.41232],[-74.99738,5.41233],[-74.99731,5.41229],[-74.99724,5.41224],[-74.99722,5.41222],[-74.99721,5.41222]]],[[[-74.99756,5.41245],[-74.9976,5.41248],[-74.99765,5.4125],[-74.99763,5.41249],[-74.99764,5.41245],[-74.99754,5.41241],[-74.99752,5.4124],[-74.99756,5.41245]]],[[[-74.99768,5.41251],[-74.99771,5.41252],[-74.99773,5.41252],[-74.9977,5.4125],[-74.99768,5.41251]]],[[[-74.98863,5.41261],[-74.98862,5.41262],[-74.98867,5.41262],[-74.98866,5.41259],[-74.98866,5.41259],[-74.98865,5.41259],[-74.98863,5.41261]]],[[[-74.98862,5.41269],[-74.98861,5.41269],[-74.98861,5.4127],[-74.98862,5.4127],[-74.98862,5.4127],[-74.98866,5.41266],[-74.98865,5.41265],[-74.98862,5.41269]]],[[[-74.99797,5.41255],[-74.998,5.41272],[-74.99804,5.41275],[-74.99802,5.41271],[-74.99802,5.41261],[-74.998,5.41252],[-74.99797,5.4125],[-74.99797,5.4125],[-74.99797,5.41255]]],[[[-74.98863,5.41271],[-74.98864,5.41272],[-74.98865,5.41273],[-74.98865,5.41273],[-74.98869,5.4128],[-74.9887,5.41281],[-74.98874,5.41287],[-74.98875,5.41286],[-74.98872,5.4128],[-74.9887,5.41277],[-74.98868,5.41274],[-74.98866,5.4127],[-74.98863,5.41271]]],[[[-74.99812,5.41298],[-74.9983,5.41296],[-74.99836,5.41296],[-74.99858,5.41295],[-74.99869,5.41292],[-74.99875,5.4129],[-74.99871,5.41289],[-74.99864,5.41286],[-74.99858,5.41286],[-74.99849,5.41292],[-74.99847,5.41294],[-74.99842,5.41295],[-74.99833,5.41295],[-74.99825,5.41292],[-74.99817,5.41292],[-74.99813,5.41289],[-74.99808,5.41284],[-74.99804,5.41278],[-74.99804,5.41278],[-74.99804,5.41277],[-74.99791,5.41278],[-74.99791,5.41279],[-74.99791,5.41279],[-74.99795,5.41283],[-74.99796,5.41284],[-74.99807,5.41284],[-74.99812,5.41298]]],[[[-74.99045,5.41343],[-74.99046,5.41348],[-74.99049,5.41347],[-74.99045,5.41343]]],[[[-74.99049,5.41347],[-74.9905,5.41349],[-74.99051,5.41349],[-74.9905,5.41348],[-74.99049,5.41347]]],[[[-74.99045,5.41343],[-74.99043,5.41341],[-74.9904,5.41339],[-74.99038,5.41339],[-74.99037,5.41339],[-74.99034,5.41341],[-74.99031,5.41345],[-74.99029,5.41348],[-74.99029,5.41351],[-74.99033,5.41351],[-74.99034,5.41346],[-74.99038,5.41345],[-74.99038,5.41344],[-74.99045,5.41343]]],[[[-74.99489,5.41358],[-74.9949,5.4136],[-74.99491,5.41359],[-74.99489,5.41358],[-74.99489,5.41358]]],[[[-74.99478,5.41361],[-74.99482,5.4136],[-74.99482,5.41359],[-74.99478,5.41361]]],[[[-74.9886,5.41361],[-74.98857,5.41366],[-74.9886,5.41366],[-74.98862,5.4136],[-74.9886,5.41361]]],[[[-74.98878,5.41367],[-74.98881,5.41366],[-74.9888,5.41362],[-74.98885,5.41363],[-74.9889,5.41362],[-74.9889,5.41364],[-74.98895,5.41366],[-74.98895,5.41363],[-74.98895,5.41359],[-74.98892,5.41353],[-74.98889,5.41349],[-74.98887,5.41343],[-74.98886,5.4134],[-74.98886,5.41333],[-74.98886,5.41331],[-74.98882,5.41331],[-74.98882,5.41332],[-74.98882,5.41339],[-74.9888,5.41345],[-74.98877,5.41353],[-74.9887,5.41356],[-74.98865,5.41359],[-74.98869,5.41361],[-74.98873,5.41362],[-74.98877,5.41362],[-74.98878,5.41367]]],[[[-74.9948,5.41381],[-74.99487,5.4138],[-74.99489,5.41378],[-74.99497,5.41372],[-74.99497,5.41371],[-74.99489,5.41373],[-74.99486,5.41362],[-74.99486,5.41359],[-74.99484,5.41359],[-74.99483,5.41359],[-74.99483,5.4136],[-74.99483,5.4136],[-74.99485,5.41363],[-74.99486,5.41373],[-74.99484,5.41373],[-74.99483,5.41377],[-74.99482,5.41377],[-74.99482,5.4138],[-74.9948,5.41381]]],[[[-74.9948,5.41381],[-74.99474,5.41383],[-74.99473,5.41384],[-74.99474,5.41385],[-74.99475,5.41386],[-74.99475,5.41387],[-74.99477,5.41384],[-74.9948,5.41381]]],[[[-74.99475,5.41408],[-74.99477,5.41408],[-74.99477,5.41408],[-74.99477,5.41407],[-74.99475,5.41408]]],[[[-74.99493,5.41427],[-74.99494,5.41428],[-74.99495,5.41428],[-74.99494,5.41425],[-74.99491,5.41423],[-74.99493,5.41427]]],[[[-74.99575,5.41612],[-74.99578,5.41615],[-74.99579,5.41618],[-74.9958,5.41618],[-74.99581,5.41617],[-74.99577,5.41611],[-74.99575,5.41612]]],[[[-74.99582,5.41637],[-74.99582,5.41629],[-74.99582,5.41632],[-74.99582,5.41637]]],[[[-74.99628,5.41641],[-74.99629,5.41641],[-74.99628,5.41641],[-74.99628,5.41641]]],[[[-74.99582,5.41637],[-74.99582,5.41638],[-74.99583,5.41642],[-74.99583,5.41646],[-74.99586,5.41645],[-74.99587,5.4164],[-74.99582,5.41637]]],[[[-74.99628,5.41641],[-74.99624,5.41641],[-74.99623,5.41651],[-74.99627,5.41652],[-74.99628,5.41652],[-74.99629,5.41647],[-74.99628,5.41641]]],[[[-74.99585,5.41653],[-74.99586,5.41655],[-74.99584,5.4165],[-74.99585,5.41653]]],[[[-74.99602,5.41666],[-74.996,5.41667],[-74.99603,5.41667],[-74.99606,5.41669],[-74.99604,5.41665],[-74.99602,5.41666]]],[[[-74.99619,5.41652],[-74.99618,5.41662],[-74.99616,5.41668],[-74.99615,5.41668],[-74.99615,5.41672],[-74.99618,5.41673],[-74.99623,5.41673],[-74.99625,5.41668],[-74.99625,5.41663],[-74.99625,5.41659],[-74.99624,5.41657],[-74.99624,5.41657],[-74.99621,5.41652],[-74.99619,5.41652]]],[[[-74.99615,5.41681],[-74.99626,5.41678],[-74.99627,5.41676],[-74.99621,5.41674],[-74.99617,5.41676],[-74.99614,5.41677],[-74.9961,5.41677],[-74.99605,5.41676],[-74.99599,5.41675],[-74.99602,5.41679],[-74.99605,5.4168],[-74.99615,5.41681]]],[[[-74.99625,5.41682],[-74.99626,5.41682],[-74.99625,5.41682],[-74.99625,5.41682]]],[[[-74.99615,5.41681],[-74.99615,5.41689],[-74.99615,5.41689],[-74.99615,5.41689],[-74.99616,5.41691],[-74.99624,5.41694],[-74.99625,5.41682],[-74.99615,5.41681]]]]},"properties":{"FID":0,"Id":0,"categoria":"Alta","area_ha":2.90995949522}},{"type":"Feature","id":1,"geometry":{"type":"MultiPolygon","coordinates":[[[[-74.99503,5.41078],[-74.99503,5.41082],[-74.99505,5.41082],[-74.99505,5.41078],[-74.99503,5.41078]]],[[[-74.99503,5.41086],[-74.99504,5.41086],[-74.99504,5.41088],[-74.99506,5.41089],[-74.99506,5.41087],[-74.99505,5.41086],[-74.99504,5.41085],[-74.99503,5.41085],[-74.99503,5.41086]]],[[[-74.995,5.4111],[-74.99501,5.41111],[-74.99503,5.41109],[-74.99504,5.41107],[-74.99505,5.41102],[-74.995,5.4111]]],[[[-74.99498,5.41112],[-74.99498,5.41115],[-74.995,5.41112],[-74.99498,5.41112]]],[[[-74.99497,5.41117],[-74.99497,5.41117],[-74.99497,5.41117],[-74.99497,5.41117]]],[[[-74.99493,5.41121],[-74.99491,5.41125],[-74.99491,5.41126],[-74.99493,5.41126],[-74.99494,5.41124],[-74.99495,5.4112],[-74.99496,5.41119],[-74.99494,5.41119],[-74.99493,5.41121]]],[[[-74.99489,5.41134],[-74.99489,5.41136],[-74.99493,5.41137],[-74.99492,5.41137],[-74.99489,5.41134],[-74.99489,5.41134]]],[[[-74.99501,5.41141],[-74.99503,5.41142],[-74.99504,5.4114],[-74.99503,5.41141],[-74.99501,5.41141],[-74.99501,5.41141]]],[[[-74.99508,5.41142],[-74.9951,5.41143],[-74.99511,5.41142],[-74.99513,5.41142],[-74.99513,5.41142],[-74.99514,5.41141],[-74.99515,5.41141],[-74.99514,5.41141],[-74.99514,5.4114],[-74.99511,5.41138],[-74.9951,5.41137],[-74.9951,5.41137],[-74.99507,5.41139],[-74.99505,5.4114],[-74.99506,5.41141],[-74.99508,5.41142]]],[[[-74.99493,5.41143],[-74.99496,5.41144],[-74.99498,5.41141],[-74.99497,5.41141],[-74.99495,5.4114],[-74.99495,5.4114],[-74.99493,5.41143]]],[[[-74.99478,5.41141],[-74.99478,5.41142],[-74.99479,5.41143],[-74.99481,5.41146],[-74.99482,5.41145],[-74.99481,5.41145],[-74.99483,5.41143],[-74.9948,5.41141],[-74.9948,5.41141],[-74.99479,5.4114],[-74.99478,5.41141]]],[[[-74.99356,5.41149],[-74.99355,5.41151],[-74.99356,5.41151],[-74.99356,5.41149],[-74.99357,5.41149],[-74.99357,5.41146],[-74.99358,5.41144],[-74.99356,5.41143],[-74.99356,5.41145],[-74.99356,5.41145],[-74.99356,5.41146],[-74.99356,5.41149]]],[[[-74.99358,5.4115],[-74.99358,5.41152],[-74.99359,5.41154],[-74.9936,5.41151],[-74.9936,5.4115],[-74.99359,5.4115],[-74.99358,5.4115]]],[[[-74.99483,5.41144],[-74.99482,5.41147],[-74.99482,5.41147],[-74.99485,5.41153],[-74.99486,5.41156],[-74.99487,5.41155],[-74.99486,5.41155],[-74.9949,5.41149],[-74.99487,5.41149],[-74.99484,5.41144],[-74.99484,5.41144],[-74.99483,5.41144]]],[[[-74.99499,5.41158],[-74.99503,5.41158],[-74.99504,5.41157],[-74.99503,5.41154],[-74.99501,5.41152],[-74.99501,5.41151],[-74.99491,5.4115],[-74.99491,5.4115],[-74.99489,5.41152],[-74.99488,5.41157],[-74.99488,5.41157],[-74.99489,5.41158],[-74.9949,5.41158],[-74.99491,5.41157],[-74.99491,5.41158],[-74.99492,5.41158],[-74.99499,5.41158]]],[[[-74.99604,5.41167],[-74.99605,5.41168],[-74.99609,5.41169],[-74.99614,5.41171],[-74.99621,5.41172],[-74.99621,5.4117],[-74.99608,5.41167],[-74.99604,5.41167]]],[[[-74.99563,5.41171],[-74.99558,5.41171],[-74.99554,5.41172],[-74.99555,5.41174],[-74.99559,5.41173],[-74.99561,5.41172],[-74.99566,5.4117],[-74.99573,5.41169],[-74.9958,5.41168],[-74.99586,5.41169],[-74.99589,5.41168],[-74.99589,5.41167],[-74.99577,5.41168],[-74.99563,5.41171]]],[[[-74.99628,5.41174],[-74.99629,5.41175],[-74.99635,5.41175],[-74.99629,5.41172],[-74.99628,5.41174]]],[[[-74.9953,5.41174],[-74.99534,5.41175],[-74.99541,5.41176],[-74.99543,5.41176],[-74.99543,5.41174],[-74.9954,5.41173],[-74.99536,5.41173],[-74.99532,5.41172],[-74.99529,5.41168],[-74.99528,5.41167],[-74.99523,5.41167],[-74.99524,5.41169],[-74.99528,5.41172],[-74.9953,5.41174]]],[[[-74.99356,5.41174],[-74.99358,5.41177],[-74.99358,5.41177],[-74.99358,5.41174],[-74.99356,5.41174]]],[[[-74.99663,5.41184],[-74.99665,5.41184],[-74.99664,5.41182],[-74.99663,5.41184]]],[[[-74.99699,5.4121],[-74.99704,5.41215],[-74.99707,5.41216],[-74.99712,5.41218],[-74.99713,5.4122],[-74.99716,5.41218],[-74.99717,5.41213],[-74.99715,5.41208],[-74.99713,5.41204],[-74.99709,5.41204],[-74.99709,5.41201],[-74.99709,5.41196],[-74.99708,5.41196],[-74.99707,5.41192],[-74.99708,5.4119],[-74.99696,5.41182],[-74.997,5.41174],[-74.99695,5.4117],[-74.99689,5.41166],[-74.99681,5.41166],[-74.99676,5.41169],[-74.99669,5.41171],[-74.9967,5.41181],[-74.9967,5.41184],[-74.99674,5.41186],[-74.99677,5.41189],[-74.99678,5.41194],[-74.9968,5.41195],[-74.99684,5.41196],[-74.99689,5.41198],[-74.99693,5.41201],[-74.99699,5.4121]]],[[[-74.99464,5.41223],[-74.99464,5.41223],[-74.99466,5.41217],[-74.99466,5.41218],[-74.99466,5.41217],[-74.99466,5.41211],[-74.99465,5.41203],[-74.99465,5.41203],[-74.99462,5.41195],[-74.99459,5.41191],[-74.99456,5.41187],[-74.99455,5.41187],[-74.99455,5.41187],[-74.99454,5.41192],[-74.99453,5.41192],[-74.99457,5.41196],[-74.9946,5.41203],[-74.99462,5.41211],[-74.99463,5.4121],[-74.99465,5.41205],[-74.99463,5.41209],[-74.99462,5.41212],[-74.99462,5.41215],[-74.99464,5.41223]]],[[[-74.98825,5.41233],[-74.98827,5.41234],[-74.98828,5.41236],[-74.98828,5.41235],[-74.98828,5.41234],[-74.98827,5.41233],[-74.98825,5.41232],[-74.98825,5.41233]]],[[[-74.99928,5.41244],[-74.99931,5.41243],[-74.99928,5.41241],[-74.99928,5.41244]]],[[[-74.99437,5.41224],[-74.99443,5.41226],[-74.99446,5.41229],[-74.99449,5.41232],[-74.9945,5.41236],[-74.99451,5.41241],[-74.99452,5.41248],[-74.99452,5.41249],[-74.99456,5.41248],[-74.99454,5.41238],[-74.99452,5.41232],[-74.9945,5.41225],[-74.99446,5.41222],[-74.99441,5.4122],[-74.99433,5.41219],[-74.99422,5.4122],[-74.99415,5.41219],[-74.99413,5.41218],[-74.99409,5.41216],[-74.99406,5.41214],[-74.99402,5.41214],[-74.99405,5.41217],[-74.99411,5.41221],[-74.99413,5.41222],[-74.99413,5.41221],[-74.99413,5.41222],[-74.99416,5.41223],[-74.99423,5.41224],[-74.9943,5.41223],[-74.99437,5.41224]]],[[[-74.99772,5.41255],[-74.99772,5.41255],[-74.99773,5.41253],[-74.99773,5.41252],[-74.99771,5.41252],[-74.99768,5.41251],[-74.99767,5.41252],[-74.99765,5.4125],[-74.9976,5.41248],[-74.99756,5.41245],[-74.99752,5.4124],[-74.99744,5.41238],[-74.99738,5.41233],[-74.99735,5.41232],[-74.9973,5.41229],[-74.99728,5.41228],[-74.99723,5.41224],[-74.99721,5.41222],[-74.99718,5.41224],[-74.99722,5.41228],[-74.99728,5.41231],[-74.9973,5.41232],[-74.99735,5.41234],[-74.99739,5.41235],[-74.99741,5.41236],[-74.99744,5.41238],[-74.99748,5.4124],[-74.99753,5.41243],[-74.99754,5.41247],[-74.99755,5.41249],[-74.99755,5.41251],[-74.99756,5.41253],[-74.99758,5.41253],[-74.99761,5.41253],[-74.99765,5.41253],[-74.99772,5.41255]]],[[[-74.99776,5.41256],[-74.99777,5.41256],[-74.99777,5.41255],[-74.99776,5.41256]]],[[[-74.98856,5.41258],[-74.98857,5.41261],[-74.98862,5.41262],[-74.98863,5.41261],[-74.98865,5.41259],[-74.98858,5.41257],[-74.98856,5.41258]]],[[[-74.98833,5.41261],[-74.98834,5.41264],[-74.98835,5.41266],[-74.98835,5.41266],[-74.98833,5.41261],[-74.98833,5.41261]]],[[[-74.98867,5.41265],[-74.98872,5.41272],[-74.98877,5.41268],[-74.98877,5.41268],[-74.98876,5.41264],[-74.98874,5.41262],[-74.98873,5.41261],[-74.98873,5.41261],[-74.98872,5.41261],[-74.98867,5.41265]]],[[[-74.98857,5.41273],[-74.9886,5.41274],[-74.98862,5.41274],[-74.98862,5.41275],[-74.98863,5.41275],[-74.98864,5.41276],[-74.98863,5.41271],[-74.98858,5.41271],[-74.98862,5.4127],[-74.98861,5.4127],[-74.98861,5.41269],[-74.98855,5.41271],[-74.98852,5.41272],[-74.98853,5.41272],[-74.98855,5.41272],[-74.98857,5.41271],[-74.98857,5.41273]]],[[[-74.99788,5.41268],[-74.99787,5.41272],[-74.99785,5.41274],[-74.99785,5.41277],[-74.99785,5.41278],[-74.9979,5.41269],[-74.99788,5.41267],[-74.99788,5.41268]]],[[[-74.9887,5.41281],[-74.98869,5.4128],[-74.98865,5.41273],[-74.98865,5.41273],[-74.98864,5.41272],[-74.98863,5.41271],[-74.98866,5.41278],[-74.98867,5.4128],[-74.98868,5.41281],[-74.9887,5.41281]]],[[[-74.98865,5.41283],[-74.98867,5.41288],[-74.98868,5.41283],[-74.98864,5.41282],[-74.98865,5.41283]]],[[[-74.99785,5.41278],[-74.99785,5.41278],[-74.99785,5.41279],[-74.99787,5.4128],[-74.99788,5.41282],[-74.9979,5.41284],[-74.99791,5.41287],[-74.99791,5.41284],[-74.99796,5.41284],[-74.99795,5.41283],[-74.99791,5.41279],[-74.99791,5.41279],[-74.99791,5.41278],[-74.99785,5.41278]]],[[[-74.9887,5.41281],[-74.98869,5.41285],[-74.98868,5.41288],[-74.98872,5.41288],[-74.98874,5.41287],[-74.9887,5.41281]]],[[[-74.99833,5.41295],[-74.99842,5.41295],[-74.99847,5.41294],[-74.99849,5.41292],[-74.99858,5.41286],[-74.99864,5.41286],[-74.99871,5.41289],[-74.99875,5.4129],[-74.99877,5.41289],[-74.99883,5.41287],[-74.99884,5.41286],[-74.99883,5.41286],[-74.99879,5.41287],[-74.99877,5.41286],[-74.99874,5.41282],[-74.99871,5.41279],[-74.99866,5.41276],[-74.99863,5.41275],[-74.9986,5.41275],[-74.99858,5.41274],[-74.99856,5.41273],[-74.99853,5.41274],[-74.99851,5.41276],[-74.99847,5.41281],[-74.99845,5.41285],[-74.99844,5.41289],[-74.99844,5.41291],[-74.99842,5.41292],[-74.99839,5.41292],[-74.99837,5.41292],[-74.99832,5.41289],[-74.99828,5.41283],[-74.99824,5.41281],[-74.99821,5.41278],[-74.99816,5.41277],[-74.99812,5.41277],[-74.99808,5.41276],[-74.99806,5.41274],[-74.99805,5.41267],[-74.99805,5.41264],[-74.99804,5.41256],[-74.99804,5.41253],[-74.99804,5.41253],[-74.99803,5.4125],[-74.99797,5.4125],[-74.998,5.41252],[-74.99802,5.41261],[-74.99802,5.41271],[-74.99804,5.41275],[-74.99806,5.41277],[-74.99804,5.41277],[-74.99804,5.41278],[-74.99804,5.41278],[-74.99808,5.41284],[-74.99813,5.41289],[-74.99817,5.41292],[-74.99825,5.41292],[-74.99833,5.41295]]],[[[-74.98888,5.41301],[-74.98891,5.413],[-74.98891,5.41299],[-74.98888,5.41295],[-74.98888,5.41301]]],[[[-74.99489,5.41332],[-74.99483,5.41327],[-74.99485,5.4133],[-74.99489,5.41332],[-74.99489,5.41332],[-74.99489,5.41332]]],[[[-74.99489,5.41332],[-74.99489,5.41332],[-74.9949,5.41333],[-74.99489,5.41332]]],[[[-74.99028,5.41339],[-74.99028,5.41342],[-74.99027,5.41345],[-74.99029,5.41351],[-74.99029,5.41348],[-74.99031,5.41345],[-74.99034,5.41341],[-74.99037,5.41339],[-74.99038,5.41339],[-74.9904,5.41339],[-74.99043,5.41341],[-74.99045,5.41343],[-74.99049,5.41347],[-74.9905,5.41348],[-74.99051,5.41349],[-74.99054,5.41349],[-74.99055,5.41349],[-74.99052,5.41347],[-74.99049,5.41342],[-74.99046,5.41336],[-74.99032,5.41338],[-74.99032,5.41338],[-74.99028,5.41339]]],[[[-74.99477,5.41357],[-74.99473,5.41358],[-74.99475,5.41361],[-74.99478,5.41361],[-74.99482,5.41359],[-74.99482,5.41357],[-74.99482,5.41356],[-74.99482,5.41357],[-74.99483,5.41359],[-74.99484,5.41359],[-74.99486,5.41359],[-74.99486,5.41356],[-74.99489,5.41358],[-74.99489,5.41358],[-74.99491,5.41359],[-74.99495,5.41355],[-74.99494,5.41353],[-74.99496,5.41352],[-74.99495,5.41352],[-74.9949,5.41352],[-74.99489,5.41352],[-74.99486,5.41353],[-74.99484,5.41353],[-74.9948,5.41355],[-74.99477,5.41357]]],[[[-74.98896,5.41324],[-74.98895,5.41324],[-74.98894,5.4133],[-74.98886,5.41331],[-74.98886,5.41333],[-74.98886,5.4134],[-74.98887,5.41343],[-74.98889,5.41349],[-74.98892,5.41353],[-74.98895,5.41359],[-74.98895,5.41363],[-74.98895,5.41366],[-74.98897,5.41362],[-74.98898,5.41362],[-74.98898,5.41362],[-74.98898,5.41356],[-74.98897,5.41351],[-74.98898,5.41348],[-74.98898,5.41345],[-74.98898,5.41341],[-74.98897,5.41337],[-74.98897,5.41332],[-74.98897,5.41329],[-74.98897,5.41323],[-74.98897,5.41322],[-74.98896,5.41324]]],[[[-74.98874,5.41336],[-74.98874,5.41337],[-74.98874,5.41339],[-74.98874,5.41345],[-74.98874,5.41346],[-74.98873,5.41349],[-74.98872,5.4135],[-74.98866,5.41353],[-74.9886,5.41356],[-74.98858,5.41357],[-74.98855,5.4136],[-74.98853,5.41364],[-74.98853,5.41366],[-74.98857,5.41366],[-74.9886,5.41361],[-74.98862,5.4136],[-74.98865,5.41359],[-74.9887,5.41356],[-74.98877,5.41353],[-74.9888,5.41345],[-74.98882,5.41339],[-74.98882,5.41332],[-74.98877,5.41334],[-74.98876,5.41327],[-74.98874,5.41327],[-74.98874,5.41327],[-74.98875,5.41329],[-74.98875,5.41331],[-74.98874,5.41332],[-74.98873,5.41333],[-74.98874,5.41336]]],[[[-74.99498,5.41428],[-74.99501,5.41431],[-74.99497,5.41423],[-74.99492,5.41416],[-74.99489,5.41412],[-74.99488,5.41407],[-74.99487,5.41401],[-74.99489,5.41399],[-74.99491,5.41395],[-74.99492,5.41391],[-74.99492,5.41382],[-74.99495,5.41378],[-74.99499,5.41371],[-74.99497,5.41371],[-74.99497,5.41372],[-74.99489,5.41378],[-74.99487,5.4138],[-74.9948,5.41381],[-74.99477,5.41384],[-74.99475,5.41387],[-74.99477,5.41388],[-74.99477,5.4139],[-74.99475,5.41392],[-74.99474,5.41393],[-74.99475,5.41392],[-74.99475,5.41395],[-74.99474,5.41395],[-74.99473,5.41397],[-74.99475,5.41399],[-74.99476,5.414],[-74.99478,5.41403],[-74.99479,5.41405],[-74.99477,5.41407],[-74.99477,5.41408],[-74.9948,5.41406],[-74.99481,5.41409],[-74.99482,5.4141],[-74.99485,5.41414],[-74.99486,5.41417],[-74.99485,5.41419],[-74.99488,5.41421],[-74.99489,5.41422],[-74.99491,5.41423],[-74.99494,5.41425],[-74.99495,5.41428],[-74.99496,5.41427],[-74.99498,5.41428]]],[[[-74.995,5.41433],[-74.99502,5.41435],[-74.99503,5.41434],[-74.99502,5.41432],[-74.995,5.41433]]],[[[-74.99565,5.41604],[-74.99565,5.41605],[-74.99569,5.4161],[-74.99569,5.41611],[-74.99572,5.41609],[-74.99566,5.41604],[-74.99565,5.41604]]],[[[-74.99588,5.41664],[-74.99588,5.41665],[-74.9959,5.41665],[-74.99587,5.4166],[-74.99588,5.41658],[-74.99584,5.41659],[-74.99583,5.41656],[-74.99586,5.41655],[-74.99585,5.41653],[-74.99584,5.4165],[-74.99581,5.41651],[-74.99581,5.41647],[-74.99583,5.41646],[-74.99583,5.41642],[-74.99582,5.41638],[-74.99582,5.41637],[-74.99582,5.41632],[-74.99582,5.41629],[-74.99579,5.41624],[-74.99578,5.4162],[-74.9958,5.41618],[-74.99579,5.41618],[-74.99578,5.41615],[-74.99575,5.41612],[-74.99571,5.41613],[-74.99576,5.41618],[-74.99578,5.41622],[-74.99579,5.41626],[-74.99579,5.4163],[-74.99579,5.41635],[-74.99579,5.41641],[-74.99578,5.41649],[-74.9958,5.41654],[-74.99582,5.41657],[-74.99588,5.41664]]],[[[-74.99606,5.41669],[-74.99606,5.4167],[-74.9961,5.41668],[-74.99612,5.41666],[-74.99615,5.41668],[-74.99616,5.41668],[-74.99618,5.41662],[-74.99619,5.41652],[-74.99616,5.41652],[-74.99613,5.41655],[-74.99607,5.41658],[-74.99606,5.41661],[-74.99606,5.41664],[-74.99604,5.41665],[-74.99606,5.41669]]],[[[-74.99593,5.41674],[-74.99594,5.41676],[-74.99602,5.41679],[-74.99599,5.41675],[-74.99596,5.41673],[-74.99593,5.41671],[-74.99591,5.4167],[-74.99593,5.41674]]],[[[-74.99606,5.41683],[-74.99607,5.41683],[-74.99606,5.41683],[-74.99606,5.41683]]],[[[-74.99606,5.41683],[-74.99601,5.4168],[-74.99596,5.41678],[-74.99598,5.41681],[-74.99603,5.41687],[-74.99605,5.41687],[-74.99606,5.41683]]],[[[-74.99615,5.41691],[-74.99616,5.41691],[-74.99615,5.41689],[-74.99615,5.41689],[-74.99615,5.41689],[-74.99615,5.41691]]]]},"properties":{"FID":1,"Id":0,"categoria":"Media","area_ha":2.14457658595}}]}