{"type":"FeatureCollection","name":"ACA_MM_ENCIMADAS","crs":{"type":"name","properties":{"name":"urn:ogc:def:crs:OGC:1.3:CRS84"}},"features":[{"type":"Feature","id":0,"geometry":{"type":"Polygon","coordinates":[[[-75.0705,5.41692],[-75.07049,5.41697],[-75.07049,5.41704],[-75.07047,5.41711],[-75.07045,5.41718],[-75.07043,5.41724],[-75.07043,5.41726],[-75.07045,5.41727],[-75.07045,5.41728],[-75.07046,5.41728],[-75.07048,5.41727],[-75.07051,5.41727],[-75.07055,5.41727],[-75.07059,5.41726],[-75.07062,5.41726],[-75.07065,5.41726],[-75.07068,5.41725],[-75.07074,5.41722],[-75.07076,5.41721],[-75.07076,5.41721],[-75.07076,5.41719],[-75.07079,5.4172],[-75.07081,5.41719],[-75.07085,5.41717],[-75.07089,5.41716],[-75.07092,5.41715],[-75.07097,5.41714],[-75.071,5.41714],[-75.07101,5.41694],[-75.07101,5.41687],[-75.07098,5.41688],[-75.071,5.41691],[-75.07096,5.41693],[-75.07095,5.41694],[-75.07091,5.41696],[-75.0709,5.41698],[-75.07089,5.41697],[-75.07087,5.41698],[-75.07083,5.417],[-75.07082,5.41702],[-75.07081,5.41704],[-75.0708,5.41704],[-75.07077,5.41711],[-75.07075,5.41712],[-75.07074,5.41716],[-75.07073,5.41716],[-75.07071,5.41716],[-75.07072,5.41711],[-75.07071,5.4171],[-75.07072,5.41709],[-75.07074,5.41704],[-75.07075,5.41707],[-75.07075,5.41705],[-75.07076,5.41701],[-75.07077,5.41701],[-75.07079,5.41698],[-75.0708,5.41698],[-75.07081,5.41697],[-75.07088,5.41694],[-75.0709,5.41691],[-75.07096,5.41689],[-75.07097,5.41686],[-75.07101,5.41687],[-75.07102,5.41674],[-75.07102,5.41655],[-75.07102,5.41647],[-75.071,5.41646],[-75.07087,5.41647],[-75.07086,5.41656],[-75.07083,5.41655],[-75.07083,5.41652],[-75.07081,5.41651],[-75.0708,5.41647],[-75.07076,5.41647],[-75.07075,5.4165],[-75.07066,5.41649],[-75.07065,5.41645],[-75.07063,5.41647],[-75.07062,5.41648],[-75.07056,5.41648],[-75.07054,5.41648],[-75.07053,5.4165],[-75.07051,5.41655],[-75.07052,5.41653],[-75.07054,5.41654],[-75.07053,5.41658],[-75.07051,5.41657],[-75.0705,5.41661],[-75.07049,5.41667],[-75.07048,5.41672],[-75.07049,5.41677],[-75.07049,5.41678],[-75.07049,5.41678],[-75.07049,5.41678],[-75.07049,5.41682],[-75.07052,5.41682],[-75.07051,5.41683],[-75.0705,5.41685],[-75.07049,5.41685],[-75.07049,5.41686],[-75.0705,5.41687],[-75.07052,5.41686],[-75.07052,5.41685],[-75.07055,5.41687],[-75.0705,5.41687],[-75.0705,5.4169],[-75.0705,5.41692]],[[-75.0706,5.41693],[-75.07064,5.41692],[-75.07064,5.41685],[-75.07069,5.41686],[-75.07068,5.41703],[-75.07063,5.41702],[-75.07062,5.41698],[-75.07059,5.41696],[-75.0706,5.41693]],[[-75.07053,5.41692],[-75.07052,5.41691],[-75.07053,5.41691],[-75.07053,5.41692]],[[-75.07057,5.41701],[-75.07057,5.41697],[-75.07058,5.41698],[-75.07057,5.41701]],[[-75.07057,5.41695],[-75.07057,5.41694],[-75.07058,5.41694],[-75.07057,5.41695]],[[-75.07069,5.41718],[-75.07069,5.41714],[-75.0707,5.41715],[-75.07069,5.41718]]]},"properties":{"FID":0,"OBJECTID":1,"FID_Areas_":15,"FID_":0,"Layer":"03- ÁREAS DESARROLLO","Shape_Leng":528.690645624,"Shape_Area":4344.78293904}},{"type":"Feature","id":1,"geometry":{"type":"MultiPolygon","coordinates":[[[[-75.07079,5.4172],[-75.07076,5.41719],[-75.07076,5.41721],[-75.07076,5.41721],[-75.07079,5.4172]]],[[[-75.07069,5.41718],[-75.0707,5.41715],[-75.07069,5.41714],[-75.07069,5.41718]]],[[[-75.07101,5.41687],[-75.07097,5.41686],[-75.07096,5.41689],[-75.0709,5.41691],[-75.07088,5.41694],[-75.07081,5.41697],[-75.0708,5.41698],[-75.07079,5.41698],[-75.07077,5.41701],[-75.07076,5.41701],[-75.07075,5.41705],[-75.07075,5.41707],[-75.07074,5.41704],[-75.07072,5.41709],[-75.07071,5.4171],[-75.07072,5.41711],[-75.07071,5.41716],[-75.07073,5.41716],[-75.07074,5.41716],[-75.07075,5.41712],[-75.07077,5.41711],[-75.0708,5.41704],[-75.07081,5.41704],[-75.07082,5.41702],[-75.07083,5.417],[-75.07087,5.41698],[-75.07089,5.41697],[-75.0709,5.41698],[-75.07091,5.41696],[-75.07095,5.41694],[-75.07096,5.41693],[-75.071,5.41691],[-75.07098,5.41688],[-75.07101,5.41687],[-75.07101,5.41687]]],[[[-75.07057,5.41701],[-75.07058,5.41698],[-75.07057,5.41697],[-75.07057,5.41701]]],[[[-75.07057,5.41695],[-75.07058,5.41694],[-75.07057,5.41694],[-75.07057,5.41695]]],[[[-75.07053,5.41692],[-75.07053,5.41691],[-75.07052,5.41691],[-75.07053,5.41692]]],[[[-75.0705,5.41687],[-75.0705,5.41687],[-75.07055,5.41687],[-75.07052,5.41685],[-75.07052,5.41686],[-75.0705,5.41687]]],[[[-75.07049,5.41685],[-75.0705,5.41685],[-75.07051,5.41683],[-75.07052,5.41682],[-75.07049,5.41682],[-75.07049,5.41682],[-75.07049,5.41685]]],[[[-75.07049,5.41678],[-75.07049,5.41678],[-75.07049,5.41678],[-75.07049,5.41678]]],[[[-75.07051,5.41657],[-75.07053,5.41658],[-75.07054,5.41654],[-75.07052,5.41653],[-75.07051,5.41655],[-75.07051,5.41655],[-75.07051,5.41657]]]]},"properties":{"FID":1,"OBJECTID":2,"FID_Areas_":15,"FID_":0,"Layer":"03- ÁREAS DESARROLLO","Shape_Leng":189.34600436,"Shape_Area":240.216714961}},{"type":"Feature","id":2,"geometry":{"type":"Polygon","coordinates":[[[-75.07041,5.41692],[-75.0705,5.41692],[-75.0705,5.4169],[-75.0705,5.41687],[-75.07049,5.41687],[-75.0705,5.41687],[-75.07049,5.41686],[-75.07049,5.41685],[-75.07047,5.41683],[-75.07038,5.41682],[-75.07042,5.41681],[-75.07042,5.41679],[-75.07046,5.41679],[-75.07047,5.41681],[-75.07049,5.41682],[-75.07049,5.41678],[-75.07046,5.41678],[-75.07045,5.41677],[-75.07049,5.41678],[-75.07049,5.41677],[-75.07048,5.41672],[-75.07049,5.41667],[-75.0705,5.41661],[-75.07051,5.41657],[-75.07049,5.41656],[-75.07051,5.41655],[-75.07051,5.41655],[-75.07053,5.4165],[-75.07054,5.41648],[-75.07052,5.41648],[-75.0705,5.41647],[-75.07028,5.41648],[-75.07027,5.41642],[-75.07026,5.41642],[-75.07026,5.4164],[-75.0702,5.4164],[-75.07017,5.4164],[-75.07018,5.41641],[-75.07019,5.41646],[-75.07019,5.4165],[-75.07019,5.41655],[-75.07018,5.41659],[-75.07017,5.41664],[-75.07015,5.41668],[-75.07012,5.41672],[-75.07009,5.41675],[-75.06994,5.41683],[-75.0698,5.41692],[-75.07041,5.41692],[-75.07038,5.41688],[-75.07037,5.41688],[-75.07036,5.41684],[-75.07038,5.41684],[-75.07039,5.41688],[-75.07042,5.4169],[-75.07041,5.41692]],[[-75.07034,5.41681],[-75.07033,5.41676],[-75.07035,5.41677],[-75.07034,5.41681]],[[-75.07034,5.41676],[-75.07033,5.41675],[-75.07034,5.41675],[-75.07034,5.41676]],[[-75.07025,5.41671],[-75.07024,5.4167],[-75.07025,5.4167],[-75.07025,5.41671]],[[-75.07032,5.41655],[-75.07034,5.41662],[-75.07031,5.41663],[-75.07028,5.41656],[-75.0703,5.41654],[-75.07031,5.41654],[-75.07032,5.41655]],[[-75.07044,5.41655],[-75.07043,5.41654],[-75.0705,5.41654],[-75.07044,5.41655]],[[-75.07001,5.41689],[-75.07001,5.41688],[-75.07002,5.41688],[-75.07001,5.41689]]]},"properties":{"FID":2,"OBJECTID":3,"FID_Areas_":16,"FID_":0,"Layer":"03- ÁREAS DESARROLLO","Shape_Leng":379.537989555,"Shape_Area":2240.34603369}},{"type":"Feature","id":3,"geometry":{"type":"MultiPolygon","coordinates":[[[[-75.07041,5.41692],[-75.07041,5.41692],[-75.07042,5.4169],[-75.07039,5.41688],[-75.07038,5.41684],[-75.07036,5.41684],[-75.07037,5.41688],[-75.07038,5.41688],[-75.07041,5.41692]]],[[[-75.07001,5.41689],[-75.07002,5.41688],[-75.07001,5.41688],[-75.07001,5.41689]]],[[[-75.0705,5.41687],[-75.07049,5.41687],[-75.0705,5.41687],[-75.0705,5.41687]]],[[[-75.07049,5.41682],[-75.07047,5.41681],[-75.07046,5.41679],[-75.07042,5.41679],[-75.07042,5.41681],[-75.07038,5.41682],[-75.07047,5.41683],[-75.07049,5.41685],[-75.07049,5.41682],[-75.07049,5.41682]]],[[[-75.07034,5.41681],[-75.07035,5.41677],[-75.07033,5.41676],[-75.07034,5.41681]]],[[[-75.07049,5.41678],[-75.07045,5.41677],[-75.07046,5.41678],[-75.07049,5.41678],[-75.07049,5.41678]]],[[[-75.07034,5.41676],[-75.07034,5.41675],[-75.07033,5.41675],[-75.07034,5.41676]]],[[[-75.07025,5.41671],[-75.07025,5.4167],[-75.07024,5.4167],[-75.07025,5.41671]]],[[[-75.07051,5.41655],[-75.07051,5.41655],[-75.07049,5.41656],[-75.07051,5.41657],[-75.07051,5.41655],[-75.07051,5.41655]]],[[[-75.07044,5.41655],[-75.0705,5.41654],[-75.07043,5.41654],[-75.07044,5.41655]]]]},"properties":{"FID":3,"OBJECTID":4,"FID_Areas_":16,"FID_":0,"Layer":"03- ÁREAS DESARROLLO","Shape_Leng":110.542310497,"Shape_Area":62.9450063231}},{"type":"Feature","id":4,"geometry":{"type":"MultiPolygon","coordinates":[[[[-75.06888,5.41674],[-75.06916,5.41682],[-75.06913,5.41674],[-75.06912,5.41673],[-75.06912,5.41672],[-75.06912,5.41671],[-75.06912,5.41671],[-75.06911,5.41668],[-75.06911,5.41665],[-75.0691,5.4166],[-75.0691,5.41655],[-75.0691,5.41651],[-75.0691,5.41648],[-75.06911,5.41643],[-75.06911,5.41637],[-75.06912,5.41632],[-75.06912,5.4163],[-75.06908,5.41632],[-75.06908,5.41636],[-75.06911,5.41638],[-75.06908,5.41638],[-75.069,5.41634],[-75.06895,5.41632],[-75.06898,5.41625],[-75.06896,5.41621],[-75.06898,5.41619],[-75.06903,5.41619],[-75.06902,5.41617],[-75.06902,5.41617],[-75.06899,5.41614],[-75.06893,5.41609],[-75.06892,5.41609],[-75.06888,5.41618],[-75.06888,5.41611],[-75.06887,5.41612],[-75.06887,5.41614],[-75.06885,5.41616],[-75.06883,5.41617],[-75.06883,5.41618],[-75.06883,5.4162],[-75.06882,5.4162],[-75.0688,5.4162],[-75.06879,5.41621],[-75.06878,5.4162],[-75.06875,5.41623],[-75.06875,5.41624],[-75.06874,5.41624],[-75.0687,5.41628],[-75.06868,5.41634],[-75.06867,5.4164],[-75.0688,5.4164],[-75.06876,5.41641],[-75.06876,5.41642],[-75.0688,5.41642],[-75.06883,5.41642],[-75.0688,5.41644],[-75.06881,5.41647],[-75.06882,5.41644],[-75.06883,5.41646],[-75.06885,5.41647],[-75.06887,5.41644],[-75.06888,5.41646],[-75.0689,5.41647],[-75.06891,5.41643],[-75.06892,5.41646],[-75.06894,5.41646],[-75.069,5.41647],[-75.06901,5.4165],[-75.06893,5.41647],[-75.06892,5.4165],[-75.06894,5.41652],[-75.06892,5.41653],[-75.06894,5.41654],[-75.06894,5.41662],[-75.06893,5.41655],[-75.06893,5.41654],[-75.06891,5.41662],[-75.0689,5.41656],[-75.06888,5.41654],[-75.06887,5.41669],[-75.06889,5.41671],[-75.06888,5.41674]],[[-75.06898,5.41676],[-75.06897,5.41675],[-75.06909,5.41675],[-75.06898,5.41676]],[[-75.06912,5.41676],[-75.06912,5.41675],[-75.06913,5.41675],[-75.06912,5.41676]],[[-75.06909,5.41679],[-75.06908,5.41677],[-75.06911,5.41678],[-75.06909,5.41679]],[[-75.06899,5.4167],[-75.069,5.41669],[-75.06905,5.41671],[-75.06895,5.41671],[-75.06899,5.4167]],[[-75.06887,5.41643],[-75.06886,5.41642],[-75.06887,5.41643],[-75.06887,5.41643]]],[[[-75.06883,5.41672],[-75.06885,5.41673],[-75.06885,5.41673],[-75.06883,5.41672],[-75.06883,5.41672]]],[[[-75.06866,5.41648],[-75.06866,5.41654],[-75.06866,5.4166],[-75.06866,5.41667],[-75.06879,5.41671],[-75.06879,5.41664],[-75.0688,5.41664],[-75.06882,5.41663],[-75.06883,5.41664],[-75.06886,5.41663],[-75.06887,5.41655],[-75.06882,5.41655],[-75.0688,5.41655],[-75.06879,5.41654],[-75.06872,5.41649],[-75.06866,5.41648]]],[[[-75.06883,5.4165],[-75.06886,5.41651],[-75.06887,5.41648],[-75.06883,5.41648],[-75.06883,5.4165]]],[[[-75.06888,5.41651],[-75.06889,5.41648],[-75.06887,5.41648],[-75.06888,5.41651]]],[[[-75.06867,5.41643],[-75.06866,5.41647],[-75.0687,5.41645],[-75.06871,5.41644],[-75.06867,5.41643]]],[[[-75.06867,5.4164],[-75.06867,5.41641],[-75.06867,5.41642],[-75.0687,5.41642],[-75.06871,5.41642],[-75.06875,5.41641],[-75.06867,5.4164]]],[[[-75.06881,5.41618],[-75.06881,5.41618],[-75.06881,5.41617],[-75.06881,5.41618]]]]},"properties":{"FID":4,"OBJECTID":5,"FID_Areas_":17,"FID_":0,"Layer":"03- ÁREAS DESARROLLO","Shape_Leng":589.237156197,"Shape_Area":2307.37300322}},{"type":"Feature","id":5,"geometry":{"type":"MultiPolygon","coordinates":[[[[-75.06909,5.41679],[-75.06911,5.41678],[-75.06908,5.41677],[-75.06909,5.41679]]],[[[-75.06898,5.41676],[-75.06909,5.41675],[-75.06897,5.41675],[-75.06898,5.41676]]],[[[-75.06912,5.41676],[-75.06913,5.41675],[-75.06912,5.41675],[-75.06912,5.41676]]],[[[-75.06912,5.41671],[-75.06912,5.41671],[-75.06912,5.41672],[-75.06912,5.41673],[-75.06913,5.41674],[-75.06913,5.41673],[-75.06912,5.41671]]],[[[-75.06885,5.41673],[-75.06888,5.41674],[-75.06889,5.41671],[-75.06887,5.41669],[-75.06888,5.41654],[-75.0689,5.41656],[-75.06891,5.41662],[-75.06893,5.41654],[-75.06893,5.41655],[-75.06894,5.41662],[-75.06894,5.41654],[-75.06892,5.41653],[-75.06894,5.41652],[-75.06892,5.4165],[-75.06893,5.41647],[-75.06901,5.4165],[-75.069,5.41647],[-75.06894,5.41646],[-75.06892,5.41646],[-75.06891,5.41643],[-75.0689,5.41647],[-75.06888,5.41646],[-75.06887,5.41644],[-75.06885,5.41647],[-75.06883,5.41646],[-75.06882,5.41644],[-75.06881,5.41647],[-75.0688,5.41644],[-75.06883,5.41642],[-75.0688,5.41642],[-75.06876,5.41642],[-75.06876,5.41641],[-75.0688,5.4164],[-75.06867,5.4164],[-75.06867,5.4164],[-75.06875,5.41641],[-75.06871,5.41642],[-75.0687,5.41642],[-75.06867,5.41642],[-75.06867,5.41643],[-75.06871,5.41644],[-75.0687,5.41645],[-75.06866,5.41647],[-75.06866,5.41647],[-75.06866,5.41648],[-75.06872,5.41649],[-75.06879,5.41654],[-75.0688,5.41655],[-75.06882,5.41655],[-75.06887,5.41655],[-75.06886,5.41663],[-75.06883,5.41664],[-75.06882,5.41663],[-75.0688,5.41664],[-75.06879,5.41664],[-75.06879,5.41671],[-75.06883,5.41672],[-75.06883,5.41672],[-75.06885,5.41673],[-75.06885,5.41673]],[[-75.06883,5.4165],[-75.06883,5.41648],[-75.06887,5.41648],[-75.06886,5.41651],[-75.06883,5.4165]],[[-75.06888,5.41651],[-75.06887,5.41648],[-75.06889,5.41648],[-75.06888,5.41651]]],[[[-75.06899,5.4167],[-75.06895,5.41671],[-75.06905,5.41671],[-75.069,5.41669],[-75.06899,5.4167]]],[[[-75.06887,5.41643],[-75.06887,5.41643],[-75.06886,5.41642],[-75.06887,5.41643]]],[[[-75.06875,5.41623],[-75.06874,5.41624],[-75.06875,5.41624],[-75.06875,5.41623]]],[[[-75.06878,5.4162],[-75.06879,5.41621],[-75.0688,5.4162],[-75.06882,5.4162],[-75.06883,5.4162],[-75.06883,5.41618],[-75.06883,5.41617],[-75.06885,5.41616],[-75.06887,5.41614],[-75.06887,5.41612],[-75.06881,5.41617],[-75.06881,5.41617],[-75.06881,5.41618],[-75.06881,5.41618],[-75.06878,5.4162]]]]},"properties":{"FID":5,"OBJECTID":6,"FID_Areas_":17,"FID_":0,"Layer":"03- ÁREAS DESARROLLO","Shape_Leng":371.096750049,"Shape_Area":451.197488445}},{"type":"Feature","id":6,"geometry":{"type":"MultiPolygon","coordinates":[[[[-75.06895,5.41585],[-75.06896,5.41586],[-75.06897,5.41587],[-75.069,5.41591],[-75.06898,5.41594],[-75.06896,5.41593],[-75.0689,5.41597],[-75.06891,5.41601],[-75.06898,5.41596],[-75.06901,5.41596],[-75.06903,5.41601],[-75.06902,5.41603],[-75.06909,5.41601],[-75.06918,5.41598],[-75.06926,5.41593],[-75.06935,5.41589],[-75.06942,5.41584],[-75.0695,5.41578],[-75.06957,5.41572],[-75.06963,5.41565],[-75.06965,5.41564],[-75.06962,5.41565],[-75.06962,5.41566],[-75.0696,5.41567],[-75.06959,5.4157],[-75.06944,5.41582],[-75.06929,5.4159],[-75.0692,5.4159],[-75.0692,5.41587],[-75.06925,5.41588],[-75.06925,5.41585],[-75.06924,5.41585],[-75.06926,5.41584],[-75.06926,5.41583],[-75.06918,5.41583],[-75.06918,5.41583],[-75.06914,5.41583],[-75.06915,5.41587],[-75.06919,5.41587],[-75.06918,5.41589],[-75.06915,5.41589],[-75.06915,5.41587],[-75.0691,5.41588],[-75.06905,5.41587],[-75.06904,5.41586],[-75.06902,5.41585],[-75.06901,5.41582],[-75.06898,5.41583],[-75.06897,5.41584],[-75.06898,5.41585],[-75.06897,5.41585],[-75.06896,5.41584],[-75.06895,5.41584],[-75.06895,5.41585]],[[-75.06899,5.41584],[-75.06901,5.41585],[-75.06899,5.41586],[-75.06899,5.41584]],[[-75.06903,5.41587],[-75.06902,5.41586],[-75.06904,5.41586],[-75.06903,5.41587]],[[-75.06912,5.41589],[-75.06911,5.41588],[-75.06914,5.41588],[-75.06912,5.41589]],[[-75.06921,5.41585],[-75.06918,5.41586],[-75.06917,5.41584],[-75.06921,5.41585]]],[[[-75.06876,5.41594],[-75.06877,5.41596],[-75.06881,5.41596],[-75.06882,5.41594],[-75.06876,5.41594]]],[[[-75.06873,5.41594],[-75.06873,5.41595],[-75.06873,5.41595],[-75.06875,5.41595],[-75.06875,5.41594],[-75.06873,5.41594]]],[[[-75.06882,5.41594],[-75.06883,5.41594],[-75.06883,5.41593],[-75.06882,5.41593],[-75.06882,5.41594]]],[[[-75.06885,5.41593],[-75.06887,5.41593],[-75.06887,5.41592],[-75.06885,5.41592],[-75.06885,5.41593]]],[[[-75.06887,5.41592],[-75.06888,5.41592],[-75.06888,5.41591],[-75.06887,5.41591],[-75.06887,5.41592]]],[[[-75.06888,5.41591],[-75.06889,5.41591],[-75.06889,5.4159],[-75.06888,5.4159],[-75.06888,5.41591]]],[[[-75.06892,5.41588],[-75.06893,5.41588],[-75.06893,5.41587],[-75.06892,5.41587],[-75.06892,5.41588]]],[[[-75.06874,5.41588],[-75.06876,5.41588],[-75.06878,5.41585],[-75.06878,5.41584],[-75.0689,5.41583],[-75.06889,5.4158],[-75.06888,5.41579],[-75.06887,5.41579],[-75.06885,5.41578],[-75.06882,5.41575],[-75.06881,5.41576],[-75.06879,5.41581],[-75.06878,5.41579],[-75.06879,5.41579],[-75.06878,5.41578],[-75.06879,5.41576],[-75.06878,5.41574],[-75.06879,5.41574],[-75.06883,5.41574],[-75.0689,5.41573],[-75.06878,5.41572],[-75.06879,5.41571],[-75.06879,5.41569],[-75.06882,5.41569],[-75.06879,5.41567],[-75.06892,5.41568],[-75.0689,5.41569],[-75.06893,5.41569],[-75.06894,5.41568],[-75.06897,5.41567],[-75.06898,5.41561],[-75.06899,5.41567],[-75.06901,5.41565],[-75.06903,5.41554],[-75.06902,5.41552],[-75.06897,5.41552],[-75.06898,5.41551],[-75.06901,5.41549],[-75.06902,5.41546],[-75.06902,5.41544],[-75.06904,5.41541],[-75.06904,5.41539],[-75.06908,5.41537],[-75.06912,5.41536],[-75.06914,5.41535],[-75.06918,5.41533],[-75.06919,5.41524],[-75.0692,5.41527],[-75.06921,5.41522],[-75.06926,5.41521],[-75.06929,5.4152],[-75.06933,5.41517],[-75.06932,5.41517],[-75.06922,5.41514],[-75.06911,5.4151],[-75.06901,5.4151],[-75.06901,5.41513],[-75.069,5.41522],[-75.0688,5.4156],[-75.06875,5.41581],[-75.06874,5.41585],[-75.06875,5.41585],[-75.06874,5.41586],[-75.06874,5.41588]],[[-75.06876,5.41583],[-75.06875,5.41581],[-75.06878,5.41582],[-75.06876,5.41583]],[[-75.06887,5.41582],[-75.06887,5.41581],[-75.06888,5.41581],[-75.06887,5.41582]]],[[[-75.06893,5.41587],[-75.06893,5.41587],[-75.06893,5.41586],[-75.06893,5.41586],[-75.06893,5.41587]]],[[[-75.06926,5.41585],[-75.06931,5.41586],[-75.06931,5.41583],[-75.06931,5.4158],[-75.06933,5.41579],[-75.06933,5.41578],[-75.06931,5.41578],[-75.06931,5.41575],[-75.06933,5.41575],[-75.06933,5.41578],[-75.06935,5.41578],[-75.06935,5.41577],[-75.06934,5.41577],[-75.06935,5.41575],[-75.06935,5.41577],[-75.06939,5.41576],[-75.06943,5.41573],[-75.06944,5.41572],[-75.06942,5.41572],[-75.06939,5.41574],[-75.0694,5.41571],[-75.06943,5.4157],[-75.06944,5.41572],[-75.06944,5.41571],[-75.06945,5.4157],[-75.06946,5.4157],[-75.06948,5.41567],[-75.06947,5.41563],[-75.06949,5.41561],[-75.0695,5.41556],[-75.06953,5.41558],[-75.06954,5.41557],[-75.06952,5.41556],[-75.06953,5.41554],[-75.06952,5.41552],[-75.06947,5.41551],[-75.06947,5.4155],[-75.06946,5.41548],[-75.06944,5.41547],[-75.06947,5.41546],[-75.06948,5.41545],[-75.06944,5.41544],[-75.06945,5.41543],[-75.06946,5.41543],[-75.06945,5.41542],[-75.06943,5.4154],[-75.06941,5.41543],[-75.06938,5.41544],[-75.06936,5.41545],[-75.06936,5.41548],[-75.06935,5.41549],[-75.06935,5.41555],[-75.06934,5.41558],[-75.06934,5.41568],[-75.06933,5.41559],[-75.06932,5.41561],[-75.06931,5.41571],[-75.0693,5.41568],[-75.06926,5.41569],[-75.06927,5.41577],[-75.06927,5.41578],[-75.06928,5.41579],[-75.06926,5.4158],[-75.06925,5.41581],[-75.06923,5.41582],[-75.06926,5.41583],[-75.06926,5.41583],[-75.06927,5.41583],[-75.06927,5.41581],[-75.06929,5.41583],[-75.06927,5.41583],[-75.06927,5.41584],[-75.06926,5.41584],[-75.06926,5.41585]],[[-75.06945,5.41561],[-75.06945,5.41556],[-75.06945,5.41557],[-75.06946,5.4156],[-75.06945,5.41561]],[[-75.06938,5.41559],[-75.06938,5.41555],[-75.06939,5.41556],[-75.06938,5.41559]],[[-75.0694,5.41547],[-75.06939,5.41546],[-75.06941,5.41547],[-75.0694,5.41547]],[[-75.06938,5.41547],[-75.06938,5.41546],[-75.06939,5.41547],[-75.06938,5.41547]]],[[[-75.06918,5.41583],[-75.0692,5.41583],[-75.0692,5.41582],[-75.06918,5.41582],[-75.06918,5.41583]]],[[[-75.06923,5.41581],[-75.06924,5.41581],[-75.06924,5.4158],[-75.06923,5.4158],[-75.06923,5.41581]]],[[[-75.06915,5.4157],[-75.06915,5.4157],[-75.06912,5.41573],[-75.0691,5.41577],[-75.06914,5.41578],[-75.06918,5.41577],[-75.06921,5.41576],[-75.06922,5.41575],[-75.06923,5.41574],[-75.06925,5.41574],[-75.06926,5.41567],[-75.0693,5.41567],[-75.06931,5.41548],[-75.06927,5.41547],[-75.06926,5.4155],[-75.06923,5.4155],[-75.06923,5.41551],[-75.06922,5.41557],[-75.06921,5.41552],[-75.0692,5.41551],[-75.06919,5.41556],[-75.06919,5.41549],[-75.0692,5.4155],[-75.06921,5.41551],[-75.0692,5.41547],[-75.06921,5.41546],[-75.06922,5.41543],[-75.06919,5.41544],[-75.06916,5.41545],[-75.06914,5.4155],[-75.06911,5.41549],[-75.06912,5.41545],[-75.06906,5.41545],[-75.06906,5.41547],[-75.06906,5.4155],[-75.06903,5.41552],[-75.06904,5.4156],[-75.06904,5.41564],[-75.06904,5.41566],[-75.06906,5.41566],[-75.06906,5.41567],[-75.06908,5.41568],[-75.0691,5.41562],[-75.06907,5.41555],[-75.06908,5.41552],[-75.06909,5.41556],[-75.0691,5.41556],[-75.06912,5.41562],[-75.06915,5.41561],[-75.06915,5.41564],[-75.06916,5.41563],[-75.06917,5.41561],[-75.06923,5.4156],[-75.0692,5.41566],[-75.06919,5.41567],[-75.06919,5.41567],[-75.0692,5.41568],[-75.06919,5.41568],[-75.06918,5.41571],[-75.06915,5.4157]],[[-75.06912,5.41576],[-75.06913,5.41573],[-75.06914,5.41573],[-75.06913,5.41577],[-75.06912,5.41576]],[[-75.06915,5.41576],[-75.06914,5.41575],[-75.06917,5.41576],[-75.06915,5.41576]],[[-75.06906,5.41562],[-75.06905,5.41554],[-75.06906,5.41555],[-75.06906,5.41562]]],[[[-75.06903,5.41575],[-75.06907,5.41575],[-75.06905,5.41571],[-75.06904,5.41572],[-75.069,5.41574],[-75.06901,5.41575],[-75.06899,5.41576],[-75.06902,5.41577],[-75.06903,5.41575],[-75.06902,5.41575],[-75.06903,5.41574],[-75.06903,5.41575]]],[[[-75.0695,5.41571],[-75.06952,5.41572],[-75.06952,5.41566],[-75.06951,5.41565],[-75.0695,5.41571]]],[[[-75.06888,5.41572],[-75.06892,5.41571],[-75.06887,5.41571],[-75.06888,5.41572]]],[[[-75.06915,5.41566],[-75.06914,5.41566],[-75.06914,5.4157],[-75.06915,5.4157],[-75.06916,5.41569],[-75.06919,5.41568],[-75.06919,5.41567],[-75.06915,5.41567],[-75.06915,5.41566]]],[[[-75.06895,5.41569],[-75.06895,5.41568],[-75.06894,5.41568],[-75.06895,5.41569]]],[[[-75.06932,5.4155],[-75.06932,5.41549],[-75.06931,5.41548],[-75.06932,5.4155]]],[[[-75.06952,5.4155],[-75.06954,5.41548],[-75.06952,5.41548],[-75.06952,5.4155]]],[[[-75.06903,5.41547],[-75.06905,5.41546],[-75.06904,5.41545],[-75.06903,5.41547]]],[[[-75.06927,5.41547],[-75.06928,5.41546],[-75.06927,5.41545],[-75.06927,5.41547]]],[[[-75.06911,5.41544],[-75.06913,5.41542],[-75.0691,5.41541],[-75.06911,5.41544]]],[[[-75.06927,5.41544],[-75.06928,5.41542],[-75.06927,5.41541],[-75.06927,5.41544]]],[[[-75.06946,5.41543],[-75.06951,5.4154],[-75.06946,5.4154],[-75.06946,5.41543]]],[[[-75.06906,5.41543],[-75.06908,5.41541],[-75.06906,5.4154],[-75.06906,5.41543]]],[[[-75.06948,5.41521],[-75.06947,5.41521],[-75.06955,5.41523],[-75.06952,5.41525],[-75.06947,5.41526],[-75.06946,5.41528],[-75.06941,5.4153],[-75.06939,5.41532],[-75.06939,5.41533],[-75.06939,5.41534],[-75.06936,5.41537],[-75.06938,5.41539],[-75.06943,5.41535],[-75.06944,5.41536],[-75.06946,5.41538],[-75.06946,5.4154],[-75.06953,5.41538],[-75.06954,5.41536],[-75.0695,5.41535],[-75.06956,5.41534],[-75.06954,5.41532],[-75.06957,5.41531],[-75.06959,5.41527],[-75.06969,5.41526],[-75.06977,5.41528],[-75.0698,5.41527],[-75.06981,5.41526],[-75.06977,5.41526],[-75.06966,5.41525],[-75.06955,5.41523],[-75.06948,5.41521]],[[-75.06954,5.41529],[-75.06954,5.41525],[-75.06955,5.41525],[-75.06954,5.41529]]],[[[-75.06932,5.41532],[-75.06931,5.41533],[-75.06933,5.41535],[-75.06933,5.41531],[-75.06931,5.41531],[-75.06932,5.41532]]],[[[-75.06934,5.41535],[-75.06936,5.41534],[-75.06935,5.41532],[-75.06936,5.41531],[-75.06934,5.41531],[-75.06934,5.41535]]],[[[-75.06928,5.41535],[-75.0693,5.41533],[-75.06928,5.41533],[-75.06928,5.41535]]],[[[-75.0693,5.41532],[-75.06931,5.41531],[-75.06929,5.41531],[-75.0693,5.41532]]],[[[-75.0692,5.41529],[-75.06921,5.41529],[-75.06919,5.41528],[-75.0692,5.41529]]],[[[-75.06983,5.41526],[-75.06984,5.41527],[-75.06984,5.41526],[-75.06983,5.41526]]],[[[-75.06936,5.41522],[-75.06939,5.41523],[-75.0694,5.41521],[-75.06937,5.41521],[-75.06936,5.41522]]],[[[-75.06936,5.41518],[-75.06936,5.41518],[-75.06938,5.41521],[-75.06942,5.4152],[-75.06936,5.41518]]]]},"properties":{"FID":6,"OBJECTID":7,"FID_Areas_":18,"FID_":0,"Layer":"03- ÁREAS DESARROLLO","Shape_Leng":1616.13648856,"Shape_Area":3709.91557178}},{"type":"Feature","id":7,"geometry":{"type":"MultiPolygon","coordinates":[[[[-75.06876,5.41594],[-75.06882,5.41594],[-75.06882,5.41593],[-75.06883,5.41593],[-75.06884,5.41593],[-75.06885,5.41593],[-75.06885,5.41592],[-75.06887,5.41592],[-75.06887,5.41591],[-75.06888,5.41591],[-75.06888,5.4159],[-75.06889,5.4159],[-75.06889,5.41589],[-75.06892,5.41588],[-75.06892,5.41587],[-75.06893,5.41587],[-75.06893,5.41586],[-75.06893,5.41586],[-75.06895,5.41585],[-75.06895,5.41584],[-75.06896,5.41584],[-75.06897,5.41584],[-75.06898,5.41583],[-75.06901,5.41582],[-75.06902,5.41585],[-75.06904,5.41586],[-75.06905,5.41587],[-75.0691,5.41588],[-75.06915,5.41587],[-75.06914,5.41583],[-75.06918,5.41583],[-75.06918,5.41582],[-75.0692,5.41582],[-75.06921,5.41581],[-75.06923,5.41581],[-75.06923,5.4158],[-75.06924,5.4158],[-75.06926,5.4158],[-75.06928,5.41579],[-75.06927,5.41578],[-75.06927,5.41577],[-75.06926,5.41569],[-75.0693,5.41568],[-75.06931,5.41571],[-75.06932,5.41561],[-75.06933,5.41559],[-75.06934,5.41568],[-75.06934,5.41558],[-75.06935,5.41555],[-75.06935,5.41549],[-75.06936,5.41548],[-75.06936,5.41545],[-75.06938,5.41544],[-75.06941,5.41543],[-75.06943,5.4154],[-75.06945,5.41542],[-75.06946,5.41543],[-75.06946,5.4154],[-75.06951,5.4154],[-75.06946,5.41543],[-75.06945,5.41543],[-75.06944,5.41544],[-75.06948,5.41545],[-75.06947,5.41546],[-75.06944,5.41547],[-75.06946,5.41548],[-75.06947,5.4155],[-75.06947,5.41551],[-75.06952,5.41552],[-75.06953,5.41554],[-75.06952,5.41556],[-75.06954,5.41557],[-75.06953,5.41558],[-75.0695,5.41556],[-75.06949,5.41561],[-75.06947,5.41563],[-75.06948,5.41567],[-75.06946,5.4157],[-75.06945,5.4157],[-75.06944,5.41571],[-75.06944,5.41572],[-75.06943,5.41573],[-75.06939,5.41576],[-75.06935,5.41577],[-75.06935,5.41578],[-75.06933,5.41578],[-75.06933,5.41579],[-75.06931,5.4158],[-75.06931,5.41583],[-75.06931,5.41586],[-75.06926,5.41585],[-75.06925,5.41585],[-75.06925,5.41588],[-75.0692,5.41587],[-75.0692,5.4159],[-75.06929,5.4159],[-75.06944,5.41582],[-75.06959,5.4157],[-75.0696,5.41567],[-75.06962,5.41566],[-75.06962,5.41565],[-75.06965,5.41564],[-75.06969,5.41558],[-75.06975,5.41551],[-75.0698,5.41543],[-75.06985,5.41535],[-75.06989,5.41527],[-75.06984,5.41526],[-75.06984,5.41527],[-75.06983,5.41526],[-75.06981,5.41526],[-75.0698,5.41527],[-75.06977,5.41528],[-75.06969,5.41526],[-75.06959,5.41527],[-75.06957,5.41531],[-75.06954,5.41532],[-75.06956,5.41534],[-75.0695,5.41535],[-75.06954,5.41536],[-75.06953,5.41538],[-75.06946,5.4154],[-75.06946,5.41538],[-75.06944,5.41536],[-75.06943,5.41535],[-75.06938,5.41539],[-75.06936,5.41537],[-75.06939,5.41534],[-75.06939,5.41533],[-75.06939,5.41532],[-75.06941,5.4153],[-75.06946,5.41528],[-75.06947,5.41526],[-75.06952,5.41525],[-75.06955,5.41523],[-75.06947,5.41521],[-75.06948,5.41521],[-75.06943,5.4152],[-75.06942,5.4152],[-75.06938,5.41521],[-75.06936,5.41518],[-75.06936,5.41518],[-75.06933,5.41517],[-75.06929,5.4152],[-75.06926,5.41521],[-75.06921,5.41522],[-75.0692,5.41527],[-75.06919,5.41524],[-75.06918,5.41533],[-75.06914,5.41535],[-75.06912,5.41536],[-75.06908,5.41537],[-75.06904,5.41539],[-75.06904,5.41541],[-75.06902,5.41544],[-75.06902,5.41546],[-75.06901,5.41549],[-75.06898,5.41551],[-75.06897,5.41552],[-75.06902,5.41552],[-75.06903,5.41554],[-75.06901,5.41565],[-75.06899,5.41567],[-75.06898,5.41561],[-75.06897,5.41567],[-75.06894,5.41568],[-75.06893,5.41569],[-75.0689,5.41569],[-75.06892,5.41568],[-75.06879,5.41567],[-75.06882,5.41569],[-75.06879,5.41569],[-75.06879,5.41571],[-75.06878,5.41572],[-75.0689,5.41573],[-75.06883,5.41574],[-75.06879,5.41574],[-75.06878,5.41574],[-75.06879,5.41576],[-75.06878,5.41578],[-75.06879,5.41579],[-75.06878,5.41579],[-75.06879,5.41581],[-75.06881,5.41576],[-75.06882,5.41575],[-75.06885,5.41578],[-75.06887,5.41579],[-75.06888,5.41579],[-75.06889,5.4158],[-75.0689,5.41583],[-75.06878,5.41584],[-75.06878,5.41585],[-75.06876,5.41588],[-75.06874,5.41588],[-75.06873,5.41594],[-75.06875,5.41594],[-75.06876,5.41594]],[[-75.06915,5.41564],[-75.06915,5.41561],[-75.06912,5.41562],[-75.0691,5.41556],[-75.06909,5.41556],[-75.06908,5.41552],[-75.06907,5.41555],[-75.0691,5.41562],[-75.06908,5.41568],[-75.06906,5.41567],[-75.06906,5.41566],[-75.06904,5.41566],[-75.06904,5.41564],[-75.06904,5.4156],[-75.06903,5.41552],[-75.06906,5.4155],[-75.06906,5.41547],[-75.06906,5.41545],[-75.06912,5.41545],[-75.06911,5.41549],[-75.06914,5.4155],[-75.06916,5.41545],[-75.06919,5.41544],[-75.06922,5.41543],[-75.06921,5.41546],[-75.0692,5.41547],[-75.06921,5.41551],[-75.0692,5.4155],[-75.06919,5.41549],[-75.06919,5.41556],[-75.0692,5.41551],[-75.06921,5.41552],[-75.06922,5.41557],[-75.06923,5.41551],[-75.06923,5.4155],[-75.06926,5.4155],[-75.06927,5.41547],[-75.06931,5.41548],[-75.0693,5.41567],[-75.06926,5.41567],[-75.06925,5.41574],[-75.06923,5.41574],[-75.06922,5.41575],[-75.06921,5.41576],[-75.06918,5.41577],[-75.06914,5.41578],[-75.0691,5.41577],[-75.06912,5.41573],[-75.06915,5.4157],[-75.06915,5.4157],[-75.06914,5.4157],[-75.06914,5.41566],[-75.06915,5.41566],[-75.06915,5.41564]],[[-75.06903,5.41547],[-75.06904,5.41545],[-75.06905,5.41546],[-75.06903,5.41547]],[[-75.06911,5.41544],[-75.0691,5.41541],[-75.06913,5.41542],[-75.06911,5.41544]],[[-75.06906,5.41543],[-75.06906,5.4154],[-75.06908,5.41541],[-75.06906,5.41543]],[[-75.06927,5.41544],[-75.06927,5.41541],[-75.06928,5.41542],[-75.06927,5.41544]],[[-75.06927,5.41547],[-75.06927,5.41545],[-75.06928,5.41546],[-75.06927,5.41547]],[[-75.06932,5.4155],[-75.06931,5.41548],[-75.06932,5.41549],[-75.06932,5.4155]],[[-75.06903,5.41575],[-75.06902,5.41577],[-75.06899,5.41576],[-75.06901,5.41575],[-75.069,5.41574],[-75.06904,5.41572],[-75.06905,5.41571],[-75.06907,5.41575],[-75.06903,5.41575]],[[-75.06888,5.41572],[-75.06887,5.41571],[-75.06892,5.41571],[-75.06888,5.41572]],[[-75.06895,5.41569],[-75.06894,5.41568],[-75.06895,5.41568],[-75.06895,5.41569]],[[-75.06952,5.4155],[-75.06952,5.41548],[-75.06954,5.41548],[-75.06952,5.4155]],[[-75.0695,5.41571],[-75.06951,5.41565],[-75.06952,5.41566],[-75.06952,5.41572],[-75.0695,5.41571]],[[-75.06932,5.41532],[-75.06931,5.41531],[-75.06933,5.41531],[-75.06933,5.41535],[-75.06931,5.41533],[-75.06932,5.41532]],[[-75.0693,5.41532],[-75.06929,5.41531],[-75.06931,5.41531],[-75.0693,5.41532]],[[-75.06934,5.41535],[-75.06934,5.41531],[-75.06936,5.41531],[-75.06935,5.41532],[-75.06936,5.41534],[-75.06934,5.41535]],[[-75.06928,5.41535],[-75.06928,5.41533],[-75.0693,5.41533],[-75.06928,5.41535]],[[-75.0692,5.41529],[-75.06919,5.41528],[-75.06921,5.41529],[-75.0692,5.41529]],[[-75.06936,5.41522],[-75.06937,5.41521],[-75.0694,5.41521],[-75.06939,5.41523],[-75.06936,5.41522]]],[[[-75.06912,5.41589],[-75.06914,5.41588],[-75.06911,5.41588],[-75.06912,5.41589]]],[[[-75.06903,5.41587],[-75.06904,5.41586],[-75.06902,5.41586],[-75.06903,5.41587]]],[[[-75.06874,5.41585],[-75.06874,5.41586],[-75.06875,5.41585],[-75.06874,5.41585]]],[[[-75.06927,5.41583],[-75.06929,5.41583],[-75.06927,5.41581],[-75.06927,5.41583]]],[[[-75.06876,5.41583],[-75.06878,5.41582],[-75.06875,5.41581],[-75.06876,5.41583]]],[[[-75.06887,5.41582],[-75.06888,5.41581],[-75.06887,5.41581],[-75.06887,5.41582]]],[[[-75.06933,5.41578],[-75.06933,5.41575],[-75.06931,5.41575],[-75.06931,5.41578],[-75.06933,5.41578]]],[[[-75.06935,5.41577],[-75.06935,5.41575],[-75.06934,5.41577],[-75.06935,5.41577]]],[[[-75.06912,5.41576],[-75.06913,5.41577],[-75.06914,5.41573],[-75.06913,5.41573],[-75.06912,5.41576]]],[[[-75.06915,5.41576],[-75.06917,5.41576],[-75.06914,5.41575],[-75.06915,5.41576]]],[[[-75.06903,5.41575],[-75.06903,5.41574],[-75.06902,5.41575],[-75.06903,5.41575]]],[[[-75.06944,5.41572],[-75.06943,5.4157],[-75.0694,5.41571],[-75.06939,5.41574],[-75.06942,5.41572],[-75.06944,5.41572]]],[[[-75.06906,5.41562],[-75.06906,5.41555],[-75.06905,5.41554],[-75.06906,5.41562]]],[[[-75.06945,5.41561],[-75.06946,5.4156],[-75.06945,5.41557],[-75.06945,5.41556],[-75.06945,5.41561]]],[[[-75.06938,5.41559],[-75.06939,5.41556],[-75.06938,5.41555],[-75.06938,5.41559]]],[[[-75.0694,5.41547],[-75.06941,5.41547],[-75.06939,5.41546],[-75.0694,5.41547]]],[[[-75.06938,5.41547],[-75.06939,5.41547],[-75.06938,5.41546],[-75.06938,5.41547]]],[[[-75.06954,5.41529],[-75.06955,5.41525],[-75.06954,5.41525],[-75.06954,5.41529]]]]},"properties":{"FID":7,"OBJECTID":8,"FID_Areas_":18,"FID_":0,"Layer":"03- ÁREAS DESARROLLO","Shape_Leng":1275.44322174,"Shape_Area":3835.03310029}},{"type":"Feature","id":8,"geometry":{"type":"MultiPolygon","coordinates":[[[[-75.06902,5.41603],[-75.06899,5.41608],[-75.06909,5.41621],[-75.06917,5.41628],[-75.06919,5.41629],[-75.0692,5.4163],[-75.06921,5.41631],[-75.06922,5.41632],[-75.06924,5.41632],[-75.06928,5.41635],[-75.06934,5.41636],[-75.06936,5.41636],[-75.06938,5.41621],[-75.0694,5.41621],[-75.06943,5.41619],[-75.06944,5.41621],[-75.06941,5.41638],[-75.06942,5.41638],[-75.06943,5.41638],[-75.06944,5.41639],[-75.06945,5.41639],[-75.06946,5.41639],[-75.06947,5.41639],[-75.06948,5.41639],[-75.06949,5.4164],[-75.06949,5.4164],[-75.0695,5.4164],[-75.06952,5.4164],[-75.06953,5.4164],[-75.06956,5.41641],[-75.06957,5.4164],[-75.06957,5.4164],[-75.06962,5.4164],[-75.06963,5.4164],[-75.06964,5.4164],[-75.06965,5.4164],[-75.06967,5.4164],[-75.06968,5.4164],[-75.06969,5.4164],[-75.0697,5.41639],[-75.0697,5.41639],[-75.06971,5.41628],[-75.06971,5.41627],[-75.0697,5.41626],[-75.06971,5.41626],[-75.06969,5.41619],[-75.06968,5.41611],[-75.06977,5.41608],[-75.06979,5.41609],[-75.06981,5.41612],[-75.06981,5.41617],[-75.06982,5.41618],[-75.06982,5.4161],[-75.06981,5.41608],[-75.06966,5.41607],[-75.06963,5.41604],[-75.06962,5.41606],[-75.06961,5.41606],[-75.0696,5.41607],[-75.06957,5.41608],[-75.06953,5.41609],[-75.06953,5.41607],[-75.06956,5.41604],[-75.06961,5.41601],[-75.06967,5.416],[-75.0697,5.41598],[-75.06972,5.41597],[-75.06926,5.41593],[-75.06918,5.41598],[-75.06909,5.41601],[-75.06902,5.41603]]],[[[-75.07001,5.41636],[-75.07001,5.41636],[-75.07011,5.41637],[-75.07014,5.41637],[-75.07017,5.41637],[-75.07018,5.41637],[-75.07019,5.41637],[-75.07019,5.41637],[-75.07018,5.41636],[-75.07001,5.41636]]],[[[-75.07041,5.41636],[-75.07033,5.41636],[-75.07033,5.41636],[-75.07037,5.41636],[-75.07039,5.41636],[-75.0704,5.41636],[-75.07041,5.41636],[-75.07041,5.41636]]],[[[-75.07001,5.41634],[-75.06999,5.41634],[-75.06995,5.41634],[-75.06989,5.41635],[-75.07001,5.41636],[-75.07001,5.41634]]],[[[-75.06982,5.41622],[-75.06981,5.41628],[-75.06991,5.41629],[-75.06993,5.41632],[-75.07,5.41633],[-75.07001,5.41633],[-75.07005,5.41632],[-75.07007,5.41631],[-75.0702,5.4163],[-75.07029,5.4163],[-75.07029,5.41632],[-75.07037,5.41633],[-75.07041,5.41632],[-75.07042,5.41602],[-75.07006,5.416],[-75.07006,5.41601],[-75.07005,5.416],[-75.07,5.41599],[-75.06999,5.41602],[-75.06996,5.41605],[-75.06995,5.41606],[-75.06996,5.41607],[-75.06995,5.4161],[-75.06995,5.41615],[-75.06995,5.41619],[-75.07006,5.41618],[-75.07008,5.41618],[-75.07012,5.41618],[-75.07024,5.41619],[-75.07023,5.4162],[-75.07022,5.41621],[-75.0702,5.41621],[-75.07018,5.41623],[-75.07025,5.41623],[-75.07019,5.41624],[-75.07018,5.41625],[-75.07022,5.41626],[-75.07018,5.41627],[-75.07013,5.41627],[-75.07012,5.41628],[-75.0701,5.41627],[-75.07013,5.41627],[-75.07012,5.41624],[-75.07007,5.41625],[-75.07006,5.41627],[-75.06999,5.41626],[-75.06997,5.41625],[-75.06992,5.41624],[-75.06993,5.41625],[-75.06995,5.41627],[-75.0699,5.41626],[-75.06989,5.41627],[-75.06988,5.41625],[-75.06984,5.41624],[-75.06982,5.41623],[-75.06982,5.41622]],[[-75.07014,5.4163],[-75.07013,5.41628],[-75.07015,5.41628],[-75.07014,5.4163]],[[-75.07025,5.41626],[-75.07024,5.41626],[-75.07032,5.41626],[-75.07029,5.41627],[-75.07025,5.41626]],[[-75.07028,5.41623],[-75.07029,5.41619],[-75.07034,5.41618],[-75.07033,5.41615],[-75.07032,5.41614],[-75.07033,5.41614],[-75.07033,5.41611],[-75.07037,5.41612],[-75.07034,5.41613],[-75.07035,5.41614],[-75.07034,5.41617],[-75.07035,5.41619],[-75.07033,5.41621],[-75.07031,5.41623],[-75.0703,5.41619],[-75.0703,5.41623],[-75.07032,5.41624],[-75.07028,5.41623]],[[-75.07,5.41602],[-75.07,5.41601],[-75.07001,5.41602],[-75.07,5.41602]]],[[[-75.06971,5.41626],[-75.06971,5.41627],[-75.06974,5.41626],[-75.06975,5.41625],[-75.06979,5.41623],[-75.06979,5.41621],[-75.06978,5.41621],[-75.06971,5.41626]]],[[[-75.06982,5.4162],[-75.06981,5.41621],[-75.06982,5.41621],[-75.06982,5.4162]]],[[[-75.06985,5.41618],[-75.0699,5.41619],[-75.0699,5.4162],[-75.06992,5.41621],[-75.06992,5.41619],[-75.06992,5.41617],[-75.06989,5.41615],[-75.06989,5.41613],[-75.06986,5.41612],[-75.06985,5.41618]]],[[[-75.06988,5.41621],[-75.06989,5.4162],[-75.06988,5.41619],[-75.06988,5.41621]]],[[[-75.06983,5.41619],[-75.06984,5.41618],[-75.06983,5.41618],[-75.06983,5.41619]]],[[[-75.06991,5.41607],[-75.0699,5.4161],[-75.06994,5.41613],[-75.06993,5.4161],[-75.06993,5.41609],[-75.06993,5.41607],[-75.06993,5.41606],[-75.06992,5.41606],[-75.06991,5.41607]]],[[[-75.06979,5.41606],[-75.06983,5.41607],[-75.06982,5.41605],[-75.06979,5.41604],[-75.06979,5.41606]]],[[[-75.06968,5.41605],[-75.06969,5.41604],[-75.06967,5.41604],[-75.06968,5.41605]]],[[[-75.06987,5.41598],[-75.06987,5.416],[-75.06989,5.41598],[-75.06987,5.41598]]]]},"properties":{"FID":8,"OBJECTID":9,"FID_Areas_":19,"FID_":0,"Layer":"03- ÁREAS DESARROLLO","Shape_Leng":928.956873141,"Shape_Area":4523.86941152}},{"type":"Feature","id":9,"geometry":{"type":"MultiPolygon","coordinates":[[[[-75.07019,5.41637],[-75.07029,5.41637],[-75.07033,5.41636],[-75.07033,5.41636],[-75.07041,5.41636],[-75.07041,5.41632],[-75.07037,5.41633],[-75.07029,5.41632],[-75.07029,5.4163],[-75.0702,5.4163],[-75.07007,5.41631],[-75.07005,5.41632],[-75.07001,5.41633],[-75.07001,5.41634],[-75.07001,5.41636],[-75.07018,5.41636],[-75.07019,5.41637]]],[[[-75.07014,5.4163],[-75.07015,5.41628],[-75.07013,5.41628],[-75.07014,5.4163]]],[[[-75.07013,5.41627],[-75.0701,5.41627],[-75.07012,5.41628],[-75.07013,5.41627]]],[[[-75.06982,5.41622],[-75.06982,5.41623],[-75.06984,5.41624],[-75.06988,5.41625],[-75.06989,5.41627],[-75.0699,5.41626],[-75.06995,5.41627],[-75.06993,5.41625],[-75.06992,5.41624],[-75.06997,5.41625],[-75.06999,5.41626],[-75.07006,5.41627],[-75.07007,5.41625],[-75.07012,5.41624],[-75.07013,5.41627],[-75.07018,5.41627],[-75.07022,5.41626],[-75.07018,5.41625],[-75.07019,5.41624],[-75.07025,5.41623],[-75.07018,5.41623],[-75.0702,5.41621],[-75.07022,5.41621],[-75.07023,5.4162],[-75.07024,5.41619],[-75.07012,5.41618],[-75.07008,5.41618],[-75.07006,5.41618],[-75.06995,5.41619],[-75.06995,5.41615],[-75.06995,5.4161],[-75.06996,5.41607],[-75.06995,5.41606],[-75.06996,5.41605],[-75.06999,5.41602],[-75.07,5.41599],[-75.06989,5.41598],[-75.06987,5.416],[-75.06987,5.41598],[-75.06972,5.41597],[-75.0697,5.41598],[-75.06967,5.416],[-75.06961,5.41601],[-75.06956,5.41604],[-75.06953,5.41607],[-75.06953,5.41609],[-75.06957,5.41608],[-75.0696,5.41607],[-75.06961,5.41606],[-75.06962,5.41606],[-75.06963,5.41604],[-75.06966,5.41607],[-75.06981,5.41608],[-75.06982,5.4161],[-75.06982,5.41618],[-75.06982,5.4162],[-75.06982,5.41621],[-75.06982,5.41622]],[[-75.06985,5.41618],[-75.06986,5.41612],[-75.06989,5.41613],[-75.06989,5.41615],[-75.06992,5.41617],[-75.06992,5.41619],[-75.06992,5.41621],[-75.0699,5.4162],[-75.0699,5.41619],[-75.06985,5.41618]],[[-75.06991,5.41607],[-75.06992,5.41606],[-75.06993,5.41606],[-75.06993,5.41607],[-75.06993,5.41609],[-75.06993,5.4161],[-75.06994,5.41613],[-75.0699,5.4161],[-75.06991,5.41607]],[[-75.06979,5.41606],[-75.06979,5.41604],[-75.06982,5.41605],[-75.06983,5.41607],[-75.06979,5.41606]],[[-75.06968,5.41605],[-75.06967,5.41604],[-75.06969,5.41604],[-75.06968,5.41605]],[[-75.06988,5.41621],[-75.06988,5.41619],[-75.06989,5.4162],[-75.06988,5.41621]],[[-75.06983,5.41619],[-75.06983,5.41618],[-75.06984,5.41618],[-75.06983,5.41619]]],[[[-75.07025,5.41626],[-75.07029,5.41627],[-75.07032,5.41626],[-75.07024,5.41626],[-75.07025,5.41626]]],[[[-75.06971,5.41626],[-75.0697,5.41626],[-75.06971,5.41627],[-75.06971,5.41626]]],[[[-75.07028,5.41623],[-75.07032,5.41624],[-75.0703,5.41623],[-75.0703,5.41619],[-75.07031,5.41623],[-75.07033,5.41621],[-75.07035,5.41619],[-75.07034,5.41617],[-75.07035,5.41614],[-75.07034,5.41613],[-75.07037,5.41612],[-75.07033,5.41611],[-75.07033,5.41614],[-75.07032,5.41614],[-75.07033,5.41615],[-75.07034,5.41618],[-75.07029,5.41619],[-75.07028,5.41623]]],[[[-75.07,5.41602],[-75.07001,5.41602],[-75.07,5.41601],[-75.07,5.41602]]],[[[-75.07005,5.416],[-75.07006,5.41601],[-75.07006,5.416],[-75.07005,5.416]]]]},"properties":{"FID":9,"OBJECTID":10,"FID_Areas_":19,"FID_":0,"Layer":"03- ÁREAS DESARROLLO","Shape_Leng":519.878125512,"Shape_Area":1183.68102762}}]}