{"type":"FeatureCollection","name":"ACA_MM_FLORENCIA","crs":{"type":"name","properties":{"name":"urn:ogc:def:crs:OGC:1.3:CRS84"}},"features":[{"type":"Feature","id":0,"geometry":{"type":"MultiPolygon","coordinates":[[[[-75.04401,5.5211],[-75.04401,5.52109],[-75.044,5.52109],[-75.044,5.5211],[-75.04401,5.5211]]],[[[-75.04401,5.5211],[-75.04402,5.52112],[-75.04403,5.52111],[-75.04401,5.5211]]],[[[-75.04394,5.52126],[-75.04395,5.52121],[-75.04397,5.52117],[-75.04397,5.52115],[-75.04391,5.52113],[-75.0439,5.52114],[-75.04387,5.52115],[-75.04384,5.52125],[-75.04389,5.52124],[-75.04394,5.52126]]],[[[-75.04423,5.52129],[-75.04423,5.52131],[-75.04425,5.52133],[-75.04428,5.5213],[-75.04431,5.52128],[-75.04432,5.52129],[-75.04442,5.52128],[-75.04442,5.52127],[-75.04439,5.52126],[-75.04434,5.52126],[-75.04433,5.52127],[-75.04434,5.52124],[-75.04432,5.52123],[-75.04431,5.52122],[-75.04408,5.52112],[-75.04407,5.52113],[-75.04404,5.52112],[-75.04404,5.52113],[-75.04407,5.52114],[-75.04406,5.52115],[-75.04406,5.52124],[-75.04409,5.52126],[-75.04411,5.52119],[-75.04415,5.5212],[-75.04415,5.52121],[-75.04416,5.52121],[-75.04426,5.52127],[-75.04423,5.52129]]],[[[-75.04454,5.52137],[-75.04455,5.52137],[-75.04456,5.52138],[-75.04457,5.52136],[-75.04457,5.52136],[-75.04455,5.52136],[-75.04454,5.52137]]],[[[-75.0446,5.52137],[-75.04462,5.52139],[-75.04463,5.52136],[-75.04463,5.52136],[-75.04461,5.52136],[-75.0446,5.52137]]],[[[-75.04473,5.52143],[-75.04474,5.52142],[-75.04473,5.52142],[-75.04473,5.52143]]],[[[-75.04241,5.52145],[-75.04243,5.52145],[-75.04242,5.52143],[-75.04238,5.52142],[-75.04239,5.52144],[-75.04241,5.52144],[-75.04241,5.52145]]],[[[-75.04473,5.52145],[-75.04476,5.52144],[-75.04473,5.52144],[-75.04473,5.52145]]],[[[-75.04461,5.52145],[-75.04463,5.52143],[-75.04461,5.52142],[-75.04461,5.52145]]],[[[-75.04467,5.52144],[-75.04469,5.52145],[-75.04469,5.52142],[-75.04466,5.52142],[-75.04467,5.52144]]],[[[-75.04243,5.52145],[-75.04243,5.52146],[-75.04245,5.52146],[-75.04243,5.52145]]],[[[-75.04245,5.52147],[-75.04246,5.52147],[-75.04246,5.52146],[-75.04245,5.52147]]],[[[-75.04248,5.52148],[-75.0425,5.52147],[-75.04248,5.52147],[-75.04248,5.52148]]],[[[-75.04253,5.5215],[-75.04254,5.52149],[-75.04253,5.52148],[-75.0425,5.52148],[-75.04252,5.52149],[-75.04253,5.5215]]],[[[-75.04264,5.52152],[-75.04265,5.52152],[-75.04267,5.52151],[-75.04266,5.52149],[-75.04265,5.52149],[-75.04264,5.52152]]],[[[-75.04473,5.5215],[-75.04474,5.52151],[-75.04476,5.52149],[-75.04474,5.52148],[-75.04473,5.5215]]],[[[-75.04479,5.5215],[-75.04481,5.52151],[-75.04482,5.52149],[-75.04479,5.52148],[-75.04479,5.5215]]],[[[-75.04257,5.52157],[-75.04258,5.52157],[-75.04257,5.52154],[-75.04258,5.52152],[-75.04253,5.5215],[-75.04253,5.5215],[-75.04249,5.52149],[-75.04248,5.52148],[-75.04245,5.52148],[-75.04245,5.52147],[-75.04243,5.52147],[-75.04243,5.52146],[-75.04241,5.52146],[-75.04241,5.52145],[-75.04239,5.52145],[-75.04239,5.52144],[-75.04237,5.52145],[-75.04236,5.52145],[-75.04236,5.52147],[-75.04235,5.52147],[-75.04235,5.52149],[-75.04238,5.52149],[-75.04238,5.5215],[-75.04241,5.5215],[-75.04241,5.52151],[-75.04243,5.52151],[-75.04243,5.52151],[-75.04245,5.52151],[-75.04245,5.52152],[-75.04249,5.52153],[-75.0425,5.52154],[-75.04253,5.52154],[-75.04253,5.52155],[-75.04256,5.52156],[-75.04257,5.52157]]],[[[-75.04195,5.52157],[-75.04197,5.52158],[-75.04198,5.52156],[-75.04196,5.52155],[-75.04195,5.52157]]],[[[-75.0448,5.52158],[-75.04482,5.52155],[-75.0448,5.52155],[-75.0448,5.52158]]],[[[-75.04485,5.52153],[-75.04484,5.52154],[-75.04484,5.52159],[-75.04494,5.52157],[-75.04495,5.52156],[-75.0449,5.52154],[-75.04488,5.52153],[-75.04485,5.52153],[-75.04485,5.52153]]],[[[-75.04254,5.52162],[-75.04256,5.52162],[-75.04256,5.5216],[-75.04257,5.5216],[-75.04257,5.52157],[-75.04253,5.52156],[-75.04253,5.52155],[-75.0425,5.52155],[-75.0425,5.52154],[-75.04246,5.52154],[-75.04245,5.52152],[-75.04243,5.52152],[-75.04243,5.52151],[-75.04241,5.52151],[-75.04241,5.52151],[-75.04238,5.52151],[-75.04238,5.5215],[-75.04235,5.5215],[-75.04235,5.52149],[-75.04234,5.52149],[-75.04234,5.52151],[-75.04234,5.52151],[-75.04234,5.52152],[-75.04233,5.52152],[-75.04233,5.52154],[-75.04234,5.52154],[-75.04234,5.52155],[-75.04237,5.52155],[-75.04237,5.52156],[-75.0424,5.52156],[-75.0424,5.52157],[-75.04243,5.52157],[-75.04243,5.52158],[-75.04244,5.52158],[-75.04244,5.52159],[-75.04247,5.52159],[-75.04247,5.5216],[-75.0425,5.5216],[-75.0425,5.5216],[-75.04253,5.5216],[-75.04253,5.52161],[-75.04254,5.52161],[-75.04254,5.52162]]],[[[-75.04228,5.52161],[-75.04228,5.52163],[-75.04234,5.52163],[-75.04234,5.52162],[-75.04231,5.52162],[-75.04231,5.52161],[-75.04228,5.52161]]],[[[-75.04492,5.52162],[-75.04494,5.52163],[-75.04495,5.52161],[-75.04493,5.52161],[-75.04492,5.52162]]],[[[-75.04499,5.52164],[-75.04501,5.52161],[-75.04498,5.52161],[-75.04499,5.52164]]],[[[-75.04245,5.52167],[-75.04244,5.52167],[-75.04245,5.52168],[-75.04245,5.52167]]],[[[-75.04506,5.52169],[-75.04507,5.52168],[-75.04505,5.52167],[-75.04506,5.52169]]],[[[-75.04236,5.52145],[-75.04237,5.52143],[-75.04234,5.52142],[-75.04231,5.52145],[-75.0422,5.52148],[-75.04218,5.52149],[-75.04214,5.52149],[-75.04214,5.52153],[-75.04219,5.52154],[-75.04213,5.52155],[-75.04214,5.52167],[-75.04214,5.5217],[-75.04215,5.52171],[-75.04219,5.52168],[-75.04222,5.52171],[-75.04223,5.52166],[-75.04226,5.52164],[-75.04228,5.52162],[-75.04228,5.52161],[-75.04228,5.5216],[-75.04229,5.5216],[-75.04229,5.52158],[-75.0423,5.52158],[-75.0423,5.52156],[-75.04231,5.52156],[-75.04231,5.52154],[-75.04232,5.52154],[-75.04232,5.52152],[-75.04233,5.52152],[-75.04233,5.52151],[-75.04234,5.52151],[-75.04234,5.52149],[-75.04234,5.52149],[-75.04234,5.52147],[-75.04235,5.52147],[-75.04235,5.52145],[-75.04236,5.52145]]],[[[-75.04207,5.52177],[-75.0421,5.52177],[-75.0421,5.52174],[-75.04207,5.52174],[-75.04207,5.52177]]],[[[-75.04215,5.52177],[-75.04217,5.52175],[-75.04214,5.52174],[-75.04215,5.52177]]],[[[-75.04188,5.52176],[-75.04186,5.52179],[-75.04193,5.52175],[-75.04197,5.52177],[-75.04196,5.52175],[-75.04195,5.52174],[-75.04196,5.52173],[-75.04197,5.52172],[-75.04199,5.52174],[-75.04198,5.52168],[-75.04197,5.52167],[-75.04196,5.52165],[-75.04194,5.52164],[-75.04198,5.52163],[-75.04196,5.52161],[-75.04191,5.5216],[-75.04186,5.52158],[-75.04183,5.52159],[-75.04182,5.52157],[-75.04181,5.52155],[-75.04178,5.52154],[-75.04181,5.5216],[-75.04186,5.52161],[-75.04188,5.52165],[-75.04192,5.52168],[-75.04191,5.52171],[-75.04189,5.52174],[-75.04188,5.52176]]],[[[-75.04288,5.52178],[-75.04289,5.52178],[-75.04289,5.52178],[-75.04288,5.52177],[-75.04288,5.52178]]],[[[-75.04288,5.52178],[-75.04287,5.52179],[-75.04287,5.52181],[-75.04288,5.52178]]],[[[-75.04187,5.52184],[-75.04188,5.52183],[-75.04187,5.52183],[-75.04187,5.52184]]],[[[-75.04285,5.52185],[-75.04286,5.52185],[-75.04285,5.52184],[-75.04285,5.52185]]],[[[-75.042,5.52186],[-75.04201,5.52185],[-75.04206,5.52185],[-75.04208,5.52184],[-75.0421,5.52183],[-75.0421,5.5218],[-75.04206,5.5218],[-75.04202,5.52178],[-75.04199,5.52174],[-75.04197,5.52177],[-75.04199,5.52178],[-75.04199,5.52179],[-75.042,5.52182],[-75.04199,5.52185],[-75.042,5.52186]]],[[[-75.04185,5.52187],[-75.04187,5.52186],[-75.04185,5.52186],[-75.04185,5.52187]]],[[[-75.0422,5.52195],[-75.04223,5.52195],[-75.0422,5.52193],[-75.0422,5.52195]]],[[[-75.04474,5.52195],[-75.04476,5.52194],[-75.04474,5.52194],[-75.04474,5.52195]]],[[[-75.04224,5.52197],[-75.04223,5.52196],[-75.04223,5.52196],[-75.04224,5.52197]]],[[[-75.04224,5.52197],[-75.04224,5.52198],[-75.04225,5.52198],[-75.04225,5.52197],[-75.04224,5.52197]]],[[[-75.04225,5.52198],[-75.04225,5.52199],[-75.04226,5.52198],[-75.04225,5.52198]]],[[[-75.04228,5.52201],[-75.0423,5.52202],[-75.04228,5.52199],[-75.04226,5.52198],[-75.04228,5.52201]]],[[[-75.04493,5.52201],[-75.04495,5.522],[-75.04493,5.52199],[-75.04493,5.52201]]],[[[-75.04499,5.52201],[-75.04501,5.522],[-75.04499,5.522],[-75.04499,5.52201]]],[[[-75.04372,5.52205],[-75.04373,5.52204],[-75.04373,5.52204],[-75.04372,5.52204],[-75.04372,5.52205]]],[[[-75.04245,5.52168],[-75.04246,5.52169],[-75.04248,5.5217],[-75.04251,5.52173],[-75.04253,5.52173],[-75.04253,5.52176],[-75.04256,5.52177],[-75.04256,5.52178],[-75.04258,5.5218],[-75.04259,5.52184],[-75.0426,5.52185],[-75.04259,5.52187],[-75.04258,5.52189],[-75.04263,5.52189],[-75.04266,5.5219],[-75.04267,5.5219],[-75.0427,5.52185],[-75.04274,5.52184],[-75.04277,5.52186],[-75.04279,5.52186],[-75.04282,5.52187],[-75.04284,5.52189],[-75.04282,5.52191],[-75.04284,5.52197],[-75.04282,5.52204],[-75.04282,5.52206],[-75.04283,5.522],[-75.04287,5.52188],[-75.04287,5.52186],[-75.04285,5.52185],[-75.04285,5.52185],[-75.04282,5.52184],[-75.04278,5.52184],[-75.04283,5.52179],[-75.04284,5.52176],[-75.04285,5.52174],[-75.04283,5.52174],[-75.04279,5.52178],[-75.04276,5.52177],[-75.04275,5.52174],[-75.04274,5.52169],[-75.0427,5.52164],[-75.04267,5.52155],[-75.04264,5.52153],[-75.04264,5.52153],[-75.04259,5.52155],[-75.04258,5.52156],[-75.04258,5.52157],[-75.04258,5.5216],[-75.04257,5.5216],[-75.04257,5.52164],[-75.04256,5.52164],[-75.04256,5.52166],[-75.04255,5.52165],[-75.04256,5.52164],[-75.04256,5.52163],[-75.04254,5.52163],[-75.04254,5.52162],[-75.04253,5.52162],[-75.04253,5.52161],[-75.0425,5.52161],[-75.0425,5.5216],[-75.04247,5.5216],[-75.04247,5.5216],[-75.04244,5.5216],[-75.04244,5.52159],[-75.04243,5.52159],[-75.04243,5.52158],[-75.0424,5.52158],[-75.0424,5.52157],[-75.04237,5.52157],[-75.04237,5.52156],[-75.04234,5.52156],[-75.04234,5.52155],[-75.04233,5.52155],[-75.04233,5.52154],[-75.04232,5.52154],[-75.04232,5.52156],[-75.04231,5.52156],[-75.04231,5.52158],[-75.0423,5.52158],[-75.0423,5.5216],[-75.04229,5.5216],[-75.04229,5.52161],[-75.04231,5.52161],[-75.04231,5.52161],[-75.04234,5.52161],[-75.04234,5.52162],[-75.04239,5.52164],[-75.04245,5.52166],[-75.04245,5.52167],[-75.04247,5.52167],[-75.04247,5.52168],[-75.0425,5.52168],[-75.0425,5.52169],[-75.04253,5.52169],[-75.04253,5.5217],[-75.04255,5.5217],[-75.04254,5.52172],[-75.04253,5.5217],[-75.0425,5.5217],[-75.0425,5.52169],[-75.04247,5.52169],[-75.04247,5.52168],[-75.04245,5.52168]],[[-75.04256,5.52167],[-75.04255,5.52169],[-75.04254,5.52167],[-75.04256,5.52167]]],[[[-75.04194,5.52205],[-75.04193,5.52208],[-75.04196,5.52209],[-75.04197,5.52205],[-75.04199,5.52204],[-75.04198,5.52198],[-75.04197,5.52198],[-75.04196,5.52199],[-75.04194,5.522],[-75.04194,5.52202],[-75.04191,5.52203],[-75.04191,5.52205],[-75.04193,5.52205],[-75.04194,5.52205]]],[[[-75.04377,5.52208],[-75.04377,5.52208],[-75.04376,5.52207],[-75.04376,5.52207],[-75.04377,5.52208]]],[[[-75.04167,5.52209],[-75.04167,5.52209],[-75.04168,5.52209],[-75.04168,5.52209],[-75.04167,5.52209]]],[[[-75.04168,5.52209],[-75.04168,5.5221],[-75.04169,5.5221],[-75.04169,5.52209],[-75.04168,5.52209]]],[[[-75.04377,5.5221],[-75.04378,5.5221],[-75.04378,5.52209],[-75.04377,5.52209],[-75.04377,5.5221]]],[[[-75.04169,5.52203],[-75.0417,5.52203],[-75.0417,5.52201],[-75.04175,5.52197],[-75.04175,5.52199],[-75.04177,5.52199],[-75.04177,5.52195],[-75.04177,5.52194],[-75.0418,5.52189],[-75.04181,5.52184],[-75.04177,5.52178],[-75.04172,5.52171],[-75.0417,5.52169],[-75.04159,5.52188],[-75.04147,5.52204],[-75.04141,5.52211],[-75.04149,5.52213],[-75.0416,5.5221],[-75.04167,5.52204],[-75.04166,5.52208],[-75.04167,5.52209],[-75.04168,5.52206],[-75.04169,5.52203],[-75.04168,5.52203],[-75.04168,5.52202],[-75.04169,5.52202],[-75.04169,5.52203]]],[[[-75.042,5.52186],[-75.04202,5.52189],[-75.04198,5.52194],[-75.04203,5.52196],[-75.04205,5.52198],[-75.04207,5.52198],[-75.0421,5.52198],[-75.04206,5.52206],[-75.04201,5.5221],[-75.04203,5.5221],[-75.04205,5.52209],[-75.04204,5.52212],[-75.04208,5.52212],[-75.0421,5.52208],[-75.04217,5.52206],[-75.04227,5.52208],[-75.04232,5.52209],[-75.0423,5.52205],[-75.04224,5.522],[-75.04221,5.52198],[-75.04217,5.52193],[-75.04215,5.52193],[-75.04211,5.52193],[-75.04206,5.52191],[-75.04205,5.52186],[-75.042,5.52186]],[[-75.04211,5.52194],[-75.04212,5.52194],[-75.04211,5.52195],[-75.04211,5.52194]],[[-75.0421,5.52196],[-75.04211,5.52196],[-75.0421,5.52197],[-75.0421,5.52196]]],[[[-75.04374,5.52211],[-75.04375,5.52213],[-75.04376,5.52211],[-75.04374,5.52211]]],[[[-75.04169,5.5221],[-75.04171,5.52214],[-75.04179,5.52214],[-75.04179,5.52212],[-75.04176,5.52213],[-75.04174,5.52211],[-75.04172,5.52212],[-75.0417,5.52211],[-75.04169,5.5221]]],[[[-75.04556,5.52213],[-75.04558,5.52213],[-75.04556,5.52211],[-75.04556,5.52213]]],[[[-75.04203,5.52215],[-75.04204,5.52214],[-75.04203,5.52214],[-75.04203,5.52215]]],[[[-75.04365,5.52213],[-75.04364,5.52213],[-75.04364,5.52214],[-75.04364,5.52215],[-75.04365,5.52213]]],[[[-75.04514,5.52214],[-75.04514,5.52212],[-75.04511,5.52212],[-75.04511,5.52214],[-75.04514,5.52214]]],[[[-75.04467,5.52213],[-75.04467,5.52215],[-75.04469,5.52213],[-75.04467,5.52212],[-75.04467,5.52213]]],[[[-75.0446,5.52213],[-75.04462,5.52215],[-75.04463,5.52212],[-75.04461,5.52212],[-75.0446,5.52213]]],[[[-75.04556,5.52213],[-75.04555,5.52214],[-75.04555,5.52214],[-75.04556,5.52213]]],[[[-75.04383,5.52215],[-75.04383,5.52215],[-75.04383,5.52215],[-75.04383,5.52215],[-75.04382,5.52215],[-75.04383,5.52215]]],[[[-75.04383,5.52215],[-75.04384,5.52217],[-75.04384,5.52216],[-75.04384,5.52215],[-75.04383,5.52215]]],[[[-75.04363,5.52216],[-75.04363,5.52217],[-75.04363,5.52217],[-75.04364,5.52216],[-75.04363,5.52216],[-75.04363,5.52216]]],[[[-75.0437,5.52217],[-75.04371,5.52216],[-75.0437,5.52215],[-75.0437,5.52217]]],[[[-75.04191,5.52219],[-75.04192,5.52218],[-75.0419,5.52218],[-75.04191,5.52219]]],[[[-75.04356,5.52217],[-75.04355,5.52218],[-75.04356,5.52218],[-75.04356,5.52217]]],[[[-75.04557,5.52218],[-75.04556,5.52217],[-75.04556,5.52218],[-75.04557,5.52218]]],[[[-75.04193,5.5222],[-75.04194,5.52219],[-75.04193,5.52218],[-75.04193,5.5222]]],[[[-75.04365,5.52213],[-75.04367,5.52212],[-75.04371,5.52213],[-75.04372,5.52219],[-75.04373,5.52212],[-75.04374,5.52211],[-75.04374,5.5221],[-75.04371,5.52209],[-75.0437,5.52205],[-75.0437,5.52204],[-75.04368,5.52204],[-75.04367,5.52205],[-75.04367,5.52205],[-75.04365,5.5221],[-75.04365,5.5221],[-75.04365,5.52213]]],[[[-75.04356,5.52217],[-75.04357,5.52216],[-75.04355,5.5221],[-75.04358,5.52208],[-75.04357,5.52208],[-75.04354,5.52206],[-75.04355,5.52203],[-75.04358,5.52203],[-75.04358,5.52202],[-75.04359,5.52202],[-75.04359,5.52201],[-75.04362,5.522],[-75.04367,5.52198],[-75.04373,5.52191],[-75.04373,5.52186],[-75.04374,5.52186],[-75.04374,5.52186],[-75.04376,5.52185],[-75.04374,5.52184],[-75.04374,5.52182],[-75.04376,5.52181],[-75.04373,5.5218],[-75.04372,5.52179],[-75.04374,5.52173],[-75.04381,5.52172],[-75.04379,5.52165],[-75.04383,5.52158],[-75.04388,5.52152],[-75.04385,5.52148],[-75.04378,5.52148],[-75.04376,5.52146],[-75.04375,5.52146],[-75.04353,5.52203],[-75.0435,5.52212],[-75.04351,5.52212],[-75.04353,5.52214],[-75.04351,5.52218],[-75.04352,5.5222],[-75.04353,5.52218],[-75.04354,5.52215],[-75.04356,5.52216],[-75.04356,5.52217]]],[[[-75.04195,5.5222],[-75.04196,5.5222],[-75.04195,5.52219],[-75.04195,5.5222]]],[[[-75.0425,5.5222],[-75.04252,5.5222],[-75.04249,5.52219],[-75.0425,5.5222]]],[[[-75.04546,5.52219],[-75.04551,5.52217],[-75.0455,5.52217],[-75.0455,5.52216],[-75.0455,5.52214],[-75.04553,5.52213],[-75.0455,5.52211],[-75.04547,5.52213],[-75.04544,5.52212],[-75.04544,5.52215],[-75.04541,5.52218],[-75.04542,5.52219],[-75.04544,5.52219],[-75.04546,5.52219]],[[-75.04546,5.52215],[-75.04545,5.52215],[-75.04545,5.52214],[-75.04546,5.52215]]],[[[-75.04197,5.52221],[-75.04198,5.52221],[-75.04197,5.5222],[-75.04197,5.52221]]],[[[-75.04436,5.52221],[-75.04438,5.52219],[-75.04436,5.52218],[-75.04436,5.52221]]],[[[-75.04479,5.52219],[-75.0448,5.52221],[-75.04482,5.52219],[-75.0448,5.52218],[-75.04479,5.52219]]],[[[-75.04467,5.5222],[-75.04469,5.52221],[-75.04469,5.52218],[-75.04466,5.52218],[-75.04467,5.5222]]],[[[-75.04473,5.5222],[-75.04475,5.52221],[-75.04476,5.52218],[-75.04473,5.52218],[-75.04473,5.5222]]],[[[-75.04557,5.52218],[-75.04557,5.52221],[-75.04558,5.52218],[-75.04557,5.52218]]],[[[-75.04358,5.52224],[-75.04358,5.52223],[-75.04358,5.52222],[-75.04357,5.52222],[-75.04358,5.52224]]],[[[-75.04383,5.52225],[-75.04384,5.52224],[-75.04383,5.52224],[-75.04383,5.52225]]],[[[-75.04272,5.52225],[-75.04272,5.52225],[-75.04274,5.52225],[-75.04274,5.52224],[-75.04272,5.52225]]],[[[-75.04271,5.52226],[-75.04271,5.52226],[-75.04271,5.52226],[-75.04271,5.52226]]],[[[-75.04241,5.52223],[-75.04241,5.52225],[-75.04249,5.52226],[-75.0425,5.52226],[-75.04251,5.52224],[-75.04249,5.52223],[-75.04248,5.52219],[-75.04243,5.52218],[-75.04242,5.52218],[-75.04241,5.52223]]],[[[-75.04355,5.52226],[-75.04355,5.52226],[-75.04356,5.52226],[-75.04356,5.52226],[-75.04357,5.52225],[-75.04357,5.52225],[-75.04356,5.52223],[-75.04355,5.52226]]],[[[-75.04529,5.52226],[-75.04528,5.52225],[-75.04527,5.52224],[-75.04525,5.52227],[-75.04529,5.52226]]],[[[-75.04529,5.52226],[-75.04529,5.52227],[-75.04531,5.52226],[-75.04529,5.52226]]],[[[-75.04531,5.52225],[-75.04532,5.52227],[-75.04532,5.52225],[-75.04531,5.52225]]],[[[-75.04532,5.52225],[-75.04533,5.52225],[-75.04533,5.52228],[-75.04535,5.52228],[-75.04536,5.52225],[-75.04538,5.52222],[-75.0454,5.5222],[-75.04539,5.52217],[-75.04534,5.52218],[-75.04527,5.52217],[-75.04525,5.52216],[-75.04526,5.52212],[-75.04524,5.52211],[-75.04522,5.52214],[-75.04518,5.52211],[-75.04517,5.52213],[-75.04516,5.52215],[-75.04514,5.52214],[-75.04513,5.52217],[-75.04517,5.52216],[-75.04521,5.52219],[-75.04526,5.52221],[-75.04525,5.52223],[-75.04529,5.52224],[-75.04531,5.52225],[-75.04532,5.52224],[-75.04532,5.52225]]],[[[-75.04535,5.52228],[-75.04535,5.52229],[-75.04536,5.52229],[-75.04536,5.52228],[-75.04535,5.52228]]],[[[-75.04272,5.52225],[-75.04273,5.52223],[-75.04273,5.52223],[-75.04276,5.52221],[-75.04276,5.52221],[-75.04276,5.52221],[-75.04276,5.52221],[-75.04277,5.52221],[-75.04277,5.52221],[-75.04274,5.5222],[-75.04264,5.52224],[-75.0426,5.52224],[-75.04257,5.52222],[-75.04254,5.52224],[-75.04258,5.52226],[-75.04258,5.52226],[-75.04265,5.52228],[-75.04265,5.5223],[-75.04267,5.5223],[-75.04271,5.52225],[-75.04272,5.52225]]],[[[-75.04232,5.52231],[-75.0423,5.52229],[-75.04226,5.52227],[-75.04222,5.52227],[-75.0422,5.52226],[-75.04217,5.52226],[-75.04216,5.52226],[-75.04218,5.52224],[-75.04209,5.52219],[-75.04204,5.52215],[-75.04204,5.52219],[-75.04204,5.5222],[-75.04204,5.52221],[-75.04199,5.52222],[-75.04205,5.52225],[-75.04208,5.52226],[-75.04211,5.52226],[-75.04211,5.52225],[-75.04214,5.52227],[-75.04215,5.52227],[-75.0422,5.52227],[-75.04221,5.52228],[-75.04223,5.52229],[-75.04224,5.52229],[-75.04225,5.52229],[-75.04231,5.52231],[-75.04232,5.52231]],[[-75.04216,5.52225],[-75.04214,5.52226],[-75.04214,5.52225],[-75.04216,5.52225]],[[-75.04212,5.52225],[-75.04212,5.52224],[-75.04213,5.52224],[-75.04212,5.52225]],[[-75.0421,5.52224],[-75.04209,5.52223],[-75.0421,5.52223],[-75.0421,5.52224]],[[-75.04208,5.52223],[-75.04208,5.52222],[-75.04209,5.52222],[-75.04208,5.52223]],[[-75.04206,5.52222],[-75.04206,5.52221],[-75.04207,5.52221],[-75.04206,5.52222]]],[[[-75.04237,5.5223],[-75.04238,5.52231],[-75.04238,5.5223],[-75.04237,5.5223]]],[[[-75.04232,5.52231],[-75.04232,5.52231],[-75.04233,5.52231],[-75.04233,5.52231],[-75.04232,5.52231]]],[[[-75.04536,5.52229],[-75.04536,5.52231],[-75.04538,5.52231],[-75.04537,5.52229],[-75.04536,5.52229]]],[[[-75.04551,5.52231],[-75.04552,5.5223],[-75.0455,5.5223],[-75.04551,5.52231]]],[[[-75.04237,5.5223],[-75.04237,5.52229],[-75.04235,5.52226],[-75.04232,5.52223],[-75.04231,5.52222],[-75.0423,5.52221],[-75.04228,5.52217],[-75.04227,5.52213],[-75.04232,5.52215],[-75.04232,5.52217],[-75.04232,5.52219],[-75.04239,5.52221],[-75.04241,5.52219],[-75.0424,5.52217],[-75.04234,5.52215],[-75.0423,5.52212],[-75.04224,5.52211],[-75.04219,5.5221],[-75.04212,5.5221],[-75.04216,5.52216],[-75.04222,5.5222],[-75.04227,5.52224],[-75.04233,5.52228],[-75.04236,5.52232],[-75.04237,5.52232],[-75.04237,5.52231],[-75.04237,5.5223]],[[-75.04228,5.52218],[-75.04228,5.52221],[-75.04225,5.52217],[-75.04228,5.52218]]],[[[-75.04546,5.52234],[-75.04547,5.52231],[-75.04546,5.52231],[-75.04546,5.52234]]],[[[-75.04538,5.52231],[-75.04538,5.52233],[-75.04541,5.52233],[-75.04544,5.52235],[-75.04545,5.52231],[-75.04544,5.52231],[-75.04538,5.52231]]],[[[-75.04361,5.52236],[-75.04363,5.52235],[-75.04362,5.52233],[-75.04363,5.5223],[-75.04361,5.52229],[-75.0436,5.52231],[-75.04359,5.52229],[-75.04359,5.52228],[-75.04357,5.52229],[-75.04356,5.5223],[-75.04357,5.52231],[-75.04357,5.52232],[-75.04358,5.52234],[-75.04359,5.52234],[-75.04361,5.52236]]],[[[-75.04581,5.52234],[-75.04585,5.52235],[-75.04591,5.52231],[-75.04592,5.52232],[-75.04596,5.52234],[-75.04596,5.5223],[-75.04594,5.5223],[-75.04591,5.5223],[-75.04587,5.5223],[-75.04587,5.52231],[-75.04584,5.52231],[-75.0458,5.5223],[-75.04581,5.52234]]],[[[-75.04578,5.52237],[-75.04579,5.52236],[-75.04579,5.52236],[-75.04578,5.52237]]],[[[-75.04391,5.5224],[-75.04392,5.5224],[-75.04394,5.52239],[-75.04391,5.52237],[-75.04391,5.5224]]],[[[-75.04578,5.52237],[-75.04574,5.52237],[-75.04574,5.5224],[-75.04578,5.52238],[-75.04578,5.52237]]],[[[-75.04548,5.52243],[-75.04548,5.52244],[-75.04549,5.52244],[-75.04549,5.52243],[-75.04548,5.52243]]],[[[-75.04549,5.52244],[-75.04549,5.52245],[-75.0455,5.52244],[-75.04549,5.52244]]],[[[-75.04569,5.52246],[-75.04569,5.52244],[-75.0457,5.52243],[-75.04568,5.52242],[-75.04568,5.52243],[-75.04563,5.52244],[-75.04563,5.52246],[-75.04565,5.52245],[-75.04569,5.52246]]],[[[-75.04606,5.52258],[-75.04607,5.52257],[-75.04605,5.52257],[-75.04606,5.52258]]],[[[-75.04572,5.52258],[-75.0457,5.52257],[-75.04572,5.52254],[-75.0457,5.52255],[-75.04569,5.52258],[-75.04571,5.52259],[-75.04571,5.52259],[-75.04572,5.52259],[-75.04572,5.52258]]],[[[-75.04578,5.5226],[-75.04582,5.52259],[-75.04581,5.52257],[-75.04583,5.52256],[-75.04584,5.52252],[-75.04581,5.52253],[-75.04582,5.52255],[-75.04579,5.52257],[-75.04578,5.5226]]],[[[-75.04606,5.52252],[-75.04607,5.52254],[-75.04608,5.5226],[-75.04615,5.52261],[-75.04617,5.52257],[-75.04614,5.52253],[-75.04609,5.52252],[-75.04609,5.52249],[-75.0461,5.52249],[-75.04612,5.52249],[-75.0461,5.52243],[-75.04611,5.52237],[-75.04609,5.52238],[-75.04606,5.5224],[-75.04606,5.52235],[-75.04605,5.52234],[-75.04604,5.52233],[-75.04601,5.52231],[-75.04597,5.5223],[-75.04597,5.52242],[-75.04598,5.52244],[-75.04604,5.52245],[-75.04606,5.52252]]],[[[-75.04532,5.52262],[-75.04533,5.52263],[-75.04534,5.52262],[-75.04532,5.52262]]],[[[-75.04535,5.52265],[-75.04535,5.52264],[-75.04534,5.52265],[-75.04535,5.52265]]],[[[-75.04586,5.52266],[-75.04587,5.52266],[-75.04586,5.52265],[-75.04586,5.52266]]],[[[-75.04535,5.52265],[-75.04535,5.52266],[-75.04536,5.52265],[-75.04535,5.52265]]],[[[-75.04533,5.52267],[-75.04533,5.52265],[-75.04532,5.52266],[-75.04533,5.52267]]],[[[-75.04556,5.5227],[-75.04554,5.52271],[-75.04557,5.52271],[-75.04558,5.52269],[-75.04557,5.52268],[-75.04556,5.5227]]],[[[-75.04461,5.52273],[-75.04462,5.52272],[-75.04463,5.52269],[-75.0446,5.52269],[-75.04461,5.52273]]],[[[-75.04545,5.52276],[-75.04546,5.52275],[-75.04545,5.52275],[-75.04545,5.52276]]],[[[-75.04581,5.52275],[-75.04581,5.52276],[-75.04582,5.52275],[-75.04581,5.52275]]],[[[-75.0455,5.52273],[-75.04547,5.52275],[-75.04552,5.52276],[-75.04552,5.52274],[-75.0455,5.52273],[-75.0455,5.52273]]],[[[-75.04571,5.52259],[-75.04572,5.52261],[-75.04571,5.52264],[-75.0457,5.52265],[-75.04569,5.52262],[-75.04567,5.52265],[-75.04576,5.52266],[-75.04577,5.52262],[-75.04578,5.52265],[-75.04579,5.52266],[-75.04578,5.52267],[-75.04577,5.52268],[-75.04576,5.52267],[-75.04568,5.52266],[-75.04567,5.52271],[-75.04573,5.52272],[-75.04574,5.52278],[-75.04576,5.52278],[-75.04578,5.52278],[-75.04577,5.52276],[-75.04576,5.52269],[-75.04579,5.5227],[-75.04579,5.52273],[-75.04579,5.52276],[-75.04581,5.52275],[-75.04582,5.52273],[-75.04585,5.52274],[-75.04586,5.52269],[-75.04589,5.52268],[-75.04589,5.52267],[-75.04589,5.52266],[-75.04587,5.52266],[-75.04586,5.52267],[-75.04586,5.52266],[-75.04584,5.52265],[-75.04583,5.52267],[-75.0458,5.52265],[-75.04582,5.52261],[-75.04579,5.52262],[-75.04578,5.5226],[-75.04575,5.5226],[-75.04574,5.52257],[-75.04573,5.52256],[-75.04572,5.52258],[-75.04573,5.52258],[-75.04572,5.52259],[-75.04572,5.52259],[-75.04571,5.52259]]],[[[-75.04544,5.52278],[-75.04543,5.52278],[-75.04544,5.5228],[-75.04544,5.52278]]],[[[-75.04391,5.5224],[-75.04389,5.52239],[-75.04384,5.52235],[-75.04382,5.52235],[-75.04381,5.5224],[-75.0438,5.52238],[-75.04379,5.5224],[-75.04376,5.52241],[-75.04374,5.52242],[-75.04372,5.52243],[-75.0437,5.52243],[-75.04371,5.52249],[-75.04372,5.52253],[-75.04371,5.52253],[-75.0437,5.52252],[-75.04369,5.52251],[-75.04367,5.52253],[-75.04368,5.52257],[-75.04368,5.52257],[-75.0437,5.52262],[-75.04369,5.52262],[-75.0437,5.52265],[-75.04371,5.52265],[-75.04374,5.52271],[-75.04376,5.5227],[-75.0438,5.52271],[-75.04381,5.52272],[-75.04384,5.52273],[-75.04385,5.52276],[-75.04385,5.52279],[-75.04387,5.5228],[-75.04389,5.52282],[-75.04394,5.52281],[-75.04393,5.5228],[-75.04396,5.52268],[-75.044,5.52263],[-75.04396,5.5226],[-75.04395,5.52254],[-75.04397,5.52253],[-75.044,5.52252],[-75.04399,5.5225],[-75.04397,5.52248],[-75.04397,5.52247],[-75.04385,5.52247],[-75.044,5.52246],[-75.04399,5.52244],[-75.04396,5.52244],[-75.04391,5.52241],[-75.04391,5.5224]],[[-75.04381,5.52246],[-75.04382,5.52246],[-75.04381,5.52247],[-75.04381,5.52246]],[[-75.04372,5.52259],[-75.04372,5.52255],[-75.04373,5.52255],[-75.04373,5.52259],[-75.04372,5.52259]],[[-75.04393,5.52256],[-75.04394,5.52256],[-75.04393,5.52257],[-75.04393,5.52256]]],[[[-75.04574,5.52282],[-75.04577,5.52281],[-75.04578,5.5228],[-75.04576,5.52279],[-75.04574,5.52282]]],[[[-75.04548,5.52243],[-75.04547,5.52242],[-75.0453,5.52243],[-75.04527,5.52247],[-75.04524,5.52249],[-75.04522,5.52256],[-75.04522,5.52258],[-75.04521,5.5226],[-75.04523,5.52264],[-75.04523,5.52267],[-75.04521,5.52279],[-75.04517,5.52282],[-75.04518,5.52284],[-75.0452,5.52282],[-75.04524,5.52283],[-75.04525,5.52283],[-75.04527,5.52283],[-75.04528,5.52279],[-75.04529,5.5228],[-75.0453,5.52281],[-75.04532,5.52282],[-75.04536,5.52281],[-75.04539,5.5228],[-75.04539,5.52278],[-75.04539,5.52277],[-75.04538,5.52276],[-75.0454,5.52275],[-75.04537,5.52274],[-75.04535,5.52274],[-75.04536,5.52267],[-75.04533,5.52267],[-75.04533,5.52268],[-75.0453,5.52267],[-75.04531,5.52265],[-75.0453,5.52263],[-75.04532,5.52262],[-75.04531,5.52259],[-75.04532,5.52259],[-75.04534,5.52261],[-75.04537,5.52261],[-75.0454,5.52262],[-75.04541,5.52261],[-75.0454,5.52259],[-75.0454,5.52258],[-75.04539,5.52257],[-75.0454,5.52255],[-75.0454,5.52254],[-75.0454,5.52253],[-75.04539,5.52251],[-75.04541,5.52248],[-75.04542,5.52249],[-75.04542,5.52252],[-75.04544,5.52249],[-75.04543,5.52248],[-75.04544,5.52248],[-75.04544,5.52249],[-75.04546,5.52248],[-75.04545,5.52245],[-75.04548,5.52243]],[[-75.04541,5.52247],[-75.04542,5.52247],[-75.04541,5.52248],[-75.04541,5.52247]],[[-75.04525,5.52266],[-75.04526,5.52266],[-75.04526,5.52267],[-75.04525,5.52266]],[[-75.04535,5.52276],[-75.04536,5.52276],[-75.04535,5.52277],[-75.04535,5.52276]]],[[[-75.0452,5.52286],[-75.04521,5.52285],[-75.0452,5.52285],[-75.0452,5.52286]]],[[[-75.04544,5.52278],[-75.04545,5.52278],[-75.04544,5.52281],[-75.04539,5.52282],[-75.0454,5.52287],[-75.04545,5.52283],[-75.04546,5.52282],[-75.04546,5.52283],[-75.04547,5.52282],[-75.0455,5.52284],[-75.04552,5.52282],[-75.04549,5.5228],[-75.04548,5.52279],[-75.04546,5.52278],[-75.04545,5.52276],[-75.04544,5.52278]]],[[[-75.04581,5.52288],[-75.04581,5.52284],[-75.04578,5.52283],[-75.04576,5.52284],[-75.04575,5.52283],[-75.04575,5.52283],[-75.04573,5.52287],[-75.04575,5.52287],[-75.04578,5.52287],[-75.04581,5.52288]]],[[[-75.04522,5.52291],[-75.04526,5.5229],[-75.04523,5.52289],[-75.04522,5.52291]]],[[[-75.04519,5.52293],[-75.04517,5.52293],[-75.04519,5.52294],[-75.04521,5.52292],[-75.04519,5.52292],[-75.04519,5.52293]]],[[[-75.0454,5.52287],[-75.04537,5.52287],[-75.04536,5.52287],[-75.04534,5.52287],[-75.04532,5.52291],[-75.04531,5.52289],[-75.04529,5.52293],[-75.04524,5.52295],[-75.04523,5.52293],[-75.04522,5.52294],[-75.04521,5.52294],[-75.04518,5.52295],[-75.04519,5.52298],[-75.04525,5.52299],[-75.04529,5.52297],[-75.04532,5.52296],[-75.04533,5.52293],[-75.04535,5.52291],[-75.04536,5.52289],[-75.04536,5.5229],[-75.04539,5.52291],[-75.0454,5.52287]]],[[[-75.04514,5.52294],[-75.04509,5.52298],[-75.04507,5.523],[-75.04509,5.52302],[-75.04512,5.52298],[-75.04516,5.52295],[-75.04514,5.52294],[-75.04514,5.52294]]],[[[-75.04503,5.52318],[-75.04506,5.52317],[-75.04508,5.52317],[-75.0451,5.52312],[-75.04502,5.52312],[-75.04503,5.52318]]],[[[-75.04454,5.52315],[-75.04457,5.52322],[-75.04457,5.52318],[-75.04458,5.52315],[-75.04458,5.52312],[-75.04455,5.52311],[-75.04454,5.52315]]],[[[-75.04387,5.52323],[-75.04388,5.52323],[-75.04391,5.52327],[-75.0439,5.52323],[-75.04388,5.52321],[-75.04387,5.52323]]],[[[-75.04466,5.52322],[-75.04468,5.52324],[-75.04466,5.52327],[-75.0447,5.52327],[-75.0447,5.52324],[-75.04472,5.52323],[-75.04479,5.52322],[-75.04482,5.52321],[-75.04482,5.5232],[-75.04482,5.52319],[-75.04479,5.52318],[-75.04481,5.52317],[-75.04481,5.52316],[-75.04483,5.52315],[-75.04478,5.52313],[-75.04476,5.52315],[-75.04474,5.52313],[-75.04473,5.52311],[-75.04466,5.5231],[-75.04464,5.52314],[-75.04466,5.52322]]],[[[-75.04442,5.52328],[-75.04442,5.52327],[-75.04441,5.52328],[-75.04442,5.52328]]],[[[-75.0444,5.5233],[-75.04442,5.5233],[-75.04441,5.52329],[-75.0444,5.5233]]],[[[-75.04387,5.52323],[-75.04384,5.5232],[-75.04384,5.52323],[-75.04387,5.52328],[-75.04388,5.5233],[-75.04388,5.52332],[-75.04389,5.52333],[-75.0439,5.52331],[-75.04393,5.5233],[-75.04388,5.52326],[-75.04387,5.52323]]],[[[-75.04442,5.52328],[-75.04443,5.52331],[-75.04442,5.52332],[-75.04444,5.52333],[-75.04444,5.52334],[-75.04447,5.52332],[-75.04446,5.52329],[-75.04442,5.52328]]],[[[-75.04429,5.52333],[-75.04428,5.52331],[-75.04429,5.52329],[-75.04426,5.52331],[-75.04425,5.52329],[-75.04421,5.5233],[-75.0442,5.52332],[-75.04423,5.52334],[-75.04423,5.52335],[-75.04426,5.52334],[-75.04427,5.52334],[-75.04427,5.52332],[-75.04429,5.52333]]],[[[-75.044,5.52335],[-75.04402,5.52333],[-75.044,5.52333],[-75.044,5.52335]]],[[[-75.04444,5.52334],[-75.04443,5.52334],[-75.04444,5.52335],[-75.04444,5.52334]]],[[[-75.04429,5.52333],[-75.04428,5.52335],[-75.04434,5.52334],[-75.04439,5.52332],[-75.0444,5.5233],[-75.04435,5.52331],[-75.04433,5.5233],[-75.04429,5.52333]]],[[[-75.04423,5.52335],[-75.04421,5.52335],[-75.04423,5.52336],[-75.04423,5.52335]]],[[[-75.04454,5.5234],[-75.04456,5.52341],[-75.04457,5.52339],[-75.04455,5.52338],[-75.04454,5.5234]]],[[[-75.04408,5.52331],[-75.04406,5.52343],[-75.04409,5.52344],[-75.04413,5.52342],[-75.04418,5.52334],[-75.0442,5.52332],[-75.04419,5.52331],[-75.04418,5.5233],[-75.04416,5.52326],[-75.04413,5.52326],[-75.04411,5.52326],[-75.0441,5.52327],[-75.0441,5.52328],[-75.04408,5.52331]],[[-75.04414,5.52328],[-75.04413,5.52329],[-75.04413,5.52327],[-75.04414,5.52328]]],[[[-75.04404,5.52344],[-75.04403,5.52343],[-75.04401,5.52343],[-75.04404,5.52344]]],[[[-75.04404,5.52344],[-75.04404,5.52345],[-75.04404,5.52346],[-75.04405,5.52344],[-75.04404,5.52344]]],[[[-75.0451,5.52349],[-75.04509,5.52356],[-75.04509,5.52357],[-75.04509,5.52357],[-75.04511,5.52352],[-75.04512,5.52348],[-75.04512,5.52348],[-75.0451,5.52349]]],[[[-75.04461,5.52353],[-75.04461,5.52355],[-75.04461,5.52356],[-75.04461,5.52356],[-75.04463,5.52357],[-75.04463,5.52358],[-75.04463,5.52358],[-75.04466,5.52365],[-75.04468,5.52365],[-75.04464,5.52359],[-75.04465,5.52355],[-75.04464,5.52352],[-75.04461,5.52351],[-75.04461,5.52353]]],[[[-75.04372,5.52364],[-75.04372,5.52369],[-75.04384,5.52369],[-75.04378,5.52364],[-75.04373,5.52364],[-75.04372,5.52364]]],[[[-75.04397,5.52366],[-75.04396,5.52367],[-75.04399,5.52369],[-75.04405,5.52366],[-75.04405,5.52366],[-75.04398,5.52366],[-75.04397,5.52366]]],[[[-75.04416,5.52373],[-75.04417,5.52372],[-75.04417,5.52371],[-75.04416,5.52373]]],[[[-75.04416,5.52373],[-75.04415,5.52373],[-75.04416,5.52375],[-75.04416,5.52373]]],[[[-75.04414,5.52377],[-75.04416,5.52377],[-75.04415,5.52375],[-75.04414,5.52377]]],[[[-75.04414,5.52377],[-75.04413,5.52378],[-75.04414,5.52379],[-75.04414,5.52377]]],[[[-75.04416,5.52379],[-75.0442,5.52379],[-75.04421,5.52377],[-75.04418,5.52376],[-75.04416,5.52379]]],[[[-75.04486,5.52372],[-75.04481,5.52373],[-75.04482,5.52379],[-75.04481,5.52383],[-75.04482,5.52383],[-75.04486,5.52386],[-75.04492,5.52384],[-75.04492,5.52384],[-75.04496,5.52381],[-75.04497,5.52377],[-75.04499,5.52373],[-75.04502,5.52368],[-75.045,5.52359],[-75.04495,5.52356],[-75.04482,5.52358],[-75.04474,5.5236],[-75.04474,5.52359],[-75.04471,5.52357],[-75.04469,5.52352],[-75.04466,5.52353],[-75.04468,5.52354],[-75.04468,5.52356],[-75.04468,5.52358],[-75.04471,5.5236],[-75.04471,5.52361],[-75.04468,5.52363],[-75.04469,5.52368],[-75.04474,5.52367],[-75.04476,5.52368],[-75.04484,5.52366],[-75.04486,5.52372]]],[[[-75.04371,5.52374],[-75.04374,5.52375],[-75.04377,5.52379],[-75.04385,5.5238],[-75.04376,5.52381],[-75.04378,5.52385],[-75.04384,5.52388],[-75.04387,5.52387],[-75.04394,5.52387],[-75.04399,5.52384],[-75.04403,5.52381],[-75.04399,5.52379],[-75.04405,5.52379],[-75.04408,5.52375],[-75.04409,5.52373],[-75.04408,5.52373],[-75.04404,5.52373],[-75.04401,5.52373],[-75.04399,5.52373],[-75.04389,5.52373],[-75.04388,5.52372],[-75.04386,5.5237],[-75.04372,5.5237],[-75.04372,5.52371],[-75.04373,5.52372],[-75.04371,5.52374]]],[[[-75.04416,5.52382],[-75.04413,5.5238],[-75.04409,5.52384],[-75.04404,5.52389],[-75.0441,5.52389],[-75.04418,5.52383],[-75.04421,5.52383],[-75.04422,5.52381],[-75.04417,5.5238],[-75.04416,5.52382],[-75.04417,5.52382],[-75.04417,5.52383],[-75.04416,5.52382]]],[[[-75.04404,5.52391],[-75.04407,5.52392],[-75.04409,5.5239],[-75.04404,5.5239],[-75.04404,5.52391]]],[[[-75.04404,5.52394],[-75.04407,5.52394],[-75.04407,5.52393],[-75.04404,5.52393],[-75.04404,5.52394]]],[[[-75.04402,5.52395],[-75.04403,5.52394],[-75.04402,5.52394],[-75.04402,5.52395]]],[[[-75.04414,5.52406],[-75.04411,5.52408],[-75.04415,5.52409],[-75.04416,5.52406],[-75.04414,5.52405],[-75.04414,5.52406]]],[[[-75.04505,5.5241],[-75.04508,5.52412],[-75.04508,5.5241],[-75.04505,5.5241],[-75.04505,5.5241]]],[[[-75.04485,5.52415],[-75.04487,5.52418],[-75.04485,5.52419],[-75.04487,5.52422],[-75.0449,5.52423],[-75.04493,5.52422],[-75.04489,5.52421],[-75.04495,5.5242],[-75.04488,5.52414],[-75.04488,5.52412],[-75.04485,5.52411],[-75.04485,5.52415]]],[[[-75.0435,5.52427],[-75.0435,5.52427],[-75.0435,5.52428],[-75.04351,5.52428],[-75.04352,5.52422],[-75.04349,5.52421],[-75.04351,5.5242],[-75.04349,5.52417],[-75.04347,5.5242],[-75.04348,5.52424],[-75.04349,5.52426],[-75.0435,5.52426],[-75.0435,5.52427]]],[[[-75.04353,5.52428],[-75.04353,5.52426],[-75.04352,5.52425],[-75.04353,5.52428]]],[[[-75.04404,5.52428],[-75.04408,5.52421],[-75.04412,5.5242],[-75.04413,5.52417],[-75.04414,5.5242],[-75.04415,5.52421],[-75.04416,5.5242],[-75.04416,5.52418],[-75.04415,5.52414],[-75.04414,5.5241],[-75.04411,5.5241],[-75.04409,5.52412],[-75.04407,5.52414],[-75.04403,5.52417],[-75.04404,5.52428]]],[[[-75.04349,5.52426],[-75.04347,5.52426],[-75.04348,5.52429],[-75.0435,5.52429],[-75.0435,5.52428],[-75.0435,5.52428],[-75.0435,5.52427],[-75.04349,5.52427],[-75.04349,5.52426]]],[[[-75.04401,5.52428],[-75.04402,5.52429],[-75.04403,5.52426],[-75.04402,5.52425],[-75.04401,5.52428]]],[[[-75.04488,5.5243],[-75.04487,5.5243],[-75.04488,5.52431],[-75.04488,5.5243]]],[[[-75.04517,5.5243],[-75.04518,5.52431],[-75.04519,5.52428],[-75.04516,5.52427],[-75.04517,5.5243]]],[[[-75.04399,5.52436],[-75.04396,5.52438],[-75.04398,5.52438],[-75.04402,5.52438],[-75.04402,5.52438],[-75.04402,5.52435],[-75.04399,5.52434],[-75.04399,5.52436]]],[[[-75.04347,5.52439],[-75.04347,5.52438],[-75.04347,5.52438],[-75.04347,5.52439]]],[[[-75.04476,5.52441],[-75.04476,5.52441],[-75.04478,5.5244],[-75.04482,5.52438],[-75.04483,5.5244],[-75.04491,5.52441],[-75.04494,5.52436],[-75.04493,5.52434],[-75.04494,5.52431],[-75.04476,5.52432],[-75.04475,5.52433],[-75.04479,5.52434],[-75.0448,5.52437],[-75.04478,5.52437],[-75.04477,5.52437],[-75.04476,5.52437],[-75.04474,5.52437],[-75.0447,5.52436],[-75.04466,5.52438],[-75.04469,5.52441],[-75.04472,5.52441],[-75.04476,5.52441]]],[[[-75.04487,5.52443],[-75.04492,5.52442],[-75.04486,5.52441],[-75.04487,5.52443]]],[[[-75.04476,5.52441],[-75.04476,5.52444],[-75.04478,5.52444],[-75.0448,5.52442],[-75.04476,5.52441]]],[[[-75.04461,5.52412],[-75.04461,5.52412],[-75.0446,5.52409],[-75.04457,5.52418],[-75.04456,5.52427],[-75.04458,5.52436],[-75.04458,5.52438],[-75.04458,5.52442],[-75.04464,5.52444],[-75.04467,5.52443],[-75.04464,5.52443],[-75.04463,5.52437],[-75.04461,5.52436],[-75.0446,5.52435],[-75.0446,5.52431],[-75.0446,5.52428],[-75.0446,5.52425],[-75.0446,5.52421],[-75.04464,5.5242],[-75.04465,5.52419],[-75.04466,5.5242],[-75.04465,5.52422],[-75.04468,5.52425],[-75.04471,5.5243],[-75.04474,5.5243],[-75.04484,5.52431],[-75.04488,5.52426],[-75.04484,5.52424],[-75.04483,5.52421],[-75.04476,5.5242],[-75.04484,5.52419],[-75.04483,5.52415],[-75.04484,5.52413],[-75.04483,5.52412],[-75.04481,5.5241],[-75.04479,5.52409],[-75.04479,5.52412],[-75.04477,5.52414],[-75.04477,5.52415],[-75.04475,5.52417],[-75.04474,5.52419],[-75.04474,5.52416],[-75.04471,5.52415],[-75.0447,5.52413],[-75.04474,5.52408],[-75.04474,5.52405],[-75.04475,5.52408],[-75.04478,5.52408],[-75.04479,5.52406],[-75.04481,5.52403],[-75.04483,5.52403],[-75.04484,5.52397],[-75.04488,5.52394],[-75.04489,5.52391],[-75.04492,5.52395],[-75.04493,5.52391],[-75.04487,5.5239],[-75.04481,5.52394],[-75.04479,5.52394],[-75.04476,5.52394],[-75.04474,5.52391],[-75.04467,5.5239],[-75.04465,5.52394],[-75.04465,5.52399],[-75.04462,5.52405],[-75.04461,5.52412],[-75.04462,5.52412],[-75.04462,5.52414],[-75.04463,5.52415],[-75.04463,5.52416],[-75.04462,5.52414],[-75.04461,5.52414],[-75.04461,5.52412]],[[-75.04467,5.52421],[-75.04469,5.52421],[-75.04467,5.52422],[-75.04467,5.52421]],[[-75.0447,5.52421],[-75.04472,5.52421],[-75.04471,5.52422],[-75.0447,5.52421]]],[[[-75.04375,5.52445],[-75.04376,5.52444],[-75.04375,5.52443],[-75.04375,5.52445]]],[[[-75.04365,5.52444],[-75.04362,5.52446],[-75.04362,5.52449],[-75.04363,5.52449],[-75.04367,5.52448],[-75.04371,5.52447],[-75.04372,5.52446],[-75.04367,5.52446],[-75.04367,5.52444],[-75.04366,5.52443],[-75.04365,5.52444]]],[[[-75.04488,5.5243],[-75.0449,5.5243],[-75.04505,5.52431],[-75.045,5.52432],[-75.04498,5.52433],[-75.04502,5.52435],[-75.04503,5.52436],[-75.04504,5.52437],[-75.04505,5.52438],[-75.04506,5.52436],[-75.04507,5.5244],[-75.04511,5.52441],[-75.04506,5.52442],[-75.04507,5.52449],[-75.04509,5.52449],[-75.04511,5.52447],[-75.04512,5.52446],[-75.04513,5.52444],[-75.04512,5.52443],[-75.04515,5.52439],[-75.04516,5.52434],[-75.04517,5.52437],[-75.04519,5.52435],[-75.04521,5.52434],[-75.04521,5.52433],[-75.04517,5.52432],[-75.04516,5.52433],[-75.04515,5.52432],[-75.04514,5.52431],[-75.04515,5.5243],[-75.04516,5.52422],[-75.04514,5.52421],[-75.04515,5.5242],[-75.04513,5.52418],[-75.04514,5.52414],[-75.04507,5.52413],[-75.04505,5.52413],[-75.04504,5.52416],[-75.04502,5.52415],[-75.04495,5.52415],[-75.04496,5.52417],[-75.04496,5.52419],[-75.04498,5.5242],[-75.04499,5.52422],[-75.04498,5.52425],[-75.0449,5.52427],[-75.04488,5.5243]],[[-75.04503,5.52421],[-75.04502,5.52422],[-75.04502,5.5242],[-75.04503,5.52421]],[[-75.04507,5.52414],[-75.04506,5.52415],[-75.04506,5.52414],[-75.04507,5.52414]]],[[[-75.04505,5.52454],[-75.04506,5.52453],[-75.04505,5.52453],[-75.04505,5.52454]]],[[[-75.04495,5.52459],[-75.04496,5.52456],[-75.04495,5.52455],[-75.04495,5.52459]]],[[[-75.04503,5.5246],[-75.04522,5.52461],[-75.04521,5.52455],[-75.04518,5.52455],[-75.0452,5.52453],[-75.04514,5.52453],[-75.04512,5.52453],[-75.04507,5.52452],[-75.04506,5.52458],[-75.04505,5.52455],[-75.04505,5.52454],[-75.04503,5.5246]]],[[[-75.04507,5.52474],[-75.04508,5.52473],[-75.04507,5.52473],[-75.04507,5.52474]]],[[[-75.04493,5.52456],[-75.04494,5.52453],[-75.04489,5.52456],[-75.04486,5.52456],[-75.0448,5.52453],[-75.04479,5.52453],[-75.04477,5.52452],[-75.04473,5.52458],[-75.04473,5.52461],[-75.04478,5.52465],[-75.0448,5.52467],[-75.04475,5.52469],[-75.04482,5.52479],[-75.0449,5.52486],[-75.04498,5.52491],[-75.045,5.52493],[-75.04501,5.5249],[-75.04513,5.52491],[-75.04519,5.5249],[-75.04526,5.52491],[-75.04527,5.5249],[-75.04526,5.52484],[-75.04523,5.52473],[-75.04522,5.52462],[-75.04522,5.52461],[-75.04503,5.52462],[-75.04502,5.52463],[-75.045,5.52463],[-75.04499,5.52464],[-75.04496,5.52466],[-75.04494,5.52468],[-75.0449,5.52469],[-75.04489,5.5247],[-75.04504,5.52471],[-75.04506,5.52469],[-75.04507,5.5247],[-75.04509,5.52469],[-75.04515,5.52464],[-75.04518,5.52464],[-75.0452,5.5247],[-75.04521,5.52471],[-75.04521,5.52474],[-75.04521,5.52477],[-75.04521,5.52478],[-75.04519,5.52482],[-75.04515,5.52481],[-75.04507,5.52476],[-75.04506,5.52477],[-75.04505,5.52472],[-75.04503,5.52471],[-75.04487,5.52472],[-75.04484,5.52474],[-75.04484,5.52475],[-75.04484,5.52472],[-75.04484,5.52471],[-75.04484,5.52459],[-75.04485,5.52468],[-75.04487,5.52466],[-75.04488,5.52465],[-75.0449,5.52463],[-75.04492,5.52462],[-75.04493,5.52461],[-75.04493,5.5246],[-75.04494,5.52457],[-75.04493,5.52456],[-75.04493,5.52457],[-75.04492,5.52456],[-75.04493,5.52456]],[[-75.04481,5.52456],[-75.04483,5.52458],[-75.0448,5.5246],[-75.04478,5.52457],[-75.04479,5.52456],[-75.04479,5.52456],[-75.04481,5.52456]],[[-75.04487,5.52458],[-75.04492,5.52458],[-75.04487,5.52459],[-75.04487,5.52458]]],[[[-75.04021,5.52878],[-75.04021,5.52879],[-75.04022,5.52878],[-75.04021,5.52878]]],[[[-75.04018,5.52879],[-75.04018,5.5288],[-75.04018,5.52882],[-75.04018,5.52882],[-75.04018,5.52882],[-75.04018,5.5288],[-75.04018,5.52879],[-75.04018,5.52879]]],[[[-75.04022,5.52919],[-75.04023,5.5292],[-75.04024,5.52917],[-75.04023,5.52917],[-75.04022,5.52919]]],[[[-75.04054,5.52921],[-75.04055,5.52921],[-75.04056,5.52909],[-75.04053,5.52904],[-75.04054,5.52921]]],[[[-75.04054,5.52921],[-75.04053,5.52922],[-75.04054,5.52922],[-75.04054,5.52921]]],[[[-75.04025,5.52917],[-75.04024,5.52922],[-75.04025,5.52922],[-75.0403,5.52923],[-75.04031,5.52922],[-75.04028,5.52917],[-75.04026,5.52916],[-75.04025,5.52916],[-75.04025,5.52917]]],[[[-75.04037,5.52936],[-75.04039,5.52935],[-75.0404,5.52933],[-75.04042,5.52932],[-75.04041,5.52928],[-75.04036,5.52928],[-75.04037,5.52936]]],[[[-75.04034,5.52928],[-75.04032,5.52929],[-75.04031,5.52931],[-75.0403,5.52933],[-75.04033,5.52933],[-75.0403,5.52935],[-75.04035,5.52936],[-75.04036,5.52929],[-75.04034,5.52928],[-75.04034,5.52928]]],[[[-75.04095,5.52946],[-75.04095,5.52948],[-75.04095,5.52948],[-75.04101,5.52942],[-75.04101,5.52942],[-75.04099,5.52935],[-75.04095,5.5293],[-75.04076,5.52904],[-75.04075,5.52904],[-75.04075,5.52902],[-75.04062,5.52884],[-75.04058,5.52878],[-75.04058,5.52879],[-75.04056,5.52879],[-75.04052,5.52879],[-75.04053,5.52881],[-75.04054,5.52887],[-75.04054,5.52889],[-75.04056,5.52886],[-75.04057,5.52891],[-75.04057,5.52893],[-75.04057,5.52894],[-75.04057,5.52897],[-75.04058,5.52902],[-75.04057,5.52903],[-75.04057,5.52904],[-75.04056,5.52921],[-75.04058,5.52921],[-75.04059,5.52922],[-75.0406,5.52921],[-75.04065,5.5292],[-75.04066,5.52913],[-75.04066,5.5292],[-75.04068,5.52921],[-75.0407,5.52918],[-75.04071,5.52917],[-75.04075,5.52915],[-75.04074,5.52913],[-75.04075,5.52913],[-75.04076,5.52912],[-75.04076,5.52913],[-75.04077,5.52913],[-75.04076,5.52915],[-75.04079,5.52916],[-75.04082,5.52919],[-75.04085,5.52924],[-75.04085,5.52923],[-75.04086,5.52927],[-75.04083,5.52928],[-75.04081,5.52926],[-75.04079,5.52925],[-75.04076,5.52925],[-75.04076,5.52929],[-75.0408,5.52933],[-75.04085,5.52932],[-75.04086,5.52932],[-75.04086,5.52934],[-75.04086,5.52935],[-75.04086,5.52937],[-75.04087,5.52941],[-75.04087,5.52942],[-75.0408,5.52948],[-75.04079,5.52949],[-75.04083,5.52951],[-75.04083,5.52948],[-75.04087,5.52948],[-75.04089,5.52948],[-75.0409,5.52948],[-75.04091,5.52946],[-75.04092,5.52945],[-75.04092,5.52948],[-75.04095,5.52946],[-75.04095,5.52946],[-75.04094,5.52945],[-75.04095,5.52944],[-75.04095,5.52946],[-75.04097,5.52946],[-75.04095,5.52946]],[[-75.04076,5.52909],[-75.04075,5.5291],[-75.04075,5.52908],[-75.04076,5.52909]],[[-75.04056,5.52882],[-75.04055,5.52883],[-75.04055,5.52881],[-75.04056,5.52882]]],[[[-75.04076,5.52953],[-75.0408,5.52952],[-75.04078,5.5295],[-75.04076,5.52953]]],[[[-75.04036,5.52962],[-75.04038,5.52963],[-75.04038,5.52961],[-75.04037,5.5296],[-75.04036,5.52962]]],[[[-75.04065,5.52965],[-75.04065,5.52962],[-75.04063,5.52964],[-75.04063,5.52964],[-75.04063,5.52964],[-75.04065,5.52965]]],[[[-75.04037,5.52965],[-75.04037,5.52964],[-75.04036,5.52964],[-75.04037,5.52965]]],[[[-75.04039,5.52964],[-75.04045,5.52965],[-75.04046,5.52962],[-75.04041,5.52962],[-75.04039,5.52964]]],[[[-75.0402,5.52962],[-75.0402,5.52965],[-75.04018,5.52967],[-75.0402,5.52971],[-75.04019,5.52975],[-75.0402,5.52978],[-75.04023,5.52976],[-75.04024,5.52961],[-75.04022,5.5296],[-75.0402,5.52962]]],[[[-75.04056,5.52992],[-75.04056,5.52991],[-75.04055,5.52991],[-75.04056,5.52992]]],[[[-75.04056,5.53],[-75.04055,5.53],[-75.04056,5.53001],[-75.04056,5.53]]],[[[-75.03989,5.53014],[-75.03986,5.5302],[-75.03986,5.53022],[-75.03986,5.53022],[-75.03989,5.53013],[-75.03989,5.53014]]],[[[-75.04065,5.52965],[-75.04065,5.52965],[-75.04063,5.52966],[-75.04061,5.52972],[-75.04061,5.52975],[-75.0406,5.52976],[-75.04059,5.52978],[-75.04057,5.52979],[-75.04056,5.52986],[-75.04055,5.52982],[-75.04055,5.52982],[-75.0405,5.52985],[-75.04047,5.52987],[-75.04046,5.5299],[-75.04045,5.52986],[-75.0404,5.52982],[-75.0404,5.52981],[-75.04041,5.52978],[-75.04042,5.52975],[-75.04043,5.52974],[-75.04044,5.52971],[-75.04045,5.5297],[-75.04046,5.52966],[-75.04037,5.52965],[-75.04036,5.52972],[-75.04035,5.52962],[-75.04031,5.52962],[-75.04027,5.52961],[-75.04025,5.5296],[-75.04024,5.52972],[-75.04026,5.52977],[-75.04026,5.52979],[-75.04026,5.52981],[-75.04026,5.52982],[-75.04028,5.52982],[-75.04031,5.52982],[-75.04029,5.52984],[-75.04029,5.52986],[-75.04028,5.52987],[-75.04028,5.52989],[-75.04028,5.5299],[-75.04032,5.52993],[-75.04033,5.52996],[-75.04028,5.52997],[-75.04027,5.52997],[-75.04033,5.53001],[-75.04032,5.53003],[-75.04029,5.53006],[-75.04032,5.5301],[-75.04036,5.53011],[-75.0404,5.53007],[-75.04041,5.53006],[-75.04041,5.53006],[-75.04043,5.53004],[-75.04043,5.53007],[-75.04041,5.53021],[-75.04046,5.53023],[-75.04046,5.53021],[-75.04046,5.5302],[-75.04045,5.53008],[-75.04045,5.53001],[-75.04046,5.52998],[-75.04046,5.52998],[-75.04044,5.52993],[-75.0405,5.52989],[-75.0405,5.52989],[-75.04054,5.52989],[-75.04058,5.5299],[-75.04059,5.52993],[-75.04057,5.52997],[-75.04056,5.53],[-75.04057,5.53],[-75.04057,5.52999],[-75.04058,5.53],[-75.04057,5.53],[-75.04056,5.53004],[-75.04053,5.52998],[-75.04052,5.52996],[-75.04048,5.53],[-75.04047,5.53001],[-75.04047,5.53008],[-75.04046,5.53021],[-75.04047,5.5302],[-75.04049,5.53017],[-75.0405,5.53017],[-75.04052,5.5302],[-75.04054,5.53011],[-75.04054,5.53011],[-75.04059,5.53],[-75.04059,5.52998],[-75.0406,5.52998],[-75.04064,5.52991],[-75.04073,5.52978],[-75.04071,5.5298],[-75.0407,5.5298],[-75.04071,5.52974],[-75.04073,5.52974],[-75.04072,5.52976],[-75.04073,5.52977],[-75.0408,5.52967],[-75.04095,5.52949],[-75.04094,5.5295],[-75.04092,5.52951],[-75.0409,5.52951],[-75.04088,5.52953],[-75.04087,5.52954],[-75.04086,5.52956],[-75.04082,5.52957],[-75.0408,5.52963],[-75.04075,5.52962],[-75.04079,5.52961],[-75.04074,5.52952],[-75.04074,5.52954],[-75.04074,5.52955],[-75.04071,5.52957],[-75.04069,5.52958],[-75.04067,5.52961],[-75.04066,5.52964],[-75.04065,5.52965]],[[-75.04075,5.52969],[-75.04078,5.52968],[-75.04079,5.52966],[-75.0408,5.52967],[-75.04078,5.5297],[-75.04075,5.52969]],[[-75.04069,5.52981],[-75.0407,5.52981],[-75.04069,5.52982],[-75.04069,5.52981]],[[-75.04037,5.52976],[-75.04036,5.52992],[-75.04035,5.52975],[-75.04037,5.52976]],[[-75.04036,5.52994],[-75.04037,5.52995],[-75.04036,5.53],[-75.04036,5.52994]]],[[[-75.04035,5.53044],[-75.04036,5.53044],[-75.04035,5.53043],[-75.04035,5.53044]]],[[[-75.04005,5.53051],[-75.04006,5.5305],[-75.04005,5.5305],[-75.04005,5.53051]]],[[[-75.04003,5.53051],[-75.04004,5.53051],[-75.04003,5.5305],[-75.04003,5.53051]]],[[[-75.04003,5.53051],[-75.04,5.53052],[-75.03995,5.53055],[-75.03995,5.53056],[-75.03995,5.53059],[-75.03994,5.53057],[-75.03991,5.53059],[-75.0399,5.53066],[-75.03987,5.53065],[-75.03985,5.53064],[-75.0398,5.53062],[-75.03976,5.53064],[-75.03984,5.53069],[-75.03997,5.53077],[-75.04005,5.53082],[-75.04025,5.53093],[-75.04032,5.53087],[-75.04037,5.53081],[-75.04042,5.53066],[-75.04051,5.53022],[-75.04047,5.53029],[-75.04046,5.53024],[-75.04045,5.53026],[-75.04046,5.53032],[-75.04045,5.5304],[-75.04044,5.53041],[-75.04041,5.53033],[-75.0404,5.53027],[-75.04039,5.53028],[-75.04036,5.53026],[-75.04032,5.53025],[-75.04032,5.53024],[-75.04031,5.53023],[-75.0403,5.53022],[-75.04028,5.53023],[-75.04029,5.53021],[-75.04028,5.5302],[-75.04029,5.5302],[-75.04029,5.53021],[-75.04031,5.5302],[-75.0403,5.53022],[-75.04032,5.53022],[-75.04031,5.53016],[-75.0403,5.53015],[-75.0403,5.53017],[-75.04028,5.53016],[-75.0403,5.53015],[-75.0403,5.53013],[-75.04029,5.53012],[-75.04028,5.53011],[-75.04025,5.5301],[-75.04027,5.53015],[-75.04027,5.53016],[-75.04027,5.53017],[-75.04027,5.53018],[-75.04028,5.53018],[-75.04027,5.53019],[-75.04026,5.5302],[-75.04025,5.53021],[-75.04024,5.53038],[-75.04023,5.53021],[-75.04021,5.5302],[-75.04017,5.53023],[-75.04017,5.53031],[-75.04017,5.53033],[-75.04018,5.53034],[-75.04019,5.53036],[-75.0402,5.53036],[-75.04022,5.53039],[-75.0402,5.53042],[-75.0402,5.53045],[-75.04023,5.53045],[-75.04024,5.53041],[-75.04029,5.53041],[-75.0403,5.53039],[-75.04034,5.53037],[-75.04035,5.53041],[-75.04036,5.5304],[-75.04036,5.53055],[-75.04035,5.53052],[-75.04034,5.53053],[-75.04032,5.53055],[-75.04031,5.53057],[-75.04033,5.5306],[-75.04033,5.53061],[-75.04034,5.53063],[-75.04032,5.53066],[-75.04025,5.53063],[-75.04022,5.53061],[-75.04019,5.5306],[-75.04017,5.5306],[-75.04015,5.53059],[-75.04008,5.53056],[-75.04005,5.53054],[-75.04004,5.53054],[-75.04002,5.53054],[-75.04003,5.53051]],[[-75.03987,5.53066],[-75.03985,5.53067],[-75.03984,5.53066],[-75.03987,5.53066]],[[-75.03983,5.53066],[-75.03982,5.53067],[-75.03981,5.53066],[-75.03983,5.53066]],[[-75.04041,5.53044],[-75.0404,5.53045],[-75.0404,5.53044],[-75.04041,5.53044]],[[-75.04048,5.53035],[-75.04047,5.53039],[-75.04046,5.53034],[-75.04048,5.53035]]]]},"properties":{"FID":0,"OBJECTID":1,"FID_":0,"Layer":"ACA MM","Shape_Leng":318.199950746,"Categoria":"Media","Area_ha":12.0700026907,"Shape_Le_1":7694.20839006,"Shape_Area":20122.8002473}}]}