{"type":"FeatureCollection","name":"ABACOS","crs":{"type":"name","properties":{"name":"urn:ogc:def:crs:OGC:1.3:CRS84"}},"features":[{"type":"Feature","id":1,"geometry":{"type":"Polygon","coordinates":[[[-75.69759,5.10793],[-75.69775,5.1081],[-75.69786,5.10819],[-75.69798,5.10824],[-75.69808,5.10825],[-75.69815,5.10825],[-75.69831,5.10824],[-75.69845,5.10819],[-75.69856,5.10808],[-75.69869,5.10795],[-75.69878,5.10791],[-75.69893,5.1079],[-75.69913,5.10793],[-75.6993,5.10802],[-75.69944,5.10805],[-75.69963,5.10809],[-75.69985,5.10811],[-75.70003,5.1081],[-75.70013,5.10802],[-75.70018,5.10797],[-75.70023,5.10788],[-75.70023,5.10777],[-75.70022,5.10765],[-75.70015,5.10747],[-75.70002,5.10729],[-75.69987,5.10721],[-75.69967,5.1071],[-75.69936,5.10698],[-75.69914,5.10696],[-75.69902,5.10695],[-75.69888,5.10689],[-75.69869,5.10681],[-75.69855,5.10671],[-75.69842,5.10662],[-75.69824,5.10661],[-75.6981,5.10661],[-75.69794,5.10663],[-75.69781,5.10671],[-75.69768,5.10684],[-75.69758,5.10693],[-75.69748,5.10705],[-75.69742,5.10725],[-75.69739,5.10739],[-75.69744,5.10763],[-75.6975,5.10776],[-75.69759,5.10793]]]},"properties":{"OBJECTID":1,"area_Ha":3.89632785541,"MUNICIPIO":"Palestina","Departamen":"Caldas","Subregion":"Centro Sur","VEREDA":"El Cacique","area_hidro":"Magdalena Cauca - Cauca","cuen_nom":"Río Chinchiná - SZH","micuen_nom":"Quebrada Carminales","Abaco_nom":"La Perlita","Coorde_X_1":4700891.426962777,"Coorde_Y_2":0,"Cap_uso":"Sin información","bioma":"Sin información","zona_vida":"Sin información","Shape_Length":825.7965366140628,"Shape_Area":38963.27855411887}},{"type":"Feature","id":2,"geometry":{"type":"Polygon","coordinates":[[[-75.69878,5.06149],[-75.69872,5.06155],[-75.69869,5.06158],[-75.69861,5.06163],[-75.69858,5.06168],[-75.69851,5.06175],[-75.69846,5.06177],[-75.69839,5.06186],[-75.69831,5.06193],[-75.69828,5.06203],[-75.69824,5.0621],[-75.69821,5.06218],[-75.69815,5.06227],[-75.69809,5.06235],[-75.69806,5.0624],[-75.69803,5.06246],[-75.69798,5.06252],[-75.69795,5.06259],[-75.69791,5.06266],[-75.69786,5.06273],[-75.69782,5.06279],[-75.69777,5.06284],[-75.69774,5.06288],[-75.69772,5.06292],[-75.6977,5.06296],[-75.69768,5.06306],[-75.69767,5.06315],[-75.69767,5.06322],[-75.69767,5.06333],[-75.69767,5.06341],[-75.69767,5.06347],[-75.69767,5.06352],[-75.69767,5.0636],[-75.69767,5.06368],[-75.69768,5.06377],[-75.69767,5.0638],[-75.69775,5.0638],[-75.69785,5.0638],[-75.69794,5.0638],[-75.69802,5.0638],[-75.6981,5.0638],[-75.69816,5.06377],[-75.69822,5.06375],[-75.69829,5.06373],[-75.69834,5.0637],[-75.6984,5.06368],[-75.69847,5.06365],[-75.69852,5.06364],[-75.69861,5.0636],[-75.69867,5.06357],[-75.69873,5.06355],[-75.69881,5.06354],[-75.69887,5.06352],[-75.69893,5.06349],[-75.69899,5.06349],[-75.69906,5.06349],[-75.69911,5.06349],[-75.6992,5.06349],[-75.69926,5.06347],[-75.69929,5.06347],[-75.69929,5.06346],[-75.6992,5.06337],[-75.69917,5.06328],[-75.69911,5.0632],[-75.69908,5.06308],[-75.69906,5.06299],[-75.69906,5.06296],[-75.69905,5.06288],[-75.69905,5.06276],[-75.69903,5.06265],[-75.699,5.06256],[-75.699,5.06247],[-75.699,5.06245],[-75.699,5.06233],[-75.699,5.06229],[-75.699,5.06222],[-75.699,5.0621],[-75.69897,5.06201],[-75.69894,5.06193],[-75.69891,5.06184],[-75.69891,5.06173],[-75.69888,5.06164],[-75.69888,5.06152],[-75.69888,5.06149],[-75.69884,5.06148],[-75.69878,5.06149]]]},"properties":{"OBJECTID":2,"area_Ha":2.69894784392,"MUNICIPIO":"Palestina","Departamen":"Caldas","Subregion":"Centro sur","VEREDA":"Santaguedad","area_hidro":"Magdalena Cauca - Cauca","cuen_nom":"Río Chinchiná - SZH","micuen_nom":"Quebrada Carminales","Abaco_nom":"El Berrión","Coorde_X_1":820233.317425,"Coorde_Y_2":1051826.02503,"Cap_uso":"Cultivos densos y de semibosque; sistemas  agroforestales adaptados a las condiciones ecológicas.","bioma":"Orobioma subandino cordillera central","zona_vida":"Bosque muy humedo premontano","Shape_Length":727.2215968402719,"Shape_Area":26989.47843920826}},{"type":"Feature","id":3,"geometry":{"type":"Polygon","coordinates":[[[-75.69676,5.0663],[-75.69671,5.06635],[-75.69664,5.06647],[-75.69664,5.06648],[-75.69664,5.06648],[-75.69664,5.06648],[-75.69664,5.06649],[-75.69664,5.06649],[-75.69664,5.06649],[-75.69664,5.06649],[-75.69664,5.06649],[-75.69664,5.0665],[-75.69673,5.06652],[-75.69683,5.06652],[-75.69692,5.06652],[-75.69701,5.06651],[-75.6971,5.0665],[-75.6972,5.0665],[-75.69728,5.06647],[-75.69738,5.06644],[-75.69747,5.06642],[-75.69756,5.06642],[-75.69765,5.06641],[-75.69766,5.06641],[-75.69767,5.06641],[-75.69779,5.06641],[-75.69787,5.0664],[-75.69793,5.0664],[-75.69803,5.0664],[-75.69814,5.06636],[-75.69823,5.06631],[-75.69833,5.06631],[-75.69847,5.06629],[-75.69869,5.06628],[-75.69885,5.06629],[-75.69898,5.06629],[-75.6991,5.06627],[-75.69922,5.06623],[-75.69926,5.06615],[-75.69927,5.06612],[-75.69932,5.06599],[-75.69933,5.06589],[-75.69934,5.06582],[-75.69933,5.0657],[-75.69933,5.06563],[-75.69933,5.06559],[-75.69931,5.06551],[-75.69925,5.06543],[-75.69924,5.06538],[-75.69913,5.06529],[-75.69907,5.06525],[-75.699,5.06521],[-75.69892,5.06511],[-75.69886,5.06507],[-75.69881,5.06502],[-75.69879,5.06497],[-75.69874,5.06491],[-75.69871,5.06488],[-75.69863,5.06484],[-75.69857,5.06483],[-75.69849,5.06481],[-75.69843,5.0648],[-75.69833,5.0648],[-75.69827,5.06486],[-75.69823,5.06492],[-75.6982,5.06494],[-75.69814,5.065],[-75.69808,5.06508],[-75.69798,5.06521],[-75.69793,5.06528],[-75.69789,5.06532],[-75.69783,5.06542],[-75.69781,5.06544],[-75.69777,5.0655],[-75.69771,5.06564],[-75.6977,5.06564],[-75.69763,5.0657],[-75.69751,5.0658],[-75.6974,5.06592],[-75.69731,5.06597],[-75.69723,5.06602],[-75.69717,5.06608],[-75.69714,5.06609],[-75.69705,5.06613],[-75.69695,5.06618],[-75.69687,5.06621],[-75.69681,5.06626],[-75.69676,5.0663]]]},"properties":{"OBJECTID":3,"area_Ha":2.96585967345,"MUNICIPIO":"Palestina","Departamen":"Caldas","Subregion":"Centro sur","VEREDA":"Santaguedad","area_hidro":"Magdalena Cauca - Cauca","cuen_nom":"Río Chinchiná - SZH","micuen_nom":"Quebrada Carminales","Abaco_nom":"Verdún","Coorde_X_1":820253.77915,"Coorde_Y_2":1052151.39028,"Cap_uso":"Cultivos densos, de semibosque; sistemas agroforestales.","bioma":"Zonobioma Húmedo Tropical del Cauca y Orobioma subandino cordillera central","zona_vida":"Bosque muy humedo premontano","Shape_Length":788.6842039525313,"Shape_Area":29658.596734547173}},{"type":"Feature","id":4,"geometry":{"type":"Polygon","coordinates":[[[-75.67804,5.05975],[-75.678,5.0598],[-75.67805,5.05988],[-75.67813,5.05997],[-75.6782,5.06],[-75.67823,5.05999],[-75.67831,5.06001],[-75.67846,5.06003],[-75.67854,5.06002],[-75.67859,5.06002],[-75.67868,5.06003],[-75.67876,5.06003],[-75.67884,5.06004],[-75.67891,5.06005],[-75.67897,5.06007],[-75.67904,5.0601],[-75.67913,5.06015],[-75.67923,5.06022],[-75.67929,5.06025],[-75.6794,5.06031],[-75.67945,5.06031],[-75.67949,5.06033],[-75.67957,5.06034],[-75.67968,5.06035],[-75.67979,5.06037],[-75.67982,5.06037],[-75.67988,5.06037],[-75.68004,5.06037],[-75.68015,5.06036],[-75.68024,5.06036],[-75.68034,5.06035],[-75.6804,5.06034],[-75.68046,5.06034],[-75.68058,5.06035],[-75.68065,5.06034],[-75.68074,5.06035],[-75.68085,5.06034],[-75.68093,5.06035],[-75.681,5.06036],[-75.68111,5.06037],[-75.68117,5.06038],[-75.68127,5.06037],[-75.68137,5.06037],[-75.68146,5.06036],[-75.6816,5.06037],[-75.68171,5.06037],[-75.68179,5.06037],[-75.68192,5.06037],[-75.682,5.06038],[-75.68207,5.06039],[-75.68219,5.06039],[-75.68229,5.06038],[-75.68234,5.06038],[-75.68241,5.06037],[-75.68248,5.06037],[-75.68254,5.06034],[-75.6826,5.06032],[-75.68268,5.06029],[-75.68277,5.06026],[-75.68282,5.06021],[-75.68287,5.06019],[-75.68294,5.06014],[-75.68298,5.06011],[-75.68305,5.06007],[-75.6831,5.06001],[-75.68316,5.05997],[-75.68321,5.05991],[-75.68324,5.0599],[-75.68328,5.05985],[-75.68333,5.05978],[-75.68339,5.05971],[-75.68343,5.05964],[-75.68351,5.05954],[-75.68351,5.05953],[-75.68357,5.05943],[-75.68366,5.05935],[-75.68371,5.05929],[-75.68375,5.05922],[-75.68383,5.05912],[-75.68384,5.05912],[-75.68387,5.05907],[-75.68393,5.059],[-75.68399,5.05893],[-75.68405,5.05886],[-75.68409,5.05879],[-75.68416,5.05872],[-75.68426,5.0586],[-75.6843,5.05855],[-75.68431,5.05851],[-75.68439,5.05843],[-75.68443,5.05836],[-75.68447,5.05829],[-75.68451,5.05824],[-75.68453,5.05817],[-75.68456,5.05811],[-75.68458,5.05804],[-75.6846,5.05799],[-75.68459,5.05793],[-75.68459,5.05788],[-75.68459,5.05782],[-75.68457,5.05777],[-75.68455,5.05772],[-75.68455,5.05762],[-75.68454,5.05754],[-75.68453,5.0575],[-75.68449,5.05739],[-75.68448,5.05731],[-75.68447,5.05727],[-75.68446,5.05721],[-75.68444,5.05711],[-75.68443,5.05703],[-75.68443,5.05692],[-75.68445,5.05683],[-75.68446,5.05673],[-75.68447,5.05665],[-75.68448,5.05653],[-75.68447,5.05646],[-75.68449,5.05636],[-75.6845,5.05625],[-75.6845,5.05616],[-75.68452,5.05605],[-75.68453,5.05595],[-75.68453,5.05583],[-75.68454,5.05572],[-75.68455,5.05568],[-75.68455,5.05563],[-75.68455,5.05554],[-75.68456,5.05544],[-75.68457,5.05536],[-75.68457,5.05527],[-75.68459,5.0552],[-75.68459,5.05514],[-75.68459,5.05503],[-75.68459,5.05491],[-75.68459,5.05482],[-75.68458,5.05473],[-75.68457,5.05463],[-75.68457,5.05462],[-75.68456,5.05454],[-75.68455,5.05443],[-75.68453,5.05434],[-75.68452,5.05426],[-75.68446,5.05416],[-75.68443,5.05409],[-75.68436,5.05399],[-75.68434,5.05396],[-75.68427,5.05388],[-75.68423,5.0538],[-75.68419,5.05375],[-75.6841,5.05367],[-75.68408,5.05366],[-75.684,5.05359],[-75.68395,5.05356],[-75.68389,5.05351],[-75.68377,5.05344],[-75.6837,5.05339],[-75.68363,5.05334],[-75.68355,5.05331],[-75.68349,5.05327],[-75.68343,5.05323],[-75.68335,5.05318],[-75.68324,5.05315],[-75.68313,5.0531],[-75.68308,5.05308],[-75.68303,5.05307],[-75.68294,5.05307],[-75.68285,5.05308],[-75.6828,5.05309],[-75.68276,5.05314],[-75.68275,5.05318],[-75.68272,5.05324],[-75.68271,5.05329],[-75.6827,5.05334],[-75.68269,5.05341],[-75.68269,5.0535],[-75.68269,5.05356],[-75.68269,5.05364],[-75.68269,5.0537],[-75.68269,5.05375],[-75.6827,5.0538],[-75.68269,5.05387],[-75.68265,5.05394],[-75.68264,5.05398],[-75.68261,5.05406],[-75.68259,5.05411],[-75.68258,5.0542],[-75.68255,5.05426],[-75.68253,5.05431],[-75.6825,5.05435],[-75.68245,5.05442],[-75.6824,5.05448],[-75.68237,5.05453],[-75.68233,5.05457],[-75.6823,5.05461],[-75.68227,5.05468],[-75.68225,5.05471],[-75.68224,5.05477],[-75.68223,5.05482],[-75.68222,5.05487],[-75.68221,5.055],[-75.68219,5.05512],[-75.68219,5.0553],[-75.68217,5.05539],[-75.68215,5.05546],[-75.68215,5.0555],[-75.68212,5.05559],[-75.68211,5.05565],[-75.6821,5.05573],[-75.68207,5.0558],[-75.68206,5.05588],[-75.68203,5.05596],[-75.68202,5.05602],[-75.68202,5.05608],[-75.68202,5.05614],[-75.68202,5.0562],[-75.682,5.05626],[-75.68196,5.0563],[-75.68192,5.05634],[-75.68188,5.05638],[-75.68183,5.05642],[-75.68179,5.05647],[-75.68173,5.05653],[-75.68171,5.05659],[-75.68166,5.05663],[-75.68153,5.05667],[-75.68147,5.05668],[-75.6814,5.05668],[-75.68126,5.05668],[-75.68112,5.05668],[-75.68101,5.05669],[-75.68088,5.05672],[-75.68081,5.05674],[-75.68076,5.05677],[-75.68071,5.05681],[-75.68064,5.05688],[-75.68058,5.05692],[-75.68055,5.05695],[-75.68049,5.05701],[-75.68042,5.05705],[-75.68036,5.05711],[-75.68027,5.05719],[-75.68023,5.05725],[-75.68021,5.05727],[-75.68014,5.05734],[-75.68008,5.05744],[-75.68004,5.05751],[-75.67999,5.05756],[-75.67997,5.05759],[-75.67992,5.05767],[-75.67989,5.05775],[-75.67986,5.05781],[-75.67983,5.0579],[-75.67978,5.05803],[-75.67973,5.05813],[-75.6797,5.05819],[-75.67966,5.05827],[-75.6796,5.05837],[-75.67952,5.05851],[-75.67949,5.05855],[-75.67946,5.0586],[-75.6794,5.05866],[-75.67935,5.05868],[-75.67932,5.05869],[-75.67926,5.05871],[-75.67918,5.05873],[-75.67913,5.05873],[-75.67905,5.05878],[-75.67901,5.05881],[-75.67897,5.05889],[-75.67894,5.05893],[-75.67889,5.05903],[-75.67884,5.0591],[-75.6788,5.05915],[-75.67875,5.0592],[-75.67872,5.05925],[-75.67865,5.05931],[-75.67859,5.05936],[-75.67851,5.05941],[-75.67848,5.05945],[-75.67844,5.05949],[-75.67839,5.05951],[-75.67833,5.05956],[-75.67825,5.05961],[-75.67818,5.05964],[-75.67813,5.05967],[-75.67807,5.05972],[-75.67805,5.05974],[-75.67804,5.05975]]]},"properties":{"OBJECTID":4,"area_Ha":29.9644997492,"MUNICIPIO":"Palestina","Departamen":"Caldas","Subregion":"Centro sur","VEREDA":"Los Alpes","area_hidro":"Magdalena Cauca - Cauca","cuen_nom":"Río Chinchiná - SZH","micuen_nom":"Quebrada Carminales","Abaco_nom":"Bolivia","Coorde_X_1":822034.591973,"Coorde_Y_2":1051233.62245,"Cap_uso":"Cultivos densos y de semibosque; sistemas  agroforestales adaptados a las condiciones ecológicas. Cultivos densos, de semibosque; sistemas agroforestales.","bioma":"Zonobioma Húmedo Tropical del Cauca y Orobioma subandino cordillera central","zona_vida":"Bosque humedo premontano","Shape_Length":2539.4283428425133,"Shape_Area":299644.99749186606}},{"type":"Feature","id":5,"geometry":{"type":"Polygon","coordinates":[[[-75.67776,5.0552],[-75.67778,5.05523],[-75.67782,5.05531],[-75.67782,5.05545],[-75.67782,5.05558],[-75.67782,5.05571],[-75.67778,5.05579],[-75.67769,5.05584],[-75.67765,5.05593],[-75.67756,5.05597],[-75.67752,5.05606],[-75.67752,5.05619],[-75.67752,5.05632],[-75.67756,5.05641],[-75.67756,5.05654],[-75.67765,5.05662],[-75.67769,5.05671],[-75.67769,5.05684],[-75.67769,5.05691],[-75.67769,5.05697],[-75.67774,5.05706],[-75.67774,5.05719],[-75.67774,5.05732],[-75.67774,5.05745],[-75.67774,5.05758],[-75.67774,5.05771],[-75.67774,5.05779],[-75.67774,5.05785],[-75.67774,5.05798],[-75.67778,5.05806],[-75.67783,5.05815],[-75.67783,5.05815],[-75.67783,5.05815],[-75.67784,5.05817],[-75.67785,5.0582],[-75.67787,5.05822],[-75.67787,5.05822],[-75.67788,5.05824],[-75.67791,5.05828],[-75.67792,5.05831],[-75.67795,5.05835],[-75.67797,5.05838],[-75.67798,5.0584],[-75.678,5.05842],[-75.67804,5.0585],[-75.67813,5.05859],[-75.67818,5.05872],[-75.67822,5.0588],[-75.67822,5.05893],[-75.67818,5.05902],[-75.67818,5.05915],[-75.67813,5.05924],[-75.67809,5.05933],[-75.678,5.05937],[-75.67792,5.05946],[-75.67787,5.05959],[-75.67796,5.05963],[-75.678,5.05972],[-75.67804,5.05975],[-75.67805,5.05974],[-75.67807,5.05972],[-75.67813,5.05967],[-75.67818,5.05964],[-75.67825,5.05961],[-75.67833,5.05956],[-75.67839,5.05951],[-75.67844,5.05949],[-75.67848,5.05945],[-75.67851,5.05941],[-75.67859,5.05936],[-75.67865,5.05931],[-75.67872,5.05925],[-75.67875,5.0592],[-75.6788,5.05915],[-75.67884,5.0591],[-75.67889,5.05903],[-75.67894,5.05893],[-75.67897,5.05889],[-75.67901,5.05881],[-75.67905,5.05878],[-75.67913,5.05873],[-75.67918,5.05873],[-75.67926,5.05871],[-75.67932,5.05869],[-75.67935,5.05868],[-75.6794,5.05866],[-75.67946,5.0586],[-75.67949,5.05855],[-75.67952,5.05851],[-75.6796,5.05837],[-75.67966,5.05827],[-75.6797,5.05819],[-75.67973,5.05813],[-75.67978,5.05803],[-75.67983,5.0579],[-75.67986,5.05781],[-75.67989,5.05775],[-75.67992,5.05767],[-75.67997,5.05759],[-75.67999,5.05756],[-75.68004,5.05751],[-75.68008,5.05744],[-75.68014,5.05734],[-75.68021,5.05727],[-75.68023,5.05725],[-75.68027,5.05719],[-75.68036,5.05711],[-75.68042,5.05705],[-75.68049,5.05701],[-75.68055,5.05695],[-75.68058,5.05692],[-75.68064,5.05688],[-75.68071,5.05681],[-75.68076,5.05677],[-75.68081,5.05674],[-75.68088,5.05672],[-75.68101,5.05669],[-75.68112,5.05668],[-75.68126,5.05668],[-75.6814,5.05668],[-75.68147,5.05668],[-75.68153,5.05667],[-75.68166,5.05663],[-75.68171,5.05659],[-75.68173,5.05653],[-75.68179,5.05647],[-75.68183,5.05642],[-75.68188,5.05638],[-75.68192,5.05634],[-75.68196,5.0563],[-75.682,5.05626],[-75.68202,5.0562],[-75.68202,5.05614],[-75.68202,5.05608],[-75.68202,5.05602],[-75.68203,5.05596],[-75.68206,5.05588],[-75.68207,5.0558],[-75.6821,5.05573],[-75.68211,5.05565],[-75.68212,5.05559],[-75.68215,5.0555],[-75.68215,5.05546],[-75.68217,5.05539],[-75.68219,5.0553],[-75.68219,5.05512],[-75.68221,5.055],[-75.68222,5.05487],[-75.68223,5.05482],[-75.68224,5.05477],[-75.68225,5.05471],[-75.68227,5.05468],[-75.6823,5.05461],[-75.68233,5.05457],[-75.68237,5.05453],[-75.6824,5.05448],[-75.68245,5.05442],[-75.6825,5.05435],[-75.68253,5.05431],[-75.68255,5.05426],[-75.68258,5.0542],[-75.68259,5.05411],[-75.68261,5.05406],[-75.68264,5.05398],[-75.68265,5.05394],[-75.68269,5.05387],[-75.6827,5.0538],[-75.68269,5.05375],[-75.68269,5.0537],[-75.68269,5.05364],[-75.68269,5.05356],[-75.68269,5.0535],[-75.68269,5.05341],[-75.6827,5.05334],[-75.68271,5.05329],[-75.68272,5.05324],[-75.68275,5.05318],[-75.68276,5.05314],[-75.6828,5.05309],[-75.68285,5.05308],[-75.68294,5.05307],[-75.68303,5.05307],[-75.68308,5.05308],[-75.68308,5.05308],[-75.68308,5.05295],[-75.68308,5.05282],[-75.68299,5.05273],[-75.68295,5.05264],[-75.68286,5.0526],[-75.68282,5.05251],[-75.68282,5.05238],[-75.68282,5.05225],[-75.68277,5.05216],[-75.68268,5.05207],[-75.6826,5.05203],[-75.68251,5.05199],[-75.68249,5.05199],[-75.68248,5.05204],[-75.68249,5.05212],[-75.68248,5.05213],[-75.68246,5.0521],[-75.68236,5.05208],[-75.68227,5.05208],[-75.68219,5.05213],[-75.6821,5.05216],[-75.68202,5.0522],[-75.68193,5.05224],[-75.68185,5.05227],[-75.68176,5.0523],[-75.68168,5.05234],[-75.68159,5.05238],[-75.6815,5.05241],[-75.68142,5.05245],[-75.68133,5.05249],[-75.68125,5.05254],[-75.68118,5.0526],[-75.6811,5.05266],[-75.68102,5.05269],[-75.68094,5.05274],[-75.68086,5.05277],[-75.68077,5.0528],[-75.68069,5.05284],[-75.68059,5.05287],[-75.6805,5.0529],[-75.68041,5.05292],[-75.68035,5.05294],[-75.68032,5.05295],[-75.68023,5.05297],[-75.68014,5.05299],[-75.68004,5.05302],[-75.67997,5.05306],[-75.67987,5.05309],[-75.6798,5.05313],[-75.67971,5.05316],[-75.67963,5.0532],[-75.67955,5.05325],[-75.67946,5.05328],[-75.6794,5.0533],[-75.67937,5.0533],[-75.67929,5.05334],[-75.6792,5.05339],[-75.67911,5.05344],[-75.67905,5.0535],[-75.67898,5.05358],[-75.67894,5.05366],[-75.6789,5.05374],[-75.67885,5.05382],[-75.67879,5.05389],[-75.67872,5.05395],[-75.67866,5.05403],[-75.67861,5.05411],[-75.67854,5.05418],[-75.67847,5.05425],[-75.67841,5.05432],[-75.67839,5.05434],[-75.67835,5.05439],[-75.6783,5.05446],[-75.67826,5.05454],[-75.67822,5.05463],[-75.6782,5.05472],[-75.67819,5.05475],[-75.67817,5.05481],[-75.67814,5.05489],[-75.6781,5.05498],[-75.67811,5.05507],[-75.6781,5.05512],[-75.67805,5.05516],[-75.67797,5.05523],[-75.67787,5.05523],[-75.67777,5.0552],[-75.67776,5.0552]]]},"properties":{"OBJECTID":5,"area_Ha":26.2351614437,"MUNICIPIO":"Palestina","Departamen":"Caldas","Subregion":"Centro sur","VEREDA":"La Plata","area_hidro":"Magdalena Cauca - Cauca","cuen_nom":"Río Chinchiná - SZH","micuen_nom":"Quebrada Carminales","Abaco_nom":"Marruecos","Coorde_X_1":822270.434106,"Coorde_Y_2":1051001.0429,"Cap_uso":"Cultivos densos y de semibosque; sistemas  agroforestales adaptados a las condiciones ecológicas. Cultivos densos, de semibosque; sistemas agroforestales.","bioma":"Zonobioma Húmedo Tropical del Cauca y Orobioma subandino cordillera central","zona_vida":"Bosque humedo premontano","Shape_Length":2432.798753906678,"Shape_Area":262351.61443724204}},{"type":"Feature","id":6,"geometry":{"type":"Polygon","coordinates":[[[-75.67776,5.0552],[-75.67777,5.0552],[-75.67787,5.05523],[-75.67797,5.05523],[-75.67805,5.05516],[-75.6781,5.05512],[-75.67811,5.05507],[-75.6781,5.05498],[-75.67814,5.05489],[-75.67817,5.05481],[-75.67819,5.05475],[-75.6782,5.05472],[-75.67822,5.05463],[-75.67826,5.05454],[-75.6783,5.05446],[-75.67835,5.05439],[-75.67839,5.05434],[-75.67841,5.05432],[-75.67847,5.05425],[-75.67854,5.05418],[-75.67861,5.05411],[-75.67866,5.05403],[-75.67872,5.05395],[-75.67879,5.05389],[-75.67885,5.05382],[-75.6789,5.05374],[-75.67894,5.05366],[-75.67898,5.05358],[-75.67905,5.0535],[-75.67911,5.05344],[-75.6792,5.05339],[-75.67929,5.05334],[-75.67937,5.0533],[-75.6794,5.0533],[-75.67946,5.05328],[-75.67955,5.05325],[-75.67963,5.0532],[-75.67971,5.05316],[-75.6798,5.05313],[-75.67987,5.05309],[-75.67997,5.05306],[-75.68004,5.05302],[-75.68014,5.05299],[-75.68023,5.05297],[-75.68032,5.05295],[-75.68035,5.05294],[-75.68041,5.05292],[-75.6805,5.0529],[-75.68059,5.05287],[-75.68069,5.05284],[-75.68077,5.0528],[-75.68086,5.05277],[-75.68094,5.05274],[-75.68102,5.05269],[-75.6811,5.05266],[-75.68118,5.0526],[-75.68125,5.05254],[-75.68133,5.05249],[-75.68142,5.05245],[-75.6815,5.05241],[-75.68159,5.05238],[-75.68168,5.05234],[-75.68176,5.0523],[-75.68185,5.05227],[-75.68193,5.05224],[-75.68202,5.0522],[-75.6821,5.05216],[-75.68219,5.05213],[-75.68227,5.05208],[-75.68236,5.05208],[-75.68246,5.0521],[-75.68248,5.05213],[-75.68249,5.05212],[-75.68248,5.05204],[-75.68249,5.05199],[-75.6825,5.05195],[-75.68246,5.05187],[-75.68244,5.05178],[-75.68242,5.05172],[-75.68238,5.05165],[-75.68238,5.05159],[-75.6823,5.05146],[-75.6823,5.05137],[-75.68229,5.05126],[-75.68229,5.05119],[-75.68225,5.0511],[-75.68221,5.05104],[-75.68216,5.05099],[-75.68208,5.05095],[-75.68201,5.05091],[-75.68192,5.0509],[-75.68184,5.05086],[-75.68177,5.05084],[-75.6817,5.05081],[-75.68166,5.05079],[-75.68144,5.05068],[-75.68133,5.05059],[-75.68126,5.05052],[-75.68124,5.05042],[-75.68124,5.05031],[-75.68122,5.05024],[-75.68122,5.05015],[-75.68122,5.05007],[-75.68118,5.04998],[-75.68118,5.04991],[-75.68114,5.04979],[-75.68112,5.0497],[-75.68112,5.04963],[-75.68111,5.0495],[-75.68111,5.04944],[-75.68111,5.04931],[-75.68111,5.04922],[-75.68111,5.04905],[-75.68113,5.04892],[-75.68111,5.04881],[-75.68107,5.04868],[-75.68105,5.04861],[-75.68103,5.04851],[-75.68103,5.04846],[-75.68104,5.04831],[-75.681,5.04818],[-75.681,5.04812],[-75.68099,5.04801],[-75.68099,5.04792],[-75.68103,5.04785],[-75.68104,5.04775],[-75.68108,5.04768],[-75.68111,5.04761],[-75.68113,5.04751],[-75.68114,5.04744],[-75.68118,5.04735],[-75.6812,5.04728],[-75.68119,5.0472],[-75.68121,5.04711],[-75.68125,5.04704],[-75.68126,5.04696],[-75.6813,5.04689],[-75.68131,5.04682],[-75.68135,5.04673],[-75.68135,5.04667],[-75.68137,5.0466],[-75.6814,5.04649],[-75.6814,5.04638],[-75.6814,5.04631],[-75.68139,5.04618],[-75.68139,5.04609],[-75.68137,5.04602],[-75.68134,5.04596],[-75.68126,5.04587],[-75.68124,5.04583],[-75.68122,5.04576],[-75.68119,5.04569],[-75.68116,5.04552],[-75.68113,5.04543],[-75.68107,5.04529],[-75.68101,5.04518],[-75.68096,5.04512],[-75.68088,5.04503],[-75.68082,5.04494],[-75.68075,5.04484],[-75.68067,5.04476],[-75.6806,5.04465],[-75.68055,5.04459],[-75.68046,5.0446],[-75.6804,5.0446],[-75.68033,5.0446],[-75.68025,5.04467],[-75.6802,5.04475],[-75.68016,5.04484],[-75.68011,5.04496],[-75.68009,5.04505],[-75.68004,5.04518],[-75.67997,5.04534],[-75.67993,5.04543],[-75.67984,5.04558],[-75.67979,5.04573],[-75.67973,5.04591],[-75.6797,5.04605],[-75.67966,5.04615],[-75.67965,5.04631],[-75.67965,5.04651],[-75.67963,5.04658],[-75.67961,5.04671],[-75.67958,5.04686],[-75.67952,5.04699],[-75.67951,5.04708],[-75.67945,5.04719],[-75.67942,5.0473],[-75.67938,5.04741],[-75.67936,5.04752],[-75.67937,5.0476],[-75.67935,5.04774],[-75.67935,5.04789],[-75.67934,5.04802],[-75.67934,5.04811],[-75.67934,5.04824],[-75.67931,5.04843],[-75.67931,5.04852],[-75.67929,5.04862],[-75.67927,5.04869],[-75.67927,5.04878],[-75.67922,5.04884],[-75.67914,5.0489],[-75.67907,5.04895],[-75.67899,5.04903],[-75.67898,5.04907],[-75.6789,5.04918],[-75.67887,5.04928],[-75.67883,5.04935],[-75.67879,5.04941],[-75.67876,5.04947],[-75.67868,5.04955],[-75.67863,5.04962],[-75.67859,5.04968],[-75.67855,5.04978],[-75.6785,5.04989],[-75.67846,5.04997],[-75.67838,5.05008],[-75.67833,5.05016],[-75.67827,5.05028],[-75.67821,5.05035],[-75.67817,5.05041],[-75.67812,5.05047],[-75.67804,5.05051],[-75.67796,5.05057],[-75.67789,5.05061],[-75.67783,5.05064],[-75.67775,5.05068],[-75.6777,5.05076],[-75.67764,5.05082],[-75.6776,5.05089],[-75.67754,5.05097],[-75.67751,5.05103],[-75.67747,5.05111],[-75.67743,5.05119],[-75.67739,5.05125],[-75.67737,5.05133],[-75.67733,5.05145],[-75.67731,5.05153],[-75.67729,5.05161],[-75.67725,5.05173],[-75.6772,5.05189],[-75.67714,5.05199],[-75.67708,5.05213],[-75.67704,5.05223],[-75.67698,5.05236],[-75.67694,5.05246],[-75.67692,5.05255],[-75.67688,5.05263],[-75.67682,5.0528],[-75.67679,5.0529],[-75.67675,5.05299],[-75.67673,5.05305],[-75.67665,5.05318],[-75.67663,5.05324],[-75.67657,5.05333],[-75.67651,5.05342],[-75.67645,5.05353],[-75.6764,5.05359],[-75.67634,5.0537],[-75.67628,5.05379],[-75.6762,5.05388],[-75.67613,5.05401],[-75.67607,5.0541],[-75.67601,5.05419],[-75.67596,5.05428],[-75.67594,5.05437],[-75.67592,5.05443],[-75.67592,5.05446],[-75.67594,5.05454],[-75.676,5.05463],[-75.67606,5.05475],[-75.67612,5.05481],[-75.67626,5.0549],[-75.67633,5.05494],[-75.67639,5.05497],[-75.67651,5.05502],[-75.67662,5.05501],[-75.67674,5.05501],[-75.67688,5.05502],[-75.67696,5.05505],[-75.67702,5.05507],[-75.67721,5.05512],[-75.67739,5.05512],[-75.67751,5.05514],[-75.67763,5.05517],[-75.67771,5.05518],[-75.67776,5.0552]]]},"properties":{"OBJECTID":6,"area_Ha":33.3446574847,"MUNICIPIO":"Palestina","Departamen":"Caldas","Subregion":"Centro sur","VEREDA":"La Plata","area_hidro":"Magdalena Cauca - Cauca","cuen_nom":"Río Chinchiná - SZH","micuen_nom":"Quebrada Carminales","Abaco_nom":"Salamanca","Coorde_X_1":822340.600289,"Coorde_Y_2":1050482.77252,"Cap_uso":"Cultivos densos y de semibosque; sistemas  agroforestales adaptados a las condiciones ecológicas. Cultivos densos, de semibosque; sistemas agroforestales.","bioma":"Zonobioma Húmedo Tropical del Cauca y Orobioma subandino cordillera central","zona_vida":"Bosque humedo premontano","Shape_Length":3114.1016969443185,"Shape_Area":333446.57484698534}},{"type":"Feature","id":7,"geometry":{"type":"Polygon","coordinates":[[[-75.69329,5.06128],[-75.69329,5.06155],[-75.69329,5.06187],[-75.69336,5.062],[-75.69353,5.06214],[-75.6937,5.06217],[-75.69394,5.06217],[-75.69421,5.06215],[-75.69446,5.06207],[-75.69462,5.06202],[-75.69488,5.06186],[-75.69516,5.06171],[-75.69535,5.0616],[-75.69572,5.06134],[-75.69594,5.06125],[-75.69618,5.06118],[-75.69656,5.06111],[-75.69691,5.06114],[-75.6973,5.06117],[-75.69779,5.06116],[-75.69818,5.06119],[-75.69838,5.06104],[-75.69873,5.06082],[-75.69916,5.0606],[-75.69925,5.06055],[-75.69942,5.06041],[-75.69961,5.06024],[-75.69966,5.06002],[-75.69959,5.05982],[-75.69935,5.05968],[-75.69918,5.05954],[-75.69908,5.05939],[-75.69898,5.05908],[-75.69887,5.05872],[-75.69879,5.05841],[-75.69863,5.05812],[-75.69855,5.05785],[-75.69835,5.05763],[-75.69811,5.0575],[-75.69789,5.05727],[-75.6977,5.05697],[-75.69751,5.05679],[-75.69727,5.05666],[-75.69706,5.05655],[-75.69695,5.05652],[-75.69667,5.05641],[-75.69655,5.0563],[-75.69637,5.05617],[-75.69624,5.056],[-75.69594,5.05583],[-75.69565,5.05577],[-75.69517,5.05585],[-75.69505,5.05596],[-75.69501,5.05607],[-75.69499,5.05634],[-75.69488,5.05654],[-75.69484,5.05677],[-75.69476,5.05701],[-75.69468,5.05733],[-75.69466,5.05753],[-75.69462,5.05774],[-75.69456,5.0582],[-75.69439,5.05842],[-75.69422,5.05858],[-75.69406,5.05884],[-75.69402,5.05919],[-75.69387,5.05956],[-75.69374,5.05981],[-75.69355,5.06017],[-75.69351,5.0604],[-75.69345,5.06069],[-75.69337,5.06101],[-75.69329,5.06128]]]},"properties":{"OBJECTID":7,"area_Ha":29.415166231,"MUNICIPIO":"Palestina","Departamen":"Caldas","Subregion":"Centro sur","VEREDA":"Los Alpes","area_hidro":"Magdalena Cauca - Cauca","cuen_nom":"Río Campoalegre y otros directos Cauca - NSS","micuen_nom":"Quebrada Carminales","Abaco_nom":"La Graminia 1","Coorde_X_1":820476.69683,"Coorde_Y_2":1051423.31158,"Cap_uso":"Cafe a plena exposición","bioma":"Orobioma Subandino Cauca medio","zona_vida":"Bosque muy humedo premontano","Shape_Length":2257.4939375054237,"Shape_Area":294151.6623095483}}]}