{"type":"FeatureCollection","name":"RecargaAcuifero","crs":{"type":"name","properties":{"name":"urn:ogc:def:crs:OGC:1.3:CRS84"}},"features":[{"type":"Feature","id":1,"geometry":{"type":"Polygon","coordinates":[[[-75.69797,5.07579],[-75.69804,5.07596],[-75.6982,5.07821],[-75.69844,5.08077],[-75.69918,5.08071],[-75.69993,5.0805],[-75.70053,5.07776],[-75.70105,5.07424],[-75.70062,5.07218],[-75.69916,5.0691],[-75.69799,5.06772],[-75.69727,5.06687],[-75.69713,5.06533],[-75.69709,5.06494],[-75.69702,5.06412],[-75.69716,5.06354],[-75.69744,5.06241],[-75.69734,5.06088],[-75.69727,5.05975],[-75.69723,5.0597],[-75.69616,5.05855],[-75.69608,5.05809],[-75.69564,5.05564],[-75.69543,5.0549],[-75.69468,5.05239],[-75.69453,5.05186],[-75.69447,5.05168],[-75.69439,5.05142],[-75.69376,5.04929],[-75.69324,5.04672],[-75.69075,5.04518],[-75.68937,5.04433],[-75.68878,5.04397],[-75.68518,5.0414],[-75.68429,5.04075],[-75.68235,5.03934],[-75.67849,5.03874],[-75.67395,5.03892],[-75.67335,5.03851],[-75.67078,5.03677],[-75.6684,5.03554],[-75.66614,5.03437],[-75.66263,5.03317],[-75.66233,5.03313],[-75.66218,5.03312],[-75.65851,5.03266],[-75.65656,5.03209],[-75.65601,5.03193],[-75.65585,5.03188],[-75.65569,5.03178],[-75.65378,5.03061],[-75.65363,5.03051],[-75.65062,5.0294],[-75.64951,5.02974],[-75.64822,5.0324],[-75.64505,5.0366],[-75.64505,5.04236],[-75.64505,5.04741],[-75.64499,5.04762],[-75.64387,5.05123],[-75.64352,5.05239],[-75.64334,5.05298],[-75.64326,5.05569],[-75.64318,5.05881],[-75.64317,5.05919],[-75.64316,5.0595],[-75.64413,5.06066],[-75.64489,5.06157],[-75.64489,5.06156],[-75.64627,5.06316],[-75.64788,5.06498],[-75.64797,5.06512],[-75.64805,5.06521],[-75.64917,5.06698],[-75.6496,5.06764],[-75.64962,5.0677],[-75.64969,5.0678],[-75.65143,5.07108],[-75.65174,5.07159],[-75.65217,5.07364],[-75.6525,5.0757],[-75.65266,5.07661],[-75.65301,5.07765],[-75.65322,5.07793],[-75.65459,5.07678],[-75.65544,5.07585],[-75.65604,5.07514],[-75.65614,5.07508],[-75.6562,5.07502],[-75.65741,5.07428],[-75.65791,5.07397],[-75.65818,5.07365],[-75.65833,5.07273],[-75.65834,5.07261],[-75.65731,5.07193],[-75.65731,5.07188],[-75.65713,5.07176],[-75.65731,5.07102],[-75.65731,5.0709],[-75.65735,5.07086],[-75.65738,5.07073],[-75.65784,5.07037],[-75.6586,5.06961],[-75.65956,5.06831],[-75.6597,5.06812],[-75.65993,5.06779],[-75.66132,5.06528],[-75.66134,5.06524],[-75.66134,5.06524],[-75.66135,5.06524],[-75.66257,5.0633],[-75.66274,5.06234],[-75.66297,5.06102],[-75.66295,5.06081],[-75.66273,5.05916],[-75.6624,5.05874],[-75.66224,5.05854],[-75.66177,5.05795],[-75.66176,5.05791],[-75.6617,5.05783],[-75.66149,5.05704],[-75.66126,5.05632],[-75.66109,5.05221],[-75.66128,5.05221],[-75.66129,5.05213],[-75.66189,5.05221],[-75.66246,5.05221],[-75.66304,5.05245],[-75.6635,5.05264],[-75.66477,5.05289],[-75.66517,5.05299],[-75.66642,5.05324],[-75.66645,5.05331],[-75.66649,5.05332],[-75.66691,5.05422],[-75.66764,5.05578],[-75.66805,5.05594],[-75.66912,5.05608],[-75.67014,5.05621],[-75.67099,5.05631],[-75.671,5.05632],[-75.67103,5.05632],[-75.67203,5.05719],[-75.67208,5.05723],[-75.67211,5.05725],[-75.67419,5.05906],[-75.67485,5.05963],[-75.67558,5.06027],[-75.67547,5.06155],[-75.67552,5.06231],[-75.67542,5.06226],[-75.67532,5.06344],[-75.67559,5.06349],[-75.67622,5.06348],[-75.67622,5.06359],[-75.67623,5.0636],[-75.67767,5.06384],[-75.67829,5.06389],[-75.6794,5.0654],[-75.6805,5.06688],[-75.68253,5.06736],[-75.683,5.06746],[-75.68566,5.06761],[-75.68941,5.0678],[-75.69127,5.0679],[-75.6916,5.06803],[-75.69295,5.0685],[-75.69399,5.06866],[-75.6953,5.06884],[-75.69542,5.06934],[-75.69548,5.06959],[-75.69588,5.07128],[-75.69637,5.07198],[-75.69702,5.07278],[-75.69728,5.07375],[-75.69749,5.07438],[-75.69761,5.07473],[-75.69772,5.07509],[-75.69797,5.07578],[-75.69797,5.07579]]]},"properties":{"OBJECTID":1,"AREA_HA":1804.4336284279461,"ACUIFERO":"ACUIFERO SANTAGUEDA Y KILOMETRO 41","Autor":"Geosub_2009","Zona_Recar":"Alta","Shape_Length":24912.9430142926,"Shape_Area":18044336.284279462}},{"type":"Feature","id":2,"geometry":{"type":"Polygon","coordinates":[[[-75.68506,5.09199],[-75.68526,5.09178],[-75.68498,5.0917],[-75.68506,5.09199]]]},"properties":{"OBJECTID":2,"AREA_HA":0.04639369229699524,"ACUIFERO":"ACUIFERO SANTAGUEDA Y KILOMETRO 41","Autor":"LET_2017","Zona_Recar":"Baja","Shape_Length":98.21163673360576,"Shape_Area":463.9369229699524}},{"type":"Feature","id":3,"geometry":{"type":"Polygon","coordinates":[[[-75.68529,5.09152],[-75.6855,5.09131],[-75.68521,5.09123],[-75.68529,5.09152]]]},"properties":{"OBJECTID":3,"AREA_HA":0.04639364747702578,"ACUIFERO":"ACUIFERO SANTAGUEDA Y KILOMETRO 41","Autor":"LET_2017","Zona_Recar":"Baja","Shape_Length":98.2115927781874,"Shape_Area":463.93647477025786}},{"type":"Feature","id":4,"geometry":{"type":"Polygon","coordinates":[[[-75.6867,5.08987],[-75.6869,5.08966],[-75.68662,5.08958],[-75.6867,5.08987]]]},"properties":{"OBJECTID":4,"AREA_HA":0.04639353314928698,"ACUIFERO":"ACUIFERO SANTAGUEDA Y KILOMETRO 41","Autor":"LET_2017","Zona_Recar":"Baja","Shape_Length":98.21146925746075,"Shape_Area":463.9353314928698}},{"type":"Feature","id":5,"geometry":{"type":"Polygon","coordinates":[[[-75.68905,5.08846],[-75.68926,5.08806],[-75.68896,5.08793],[-75.68905,5.08846]]]},"properties":{"OBJECTID":5,"AREA_HA":0.09252241344013638,"ACUIFERO":"ACUIFERO SANTAGUEDA Y KILOMETRO 41","Autor":"LET_2017","Zona_Recar":"Moderada","Shape_Length":147.30661315629564,"Shape_Area":925.2241344013638}},{"type":"Feature","id":6,"geometry":{"type":"Polygon","coordinates":[[[-75.68567,5.0877],[-75.68585,5.08802],[-75.6867,5.08769],[-75.68633,5.08739],[-75.68567,5.0877]]]},"properties":{"OBJECTID":6,"AREA_HA":0.39336759929318044,"ACUIFERO":"ACUIFERO SANTAGUEDA Y KILOMETRO 41","Autor":"LET_2017","Zona_Recar":"Moderada","Shape_Length":274.19689104341364,"Shape_Area":3933.6759929318046}},{"type":"Feature","id":7,"geometry":{"type":"Polygon","coordinates":[[[-75.68567,5.0877],[-75.68549,5.08701],[-75.68487,5.08727],[-75.68567,5.0877]]]},"properties":{"OBJECTID":7,"AREA_HA":0.29145195268581103,"ACUIFERO":"ACUIFERO SANTAGUEDA Y KILOMETRO 41","Autor":"LET_2017","Zona_Recar":"Moderada","Shape_Length":254.43641284114196,"Shape_Area":2914.51952685811}},{"type":"Feature","id":8,"geometry":{"type":"Polygon","coordinates":[[[-75.68238,5.08653],[-75.68227,5.08666],[-75.68134,5.0875],[-75.68255,5.08805],[-75.6832,5.087],[-75.68238,5.08653]]]},"properties":{"OBJECTID":8,"AREA_HA":1.7726052900788662,"ACUIFERO":"ACUIFERO SANTAGUEDA Y KILOMETRO 41","Autor":"LET_2017","Zona_Recar":"Moderada","Shape_Length":546.5936606825982,"Shape_Area":17726.052900788658}},{"type":"Feature","id":9,"geometry":{"type":"Polygon","coordinates":[[[-75.68215,5.0863],[-75.68215,5.08653],[-75.68238,5.08653],[-75.68238,5.0863],[-75.68215,5.0863]]]},"properties":{"OBJECTID":9,"AREA_HA":0.06776174737834684,"ACUIFERO":"ACUIFERO SANTAGUEDA Y KILOMETRO 41","Autor":"LET_2017","Zona_Recar":"Moderada","Shape_Length":104.12434672340322,"Shape_Area":677.6174737834683}},{"type":"Feature","id":10,"geometry":{"type":"Polygon","coordinates":[[[-75.69001,5.08475],[-75.68953,5.08498],[-75.68931,5.08572],[-75.6898,5.08617],[-75.69027,5.08615],[-75.69023,5.08522],[-75.69093,5.08488],[-75.69012,5.08463],[-75.69001,5.08475]]]},"properties":{"OBJECTID":10,"AREA_HA":1.5144978945812533,"ACUIFERO":"ACUIFERO SANTAGUEDA Y KILOMETRO 41","Autor":"LET_2017","Zona_Recar":"Moderada","Shape_Length":572.1640062722187,"Shape_Area":15144.978945812534}},{"type":"Feature","id":11,"geometry":{"type":"Polygon","coordinates":[[[-75.68457,5.08352],[-75.68477,5.08331],[-75.68449,5.08323],[-75.68457,5.08352]]]},"properties":{"OBJECTID":11,"AREA_HA":0.04639341882893559,"ACUIFERO":"ACUIFERO SANTAGUEDA Y KILOMETRO 41","Autor":"LET_2017","Zona_Recar":"Moderada","Shape_Length":98.21134574481083,"Shape_Area":463.9341882893559}},{"type":"Feature","id":12,"geometry":{"type":"Polygon","coordinates":[[[-75.68762,5.08338],[-75.68836,5.08375],[-75.68856,5.08308],[-75.68754,5.08299],[-75.68762,5.08338]]]},"properties":{"OBJECTID":12,"AREA_HA":0.5912765869589339,"ACUIFERO":"ACUIFERO SANTAGUEDA Y KILOMETRO 41","Autor":"LET_2017","Zona_Recar":"Moderada","Shape_Length":327.1609164186525,"Shape_Area":5912.765869589339}},{"type":"Feature","id":13,"geometry":{"type":"Polygon","coordinates":[[[-75.68689,5.08353],[-75.68715,5.08311],[-75.6866,5.08299],[-75.68689,5.08353]]]},"properties":{"OBJECTID":13,"AREA_HA":0.1605368072315479,"ACUIFERO":"ACUIFERO SANTAGUEDA Y KILOMETRO 41","Autor":"LET_2017","Zona_Recar":"Moderada","Shape_Length":184.83218720634386,"Shape_Area":1605.368072315479}},{"type":"Feature","id":14,"geometry":{"type":"Polygon","coordinates":[[[-75.67932,5.08113],[-75.67955,5.08184],[-75.68036,5.08259],[-75.67941,5.08289],[-75.68004,5.08347],[-75.6804,5.08386],[-75.68038,5.08454],[-75.68111,5.08521],[-75.68085,5.08571],[-75.68087,5.08612],[-75.68215,5.0863],[-75.68265,5.0855],[-75.68215,5.08544],[-75.68151,5.08552],[-75.682,5.08468],[-75.68151,5.08429],[-75.68166,5.08305],[-75.68133,5.08264],[-75.68104,5.08241],[-75.68111,5.0818],[-75.68036,5.08149],[-75.68,5.08103],[-75.67966,5.08099],[-75.67932,5.08113]]]},"properties":{"OBJECTID":14,"AREA_HA":8.133724335168749,"ACUIFERO":"ACUIFERO SANTAGUEDA Y KILOMETRO 41","Autor":"LET_2017","Zona_Recar":"Moderada","Shape_Length":1851.360922560042,"Shape_Area":81337.24335168749}},{"type":"Feature","id":15,"geometry":{"type":"Polygon","coordinates":[[[-75.67791,5.08066],[-75.67817,5.08166],[-75.67865,5.08216],[-75.67918,5.08122],[-75.67932,5.08113],[-75.67932,5.08066],[-75.67791,5.08066]]]},"properties":{"OBJECTID":15,"AREA_HA":1.6625290488004367,"ACUIFERO":"ACUIFERO SANTAGUEDA Y KILOMETRO 41","Autor":"LET_2017","Zona_Recar":"Moderada","Shape_Length":538.3080568256033,"Shape_Area":16625.290488004368}},{"type":"Feature","id":16,"geometry":{"type":"Polygon","coordinates":[[[-75.67781,5.11912],[-75.67784,5.11913],[-75.68046,5.11677],[-75.68115,5.11643],[-75.68422,5.11512],[-75.68491,5.11394],[-75.68541,5.1132],[-75.68601,5.11194],[-75.68749,5.11017],[-75.68795,5.10875],[-75.68886,5.10697],[-75.68912,5.10624],[-75.68818,5.10688],[-75.68736,5.1066],[-75.68451,5.10693],[-75.68522,5.10555],[-75.68489,5.10524],[-75.68466,5.10334],[-75.68562,5.1024],[-75.68606,5.10241],[-75.68684,5.10214],[-75.68809,5.10149],[-75.6884,5.10049],[-75.68757,5.0997],[-75.68711,5.09922],[-75.68627,5.09842],[-75.68658,5.09782],[-75.68613,5.09695],[-75.68669,5.0953],[-75.68745,5.09417],[-75.68698,5.09393],[-75.68674,5.09366],[-75.68769,5.09275],[-75.68767,5.09193],[-75.68768,5.09157],[-75.68694,5.09086],[-75.68699,5.0904],[-75.68827,5.09106],[-75.68861,5.09047],[-75.68743,5.09009],[-75.68745,5.08896],[-75.68791,5.08852],[-75.68813,5.08828],[-75.68838,5.08805],[-75.68813,5.08781],[-75.6879,5.08733],[-75.6886,5.08735],[-75.68915,5.08677],[-75.68883,5.08616],[-75.68884,5.08569],[-75.68844,5.08492],[-75.68742,5.08571],[-75.68743,5.08652],[-75.68742,5.08722],[-75.68743,5.08781],[-75.68742,5.08856],[-75.68694,5.08899],[-75.68579,5.0884],[-75.68579,5.08876],[-75.68578,5.0896],[-75.68509,5.08993],[-75.68541,5.09088],[-75.68497,5.09087],[-75.68462,5.08946],[-75.68438,5.08876],[-75.68462,5.08806],[-75.68485,5.08734],[-75.68387,5.08736],[-75.68293,5.08785],[-75.68251,5.08882],[-75.68428,5.09052],[-75.68367,5.09112],[-75.68416,5.09158],[-75.68486,5.09231],[-75.68427,5.09288],[-75.68362,5.09356],[-75.68299,5.09323],[-75.6827,5.09324],[-75.68189,5.0953],[-75.68032,5.09661],[-75.67971,5.09725],[-75.67865,5.0976],[-75.67803,5.09824],[-75.67761,5.09914],[-75.67698,5.10007],[-75.67645,5.1017],[-75.67573,5.1029],[-75.6755,5.10361],[-75.67524,5.10413],[-75.67527,5.10573],[-75.67526,5.10597],[-75.67526,5.10597],[-75.67532,5.10604],[-75.67535,5.10609],[-75.67537,5.10614],[-75.67538,5.10619],[-75.67539,5.10625],[-75.67539,5.10632],[-75.67538,5.10638],[-75.67537,5.10643],[-75.67534,5.10649],[-75.67532,5.10653],[-75.67526,5.10661],[-75.67523,5.10665],[-75.6752,5.10671],[-75.67518,5.10678],[-75.67517,5.10685],[-75.67516,5.10693],[-75.67515,5.10701],[-75.67515,5.10709],[-75.67515,5.10717],[-75.67515,5.10725],[-75.67516,5.10733],[-75.67516,5.1074],[-75.67518,5.10748],[-75.6752,5.10754],[-75.67522,5.1076],[-75.67525,5.10765],[-75.67531,5.10772],[-75.67534,5.10776],[-75.67537,5.10782],[-75.6754,5.10787],[-75.67546,5.10805],[-75.67548,5.10811],[-75.67551,5.10816],[-75.67554,5.1082],[-75.6756,5.10828],[-75.67563,5.10832],[-75.67565,5.10838],[-75.67567,5.10845],[-75.67569,5.10853],[-75.67569,5.1086],[-75.6757,5.10869],[-75.6757,5.10877],[-75.67571,5.10902],[-75.67572,5.10919],[-75.67573,5.10927],[-75.67574,5.10935],[-75.67575,5.10943],[-75.67577,5.10949],[-75.6758,5.10956],[-75.67582,5.1096],[-75.67588,5.10968],[-75.67591,5.10972],[-75.67594,5.10978],[-75.67596,5.10985],[-75.67597,5.10992],[-75.67598,5.11],[-75.67599,5.11007],[-75.67599,5.11015],[-75.67599,5.11023],[-75.67599,5.11031],[-75.67598,5.11039],[-75.67597,5.11047],[-75.67596,5.11054],[-75.67594,5.11061],[-75.67591,5.11067],[-75.67588,5.11071],[-75.67582,5.11079],[-75.6758,5.11083],[-75.67577,5.1109],[-75.67575,5.11097],[-75.67574,5.11104],[-75.67573,5.11112],[-75.67572,5.11121],[-75.67572,5.11129],[-75.67571,5.11147],[-75.67571,5.11165],[-75.67571,5.11192],[-75.67571,5.11227],[-75.67572,5.11245],[-75.67573,5.11254],[-75.67573,5.11262],[-75.67574,5.1127],[-75.67576,5.11278],[-75.67578,5.11285],[-75.67581,5.11291],[-75.67583,5.11295],[-75.67589,5.11303],[-75.67592,5.11307],[-75.67594,5.11312],[-75.67596,5.11318],[-75.67596,5.11324],[-75.67597,5.1133],[-75.67596,5.11336],[-75.67595,5.11342],[-75.67592,5.11347],[-75.6759,5.11351],[-75.67586,5.11354],[-75.6758,5.11361],[-75.67577,5.11365],[-75.6757,5.11373],[-75.67567,5.11377],[-75.67563,5.1138],[-75.67555,5.11386],[-75.67552,5.11389],[-75.67541,5.11399],[-75.67537,5.11402],[-75.67531,5.11405],[-75.67525,5.11407],[-75.67518,5.11409],[-75.67511,5.1141],[-75.67489,5.11413],[-75.67481,5.11414],[-75.67475,5.11416],[-75.67469,5.11419],[-75.67464,5.11423],[-75.6746,5.11427],[-75.67451,5.11437],[-75.67443,5.11446],[-75.67439,5.1145],[-75.67436,5.11455],[-75.67434,5.11459],[-75.67433,5.11462],[-75.67433,5.11465],[-75.67433,5.11466],[-75.67433,5.11468],[-75.67433,5.11472],[-75.67433,5.11478],[-75.67434,5.11484],[-75.67435,5.11492],[-75.67438,5.11499],[-75.67441,5.11506],[-75.67447,5.11511],[-75.67454,5.11515],[-75.67461,5.11518],[-75.67469,5.1152],[-75.67484,5.11522],[-75.67491,5.11523],[-75.67498,5.11524],[-75.67504,5.11526],[-75.6751,5.11529],[-75.67514,5.11532],[-75.67517,5.11535],[-75.67524,5.11543],[-75.67531,5.11549],[-75.67534,5.11553],[-75.67537,5.11557],[-75.6754,5.11563],[-75.67542,5.1157],[-75.67543,5.11578],[-75.67544,5.11586],[-75.67545,5.11594],[-75.67545,5.11602],[-75.67545,5.1162],[-75.67545,5.11655],[-75.67546,5.11672],[-75.67546,5.11681],[-75.67547,5.11689],[-75.67548,5.11696],[-75.67549,5.11698],[-75.67693,5.11814],[-75.67717,5.11886],[-75.67721,5.11888],[-75.67727,5.1189],[-75.67732,5.11892],[-75.67736,5.11895],[-75.67739,5.11898],[-75.67781,5.11912]],[[-75.68506,5.09199],[-75.68498,5.0917],[-75.68526,5.09178],[-75.68506,5.09199]],[[-75.68529,5.09152],[-75.68521,5.09123],[-75.6855,5.09131],[-75.68529,5.09152]],[[-75.6867,5.08987],[-75.68662,5.08958],[-75.6869,5.08966],[-75.6867,5.08987]]]},"properties":{"OBJECTID":16,"AREA_HA":301.4505239683947,"ACUIFERO":"ACUIFERO SANTAGUEDA Y KILOMETRO 41","Autor":"LET_2017","Zona_Recar":"Moderada","Shape_Length":12516.193818720307,"Shape_Area":3014505.239683947}},{"type":"Feature","id":17,"geometry":{"type":"Polygon","coordinates":[[[-75.67633,5.08007],[-75.67652,5.08047],[-75.67705,5.08],[-75.6765,5.07972],[-75.67633,5.08007]]]},"properties":{"OBJECTID":17,"AREA_HA":0.33314863970979547,"ACUIFERO":"ACUIFERO SANTAGUEDA Y KILOMETRO 41","Autor":"LET_2017","Zona_Recar":"Moderada","Shape_Length":239.07376549922753,"Shape_Area":3331.4863970979545}},{"type":"Feature","id":18,"geometry":{"type":"Polygon","coordinates":[[[-75.69207,5.07926],[-75.69227,5.07906],[-75.69199,5.07898],[-75.69207,5.07926]]]},"properties":{"OBJECTID":18,"AREA_HA":0.04639364694304809,"ACUIFERO":"ACUIFERO SANTAGUEDA Y KILOMETRO 41","Autor":"LET_2017","Zona_Recar":"Baja","Shape_Length":98.21159221650848,"Shape_Area":463.9364694304809}},{"type":"Feature","id":19,"geometry":{"type":"Polygon","coordinates":[[[-75.68927,5.07935],[-75.69003,5.07966],[-75.68988,5.08073],[-75.69065,5.0803],[-75.69093,5.07928],[-75.69186,5.07941],[-75.69134,5.07858],[-75.69058,5.0787],[-75.69011,5.07851],[-75.68977,5.07912],[-75.68931,5.07905],[-75.68927,5.07935]]]},"properties":{"OBJECTID":19,"AREA_HA":2.931281071632968,"ACUIFERO":"ACUIFERO SANTAGUEDA Y KILOMETRO 41","Autor":"LET_2017","Zona_Recar":"Baja","Shape_Length":941.7915131821997,"Shape_Area":29312.81071632968}},{"type":"Feature","id":20,"geometry":{"type":"Polygon","coordinates":[[[-75.69307,5.07836],[-75.69396,5.07798],[-75.69339,5.07756],[-75.69307,5.07836]]]},"properties":{"OBJECTID":20,"AREA_HA":0.36028063035920443,"ACUIFERO":"ACUIFERO SANTAGUEDA Y KILOMETRO 41","Autor":"LET_2017","Zona_Recar":"Baja","Shape_Length":279.9657244891656,"Shape_Area":3602.8063035920445}},{"type":"Feature","id":21,"geometry":{"type":"Polygon","coordinates":[[[-75.69207,5.0783],[-75.69259,5.07858],[-75.69277,5.07719],[-75.69198,5.07709],[-75.69207,5.0783]]]},"properties":{"OBJECTID":21,"AREA_HA":1.048976004533182,"ACUIFERO":"ACUIFERO SANTAGUEDA Y KILOMETRO 41","Autor":"LET_2017","Zona_Recar":"Baja","Shape_Length":442.29447981038487,"Shape_Area":10489.76004533182}},{"type":"Feature","id":22,"geometry":{"type":"Polygon","coordinates":[[[-75.68931,5.07742],[-75.68976,5.07747],[-75.69068,5.07673],[-75.69185,5.07685],[-75.69106,5.07622],[-75.69045,5.07629],[-75.6901,5.07616],[-75.68931,5.07742]]]},"properties":{"OBJECTID":22,"AREA_HA":1.597736718899593,"ACUIFERO":"ACUIFERO SANTAGUEDA Y KILOMETRO 41","Autor":"LET_2017","Zona_Recar":"Baja","Shape_Length":696.9426007023928,"Shape_Area":15977.36718899593}},{"type":"Feature","id":23,"geometry":{"type":"Polygon","coordinates":[[[-75.68024,5.07649],[-75.68039,5.07698],[-75.68104,5.07608],[-75.68048,5.07595],[-75.68024,5.07649]]]},"properties":{"OBJECTID":23,"AREA_HA":0.4854929785725023,"ACUIFERO":"ACUIFERO SANTAGUEDA Y KILOMETRO 41","Autor":"LET_2017","Zona_Recar":"Moderada","Shape_Length":308.8333995083527,"Shape_Area":4854.929785725023}},{"type":"Feature","id":24,"geometry":{"type":"Polygon","coordinates":[[[-75.67791,5.08066],[-75.67802,5.08004],[-75.67851,5.08008],[-75.67942,5.07946],[-75.67871,5.07819],[-75.67877,5.07753],[-75.67838,5.07685],[-75.67873,5.07655],[-75.67898,5.07626],[-75.67893,5.0757],[-75.67813,5.07615],[-75.67827,5.07775],[-75.67751,5.07841],[-75.67709,5.07989],[-75.67757,5.0803],[-75.67778,5.08055],[-75.67791,5.08066]]]},"properties":{"OBJECTID":24,"AREA_HA":5.72793514748846,"ACUIFERO":"ACUIFERO SANTAGUEDA Y KILOMETRO 41","Autor":"LET_2017","Zona_Recar":"Moderada","Shape_Length":1407.4237958872957,"Shape_Area":57279.3514748846}},{"type":"Feature","id":25,"geometry":{"type":"Polygon","coordinates":[[[-75.68658,5.07546],[-75.68666,5.07575],[-75.68687,5.07554],[-75.68658,5.07546]]]},"properties":{"OBJECTID":25,"AREA_HA":0.046393691380843156,"ACUIFERO":"ACUIFERO SANTAGUEDA Y KILOMETRO 41","Autor":"LET_2017","Zona_Recar":"Baja","Shape_Length":98.21163575872808,"Shape_Area":463.9369138084316}},{"type":"Feature","id":26,"geometry":{"type":"Polygon","coordinates":[[[-75.68877,5.07551],[-75.68898,5.0753],[-75.68869,5.07522],[-75.68877,5.07551]]]},"properties":{"OBJECTID":26,"AREA_HA":0.04639341829448208,"ACUIFERO":"ACUIFERO SANTAGUEDA Y KILOMETRO 41","Autor":"LET_2017","Zona_Recar":"Baja","Shape_Length":98.21134518229763,"Shape_Area":463.93418294482086}},{"type":"Feature","id":27,"geometry":{"type":"Polygon","coordinates":[[[-75.68243,5.07364],[-75.68264,5.07343],[-75.68235,5.07335],[-75.68243,5.07364]]]},"properties":{"OBJECTID":27,"AREA_HA":0.04639330435450062,"ACUIFERO":"ACUIFERO SANTAGUEDA Y KILOMETRO 41","Autor":"LET_2017","Zona_Recar":"Moderada","Shape_Length":98.21122208060612,"Shape_Area":463.93304354500617}},{"type":"Feature","id":28,"geometry":{"type":"Polygon","coordinates":[[[-75.67422,5.07342],[-75.67442,5.07322],[-75.67414,5.07314],[-75.67422,5.07342]]]},"properties":{"OBJECTID":28,"AREA_HA":0.04639332918295844,"ACUIFERO":"ACUIFERO SANTAGUEDA Y KILOMETRO 41","Autor":"LET_2017","Zona_Recar":"Moderada","Shape_Length":98.21125782707695,"Shape_Area":463.9332918295844}},{"type":"Feature","id":29,"geometry":{"type":"Polygon","coordinates":[[[-75.67554,5.07337],[-75.67608,5.07307],[-75.67566,5.07282],[-75.67554,5.07337]]]},"properties":{"OBJECTID":29,"AREA_HA":0.1605356752221414,"ACUIFERO":"ACUIFERO SANTAGUEDA Y KILOMETRO 41","Autor":"LET_2017","Zona_Recar":"Baja","Shape_Length":184.83152566383728,"Shape_Area":1605.3567522214141}},{"type":"Feature","id":30,"geometry":{"type":"Polygon","coordinates":[[[-75.6818,5.07248],[-75.68243,5.07228],[-75.68164,5.07218],[-75.6818,5.07248]]]},"properties":{"OBJECTID":30,"AREA_HA":0.13581702555584324,"ACUIFERO":"ACUIFERO SANTAGUEDA Y KILOMETRO 41","Autor":"LET_2017","Zona_Recar":"Moderada","Shape_Length":198.54474928337896,"Shape_Area":1358.1702555584325}},{"type":"Feature","id":31,"geometry":{"type":"Polygon","coordinates":[[[-75.68277,5.07267],[-75.68338,5.07249],[-75.68258,5.07194],[-75.68277,5.07267]]]},"properties":{"OBJECTID":31,"AREA_HA":0.2959184977558542,"ACUIFERO":"ACUIFERO SANTAGUEDA Y KILOMETRO 41","Autor":"LET_2017","Zona_Recar":"Moderada","Shape_Length":262.2649360098093,"Shape_Area":2959.1849775585424}},{"type":"Feature","id":32,"geometry":{"type":"Polygon","coordinates":[[[-75.67093,5.07178],[-75.67113,5.07158],[-75.67085,5.0715],[-75.67093,5.07178]]]},"properties":{"OBJECTID":32,"AREA_HA":0.04639325953225178,"ACUIFERO":"ACUIFERO SANTAGUEDA Y KILOMETRO 41","Autor":"LET_2017","Zona_Recar":"Moderada","Shape_Length":98.21117812217247,"Shape_Area":463.9325953225178}},{"type":"Feature","id":33,"geometry":{"type":"Polygon","coordinates":[[[-75.66743,5.07111],[-75.66764,5.0705],[-75.66732,5.07033],[-75.66743,5.07111]]]},"properties":{"OBJECTID":33,"AREA_HA":0.13987157343987694,"ACUIFERO":"ACUIFERO SANTAGUEDA Y KILOMETRO 41","Autor":"LET_2017","Zona_Recar":"Moderada","Shape_Length":197.49732463951648,"Shape_Area":1398.7157343987694}},{"type":"Feature","id":34,"geometry":{"type":"Polygon","coordinates":[[[-75.68054,5.07158],[-75.68123,5.07228],[-75.68198,5.07134],[-75.68373,5.07108],[-75.68439,5.07116],[-75.68503,5.06951],[-75.68445,5.06935],[-75.68435,5.06948],[-75.68378,5.06994],[-75.68151,5.07016],[-75.6813,5.07043],[-75.68057,5.07064],[-75.68061,5.071],[-75.68054,5.07158]]]},"properties":{"OBJECTID":34,"AREA_HA":6.984379981872633,"ACUIFERO":"ACUIFERO SANTAGUEDA Y KILOMETRO 41","Autor":"LET_2017","Zona_Recar":"Moderada","Shape_Length":1353.5050526938057,"Shape_Area":69843.79981872633}},{"type":"Feature","id":35,"geometry":{"type":"Polygon","coordinates":[[[-75.67413,5.06961],[-75.67441,5.06953],[-75.67421,5.06932],[-75.67413,5.06961]]]},"properties":{"OBJECTID":35,"AREA_HA":0.0463931452107759,"ACUIFERO":"ACUIFERO SANTAGUEDA Y KILOMETRO 41","Autor":"LET_2017","Zona_Recar":"Baja","Shape_Length":98.21105460780998,"Shape_Area":463.931452107759}},{"type":"Feature","id":36,"geometry":{"type":"MultiPolygon","coordinates":[[[[-75.68658,5.07546],[-75.68598,5.07557],[-75.68606,5.07645],[-75.6872,5.07602],[-75.68716,5.07652],[-75.68747,5.07708],[-75.68711,5.07807],[-75.68757,5.07889],[-75.68667,5.07882],[-75.68673,5.0795],[-75.68742,5.0798],[-75.68764,5.0801],[-75.68716,5.08052],[-75.68766,5.08074],[-75.68811,5.081],[-75.68867,5.08124],[-75.68916,5.0812],[-75.68904,5.08284],[-75.68935,5.0834],[-75.69026,5.08332],[-75.69021,5.08264],[-75.69073,5.08219],[-75.69027,5.08094],[-75.69165,5.08052],[-75.6922,5.07962],[-75.69257,5.08004],[-75.69285,5.08002],[-75.69346,5.07864],[-75.69561,5.07839],[-75.69526,5.07917],[-75.69529,5.07915],[-75.69533,5.07911],[-75.69536,5.07908],[-75.69542,5.079],[-75.69545,5.07896],[-75.69549,5.07893],[-75.69557,5.07887],[-75.6956,5.07883],[-75.69564,5.0788],[-75.6957,5.07872],[-75.69573,5.07868],[-75.69577,5.07865],[-75.69585,5.07859],[-75.69588,5.07855],[-75.69591,5.07852],[-75.69598,5.07844],[-75.69601,5.0784],[-75.69605,5.07837],[-75.69612,5.07831],[-75.69616,5.07827],[-75.69619,5.07824],[-75.69625,5.07816],[-75.69629,5.07812],[-75.69632,5.07809],[-75.6964,5.07803],[-75.69644,5.07799],[-75.69647,5.07796],[-75.69653,5.07788],[-75.69656,5.07784],[-75.69666,5.07773],[-75.69669,5.07769],[-75.69672,5.07764],[-75.69674,5.07759],[-75.6968,5.0774],[-75.69682,5.07735],[-75.69685,5.0773],[-75.69688,5.07726],[-75.69692,5.07722],[-75.69699,5.07715],[-75.69706,5.07708],[-75.69709,5.07705],[-75.69713,5.07702],[-75.69719,5.07699],[-75.69726,5.07697],[-75.69733,5.07696],[-75.69741,5.07695],[-75.69749,5.07694],[-75.69773,5.07692],[-75.69781,5.07691],[-75.69788,5.07691],[-75.69796,5.07689],[-75.69802,5.07688],[-75.69807,5.07686],[-75.69797,5.07579],[-75.69762,5.07493],[-75.69756,5.07472],[-75.69678,5.07462],[-75.6952,5.07372],[-75.69435,5.07475],[-75.69237,5.07496],[-75.69161,5.07463],[-75.69122,5.07416],[-75.69091,5.07438],[-75.69052,5.07485],[-75.68927,5.07441],[-75.68905,5.07368],[-75.68812,5.07327],[-75.68806,5.07276],[-75.68837,5.0725],[-75.68831,5.07195],[-75.68913,5.07096],[-75.68974,5.07061],[-75.69073,5.07132],[-75.69093,5.0711],[-75.69019,5.06993],[-75.69025,5.06936],[-75.68989,5.06853],[-75.68951,5.06899],[-75.68938,5.0691],[-75.68919,5.06971],[-75.68785,5.06968],[-75.68737,5.07018],[-75.68741,5.07172],[-75.68653,5.07205],[-75.68701,5.07063],[-75.68644,5.07064],[-75.68645,5.07016],[-75.68618,5.0699],[-75.68528,5.06996],[-75.68599,5.07064],[-75.68598,5.07134],[-75.68599,5.07193],[-75.68598,5.07252],[-75.68645,5.07251],[-75.68693,5.07276],[-75.68692,5.07323],[-75.68739,5.07457],[-75.68644,5.07487],[-75.68646,5.07369],[-75.68633,5.07346],[-75.68599,5.07417],[-75.68575,5.07464],[-75.68599,5.07487],[-75.68622,5.07511],[-75.68646,5.07534],[-75.68658,5.07546],[-75.68687,5.07554],[-75.68666,5.07575],[-75.68658,5.07546]],[[-75.68931,5.07742],[-75.6901,5.07616],[-75.69045,5.07629],[-75.69106,5.07622],[-75.69185,5.07685],[-75.69068,5.07673],[-75.68976,5.07747],[-75.68931,5.07742]],[[-75.69198,5.07709],[-75.69277,5.07719],[-75.69259,5.07858],[-75.69207,5.0783],[-75.69198,5.07709]],[[-75.69339,5.07756],[-75.69396,5.07798],[-75.69307,5.07836],[-75.69339,5.07756]],[[-75.69186,5.07941],[-75.69093,5.07928],[-75.69065,5.0803],[-75.68988,5.08073],[-75.69003,5.07966],[-75.68927,5.07935],[-75.68931,5.07905],[-75.68977,5.07912],[-75.69011,5.07851],[-75.69058,5.0787],[-75.69134,5.07858],[-75.69186,5.07941]],[[-75.69199,5.07898],[-75.69227,5.07906],[-75.69207,5.07926],[-75.69199,5.07898]],[[-75.68898,5.0753],[-75.68877,5.07551],[-75.68869,5.07522],[-75.68898,5.0753]]],[[[-75.68931,5.10683],[-75.68961,5.10728],[-75.68961,5.10715],[-75.68961,5.10698],[-75.6896,5.1069],[-75.6896,5.10682],[-75.68958,5.10674],[-75.68956,5.10667],[-75.68954,5.10661],[-75.68951,5.10657],[-75.68945,5.10649],[-75.68942,5.10645],[-75.68939,5.1064],[-75.68937,5.10634],[-75.68935,5.1063],[-75.68931,5.10683]]]]},"properties":{"OBJECTID":36,"AREA_HA":80.60066507069529,"ACUIFERO":"ACUIFERO SANTAGUEDA Y KILOMETRO 41","Autor":"LET_2017","Zona_Recar":"Moderada","Shape_Length":10741.125348621723,"Shape_Area":806006.6507069529}},{"type":"Feature","id":37,"geometry":{"type":"Polygon","coordinates":[[[-75.67718,5.07031],[-75.67731,5.06976],[-75.67804,5.0695],[-75.67793,5.06916],[-75.6773,5.06936],[-75.67674,5.06918],[-75.6769,5.06866],[-75.67672,5.0681],[-75.67557,5.06862],[-75.67569,5.06902],[-75.67506,5.07038],[-75.67527,5.07105],[-75.67586,5.07063],[-75.67686,5.07045],[-75.67718,5.07031]]]},"properties":{"OBJECTID":37,"AREA_HA":4.967590436197246,"ACUIFERO":"ACUIFERO SANTAGUEDA Y KILOMETRO 41","Autor":"LET_2017","Zona_Recar":"Baja","Shape_Length":1116.0301595337266,"Shape_Area":49675.904361972454}},{"type":"Feature","id":38,"geometry":{"type":"Polygon","coordinates":[[[-75.6785,5.06853],[-75.67912,5.06786],[-75.67835,5.06771],[-75.6785,5.06853]]]},"properties":{"OBJECTID":38,"AREA_HA":0.36853045962802966,"ACUIFERO":"ACUIFERO SANTAGUEDA Y KILOMETRO 41","Autor":"LET_2017","Zona_Recar":"Baja","Shape_Length":278.3216112853661,"Shape_Area":3685.3045962802967}},{"type":"Feature","id":39,"geometry":{"type":"Polygon","coordinates":[[[-75.66333,5.06846],[-75.66344,5.06809],[-75.6639,5.06814],[-75.664,5.06717],[-75.66271,5.06766],[-75.66277,5.0683],[-75.66333,5.06846]]]},"properties":{"OBJECTID":39,"AREA_HA":1.2360124493652163,"ACUIFERO":"ACUIFERO SANTAGUEDA Y KILOMETRO 41","Autor":"LET_2017","Zona_Recar":"Moderada","Shape_Length":488.8936828586029,"Shape_Area":12360.124493652162}},{"type":"Feature","id":40,"geometry":{"type":"Polygon","coordinates":[[[-75.67232,5.06731],[-75.67253,5.0671],[-75.67224,5.06702],[-75.67232,5.06731]]]},"properties":{"OBJECTID":40,"AREA_HA":0.04639310039155909,"ACUIFERO":"ACUIFERO SANTAGUEDA Y KILOMETRO 41","Autor":"LET_2017","Zona_Recar":"Baja","Shape_Length":98.21101065258514,"Shape_Area":463.9310039155909}},{"type":"Feature","id":41,"geometry":{"type":"Polygon","coordinates":[[[-75.67093,5.06709],[-75.67114,5.06669],[-75.67083,5.06656],[-75.67093,5.06709]]]},"properties":{"OBJECTID":41,"AREA_HA":0.09252084072512123,"ACUIFERO":"ACUIFERO SANTAGUEDA Y KILOMETRO 41","Autor":"LET_2017","Zona_Recar":"Moderada","Shape_Length":147.30543081850806,"Shape_Area":925.2084072512123}},{"type":"Feature","id":42,"geometry":{"type":"Polygon","coordinates":[[[-75.66333,5.06846],[-75.66298,5.06907],[-75.66272,5.06875],[-75.66203,5.06883],[-75.66141,5.06847],[-75.66066,5.06937],[-75.66139,5.06997],[-75.66107,5.07024],[-75.66113,5.07082],[-75.66229,5.07116],[-75.66258,5.07151],[-75.66452,5.07077],[-75.66414,5.07047],[-75.66393,5.07016],[-75.66535,5.0703],[-75.66532,5.06998],[-75.66534,5.0697],[-75.66484,5.06928],[-75.6654,5.06858],[-75.66602,5.07023],[-75.66645,5.07044],[-75.66672,5.0695],[-75.66716,5.06873],[-75.66623,5.06833],[-75.6663,5.06762],[-75.66555,5.0674],[-75.66522,5.06629],[-75.66442,5.06576],[-75.66369,5.06673],[-75.66432,5.06666],[-75.66475,5.06811],[-75.66424,5.0688],[-75.66333,5.06846]]]},"properties":{"OBJECTID":42,"AREA_HA":17.95293094623829,"ACUIFERO":"ACUIFERO SANTAGUEDA Y KILOMETRO 41","Autor":"LET_2017","Zona_Recar":"Moderada","Shape_Length":3071.0277999158516,"Shape_Area":179529.3094623829}},{"type":"Feature","id":43,"geometry":{"type":"Polygon","coordinates":[[[-75.67247,5.06593],[-75.67328,5.06506],[-75.67271,5.0649],[-75.67247,5.06593]]]},"properties":{"OBJECTID":43,"AREA_HA":0.3823372424581859,"ACUIFERO":"ACUIFERO SANTAGUEDA Y KILOMETRO 41","Autor":"LET_2017","Zona_Recar":"Baja","Shape_Length":314.4457117179275,"Shape_Area":3823.372424581859}},{"type":"Feature","id":44,"geometry":{"type":"Polygon","coordinates":[[[-75.66361,5.0641],[-75.66381,5.0645],[-75.66434,5.06403],[-75.66379,5.06375],[-75.66361,5.0641]]]},"properties":{"OBJECTID":44,"AREA_HA":0.33314405560727756,"ACUIFERO":"ACUIFERO SANTAGUEDA Y KILOMETRO 41","Autor":"LET_2017","Zona_Recar":"Moderada","Shape_Length":239.07215559923515,"Shape_Area":3331.4405560727755}},{"type":"Feature","id":45,"geometry":{"type":"Polygon","coordinates":[[[-75.66577,5.05887],[-75.66637,5.05912],[-75.66619,5.05868],[-75.6663,5.05842],[-75.66565,5.05833],[-75.66577,5.05887]]]},"properties":{"OBJECTID":45,"AREA_HA":0.3979280373659472,"ACUIFERO":"ACUIFERO SANTAGUEDA Y KILOMETRO 41","Autor":"LET_2017","Zona_Recar":"Moderada","Shape_Length":289.7682452377819,"Shape_Area":3979.280373659472}},{"type":"Feature","id":46,"geometry":{"type":"Polygon","coordinates":[[[-75.67554,5.07337],[-75.67565,5.0735],[-75.67592,5.07371],[-75.67584,5.07423],[-75.67798,5.07454],[-75.67803,5.07419],[-75.67799,5.07395],[-75.6781,5.07318],[-75.67725,5.07331],[-75.67617,5.07248],[-75.67607,5.0718],[-75.67635,5.07112],[-75.67708,5.07091],[-75.67718,5.07031],[-75.67686,5.07045],[-75.67586,5.07063],[-75.67527,5.07105],[-75.67506,5.07038],[-75.67569,5.06902],[-75.67557,5.06862],[-75.67672,5.0681],[-75.6769,5.06866],[-75.67674,5.06918],[-75.6773,5.06936],[-75.67793,5.06916],[-75.67804,5.0695],[-75.67731,5.06976],[-75.67718,5.07031],[-75.67755,5.07041],[-75.67807,5.07072],[-75.67797,5.07149],[-75.67875,5.07205],[-75.67869,5.07159],[-75.67907,5.07137],[-75.67941,5.07329],[-75.67993,5.07322],[-75.67987,5.07276],[-75.68017,5.07196],[-75.67937,5.07086],[-75.67943,5.07035],[-75.68055,5.06988],[-75.67957,5.06946],[-75.67968,5.0686],[-75.68036,5.06831],[-75.68073,5.06784],[-75.67913,5.06756],[-75.67918,5.06711],[-75.67751,5.06691],[-75.67718,5.06575],[-75.67582,5.06518],[-75.67542,5.06437],[-75.67623,5.06372],[-75.67622,5.06359],[-75.67559,5.06349],[-75.67529,5.06349],[-75.67528,5.06254],[-75.67497,5.06239],[-75.67515,5.06212],[-75.67542,5.06226],[-75.67544,5.06201],[-75.67547,5.06155],[-75.67539,5.06011],[-75.67419,5.05906],[-75.67371,5.05865],[-75.67208,5.05723],[-75.67128,5.05667],[-75.67118,5.0568],[-75.67092,5.05701],[-75.67071,5.05774],[-75.66945,5.05864],[-75.6698,5.05892],[-75.66973,5.05955],[-75.67005,5.06067],[-75.67089,5.06134],[-75.67163,5.06228],[-75.67116,5.06266],[-75.67096,5.06302],[-75.67149,5.06336],[-75.67197,5.06276],[-75.67182,5.06405],[-75.67233,5.06446],[-75.67187,5.06525],[-75.67167,5.06598],[-75.6714,5.06644],[-75.67185,5.06721],[-75.67146,5.0676],[-75.67008,5.06679],[-75.66975,5.06722],[-75.66986,5.06812],[-75.67152,5.06791],[-75.67141,5.06879],[-75.67144,5.06903],[-75.67136,5.06967],[-75.67206,5.07062],[-75.6714,5.0709],[-75.67168,5.07113],[-75.67189,5.07139],[-75.67228,5.0717],[-75.6726,5.07211],[-75.67306,5.07177],[-75.67249,5.07131],[-75.67312,5.07022],[-75.67261,5.06981],[-75.67238,5.06918],[-75.67285,5.0688],[-75.67323,5.06832],[-75.67301,5.06662],[-75.67354,5.06668],[-75.67406,5.06638],[-75.67493,5.06656],[-75.67423,5.06712],[-75.67402,5.06739],[-75.67349,5.06781],[-75.67417,5.06874],[-75.67353,5.06901],[-75.67308,5.06985],[-75.67413,5.06961],[-75.67421,5.06932],[-75.67441,5.06953],[-75.67413,5.06961],[-75.67423,5.06998],[-75.6745,5.07042],[-75.67472,5.07323],[-75.67554,5.07337],[-75.67566,5.07282],[-75.67608,5.07307],[-75.67554,5.07337]],[[-75.6785,5.06853],[-75.67835,5.06771],[-75.67912,5.06786],[-75.6785,5.06853]],[[-75.67247,5.06593],[-75.67271,5.0649],[-75.67328,5.06506],[-75.67247,5.06593]],[[-75.67205,5.06146],[-75.67184,5.06166],[-75.67176,5.06138],[-75.67205,5.06146]],[[-75.67232,5.06731],[-75.67224,5.06702],[-75.67253,5.0671],[-75.67232,5.06731]]]},"properties":{"OBJECTID":46,"AREA_HA":92.67567617641592,"ACUIFERO":"ACUIFERO SANTAGUEDA Y KILOMETRO 41","Autor":"LET_2017","Zona_Recar":"Moderada","Shape_Length":11814.227128135213,"Shape_Area":926756.7617641592}},{"type":"Feature","id":47,"geometry":{"type":"MultiPolygon","coordinates":[[[[-75.6755,5.11703],[-75.67553,5.11709],[-75.67555,5.11714],[-75.67561,5.11722],[-75.67564,5.11726],[-75.67567,5.11731],[-75.67569,5.11737],[-75.67575,5.11755],[-75.67578,5.1176],[-75.67581,5.11765],[-75.67584,5.11769],[-75.67594,5.11779],[-75.67598,5.11783],[-75.67604,5.11791],[-75.67607,5.11795],[-75.67611,5.11798],[-75.67618,5.11804],[-75.67622,5.11807],[-75.67625,5.11811],[-75.67631,5.11819],[-75.67635,5.11822],[-75.67638,5.11826],[-75.67646,5.11832],[-75.6765,5.11835],[-75.67653,5.11839],[-75.67659,5.11847],[-75.67663,5.1185],[-75.67666,5.11854],[-75.67674,5.1186],[-75.67678,5.11863],[-75.67688,5.11873],[-75.67692,5.11876],[-75.67697,5.11879],[-75.67703,5.11882],[-75.67717,5.11886],[-75.67693,5.11814],[-75.67549,5.11698],[-75.6755,5.11703]]],[[[-75.67744,5.11901],[-75.67748,5.11904],[-75.67754,5.11907],[-75.6776,5.11909],[-75.67767,5.1191],[-75.67781,5.11912],[-75.67739,5.11898],[-75.67744,5.11901]]],[[[-75.68938,5.0691],[-75.68951,5.06899],[-75.68989,5.06853],[-75.69025,5.06936],[-75.69019,5.06993],[-75.69093,5.0711],[-75.69073,5.07132],[-75.68974,5.07061],[-75.68913,5.07096],[-75.68831,5.07195],[-75.68837,5.0725],[-75.68806,5.07276],[-75.68812,5.07327],[-75.68905,5.07368],[-75.68927,5.07441],[-75.69052,5.07485],[-75.69091,5.07438],[-75.69122,5.07416],[-75.69161,5.07463],[-75.69237,5.07496],[-75.69435,5.07475],[-75.6952,5.07372],[-75.69678,5.07462],[-75.69756,5.07472],[-75.69728,5.07375],[-75.69703,5.07295],[-75.69637,5.07198],[-75.6959,5.07141],[-75.69548,5.06959],[-75.6953,5.06887],[-75.69399,5.06866],[-75.69322,5.06855],[-75.69281,5.0685],[-75.69268,5.06845],[-75.6916,5.06803],[-75.69126,5.06791],[-75.68566,5.06761],[-75.68304,5.06747],[-75.683,5.06746],[-75.68293,5.06746],[-75.68253,5.06736],[-75.68055,5.06695],[-75.6805,5.06688],[-75.68049,5.06688],[-75.6794,5.0654],[-75.67832,5.06395],[-75.67767,5.06384],[-75.67623,5.06372],[-75.67542,5.06437],[-75.67582,5.06518],[-75.67718,5.06575],[-75.67751,5.06691],[-75.67918,5.06711],[-75.67913,5.06756],[-75.68073,5.06784],[-75.68036,5.06831],[-75.67968,5.0686],[-75.67957,5.06946],[-75.68055,5.06988],[-75.67943,5.07035],[-75.67937,5.07086],[-75.68017,5.07196],[-75.67987,5.07276],[-75.67993,5.07322],[-75.67941,5.07329],[-75.67907,5.07137],[-75.67869,5.07159],[-75.67875,5.07205],[-75.67797,5.07149],[-75.67807,5.07072],[-75.67755,5.07041],[-75.67718,5.07031],[-75.67708,5.07091],[-75.67635,5.07112],[-75.67607,5.0718],[-75.67617,5.07248],[-75.67725,5.07331],[-75.6781,5.07318],[-75.67799,5.07395],[-75.67803,5.07419],[-75.67798,5.07454],[-75.67584,5.07423],[-75.67592,5.07371],[-75.67565,5.0735],[-75.67554,5.07337],[-75.67472,5.07323],[-75.6745,5.07042],[-75.67423,5.06998],[-75.67413,5.06961],[-75.67308,5.06985],[-75.67353,5.06901],[-75.67417,5.06874],[-75.67349,5.06781],[-75.67402,5.06739],[-75.67423,5.06712],[-75.67493,5.06656],[-75.67406,5.06638],[-75.67354,5.06668],[-75.67301,5.06662],[-75.67323,5.06832],[-75.67285,5.0688],[-75.67238,5.06918],[-75.67261,5.06981],[-75.67312,5.07022],[-75.67249,5.07131],[-75.67306,5.07177],[-75.6726,5.07211],[-75.67228,5.0717],[-75.67189,5.07139],[-75.67168,5.07113],[-75.6714,5.0709],[-75.67206,5.07062],[-75.67136,5.06967],[-75.67144,5.06903],[-75.67141,5.06879],[-75.67152,5.06791],[-75.66986,5.06812],[-75.66975,5.06722],[-75.67008,5.06679],[-75.67146,5.0676],[-75.67185,5.06721],[-75.6714,5.06644],[-75.67167,5.06598],[-75.67187,5.06525],[-75.67233,5.06446],[-75.67182,5.06405],[-75.67197,5.06276],[-75.67149,5.06336],[-75.67096,5.06302],[-75.67116,5.06266],[-75.67163,5.06228],[-75.67089,5.06134],[-75.67005,5.06067],[-75.66973,5.05955],[-75.6698,5.05892],[-75.66945,5.05864],[-75.67071,5.05774],[-75.67092,5.05701],[-75.67118,5.0568],[-75.67128,5.05667],[-75.671,5.05632],[-75.67014,5.05621],[-75.66809,5.05596],[-75.66805,5.05594],[-75.66769,5.05589],[-75.66764,5.05578],[-75.66752,5.05574],[-75.66763,5.05634],[-75.66804,5.05666],[-75.66821,5.05781],[-75.66777,5.05838],[-75.66739,5.05775],[-75.66717,5.05722],[-75.6667,5.05729],[-75.66625,5.05722],[-75.66593,5.05763],[-75.66531,5.05726],[-75.66434,5.05706],[-75.66441,5.05654],[-75.66368,5.05666],[-75.66276,5.05542],[-75.66249,5.05443],[-75.66155,5.05374],[-75.66118,5.05364],[-75.6613,5.05635],[-75.66149,5.05704],[-75.66176,5.05791],[-75.6624,5.05874],[-75.6628,5.05924],[-75.66295,5.06081],[-75.66298,5.06099],[-75.66297,5.06102],[-75.66297,5.06104],[-75.66288,5.06155],[-75.66274,5.06234],[-75.66257,5.06329],[-75.66257,5.0633],[-75.66254,5.06344],[-75.66135,5.06524],[-75.66134,5.06524],[-75.65997,5.06773],[-75.65993,5.06779],[-75.65989,5.06785],[-75.6597,5.06812],[-75.65956,5.06831],[-75.65959,5.06835],[-75.65965,5.06842],[-75.65967,5.06847],[-75.6597,5.06852],[-75.65972,5.06859],[-75.65973,5.06866],[-75.65973,5.06873],[-75.65973,5.0688],[-75.65973,5.06888],[-75.65972,5.06895],[-75.65971,5.06902],[-75.65969,5.06908],[-75.65967,5.06914],[-75.65964,5.06918],[-75.65958,5.06926],[-75.65955,5.0693],[-75.65953,5.06936],[-75.65952,5.06941],[-75.65951,5.06947],[-75.65951,5.06953],[-75.65952,5.06959],[-75.65953,5.06965],[-75.65955,5.0697],[-75.65958,5.06974],[-75.65961,5.06977],[-75.65968,5.06984],[-75.65971,5.06988],[-75.65977,5.06996],[-75.65981,5.07],[-75.65984,5.07003],[-75.65992,5.07009],[-75.65996,5.07012],[-75.65999,5.07016],[-75.66006,5.07024],[-75.66009,5.07027],[-75.66013,5.07031],[-75.66021,5.07037],[-75.66024,5.0704],[-75.66028,5.07044],[-75.66034,5.07051],[-75.66037,5.07055],[-75.66041,5.07058],[-75.66049,5.07064],[-75.66053,5.07067],[-75.66063,5.07078],[-75.66067,5.07081],[-75.66072,5.07084],[-75.66078,5.07086],[-75.66089,5.07091],[-75.66095,5.07093],[-75.661,5.07096],[-75.66105,5.07099],[-75.66108,5.07104],[-75.66111,5.07109],[-75.66113,5.07114],[-75.66118,5.07126],[-75.6612,5.07132],[-75.66123,5.07137],[-75.66126,5.0714],[-75.6613,5.07144],[-75.66137,5.0715],[-75.66144,5.07158],[-75.66147,5.07161],[-75.66151,5.07164],[-75.66156,5.07167],[-75.66161,5.0717],[-75.66173,5.07174],[-75.66179,5.07176],[-75.66184,5.07179],[-75.66188,5.07183],[-75.66192,5.07187],[-75.66195,5.07192],[-75.66197,5.07198],[-75.66201,5.0721],[-75.66203,5.07216],[-75.66206,5.07221],[-75.66209,5.07225],[-75.66215,5.07233],[-75.66218,5.07237],[-75.66221,5.07242],[-75.66223,5.07248],[-75.66227,5.0726],[-75.6623,5.07266],[-75.66232,5.07271],[-75.66236,5.07275],[-75.66241,5.07278],[-75.66247,5.07281],[-75.66248,5.07281],[-75.66253,5.07282],[-75.6626,5.07283],[-75.66267,5.07283],[-75.66275,5.07283],[-75.66282,5.07282],[-75.66289,5.07281],[-75.66295,5.07279],[-75.66301,5.07277],[-75.66305,5.07274],[-75.66313,5.07267],[-75.66317,5.07265],[-75.66324,5.07262],[-75.66331,5.0726],[-75.66338,5.07258],[-75.66346,5.07257],[-75.66354,5.07256],[-75.66362,5.07256],[-75.66371,5.07256],[-75.66388,5.07255],[-75.66396,5.07256],[-75.66404,5.07256],[-75.66413,5.07257],[-75.6642,5.07257],[-75.66428,5.07259],[-75.66435,5.07261],[-75.66441,5.07263],[-75.66445,5.07266],[-75.66453,5.07272],[-75.66457,5.07275],[-75.66463,5.07277],[-75.6647,5.07279],[-75.66476,5.07281],[-75.66505,5.07286],[-75.66512,5.07287],[-75.66518,5.07289],[-75.66524,5.07292],[-75.66529,5.07294],[-75.66536,5.073],[-75.66541,5.07303],[-75.66547,5.07306],[-75.66553,5.07307],[-75.6656,5.07309],[-75.66589,5.07313],[-75.66596,5.07315],[-75.66602,5.07317],[-75.66608,5.07319],[-75.66612,5.07322],[-75.6662,5.07328],[-75.66624,5.07331],[-75.6663,5.07333],[-75.66637,5.07335],[-75.66643,5.07336],[-75.66672,5.07341],[-75.66679,5.07342],[-75.66686,5.07344],[-75.66692,5.07347],[-75.66696,5.07349],[-75.66704,5.07356],[-75.66708,5.07358],[-75.66713,5.07361],[-75.66719,5.07363],[-75.66737,5.07369],[-75.66742,5.07372],[-75.66747,5.07374],[-75.66751,5.07378],[-75.66762,5.07388],[-75.66765,5.07391],[-75.66773,5.07397],[-75.66777,5.07401],[-75.6678,5.07404],[-75.66786,5.07412],[-75.6679,5.07416],[-75.66793,5.07419],[-75.66801,5.07425],[-75.66805,5.07428],[-75.66816,5.07439],[-75.66819,5.07442],[-75.66825,5.07445],[-75.6683,5.07447],[-75.66848,5.07453],[-75.66854,5.07455],[-75.66859,5.07458],[-75.66863,5.07461],[-75.66866,5.07465],[-75.66873,5.07472],[-75.6688,5.07478],[-75.66884,5.07482],[-75.66887,5.07486],[-75.6689,5.07491],[-75.66892,5.07496],[-75.66898,5.07514],[-75.66901,5.0752],[-75.66903,5.07525],[-75.66907,5.07529],[-75.66917,5.07539],[-75.6692,5.07543],[-75.66926,5.07551],[-75.66929,5.07555],[-75.66936,5.07562],[-75.66939,5.07566],[-75.66942,5.0757],[-75.66945,5.07576],[-75.66947,5.07582],[-75.66948,5.07589],[-75.66949,5.07597],[-75.6695,5.07605],[-75.66951,5.07629],[-75.66952,5.07637],[-75.66953,5.07645],[-75.66954,5.07652],[-75.66956,5.07659],[-75.66959,5.07665],[-75.66962,5.07669],[-75.66972,5.07679],[-75.66975,5.07683],[-75.66981,5.07691],[-75.66984,5.07695],[-75.66995,5.07706],[-75.66998,5.0771],[-75.67001,5.07715],[-75.67003,5.07721],[-75.67009,5.07739],[-75.67011,5.07744],[-75.67014,5.0775],[-75.67017,5.07753],[-75.67021,5.07757],[-75.67028,5.07764],[-75.67035,5.07771],[-75.67038,5.07774],[-75.67042,5.07777],[-75.67047,5.07779],[-75.67053,5.0778],[-75.67058,5.07781],[-75.67065,5.07781],[-75.67071,5.0778],[-75.67076,5.07779],[-75.67082,5.07777],[-75.67086,5.07774],[-75.67093,5.07768],[-75.67098,5.07765],[-75.67104,5.07762],[-75.67111,5.0776],[-75.67118,5.07759],[-75.67126,5.07758],[-75.67134,5.07757],[-75.67143,5.07757],[-75.67151,5.07756],[-75.67168,5.07756],[-75.67177,5.07756],[-75.67185,5.07757],[-75.67193,5.07758],[-75.67201,5.07759],[-75.67209,5.0776],[-75.67215,5.07762],[-75.67222,5.07765],[-75.67226,5.07767],[-75.67234,5.07773],[-75.67238,5.07776],[-75.67243,5.07778],[-75.67248,5.07779],[-75.67254,5.0778],[-75.6726,5.07779],[-75.67266,5.07778],[-75.67271,5.07776],[-75.67275,5.07773],[-75.67279,5.07769],[-75.67281,5.07764],[-75.67289,5.07747],[-75.67292,5.07742],[-75.67295,5.07738],[-75.673,5.07734],[-75.67306,5.07732],[-75.67313,5.0773],[-75.6732,5.07729],[-75.67327,5.07729],[-75.67334,5.07729],[-75.67341,5.0773],[-75.67347,5.07731],[-75.67353,5.07733],[-75.67358,5.07737],[-75.67362,5.07741],[-75.67365,5.07746],[-75.67368,5.07751],[-75.67373,5.07763],[-75.67376,5.07768],[-75.6738,5.07772],[-75.67384,5.07776],[-75.67389,5.07779],[-75.67406,5.07786],[-75.67411,5.07789],[-75.67415,5.07793],[-75.67417,5.07797],[-75.67419,5.07802],[-75.6742,5.07808],[-75.67421,5.07814],[-75.6742,5.0782],[-75.67419,5.07825],[-75.67417,5.07831],[-75.67414,5.07835],[-75.67408,5.07843],[-75.67406,5.07847],[-75.67403,5.07853],[-75.67401,5.0786],[-75.67399,5.07867],[-75.67398,5.07875],[-75.67398,5.07884],[-75.67397,5.07892],[-75.67396,5.07926],[-75.67395,5.07935],[-75.67394,5.07943],[-75.67393,5.07951],[-75.67392,5.07958],[-75.6739,5.07965],[-75.67387,5.07971],[-75.67385,5.07976],[-75.67379,5.07984],[-75.67376,5.07988],[-75.67374,5.07993],[-75.67373,5.07999],[-75.67372,5.08005],[-75.67372,5.0801],[-75.67373,5.08016],[-75.67375,5.08021],[-75.67378,5.08025],[-75.67383,5.08029],[-75.67389,5.08031],[-75.67395,5.08033],[-75.67402,5.08034],[-75.67424,5.08038],[-75.67431,5.08039],[-75.67437,5.08041],[-75.67443,5.08043],[-75.67448,5.08046],[-75.67456,5.08052],[-75.6746,5.08054],[-75.67466,5.08057],[-75.67473,5.08059],[-75.67481,5.0806],[-75.67489,5.08061],[-75.67497,5.08061],[-75.67505,5.08061],[-75.67539,5.08062],[-75.67548,5.08063],[-75.67556,5.08063],[-75.67563,5.08064],[-75.6757,5.08066],[-75.67577,5.08068],[-75.67582,5.08072],[-75.67585,5.08076],[-75.67588,5.08081],[-75.67591,5.08087],[-75.67595,5.08099],[-75.67597,5.08104],[-75.676,5.08109],[-75.67603,5.08113],[-75.67607,5.08117],[-75.67614,5.08123],[-75.67621,5.08131],[-75.67624,5.08134],[-75.67628,5.08137],[-75.67633,5.0814],[-75.67638,5.08143],[-75.67644,5.08145],[-75.67656,5.08149],[-75.67662,5.08151],[-75.67667,5.08153],[-75.67672,5.08156],[-75.67679,5.08162],[-75.67683,5.08165],[-75.67689,5.08168],[-75.67695,5.0817],[-75.67713,5.08176],[-75.67718,5.08178],[-75.67723,5.08181],[-75.67727,5.08184],[-75.67731,5.08188],[-75.67737,5.08195],[-75.67744,5.08202],[-75.67748,5.08206],[-75.67751,5.0821],[-75.67753,5.08216],[-75.67755,5.08222],[-75.67757,5.08229],[-75.6776,5.08251],[-75.67762,5.08258],[-75.67764,5.08264],[-75.67766,5.0827],[-75.6777,5.08274],[-75.67774,5.08277],[-75.67779,5.08279],[-75.67785,5.0828],[-75.6779,5.0828],[-75.67796,5.0828],[-75.67802,5.08278],[-75.67807,5.08276],[-75.67811,5.08274],[-75.67817,5.08269],[-75.67821,5.08267],[-75.67824,5.08266],[-75.67828,5.08266],[-75.67832,5.08267],[-75.67835,5.08269],[-75.67838,5.08273],[-75.6784,5.08278],[-75.67841,5.08284],[-75.67843,5.08291],[-75.67846,5.08312],[-75.67848,5.08319],[-75.6785,5.08326],[-75.67852,5.08331],[-75.67855,5.08336],[-75.67861,5.08344],[-75.67863,5.08348],[-75.67866,5.08353],[-75.67867,5.08359],[-75.67868,5.08365],[-75.67868,5.08371],[-75.67867,5.08377],[-75.67865,5.08383],[-75.67863,5.08388],[-75.6786,5.08392],[-75.67857,5.08395],[-75.6785,5.08402],[-75.67847,5.08406],[-75.67841,5.08414],[-75.67837,5.08418],[-75.67833,5.08421],[-75.67826,5.08427],[-75.67822,5.0843],[-75.67818,5.08434],[-75.67812,5.08442],[-75.67809,5.08446],[-75.67802,5.08453],[-75.67799,5.08457],[-75.67796,5.08461],[-75.67793,5.08466],[-75.67791,5.08473],[-75.6779,5.0848],[-75.67789,5.08488],[-75.67788,5.08496],[-75.67786,5.0852],[-75.67785,5.08528],[-75.67784,5.08535],[-75.67783,5.08542],[-75.6778,5.08548],[-75.67777,5.08554],[-75.67772,5.08557],[-75.67768,5.0856],[-75.67762,5.08563],[-75.67752,5.08567],[-75.67748,5.08569],[-75.67744,5.08572],[-75.67742,5.08575],[-75.67741,5.08579],[-75.67741,5.08582],[-75.67742,5.08586],[-75.67744,5.08589],[-75.67749,5.08596],[-75.67751,5.086],[-75.67754,5.08606],[-75.67755,5.08612],[-75.67756,5.08619],[-75.67757,5.08626],[-75.67757,5.08634],[-75.67757,5.08641],[-75.67756,5.08648],[-75.67755,5.08655],[-75.67754,5.08661],[-75.67752,5.08667],[-75.67749,5.08671],[-75.67744,5.08678],[-75.67742,5.08681],[-75.67742,5.08685],[-75.67741,5.08689],[-75.67742,5.08692],[-75.67744,5.08695],[-75.67748,5.08698],[-75.67752,5.08701],[-75.67762,5.08705],[-75.67768,5.08707],[-75.67773,5.0871],[-75.67777,5.08714],[-75.6778,5.08719],[-75.67783,5.08725],[-75.67785,5.08731],[-75.67786,5.08738],[-75.6779,5.0876],[-75.67791,5.08767],[-75.67793,5.08773],[-75.67796,5.08779],[-75.67799,5.08783],[-75.67803,5.08786],[-75.6781,5.08793],[-75.67816,5.08801],[-75.6782,5.08804],[-75.67823,5.08807],[-75.67829,5.0881],[-75.67834,5.08813],[-75.6784,5.08815],[-75.67852,5.08818],[-75.67858,5.08821],[-75.67863,5.08823],[-75.67867,5.08826],[-75.67875,5.08832],[-75.6788,5.08835],[-75.67886,5.08837],[-75.67893,5.08839],[-75.679,5.0884],[-75.67908,5.08841],[-75.67915,5.08842],[-75.6794,5.08843],[-75.67948,5.08844],[-75.67955,5.08845],[-75.67962,5.08846],[-75.67969,5.08848],[-75.67975,5.08851],[-75.67979,5.08854],[-75.67983,5.08857],[-75.6799,5.08864],[-75.67994,5.08867],[-75.68002,5.08873],[-75.68005,5.08876],[-75.68009,5.08879],[-75.68016,5.08886],[-75.6802,5.08889],[-75.68025,5.08892],[-75.6803,5.08895],[-75.68041,5.08899],[-75.68047,5.08902],[-75.68052,5.08905],[-75.68057,5.08908],[-75.6806,5.08913],[-75.68063,5.08918],[-75.68068,5.08929],[-75.6807,5.08934],[-75.68073,5.08939],[-75.68077,5.08943],[-75.68082,5.08947],[-75.68089,5.08949],[-75.68096,5.08951],[-75.68103,5.08952],[-75.68111,5.08953],[-75.68135,5.08954],[-75.68143,5.08955],[-75.68151,5.08955],[-75.68158,5.08957],[-75.68165,5.08959],[-75.68171,5.08961],[-75.68175,5.08964],[-75.68179,5.08968],[-75.68186,5.08975],[-75.68193,5.08982],[-75.68197,5.08985],[-75.682,5.08989],[-75.68202,5.08995],[-75.68204,5.09001],[-75.68205,5.09008],[-75.68206,5.09015],[-75.68206,5.09023],[-75.68206,5.0903],[-75.68205,5.09037],[-75.68204,5.09044],[-75.68202,5.09051],[-75.68199,5.09056],[-75.68196,5.0906],[-75.68193,5.09064],[-75.68186,5.09071],[-75.68182,5.09075],[-75.68176,5.09083],[-75.68173,5.09086],[-75.68169,5.0909],[-75.68161,5.09096],[-75.68157,5.09099],[-75.68154,5.09103],[-75.68148,5.0911],[-75.68144,5.09114],[-75.68137,5.09121],[-75.68134,5.09125],[-75.68131,5.09129],[-75.68128,5.09135],[-75.68126,5.09142],[-75.68125,5.09149],[-75.68124,5.09157],[-75.68123,5.09166],[-75.68123,5.09183],[-75.68123,5.0921],[-75.68124,5.09283],[-75.68124,5.09302],[-75.68124,5.09319],[-75.68124,5.09328],[-75.68123,5.09336],[-75.68122,5.09344],[-75.6812,5.09352],[-75.68118,5.09358],[-75.68114,5.09363],[-75.68109,5.09367],[-75.68103,5.09369],[-75.68096,5.09371],[-75.68089,5.09372],[-75.68081,5.09373],[-75.68073,5.09373],[-75.68065,5.09373],[-75.68057,5.09372],[-75.68049,5.09372],[-75.68041,5.09371],[-75.68033,5.09369],[-75.68027,5.09367],[-75.68021,5.09364],[-75.68016,5.09361],[-75.68008,5.09355],[-75.68004,5.09353],[-75.67999,5.0935],[-75.67993,5.09349],[-75.67987,5.09348],[-75.67981,5.09348],[-75.67975,5.09349],[-75.67969,5.0935],[-75.67964,5.09352],[-75.6796,5.09355],[-75.67957,5.09358],[-75.6795,5.09365],[-75.67946,5.09368],[-75.67938,5.09375],[-75.67934,5.09378],[-75.67931,5.09382],[-75.67925,5.0939],[-75.67921,5.09393],[-75.67918,5.09397],[-75.6791,5.09403],[-75.67906,5.09406],[-75.67903,5.0941],[-75.67898,5.09418],[-75.67895,5.09422],[-75.67888,5.09428],[-75.67886,5.09431],[-75.67883,5.09435],[-75.67882,5.09438],[-75.67882,5.09442],[-75.67882,5.09446],[-75.67883,5.0945],[-75.67885,5.09453],[-75.67889,5.09459],[-75.67891,5.09462],[-75.67892,5.09466],[-75.67893,5.0947],[-75.67892,5.09474],[-75.67891,5.09478],[-75.67889,5.09482],[-75.67884,5.09489],[-75.67882,5.09493],[-75.6788,5.09499],[-75.67878,5.09505],[-75.67877,5.09512],[-75.67873,5.09533],[-75.67872,5.0954],[-75.6787,5.09547],[-75.67867,5.09553],[-75.67864,5.09558],[-75.6786,5.09562],[-75.67855,5.09565],[-75.67849,5.09567],[-75.67837,5.09571],[-75.67832,5.09574],[-75.67827,5.09577],[-75.67823,5.0958],[-75.67816,5.09587],[-75.67813,5.09591],[-75.67809,5.09594],[-75.67801,5.09599],[-75.67797,5.09603],[-75.67793,5.09606],[-75.67786,5.09613],[-75.67783,5.09616],[-75.67778,5.09619],[-75.67772,5.09622],[-75.67754,5.09628],[-75.67748,5.0963],[-75.67743,5.09633],[-75.67739,5.09635],[-75.67731,5.09642],[-75.67727,5.09644],[-75.67721,5.09647],[-75.67714,5.09649],[-75.67706,5.0965],[-75.67699,5.09651],[-75.6769,5.09652],[-75.67673,5.09652],[-75.67638,5.09652],[-75.67621,5.09653],[-75.67613,5.09653],[-75.67604,5.09654],[-75.67596,5.09655],[-75.67589,5.09656],[-75.67582,5.09658],[-75.67576,5.0966],[-75.67571,5.09663],[-75.67563,5.09669],[-75.67559,5.09672],[-75.67553,5.09674],[-75.67546,5.09676],[-75.67539,5.09677],[-75.67532,5.09678],[-75.67524,5.09679],[-75.675,5.09681],[-75.67492,5.09681],[-75.67484,5.09682],[-75.67477,5.09684],[-75.6747,5.09686],[-75.67464,5.09689],[-75.6746,5.09691],[-75.67457,5.09695],[-75.6745,5.09702],[-75.67446,5.09705],[-75.67438,5.09711],[-75.67434,5.09714],[-75.67431,5.09718],[-75.67425,5.09725],[-75.67421,5.09729],[-75.67418,5.09732],[-75.6741,5.09739],[-75.67406,5.09742],[-75.67403,5.09746],[-75.67397,5.09754],[-75.67394,5.09757],[-75.67387,5.09764],[-75.67384,5.09768],[-75.67381,5.09772],[-75.67378,5.09778],[-75.67376,5.09785],[-75.67375,5.09793],[-75.67374,5.09801],[-75.67373,5.09809],[-75.67373,5.09827],[-75.67373,5.09853],[-75.67373,5.09908],[-75.67374,5.09925],[-75.67374,5.09934],[-75.67374,5.09943],[-75.67375,5.09951],[-75.67376,5.09959],[-75.67378,5.09967],[-75.67379,5.09974],[-75.67382,5.0998],[-75.67384,5.09984],[-75.6739,5.0999],[-75.67392,5.09994],[-75.67393,5.09998],[-75.67393,5.10002],[-75.67393,5.10006],[-75.67392,5.1001],[-75.6739,5.10013],[-75.67385,5.1002],[-75.67382,5.10024],[-75.6738,5.1003],[-75.67378,5.10036],[-75.67377,5.10044],[-75.67376,5.10051],[-75.67375,5.10059],[-75.67374,5.10083],[-75.67373,5.10091],[-75.67372,5.10099],[-75.67371,5.10106],[-75.67369,5.10113],[-75.67367,5.10119],[-75.67364,5.10124],[-75.67358,5.10131],[-75.67355,5.10136],[-75.67352,5.10143],[-75.6735,5.10152],[-75.67348,5.10161],[-75.67347,5.10171],[-75.67347,5.10181],[-75.67346,5.10191],[-75.67346,5.10199],[-75.67347,5.10211],[-75.67348,5.10211],[-75.67351,5.10211],[-75.67354,5.10212],[-75.67357,5.10215],[-75.67361,5.10219],[-75.67365,5.10224],[-75.67369,5.10231],[-75.67375,5.10246],[-75.67379,5.10252],[-75.67382,5.10258],[-75.67385,5.10263],[-75.67392,5.1027],[-75.67395,5.10274],[-75.67398,5.10279],[-75.674,5.10285],[-75.67406,5.10303],[-75.67408,5.10309],[-75.67411,5.10314],[-75.67414,5.10318],[-75.6742,5.10326],[-75.67423,5.1033],[-75.67425,5.10336],[-75.67427,5.10343],[-75.67429,5.10351],[-75.67429,5.10359],[-75.6743,5.10367],[-75.6743,5.10376],[-75.6743,5.10393],[-75.6743,5.10438],[-75.6743,5.10456],[-75.67431,5.10473],[-75.67431,5.10482],[-75.67432,5.1049],[-75.67434,5.10497],[-75.67436,5.10504],[-75.67439,5.1051],[-75.67442,5.10514],[-75.67445,5.10517],[-75.67452,5.10524],[-75.67459,5.10531],[-75.67463,5.10535],[-75.67467,5.10538],[-75.67472,5.10541],[-75.67477,5.10543],[-75.67489,5.10547],[-75.67495,5.10549],[-75.675,5.10552],[-75.67505,5.10555],[-75.67508,5.1056],[-75.67511,5.10565],[-75.67514,5.1057],[-75.67518,5.10582],[-75.67521,5.10588],[-75.67523,5.10593],[-75.67526,5.10597],[-75.67527,5.10573],[-75.67524,5.10413],[-75.6755,5.10361],[-75.67573,5.1029],[-75.67645,5.1017],[-75.67698,5.10007],[-75.67761,5.09914],[-75.67803,5.09824],[-75.67865,5.0976],[-75.67971,5.09725],[-75.68032,5.09661],[-75.68189,5.0953],[-75.6827,5.09324],[-75.68299,5.09323],[-75.68362,5.09356],[-75.68427,5.09288],[-75.68486,5.09231],[-75.68416,5.09158],[-75.68367,5.09112],[-75.68428,5.09052],[-75.68251,5.08882],[-75.68293,5.08785],[-75.68387,5.08736],[-75.68485,5.08734],[-75.68462,5.08806],[-75.68438,5.08876],[-75.68462,5.08946],[-75.68497,5.09087],[-75.68541,5.09088],[-75.68509,5.08993],[-75.68578,5.0896],[-75.68579,5.08876],[-75.68579,5.0884],[-75.68694,5.08899],[-75.68742,5.08856],[-75.68743,5.08781],[-75.68742,5.08722],[-75.68743,5.08652],[-75.68742,5.08571],[-75.68844,5.08492],[-75.68884,5.08569],[-75.68883,5.08616],[-75.68915,5.08677],[-75.6886,5.08735],[-75.6879,5.08733],[-75.68813,5.08781],[-75.68838,5.08805],[-75.68813,5.08828],[-75.68791,5.08852],[-75.68745,5.08896],[-75.68743,5.09009],[-75.68861,5.09047],[-75.68827,5.09106],[-75.68699,5.0904],[-75.68694,5.09086],[-75.68768,5.09157],[-75.68767,5.09193],[-75.68769,5.09275],[-75.68674,5.09366],[-75.68698,5.09393],[-75.68745,5.09417],[-75.68669,5.0953],[-75.68613,5.09695],[-75.68658,5.09782],[-75.68627,5.09842],[-75.68711,5.09922],[-75.68757,5.0997],[-75.6884,5.10049],[-75.68809,5.10149],[-75.68684,5.10214],[-75.68606,5.10241],[-75.68562,5.1024],[-75.68466,5.10334],[-75.68489,5.10524],[-75.68522,5.10555],[-75.68451,5.10693],[-75.68736,5.1066],[-75.68818,5.10688],[-75.68912,5.10624],[-75.68886,5.10697],[-75.68795,5.10875],[-75.68749,5.11017],[-75.68601,5.11194],[-75.68541,5.1132],[-75.68491,5.11394],[-75.68422,5.11512],[-75.68115,5.11643],[-75.68046,5.11677],[-75.67784,5.11913],[-75.67796,5.11915],[-75.67803,5.11916],[-75.67809,5.11918],[-75.67815,5.11921],[-75.6782,5.11923],[-75.67828,5.11929],[-75.67832,5.11932],[-75.67838,5.11935],[-75.67845,5.11937],[-75.67852,5.11938],[-75.6786,5.11939],[-75.67868,5.1194],[-75.67877,5.1194],[-75.67894,5.1194],[-75.67911,5.1194],[-75.67919,5.1194],[-75.67927,5.11939],[-75.67935,5.11938],[-75.67942,5.11937],[-75.67949,5.11934],[-75.67955,5.11932],[-75.67959,5.11929],[-75.67969,5.11918],[-75.67973,5.11915],[-75.67981,5.11909],[-75.67985,5.11906],[-75.67996,5.11895],[-75.68,5.11892],[-75.68005,5.1189],[-75.68011,5.11888],[-75.68018,5.11886],[-75.68025,5.11885],[-75.6804,5.11883],[-75.68047,5.11881],[-75.68054,5.1188],[-75.6806,5.11878],[-75.68066,5.11875],[-75.6807,5.11872],[-75.68074,5.11869],[-75.68081,5.11862],[-75.68084,5.11859],[-75.68092,5.11853],[-75.68096,5.11849],[-75.68099,5.11846],[-75.68105,5.11838],[-75.68108,5.11834],[-75.68118,5.11823],[-75.68122,5.11819],[-75.68124,5.11814],[-75.68127,5.11809],[-75.68131,5.11797],[-75.68133,5.11791],[-75.68136,5.11786],[-75.68139,5.11781],[-75.68144,5.11778],[-75.68149,5.11775],[-75.68155,5.11773],[-75.68166,5.11768],[-75.68172,5.11766],[-75.68177,5.11763],[-75.6818,5.1176],[-75.68191,5.11749],[-75.68195,5.11746],[-75.68202,5.1174],[-75.68206,5.11736],[-75.68209,5.11733],[-75.68215,5.11725],[-75.68219,5.11721],[-75.68222,5.11718],[-75.6823,5.11712],[-75.68234,5.11709],[-75.68241,5.11701],[-75.68245,5.11698],[-75.68249,5.11695],[-75.68255,5.11692],[-75.68261,5.1169],[-75.68269,5.11689],[-75.68277,5.11687],[-75.68285,5.11687],[-75.68302,5.11686],[-75.68329,5.11685],[-75.68347,5.11686],[-75.68355,5.11686],[-75.68364,5.11686],[-75.68372,5.11687],[-75.6838,5.11688],[-75.68387,5.1169],[-75.68393,5.11693],[-75.68398,5.11696],[-75.68402,5.11701],[-75.68404,5.11708],[-75.68406,5.11715],[-75.68407,5.11723],[-75.68408,5.11731],[-75.68408,5.11739],[-75.68408,5.11748],[-75.68408,5.11774],[-75.68409,5.11782],[-75.68409,5.1179],[-75.6841,5.11798],[-75.68411,5.11806],[-75.68414,5.11812],[-75.68417,5.11817],[-75.68422,5.11821],[-75.68428,5.11824],[-75.68434,5.11826],[-75.68442,5.11827],[-75.68449,5.11828],[-75.68466,5.11829],[-75.68476,5.1183],[-75.68486,5.11832],[-75.68495,5.11834],[-75.68504,5.11836],[-75.68511,5.11839],[-75.68516,5.11843],[-75.68518,5.11847],[-75.6852,5.1185],[-75.6852,5.11853],[-75.68519,5.11854],[-75.6854,5.11855],[-75.68549,5.11854],[-75.6856,5.11854],[-75.6857,5.11853],[-75.6858,5.11852],[-75.68589,5.1185],[-75.68596,5.11847],[-75.68601,5.11844],[-75.68608,5.11838],[-75.68613,5.11835],[-75.68618,5.11832],[-75.68624,5.1183],[-75.68636,5.11825],[-75.68641,5.11823],[-75.68646,5.1182],[-75.6865,5.11817],[-75.68653,5.11812],[-75.68655,5.11807],[-75.68655,5.11801],[-75.68655,5.11795],[-75.68655,5.11789],[-75.68653,5.11784],[-75.6865,5.11779],[-75.68647,5.11775],[-75.68637,5.11764],[-75.68633,5.1176],[-75.68627,5.11752],[-75.68624,5.11748],[-75.68617,5.11741],[-75.68613,5.11738],[-75.6861,5.11734],[-75.68608,5.11729],[-75.68606,5.11723],[-75.68605,5.11717],[-75.68605,5.11711],[-75.68606,5.11705],[-75.68607,5.11699],[-75.68609,5.11694],[-75.68612,5.1169],[-75.68616,5.11687],[-75.68623,5.1168],[-75.6863,5.11673],[-75.68633,5.1167],[-75.68637,5.11667],[-75.68643,5.11664],[-75.6865,5.11662],[-75.68657,5.11661],[-75.68665,5.1166],[-75.68673,5.11659],[-75.68698,5.11658],[-75.68705,5.11657],[-75.68713,5.11656],[-75.6872,5.11654],[-75.68726,5.11652],[-75.68731,5.11648],[-75.68735,5.11644],[-75.68738,5.11639],[-75.6874,5.11634],[-75.68745,5.11622],[-75.68747,5.11616],[-75.6875,5.11611],[-75.68753,5.11607],[-75.68763,5.11597],[-75.68767,5.11593],[-75.68773,5.11585],[-75.68776,5.11581],[-75.68779,5.11578],[-75.68787,5.11572],[-75.68791,5.11568],[-75.68794,5.11565],[-75.688,5.11557],[-75.68803,5.11553],[-75.68813,5.11542],[-75.68816,5.11538],[-75.68819,5.11533],[-75.68822,5.11528],[-75.68828,5.1151],[-75.6883,5.11504],[-75.68833,5.11499],[-75.68836,5.11495],[-75.68847,5.11485],[-75.6885,5.11481],[-75.68856,5.11473],[-75.68859,5.11469],[-75.68863,5.11466],[-75.68871,5.1146],[-75.68875,5.11456],[-75.68878,5.11453],[-75.68884,5.11445],[-75.68887,5.11441],[-75.68893,5.11435],[-75.68896,5.11432],[-75.68898,5.11429],[-75.689,5.11425],[-75.689,5.11421],[-75.689,5.11417],[-75.68899,5.11413],[-75.68897,5.1141],[-75.68891,5.11403],[-75.68889,5.11399],[-75.68886,5.11393],[-75.68884,5.11387],[-75.68883,5.1138],[-75.68879,5.11358],[-75.68878,5.11351],[-75.68876,5.11344],[-75.68874,5.11338],[-75.68871,5.11332],[-75.68868,5.11327],[-75.68862,5.11319],[-75.68859,5.11315],[-75.68857,5.11309],[-75.68855,5.11303],[-75.68854,5.11296],[-75.68853,5.11289],[-75.68853,5.11282],[-75.68853,5.11274],[-75.68854,5.11267],[-75.68855,5.1126],[-75.68857,5.11254],[-75.68859,5.11248],[-75.68862,5.11244],[-75.68868,5.11236],[-75.68871,5.11231],[-75.68873,5.11225],[-75.68875,5.11219],[-75.68876,5.11211],[-75.68877,5.11204],[-75.68878,5.11196],[-75.6888,5.11172],[-75.68881,5.11164],[-75.68881,5.11156],[-75.68883,5.11149],[-75.68885,5.11142],[-75.68887,5.11136],[-75.6889,5.11132],[-75.68896,5.11124],[-75.68899,5.1112],[-75.68902,5.11115],[-75.68904,5.11109],[-75.6891,5.11091],[-75.68912,5.11085],[-75.68915,5.1108],[-75.68917,5.11076],[-75.68924,5.11068],[-75.68926,5.11064],[-75.68929,5.11058],[-75.68931,5.11051],[-75.68932,5.11044],[-75.68933,5.11037],[-75.68935,5.11022],[-75.68937,5.11015],[-75.68938,5.11008],[-75.6894,5.11002],[-75.68943,5.10996],[-75.68946,5.10992],[-75.68949,5.10989],[-75.68956,5.10982],[-75.68959,5.10978],[-75.68965,5.1097],[-75.68968,5.10966],[-75.68972,5.10963],[-75.6898,5.10957],[-75.68984,5.10953],[-75.68987,5.1095],[-75.68993,5.10942],[-75.68997,5.10938],[-75.69,5.10935],[-75.69008,5.10929],[-75.69012,5.10926],[-75.69016,5.10922],[-75.69022,5.10914],[-75.69025,5.1091],[-75.69029,5.10907],[-75.69037,5.10901],[-75.69041,5.10898],[-75.69044,5.10894],[-75.6905,5.10886],[-75.69053,5.10882],[-75.69059,5.10876],[-75.69062,5.10873],[-75.69064,5.1087],[-75.69065,5.10867],[-75.69065,5.10863],[-75.69064,5.1086],[-75.69062,5.10857],[-75.69058,5.10854],[-75.69053,5.10852],[-75.69047,5.10851],[-75.6904,5.1085],[-75.69025,5.10848],[-75.69018,5.10847],[-75.69011,5.10845],[-75.69004,5.10844],[-75.68999,5.10841],[-75.68994,5.10838],[-75.68991,5.10835],[-75.68984,5.10827],[-75.68976,5.10821],[-75.68973,5.10817],[-75.6897,5.10813],[-75.68967,5.10807],[-75.68965,5.108],[-75.68963,5.10793],[-75.68963,5.10785],[-75.68962,5.10777],[-75.68962,5.10768],[-75.68961,5.10751],[-75.68961,5.10728],[-75.68931,5.10683],[-75.68935,5.1063],[-75.68931,5.10616],[-75.68928,5.10611],[-75.68925,5.10606],[-75.68922,5.10602],[-75.68911,5.10592],[-75.68908,5.10588],[-75.68902,5.1058],[-75.68899,5.10576],[-75.68893,5.1057],[-75.6889,5.10567],[-75.68888,5.10564],[-75.68886,5.1056],[-75.68886,5.10556],[-75.68886,5.10552],[-75.68888,5.10548],[-75.6889,5.10545],[-75.68895,5.10538],[-75.68897,5.10534],[-75.689,5.10528],[-75.68902,5.10521],[-75.68903,5.10514],[-75.68904,5.10506],[-75.68904,5.10498],[-75.68905,5.10489],[-75.68905,5.10472],[-75.68905,5.10455],[-75.68904,5.10447],[-75.68904,5.10438],[-75.68903,5.10431],[-75.68901,5.10423],[-75.68899,5.10416],[-75.68897,5.10411],[-75.68894,5.10406],[-75.68889,5.10399],[-75.68887,5.10396],[-75.68886,5.10392],[-75.68885,5.10388],[-75.68886,5.10384],[-75.68887,5.10381],[-75.6889,5.10377],[-75.68892,5.10374],[-75.68899,5.10368],[-75.68902,5.10364],[-75.68908,5.10357],[-75.68911,5.10353],[-75.68915,5.1035],[-75.68923,5.10344],[-75.68926,5.10341],[-75.6893,5.10337],[-75.68936,5.10329],[-75.68939,5.10325],[-75.68946,5.10318],[-75.6895,5.10315],[-75.68953,5.10311],[-75.68955,5.10305],[-75.68957,5.10298],[-75.68959,5.1029],[-75.6896,5.10282],[-75.6896,5.10274],[-75.68961,5.10265],[-75.68961,5.10248],[-75.6896,5.10203],[-75.6896,5.10185],[-75.6896,5.10177],[-75.68961,5.10168],[-75.68961,5.1016],[-75.68963,5.10152],[-75.68964,5.10145],[-75.68967,5.10139],[-75.6897,5.10133],[-75.68975,5.1013],[-75.6898,5.10127],[-75.68996,5.10119],[-75.69001,5.10116],[-75.69005,5.10113],[-75.69009,5.10108],[-75.69011,5.10101],[-75.69013,5.10095],[-75.69014,5.10087],[-75.69015,5.1008],[-75.69018,5.10048],[-75.69019,5.1004],[-75.6902,5.10033],[-75.69022,5.10026],[-75.69024,5.1002],[-75.69027,5.10016],[-75.69033,5.10008],[-75.69036,5.10004],[-75.69038,5.09997],[-75.6904,5.0999],[-75.69041,5.09983],[-75.69042,5.09975],[-75.69043,5.09966],[-75.69043,5.09958],[-75.69043,5.0994],[-75.69043,5.09913],[-75.69043,5.0985],[-75.69043,5.09823],[-75.69043,5.09805],[-75.69044,5.09797],[-75.69045,5.09789],[-75.69046,5.09781],[-75.69048,5.09775],[-75.69051,5.09768],[-75.69054,5.09765],[-75.69064,5.09754],[-75.69067,5.0975],[-75.69073,5.09742],[-75.69076,5.09738],[-75.69083,5.09731],[-75.69087,5.09728],[-75.6909,5.09724],[-75.69092,5.09718],[-75.69094,5.09711],[-75.69096,5.09704],[-75.69097,5.09696],[-75.69097,5.09688],[-75.69099,5.09664],[-75.69099,5.09656],[-75.691,5.09649],[-75.69102,5.09641],[-75.69104,5.09635],[-75.69106,5.09629],[-75.69109,5.09625],[-75.69113,5.09621],[-75.6912,5.09614],[-75.69123,5.0961],[-75.69129,5.09603],[-75.69132,5.09599],[-75.69136,5.09596],[-75.69143,5.09589],[-75.69147,5.09586],[-75.6915,5.09582],[-75.69156,5.09575],[-75.69159,5.09571],[-75.69166,5.09564],[-75.6917,5.0956],[-75.69173,5.09556],[-75.69175,5.0955],[-75.69177,5.09544],[-75.69179,5.09537],[-75.69182,5.09515],[-75.69184,5.09508],[-75.69185,5.09502],[-75.69188,5.09496],[-75.69191,5.09491],[-75.69195,5.09487],[-75.692,5.09484],[-75.69206,5.09482],[-75.69218,5.09478],[-75.69223,5.09475],[-75.69229,5.09472],[-75.69233,5.0947],[-75.6924,5.09463],[-75.69244,5.0946],[-75.6925,5.09458],[-75.69256,5.09456],[-75.69274,5.0945],[-75.6928,5.09448],[-75.69285,5.09445],[-75.69289,5.09442],[-75.69297,5.09436],[-75.69301,5.09433],[-75.69307,5.0943],[-75.69312,5.09428],[-75.69324,5.09424],[-75.6933,5.09421],[-75.69335,5.09419],[-75.69339,5.09415],[-75.69343,5.0941],[-75.69345,5.09404],[-75.69347,5.09397],[-75.69347,5.0939],[-75.69348,5.09383],[-75.69347,5.09376],[-75.69346,5.09369],[-75.69345,5.09363],[-75.69342,5.09357],[-75.69339,5.09352],[-75.69335,5.09348],[-75.69329,5.09345],[-75.69313,5.09338],[-75.69308,5.09335],[-75.69303,5.09331],[-75.693,5.09326],[-75.69297,5.09319],[-75.69296,5.09312],[-75.69294,5.09305],[-75.69294,5.09297],[-75.69291,5.09273],[-75.69291,5.09266],[-75.69289,5.09258],[-75.69287,5.09251],[-75.69285,5.09245],[-75.69281,5.0924],[-75.69276,5.09237],[-75.69271,5.09234],[-75.69264,5.09232],[-75.69257,5.09231],[-75.69243,5.09229],[-75.69236,5.09227],[-75.69229,5.09225],[-75.69224,5.09223],[-75.69219,5.09219],[-75.69215,5.09214],[-75.69212,5.09208],[-75.69211,5.09202],[-75.69209,5.09194],[-75.69208,5.09187],[-75.69206,5.09155],[-75.69205,5.09147],[-75.69203,5.0914],[-75.69202,5.09133],[-75.69199,5.09127],[-75.69196,5.09122],[-75.6919,5.09114],[-75.69188,5.0911],[-75.69185,5.09104],[-75.69183,5.09098],[-75.69182,5.09091],[-75.69182,5.09084],[-75.69181,5.09077],[-75.69182,5.09069],[-75.69182,5.09062],[-75.69183,5.09055],[-75.69185,5.09049],[-75.69188,5.09043],[-75.6919,5.09039],[-75.69196,5.09031],[-75.69199,5.09026],[-75.69202,5.0902],[-75.69203,5.09014],[-75.69205,5.09006],[-75.69206,5.08999],[-75.69207,5.08991],[-75.69208,5.08967],[-75.69209,5.08959],[-75.6921,5.08951],[-75.69211,5.08944],[-75.69213,5.08937],[-75.69216,5.08931],[-75.69218,5.08927],[-75.69224,5.08919],[-75.69227,5.08915],[-75.6923,5.0891],[-75.69232,5.08904],[-75.69238,5.08886],[-75.6924,5.0888],[-75.69243,5.08875],[-75.69246,5.08871],[-75.69253,5.08863],[-75.69255,5.08859],[-75.69258,5.08854],[-75.69261,5.08848],[-75.69266,5.0883],[-75.69269,5.08825],[-75.69272,5.08819],[-75.69274,5.08815],[-75.69281,5.08807],[-75.69283,5.08803],[-75.69286,5.08797],[-75.69288,5.0879],[-75.69289,5.08783],[-75.6929,5.08775],[-75.69291,5.08767],[-75.69291,5.08758],[-75.69292,5.08741],[-75.69291,5.08724],[-75.69291,5.08716],[-75.6929,5.08708],[-75.69289,5.087],[-75.69288,5.08692],[-75.69286,5.08686],[-75.69283,5.08679],[-75.6928,5.08675],[-75.69274,5.08667],[-75.69271,5.08663],[-75.69268,5.08658],[-75.69266,5.08652],[-75.6926,5.08635],[-75.69257,5.08629],[-75.69254,5.08624],[-75.69251,5.0862],[-75.6924,5.0861],[-75.69237,5.08606],[-75.69231,5.08598],[-75.69228,5.08594],[-75.69221,5.08587],[-75.69217,5.08584],[-75.69214,5.0858],[-75.69212,5.08574],[-75.6921,5.08568],[-75.69208,5.08561],[-75.69208,5.08554],[-75.69208,5.08546],[-75.69208,5.08539],[-75.69208,5.08532],[-75.6921,5.08525],[-75.69211,5.08518],[-75.69214,5.08513],[-75.69217,5.08508],[-75.69223,5.085],[-75.69226,5.08496],[-75.69229,5.08491],[-75.69231,5.08485],[-75.69238,5.08467],[-75.6924,5.08462],[-75.69242,5.08457],[-75.69245,5.08453],[-75.6925,5.08446],[-75.69253,5.08442],[-75.69254,5.08439],[-75.69254,5.08435],[-75.69254,5.08431],[-75.69252,5.08427],[-75.6925,5.08423],[-75.69245,5.08416],[-75.69242,5.08413],[-75.6924,5.08408],[-75.69237,5.08402],[-75.69231,5.08384],[-75.69229,5.08378],[-75.69226,5.08373],[-75.69223,5.08369],[-75.69217,5.08361],[-75.69214,5.08357],[-75.69211,5.08351],[-75.69209,5.08345],[-75.69208,5.08338],[-75.69208,5.08331],[-75.69207,5.08323],[-75.69208,5.08316],[-75.69208,5.08309],[-75.69209,5.08302],[-75.69211,5.08296],[-75.69214,5.0829],[-75.69216,5.08285],[-75.69222,5.08277],[-75.69225,5.08273],[-75.69228,5.08267],[-75.69229,5.0826],[-75.69231,5.08253],[-75.69232,5.08245],[-75.69232,5.08237],[-75.69233,5.0822],[-75.69234,5.08194],[-75.69234,5.08186],[-75.69235,5.08178],[-75.69235,5.0817],[-75.69237,5.08162],[-75.69239,5.08156],[-75.69241,5.0815],[-75.69244,5.08146],[-75.69248,5.08142],[-75.69255,5.08135],[-75.69258,5.08131],[-75.69264,5.08123],[-75.69267,5.08119],[-75.69271,5.08116],[-75.69278,5.0811],[-75.69282,5.08107],[-75.69286,5.08103],[-75.69292,5.08095],[-75.69295,5.08092],[-75.69299,5.08088],[-75.69306,5.08082],[-75.6931,5.08079],[-75.69313,5.08075],[-75.6932,5.08067],[-75.69323,5.08064],[-75.69326,5.0806],[-75.69334,5.08054],[-75.69338,5.08051],[-75.69341,5.08047],[-75.69347,5.08039],[-75.6935,5.08036],[-75.69354,5.08032],[-75.69362,5.08026],[-75.69366,5.08023],[-75.69373,5.08016],[-75.69377,5.08013],[-75.69381,5.0801],[-75.69387,5.08007],[-75.69393,5.08006],[-75.694,5.08004],[-75.69408,5.08003],[-75.69416,5.08003],[-75.6944,5.08001],[-75.69448,5.08],[-75.69455,5.07999],[-75.69462,5.07997],[-75.69468,5.07995],[-75.69474,5.07992],[-75.69477,5.07987],[-75.6948,5.07982],[-75.69483,5.07977],[-75.69487,5.07965],[-75.69489,5.07959],[-75.69492,5.07954],[-75.69495,5.0795],[-75.69506,5.0794],[-75.69509,5.07936],[-75.69515,5.07928],[-75.69518,5.07924],[-75.69521,5.07921],[-75.69526,5.07917],[-75.69561,5.07839],[-75.69346,5.07864],[-75.69285,5.08002],[-75.69257,5.08004],[-75.6922,5.07962],[-75.69165,5.08052],[-75.69027,5.08094],[-75.69073,5.08219],[-75.69021,5.08264],[-75.69026,5.08332],[-75.68935,5.0834],[-75.68904,5.08284],[-75.68916,5.0812],[-75.68867,5.08124],[-75.68811,5.081],[-75.68766,5.08074],[-75.68716,5.08052],[-75.68764,5.0801],[-75.68742,5.0798],[-75.68673,5.0795],[-75.68667,5.07882],[-75.68757,5.07889],[-75.68711,5.07807],[-75.68747,5.07708],[-75.68716,5.07652],[-75.6872,5.07602],[-75.68606,5.07645],[-75.68598,5.07557],[-75.68658,5.07546],[-75.68646,5.07534],[-75.68622,5.07511],[-75.68599,5.07487],[-75.68575,5.07464],[-75.68599,5.07417],[-75.68633,5.07346],[-75.68646,5.07369],[-75.68644,5.07487],[-75.68739,5.07457],[-75.68692,5.07323],[-75.68693,5.07276],[-75.68645,5.07251],[-75.68598,5.07252],[-75.68599,5.07193],[-75.68598,5.07134],[-75.68599,5.07064],[-75.68528,5.06996],[-75.68618,5.0699],[-75.68645,5.07016],[-75.68644,5.07064],[-75.68701,5.07063],[-75.68653,5.07205],[-75.68741,5.07172],[-75.68737,5.07018],[-75.68785,5.06968],[-75.68919,5.06971],[-75.68938,5.0691],[-75.68909,5.06902],[-75.6893,5.06881],[-75.68938,5.0691]],[[-75.68054,5.07158],[-75.68061,5.071],[-75.68057,5.07064],[-75.6813,5.07043],[-75.68151,5.07016],[-75.68378,5.06994],[-75.68435,5.06948],[-75.68445,5.06935],[-75.68503,5.06951],[-75.68439,5.07116],[-75.68373,5.07108],[-75.68198,5.07134],[-75.68123,5.07228],[-75.68054,5.07158]],[[-75.68258,5.07194],[-75.68338,5.07249],[-75.68277,5.07267],[-75.68258,5.07194]],[[-75.68243,5.07228],[-75.6818,5.07248],[-75.68164,5.07218],[-75.68243,5.07228]],[[-75.68235,5.07335],[-75.68264,5.07343],[-75.68243,5.07364],[-75.68235,5.07335]],[[-75.67442,5.07322],[-75.67422,5.07342],[-75.67414,5.07314],[-75.67442,5.07322]],[[-75.67113,5.07158],[-75.67093,5.07178],[-75.67085,5.0715],[-75.67113,5.07158]],[[-75.66333,5.06846],[-75.66424,5.0688],[-75.66475,5.06811],[-75.66432,5.06666],[-75.66369,5.06673],[-75.66442,5.06576],[-75.66522,5.06629],[-75.66555,5.0674],[-75.6663,5.06762],[-75.66623,5.06833],[-75.66716,5.06873],[-75.66672,5.0695],[-75.66645,5.07044],[-75.66602,5.07023],[-75.6654,5.06858],[-75.66484,5.06928],[-75.66534,5.0697],[-75.66532,5.06998],[-75.66535,5.0703],[-75.66393,5.07016],[-75.66414,5.07047],[-75.66452,5.07077],[-75.66258,5.07151],[-75.66229,5.07116],[-75.66113,5.07082],[-75.66107,5.07024],[-75.66139,5.06997],[-75.66066,5.06937],[-75.66141,5.06847],[-75.66203,5.06883],[-75.66272,5.06875],[-75.66298,5.06907],[-75.66333,5.06846],[-75.66277,5.0683],[-75.66271,5.06766],[-75.664,5.06717],[-75.6639,5.06814],[-75.66344,5.06809],[-75.66333,5.06846]],[[-75.67083,5.06656],[-75.67114,5.06669],[-75.67093,5.06709],[-75.67083,5.06656]],[[-75.66732,5.07033],[-75.66764,5.0705],[-75.66743,5.07111],[-75.66732,5.07033]],[[-75.66434,5.06403],[-75.66381,5.0645],[-75.66361,5.0641],[-75.66379,5.06375],[-75.66434,5.06403]],[[-75.66637,5.05912],[-75.66577,5.05887],[-75.66565,5.05833],[-75.6663,5.05842],[-75.66619,5.05868],[-75.66637,5.05912]],[[-75.6687,5.0588],[-75.6687,5.05785],[-75.66917,5.05785],[-75.66917,5.05879],[-75.6687,5.0588]],[[-75.67791,5.08066],[-75.67778,5.08055],[-75.67757,5.0803],[-75.67709,5.07989],[-75.67751,5.07841],[-75.67827,5.07775],[-75.67813,5.07615],[-75.67893,5.0757],[-75.67898,5.07626],[-75.67873,5.07655],[-75.67838,5.07685],[-75.67877,5.07753],[-75.67871,5.07819],[-75.67942,5.07946],[-75.67851,5.08008],[-75.67802,5.08004],[-75.67791,5.08066],[-75.67932,5.08066],[-75.67932,5.08113],[-75.67966,5.08099],[-75.68,5.08103],[-75.68036,5.08149],[-75.68111,5.0818],[-75.68104,5.08241],[-75.68133,5.08264],[-75.68166,5.08305],[-75.68151,5.08429],[-75.682,5.08468],[-75.68151,5.08552],[-75.68215,5.08544],[-75.68265,5.0855],[-75.68215,5.0863],[-75.68238,5.0863],[-75.68238,5.08653],[-75.6832,5.087],[-75.68255,5.08805],[-75.68134,5.0875],[-75.68227,5.08666],[-75.68238,5.08653],[-75.68215,5.08653],[-75.68215,5.0863],[-75.68087,5.08612],[-75.68085,5.08571],[-75.68111,5.08521],[-75.68038,5.08454],[-75.6804,5.08386],[-75.68004,5.08347],[-75.67941,5.08289],[-75.68036,5.08259],[-75.67955,5.08184],[-75.67932,5.08113],[-75.67918,5.08122],[-75.67865,5.08216],[-75.67817,5.08166],[-75.67791,5.08066]],[[-75.67705,5.08],[-75.67652,5.08047],[-75.67633,5.08007],[-75.6765,5.07972],[-75.67705,5.08]],[[-75.68024,5.07649],[-75.68048,5.07595],[-75.68104,5.07608],[-75.68039,5.07698],[-75.68024,5.07649]],[[-75.6866,5.08299],[-75.68715,5.08311],[-75.68689,5.08353],[-75.6866,5.08299]],[[-75.68762,5.08338],[-75.68754,5.08299],[-75.68856,5.08308],[-75.68836,5.08375],[-75.68762,5.08338]],[[-75.68477,5.08331],[-75.68457,5.08352],[-75.68449,5.08323],[-75.68477,5.08331]],[[-75.69001,5.08475],[-75.69012,5.08463],[-75.69093,5.08488],[-75.69023,5.08522],[-75.69027,5.08615],[-75.6898,5.08617],[-75.68931,5.08572],[-75.68953,5.08498],[-75.69001,5.08475]],[[-75.68567,5.0877],[-75.68487,5.08727],[-75.68549,5.08701],[-75.68567,5.0877],[-75.68633,5.08739],[-75.6867,5.08769],[-75.68585,5.08802],[-75.68567,5.0877]],[[-75.68896,5.08793],[-75.68926,5.08806],[-75.68905,5.08846],[-75.68896,5.08793]]]]},"properties":{"OBJECTID":47,"AREA_HA":770.4009151813492,"ACUIFERO":"ACUIFERO SANTAGUEDA Y KILOMETRO 41","Autor":"LET_2017","Zona_Recar":"Baja","Shape_Length":60615.03064349969,"Shape_Area":7704009.151813492}},{"type":"Feature","id":48,"geometry":{"type":"Polygon","coordinates":[[[-75.66118,5.05364],[-75.66155,5.05374],[-75.66249,5.05443],[-75.66276,5.05542],[-75.66368,5.05666],[-75.66441,5.05654],[-75.66434,5.05706],[-75.66531,5.05726],[-75.66593,5.05763],[-75.66625,5.05722],[-75.6667,5.05729],[-75.66717,5.05722],[-75.66739,5.05775],[-75.66777,5.05838],[-75.66821,5.05781],[-75.66804,5.05666],[-75.66763,5.05634],[-75.66752,5.05574],[-75.66729,5.05574],[-75.66729,5.05527],[-75.66719,5.0549],[-75.66645,5.05331],[-75.66517,5.05299],[-75.66361,5.05268],[-75.6635,5.05264],[-75.66349,5.05264],[-75.66304,5.05245],[-75.66272,5.05232],[-75.66189,5.05221],[-75.66128,5.05221],[-75.66118,5.05364]]]},"properties":{"OBJECTID":48,"AREA_HA":26.597629366524377,"ACUIFERO":"ACUIFERO SANTAGUEDA Y KILOMETRO 41","Autor":"LET_2017","Zona_Recar":"Moderada","Shape_Length":2488.124029071216,"Shape_Area":265976.2936652438}},{"type":"Feature","id":49,"geometry":{"type":"Polygon","coordinates":[[[-75.69756,5.07472],[-75.69762,5.07493],[-75.69797,5.07579],[-75.69797,5.07578],[-75.69772,5.07509],[-75.69761,5.07473],[-75.69756,5.07472]]]},"properties":{"OBJECTID":49,"AREA_HA":0.038316653089980876,"ACUIFERO":"ACUIFERO SANTAGUEDA Y KILOMETRO 41","Autor":"LET_2017","Zona_Recar":"Moderada","Shape_Length":256.4159350473984,"Shape_Area":383.16653089980844}},{"type":"Feature","id":50,"geometry":{"type":"MultiPolygon","coordinates":[[[[-75.67371,5.05865],[-75.67419,5.05906],[-75.67211,5.05725],[-75.67208,5.05723],[-75.67371,5.05865]]],[[[-75.67544,5.06201],[-75.67542,5.06226],[-75.67552,5.06231],[-75.67547,5.06155],[-75.67544,5.06201]]],[[[-75.67622,5.06359],[-75.67622,5.06348],[-75.67559,5.06349],[-75.67622,5.06359]]]]},"properties":{"OBJECTID":50,"AREA_HA":0.09531855414423056,"ACUIFERO":"ACUIFERO SANTAGUEDA Y KILOMETRO 41","Autor":"LET_2017","Zona_Recar":"Moderada","Shape_Length":947.5566911352339,"Shape_Area":953.1855414423055}},{"type":"Feature","id":51,"geometry":{"type":"MultiPolygon","coordinates":[[[[-75.66769,5.05589],[-75.66805,5.05594],[-75.66764,5.05578],[-75.66769,5.05589]]],[[[-75.671,5.05632],[-75.67099,5.05631],[-75.67014,5.05621],[-75.671,5.05632]]],[[[-75.6617,5.05783],[-75.66176,5.05791],[-75.66149,5.05704],[-75.6617,5.05783]]],[[[-75.66273,5.05916],[-75.66295,5.06081],[-75.6628,5.05924],[-75.6624,5.05874],[-75.66273,5.05916]]],[[[-75.66274,5.06234],[-75.66288,5.06155],[-75.66297,5.06104],[-75.66297,5.06102],[-75.66274,5.06234]]],[[[-75.66135,5.06524],[-75.66254,5.06344],[-75.66257,5.0633],[-75.66135,5.06524]]],[[[-75.67832,5.06395],[-75.6794,5.0654],[-75.67829,5.06389],[-75.67767,5.06384],[-75.67832,5.06395]]],[[[-75.68055,5.06695],[-75.68253,5.06736],[-75.6805,5.06688],[-75.68055,5.06695]]],[[[-75.68304,5.06747],[-75.68566,5.06761],[-75.683,5.06746],[-75.68304,5.06747]]],[[[-75.66132,5.06528],[-75.65993,5.06779],[-75.65997,5.06773],[-75.66134,5.06524],[-75.66132,5.06528]]],[[[-75.65956,5.06831],[-75.65956,5.06831],[-75.6597,5.06812],[-75.65956,5.06831]]],[[[-75.69268,5.06845],[-75.69281,5.0685],[-75.69322,5.06855],[-75.69399,5.06866],[-75.69295,5.0685],[-75.6916,5.06803],[-75.69268,5.06845]]],[[[-75.6959,5.07141],[-75.69637,5.07198],[-75.69588,5.07128],[-75.69548,5.06959],[-75.6959,5.07141]]],[[[-75.69756,5.07472],[-75.69761,5.07473],[-75.69749,5.07438],[-75.69728,5.07375],[-75.69756,5.07472]]]]},"properties":{"OBJECTID":51,"AREA_HA":0.44615056501718664,"ACUIFERO":"ACUIFERO SANTAGUEDA Y KILOMETRO 41","Autor":"LET_2017","Zona_Recar":"Baja","Shape_Length":5446.533015557921,"Shape_Area":4461.505650171868}},{"type":"Feature","id":52,"geometry":{"type":"MultiPolygon","coordinates":[[[[-75.66128,5.05221],[-75.66189,5.05221],[-75.66129,5.05213],[-75.66128,5.05221]]],[[[-75.66349,5.05264],[-75.6635,5.05264],[-75.66304,5.05245],[-75.66349,5.05264]]],[[[-75.66645,5.05331],[-75.66642,5.05324],[-75.66517,5.05299],[-75.66645,5.05331]]]]},"properties":{"OBJECTID":52,"AREA_HA":0.08093464867602462,"ACUIFERO":"ACUIFERO SANTAGUEDA Y KILOMETRO 41","Autor":"LET_2017","Zona_Recar":"Moderada","Shape_Length":550.222505081523,"Shape_Area":809.3464867602462}}]}