{"type":"FeatureCollection","name":"LaderasPerimetrales","crs":{"type":"name","properties":{"name":"urn:ogc:def:crs:OGC:1.3:CRS84"}},"features":[{"type":"Feature","id":1,"geometry":{"type":"Polygon","coordinates":[[[-75.25969,5.28681],[-75.2597,5.28682],[-75.25981,5.28696],[-75.25997,5.28698],[-75.26003,5.28705],[-75.26002,5.28712],[-75.26003,5.28713],[-75.26012,5.2872],[-75.26021,5.28727],[-75.26026,5.28734],[-75.26052,5.28759],[-75.26073,5.28778],[-75.26096,5.28782],[-75.26122,5.28799],[-75.26153,5.28819],[-75.26171,5.28829],[-75.26182,5.28826],[-75.26202,5.28819],[-75.26227,5.28804],[-75.26242,5.28794],[-75.2625,5.28785],[-75.2625,5.28766],[-75.26245,5.2876],[-75.26234,5.28742],[-75.26233,5.28732],[-75.26232,5.28716],[-75.26225,5.28706],[-75.26216,5.28696],[-75.26211,5.28672],[-75.2621,5.28673],[-75.26203,5.28674],[-75.26199,5.28672],[-75.26181,5.28669],[-75.26177,5.2867],[-75.2617,5.28674],[-75.26166,5.2867],[-75.26167,5.28666],[-75.26164,5.28658],[-75.26161,5.28658],[-75.26159,5.28657],[-75.26156,5.28657],[-75.26153,5.28658],[-75.26133,5.28667],[-75.26121,5.28667],[-75.26119,5.28669],[-75.26113,5.28667],[-75.26103,5.28671],[-75.26091,5.28672],[-75.26088,5.28673],[-75.2608,5.28674],[-75.26079,5.28674],[-75.26072,5.28677],[-75.26071,5.2866],[-75.26068,5.28652],[-75.26066,5.28645],[-75.26066,5.28642],[-75.26063,5.28641],[-75.26061,5.28639],[-75.26057,5.28636],[-75.26051,5.2863],[-75.26037,5.28626],[-75.26033,5.28621],[-75.26032,5.28616],[-75.26031,5.28618],[-75.26023,5.28615],[-75.26023,5.28613],[-75.26017,5.28613],[-75.26014,5.28612],[-75.26011,5.28611],[-75.26008,5.2861],[-75.26005,5.28608],[-75.26003,5.28605],[-75.26001,5.28603],[-75.25999,5.286],[-75.25997,5.28597],[-75.25995,5.28592],[-75.25994,5.28587],[-75.25994,5.28582],[-75.25993,5.28577],[-75.25994,5.28574],[-75.25994,5.28571],[-75.25993,5.28568],[-75.25992,5.28565],[-75.2599,5.28562],[-75.25989,5.2856],[-75.25987,5.28558],[-75.25985,5.28557],[-75.25983,5.28556],[-75.25983,5.28556],[-75.25983,5.28556],[-75.25983,5.28556],[-75.25982,5.28556],[-75.25982,5.28556],[-75.25982,5.28555],[-75.25981,5.28555],[-75.2598,5.28555],[-75.2597,5.28554],[-75.25961,5.28553],[-75.25958,5.28553],[-75.25952,5.28554],[-75.25945,5.28554],[-75.25938,5.28554],[-75.25932,5.28554],[-75.25925,5.28553],[-75.25907,5.28548],[-75.259,5.28545],[-75.2589,5.28541],[-75.25874,5.28536],[-75.25878,5.28528],[-75.25885,5.28514],[-75.25893,5.28498],[-75.25898,5.28487],[-75.25893,5.28483],[-75.25887,5.28478],[-75.25884,5.28476],[-75.25866,5.28463],[-75.25863,5.28461],[-75.25855,5.28456],[-75.25854,5.28453],[-75.25851,5.28451],[-75.25848,5.28453],[-75.25844,5.28452],[-75.25842,5.28459],[-75.25836,5.28463],[-75.25833,5.28467],[-75.25833,5.28485],[-75.25829,5.28489],[-75.25826,5.2849],[-75.25823,5.28491],[-75.2582,5.28492],[-75.25818,5.28492],[-75.25817,5.28493],[-75.25816,5.28493],[-75.25812,5.28494],[-75.25812,5.28494],[-75.25806,5.2849],[-75.25802,5.28487],[-75.25795,5.28482],[-75.25794,5.28482],[-75.2579,5.28486],[-75.25785,5.28491],[-75.25775,5.285],[-75.25759,5.28515],[-75.25744,5.2853],[-75.25736,5.28523],[-75.25718,5.28509],[-75.25715,5.28504],[-75.25735,5.28487],[-75.25723,5.28475],[-75.25713,5.2847],[-75.25705,5.28466],[-75.25703,5.2847],[-75.25698,5.28468],[-75.257,5.28463],[-75.25697,5.28461],[-75.25705,5.28442],[-75.25699,5.2843],[-75.25703,5.28415],[-75.25687,5.28399],[-75.25699,5.28395],[-75.25702,5.28394],[-75.25714,5.28388],[-75.25725,5.28393],[-75.25733,5.28381],[-75.25721,5.2837],[-75.25725,5.2836],[-75.25741,5.28353],[-75.25737,5.28344],[-75.25736,5.28342],[-75.25736,5.2834],[-75.25735,5.28338],[-75.25731,5.28329],[-75.25757,5.28334],[-75.25758,5.28323],[-75.25753,5.28325],[-75.25751,5.28319],[-75.25749,5.2832],[-75.25746,5.28313],[-75.25751,5.2831],[-75.25748,5.28303],[-75.25752,5.28299],[-75.25741,5.28292],[-75.25743,5.2829],[-75.25744,5.28288],[-75.25746,5.28287],[-75.25748,5.28284],[-75.25749,5.28283],[-75.25751,5.28281],[-75.25752,5.28279],[-75.25752,5.28278],[-75.25752,5.28276],[-75.25751,5.28275],[-75.2575,5.28275],[-75.25746,5.28276],[-75.25744,5.28277],[-75.25742,5.28277],[-75.25741,5.28278],[-75.25737,5.28279],[-75.25735,5.2828],[-75.25734,5.28281],[-75.2573,5.28283],[-75.25725,5.28286],[-75.25721,5.2829],[-75.25718,5.28291],[-75.25716,5.28292],[-75.25715,5.28293],[-75.25713,5.28293],[-75.25706,5.28293],[-75.25703,5.28292],[-75.25701,5.28288],[-75.25698,5.28282],[-75.25695,5.28278],[-75.25691,5.28273],[-75.25687,5.28266],[-75.25685,5.28263],[-75.25686,5.28261],[-75.25687,5.28257],[-75.25689,5.28253],[-75.25691,5.28251],[-75.25694,5.28249],[-75.25698,5.28247],[-75.25702,5.28247],[-75.25708,5.28246],[-75.2572,5.28246],[-75.25727,5.28246],[-75.2573,5.28246],[-75.25736,5.28257],[-75.25744,5.28271],[-75.25751,5.28269],[-75.25756,5.28268],[-75.2576,5.28285],[-75.25766,5.28283],[-75.25772,5.28281],[-75.25783,5.28278],[-75.25792,5.28275],[-75.25803,5.28271],[-75.25808,5.28269],[-75.25817,5.28265],[-75.25822,5.28264],[-75.25829,5.28256],[-75.25823,5.28251],[-75.25829,5.28238],[-75.25823,5.28237],[-75.25822,5.28235],[-75.25825,5.2823],[-75.2583,5.28229],[-75.25837,5.28224],[-75.25839,5.28224],[-75.25847,5.28213],[-75.25857,5.28188],[-75.25859,5.28187],[-75.25862,5.28186],[-75.25866,5.28187],[-75.25874,5.2819],[-75.25873,5.28139],[-75.25873,5.28122],[-75.25869,5.28108],[-75.25861,5.2809],[-75.25857,5.28063],[-75.25855,5.28046],[-75.25826,5.28038],[-75.25776,5.28033],[-75.25743,5.28048],[-75.25709,5.28091],[-75.25638,5.28127],[-75.25555,5.28169],[-75.25545,5.2818],[-75.25547,5.28193],[-75.2555,5.28197],[-75.25557,5.28201],[-75.25567,5.28217],[-75.25569,5.28218],[-75.25578,5.28225],[-75.25586,5.28236],[-75.25602,5.28248],[-75.25607,5.28265],[-75.2561,5.28279],[-75.2561,5.28293],[-75.25612,5.28314],[-75.25615,5.28338],[-75.2562,5.28368],[-75.25616,5.28378],[-75.25611,5.28388],[-75.25602,5.28394],[-75.25603,5.28402],[-75.25607,5.28414],[-75.25615,5.28426],[-75.25621,5.28435],[-75.25633,5.28445],[-75.25639,5.28449],[-75.25644,5.28449],[-75.25653,5.28452],[-75.25668,5.28464],[-75.25673,5.28513],[-75.25671,5.28532],[-75.25669,5.28545],[-75.25679,5.28564],[-75.25682,5.28573],[-75.25699,5.28578],[-75.25717,5.28578],[-75.2574,5.28573],[-75.25832,5.28575],[-75.25845,5.28585],[-75.25868,5.286],[-75.25885,5.28616],[-75.25896,5.28628],[-75.25908,5.28642],[-75.25923,5.28654],[-75.25942,5.28665],[-75.25957,5.2867],[-75.25959,5.2867],[-75.2596,5.2867],[-75.25969,5.28681]]]},"properties":{"OBJECTID":1,"Nombre":"Ladera Perimetral Via Manzanares- Qda Tapir","Area_Ha":16.572227725587897,"Pendiente_Prom":75,"SHAPE_Length":3665.283063620881,"SHAPE_Area":166280.30354820774}},{"type":"Feature","id":2,"geometry":{"type":"Polygon","coordinates":[[[-75.26215,5.28639],[-75.26211,5.28642],[-75.26209,5.28643],[-75.26208,5.28644],[-75.26211,5.28653],[-75.26214,5.28662],[-75.26218,5.28669],[-75.26213,5.28671],[-75.26228,5.28689],[-75.26228,5.28692],[-75.26231,5.28699],[-75.26239,5.28713],[-75.26242,5.28716],[-75.26246,5.28726],[-75.26257,5.28725],[-75.26303,5.28721],[-75.26309,5.28717],[-75.26316,5.28709],[-75.26317,5.28704],[-75.26315,5.28694],[-75.26316,5.28683],[-75.26317,5.28673],[-75.26317,5.28662],[-75.26317,5.28651],[-75.26324,5.28607],[-75.26327,5.28554],[-75.26344,5.28498],[-75.26354,5.28434],[-75.26371,5.28385],[-75.26425,5.28273],[-75.26426,5.28214],[-75.26399,5.28186],[-75.26363,5.28155],[-75.26322,5.28127],[-75.26315,5.28098],[-75.26304,5.28072],[-75.26258,5.28076],[-75.26237,5.28066],[-75.26197,5.28045],[-75.26174,5.28042],[-75.26125,5.27984],[-75.2612,5.2797],[-75.26099,5.27957],[-75.26058,5.27927],[-75.2603,5.27897],[-75.26012,5.27877],[-75.25977,5.27869],[-75.25957,5.2786],[-75.25924,5.27862],[-75.25898,5.27862],[-75.25896,5.27862],[-75.25865,5.27867],[-75.25855,5.27888],[-75.25855,5.2789],[-75.25862,5.27917],[-75.25865,5.27949],[-75.25873,5.27978],[-75.25875,5.28005],[-75.25875,5.28042],[-75.25864,5.28058],[-75.25873,5.281],[-75.25882,5.28136],[-75.25882,5.28173],[-75.25886,5.28198],[-75.25888,5.2821],[-75.25892,5.28222],[-75.25893,5.2822],[-75.25892,5.28218],[-75.25896,5.28214],[-75.2592,5.28223],[-75.25923,5.28226],[-75.25928,5.28231],[-75.2593,5.28229],[-75.25934,5.28232],[-75.25934,5.28234],[-75.2594,5.28232],[-75.25941,5.28232],[-75.25947,5.28228],[-75.25949,5.28227],[-75.25962,5.2822],[-75.25966,5.2822],[-75.25981,5.2822],[-75.25981,5.28226],[-75.25981,5.2823],[-75.25979,5.28236],[-75.25978,5.28241],[-75.25977,5.28242],[-75.25977,5.28243],[-75.25978,5.28244],[-75.2598,5.28246],[-75.25981,5.28248],[-75.25993,5.28263],[-75.25998,5.28265],[-75.25999,5.28266],[-75.26003,5.28271],[-75.26001,5.28273],[-75.26003,5.28276],[-75.26005,5.2828],[-75.26006,5.28281],[-75.26011,5.28285],[-75.2601,5.28287],[-75.26014,5.28292],[-75.26018,5.28296],[-75.2602,5.28298],[-75.26025,5.28292],[-75.26038,5.28303],[-75.26035,5.28308],[-75.26037,5.28309],[-75.26036,5.28309],[-75.26049,5.28317],[-75.2605,5.28318],[-75.26053,5.28319],[-75.26054,5.2832],[-75.26061,5.28323],[-75.26062,5.28329],[-75.26069,5.28326],[-75.26073,5.28328],[-75.26078,5.28331],[-75.2608,5.28333],[-75.26085,5.28328],[-75.26087,5.2833],[-75.2609,5.28332],[-75.26092,5.28334],[-75.26096,5.28338],[-75.26101,5.28342],[-75.26104,5.28344],[-75.26105,5.28345],[-75.26109,5.28349],[-75.26111,5.2835],[-75.26113,5.28352],[-75.26114,5.28353],[-75.26124,5.28342],[-75.26128,5.28345],[-75.26137,5.28353],[-75.26139,5.28354],[-75.26141,5.28356],[-75.26143,5.28363],[-75.26142,5.28364],[-75.26142,5.28365],[-75.26143,5.28365],[-75.26143,5.28366],[-75.26144,5.28366],[-75.26145,5.28365],[-75.26149,5.28366],[-75.26156,5.28368],[-75.26161,5.28369],[-75.26165,5.2837],[-75.26167,5.28371],[-75.26171,5.28372],[-75.26177,5.28374],[-75.26182,5.28375],[-75.26187,5.28376],[-75.26191,5.28377],[-75.26191,5.28377],[-75.2619,5.28379],[-75.26191,5.2838],[-75.26189,5.28385],[-75.26187,5.28384],[-75.26184,5.2839],[-75.26177,5.28406],[-75.26176,5.28409],[-75.26176,5.28409],[-75.26178,5.28412],[-75.26179,5.28412],[-75.26179,5.28412],[-75.2618,5.28414],[-75.26181,5.28416],[-75.26183,5.28419],[-75.26185,5.28421],[-75.26188,5.28423],[-75.262,5.28411],[-75.26204,5.28417],[-75.26204,5.28418],[-75.26205,5.28419],[-75.26208,5.28424],[-75.26214,5.28433],[-75.2621,5.2844],[-75.26207,5.28444],[-75.26205,5.28446],[-75.26205,5.28447],[-75.26208,5.28449],[-75.26209,5.28452],[-75.26213,5.28456],[-75.26212,5.28459],[-75.26213,5.28483],[-75.26208,5.28495],[-75.26204,5.28496],[-75.262,5.28501],[-75.26191,5.28502],[-75.26181,5.28505],[-75.26176,5.28504],[-75.26175,5.28506],[-75.26175,5.28509],[-75.2619,5.2852],[-75.26188,5.28525],[-75.26208,5.28534],[-75.26209,5.28544],[-75.26208,5.28551],[-75.26206,5.28555],[-75.26203,5.28559],[-75.26206,5.28564],[-75.26213,5.28573],[-75.2622,5.2858],[-75.26237,5.28593],[-75.26243,5.28599],[-75.26245,5.28602],[-75.26235,5.28613],[-75.26228,5.28622],[-75.26224,5.28627],[-75.26218,5.28635],[-75.26215,5.28639]],[[-75.26306,5.28637],[-75.26293,5.28625],[-75.2629,5.28622],[-75.26306,5.28637]]]},"properties":{"OBJECTID":2,"Nombre":"Ladera Perimetral Qda Los Yuyos","Area_Ha":27.059582343897606,"Pendiente_Prom":75,"SHAPE_Length":2937.011297209287,"SHAPE_Area":270595.8234389761}}]}