{"type":"FeatureCollection","name":"Reserva Natural de la Sociedad Civil ","crs":{"type":"name","properties":{"name":"urn:ogc:def:crs:OGC:1.3:CRS84"}},"features":[{"type":"Feature","id":1,"geometry":{"type":"Polygon","coordinates":[[[-75.3229,5.10069],[-75.3229,5.1007],[-75.32251,5.10136],[-75.32288,5.10153],[-75.32294,5.10156],[-75.32298,5.10159],[-75.32298,5.10159],[-75.32319,5.1017],[-75.32319,5.1017],[-75.32319,5.1017],[-75.32319,5.1017],[-75.32331,5.10177],[-75.32353,5.1019],[-75.32369,5.10199],[-75.3245,5.10229],[-75.32529,5.10255],[-75.32621,5.10278],[-75.32709,5.10287],[-75.32747,5.10289],[-75.32767,5.10291],[-75.32837,5.10299],[-75.32868,5.10306],[-75.32902,5.10313],[-75.3295,5.10332],[-75.32967,5.10344],[-75.32994,5.10363],[-75.33017,5.10377],[-75.33043,5.10392],[-75.33068,5.10412],[-75.33141,5.10469],[-75.33186,5.10407],[-75.33209,5.10379],[-75.33247,5.10356],[-75.33279,5.10333],[-75.3334,5.10315],[-75.33444,5.10295],[-75.33483,5.10277],[-75.33524,5.10248],[-75.33563,5.10185],[-75.33566,5.10116],[-75.33552,5.10057],[-75.3352,5.10026],[-75.33487,5.10015],[-75.33461,5.10012],[-75.33439,5.10012],[-75.33403,5.10024],[-75.33388,5.10031],[-75.33373,5.10043],[-75.33358,5.10055],[-75.33341,5.1006],[-75.33339,5.10049],[-75.33337,5.10033],[-75.33338,5.10007],[-75.33342,5.09976],[-75.33348,5.09957],[-75.33357,5.09947],[-75.33379,5.09938],[-75.3339,5.09931],[-75.33423,5.09909],[-75.33461,5.09874],[-75.33504,5.0983],[-75.33548,5.09725],[-75.33585,5.09644],[-75.33627,5.09576],[-75.33659,5.09531],[-75.33712,5.09524],[-75.33759,5.09524],[-75.33768,5.09524],[-75.33811,5.09525],[-75.33875,5.09517],[-75.3391,5.09497],[-75.3396,5.09439],[-75.34001,5.09401],[-75.34008,5.09395],[-75.34009,5.09394],[-75.34058,5.09367],[-75.34065,5.09363],[-75.34077,5.09361],[-75.34095,5.09359],[-75.34123,5.09356],[-75.34112,5.09304],[-75.34111,5.09299],[-75.3409,5.09175],[-75.3408,5.09128],[-75.34077,5.0909],[-75.34076,5.09087],[-75.34084,5.09079],[-75.34093,5.09074],[-75.34112,5.09066],[-75.34142,5.09079],[-75.34143,5.0908],[-75.34146,5.09082],[-75.34203,5.0913],[-75.34206,5.09133],[-75.34214,5.09127],[-75.3422,5.09124],[-75.34275,5.09088],[-75.34316,5.09064],[-75.3433,5.09056],[-75.34344,5.09048],[-75.34347,5.09046],[-75.34354,5.09041],[-75.34429,5.08991],[-75.34386,5.08919],[-75.34364,5.08881],[-75.34321,5.08853],[-75.34287,5.08825],[-75.34221,5.08769],[-75.34181,5.08715],[-75.34149,5.08692],[-75.34097,5.08679],[-75.34038,5.08658],[-75.33986,5.08645],[-75.33983,5.08646],[-75.33967,5.08652],[-75.33956,5.08653],[-75.33937,5.08655],[-75.33932,5.08652],[-75.3389,5.08635],[-75.33799,5.08654],[-75.33745,5.0867],[-75.33724,5.08682],[-75.33706,5.08711],[-75.33703,5.08716],[-75.33674,5.08743],[-75.33672,5.08745],[-75.33652,5.08759],[-75.33644,5.08764],[-75.33612,5.08772],[-75.33566,5.08789],[-75.3353,5.08796],[-75.33508,5.08806],[-75.33436,5.08876],[-75.33398,5.089],[-75.33391,5.0891],[-75.33361,5.08962],[-75.33352,5.08998],[-75.33346,5.09039],[-75.33354,5.0905],[-75.3336,5.09055],[-75.33366,5.0906],[-75.3337,5.0908],[-75.3337,5.09096],[-75.33362,5.09104],[-75.33357,5.09114],[-75.33353,5.09121],[-75.33351,5.09122],[-75.33323,5.09126],[-75.33277,5.0913],[-75.33197,5.09159],[-75.33134,5.09215],[-75.33075,5.09283],[-75.3305,5.09334],[-75.32921,5.09402],[-75.3287,5.09436],[-75.32817,5.09446],[-75.32772,5.09462],[-75.32719,5.09501],[-75.32691,5.09525],[-75.3266,5.0954],[-75.32581,5.09593],[-75.32585,5.0966],[-75.32582,5.09667],[-75.3256,5.0973],[-75.32561,5.09825],[-75.32539,5.09869],[-75.32493,5.09941],[-75.32466,5.09962],[-75.32431,5.09973],[-75.32395,5.09978],[-75.32331,5.10006],[-75.3229,5.10069]]]},"properties":{"OBJECTID_1":1,"objectid":13706,"nombre":"La Sonrisa","id_pnn":"02070548","categoria":"Reserva Natural de la Sociedad Civil","territoria":"Andes occidentales","resolucion":"0015","hectareas_":200,"escala":"1:10.000","organizaci":"PNN","fecha_act":"2016/03/15 00:00:00.000","url":"http://runap.parquesnacionales.gov.co/area-protegidas/1075","wkid":"3116","app_id":1,"record_id":1272,"centroid_x":-75.33336009,"centroid_y":5.09548665,"fecha_regi":"2017/06/20 18:01:07.000","validado":"No","hectarea_1":199.91306577,"perimetro_":7.62060701,"globalid":"{E9535442-9D4E-4BBD-9523-4CA9F4DE3ADF}","Shape_Length":7620.607230069523,"Shape_Area":1999130.6606498093}}]}