{"type":"FeatureCollection","name":"Área SINAP en ruta de declaración","crs":{"type":"name","properties":{"name":"urn:ogc:def:crs:OGC:1.3:CRS84"}},"features":[{"type":"Feature","id":1,"geometry":{"type":"Polygon","coordinates":[[[-75.31612,5.25017],[-75.31626,5.25045],[-75.31644,5.25073],[-75.31671,5.2511],[-75.31684,5.2514],[-75.31687,5.25169],[-75.31676,5.25195],[-75.31659,5.25236],[-75.3164,5.25277],[-75.31629,5.2531],[-75.31618,5.25352],[-75.31601,5.25383],[-75.31595,5.25408],[-75.31594,5.25436],[-75.31589,5.25457],[-75.31567,5.25485],[-75.31557,5.2551],[-75.31588,5.25511],[-75.31632,5.25508],[-75.31662,5.25494],[-75.31707,5.25477],[-75.31745,5.25465],[-75.31791,5.25443],[-75.31845,5.25419],[-75.31871,5.25396],[-75.31899,5.25382],[-75.31927,5.25364],[-75.31934,5.25338],[-75.31945,5.25305],[-75.31962,5.2529],[-75.32006,5.25261],[-75.32034,5.25239],[-75.32063,5.25214],[-75.32103,5.25181],[-75.32128,5.25154],[-75.32153,5.25124],[-75.32166,5.25105],[-75.32184,5.25069],[-75.32208,5.25027],[-75.32224,5.25008],[-75.32252,5.24998],[-75.32287,5.25001],[-75.32317,5.24999],[-75.32356,5.25003],[-75.3239,5.25005],[-75.32414,5.25],[-75.32459,5.24957],[-75.32495,5.24927],[-75.32522,5.2491],[-75.32557,5.24897],[-75.32596,5.24891],[-75.32628,5.24884],[-75.32658,5.24879],[-75.32683,5.24871],[-75.32723,5.24862],[-75.32759,5.24862],[-75.32795,5.24866],[-75.32823,5.24855],[-75.3285,5.2485],[-75.32873,5.24856],[-75.32887,5.24844],[-75.32924,5.24836],[-75.32983,5.24819],[-75.33048,5.24804],[-75.33093,5.24791],[-75.33134,5.24779],[-75.33167,5.24769],[-75.33193,5.24754],[-75.33242,5.24725],[-75.33289,5.24697],[-75.33322,5.24681],[-75.33348,5.2467],[-75.33442,5.24634],[-75.33497,5.24601],[-75.33558,5.24572],[-75.33601,5.24539],[-75.33668,5.24495],[-75.33738,5.24463],[-75.33785,5.24442],[-75.33868,5.24426],[-75.33928,5.24415],[-75.33983,5.24392],[-75.33993,5.24384],[-75.34071,5.24338],[-75.34116,5.24311],[-75.34174,5.2427],[-75.34223,5.24245],[-75.34268,5.2423],[-75.34291,5.24227],[-75.34291,5.24226],[-75.343,5.24223],[-75.34305,5.2422],[-75.3432,5.24215],[-75.34396,5.24182],[-75.34455,5.24156],[-75.34544,5.24105],[-75.34583,5.24088],[-75.34631,5.24045],[-75.34662,5.24025],[-75.34708,5.23988],[-75.34737,5.23965],[-75.34757,5.23958],[-75.3478,5.23937],[-75.34814,5.23905],[-75.34815,5.2389],[-75.34837,5.23861],[-75.34882,5.2381],[-75.34904,5.23767],[-75.34917,5.23755],[-75.34945,5.23757],[-75.35005,5.23752],[-75.3509,5.23746],[-75.35188,5.23744],[-75.35282,5.23738],[-75.35339,5.23735],[-75.35384,5.2373],[-75.35423,5.23723],[-75.35454,5.23707],[-75.35489,5.23674],[-75.35518,5.23644],[-75.35557,5.2361],[-75.35618,5.23586],[-75.35729,5.2353],[-75.35818,5.23496],[-75.35868,5.2347],[-75.35875,5.23466],[-75.35905,5.23457],[-75.35936,5.23454],[-75.35971,5.23451],[-75.36019,5.2344],[-75.36088,5.23405],[-75.36198,5.23342],[-75.36308,5.23279],[-75.36317,5.23275],[-75.36358,5.23256],[-75.36399,5.23243],[-75.3643,5.23223],[-75.36482,5.2319],[-75.36532,5.2315],[-75.36568,5.23114],[-75.366,5.23096],[-75.36634,5.23084],[-75.36709,5.23063],[-75.36746,5.23043],[-75.36779,5.23021],[-75.36836,5.22957],[-75.36866,5.22909],[-75.36903,5.22844],[-75.36925,5.22783],[-75.36928,5.22766],[-75.36953,5.2272],[-75.36993,5.22651],[-75.37056,5.22551],[-75.37114,5.22466],[-75.37162,5.22371],[-75.37194,5.22298],[-75.37219,5.22209],[-75.37217,5.22193],[-75.37205,5.22173],[-75.37162,5.22124],[-75.3713,5.22086],[-75.37099,5.22048],[-75.3707,5.22002],[-75.37027,5.21919],[-75.36991,5.21846],[-75.36941,5.21778],[-75.36888,5.21721],[-75.36856,5.21682],[-75.36817,5.21653],[-75.36758,5.21613],[-75.36731,5.21589],[-75.36713,5.21558],[-75.3669,5.21517],[-75.3667,5.21479],[-75.36638,5.21455],[-75.36602,5.21434],[-75.36576,5.21391],[-75.36562,5.21343],[-75.36549,5.21297],[-75.36532,5.2125],[-75.36499,5.21218],[-75.36471,5.21186],[-75.36463,5.21141],[-75.36464,5.2108],[-75.36473,5.21],[-75.36495,5.20941],[-75.36494,5.2087],[-75.36469,5.2079],[-75.36421,5.20721],[-75.36387,5.20677],[-75.36348,5.20605],[-75.36322,5.2056],[-75.36316,5.20521],[-75.36321,5.20442],[-75.3633,5.20376],[-75.36333,5.20322],[-75.36324,5.20285],[-75.36309,5.20245],[-75.36289,5.20216],[-75.36259,5.20188],[-75.36211,5.20105],[-75.36173,5.20031],[-75.36155,5.19988],[-75.36135,5.19946],[-75.36106,5.19904],[-75.3608,5.19876],[-75.3604,5.19838],[-75.35971,5.1977],[-75.35934,5.19742],[-75.35899,5.19734],[-75.35835,5.19734],[-75.35785,5.19737],[-75.35737,5.19726],[-75.35712,5.19697],[-75.35693,5.19648],[-75.35665,5.19592],[-75.35639,5.19548],[-75.35605,5.19513],[-75.35574,5.19492],[-75.35525,5.19481],[-75.35452,5.19463],[-75.35384,5.19441],[-75.35397,5.19435],[-75.35361,5.19424],[-75.35306,5.19383],[-75.35233,5.19338],[-75.35173,5.19309],[-75.35136,5.19324],[-75.35088,5.19363],[-75.35039,5.19417],[-75.3501,5.19428],[-75.34941,5.19431],[-75.34825,5.19426],[-75.34709,5.19418],[-75.34651,5.19404],[-75.34597,5.19377],[-75.34559,5.19344],[-75.34528,5.193],[-75.34496,5.19254],[-75.34462,5.19209],[-75.34419,5.19173],[-75.34383,5.19142],[-75.34343,5.1913],[-75.34285,5.19137],[-75.34199,5.1918],[-75.34119,5.1925],[-75.34087,5.19294],[-75.34047,5.19381],[-75.34023,5.19403],[-75.34014,5.19443],[-75.33944,5.19527],[-75.3388,5.1959],[-75.33824,5.19628],[-75.3378,5.1965],[-75.33669,5.19659],[-75.33642,5.19653],[-75.33616,5.19653],[-75.33591,5.19647],[-75.33582,5.19643],[-75.33557,5.19626],[-75.33515,5.196],[-75.33467,5.19563],[-75.3342,5.19522],[-75.3338,5.19477],[-75.33349,5.19436],[-75.3332,5.19384],[-75.33291,5.1932],[-75.33266,5.19264],[-75.33194,5.19154],[-75.33159,5.191],[-75.33136,5.19057],[-75.33068,5.18961],[-75.33029,5.18889],[-75.33019,5.1885],[-75.33014,5.18746],[-75.33014,5.18695],[-75.33014,5.18611],[-75.33008,5.18577],[-75.32995,5.18568],[-75.32936,5.18554],[-75.32866,5.18539],[-75.32765,5.18504],[-75.3271,5.18486],[-75.32625,5.18485],[-75.32567,5.18491],[-75.32518,5.18508],[-75.32486,5.18509],[-75.32451,5.18498],[-75.32424,5.18479],[-75.32434,5.18556],[-75.32441,5.18595],[-75.3244,5.18645],[-75.32438,5.18677],[-75.32424,5.18735],[-75.3242,5.18781],[-75.32421,5.18823],[-75.32426,5.18864],[-75.32421,5.18892],[-75.32396,5.18946],[-75.32371,5.18999],[-75.32349,5.19026],[-75.32297,5.19108],[-75.32278,5.19151],[-75.32268,5.1919],[-75.32264,5.19233],[-75.32242,5.19309],[-75.32223,5.19375],[-75.32201,5.19418],[-75.32152,5.195],[-75.32104,5.19562],[-75.3205,5.19621],[-75.32032,5.19651],[-75.32044,5.19694],[-75.32066,5.1974],[-75.3208,5.19806],[-75.3209,5.19865],[-75.32087,5.19915],[-75.32068,5.19948],[-75.3203,5.19996],[-75.31995,5.20033],[-75.31966,5.20082],[-75.31936,5.20143],[-75.31937,5.20173],[-75.3195,5.20218],[-75.31944,5.20251],[-75.31929,5.20276],[-75.3191,5.20298],[-75.31836,5.20339],[-75.31795,5.20371],[-75.31756,5.20401],[-75.31742,5.20441],[-75.31739,5.20487],[-75.31742,5.20545],[-75.31738,5.20589],[-75.31734,5.20614],[-75.31681,5.20683],[-75.31658,5.20716],[-75.31639,5.20774],[-75.31625,5.20824],[-75.31613,5.20884],[-75.31609,5.2097],[-75.31601,5.21054],[-75.31597,5.21109],[-75.3157,5.21176],[-75.31531,5.21231],[-75.31528,5.21234],[-75.31508,5.21263],[-75.31465,5.21292],[-75.31385,5.21339],[-75.3131,5.2139],[-75.31218,5.21455],[-75.31123,5.21533],[-75.31088,5.21557],[-75.31052,5.21583],[-75.31033,5.21595],[-75.31019,5.21604],[-75.30973,5.21632],[-75.30921,5.21667],[-75.30882,5.21703],[-75.30844,5.21729],[-75.30807,5.2176],[-75.30769,5.2182],[-75.30752,5.21863],[-75.30738,5.21914],[-75.3072,5.21951],[-75.3069,5.22006],[-75.30651,5.22062],[-75.30629,5.22114],[-75.30609,5.22165],[-75.30585,5.22246],[-75.30575,5.22281],[-75.3055,5.22389],[-75.30526,5.22433],[-75.30505,5.22475],[-75.30478,5.22531],[-75.30431,5.22614],[-75.30409,5.22655],[-75.30432,5.2268],[-75.30453,5.22713],[-75.30459,5.22736],[-75.30457,5.22774],[-75.30448,5.22796],[-75.30455,5.22829],[-75.30447,5.22865],[-75.3042,5.22885],[-75.30384,5.22903],[-75.30378,5.22928],[-75.30387,5.22955],[-75.30421,5.22987],[-75.30443,5.23017],[-75.30452,5.23054],[-75.30471,5.231],[-75.30476,5.23137],[-75.30476,5.23162],[-75.30459,5.23189],[-75.30432,5.23207],[-75.30426,5.23235],[-75.30412,5.23269],[-75.30383,5.23299],[-75.30375,5.23304],[-75.30357,5.23319],[-75.30385,5.23335],[-75.30438,5.2333],[-75.30553,5.23284],[-75.30598,5.23274],[-75.30633,5.23258],[-75.30662,5.232],[-75.30699,5.23147],[-75.30722,5.23088],[-75.30749,5.2308],[-75.30767,5.23087],[-75.30801,5.23096],[-75.30829,5.23085],[-75.30875,5.23056],[-75.3092,5.23042],[-75.30953,5.23043],[-75.30999,5.23048],[-75.31029,5.23035],[-75.31073,5.22993],[-75.31119,5.22983],[-75.31159,5.22982],[-75.31192,5.22972],[-75.31201,5.22951],[-75.31226,5.22928],[-75.31253,5.22933],[-75.31271,5.22957],[-75.31305,5.22977],[-75.31352,5.22969],[-75.31393,5.22951],[-75.31414,5.22938],[-75.31481,5.22927],[-75.31542,5.22897],[-75.31574,5.22934],[-75.31621,5.2303],[-75.31658,5.23107],[-75.31688,5.2318],[-75.31717,5.23245],[-75.31728,5.23264],[-75.31731,5.23279],[-75.31688,5.23288],[-75.31657,5.233],[-75.31619,5.23314],[-75.31555,5.23344],[-75.31489,5.23386],[-75.31464,5.2341],[-75.31465,5.23424],[-75.3149,5.235],[-75.31509,5.23551],[-75.31531,5.23579],[-75.31508,5.23629],[-75.3148,5.23739],[-75.31472,5.23799],[-75.31477,5.23855],[-75.3149,5.23893],[-75.31508,5.23931],[-75.31524,5.23953],[-75.3151,5.23973],[-75.315,5.24009],[-75.31499,5.24047],[-75.31504,5.24081],[-75.31465,5.24105],[-75.314,5.24164],[-75.31333,5.24244],[-75.31291,5.24294],[-75.31271,5.2435],[-75.31266,5.2444],[-75.31272,5.24485],[-75.31262,5.24484],[-75.31194,5.24455],[-75.31154,5.24442],[-75.31133,5.24427],[-75.31087,5.24415],[-75.31062,5.24412],[-75.31031,5.2441],[-75.3101,5.24403],[-75.30979,5.24397],[-75.30957,5.24401],[-75.30926,5.24408],[-75.30898,5.24413],[-75.30871,5.24416],[-75.30845,5.2443],[-75.30819,5.24453],[-75.30792,5.24474],[-75.30762,5.24497],[-75.30718,5.24532],[-75.30697,5.24549],[-75.30677,5.2456],[-75.30649,5.24565],[-75.30627,5.24558],[-75.306,5.24567],[-75.30581,5.24582],[-75.30561,5.24609],[-75.3054,5.24626],[-75.30519,5.24623],[-75.30501,5.24616],[-75.30499,5.2464],[-75.305,5.24704],[-75.30503,5.24734],[-75.30515,5.24767],[-75.30521,5.24802],[-75.3054,5.24849],[-75.3056,5.24874],[-75.3058,5.24885],[-75.30616,5.24892],[-75.30635,5.24891],[-75.30672,5.24875],[-75.30707,5.24854],[-75.30732,5.24839],[-75.30745,5.2482],[-75.3078,5.24762],[-75.30798,5.24729],[-75.30821,5.24711],[-75.30852,5.24706],[-75.30904,5.24707],[-75.30967,5.24701],[-75.3102,5.24695],[-75.31069,5.24709],[-75.31134,5.24735],[-75.31152,5.24746],[-75.31169,5.24765],[-75.31183,5.24801],[-75.312,5.24826],[-75.31226,5.24832],[-75.31246,5.24812],[-75.31248,5.24777],[-75.31251,5.2475],[-75.31265,5.24725],[-75.31301,5.24697],[-75.3133,5.24686],[-75.31379,5.24665],[-75.31402,5.24705],[-75.31429,5.24739],[-75.31447,5.24762],[-75.3146,5.24789],[-75.31468,5.24801],[-75.31489,5.24798],[-75.31505,5.24795],[-75.31508,5.24807],[-75.31528,5.24836],[-75.31549,5.24862],[-75.31569,5.24889],[-75.31591,5.24931],[-75.31598,5.24954],[-75.31603,5.24983],[-75.31612,5.25017]]]},"properties":{"OBJECTID":1,"CODIGO":" ","REGLAME":" ","NUM_RES_VI":"Resolución 1987 de 2016","AREA_RES":3251.7676261030356,"SUEL_PROT":" ","TERRIT_PNN":" ","OBSERV":" ","SHAPE_Leng":0,"PASECTOR":"Cordillera Central","PADISTRTO":"Viejo Caldas - Tolima","PACOMPLEJO":"Las Marias","PANOMBRE":"Las Tres Marias","PA_NOMENC":" ","Shape_Length":29863.77753534116,"Shape_Area":32517676.261030357}}]}