{"type":"FeatureCollection","name":"Áreas verdes centros poblados","crs":{"type":"name","properties":{"name":"urn:ogc:def:crs:OGC:1.3:CRS84"}},"features":[{"type":"Feature","id":1,"geometry":{"type":"Polygon","coordinates":[[[-74.98914,5.4115],[-74.98916,5.4115],[-74.98919,5.41149],[-74.98921,5.41148],[-74.98924,5.41146],[-74.98925,5.41144],[-74.98927,5.41141],[-74.98928,5.41139],[-74.98927,5.41138],[-74.98926,5.4114],[-74.98925,5.4114],[-74.98923,5.41142],[-74.98923,5.41142],[-74.98919,5.41146],[-74.98919,5.41145],[-74.98917,5.41148],[-74.98916,5.41147],[-74.98914,5.4115]]]},"properties":{"OBJECTID_1":1,"OBJECTID":1,"Layer":"Zonas Verdes","Cabecera":"Samaná","Shape_Leng":45.3998172737,"Area_m2":53.43877782454558,"Shape_Length":45.38508001665148,"Shape_Area":53.41746035893942}},{"type":"Feature","id":2,"geometry":{"type":"Polygon","coordinates":[[[-74.98917,5.41152],[-74.98914,5.41152],[-74.98911,5.41153],[-74.98904,5.4116],[-74.98905,5.4116],[-74.9892,5.41151],[-74.98917,5.41152]]]},"properties":{"OBJECTID_1":2,"OBJECTID":2,"Layer":"Zonas Verdes","Cabecera":"Samaná","Shape_Leng":41.6268235623,"Area_m2":32.43254373960741,"Shape_Length":41.61315369828466,"Shape_Area":32.412455549160256}},{"type":"Feature","id":3,"geometry":{"type":"Polygon","coordinates":[[[-74.989,5.41157],[-74.98901,5.41157],[-74.98902,5.41158],[-74.98892,5.41149],[-74.98896,5.41144],[-74.98895,5.41142],[-74.98894,5.41141],[-74.98893,5.41139],[-74.98893,5.41137],[-74.98893,5.41135],[-74.98893,5.41132],[-74.98893,5.41129],[-74.98894,5.41127],[-74.98895,5.41125],[-74.98896,5.41122],[-74.98897,5.41121],[-74.98899,5.41119],[-74.98901,5.41117],[-74.98903,5.41116],[-74.98905,5.41115],[-74.98908,5.41114],[-74.98911,5.41114],[-74.98914,5.41114],[-74.98917,5.41115],[-74.9892,5.41115],[-74.98921,5.41112],[-74.98918,5.41111],[-74.98915,5.41111],[-74.98912,5.41111],[-74.9891,5.41112],[-74.98907,5.41113],[-74.98905,5.41114],[-74.98903,5.41115],[-74.98897,5.4112],[-74.98893,5.41125],[-74.98891,5.41127],[-74.98889,5.41129],[-74.98888,5.4113],[-74.98884,5.41132],[-74.9888,5.41134],[-74.98876,5.41136],[-74.98881,5.41142],[-74.98897,5.41158],[-74.98898,5.41157],[-74.98898,5.41157],[-74.98899,5.41157],[-74.989,5.41157]]]},"properties":{"OBJECTID_1":3,"OBJECTID":3,"Layer":"Zonas Verdes","Cabecera":"Samaná","Shape_Leng":180.315832794,"Area_m2":388.82529407152214,"Shape_Length":180.25718978947415,"Shape_Area":388.65949871692}},{"type":"Feature","id":4,"geometry":{"type":"Polygon","coordinates":[[[-74.98896,5.41127],[-74.98895,5.4113],[-74.98895,5.41132],[-74.98895,5.41135],[-74.98896,5.41138],[-74.98896,5.4114],[-74.98898,5.41142],[-74.98912,5.41126],[-74.98911,5.41126],[-74.9891,5.41126],[-74.98909,5.41126],[-74.98909,5.41125],[-74.98908,5.41125],[-74.98908,5.41124],[-74.98908,5.41124],[-74.98908,5.41123],[-74.98908,5.41123],[-74.98908,5.41122],[-74.98907,5.41122],[-74.98907,5.41121],[-74.98907,5.41121],[-74.98907,5.4112],[-74.98907,5.4112],[-74.98905,5.41118],[-74.98903,5.41119],[-74.98901,5.4112],[-74.98899,5.41122],[-74.98897,5.41125],[-74.98896,5.41127]]]},"properties":{"OBJECTID_1":4,"OBJECTID":4,"Layer":"Zonas Verdes","Cabecera":"Samaná","Shape_Leng":71.6101812023,"Area_m2":265.10754398021584,"Shape_Length":71.58695904871497,"Shape_Area":265.0045585647554}},{"type":"Feature","id":5,"geometry":{"type":"Polygon","coordinates":[[[-74.98898,5.41159],[-74.98898,5.41159],[-74.98898,5.41159],[-74.98897,5.4116],[-74.98897,5.4116],[-74.98897,5.4116],[-74.98897,5.41161],[-74.98897,5.41161],[-74.98897,5.41161],[-74.98897,5.41162],[-74.98897,5.41162],[-74.98897,5.41163],[-74.98897,5.41163],[-74.98897,5.41163],[-74.98898,5.41163],[-74.98898,5.41164],[-74.98898,5.41164],[-74.98899,5.41164],[-74.98899,5.41164],[-74.989,5.41164],[-74.989,5.41163],[-74.989,5.41163],[-74.98901,5.41163],[-74.98901,5.41163],[-74.98901,5.41162],[-74.98901,5.41162],[-74.98901,5.41161],[-74.98901,5.41161],[-74.98901,5.41161],[-74.98901,5.4116],[-74.98901,5.4116],[-74.989,5.4116],[-74.989,5.41159],[-74.989,5.41159],[-74.98899,5.41159],[-74.98899,5.41159],[-74.98898,5.41159]]]},"properties":{"OBJECTID_1":5,"OBJECTID":5,"Layer":"Zonas Verdes","Cabecera":"Samaná","Shape_Leng":15.8896905843,"Area_m2":20.035811589701545,"Shape_Length":15.884565109045537,"Shape_Area":20.02794450632075}},{"type":"Feature","id":6,"geometry":{"type":"Polygon","coordinates":[[[-74.9893,5.4114],[-74.98929,5.41142],[-74.98928,5.41145],[-74.98926,5.41147],[-74.98924,5.41149],[-74.98937,5.4114],[-74.98938,5.4114],[-74.98938,5.4114],[-74.98938,5.41139],[-74.98938,5.41139],[-74.98938,5.41137],[-74.98931,5.41137],[-74.9893,5.4114]]]},"properties":{"OBJECTID_1":6,"OBJECTID":6,"Layer":"Zonas Verdes","Cabecera":"Samaná","Shape_Leng":45.0990930357,"Area_m2":59.83571875745452,"Shape_Length":45.08458426027519,"Shape_Area":59.83058327253467}},{"type":"Feature","id":7,"geometry":{"type":"Polygon","coordinates":[[[-74.99048,5.41231],[-74.99047,5.41231],[-74.99047,5.41231],[-74.99047,5.41231],[-74.99047,5.41231],[-74.99047,5.41232],[-74.99046,5.41232],[-74.99046,5.41232],[-74.99046,5.41233],[-74.99046,5.41233],[-74.99046,5.41233],[-74.99047,5.41234],[-74.99047,5.41234],[-74.99047,5.41234],[-74.99047,5.41234],[-74.99047,5.41234],[-74.99048,5.41234],[-74.99048,5.41234],[-74.99048,5.41234],[-74.99049,5.41234],[-74.99049,5.41234],[-74.99049,5.41234],[-74.99049,5.41234],[-74.9905,5.41234],[-74.9905,5.41233],[-74.9905,5.41233],[-74.9905,5.41233],[-74.9905,5.41232],[-74.9905,5.41232],[-74.9905,5.41232],[-74.99049,5.41231],[-74.99049,5.41231],[-74.99049,5.41231],[-74.99049,5.41231],[-74.99048,5.41231],[-74.99048,5.41231],[-74.99048,5.41231]]]},"properties":{"OBJECTID_1":7,"OBJECTID":7,"Layer":"Zonas Verdes","Cabecera":"Samaná","Shape_Leng":12.312607196,"Area_m2":12.030280197763044,"Shape_Length":12.30858664408504,"Shape_Area":12.0254708195918}},{"type":"Feature","id":8,"geometry":{"type":"Polygon","coordinates":[[[-74.98999,5.41228],[-74.99014,5.41237],[-74.99046,5.41235],[-74.99045,5.41234],[-74.99045,5.41233],[-74.99045,5.41232],[-74.99045,5.41232],[-74.99044,5.41223],[-74.98999,5.41228]]]},"properties":{"OBJECTID_1":8,"OBJECTID":8,"Layer":"Zonas Verdes","Cabecera":"Samaná","Shape_Leng":117.235544815,"Area_m2":514.4314432642485,"Shape_Length":117.19753278558983,"Shape_Area":514.230213791681}},{"type":"Feature","id":9,"geometry":{"type":"Polygon","coordinates":[[[-74.99052,5.41233],[-74.99052,5.41234],[-74.99052,5.41234],[-74.99052,5.41235],[-74.99052,5.41235],[-74.99051,5.41236],[-74.99051,5.41236],[-74.9905,5.41237],[-74.99051,5.41238],[-74.99055,5.41237],[-74.99054,5.41229],[-74.99051,5.41229],[-74.99051,5.41232],[-74.99051,5.41232],[-74.99052,5.41232],[-74.99052,5.41233]]]},"properties":{"OBJECTID_1":9,"OBJECTID":9,"Layer":"Zonas Verdes","Cabecera":"Samaná","Shape_Leng":29.5616593864,"Area_m2":32.1240877976558,"Shape_Length":29.552193385514492,"Shape_Area":32.11039931851672}},{"type":"Feature","id":10,"geometry":{"type":"Polygon","coordinates":[[[-74.99236,5.41282],[-74.99237,5.41285],[-74.99239,5.41284],[-74.99239,5.41282],[-74.99236,5.41282]]]},"properties":{"OBJECTID_1":10,"OBJECTID":10,"Layer":"Zonas Verdes","Cabecera":"Samaná","Shape_Leng":10.8772296527,"Area_m2":7.388517751486543,"Shape_Length":10.873653376923553,"Shape_Area":7.3855359588584015}},{"type":"Feature","id":11,"geometry":{"type":"Polygon","coordinates":[[[-74.99236,5.41273],[-74.99236,5.41276],[-74.99238,5.41275],[-74.99238,5.41273],[-74.99236,5.41273]]]},"properties":{"OBJECTID_1":11,"OBJECTID":11,"Layer":"Zonas Verdes","Cabecera":"Samaná","Shape_Leng":9.41284833468,"Area_m2":5.5320088492332,"Shape_Length":9.409804068424489,"Shape_Area":5.529837066560791}},{"type":"Feature","id":12,"geometry":{"type":"Polygon","coordinates":[[[-74.99236,5.41278],[-74.99237,5.4128],[-74.99239,5.4128],[-74.99239,5.41278],[-74.99236,5.41278]]]},"properties":{"OBJECTID_1":12,"OBJECTID":12,"Layer":"Zonas Verdes","Cabecera":"Samaná","Shape_Leng":9.41273925925,"Area_m2":5.531878809952044,"Shape_Length":9.409695153063081,"Shape_Area":5.529707231781364}},{"type":"Feature","id":13,"geometry":{"type":"Polygon","coordinates":[[[-74.99237,5.41287],[-74.99237,5.41289],[-74.99239,5.41289],[-74.99239,5.41287],[-74.99237,5.41287]]]},"properties":{"OBJECTID_1":13,"OBJECTID":13,"Layer":"Zonas Verdes","Cabecera":"Samaná","Shape_Leng":10.8770314169,"Area_m2":7.388253206547067,"Shape_Length":10.873654507071823,"Shape_Area":7.385548537491413}},{"type":"Feature","id":14,"geometry":{"type":"Polygon","coordinates":[[[-74.9922,5.41298],[-74.9922,5.41304],[-74.99238,5.41302],[-74.99237,5.41296],[-74.9922,5.41298]]]},"properties":{"OBJECTID_1":14,"OBJECTID":14,"Layer":"Zonas Verdes","Cabecera":"Samaná","Shape_Leng":51.5757176452,"Area_m2":124.57120513216981,"Shape_Length":51.558922356206374,"Shape_Area":124.52099654947341}},{"type":"Feature","id":15,"geometry":{"type":"Polygon","coordinates":[[[-74.99229,5.41285],[-74.99233,5.41285],[-74.99232,5.41273],[-74.99227,5.41277],[-74.99227,5.41277],[-74.99226,5.41277],[-74.99227,5.41283],[-74.99229,5.41283],[-74.99229,5.41285]]]},"properties":{"OBJECTID_1":15,"OBJECTID":15,"Layer":"Zonas Verdes","Cabecera":"Samaná","Shape_Leng":39.7490537698,"Area_m2":72.04452830921063,"Shape_Length":39.73609054465571,"Shape_Area":72.01533181258145}},{"type":"Feature","id":16,"geometry":{"type":"Polygon","coordinates":[[[-74.99492,5.41236],[-74.99491,5.41236],[-74.99491,5.41237],[-74.99491,5.41237],[-74.99491,5.41238],[-74.99491,5.41239],[-74.99491,5.41239],[-74.99492,5.4124],[-74.99492,5.41241],[-74.99493,5.41241],[-74.99494,5.41243],[-74.99495,5.41245],[-74.99495,5.41246],[-74.99495,5.41247],[-74.99495,5.41248],[-74.99496,5.41249],[-74.99496,5.41251],[-74.99496,5.41252],[-74.99497,5.41253],[-74.99498,5.41253],[-74.99499,5.41253],[-74.995,5.41252],[-74.99501,5.41251],[-74.99502,5.41249],[-74.99503,5.41247],[-74.99505,5.41246],[-74.99508,5.41246],[-74.99512,5.41245],[-74.99513,5.41243],[-74.99492,5.41236],[-74.99492,5.41236]]]},"properties":{"OBJECTID_1":16,"OBJECTID":16,"Layer":"Zonas Verdes","Cabecera":"Samaná","Shape_Leng":68.1388867627,"Area_m2":198.99890320022442,"Shape_Length":68.1169906220881,"Shape_Area":198.90398279189233}},{"type":"Feature","id":17,"geometry":{"type":"Polygon","coordinates":[[[-74.995,5.412],[-74.99499,5.412],[-74.99499,5.412],[-74.99499,5.41201],[-74.99498,5.41201],[-74.99498,5.41201],[-74.99498,5.41201],[-74.99498,5.41202],[-74.99498,5.41202],[-74.99498,5.41202],[-74.99498,5.41203],[-74.99498,5.41203],[-74.99498,5.41203],[-74.99499,5.41204],[-74.99499,5.41204],[-74.99499,5.41204],[-74.995,5.41204],[-74.995,5.41204],[-74.995,5.41204],[-74.99501,5.41204],[-74.99501,5.41204],[-74.99501,5.41204],[-74.99502,5.41203],[-74.99502,5.41203],[-74.99502,5.41203],[-74.99502,5.41202],[-74.99502,5.41202],[-74.99502,5.41202],[-74.99502,5.41201],[-74.99502,5.41201],[-74.99501,5.41201],[-74.99501,5.41201],[-74.99501,5.412],[-74.99501,5.412],[-74.995,5.412],[-74.995,5.412],[-74.995,5.412]]]},"properties":{"OBJECTID_1":17,"OBJECTID":17,"Layer":"Zonas Verdes","Cabecera":"Samaná","Shape_Leng":13.6644417791,"Area_m2":14.816935627356674,"Shape_Length":13.660014374668215,"Shape_Area":14.811124310860418}},{"type":"Feature","id":18,"geometry":{"type":"Polygon","coordinates":[[[-74.99505,5.41212],[-74.99505,5.41212],[-74.99505,5.41212],[-74.99505,5.41212],[-74.99504,5.41212],[-74.99504,5.41213],[-74.99504,5.41213],[-74.99504,5.41213],[-74.99504,5.41213],[-74.99504,5.41214],[-74.99504,5.41214],[-74.99504,5.41214],[-74.99504,5.41214],[-74.99505,5.41215],[-74.99505,5.41215],[-74.99505,5.41215],[-74.99505,5.41215],[-74.99506,5.41215],[-74.99506,5.41215],[-74.99506,5.41215],[-74.99507,5.41215],[-74.99507,5.41215],[-74.99507,5.41214],[-74.99507,5.41214],[-74.99507,5.41214],[-74.99507,5.41214],[-74.99507,5.41213],[-74.99507,5.41213],[-74.99507,5.41213],[-74.99507,5.41213],[-74.99507,5.41212],[-74.99507,5.41212],[-74.99507,5.41212],[-74.99506,5.41212],[-74.99506,5.41212],[-74.99506,5.41212],[-74.99505,5.41212]]]},"properties":{"OBJECTID_1":18,"OBJECTID":18,"Layer":"Zonas Verdes","Cabecera":"Samaná","Shape_Leng":11.2468689268,"Area_m2":10.037784299679906,"Shape_Length":11.243241938474169,"Shape_Area":10.033878199564956}},{"type":"Feature","id":19,"geometry":{"type":"Polygon","coordinates":[[[-74.995,5.41211],[-74.99503,5.41212],[-74.99503,5.41211],[-74.99504,5.41211],[-74.99504,5.41211],[-74.99505,5.4121],[-74.99505,5.4121],[-74.99506,5.4121],[-74.99507,5.4121],[-74.99507,5.4121],[-74.99508,5.4121],[-74.99508,5.41208],[-74.99509,5.41204],[-74.9951,5.41202],[-74.99509,5.41201],[-74.99508,5.41199],[-74.99507,5.41198],[-74.99505,5.41198],[-74.99503,5.41197],[-74.99503,5.41199],[-74.99503,5.41199],[-74.99503,5.412],[-74.99504,5.412],[-74.99504,5.41201],[-74.99504,5.41201],[-74.99504,5.41202],[-74.99504,5.41203],[-74.99503,5.41203],[-74.99502,5.41206],[-74.995,5.41211]]]},"properties":{"OBJECTID_1":19,"OBJECTID":19,"Layer":"Zonas Verdes","Cabecera":"Samaná","Shape_Leng":44.5100627392,"Area_m2":97.08599343180941,"Shape_Length":44.49562870337815,"Shape_Area":97.04801790851721}},{"type":"Feature","id":20,"geometry":{"type":"Polygon","coordinates":[[[-74.99495,5.41209],[-74.99495,5.41209],[-74.99494,5.41209],[-74.99494,5.41209],[-74.99494,5.41209],[-74.99494,5.4121],[-74.99493,5.4121],[-74.99493,5.4121],[-74.99493,5.41211],[-74.99493,5.41211],[-74.99493,5.41211],[-74.99494,5.41212],[-74.99494,5.41212],[-74.99494,5.41212],[-74.99494,5.41212],[-74.99495,5.41213],[-74.99495,5.41213],[-74.99495,5.41213],[-74.99496,5.41213],[-74.99496,5.41213],[-74.99496,5.41212],[-74.99497,5.41212],[-74.99497,5.41212],[-74.99497,5.41212],[-74.99497,5.41211],[-74.99497,5.41211],[-74.99497,5.41211],[-74.99497,5.4121],[-74.99497,5.4121],[-74.99497,5.4121],[-74.99497,5.41209],[-74.99497,5.41209],[-74.99496,5.41209],[-74.99496,5.41209],[-74.99496,5.41209],[-74.99495,5.41209],[-74.99495,5.41209]]]},"properties":{"OBJECTID_1":20,"OBJECTID":20,"Layer":"Zonas Verdes","Cabecera":"Samaná","Shape_Leng":14.2570287055,"Area_m2":16.1299367205557,"Shape_Length":14.252432947685842,"Shape_Area":16.123663574056412}},{"type":"Feature","id":21,"geometry":{"type":"Polygon","coordinates":[[[-74.99498,5.41219],[-74.99501,5.41219],[-74.99505,5.4122],[-74.99507,5.41221],[-74.99508,5.41218],[-74.99507,5.41217],[-74.99507,5.41217],[-74.99506,5.41217],[-74.99505,5.41217],[-74.99504,5.41217],[-74.99504,5.41216],[-74.99503,5.41216],[-74.99503,5.41215],[-74.99502,5.41214],[-74.99502,5.41214],[-74.995,5.41213],[-74.99498,5.41219]]]},"properties":{"OBJECTID_1":21,"OBJECTID":21,"Layer":"Zonas Verdes","Cabecera":"Samaná","Shape_Leng":30.8051100769,"Area_m2":45.91940977610525,"Shape_Length":30.79528352095321,"Shape_Area":45.90090064837479}},{"type":"Feature","id":22,"geometry":{"type":"Polygon","coordinates":[[[-74.99511,5.41201],[-74.99511,5.41203],[-74.99511,5.41205],[-74.99509,5.41212],[-74.99509,5.41213],[-74.99509,5.41213],[-74.99509,5.41214],[-74.99509,5.41215],[-74.99509,5.41216],[-74.99509,5.41216],[-74.99509,5.41217],[-74.99511,5.41216],[-74.99512,5.41213],[-74.99513,5.41211],[-74.99515,5.41209],[-74.99517,5.41207],[-74.99525,5.41197],[-74.99519,5.41196],[-74.99518,5.41199],[-74.99509,5.41198],[-74.99511,5.41201]]]},"properties":{"OBJECTID_1":22,"OBJECTID":22,"Layer":"Zonas Verdes","Cabecera":"Samaná","Shape_Leng":71.1424857449,"Area_m2":173.67687002303236,"Shape_Length":71.11944206257255,"Shape_Area":173.6149503356976}},{"type":"Feature","id":23,"geometry":{"type":"Polygon","coordinates":[[[-74.99492,5.41217],[-74.99496,5.41218],[-74.99497,5.41217],[-74.99498,5.41213],[-74.99497,5.41213],[-74.99497,5.41213],[-74.99496,5.41214],[-74.99496,5.41214],[-74.99495,5.41214],[-74.99494,5.41213],[-74.99494,5.41213],[-74.99493,5.41213],[-74.99492,5.41217]]]},"properties":{"OBJECTID_1":23,"OBJECTID":23,"Layer":"Zonas Verdes","Cabecera":"Samaná","Shape_Leng":21.5247017907,"Area_m2":25.63948491295606,"Shape_Length":21.517772361525168,"Shape_Area":25.629760446571463}},{"type":"Feature","id":24,"geometry":{"type":"Polygon","coordinates":[[[-74.99498,5.41198],[-74.99497,5.41199],[-74.99496,5.41201],[-74.99496,5.41203],[-74.99495,5.41205],[-74.99495,5.41207],[-74.99495,5.41207],[-74.99496,5.41208],[-74.99497,5.41208],[-74.99498,5.41209],[-74.99498,5.41209],[-74.99498,5.41211],[-74.99498,5.41211],[-74.99498,5.41211],[-74.99498,5.41211],[-74.99499,5.41211],[-74.99499,5.4121],[-74.995,5.41208],[-74.995,5.41207],[-74.995,5.41206],[-74.995,5.41206],[-74.99499,5.41206],[-74.99498,5.41205],[-74.99497,5.41205],[-74.99497,5.41204],[-74.99496,5.41203],[-74.99497,5.41202],[-74.99497,5.412],[-74.99499,5.41198],[-74.99501,5.41198],[-74.99502,5.41197],[-74.995,5.41197],[-74.99499,5.41198],[-74.99498,5.41198]]]},"properties":{"OBJECTID_1":24,"OBJECTID":24,"Layer":"Zonas Verdes","Cabecera":"Samaná","Shape_Leng":44.7185145822,"Area_m2":35.077975475297336,"Shape_Length":44.703919159078445,"Shape_Area":35.06402405632242}},{"type":"Feature","id":25,"geometry":{"type":"Polygon","coordinates":[[[-74.98976,5.41133],[-74.98987,5.41135],[-74.99037,5.41129],[-74.99044,5.41129],[-74.99038,5.41127],[-74.99032,5.41126],[-74.99031,5.41124],[-74.99031,5.41121],[-74.99032,5.41118],[-74.99033,5.41114],[-74.99036,5.4111],[-74.99033,5.4111],[-74.99024,5.41111],[-74.99018,5.41112],[-74.98996,5.41114],[-74.98994,5.41114],[-74.98985,5.41116],[-74.98982,5.41118],[-74.98976,5.41133]]]},"properties":{"OBJECTID_1":25,"OBJECTID":25,"Layer":"Taludes de Conservación","Cabecera":"Samaná","Shape_Leng":187.3140999,"Area_m2":1266.308643106774,"Shape_Length":187.25323119534656,"Shape_Area":1265.803351320321}},{"type":"Feature","id":26,"geometry":{"type":"Polygon","coordinates":[[[-74.98856,5.41105],[-74.98854,5.4111],[-74.98854,5.41112],[-74.98855,5.41117],[-74.98855,5.4112],[-74.98855,5.4112],[-74.98856,5.41122],[-74.9886,5.41125],[-74.98868,5.41129],[-74.98871,5.41129],[-74.98873,5.41129],[-74.98874,5.41129],[-74.98877,5.41128],[-74.98883,5.41125],[-74.98885,5.41124],[-74.98887,5.41121],[-74.98893,5.41114],[-74.98899,5.41109],[-74.98905,5.41105],[-74.98908,5.41104],[-74.98913,5.41103],[-74.98921,5.41104],[-74.98939,5.41107],[-74.98962,5.41109],[-74.98974,5.4111],[-74.98976,5.4111],[-74.98977,5.4111],[-74.98981,5.41107],[-74.98984,5.41104],[-74.98986,5.41101],[-74.98986,5.411],[-74.98958,5.41104],[-74.98958,5.41101],[-74.9895,5.41103],[-74.98949,5.41098],[-74.98934,5.41101],[-74.98933,5.41096],[-74.98886,5.41103],[-74.98884,5.4109],[-74.98878,5.41088],[-74.98872,5.41091],[-74.98867,5.41096],[-74.9886,5.41102],[-74.98856,5.41105]]]},"properties":{"OBJECTID_1":26,"OBJECTID":26,"Layer":"Taludes de Conservación","Cabecera":"Samaná","Shape_Leng":357.715440593,"Area_m2":2114.6686807431424,"Shape_Length":357.59908009601656,"Shape_Area":2113.833272213157}},{"type":"Feature","id":27,"geometry":{"type":"Polygon","coordinates":[[[-74.99099,5.41414],[-74.99103,5.41415],[-74.99105,5.41416],[-74.99106,5.41416],[-74.99108,5.41416],[-74.99108,5.41416],[-74.99108,5.41416],[-74.99109,5.41416],[-74.99109,5.41415],[-74.99109,5.41413],[-74.99108,5.41413],[-74.99107,5.41413],[-74.99102,5.4141],[-74.99101,5.4141],[-74.991,5.4141],[-74.99099,5.41414]]]},"properties":{"OBJECTID_1":27,"OBJECTID":27,"Layer":"Taludes de Conservación","Cabecera":"Samaná","Shape_Leng":28.4192196687,"Area_m2":45.09856877964368,"Shape_Length":28.40996590118567,"Shape_Area":45.08046637381747}},{"type":"Feature","id":28,"geometry":{"type":"Polygon","coordinates":[[[-74.99087,5.41408],[-74.99083,5.41408],[-74.99082,5.41408],[-74.99081,5.41409],[-74.99081,5.4141],[-74.99082,5.4141],[-74.99084,5.4141],[-74.99088,5.41411],[-74.99091,5.41412],[-74.99091,5.41412],[-74.99092,5.41409],[-74.99091,5.41408],[-74.99091,5.41408],[-74.99089,5.41408],[-74.99087,5.41408]]]},"properties":{"OBJECTID_1":28,"OBJECTID":28,"Layer":"Taludes de Conservación","Cabecera":"Samaná","Shape_Leng":28.4071475901,"Area_m2":35.828501864172885,"Shape_Length":28.39784720200683,"Shape_Area":35.81469460727777}},{"type":"Feature","id":29,"geometry":{"type":"Polygon","coordinates":[[[-74.99492,5.41236],[-74.99487,5.41237],[-74.99481,5.41235],[-74.99479,5.41236],[-74.99477,5.41239],[-74.99475,5.41243],[-74.99473,5.41244],[-74.99469,5.41248],[-74.9947,5.41255],[-74.99472,5.41257],[-74.99472,5.41261],[-74.99472,5.41265],[-74.99471,5.4127],[-74.99472,5.41273],[-74.99473,5.41275],[-74.99474,5.41279],[-74.99473,5.41282],[-74.99474,5.41284],[-74.99477,5.41288],[-74.99479,5.4129],[-74.99482,5.41292],[-74.99483,5.41292],[-74.99483,5.41293],[-74.99484,5.41295],[-74.99484,5.41297],[-74.99485,5.41299],[-74.99485,5.41301],[-74.99485,5.41301],[-74.99486,5.41303],[-74.99486,5.41305],[-74.99486,5.41307],[-74.99486,5.41308],[-74.99486,5.41309],[-74.99487,5.4131],[-74.99487,5.4131],[-74.99489,5.41309],[-74.99491,5.41309],[-74.99491,5.4131],[-74.99492,5.41311],[-74.99492,5.41312],[-74.99492,5.41313],[-74.99493,5.41315],[-74.99494,5.41316],[-74.99494,5.41318],[-74.99495,5.41319],[-74.99497,5.41321],[-74.99499,5.41322],[-74.995,5.41323],[-74.99502,5.41323],[-74.99504,5.41322],[-74.99505,5.41322],[-74.99508,5.41322],[-74.9951,5.41322],[-74.99513,5.41322],[-74.99522,5.41316],[-74.99536,5.41319],[-74.99542,5.41322],[-74.9955,5.41323],[-74.99556,5.4132],[-74.99566,5.41318],[-74.99574,5.41317],[-74.99582,5.41315],[-74.99585,5.41314],[-74.99598,5.41313],[-74.99607,5.41309],[-74.99616,5.41302],[-74.99618,5.41293],[-74.99613,5.41282],[-74.99608,5.41269],[-74.99596,5.41243],[-74.99594,5.41233],[-74.99592,5.41223],[-74.99589,5.41212],[-74.99587,5.41204],[-74.99584,5.41202],[-74.99578,5.41201],[-74.99569,5.41201],[-74.9956,5.41199],[-74.99545,5.41196],[-74.99535,5.41195],[-74.99531,5.41198],[-74.99527,5.41203],[-74.99525,5.41208],[-74.99522,5.41216],[-74.99523,5.41222],[-74.99519,5.41221],[-74.99516,5.4123],[-74.99512,5.41241],[-74.99513,5.41243],[-74.99512,5.41245],[-74.99508,5.41246],[-74.99505,5.41246],[-74.99503,5.41247],[-74.99502,5.41249],[-74.99501,5.41251],[-74.995,5.41252],[-74.99499,5.41253],[-74.99498,5.41253],[-74.99497,5.41253],[-74.99496,5.41252],[-74.99496,5.41251],[-74.99496,5.41249],[-74.99495,5.41248],[-74.99495,5.41247],[-74.99495,5.41246],[-74.99495,5.41245],[-74.99494,5.41243],[-74.99493,5.41241],[-74.99492,5.41241],[-74.99492,5.4124],[-74.99491,5.41239],[-74.99491,5.41239],[-74.99491,5.41238],[-74.99491,5.41237],[-74.99491,5.41237],[-74.99491,5.41236],[-74.99492,5.41236]]]},"properties":{"OBJECTID_1":29,"OBJECTID":29,"Layer":"Taludes de Conservación","Cabecera":"Samaná","Shape_Leng":551.269119288,"Area_m2":15908.242998362639,"Shape_Length":551.0910763279551,"Shape_Area":15902.019238600944}},{"type":"Feature","id":30,"geometry":{"type":"Polygon","coordinates":[[[-74.9339,5.66577],[-74.93392,5.66576],[-74.93391,5.66573],[-74.9339,5.66574],[-74.93389,5.6657],[-74.9339,5.6657],[-74.93389,5.66567],[-74.93387,5.66568],[-74.93387,5.66568],[-74.93387,5.66569],[-74.93386,5.66569],[-74.93385,5.66569],[-74.93385,5.66569],[-74.93384,5.66568],[-74.93383,5.66569],[-74.93383,5.6657],[-74.9339,5.66577]]]},"properties":{"OBJECTID_1":30,"OBJECTID":30,"Layer":"Zonas Verdes","Cabecera":"San Diego","Shape_Leng":35.4507453705,"Area_m2":50.042565456346615,"Shape_Length":35.43871878111783,"Shape_Area":50.02016474023622}},{"type":"Feature","id":31,"geometry":{"type":"Polygon","coordinates":[[[-74.93376,5.66549],[-74.93377,5.66549],[-74.93378,5.66548],[-74.93378,5.66548],[-74.93379,5.66548],[-74.9338,5.66548],[-74.9338,5.66548],[-74.9338,5.66548],[-74.93381,5.66548],[-74.93382,5.66549],[-74.93383,5.66549],[-74.9338,5.66542],[-74.93378,5.66543],[-74.93378,5.66544],[-74.93377,5.66544],[-74.93376,5.66543],[-74.93374,5.66544],[-74.93376,5.66549]]]},"properties":{"OBJECTID_1":31,"OBJECTID":31,"Layer":"Zonas Verdes","Cabecera":"San Diego","Shape_Leng":32.2169607525,"Area_m2":41.05450466997891,"Shape_Length":32.20592912581016,"Shape_Area":41.03123567927425}},{"type":"Feature","id":32,"geometry":{"type":"Polygon","coordinates":[[[-74.93367,5.66554],[-74.93369,5.66553],[-74.93369,5.66552],[-74.93372,5.66551],[-74.93373,5.66552],[-74.93375,5.66551],[-74.93372,5.66545],[-74.93369,5.66546],[-74.93369,5.66547],[-74.93367,5.66547],[-74.93367,5.66547],[-74.93365,5.66547],[-74.93367,5.66554]]]},"properties":{"OBJECTID_1":32,"OBJECTID":32,"Layer":"Zonas Verdes","Cabecera":"San Diego","Shape_Leng":37.3870427327,"Area_m2":59.484892930546366,"Shape_Length":37.374354682633516,"Shape_Area":59.45807718794747}},{"type":"Feature","id":33,"geometry":{"type":"Polygon","coordinates":[[[-74.93381,5.66581],[-74.93383,5.66586],[-74.93392,5.66583],[-74.93385,5.66575],[-74.93383,5.66575],[-74.93384,5.66577],[-74.93384,5.66577],[-74.93384,5.66578],[-74.93384,5.66579],[-74.93383,5.6658],[-74.93383,5.66581],[-74.93382,5.66581],[-74.93381,5.66581]]]},"properties":{"OBJECTID_1":33,"OBJECTID":33,"Layer":"Zonas Verdes","Cabecera":"San Diego","Shape_Leng":40.2620617121,"Area_m2":75.66884400517571,"Shape_Length":40.2480159264266,"Shape_Area":75.63437160023784}},{"type":"Feature","id":34,"geometry":{"type":"Polygon","coordinates":[[[-74.93373,5.6659],[-74.93381,5.66587],[-74.9338,5.66582],[-74.93379,5.66582],[-74.93378,5.66582],[-74.93377,5.66582],[-74.93376,5.66581],[-74.93375,5.6658],[-74.93374,5.66579],[-74.93374,5.66579],[-74.93374,5.66577],[-74.93369,5.66579],[-74.93373,5.6659]]]},"properties":{"OBJECTID_1":34,"OBJECTID":34,"Layer":"Zonas Verdes","Cabecera":"San Diego","Shape_Leng":44.0637952069,"Area_m2":98.73213091338354,"Shape_Length":44.048518304439554,"Shape_Area":98.6857041968171}},{"type":"Feature","id":35,"geometry":{"type":"Polygon","coordinates":[[[-74.93364,5.66563],[-74.93366,5.66562],[-74.93366,5.66562],[-74.93366,5.66561],[-74.93367,5.6656],[-74.93367,5.6656],[-74.93368,5.6656],[-74.93369,5.66561],[-74.93369,5.66561],[-74.93369,5.66561],[-74.93371,5.66561],[-74.93362,5.66552],[-74.9336,5.66552],[-74.93364,5.66563]]]},"properties":{"OBJECTID_1":35,"OBJECTID":35,"Layer":"Zonas Verdes","Cabecera":"San Diego","Shape_Leng":38.5375801036,"Area_m2":58.49667736468647,"Shape_Length":38.524378315643425,"Shape_Area":58.46851239869514}},{"type":"Feature","id":36,"geometry":{"type":"Polygon","coordinates":[[[-74.93371,5.66554],[-74.93369,5.66555],[-74.93369,5.66555],[-74.93369,5.66555],[-74.93369,5.66555],[-74.93369,5.66555],[-74.93375,5.66562],[-74.93375,5.66562],[-74.93376,5.66562],[-74.93376,5.66562],[-74.93378,5.66561],[-74.93377,5.66558],[-74.93376,5.66557],[-74.93375,5.66556],[-74.93375,5.66556],[-74.93375,5.66555],[-74.93374,5.66553],[-74.93371,5.66554]]]},"properties":{"OBJECTID_1":36,"OBJECTID":36,"Layer":"Zonas Verdes","Cabecera":"San Diego","Shape_Leng":30.1534886172,"Area_m2":45.73875786828234,"Shape_Length":30.143086828080378,"Shape_Area":45.71963509661218}},{"type":"Feature","id":37,"geometry":{"type":"Polygon","coordinates":[[[-74.93369,5.66577],[-74.93374,5.66576],[-74.93374,5.66575],[-74.93375,5.66574],[-74.93377,5.66572],[-74.93378,5.66572],[-74.9338,5.66572],[-74.93381,5.66572],[-74.93382,5.66573],[-74.93382,5.66573],[-74.93379,5.66569],[-74.93378,5.66568],[-74.93378,5.66568],[-74.93377,5.66568],[-74.93375,5.66569],[-74.93375,5.66569],[-74.93375,5.6657],[-74.93375,5.6657],[-74.93374,5.6657],[-74.93373,5.6657],[-74.93372,5.6657],[-74.93372,5.6657],[-74.93372,5.66569],[-74.93372,5.66568],[-74.93372,5.66568],[-74.93372,5.66567],[-74.93372,5.66567],[-74.93373,5.66566],[-74.93374,5.66566],[-74.93375,5.66567],[-74.93376,5.66566],[-74.93373,5.66563],[-74.93372,5.66563],[-74.93372,5.66562],[-74.93365,5.66565],[-74.93369,5.66577]]]},"properties":{"OBJECTID_1":37,"OBJECTID":37,"Layer":"Zonas Verdes","Cabecera":"San Diego","Shape_Leng":68.7336568669,"Area_m2":138.73109845111,"Shape_Length":68.70984005968457,"Shape_Area":138.66549609659427}},{"type":"Feature","id":38,"geometry":{"type":"Polygon","coordinates":[[[-74.93379,5.66566],[-74.93381,5.66568],[-74.93381,5.66568],[-74.93383,5.66567],[-74.93384,5.66566],[-74.93384,5.66565],[-74.93384,5.66565],[-74.93385,5.66565],[-74.93385,5.66565],[-74.93386,5.66565],[-74.93387,5.66566],[-74.93388,5.66565],[-74.93386,5.6656],[-74.93385,5.6656],[-74.93382,5.66562],[-74.93378,5.66563],[-74.93377,5.66563],[-74.93377,5.66564],[-74.93378,5.66564],[-74.93379,5.66566]]]},"properties":{"OBJECTID_1":38,"OBJECTID":38,"Layer":"Zonas Verdes","Cabecera":"San Diego","Shape_Leng":31.3829373476,"Area_m2":49.60096963800501,"Shape_Length":31.372179986101468,"Shape_Area":49.577840936185545}},{"type":"Feature","id":39,"geometry":{"type":"Polygon","coordinates":[[[-74.93379,5.66558],[-74.9338,5.6656],[-74.9338,5.6656],[-74.93385,5.66559],[-74.93384,5.66555],[-74.93384,5.66556],[-74.93384,5.66556],[-74.93383,5.66557],[-74.93383,5.66557],[-74.93382,5.66558],[-74.93381,5.66558],[-74.9338,5.66558],[-74.93379,5.66558],[-74.93379,5.66558]]]},"properties":{"OBJECTID_1":39,"OBJECTID":39,"Layer":"Zonas Verdes","Cabecera":"San Diego","Shape_Leng":21.0094249182,"Area_m2":16.858289422607424,"Shape_Length":21.002152627769004,"Shape_Area":16.850376082070852}},{"type":"Feature","id":40,"geometry":{"type":"Polygon","coordinates":[[[-74.93209,5.66219],[-74.93209,5.66219],[-74.93217,5.66222],[-74.93218,5.66216],[-74.93222,5.66204],[-74.93223,5.66197],[-74.93226,5.66186],[-74.93227,5.66181],[-74.93229,5.66175],[-74.9323,5.66172],[-74.93228,5.66172],[-74.93228,5.66174],[-74.93225,5.66173],[-74.93224,5.66174],[-74.93222,5.66173],[-74.93222,5.66172],[-74.9322,5.66171],[-74.93218,5.66174],[-74.93216,5.66182],[-74.93214,5.66189],[-74.93212,5.66197],[-74.93209,5.66204],[-74.93208,5.6621],[-74.93204,5.66217],[-74.93204,5.66218],[-74.93206,5.66218],[-74.93206,5.66218],[-74.93209,5.66219]]]},"properties":{"OBJECTID_1":40,"OBJECTID":40,"Layer":"Zonas Verdes","Cabecera":"San Diego","Shape_Leng":143.89168331,"Area_m2":675.7710450227029,"Shape_Length":143.8419235395243,"Shape_Area":675.4587160530663}},{"type":"Feature","id":41,"geometry":{"type":"Polygon","coordinates":[[[-74.95004,5.59589],[-74.95004,5.5959],[-74.95008,5.59591],[-74.95008,5.59588],[-74.95006,5.59588],[-74.95004,5.59589]]]},"properties":{"OBJECTID_1":41,"OBJECTID":41,"Layer":"Zonas Verdes","Cabecera":"Berlin","Shape_Leng":13.8900490444,"Area_m2":11.727305917813386,"Shape_Length":13.885328293681725,"Shape_Area":11.722170869586368}},{"type":"Feature","id":42,"geometry":{"type":"Polygon","coordinates":[[[-74.94979,5.5958],[-74.94978,5.59587],[-74.94985,5.59588],[-74.94993,5.59589],[-74.94996,5.59589],[-74.94998,5.5959],[-74.95001,5.5959],[-74.95001,5.5959],[-74.95001,5.59589],[-74.95001,5.59589],[-74.95,5.59587],[-74.95,5.59586],[-74.94999,5.59586],[-74.94994,5.59586],[-74.94983,5.59584],[-74.94984,5.59581],[-74.94985,5.5958],[-74.94986,5.5958],[-74.94986,5.59579],[-74.94986,5.59579],[-74.94987,5.5958],[-74.94988,5.5958],[-74.94989,5.5958],[-74.94989,5.5958],[-74.9499,5.59581],[-74.9499,5.59581],[-74.9499,5.59582],[-74.94991,5.59582],[-74.94991,5.59582],[-74.94992,5.59582],[-74.94994,5.59583],[-74.94995,5.59583],[-74.94996,5.59583],[-74.94997,5.59583],[-74.94997,5.59583],[-74.95004,5.59582],[-74.95004,5.59582],[-74.95005,5.59583],[-74.95006,5.59584],[-74.95008,5.59585],[-74.95009,5.59585],[-74.95009,5.59584],[-74.95009,5.59583],[-74.95009,5.59583],[-74.9501,5.5958],[-74.9501,5.59576],[-74.95009,5.59574],[-74.95006,5.59573],[-74.94998,5.59574],[-74.94982,5.59575],[-74.94979,5.59576],[-74.94979,5.5958]]]},"properties":{"OBJECTID_1":42,"OBJECTID":42,"Layer":"Zonas Verdes","Cabecera":"Berlin","Shape_Leng":141.304815803,"Area_m2":404.89120133525853,"Shape_Length":141.2569989663633,"Shape_Area":404.7110181777667}},{"type":"Feature","id":43,"geometry":{"type":"Polygon","coordinates":[[[-74.94909,5.59593],[-74.94911,5.59593],[-74.94917,5.59593],[-74.9492,5.59594],[-74.94923,5.59593],[-74.94925,5.59592],[-74.94926,5.59592],[-74.94926,5.59591],[-74.94925,5.59589],[-74.94923,5.59588],[-74.94919,5.59588],[-74.94915,5.59587],[-74.94912,5.59587],[-74.94911,5.59587],[-74.94908,5.59587],[-74.94905,5.59586],[-74.94904,5.59586],[-74.94903,5.59586],[-74.94902,5.59585],[-74.94899,5.59585],[-74.94897,5.59584],[-74.94894,5.59584],[-74.94894,5.59585],[-74.94894,5.59586],[-74.94894,5.59586],[-74.94894,5.59587],[-74.94894,5.59587],[-74.94896,5.59588],[-74.94896,5.59589],[-74.94897,5.5959],[-74.94898,5.59592],[-74.94899,5.59592],[-74.94903,5.59593],[-74.94905,5.59593],[-74.94907,5.59593],[-74.94909,5.59593]]]},"properties":{"OBJECTID_1":43,"OBJECTID":43,"Layer":"Zonas Verdes","Cabecera":"Berlin","Shape_Leng":79.3941285698,"Area_m2":226.49023146199167,"Shape_Length":79.36730374063369,"Shape_Area":226.3894586259771}},{"type":"Feature","id":44,"geometry":{"type":"Polygon","coordinates":[[[-74.95925,5.53343],[-74.95922,5.53346],[-74.95926,5.53349],[-74.95928,5.5335],[-74.95931,5.53349],[-74.95935,5.53344],[-74.95931,5.53342],[-74.95927,5.53339],[-74.95925,5.53343]]]},"properties":{"OBJECTID_1":44,"OBJECTID":44,"Layer":"Zonas Verdes","Cabecera":"Los Pomos","Shape_Leng":39.2729687632,"Area_m2":95.15289003376314,"Shape_Length":39.25982919626735,"Shape_Area":95.11195837201385}},{"type":"Feature","id":45,"geometry":{"type":"Polygon","coordinates":[[[-74.95919,5.53491],[-74.95914,5.53496],[-74.95912,5.535],[-74.95911,5.53505],[-74.95915,5.5351],[-74.95919,5.53514],[-74.95926,5.53515],[-74.95933,5.53514],[-74.95933,5.5351],[-74.95932,5.53503],[-74.95932,5.53494],[-74.9593,5.53492],[-74.95924,5.53491],[-74.95919,5.53491]]]},"properties":{"OBJECTID_1":45,"OBJECTID":45,"Layer":"Zonas Verdes","Cabecera":"Los Pomos","Shape_Leng":84.6576754501,"Area_m2":519.6762023641288,"Shape_Length":84.62926069923635,"Shape_Area":519.4508551951641}},{"type":"Feature","id":46,"geometry":{"type":"Polygon","coordinates":[[[-75.00546,5.63193],[-75.0055,5.63195],[-75.0055,5.63195],[-75.00551,5.63195],[-75.00553,5.63196],[-75.00554,5.63188],[-75.00554,5.63188],[-75.00554,5.63188],[-75.00546,5.63193]]]},"properties":{"OBJECTID_1":46,"OBJECTID":46,"Layer":"Zonas Verdes","Cabecera":"El Congal","Shape_Leng":27.7116988292,"Area_m2":39.347675821071654,"Shape_Length":27.702900317098283,"Shape_Area":39.33357632915827}},{"type":"Feature","id":47,"geometry":{"type":"Polygon","coordinates":[[[-75.00556,5.63188],[-75.00555,5.63188],[-75.00554,5.63196],[-75.00555,5.63196],[-75.00557,5.63196],[-75.00559,5.63196],[-75.0056,5.63195],[-75.00556,5.63188],[-75.00556,5.63188]]]},"properties":{"OBJECTID_1":47,"OBJECTID":47,"Layer":"Zonas Verdes","Cabecera":"El Congal","Shape_Leng":26.4965656333,"Area_m2":37.914911015755244,"Shape_Length":26.487963312560836,"Shape_Area":37.89907695949137}},{"type":"Feature","id":48,"geometry":{"type":"Polygon","coordinates":[[[-75.00557,5.63187],[-75.00557,5.63187],[-75.00561,5.63194],[-75.00563,5.63193],[-75.00564,5.63192],[-75.00565,5.6319],[-75.00565,5.63188],[-75.00557,5.63187],[-75.00557,5.63187]]]},"properties":{"OBJECTID_1":48,"OBJECTID":48,"Layer":"Zonas Verdes","Cabecera":"El Congal","Shape_Leng":26.4933552229,"Area_m2":37.906470262427774,"Shape_Length":26.484807499048344,"Shape_Area":37.88879415531326}},{"type":"Feature","id":49,"geometry":{"type":"Polygon","coordinates":[[[-75.00557,5.63185],[-75.00557,5.63185],[-75.00557,5.63186],[-75.00565,5.63187],[-75.00565,5.63186],[-75.00565,5.63184],[-75.00565,5.63184],[-75.00565,5.6318],[-75.00557,5.63185]]]},"properties":{"OBJECTID_1":49,"OBJECTID":49,"Layer":"Zonas Verdes","Cabecera":"El Congal","Shape_Leng":27.7080932064,"Area_m2":39.35281267630963,"Shape_Length":27.699162621615088,"Shape_Area":39.33799037673282}},{"type":"Feature","id":50,"geometry":{"type":"Polygon","coordinates":[[[-75.00555,5.63184],[-75.00556,5.63184],[-75.00556,5.63184],[-75.00556,5.63184],[-75.00557,5.63184],[-75.00565,5.63179],[-75.00564,5.63178],[-75.0056,5.63177],[-75.00557,5.63162],[-75.00548,5.63169],[-75.00548,5.63169],[-75.00548,5.6317],[-75.00548,5.6317],[-75.00548,5.63171],[-75.00548,5.63171],[-75.00547,5.63172],[-75.00547,5.63172],[-75.00547,5.63172],[-75.00554,5.63184],[-75.00555,5.63184],[-75.00555,5.63184],[-75.00555,5.63184]]]},"properties":{"OBJECTID_1":50,"OBJECTID":50,"Layer":"Zonas Verdes","Cabecera":"El Congal","Shape_Leng":68.2620774633,"Area_m2":231.7789924390649,"Shape_Length":68.24023520309055,"Shape_Area":231.68625450657893}},{"type":"Feature","id":51,"geometry":{"type":"Polygon","coordinates":[[[-75.00533,5.63167],[-75.00534,5.63169],[-75.00542,5.63169],[-75.00542,5.63169],[-75.00542,5.63168],[-75.00542,5.63168],[-75.00543,5.63168],[-75.00543,5.63167],[-75.00544,5.63167],[-75.00544,5.63167],[-75.00545,5.63167],[-75.00545,5.63167],[-75.00546,5.63167],[-75.00546,5.63167],[-75.00547,5.63168],[-75.00547,5.63168],[-75.00557,5.63161],[-75.00562,5.63158],[-75.0056,5.63149],[-75.0056,5.63149],[-75.0056,5.63148],[-75.0056,5.63148],[-75.0056,5.63148],[-75.0056,5.63148],[-75.00559,5.63148],[-75.00559,5.63148],[-75.00559,5.63148],[-75.00559,5.63147],[-75.00559,5.63147],[-75.00558,5.63148],[-75.00558,5.63148],[-75.00528,5.63158],[-75.00518,5.63162],[-75.00519,5.63162],[-75.00519,5.63163],[-75.00519,5.63163],[-75.0052,5.63163],[-75.0052,5.63163],[-75.00521,5.63163],[-75.00522,5.63164],[-75.00522,5.63164],[-75.00522,5.63164],[-75.00522,5.63163],[-75.00522,5.63163],[-75.00523,5.63163],[-75.00523,5.63163],[-75.00523,5.63163],[-75.00523,5.63163],[-75.00523,5.63163],[-75.00524,5.63163],[-75.00524,5.63164],[-75.00525,5.63162],[-75.00526,5.63161],[-75.00526,5.63161],[-75.00526,5.63161],[-75.00526,5.63161],[-75.00526,5.63161],[-75.00526,5.63161],[-75.00526,5.63161],[-75.00526,5.63161],[-75.00527,5.6316],[-75.00527,5.6316],[-75.00527,5.6316],[-75.00527,5.6316],[-75.00527,5.6316],[-75.00527,5.6316],[-75.00527,5.6316],[-75.00527,5.6316],[-75.00527,5.6316],[-75.00527,5.6316],[-75.00527,5.63161],[-75.00527,5.63161],[-75.00527,5.63161],[-75.00527,5.63161],[-75.00529,5.63162],[-75.0053,5.63164],[-75.0053,5.63164],[-75.0053,5.63164],[-75.0053,5.63164],[-75.0053,5.63165],[-75.00533,5.63163],[-75.00533,5.63164],[-75.00533,5.63165],[-75.00533,5.63167]]]},"properties":{"OBJECTID_1":51,"OBJECTID":51,"Layer":"Zonas Verdes","Cabecera":"El Congal","Shape_Leng":124.637264569,"Area_m2":546.9079731456463,"Shape_Length":124.59745825282947,"Shape_Area":546.7114411621237}},{"type":"Feature","id":52,"geometry":{"type":"Polygon","coordinates":[[[-75.00545,5.63192],[-75.00553,5.63187],[-75.00553,5.63186],[-75.00553,5.63186],[-75.00553,5.63186],[-75.00553,5.63185],[-75.00553,5.63185],[-75.00553,5.63185],[-75.00553,5.63184],[-75.00546,5.63173],[-75.00545,5.63173],[-75.00545,5.63173],[-75.00544,5.63173],[-75.00544,5.63173],[-75.00543,5.63173],[-75.00543,5.63173],[-75.00542,5.63172],[-75.00542,5.63172],[-75.00542,5.63172],[-75.00542,5.63171],[-75.00542,5.63171],[-75.00533,5.6317],[-75.00533,5.63173],[-75.00532,5.63175],[-75.00532,5.63175],[-75.00529,5.63174],[-75.00529,5.63174],[-75.00529,5.63174],[-75.00529,5.63174],[-75.00528,5.63176],[-75.00526,5.63177],[-75.00526,5.63177],[-75.00526,5.63177],[-75.00526,5.63178],[-75.00526,5.63178],[-75.00526,5.63178],[-75.00526,5.63178],[-75.00526,5.63178],[-75.00526,5.63178],[-75.00526,5.63178],[-75.00526,5.63178],[-75.00526,5.63178],[-75.00526,5.63178],[-75.00525,5.63178],[-75.00525,5.63177],[-75.00525,5.63177],[-75.00525,5.63177],[-75.00525,5.63177],[-75.00525,5.63177],[-75.00525,5.63177],[-75.00525,5.63177],[-75.00525,5.63177],[-75.00526,5.63177],[-75.00523,5.63174],[-75.00523,5.63174],[-75.00523,5.63174],[-75.00523,5.63174],[-75.00522,5.63174],[-75.00522,5.63174],[-75.00522,5.63174],[-75.00522,5.63174],[-75.00522,5.63174],[-75.00522,5.63174],[-75.00521,5.63174],[-75.00521,5.63174],[-75.00521,5.63173],[-75.00521,5.63174],[-75.0052,5.63174],[-75.00519,5.63174],[-75.00518,5.63174],[-75.00518,5.63175],[-75.00518,5.63175],[-75.00517,5.63175],[-75.00545,5.63192]]]},"properties":{"OBJECTID_1":52,"OBJECTID":52,"Layer":"Zonas Verdes","Cabecera":"El Congal","Shape_Leng":108.370338192,"Area_m2":460.66348599062167,"Shape_Length":108.33558181339052,"Shape_Area":460.49660292886466}},{"type":"Feature","id":53,"geometry":{"type":"Polygon","coordinates":[[[-75.006,5.63167],[-75.00595,5.63167],[-75.00595,5.63169],[-75.00583,5.63171],[-75.00584,5.63176],[-75.00574,5.63177],[-75.00573,5.63178],[-75.00573,5.63183],[-75.00605,5.63178],[-75.00599,5.63134],[-75.00567,5.63138],[-75.00567,5.63143],[-75.00568,5.63142],[-75.00579,5.63141],[-75.00579,5.63142],[-75.0058,5.63142],[-75.00596,5.6314],[-75.006,5.63167]]]},"properties":{"OBJECTID_1":53,"OBJECTID":53,"Layer":"Zonas Verdes","Cabecera":"El Congal","Shape_Leng":234.212581847,"Area_m2":668.765982571489,"Shape_Length":234.13737107317613,"Shape_Area":668.5107250072128}},{"type":"Feature","id":54,"geometry":{"type":"Polygon","coordinates":[[[-75.00477,5.63147],[-75.00507,5.63139],[-75.00503,5.63124],[-75.00473,5.63132],[-75.00474,5.63136],[-75.00474,5.63136],[-75.00477,5.63147]]]},"properties":{"OBJECTID_1":54,"OBJECTID":54,"Layer":"Zonas Verdes","Cabecera":"El Congal","Shape_Leng":102.719967147,"Area_m2":576.2028281399557,"Shape_Length":102.68706377163458,"Shape_Area":575.9647955055815}},{"type":"Feature","id":55,"geometry":{"type":"Polygon","coordinates":[[[-75.04144,5.52472],[-75.04146,5.52474],[-75.04149,5.52474],[-75.04155,5.52469],[-75.04145,5.52467],[-75.04144,5.52472]]]},"properties":{"OBJECTID_1":55,"OBJECTID":55,"Layer":"Zonas Verdes","Cabecera":"Florencia","Shape_Leng":31.3212939401,"Area_m2":54.5421446211022,"Shape_Length":31.311578493926728,"Shape_Area":54.523652512429855}},{"type":"Feature","id":56,"geometry":{"type":"Polygon","coordinates":[[[-75.04163,5.52482],[-75.04163,5.52481],[-75.04156,5.52479],[-75.04156,5.5248],[-75.0415,5.52478],[-75.0415,5.52478],[-75.04163,5.52482]]]},"properties":{"OBJECTID_1":56,"OBJECTID":56,"Layer":"Zonas Verdes","Cabecera":"Florencia","Shape_Leng":31.6528237496,"Area_m2":13.954602506573986,"Shape_Length":31.643096287100807,"Shape_Area":13.949980423701515}},{"type":"Feature","id":57,"geometry":{"type":"Polygon","coordinates":[[[-75.04165,5.52483],[-75.04171,5.52485],[-75.04172,5.52484],[-75.04166,5.52482],[-75.04165,5.52483]]]},"properties":{"OBJECTID_1":57,"OBJECTID":57,"Layer":"Zonas Verdes","Cabecera":"Florencia","Shape_Leng":16.5693753089,"Area_m2":9.23758337977023,"Shape_Length":16.564384300556497,"Shape_Area":9.234726823059265}},{"type":"Feature","id":58,"geometry":{"type":"Polygon","coordinates":[[[-75.04174,5.52486],[-75.04184,5.52489],[-75.04184,5.52488],[-75.04179,5.52486],[-75.04178,5.52486],[-75.04174,5.52484],[-75.04174,5.52486]]]},"properties":{"OBJECTID_1":58,"OBJECTID":58,"Layer":"Zonas Verdes","Cabecera":"Florencia","Shape_Leng":26.2570353366,"Area_m2":11.147196426642067,"Shape_Length":26.248849358549762,"Shape_Area":11.14321743949319}},{"type":"Feature","id":59,"geometry":{"type":"Polygon","coordinates":[[[-75.04187,5.52481],[-75.04188,5.52481],[-75.04186,5.52487],[-75.04186,5.52487],[-75.04192,5.52469],[-75.04191,5.52469],[-75.0419,5.52473],[-75.0419,5.52473],[-75.04189,5.52477],[-75.04189,5.52476],[-75.04187,5.52481]]]},"properties":{"OBJECTID_1":59,"OBJECTID":59,"Layer":"Zonas Verdes","Cabecera":"Florencia","Shape_Leng":44.8205081363,"Area_m2":13.40727051321835,"Shape_Length":44.80698261213679,"Shape_Area":13.404149688358583}},{"type":"Feature","id":60,"geometry":{"type":"Polygon","coordinates":[[[-75.04191,5.52466],[-75.04192,5.52466],[-75.04194,5.52459],[-75.04194,5.52459],[-75.04191,5.52466]]]},"properties":{"OBJECTID_1":60,"OBJECTID":60,"Layer":"Zonas Verdes","Cabecera":"Florencia","Shape_Leng":18.7044376939,"Area_m2":8.514815626330263,"Shape_Length":18.69865725894621,"Shape_Area":8.514890874353325}},{"type":"Feature","id":61,"geometry":{"type":"Polygon","coordinates":[[[-75.04183,5.52456],[-75.04183,5.52457],[-75.04184,5.52459],[-75.04184,5.52461],[-75.04184,5.52463],[-75.04187,5.52463],[-75.04187,5.52456],[-75.04191,5.52453],[-75.04196,5.52452],[-75.04195,5.5245],[-75.04193,5.52449],[-75.04183,5.52456]]]},"properties":{"OBJECTID_1":61,"OBJECTID":61,"Layer":"Zonas Verdes","Cabecera":"Florencia","Shape_Leng":48.4783097698,"Area_m2":69.397912223889,"Shape_Length":48.46337667959192,"Shape_Area":69.37239231453009}},{"type":"Feature","id":62,"geometry":{"type":"Polygon","coordinates":[[[-75.04174,5.52449],[-75.04176,5.52449],[-75.04178,5.5245],[-75.04179,5.52451],[-75.04181,5.52453],[-75.04188,5.52448],[-75.04176,5.52444],[-75.04174,5.52449]]]},"properties":{"OBJECTID_1":62,"OBJECTID":62,"Layer":"Zonas Verdes","Cabecera":"Florencia","Shape_Leng":38.9195278832,"Area_m2":75.97122332373725,"Shape_Length":38.9076497357629,"Shape_Area":75.94638466165506}},{"type":"Feature","id":63,"geometry":{"type":"Polygon","coordinates":[[[-75.04164,5.52449],[-75.04166,5.52449],[-75.04168,5.52448],[-75.0417,5.52448],[-75.04172,5.52448],[-75.04174,5.52443],[-75.04173,5.52443],[-75.04163,5.52447],[-75.04164,5.52449]]]},"properties":{"OBJECTID_1":63,"OBJECTID":63,"Layer":"Zonas Verdes","Cabecera":"Florencia","Shape_Leng":31.1534137737,"Area_m2":40.54741390328226,"Shape_Length":31.14383024840581,"Shape_Area":40.533526751128726}},{"type":"Feature","id":64,"geometry":{"type":"Polygon","coordinates":[[[-75.0415,5.52452],[-75.04149,5.52455],[-75.04157,5.52457],[-75.04158,5.52455],[-75.04159,5.52454],[-75.0416,5.52452],[-75.04162,5.52451],[-75.0416,5.52448],[-75.0415,5.52452]]]},"properties":{"OBJECTID_1":64,"OBJECTID":64,"Layer":"Zonas Verdes","Cabecera":"Florencia","Shape_Leng":37.6364040513,"Area_m2":79.06732203176864,"Shape_Length":37.62476638318414,"Shape_Area":79.0404489986489}},{"type":"Feature","id":65,"geometry":{"type":"Polygon","coordinates":[[[-75.04162,5.52457],[-75.04161,5.52459],[-75.04161,5.52461],[-75.04161,5.52462],[-75.04161,5.52464],[-75.04165,5.52462],[-75.04165,5.52459],[-75.04163,5.52455],[-75.04162,5.52457]]]},"properties":{"OBJECTID_1":65,"OBJECTID":65,"Layer":"Zonas Verdes","Cabecera":"Florencia","Shape_Leng":23.0340117261,"Area_m2":28.897489776701885,"Shape_Length":23.027053703358398,"Shape_Area":28.88797926701146}},{"type":"Feature","id":66,"geometry":{"type":"Polygon","coordinates":[[[-75.04169,5.52452],[-75.04167,5.52453],[-75.0417,5.52456],[-75.04173,5.52457],[-75.04176,5.52454],[-75.04175,5.52454],[-75.04174,5.52453],[-75.04172,5.52452],[-75.04171,5.52452],[-75.04169,5.52452]]]},"properties":{"OBJECTID_1":66,"OBJECTID":66,"Layer":"Zonas Verdes","Cabecera":"Florencia","Shape_Leng":23.480143756,"Area_m2":30.681488907958904,"Shape_Length":23.472829353139886,"Shape_Area":30.671170222951023}},{"type":"Feature","id":67,"geometry":{"type":"Polygon","coordinates":[[[-75.04176,5.52461],[-75.04175,5.52464],[-75.04177,5.52468],[-75.04178,5.52466],[-75.04179,5.52465],[-75.04179,5.52463],[-75.0418,5.52461],[-75.04179,5.52459],[-75.04176,5.52461]]]},"properties":{"OBJECTID_1":67,"OBJECTID":67,"Layer":"Zonas Verdes","Cabecera":"Florencia","Shape_Leng":24.0021474535,"Area_m2":31.50314096300327,"Shape_Length":23.99481893518865,"Shape_Area":31.492767369920738}},{"type":"Feature","id":68,"geometry":{"type":"Polygon","coordinates":[[[-75.04164,5.52469],[-75.04165,5.5247],[-75.04166,5.5247],[-75.04168,5.52471],[-75.0417,5.52471],[-75.04171,5.52471],[-75.04173,5.52471],[-75.04171,5.52467],[-75.04167,5.52466],[-75.04164,5.52469]]]},"properties":{"OBJECTID_1":68,"OBJECTID":68,"Layer":"Zonas Verdes","Cabecera":"Florencia","Shape_Leng":24.7024481434,"Area_m2":33.77677644509962,"Shape_Length":24.69485015410919,"Shape_Area":33.765186459063095}},{"type":"Feature","id":69,"geometry":{"type":"Polygon","coordinates":[[[-75.04411,5.52327],[-75.04411,5.52327],[-75.0441,5.52328],[-75.0441,5.52334],[-75.04409,5.52343],[-75.04409,5.52343],[-75.0441,5.52343],[-75.04411,5.52342],[-75.04412,5.52342],[-75.04413,5.52341],[-75.04414,5.5234],[-75.04416,5.52337],[-75.04417,5.52335],[-75.04419,5.52333],[-75.04418,5.5233],[-75.04416,5.52326],[-75.04411,5.52327]]]},"properties":{"OBJECTID_1":69,"OBJECTID":69,"Layer":"Zonas Verdes","Cabecera":"Florencia","Shape_Leng":49.6273892321,"Area_m2":129.84687191768523,"Shape_Length":49.61214130858146,"Shape_Area":129.80499138009787}},{"type":"Feature","id":70,"geometry":{"type":"Polygon","coordinates":[[[-75.04149,5.52437],[-75.04155,5.52442],[-75.04174,5.52435],[-75.04179,5.52421],[-75.04161,5.52416],[-75.04163,5.52408],[-75.04169,5.5241],[-75.04169,5.52409],[-75.04182,5.52413],[-75.04188,5.52378],[-75.04169,5.52373],[-75.04149,5.52437]]]},"properties":{"OBJECTID_1":70,"OBJECTID":70,"Layer":"Zonas Verdes","Cabecera":"Florencia","Shape_Leng":235.264274413,"Area_m2":1632.2510429467386,"Shape_Length":235.19183611729613,"Shape_Area":1631.687135774077}},{"type":"Feature","id":71,"geometry":{"type":"Polygon","coordinates":[[[-75.04199,5.52215],[-75.04196,5.52217],[-75.04195,5.5222],[-75.042,5.52222],[-75.04204,5.52224],[-75.04209,5.52227],[-75.04213,5.52229],[-75.04221,5.52232],[-75.04232,5.52236],[-75.04233,5.52236],[-75.04234,5.52235],[-75.04234,5.52234],[-75.04233,5.52232],[-75.04231,5.5223],[-75.04229,5.52228],[-75.04225,5.52227],[-75.04222,5.52225],[-75.04217,5.52223],[-75.04214,5.52221],[-75.04209,5.52219],[-75.04208,5.52216],[-75.04203,5.52214],[-75.04199,5.52215]]]},"properties":{"OBJECTID_1":71,"OBJECTID":71,"Layer":"Zonas Verdes","Cabecera":"Florencia","Shape_Leng":101.955626183,"Area_m2":349.88235513492873,"Shape_Length":101.92418120897617,"Shape_Area":349.76567228583747}},{"type":"Feature","id":72,"geometry":{"type":"Polygon","coordinates":[[[-75.03914,5.52735],[-75.03917,5.52737],[-75.03919,5.52737],[-75.03921,5.52738],[-75.03924,5.52739],[-75.03926,5.52738],[-75.03928,5.52737],[-75.03929,5.52736],[-75.03931,5.52735],[-75.03932,5.52735],[-75.03932,5.52735],[-75.03934,5.52735],[-75.03936,5.52735],[-75.03938,5.52735],[-75.0394,5.52734],[-75.03941,5.52734],[-75.03943,5.52733],[-75.03944,5.52733],[-75.03945,5.52733],[-75.03945,5.52733],[-75.03946,5.52733],[-75.03948,5.52732],[-75.03949,5.52731],[-75.0395,5.52731],[-75.03951,5.52731],[-75.03952,5.5273],[-75.03953,5.5273],[-75.03954,5.5273],[-75.03956,5.52728],[-75.03957,5.52728],[-75.03958,5.52727],[-75.0396,5.52726],[-75.03962,5.52725],[-75.03964,5.52723],[-75.03965,5.52723],[-75.03967,5.52722],[-75.03968,5.52722],[-75.03969,5.52721],[-75.03971,5.52721],[-75.03973,5.5272],[-75.03975,5.52718],[-75.03976,5.52717],[-75.03978,5.52716],[-75.03982,5.52714],[-75.03984,5.52713],[-75.03987,5.52712],[-75.03989,5.52711],[-75.0399,5.5271],[-75.03992,5.52708],[-75.03993,5.52707],[-75.03995,5.52704],[-75.03996,5.52703],[-75.03997,5.52701],[-75.03999,5.52697],[-75.04001,5.52693],[-75.04002,5.52688],[-75.04003,5.52683],[-75.04003,5.52678],[-75.04002,5.52676],[-75.04001,5.52672],[-75.03999,5.52669],[-75.03997,5.52667],[-75.03995,5.52663],[-75.03994,5.52661],[-75.03992,5.52659],[-75.03991,5.52658],[-75.0399,5.52657],[-75.03988,5.52656],[-75.03986,5.52656],[-75.03982,5.52655],[-75.03981,5.52656],[-75.03978,5.52657],[-75.03976,5.52658],[-75.03973,5.52659],[-75.0397,5.5266],[-75.03969,5.5266],[-75.03964,5.52662],[-75.03956,5.52665],[-75.03951,5.52666],[-75.03949,5.52667],[-75.03946,5.52669],[-75.03945,5.52671],[-75.03943,5.52673],[-75.03939,5.52674],[-75.03934,5.52676],[-75.03928,5.52679],[-75.0392,5.52683],[-75.03915,5.52688],[-75.03908,5.52694],[-75.03904,5.52698],[-75.039,5.52701],[-75.03896,5.52705],[-75.03893,5.5271],[-75.03893,5.52713],[-75.03894,5.52719],[-75.03895,5.52723],[-75.039,5.52726],[-75.03905,5.52729],[-75.0391,5.52732],[-75.03913,5.52733],[-75.03914,5.52735]]]},"properties":{"OBJECTID_1":72,"OBJECTID":72,"Layer":"Zonas Verdes","Cabecera":"Florencia","Shape_Leng":328.615779988,"Area_m2":6833.702111094775,"Shape_Length":328.51431690181636,"Shape_Area":6831.403906550715}},{"type":"Feature","id":73,"geometry":{"type":"Polygon","coordinates":[[[-75.07066,5.41634],[-75.07079,5.41634],[-75.07084,5.41634],[-75.07095,5.41634],[-75.07102,5.41633],[-75.0711,5.41632],[-75.07118,5.41629],[-75.07128,5.41622],[-75.07124,5.41616],[-75.07124,5.41615],[-75.07129,5.41612],[-75.07129,5.41611],[-75.07133,5.41607],[-75.07132,5.41606],[-75.0713,5.41604],[-75.07127,5.41602],[-75.07126,5.41599],[-75.07128,5.41597],[-75.07127,5.41593],[-75.07122,5.41596],[-75.07118,5.41591],[-75.07117,5.41591],[-75.07117,5.41588],[-75.07111,5.41584],[-75.07105,5.41586],[-75.07104,5.41584],[-75.07103,5.41581],[-75.07101,5.41578],[-75.07098,5.41578],[-75.07096,5.41579],[-75.07094,5.41583],[-75.07088,5.41587],[-75.0708,5.41586],[-75.07077,5.41588],[-75.0707,5.41596],[-75.07069,5.41612],[-75.07066,5.41612],[-75.07065,5.41621],[-75.07063,5.4163],[-75.07064,5.41633],[-75.07077,5.41627],[-75.07077,5.41627],[-75.07077,5.41618],[-75.07076,5.41617],[-75.07076,5.41612],[-75.07077,5.41611],[-75.07087,5.4161],[-75.07089,5.41609],[-75.07094,5.41609],[-75.07095,5.4161],[-75.07103,5.41606],[-75.071,5.41605],[-75.07086,5.41605],[-75.07084,5.41604],[-75.07084,5.416],[-75.07085,5.41598],[-75.07085,5.41594],[-75.07083,5.41594],[-75.07081,5.41593],[-75.0708,5.41592],[-75.0708,5.4159],[-75.07081,5.41588],[-75.07083,5.41588],[-75.07085,5.41588],[-75.07086,5.4159],[-75.07087,5.41593],[-75.07091,5.41592],[-75.07092,5.41594],[-75.07106,5.41593],[-75.07107,5.41593],[-75.07109,5.41595],[-75.07108,5.41598],[-75.07108,5.416],[-75.07107,5.41604],[-75.07105,5.41605],[-75.07106,5.41606],[-75.07105,5.41606],[-75.07095,5.41611],[-75.07095,5.41621],[-75.07097,5.41622],[-75.07097,5.41626],[-75.07109,5.41626],[-75.07109,5.41624],[-75.07107,5.41625],[-75.07106,5.41625],[-75.07105,5.41623],[-75.07104,5.41619],[-75.07106,5.41614],[-75.0711,5.41616],[-75.07114,5.41616],[-75.07116,5.41616],[-75.07117,5.41621],[-75.07118,5.41621],[-75.07119,5.41625],[-75.07117,5.41626],[-75.07117,5.41626],[-75.07112,5.41627],[-75.07097,5.41627],[-75.07095,5.41628],[-75.07078,5.41629],[-75.07066,5.41634],[-75.07066,5.41634]]]},"properties":{"OBJECTID_1":73,"OBJECTID":null,"Layer":null,"Cabecera":null,"Shape_Leng":null,"Area_m2":null,"Shape_Length":555.3956559041873,"Shape_Area":2294.868098419145}},{"type":"Feature","id":74,"geometry":{"type":"MultiPolygon","coordinates":[[[[-74.9647,5.41399],[-74.96497,5.41424],[-74.96498,5.41423],[-74.9647,5.41398],[-74.9647,5.41399]]],[[[-74.96508,5.41473],[-74.96509,5.41495],[-74.96511,5.41495],[-74.9651,5.41473],[-74.96508,5.41473]]]]},"properties":{"OBJECTID_1":74,"OBJECTID":null,"Layer":null,"Cabecera":null,"Shape_Leng":null,"Area_m2":null,"Shape_Length":139.5167471221794,"Shape_Area":125.03565809551557}},{"type":"Feature","id":75,"geometry":{"type":"Polygon","coordinates":[[[-75.07066,5.41634],[-75.07079,5.41634],[-75.07084,5.41634],[-75.07095,5.41634],[-75.07102,5.41633],[-75.0711,5.41632],[-75.07118,5.41629],[-75.07128,5.41622],[-75.07124,5.41616],[-75.07124,5.41615],[-75.07129,5.41612],[-75.07129,5.41611],[-75.07133,5.41607],[-75.07132,5.41606],[-75.0713,5.41604],[-75.07127,5.41602],[-75.07126,5.41599],[-75.07128,5.41597],[-75.07127,5.41593],[-75.07122,5.41596],[-75.07118,5.41591],[-75.07117,5.41591],[-75.07117,5.41588],[-75.07111,5.41584],[-75.07105,5.41586],[-75.07104,5.41584],[-75.07103,5.41581],[-75.07101,5.41578],[-75.07098,5.41578],[-75.07096,5.41579],[-75.07094,5.41583],[-75.07088,5.41587],[-75.0708,5.41586],[-75.07077,5.41588],[-75.0707,5.41596],[-75.07069,5.41612],[-75.07066,5.41612],[-75.07065,5.41621],[-75.07063,5.4163],[-75.07064,5.41633],[-75.07077,5.41627],[-75.07077,5.41627],[-75.07077,5.41618],[-75.07076,5.41617],[-75.07076,5.41612],[-75.07077,5.41611],[-75.07087,5.4161],[-75.07089,5.41609],[-75.07094,5.41609],[-75.07095,5.4161],[-75.07103,5.41606],[-75.071,5.41605],[-75.07086,5.41605],[-75.07084,5.41604],[-75.07084,5.416],[-75.07085,5.41598],[-75.07085,5.41594],[-75.07083,5.41594],[-75.07081,5.41593],[-75.0708,5.41592],[-75.0708,5.4159],[-75.07081,5.41588],[-75.07083,5.41588],[-75.07085,5.41588],[-75.07086,5.4159],[-75.07087,5.41593],[-75.07091,5.41592],[-75.07092,5.41594],[-75.07106,5.41593],[-75.07107,5.41593],[-75.07109,5.41595],[-75.07108,5.41598],[-75.07108,5.416],[-75.07107,5.41604],[-75.07105,5.41605],[-75.07106,5.41606],[-75.07105,5.41606],[-75.07095,5.41611],[-75.07095,5.41621],[-75.07097,5.41622],[-75.07097,5.41626],[-75.07109,5.41626],[-75.07109,5.41624],[-75.07107,5.41625],[-75.07106,5.41625],[-75.07105,5.41623],[-75.07104,5.41619],[-75.07106,5.41614],[-75.0711,5.41616],[-75.07114,5.41616],[-75.07116,5.41616],[-75.07117,5.41621],[-75.07118,5.41621],[-75.07119,5.41625],[-75.07117,5.41626],[-75.07117,5.41626],[-75.07112,5.41627],[-75.07097,5.41627],[-75.07095,5.41628],[-75.07078,5.41629],[-75.07066,5.41634],[-75.07066,5.41634]]]},"properties":{"OBJECTID_1":75,"OBJECTID":null,"Layer":null,"Cabecera":null,"Shape_Leng":null,"Area_m2":null,"Shape_Length":555.3956559041873,"Shape_Area":2294.868098419145}}]}