{"type":"FeatureCollection","name":"Distrito Manejo Integrado Laguna San Diego","crs":{"type":"name","properties":{"name":"urn:ogc:def:crs:OGC:1.3:CRS84"}},"features":[{"type":"Feature","id":2,"geometry":{"type":"Polygon","coordinates":[[[-74.94694,5.66556],[-74.94718,5.66565],[-74.94753,5.66579],[-74.94787,5.66582],[-74.94823,5.66584],[-74.94843,5.6659],[-74.9486,5.66601],[-74.94876,5.66587],[-74.94958,5.6652],[-74.9496,5.66519],[-74.94998,5.66488],[-74.95028,5.66457],[-74.95057,5.66421],[-74.95061,5.66416],[-74.95148,5.66515],[-74.95149,5.66521],[-74.95249,5.66495],[-74.95311,5.66501],[-74.95316,5.66503],[-74.95369,5.66524],[-74.95381,5.66533],[-74.95396,5.66509],[-74.95425,5.66457],[-74.95466,5.66401],[-74.95509,5.66354],[-74.9555,5.66312],[-74.95541,5.66299],[-74.9553,5.66274],[-74.95551,5.66266],[-74.95618,5.66275],[-74.95652,5.66277],[-74.95687,5.66277],[-74.9571,5.6628],[-74.95735,5.66293],[-74.95755,5.66299],[-74.95776,5.66293],[-74.95786,5.6628],[-74.95798,5.66244],[-74.95809,5.66227],[-74.95822,5.66218],[-74.95859,5.66219],[-74.95868,5.66241],[-74.95869,5.66295],[-74.95877,5.66312],[-74.95895,5.66315],[-74.95914,5.66309],[-74.95952,5.66295],[-74.96012,5.66267],[-74.96102,5.66207],[-74.96096,5.66202],[-74.96112,5.66159],[-74.96095,5.66139],[-74.96101,5.66087],[-74.96111,5.66095],[-74.96157,5.66158],[-74.9617,5.66153],[-74.96187,5.66132],[-74.96165,5.66071],[-74.96161,5.66046],[-74.96161,5.66043],[-74.9615,5.66018],[-74.96149,5.65977],[-74.96149,5.65971],[-74.96155,5.65916],[-74.96157,5.65913],[-74.96181,5.65861],[-74.96196,5.65831],[-74.96245,5.65792],[-74.96264,5.65765],[-74.96277,5.65706],[-74.96293,5.65689],[-74.96303,5.65683],[-74.96317,5.65676],[-74.96342,5.65674],[-74.96358,5.65669],[-74.96387,5.65642],[-74.96396,5.6561],[-74.96406,5.65575],[-74.96438,5.65593],[-74.96608,5.65406],[-74.96614,5.654],[-74.96667,5.6533],[-74.96673,5.65305],[-74.96771,5.65058],[-74.96845,5.64833],[-74.96861,5.64804],[-74.9697,5.64532],[-74.9679,5.64149],[-74.96767,5.64142],[-74.96755,5.64131],[-74.9675,5.64107],[-74.96752,5.64043],[-74.96741,5.63989],[-74.96738,5.63991],[-74.96697,5.64007],[-74.96655,5.64021],[-74.96623,5.64032],[-74.9661,5.64036],[-74.96604,5.64038],[-74.96543,5.64047],[-74.96517,5.64045],[-74.96499,5.64041],[-74.96472,5.64036],[-74.96457,5.64037],[-74.96423,5.64045],[-74.96383,5.64061],[-74.96364,5.64083],[-74.96337,5.64118],[-74.96315,5.64136],[-74.96314,5.64134],[-74.96247,5.64029],[-74.96217,5.63992],[-74.9621,5.63988],[-74.96207,5.63988],[-74.96155,5.63994],[-74.96119,5.63996],[-74.96069,5.63994],[-74.96019,5.63988],[-74.95946,5.63979],[-74.95911,5.63966],[-74.95907,5.63965],[-74.95906,5.63948],[-74.95897,5.63914],[-74.95855,5.6381],[-74.95822,5.63716],[-74.95794,5.6372],[-74.95702,5.6371],[-74.9562,5.63698],[-74.95534,5.63681],[-74.95458,5.63655],[-74.95467,5.63697],[-74.95468,5.63736],[-74.95457,5.6376],[-74.95435,5.63772],[-74.95417,5.63783],[-74.95387,5.63789],[-74.95364,5.63794],[-74.95321,5.63794],[-74.95321,5.63794],[-74.95317,5.63838],[-74.95312,5.63896],[-74.95286,5.6395],[-74.95267,5.64019],[-74.9526,5.64063],[-74.95264,5.64065],[-74.95261,5.64067],[-74.9519,5.64089],[-74.95118,5.64117],[-74.95059,5.64148],[-74.95006,5.64184],[-74.94961,5.6422],[-74.94914,5.64222],[-74.94888,5.64223],[-74.94878,5.64176],[-74.94827,5.64178],[-74.94751,5.64298],[-74.94686,5.64302],[-74.94666,5.64304],[-74.94569,5.64318],[-74.94555,5.64317],[-74.94556,5.64318],[-74.9454,5.64348],[-74.94519,5.64394],[-74.94518,5.64395],[-74.94505,5.64401],[-74.9449,5.64412],[-74.9448,5.64424],[-74.94463,5.64464],[-74.94454,5.64475],[-74.94428,5.64488],[-74.94411,5.6449],[-74.94397,5.64487],[-74.94383,5.64481],[-74.94366,5.64477],[-74.94354,5.64479],[-74.94334,5.64485],[-74.94331,5.64487],[-74.94318,5.64498],[-74.94305,5.6452],[-74.94295,5.64553],[-74.94297,5.64553],[-74.94309,5.64554],[-74.94326,5.64554],[-74.94338,5.64552],[-74.94346,5.64539],[-74.94362,5.64527],[-74.94378,5.64521],[-74.94392,5.64527],[-74.94404,5.64543],[-74.94405,5.6456],[-74.94392,5.64568],[-74.94379,5.64581],[-74.94385,5.64597],[-74.94394,5.64621],[-74.94397,5.64635],[-74.94393,5.64655],[-74.94389,5.64667],[-74.94379,5.64673],[-74.94349,5.64677],[-74.94336,5.6467],[-74.94319,5.64661],[-74.94299,5.64654],[-74.94283,5.64655],[-74.94284,5.64666],[-74.94284,5.64672],[-74.94275,5.64681],[-74.94261,5.64696],[-74.94252,5.64708],[-74.94223,5.64734],[-74.94187,5.64756],[-74.94168,5.64774],[-74.94165,5.64781],[-74.94162,5.64788],[-74.9417,5.64868],[-74.94179,5.64936],[-74.94181,5.64967],[-74.94173,5.64999],[-74.9419,5.65015],[-74.94202,5.65024],[-74.94213,5.65032],[-74.94233,5.65037],[-74.94256,5.65037],[-74.94307,5.65031],[-74.94338,5.65024],[-74.9436,5.65024],[-74.94379,5.65029],[-74.94402,5.65048],[-74.94439,5.65086],[-74.94437,5.65101],[-74.94405,5.65162],[-74.94365,5.65216],[-74.9434,5.65205],[-74.94294,5.65168],[-74.9426,5.65213],[-74.94224,5.65274],[-74.94124,5.65283],[-74.94126,5.65319],[-74.94116,5.65423],[-74.9411,5.65436],[-74.94096,5.6544],[-74.94068,5.65455],[-74.94058,5.65454],[-74.94051,5.65454],[-74.94034,5.65453],[-74.94008,5.65444],[-74.93986,5.65433],[-74.93942,5.6542],[-74.93904,5.65417],[-74.93863,5.65418],[-74.93822,5.65423],[-74.93823,5.65422],[-74.9381,5.65425],[-74.93791,5.65428],[-74.93776,5.65433],[-74.93761,5.65442],[-74.93738,5.65463],[-74.93734,5.65466],[-74.93738,5.6547],[-74.93759,5.65511],[-74.93759,5.65531],[-74.93694,5.65531],[-74.93631,5.65531],[-74.93587,5.65526],[-74.93587,5.6556],[-74.93578,5.65571],[-74.93554,5.65573],[-74.9355,5.65586],[-74.9355,5.65587],[-74.93558,5.65615],[-74.93566,5.65637],[-74.93559,5.65658],[-74.93542,5.65694],[-74.93537,5.65705],[-74.93527,5.65725],[-74.93521,5.65748],[-74.93536,5.65797],[-74.93575,5.65772],[-74.93635,5.65735],[-74.93678,5.65772],[-74.93725,5.65803],[-74.93768,5.65826],[-74.93803,5.6584],[-74.93796,5.65856],[-74.93749,5.65879],[-74.93718,5.65876],[-74.9369,5.65882],[-74.93658,5.65892],[-74.93637,5.659],[-74.93645,5.65946],[-74.93649,5.65957],[-74.93645,5.65966],[-74.93623,5.65985],[-74.93608,5.65986],[-74.93608,5.65987],[-74.93609,5.66102],[-74.93612,5.66102],[-74.93638,5.66126],[-74.9365,5.66135],[-74.93665,5.66147],[-74.93673,5.66165],[-74.93675,5.6617],[-74.93686,5.6614],[-74.93724,5.66126],[-74.93748,5.66121],[-74.9375,5.66134],[-74.93753,5.66153],[-74.9375,5.66169],[-74.93742,5.66185],[-74.93745,5.66206],[-74.93745,5.6622],[-74.93734,5.66235],[-74.93717,5.66249],[-74.93703,5.66261],[-74.93686,5.66269],[-74.93682,5.66273],[-74.9368,5.66274],[-74.93691,5.66277],[-74.93706,5.66286],[-74.9371,5.66288],[-74.93738,5.66305],[-74.93756,5.66298],[-74.9378,5.663],[-74.93792,5.66314],[-74.93801,5.66341],[-74.93803,5.66382],[-74.93803,5.66383],[-74.93793,5.66404],[-74.93758,5.66441],[-74.93725,5.66462],[-74.93693,5.66483],[-74.93698,5.66514],[-74.93739,5.66592],[-74.93756,5.66583],[-74.93855,5.66543],[-74.93876,5.66535],[-74.93889,5.6654],[-74.93917,5.66568],[-74.93931,5.66583],[-74.93938,5.66601],[-74.93945,5.66602],[-74.93943,5.66598],[-74.93955,5.66588],[-74.93968,5.66585],[-74.93984,5.66585],[-74.94018,5.66593],[-74.94044,5.66591],[-74.94113,5.66589],[-74.94135,5.66588],[-74.94172,5.66585],[-74.94245,5.66574],[-74.94287,5.66558],[-74.94287,5.66558],[-74.94599,5.66576],[-74.94678,5.66562],[-74.94689,5.66553],[-74.94694,5.66556]]]},"properties":{"OBJECTID_1":2,"OBJECTID":3,"CODIGO":null,"NOMBRE":"Distrito de Manejo Integrado Laguna de San Diego","NOMENCLAT":null,"REGLAME":null,"NUM_RES_VI":null,"AREA_RES":null,"SUEL_PROT":null,"TERRIT_PNN":null,"OBSERV":null,"ORDEN":null,"SHAPE_Leng":14743.9806928,"Shape_Length":14738.98221796545,"Shape_Area":7567674.468613719}}]}