{"type":"FeatureCollection","name":"Reserva_sociedad_civil","crs":{"type":"name","properties":{"name":"urn:ogc:def:crs:OGC:1.3:CRS84"}},"features":[{"type":"Feature","id":1,"geometry":{"type":"Polygon","coordinates":[[[-75.00326,5.57722],[-75.00393,5.57731],[-75.00472,5.57744],[-75.00514,5.57764],[-75.00527,5.57772],[-75.00545,5.57784],[-75.00589,5.57815],[-75.00596,5.57808],[-75.00597,5.57806],[-75.00601,5.57802],[-75.00607,5.57795],[-75.0061,5.57792],[-75.00611,5.57791],[-75.00613,5.57788],[-75.00614,5.57784],[-75.00615,5.57782],[-75.00615,5.57778],[-75.00615,5.57775],[-75.00615,5.5777],[-75.00614,5.57767],[-75.00613,5.57765],[-75.00612,5.57762],[-75.0061,5.57758],[-75.00609,5.57757],[-75.00607,5.57754],[-75.00603,5.5775],[-75.00597,5.57746],[-75.00593,5.57743],[-75.00584,5.57736],[-75.00575,5.5773],[-75.0057,5.57726],[-75.00566,5.57723],[-75.00565,5.57721],[-75.00562,5.57718],[-75.00561,5.57716],[-75.00559,5.57713],[-75.00558,5.57708],[-75.00557,5.57706],[-75.00556,5.57699],[-75.00555,5.57687],[-75.00554,5.57677],[-75.00553,5.57656],[-75.00552,5.57625],[-75.00552,5.57612],[-75.00552,5.57602],[-75.00552,5.57597],[-75.00554,5.57587],[-75.00555,5.57577],[-75.00555,5.57574],[-75.00555,5.57571],[-75.00555,5.57559],[-75.00554,5.57544],[-75.00552,5.57521],[-75.00533,5.57525],[-75.00466,5.57554],[-75.00462,5.57555],[-75.00404,5.57567],[-75.00357,5.57578],[-75.00355,5.57578],[-75.00336,5.57576],[-75.00321,5.57575],[-75.00295,5.57578],[-75.00261,5.57586],[-75.00234,5.57595],[-75.00233,5.57595],[-75.00217,5.57592],[-75.002,5.5759],[-75.00176,5.57582],[-75.00157,5.57582],[-75.00129,5.57596],[-75.00106,5.57616],[-75.00084,5.57639],[-75.00052,5.57669],[-75.00012,5.57716],[-75.00032,5.57725],[-75.0007,5.57726],[-75.00115,5.57719],[-75.0018,5.57717],[-75.00241,5.57714],[-75.00326,5.57722]]]},"properties":{"OBJECTID":1,"Nombre":"La Galicia","Shape_Length":1703.0534054666534,"Shape_Area":99235.61301375384}},{"type":"Feature","id":2,"geometry":{"type":"MultiPolygon","coordinates":[[[[-75.05647,5.5675],[-75.05644,5.56756],[-75.05641,5.56762],[-75.05638,5.56768],[-75.05617,5.56805],[-75.05672,5.56816],[-75.05709,5.56823],[-75.05725,5.56825],[-75.05749,5.56829],[-75.0575,5.56829],[-75.05768,5.5683],[-75.0578,5.56832],[-75.05781,5.56829],[-75.05781,5.56828],[-75.05781,5.56828],[-75.05781,5.56821],[-75.05783,5.56812],[-75.05783,5.56809],[-75.05784,5.56804],[-75.05785,5.56802],[-75.05789,5.56799],[-75.05792,5.56796],[-75.05794,5.56793],[-75.05797,5.56787],[-75.05797,5.56784],[-75.058,5.56781],[-75.05802,5.56778],[-75.05804,5.56773],[-75.05808,5.5677],[-75.05809,5.56766],[-75.05811,5.5676],[-75.05812,5.56753],[-75.05812,5.56752],[-75.05819,5.56748],[-75.05824,5.56743],[-75.05824,5.56743],[-75.05824,5.56743],[-75.05824,5.56742],[-75.05824,5.56742],[-75.05824,5.5674],[-75.05827,5.56737],[-75.0583,5.56734],[-75.05837,5.5673],[-75.0584,5.56727],[-75.05844,5.56725],[-75.05846,5.56722],[-75.05849,5.56719],[-75.05848,5.56716],[-75.05852,5.56713],[-75.05867,5.56713],[-75.05869,5.56702],[-75.05871,5.56685],[-75.05873,5.56667],[-75.05874,5.56653],[-75.05874,5.56643],[-75.05875,5.56633],[-75.05875,5.56623],[-75.05875,5.56612],[-75.05874,5.56602],[-75.05874,5.56591],[-75.05873,5.5658],[-75.05873,5.56569],[-75.05873,5.56558],[-75.05873,5.56548],[-75.05873,5.56538],[-75.05875,5.56528],[-75.05875,5.56524],[-75.05881,5.56517],[-75.05888,5.56511],[-75.05895,5.56505],[-75.05902,5.565],[-75.05909,5.56495],[-75.05917,5.56491],[-75.05927,5.56485],[-75.05937,5.56479],[-75.05946,5.56472],[-75.05955,5.56465],[-75.05963,5.56457],[-75.05971,5.56449],[-75.05978,5.5644],[-75.05985,5.56431],[-75.05992,5.56422],[-75.05996,5.56417],[-75.06001,5.56413],[-75.06007,5.56409],[-75.06013,5.56405],[-75.06018,5.56403],[-75.06025,5.564],[-75.06032,5.56397],[-75.06039,5.56394],[-75.06046,5.56389],[-75.06052,5.56385],[-75.06061,5.56371],[-75.06069,5.56357],[-75.06076,5.56343],[-75.06083,5.56328],[-75.06089,5.56314],[-75.06095,5.56299],[-75.061,5.56283],[-75.06104,5.56268],[-75.06108,5.56252],[-75.06102,5.56246],[-75.06096,5.56241],[-75.06089,5.56236],[-75.06082,5.56231],[-75.06076,5.56226],[-75.06069,5.56221],[-75.06062,5.56217],[-75.06054,5.56214],[-75.06046,5.56212],[-75.06038,5.56211],[-75.06029,5.5621],[-75.06021,5.5621],[-75.06012,5.5621],[-75.06004,5.56212],[-75.05996,5.56214],[-75.05988,5.56216],[-75.0598,5.5622],[-75.05972,5.56224],[-75.05965,5.56228],[-75.05958,5.56233],[-75.05959,5.56223],[-75.05959,5.56209],[-75.0596,5.56201],[-75.0596,5.56193],[-75.0596,5.56186],[-75.05959,5.56179],[-75.05959,5.56173],[-75.05959,5.56167],[-75.05946,5.56166],[-75.05933,5.56164],[-75.0592,5.56162],[-75.05908,5.56159],[-75.05895,5.56156],[-75.05886,5.56154],[-75.05878,5.56151],[-75.05872,5.56151],[-75.05867,5.5615],[-75.05861,5.56151],[-75.05856,5.56151],[-75.0585,5.56153],[-75.05845,5.56155],[-75.0584,5.56157],[-75.05835,5.56161],[-75.05831,5.56164],[-75.05821,5.56178],[-75.05811,5.56191],[-75.05801,5.56206],[-75.05792,5.5622],[-75.05784,5.56235],[-75.05776,5.5625],[-75.05769,5.56266],[-75.05762,5.56282],[-75.05756,5.56298],[-75.05753,5.56307],[-75.05749,5.56317],[-75.05744,5.56327],[-75.05739,5.56336],[-75.05734,5.56345],[-75.05728,5.56353],[-75.05721,5.56361],[-75.05714,5.56369],[-75.05707,5.56376],[-75.05699,5.56383],[-75.05691,5.56389],[-75.05691,5.5639],[-75.05692,5.56403],[-75.05693,5.56416],[-75.05694,5.5643],[-75.05694,5.56443],[-75.05694,5.56458],[-75.05693,5.56474],[-75.05692,5.5649],[-75.0569,5.56505],[-75.05687,5.5652],[-75.05684,5.56532],[-75.05682,5.56543],[-75.05675,5.56552],[-75.05668,5.56562],[-75.05662,5.56573],[-75.05656,5.56583],[-75.05651,5.56594],[-75.05647,5.56605],[-75.05643,5.56612],[-75.05639,5.56619],[-75.05637,5.56626],[-75.05634,5.56633],[-75.05632,5.56641],[-75.0563,5.5665],[-75.05629,5.56658],[-75.05628,5.56666],[-75.05627,5.56675],[-75.05632,5.5668],[-75.05636,5.56685],[-75.0564,5.56691],[-75.05643,5.56697],[-75.05646,5.56703],[-75.05648,5.56709],[-75.0565,5.56716],[-75.0565,5.56723],[-75.0565,5.5673],[-75.0565,5.56737],[-75.05649,5.56743],[-75.05647,5.5675]]],[[[-75.0578,5.56871],[-75.05779,5.56874],[-75.05778,5.5688],[-75.05778,5.56881],[-75.05778,5.56886],[-75.05778,5.5689],[-75.05774,5.56899],[-75.05769,5.56904],[-75.05769,5.56905],[-75.05769,5.56907],[-75.05769,5.56909],[-75.05767,5.56917],[-75.05764,5.56934],[-75.05752,5.5696],[-75.05754,5.56967],[-75.05754,5.56973],[-75.05754,5.56976],[-75.05754,5.56976],[-75.05754,5.56979],[-75.05762,5.56985],[-75.05769,5.56992],[-75.05776,5.56999],[-75.05782,5.57007],[-75.05788,5.57015],[-75.05794,5.57024],[-75.05799,5.57033],[-75.05807,5.57043],[-75.05815,5.57053],[-75.05824,5.57063],[-75.05834,5.57072],[-75.05844,5.57081],[-75.05854,5.57089],[-75.05865,5.57096],[-75.05878,5.57097],[-75.05891,5.57098],[-75.05888,5.57087],[-75.05885,5.57075],[-75.05882,5.57063],[-75.0588,5.5705],[-75.05879,5.57038],[-75.05878,5.57025],[-75.05877,5.57006],[-75.05875,5.5698],[-75.05874,5.56962],[-75.05873,5.5695],[-75.05872,5.56939],[-75.05872,5.56928],[-75.0587,5.56912],[-75.05869,5.56892],[-75.05867,5.56875],[-75.05866,5.56859],[-75.05865,5.56844],[-75.05864,5.56829],[-75.05863,5.56813],[-75.05863,5.56797],[-75.05862,5.56784],[-75.05862,5.56776],[-75.05862,5.56768],[-75.05862,5.5676],[-75.05863,5.56752],[-75.05863,5.56744],[-75.05864,5.56736],[-75.05865,5.56729],[-75.05865,5.56727],[-75.05862,5.56727],[-75.05858,5.56728],[-75.0585,5.56737],[-75.05849,5.56738],[-75.05844,5.5674],[-75.05839,5.5674],[-75.05835,5.5674],[-75.05834,5.56743],[-75.05834,5.56743],[-75.05832,5.5675],[-75.05828,5.56754],[-75.05825,5.56756],[-75.05823,5.5676],[-75.05823,5.56765],[-75.05821,5.5677],[-75.05819,5.56773],[-75.05818,5.56774],[-75.05818,5.56776],[-75.05817,5.56776],[-75.05817,5.56777],[-75.05817,5.56781],[-75.05813,5.56785],[-75.05807,5.56793],[-75.05806,5.56793],[-75.05806,5.56794],[-75.05805,5.56795],[-75.05804,5.56798],[-75.05802,5.56802],[-75.058,5.56808],[-75.05798,5.56813],[-75.05798,5.56813],[-75.05799,5.56816],[-75.05799,5.56822],[-75.058,5.56832],[-75.05799,5.56838],[-75.05797,5.56845],[-75.05796,5.56845],[-75.05796,5.56848],[-75.05793,5.56856],[-75.05791,5.56861],[-75.05785,5.56868],[-75.05785,5.56868],[-75.05785,5.56868],[-75.0578,5.56871]]]]},"properties":{"OBJECTID":2,"Nombre":"Tahami quirama","Shape_Length":3136.430944810556,"Shape_Area":233270.62475835587}}]}