{"type":"FeatureCollection","name":"NacimientoRioManso","crs":{"type":"name","properties":{"name":"urn:ogc:def:crs:OGC:1.3:CRS84"}},"features":[{"type":"Feature","id":1,"geometry":{"type":"Polygon","coordinates":[[[-75.01651,5.56242],[-75.01654,5.56243],[-75.01654,5.56243],[-75.01655,5.56243],[-75.01655,5.56243],[-75.01656,5.56243],[-75.01656,5.56243],[-75.01657,5.56242],[-75.01658,5.56242],[-75.01658,5.56242],[-75.01659,5.56242],[-75.01659,5.56242],[-75.0166,5.56242],[-75.0166,5.56242],[-75.01661,5.56241],[-75.01661,5.56241],[-75.01662,5.56241],[-75.01662,5.56241],[-75.01663,5.56241],[-75.01664,5.56241],[-75.01664,5.5624],[-75.01665,5.5624],[-75.01665,5.5624],[-75.01666,5.5624],[-75.01666,5.5624],[-75.01667,5.5624],[-75.01667,5.56239],[-75.01668,5.56239],[-75.01668,5.56239],[-75.01669,5.56239],[-75.01669,5.56239],[-75.0167,5.56238],[-75.0167,5.56238],[-75.01671,5.56238],[-75.01672,5.56238],[-75.01672,5.56238],[-75.01673,5.56237],[-75.01673,5.56237],[-75.01673,5.56237],[-75.01674,5.56237],[-75.01674,5.56237],[-75.01675,5.56236],[-75.01675,5.56236],[-75.01676,5.56236],[-75.01676,5.56236],[-75.01677,5.56235],[-75.01677,5.56235],[-75.01678,5.56235],[-75.01678,5.56235],[-75.01679,5.56234],[-75.01679,5.56234],[-75.0168,5.56234],[-75.0168,5.56234],[-75.01681,5.56233],[-75.01681,5.56233],[-75.01682,5.56233],[-75.01682,5.56232],[-75.01683,5.56232],[-75.01683,5.56232],[-75.01684,5.56232],[-75.01684,5.56231],[-75.01685,5.56231],[-75.01685,5.56231],[-75.01686,5.5623],[-75.01686,5.5623],[-75.01686,5.5623],[-75.01687,5.56229],[-75.01687,5.56229],[-75.01688,5.56229],[-75.01688,5.56229],[-75.01689,5.56228],[-75.01689,5.56228],[-75.0169,5.56228],[-75.0169,5.56227],[-75.01691,5.56227],[-75.01691,5.56227],[-75.01692,5.56226],[-75.01692,5.56226],[-75.01692,5.56225],[-75.01693,5.56225],[-75.01693,5.56225],[-75.01715,5.5621],[-75.0172,5.56206],[-75.01727,5.56195],[-75.0174,5.56189],[-75.01744,5.5619],[-75.01786,5.5616],[-75.01779,5.56153],[-75.01779,5.56153],[-75.01772,5.56146],[-75.01772,5.56146],[-75.01767,5.5614],[-75.01766,5.56138],[-75.0176,5.5613],[-75.01759,5.5613],[-75.01758,5.56128],[-75.01754,5.56122],[-75.01754,5.56122],[-75.01749,5.56113],[-75.01742,5.56101],[-75.01734,5.56089],[-75.01727,5.56077],[-75.01717,5.56063],[-75.01707,5.56049],[-75.01703,5.56044],[-75.01702,5.56044],[-75.017,5.56045],[-75.01699,5.56046],[-75.01697,5.56047],[-75.01695,5.56049],[-75.01694,5.56051],[-75.01692,5.56053],[-75.0169,5.56055],[-75.01689,5.56056],[-75.01688,5.56057],[-75.01685,5.56059],[-75.01681,5.5606],[-75.01674,5.56062],[-75.01672,5.56063],[-75.01668,5.56064],[-75.01666,5.56064],[-75.01662,5.56064],[-75.01659,5.56064],[-75.01656,5.56064],[-75.01651,5.56063],[-75.01636,5.5606],[-75.01612,5.56055],[-75.0161,5.56054],[-75.01608,5.56054],[-75.01595,5.56051],[-75.01592,5.56055],[-75.0159,5.56057],[-75.01589,5.56059],[-75.01588,5.5606],[-75.01587,5.56061],[-75.0158,5.56066],[-75.01576,5.56069],[-75.01551,5.56088],[-75.01562,5.56101],[-75.0157,5.56111],[-75.01573,5.56115],[-75.01573,5.56115],[-75.01566,5.56118],[-75.01556,5.56125],[-75.01548,5.5613],[-75.01546,5.56131],[-75.01546,5.56132],[-75.01543,5.56132],[-75.01539,5.56131],[-75.01536,5.56131],[-75.01532,5.56131],[-75.01528,5.56131],[-75.01525,5.56133],[-75.01522,5.56135],[-75.01534,5.56144],[-75.01544,5.56151],[-75.01545,5.56151],[-75.01545,5.56152],[-75.01557,5.56164],[-75.01559,5.56176],[-75.0156,5.56194],[-75.01563,5.56203],[-75.01567,5.56215],[-75.01564,5.56223],[-75.01565,5.56223],[-75.01565,5.56223],[-75.01565,5.56223],[-75.01566,5.56224],[-75.01566,5.56224],[-75.01567,5.56224],[-75.01567,5.56225],[-75.01567,5.56225],[-75.01568,5.56225],[-75.01569,5.56225],[-75.01569,5.56226],[-75.0157,5.56226],[-75.0157,5.56226],[-75.01571,5.56227],[-75.01572,5.56227],[-75.01572,5.56227],[-75.01573,5.56228],[-75.01573,5.56228],[-75.01574,5.56228],[-75.01575,5.56229],[-75.01575,5.56229],[-75.01576,5.56229],[-75.01576,5.56229],[-75.01576,5.5623],[-75.01577,5.5623],[-75.01577,5.5623],[-75.01578,5.5623],[-75.01578,5.56231],[-75.01579,5.56231],[-75.0158,5.56231],[-75.0158,5.56232],[-75.01581,5.56232],[-75.01581,5.56232],[-75.01582,5.56232],[-75.01583,5.56233],[-75.01583,5.56233],[-75.01584,5.56233],[-75.01584,5.56233],[-75.01584,5.56233],[-75.01585,5.56234],[-75.01585,5.56234],[-75.01586,5.56234],[-75.01586,5.56234],[-75.01587,5.56235],[-75.01587,5.56235],[-75.01588,5.56235],[-75.01588,5.56235],[-75.01589,5.56235],[-75.0159,5.56236],[-75.0159,5.56236],[-75.01591,5.56236],[-75.01592,5.56236],[-75.01592,5.56237],[-75.01593,5.56237],[-75.01593,5.56237],[-75.01593,5.56237],[-75.01593,5.56237],[-75.01594,5.56237],[-75.01595,5.56238],[-75.01595,5.56238],[-75.01596,5.56238],[-75.01597,5.56238],[-75.01597,5.56238],[-75.01598,5.56239],[-75.01599,5.56239],[-75.01599,5.56239],[-75.016,5.56239],[-75.01601,5.56239],[-75.01601,5.5624],[-75.01602,5.5624],[-75.01602,5.5624],[-75.01603,5.5624],[-75.01603,5.5624],[-75.01604,5.5624],[-75.01605,5.56241],[-75.01605,5.56241],[-75.01606,5.56241],[-75.01607,5.56241],[-75.01607,5.56241],[-75.01608,5.56241],[-75.01609,5.56241],[-75.01609,5.56242],[-75.0161,5.56242],[-75.01611,5.56242],[-75.01611,5.56242],[-75.01612,5.56242],[-75.01612,5.56242],[-75.01613,5.56242],[-75.01613,5.56242],[-75.01614,5.56243],[-75.01615,5.56243],[-75.01615,5.56243],[-75.01616,5.56243],[-75.01617,5.56243],[-75.01617,5.56243],[-75.01618,5.56243],[-75.01629,5.56241],[-75.01638,5.5624],[-75.01651,5.56242]]]},"properties":{"OBJECTID":1,"IDPNN":"2007","NOMBRE":"Nacimiento del Rio Manso","ESCALA":"1:100.000","CATEGORIA":"Reserva Natural de la Sociedad Civil","URL":"https://runap.parquesnacionales.gov.co/area-protegida/2007","ORG":"PNNC","FECHAACT":"2023-03-31 00:00","RESOLUCION":"0069","HARES":4,"FECHACAP":"1900-01-01 00:00","Shape_Length":851.5829388674324,"Shape_Area":39957.94302429181}}]}