{"type":"FeatureCollection","name":"Reserva_forestal_ley2","crs":{"type":"name","properties":{"name":"urn:ogc:def:crs:OGC:1.3:CRS84"}},"features":[{"type":"Feature","id":1,"geometry":{"type":"MultiPolygon","coordinates":[[[[-75.12254,5.54257],[-75.12272,5.54263],[-75.12285,5.54267],[-75.12298,5.5427],[-75.12313,5.54272],[-75.12329,5.54273],[-75.12345,5.54274],[-75.12361,5.54273],[-75.12377,5.54271],[-75.12393,5.54268],[-75.1245,5.54255],[-75.12508,5.54252],[-75.12593,5.54217],[-75.1268,5.54193],[-75.12765,5.54184],[-75.12762,5.54174],[-75.12668,5.54179],[-75.12556,5.54188],[-75.12465,5.54192],[-75.12381,5.54212],[-75.12356,5.54228],[-75.12325,5.54244],[-75.12306,5.54253],[-75.12284,5.54251],[-75.1226,5.54244],[-75.12161,5.54178],[-75.12119,5.5416],[-75.12076,5.54147],[-75.12044,5.54139],[-75.11999,5.54125],[-75.11969,5.54114],[-75.1194,5.54112],[-75.11923,5.54112],[-75.1193,5.54114],[-75.1197,5.54123],[-75.12002,5.54133],[-75.12035,5.54146],[-75.1207,5.54164],[-75.12144,5.54206],[-75.12177,5.54223],[-75.12203,5.54235],[-75.12254,5.54257]]],[[[-75.11837,5.54183],[-75.11851,5.5431],[-75.11828,5.54463],[-75.11775,5.54566],[-75.11734,5.54661],[-75.11691,5.54795],[-75.11649,5.54977],[-75.11654,5.55147],[-75.11692,5.55341],[-75.1171,5.55504],[-75.11679,5.55645],[-75.11658,5.55791],[-75.11651,5.5594],[-75.11686,5.56002],[-75.11773,5.56064],[-75.11784,5.56069],[-75.12058,5.55954],[-75.12055,5.5595],[-75.12042,5.55933],[-75.12014,5.55896],[-75.12009,5.55888],[-75.11986,5.55857],[-75.11965,5.5583],[-75.1194,5.55797],[-75.11934,5.55744],[-75.11929,5.55704],[-75.11921,5.55628],[-75.11917,5.55596],[-75.11916,5.55589],[-75.1194,5.55505],[-75.11945,5.55486],[-75.11947,5.55477],[-75.11994,5.55308],[-75.11996,5.55301],[-75.12071,5.55041],[-75.12073,5.55034],[-75.12106,5.54916],[-75.12106,5.54916],[-75.12108,5.5491],[-75.12108,5.54907],[-75.12113,5.54752],[-75.12116,5.54646],[-75.1209,5.54553],[-75.12044,5.5439],[-75.11973,5.54257],[-75.11954,5.54222],[-75.11944,5.54203],[-75.11943,5.542],[-75.11916,5.54151],[-75.11915,5.54148],[-75.119,5.54113],[-75.11899,5.5411],[-75.11894,5.54109],[-75.1186,5.54095],[-75.11838,5.54075],[-75.11804,5.54051],[-75.11804,5.54051],[-75.11837,5.54183]]]]},"properties":{"OBJECTID_1":1,"FID_RFC_Ca":308,"OBJECTID_2":309,"FID_RFC__1":308,"OBJECTID_3":309,"FID_Centro":309,"FID_Cent_1":-1,"Id":0,"Municipio":" ","C_Poblado":" ","Perimetro":0,"Area":0,"FID_RFC__2":308,"OBJECTID_4":309,"FID_RFC__3":313,"FID_RFC__4":312,"OBJECTID":925,"NOMBRE_ENT":"PENSILVANIA","DEPARTAMEN":"CALDAS","Area_ha":473.362612431,"Reserva":"Central","Shape_Leng":19182.9731877,"Tipo_Zona_":"B","FID_Sue_ex":-1,"mun_codigo":" ","div_codigo":" ","cpob_codig":" ","Nombre":" ","Shape_Le_4":0,"Shape_Le_5":19182.9897307,"FID_Perime":-1,"CODMPO":" ","Shape_Length":6948.369608658333,"Shape_Area":739837.2230526683}},{"type":"Feature","id":2,"geometry":{"type":"Polygon","coordinates":[[[-75.12058,5.55954],[-75.12063,5.5596],[-75.12082,5.55943],[-75.12099,5.55929],[-75.12133,5.55905],[-75.12195,5.55871],[-75.12202,5.55868],[-75.12206,5.55865],[-75.12227,5.55852],[-75.1226,5.55838],[-75.1228,5.55833],[-75.12304,5.55824],[-75.12333,5.55813],[-75.12412,5.55802],[-75.12415,5.55802],[-75.12451,5.55791],[-75.12456,5.55789],[-75.12491,5.55776],[-75.12501,5.55772],[-75.12524,5.55758],[-75.12542,5.55747],[-75.12582,5.55703],[-75.12615,5.55655],[-75.12642,5.55626],[-75.12669,5.55597],[-75.1269,5.55581],[-75.12696,5.55574],[-75.12699,5.55568],[-75.12713,5.55559],[-75.12725,5.55556],[-75.12735,5.55549],[-75.12759,5.55531],[-75.12779,5.55516],[-75.12803,5.55487],[-75.12807,5.55482],[-75.12856,5.55421],[-75.12867,5.55397],[-75.129,5.55331],[-75.12928,5.55225],[-75.12946,5.55102],[-75.1295,5.55068],[-75.12955,5.55022],[-75.12955,5.55019],[-75.12955,5.55018],[-75.12956,5.54966],[-75.12957,5.54922],[-75.12958,5.54853],[-75.1296,5.54762],[-75.12974,5.54683],[-75.12986,5.54629],[-75.12989,5.54613],[-75.12897,5.54609],[-75.1288,5.54601],[-75.12864,5.54593],[-75.12864,5.54581],[-75.1288,5.54581],[-75.12994,5.5458],[-75.12998,5.54563],[-75.12998,5.54533],[-75.12998,5.54525],[-75.12972,5.54472],[-75.13026,5.54363],[-75.13025,5.54255],[-75.12917,5.54255],[-75.12917,5.54309],[-75.12809,5.5431],[-75.12776,5.54298],[-75.12776,5.54232],[-75.12771,5.5421],[-75.12765,5.54184],[-75.1268,5.54193],[-75.12593,5.54217],[-75.12508,5.54252],[-75.1245,5.54255],[-75.12393,5.54268],[-75.12377,5.54271],[-75.12361,5.54273],[-75.12345,5.54274],[-75.12329,5.54273],[-75.12313,5.54272],[-75.12298,5.5427],[-75.12285,5.54267],[-75.12272,5.54263],[-75.12254,5.54257],[-75.12203,5.54235],[-75.12177,5.54223],[-75.12144,5.54206],[-75.1207,5.54164],[-75.12035,5.54146],[-75.12002,5.54133],[-75.1197,5.54123],[-75.1193,5.54114],[-75.11923,5.54112],[-75.11919,5.54113],[-75.11899,5.5411],[-75.119,5.54113],[-75.11915,5.54148],[-75.11916,5.54151],[-75.11943,5.542],[-75.11944,5.54203],[-75.11954,5.54222],[-75.11973,5.54257],[-75.12044,5.5439],[-75.1209,5.54553],[-75.12116,5.54646],[-75.12113,5.54752],[-75.12108,5.54907],[-75.12108,5.5491],[-75.12106,5.54916],[-75.12106,5.54916],[-75.12073,5.55034],[-75.12071,5.55041],[-75.11996,5.55301],[-75.11994,5.55308],[-75.11947,5.55477],[-75.11945,5.55486],[-75.1194,5.55505],[-75.11916,5.55589],[-75.11917,5.55596],[-75.11921,5.55628],[-75.11929,5.55704],[-75.11934,5.55744],[-75.1194,5.55797],[-75.11965,5.5583],[-75.11986,5.55857],[-75.12009,5.55888],[-75.12014,5.55896],[-75.12042,5.55933],[-75.12055,5.5595],[-75.12058,5.55954]]]},"properties":{"OBJECTID_1":2,"FID_RFC_Ca":309,"OBJECTID_2":310,"FID_RFC__1":309,"OBJECTID_3":310,"FID_Centro":310,"FID_Cent_1":-1,"Id":0,"Municipio":" ","C_Poblado":" ","Perimetro":0,"Area":0,"FID_RFC__2":309,"OBJECTID_4":310,"FID_RFC__3":314,"FID_RFC__4":313,"OBJECTID":926,"NOMBRE_ENT":"SAMANÁ","DEPARTAMEN":"CALDAS","Area_ha":169.536845691,"Reserva":"Central","Shape_Leng":6346.13270072,"Tipo_Zona_":"B","FID_Sue_ex":-1,"mun_codigo":" ","div_codigo":" ","cpob_codig":" ","Nombre":" ","Shape_Le_4":0,"Shape_Le_5":6346.6164379,"FID_Perime":-1,"CODMPO":" ","Shape_Length":6341.821424775642,"Shape_Area":1694143.2493304405}},{"type":"Feature","id":3,"geometry":{"type":"MultiPolygon","coordinates":[[[[-75.13254,5.54097],[-75.1324,5.54111],[-75.13249,5.5413],[-75.13255,5.54144],[-75.13261,5.54153],[-75.13272,5.54127],[-75.13275,5.54097],[-75.13274,5.54081],[-75.13254,5.54097]]],[[[-75.13188,5.54754],[-75.13183,5.54758],[-75.13174,5.54765],[-75.13153,5.54788],[-75.13151,5.5479],[-75.13134,5.54817],[-75.13122,5.54845],[-75.13112,5.5488],[-75.13109,5.54901],[-75.13103,5.5496],[-75.13099,5.54976],[-75.13094,5.54991],[-75.13081,5.55015],[-75.13076,5.5502],[-75.13062,5.5504],[-75.1305,5.55052],[-75.13039,5.55064],[-75.13004,5.55091],[-75.12993,5.55105],[-75.12984,5.5512],[-75.12972,5.55152],[-75.12964,5.55184],[-75.12961,5.55211],[-75.12963,5.55246],[-75.12958,5.55269],[-75.1295,5.55284],[-75.12926,5.55312],[-75.12918,5.55326],[-75.12899,5.55367],[-75.12883,5.55416],[-75.12876,5.55427],[-75.12858,5.55449],[-75.12852,5.55462],[-75.12848,5.55474],[-75.12903,5.55419],[-75.12956,5.55325],[-75.12995,5.55283],[-75.13043,5.55218],[-75.13065,5.55171],[-75.13078,5.55126],[-75.13129,5.55005],[-75.13171,5.54931],[-75.13188,5.54858],[-75.13189,5.54833],[-75.13192,5.54751],[-75.13188,5.54754]]],[[[-75.12725,5.55556],[-75.12713,5.55559],[-75.12699,5.55568],[-75.12696,5.55574],[-75.1269,5.55581],[-75.12682,5.55595],[-75.12669,5.55628],[-75.1269,5.55602],[-75.12721,5.55571],[-75.12753,5.55549],[-75.12725,5.55556]]],[[[-75.12501,5.55772],[-75.12491,5.55776],[-75.12472,5.55784],[-75.1249,5.55779],[-75.12503,5.55771],[-75.12501,5.55772]]],[[[-75.12412,5.55802],[-75.12333,5.55813],[-75.12304,5.55824],[-75.1228,5.55833],[-75.12332,5.5582],[-75.12397,5.55807],[-75.12415,5.55802],[-75.12412,5.55802]]],[[[-75.11784,5.56069],[-75.11854,5.56102],[-75.1192,5.5619],[-75.11922,5.56271],[-75.11947,5.56373],[-75.11944,5.56433],[-75.11914,5.56481],[-75.11943,5.56461],[-75.11978,5.56418],[-75.11997,5.56366],[-75.12006,5.56329],[-75.12027,5.56166],[-75.12027,5.56162],[-75.12028,5.5616],[-75.12042,5.56094],[-75.12074,5.56015],[-75.12104,5.55964],[-75.12145,5.55913],[-75.12195,5.55872],[-75.12202,5.55868],[-75.12195,5.55871],[-75.12133,5.55905],[-75.12099,5.55929],[-75.12082,5.55943],[-75.12063,5.5596],[-75.12058,5.55954],[-75.11784,5.56069]]]]},"properties":{"OBJECTID_1":3,"FID_RFC_Ca":1121,"OBJECTID_2":1122,"FID_RFC__1":1121,"OBJECTID_3":1122,"FID_Centro":1122,"FID_Cent_1":-1,"Id":0,"Municipio":" ","C_Poblado":" ","Perimetro":0,"Area":0,"FID_RFC__2":1121,"OBJECTID_4":1123,"FID_RFC__3":1137,"FID_RFC__4":1136,"OBJECTID":3495,"NOMBRE_ENT":"NARIÑO","DEPARTAMEN":"ANTIOQUIA","Area_ha":1607.90298076,"Reserva":"Central","Shape_Leng":83913.064083,"Tipo_Zona_":"A","FID_Sue_ex":-1,"mun_codigo":" ","div_codigo":" ","cpob_codig":" ","Nombre":" ","Shape_Le_4":0,"Shape_Le_5":13552.1686808,"FID_Perime":-1,"CODMPO":" ","Shape_Length":4504.075914798752,"Shape_Area":123614.08426724888}},{"type":"Feature","id":4,"geometry":{"type":"MultiPolygon","coordinates":[[[[-75.13147,5.54152],[-75.13249,5.5413],[-75.1324,5.54111],[-75.13237,5.54114],[-75.13214,5.5413],[-75.13194,5.54139],[-75.13167,5.54143],[-75.13097,5.54145],[-75.13071,5.54148],[-75.1306,5.54151],[-75.13084,5.5415],[-75.13147,5.54152]]],[[[-75.12765,5.54184],[-75.12787,5.54182],[-75.1283,5.54182],[-75.12809,5.54172],[-75.12762,5.54174],[-75.12765,5.54184]]]]},"properties":{"OBJECTID_1":4,"FID_RFC_Ca":1122,"OBJECTID_2":1123,"FID_RFC__1":1122,"OBJECTID_3":1123,"FID_Centro":1123,"FID_Cent_1":-1,"Id":0,"Municipio":" ","C_Poblado":" ","Perimetro":0,"Area":0,"FID_RFC__2":1122,"OBJECTID_4":1124,"FID_RFC__3":1138,"FID_RFC__4":1137,"OBJECTID":3496,"NOMBRE_ENT":"PENSILVANIA","DEPARTAMEN":"CALDAS","Area_ha":1037.78859357,"Reserva":"Central","Shape_Leng":55107.0237926,"Tipo_Zona_":"A","FID_Sue_ex":-1,"mun_codigo":" ","div_codigo":" ","cpob_codig":" ","Nombre":" ","Shape_Le_4":0,"Shape_Le_5":56195.036657,"FID_Perime":-1,"CODMPO":" ","Shape_Length":606.0082763371183,"Shape_Area":2227.530799272344}},{"type":"Feature","id":5,"geometry":{"type":"MultiPolygon","coordinates":[[[[-75.12864,5.54593],[-75.1288,5.54601],[-75.12897,5.54609],[-75.12989,5.54613],[-75.12986,5.54629],[-75.12974,5.54683],[-75.1296,5.54762],[-75.12958,5.54853],[-75.12957,5.54922],[-75.12956,5.54966],[-75.12955,5.55018],[-75.12955,5.55019],[-75.12955,5.55022],[-75.1295,5.55068],[-75.12946,5.55102],[-75.12928,5.55225],[-75.129,5.55331],[-75.12867,5.55397],[-75.12856,5.55421],[-75.12807,5.55482],[-75.12803,5.55487],[-75.12779,5.55516],[-75.12759,5.55531],[-75.12735,5.55549],[-75.12725,5.55556],[-75.12753,5.55549],[-75.12779,5.55532],[-75.12837,5.55486],[-75.12848,5.55474],[-75.12852,5.55462],[-75.12858,5.55449],[-75.12876,5.55427],[-75.12883,5.55416],[-75.12899,5.55367],[-75.12918,5.55326],[-75.12926,5.55312],[-75.1295,5.55284],[-75.12958,5.55269],[-75.12963,5.55246],[-75.12961,5.55211],[-75.12964,5.55184],[-75.12972,5.55152],[-75.12984,5.5512],[-75.12993,5.55105],[-75.13004,5.55091],[-75.13039,5.55064],[-75.1305,5.55052],[-75.13062,5.5504],[-75.13076,5.5502],[-75.13081,5.55015],[-75.13094,5.54991],[-75.13099,5.54976],[-75.13103,5.5496],[-75.13109,5.54901],[-75.13112,5.5488],[-75.13122,5.54845],[-75.13134,5.54817],[-75.13151,5.5479],[-75.13153,5.54788],[-75.13174,5.54765],[-75.13183,5.54758],[-75.13188,5.54754],[-75.13192,5.54751],[-75.13193,5.54713],[-75.13195,5.54673],[-75.13197,5.54609],[-75.13198,5.54599],[-75.13211,5.54381],[-75.13215,5.54309],[-75.13217,5.54268],[-75.13218,5.54265],[-75.13218,5.54262],[-75.13232,5.54222],[-75.13261,5.54153],[-75.13255,5.54144],[-75.13249,5.5413],[-75.13147,5.54152],[-75.13084,5.5415],[-75.1306,5.54151],[-75.13041,5.54156],[-75.12949,5.5419],[-75.12901,5.54205],[-75.12884,5.54206],[-75.1286,5.54196],[-75.12855,5.54193],[-75.12835,5.54185],[-75.1283,5.54182],[-75.12787,5.54182],[-75.12765,5.54184],[-75.12771,5.5421],[-75.12776,5.54232],[-75.12776,5.54298],[-75.12809,5.5431],[-75.12917,5.54309],[-75.12917,5.54255],[-75.13025,5.54255],[-75.13026,5.54363],[-75.12972,5.54472],[-75.12998,5.54525],[-75.12998,5.54533],[-75.12998,5.54563],[-75.12994,5.5458],[-75.1288,5.54581],[-75.12864,5.54581],[-75.12864,5.54593]]],[[[-75.12669,5.55597],[-75.12642,5.55626],[-75.12615,5.55655],[-75.12582,5.55703],[-75.12542,5.55747],[-75.12554,5.55739],[-75.12662,5.55637],[-75.12669,5.55628],[-75.12682,5.55595],[-75.1269,5.55581],[-75.12669,5.55597]]],[[[-75.12501,5.55772],[-75.12503,5.55771],[-75.12524,5.55758],[-75.12501,5.55772]]],[[[-75.12456,5.55789],[-75.12451,5.55791],[-75.12472,5.55784],[-75.12491,5.55776],[-75.12456,5.55789]]]]},"properties":{"OBJECTID_1":5,"FID_RFC_Ca":1123,"OBJECTID_2":1124,"FID_RFC__1":1123,"OBJECTID_3":1124,"FID_Centro":1124,"FID_Cent_1":-1,"Id":0,"Municipio":" ","C_Poblado":" ","Perimetro":0,"Area":0,"FID_RFC__2":1123,"OBJECTID_4":1125,"FID_RFC__3":1139,"FID_RFC__4":1138,"OBJECTID":3497,"NOMBRE_ENT":"SAMANÁ","DEPARTAMEN":"CALDAS","Area_ha":35.8508276626,"Reserva":"Central","Shape_Leng":5983.7442083,"Tipo_Zona_":"A","FID_Sue_ex":-1,"mun_codigo":" ","div_codigo":" ","cpob_codig":" ","Nombre":" ","Shape_Le_4":0,"Shape_Le_5":5254.84542525,"FID_Perime":-1,"CODMPO":" ","Shape_Length":5262.480352834327,"Shape_Area":270729.63230392727}}]}