{"type":"FeatureCollection","name":"Humedales","crs":{"type":"name","properties":{"name":"urn:ogc:def:crs:OGC:1.3:CRS84"}},"features":[{"type":"Feature","id":2,"geometry":{"type":"Polygon","coordinates":[[[-74.93827,5.63109],[-74.93856,5.63154],[-74.93882,5.63138],[-74.93852,5.63089],[-74.93827,5.63109]]]},"properties":{"OBJECTID_1":2,"OBJECTID":100,"HUCODIGO":" ","OBSERV":" ","HU_NOMBRE":" ","SHAPE_Leng":192.560489382,"POMCA":"Rio La Miel  - NSS","Shape_Le_1":192.494599309,"Shape_Length":192.49459930913412,"Shape_Area":2123.9048177470518}},{"type":"Feature","id":3,"geometry":{"type":"Polygon","coordinates":[[[-74.92142,5.67739],[-74.9214,5.67747],[-74.92143,5.67752],[-74.92152,5.67755],[-74.92156,5.67751],[-74.92157,5.67747],[-74.92146,5.67739],[-74.92142,5.67739],[-74.92142,5.67739]]]},"properties":{"OBJECTID_1":3,"OBJECTID":101,"HUCODIGO":" ","OBSERV":" ","HU_NOMBRE":" ","SHAPE_Leng":56.317195634,"POMCA":"Rio La Miel  - NSS","Shape_Le_1":56.2976138519,"Shape_Length":56.297613851925774,"Shape_Area":214.95602621664744}},{"type":"Feature","id":4,"geometry":{"type":"Polygon","coordinates":[[[-74.91458,5.52227],[-74.91452,5.52232],[-74.91452,5.52233],[-74.91451,5.52236],[-74.91451,5.52239],[-74.91453,5.52239],[-74.91462,5.52239],[-74.91469,5.52238],[-74.91472,5.52232],[-74.91467,5.52226],[-74.91464,5.52225],[-74.91458,5.52227]]]},"properties":{"OBJECTID_1":4,"OBJECTID":113,"HUCODIGO":" ","OBSERV":" ","HU_NOMBRE":" ","SHAPE_Leng":64.1775338311,"POMCA":"Rio La Miel  - NSS","Shape_Le_1":64.1551284848,"Shape_Length":64.1551284848239,"Shape_Area":272.95250911725293}}]}