{"type":"FeatureCollection","name":"Areas_importancia_ambiental","crs":{"type":"name","properties":{"name":"urn:ogc:def:crs:OGC:1.3:CRS84"}},"features":[{"type":"Feature","id":1,"geometry":{"type":"MultiPolygon","coordinates":[[[[-74.99644,5.38574],[-74.99696,5.3871],[-74.99713,5.3894],[-74.99501,5.39228],[-74.99951,5.39275],[-74.99912,5.39383],[-74.99959,5.39447],[-75.00102,5.39583],[-75.00182,5.3969],[-75.00188,5.39683],[-75.00193,5.39662],[-75.00199,5.39638],[-75.002,5.39612],[-75.002,5.39592],[-75.00197,5.39563],[-75.00193,5.39538],[-75.00189,5.39513],[-75.00184,5.39491],[-75.0018,5.39468],[-75.00177,5.39444],[-75.00225,5.39427],[-75.00279,5.3941],[-75.00307,5.39398],[-75.00355,5.39391],[-75.00314,5.39384],[-75.00271,5.39379],[-75.00218,5.39367],[-75.00141,5.39338],[-75.0011,5.39316],[-75.00095,5.39297],[-75.00094,5.39278],[-75.00102,5.39273],[-75.00114,5.39258],[-75.00127,5.39235],[-75.00157,5.39202],[-75.00198,5.39171],[-75.00227,5.39153],[-75.00231,5.39137],[-75.00257,5.39109],[-75.00269,5.39071],[-75.00276,5.39036],[-75.0028,5.39002],[-75.00271,5.38977],[-75.00286,5.38958],[-75.00304,5.38944],[-75.00334,5.38929],[-75.00369,5.38918],[-75.00418,5.38908],[-75.00444,5.38904],[-75.0048,5.38886],[-75.00513,5.38864],[-75.00526,5.3885],[-75.00511,5.38828],[-75.00492,5.38811],[-75.00478,5.38778],[-75.00476,5.38738],[-75.00475,5.38693],[-75.00471,5.38662],[-75.00506,5.38634],[-75.00529,5.38618],[-75.00545,5.38579],[-75.00553,5.38555],[-75.00575,5.38541],[-75.00594,5.38523],[-75.00631,5.385],[-75.00657,5.38486],[-75.00699,5.38475],[-75.0072,5.38468],[-75.00742,5.38461],[-75.00758,5.38463],[-75.00781,5.38469],[-75.00795,5.38493],[-75.00794,5.38532],[-75.00798,5.38553],[-75.00791,5.38598],[-75.0092,5.38405],[-75.01085,5.38176],[-75.00966,5.37883],[-75.00883,5.37497],[-75.00572,5.37544],[-75.00474,5.37192],[-75.00226,5.37038],[-74.99739,5.36989],[-74.99453,5.37018],[-74.99352,5.37115],[-74.99253,5.37265],[-74.99147,5.37558],[-74.99218,5.37896],[-74.99508,5.37972],[-74.99468,5.38138],[-74.99596,5.38407],[-74.99644,5.38574]]],[[[-75.00876,5.41371],[-75.00881,5.41376],[-75.0089,5.41385],[-75.0089,5.41386],[-75.00881,5.41376],[-75.00873,5.41367],[-75.00869,5.41364],[-75.00869,5.41364],[-75.00873,5.41367],[-75.00872,5.41366],[-75.00876,5.41371]]],[[[-75.00853,5.41895],[-75.01152,5.41826],[-75.01166,5.41706],[-75.0143,5.4173],[-75.01794,5.41692],[-75.0174,5.41438],[-75.01713,5.41204],[-75.01417,5.41034],[-75.01208,5.40717],[-75.00963,5.40646],[-75.01063,5.40409],[-75.01208,5.40311],[-75.01437,5.39659],[-75.01276,5.39547],[-75.01169,5.39647],[-75.01054,5.39703],[-75.01076,5.39738],[-75.01077,5.39736],[-75.01103,5.39753],[-75.01119,5.39805],[-75.01143,5.39847],[-75.01154,5.39882],[-75.01175,5.39913],[-75.0117,5.39982],[-75.01165,5.40043],[-75.01159,5.40107],[-75.01123,5.40222],[-75.0106,5.40267],[-75.00953,5.40344],[-75.00827,5.40346],[-75.00757,5.40266],[-75.00715,5.40202],[-75.00722,5.40126],[-75.00778,5.40074],[-75.00749,5.40058],[-75.00607,5.40065],[-75.0054,5.39871],[-75.00522,5.39665],[-75.00578,5.39568],[-75.00605,5.39455],[-75.00652,5.39481],[-75.0071,5.39506],[-75.00768,5.39525],[-75.00815,5.39532],[-75.00843,5.39557],[-75.00884,5.39568],[-75.00898,5.39576],[-75.00874,5.39445],[-75.00833,5.39318],[-75.00884,5.39181],[-75.00964,5.38921],[-75.00957,5.38922],[-75.00947,5.38922],[-75.00936,5.38922],[-75.00927,5.3892],[-75.00917,5.38919],[-75.00907,5.38918],[-75.00896,5.38916],[-75.00886,5.38914],[-75.00877,5.3891],[-75.00869,5.38903],[-75.00861,5.38899],[-75.00856,5.38895],[-75.00855,5.38896],[-75.00853,5.38896],[-75.00849,5.38892],[-75.00841,5.38887],[-75.00833,5.38881],[-75.00827,5.38872],[-75.00823,5.38864],[-75.00822,5.38855],[-75.00822,5.38843],[-75.00822,5.38833],[-75.00822,5.38823],[-75.00822,5.38812],[-75.00822,5.38802],[-75.00823,5.38793],[-75.00824,5.38788],[-75.00826,5.38783],[-75.00834,5.38778],[-75.00843,5.38774],[-75.00852,5.38773],[-75.00864,5.38773],[-75.00874,5.38773],[-75.00884,5.38775],[-75.00788,5.3862],[-75.00787,5.38628],[-75.00776,5.38689],[-75.00757,5.38735],[-75.00733,5.38774],[-75.00707,5.38812],[-75.00698,5.38838],[-75.00691,5.3887],[-75.00677,5.38908],[-75.00661,5.3893],[-75.00628,5.38956],[-75.0063,5.38964],[-75.00648,5.3898],[-75.00657,5.39015],[-75.00669,5.391],[-75.00686,5.39146],[-75.00683,5.39186],[-75.00656,5.3921],[-75.00612,5.39233],[-75.00581,5.39268],[-75.00557,5.393],[-75.00545,5.39326],[-75.00524,5.39352],[-75.00498,5.39392],[-75.0048,5.39404],[-75.00495,5.3943],[-75.00516,5.39468],[-75.0054,5.39499],[-75.00545,5.3954],[-75.00538,5.39574],[-75.00519,5.39608],[-75.00484,5.39628],[-75.00436,5.39667],[-75.00396,5.39702],[-75.00364,5.39751],[-75.00351,5.39774],[-75.0033,5.39789],[-75.00284,5.39792],[-75.00255,5.39802],[-75.00245,5.39807],[-75.00229,5.39808],[-75.00193,5.39809],[-75.00169,5.39797],[-75.00159,5.39793],[-75.00149,5.3977],[-75.00084,5.39815],[-75.00234,5.39959],[-75.00465,5.40048],[-75.00646,5.40183],[-75.00532,5.40299],[-75.00505,5.40303],[-75.00515,5.40317],[-75.00508,5.40324],[-75.00545,5.40648],[-75.0069,5.40811],[-75.0059,5.40898],[-75.00548,5.41067],[-75.00696,5.41254],[-75.00686,5.41306],[-75.00701,5.41282],[-75.00762,5.41293],[-75.00795,5.41311],[-75.00806,5.41317],[-75.00806,5.41317],[-75.00787,5.41281],[-75.00767,5.41245],[-75.00733,5.41146],[-75.00772,5.41009],[-75.00819,5.40955],[-75.00847,5.40952],[-75.00883,5.4095],[-75.01022,5.40846],[-75.01099,5.40813],[-75.01138,5.40858],[-75.01154,5.4089],[-75.0116,5.40921],[-75.01158,5.40944],[-75.01166,5.40963],[-75.01178,5.40989],[-75.01184,5.41004],[-75.01185,5.41025],[-75.01179,5.41048],[-75.01174,5.41081],[-75.01153,5.41105],[-75.01113,5.41141],[-75.01101,5.41167],[-75.01103,5.412],[-75.011,5.41232],[-75.01086,5.41262],[-75.01077,5.41283],[-75.01059,5.41312],[-75.01039,5.41336],[-75.01015,5.41361],[-75.00988,5.41386],[-75.00977,5.41397],[-75.00961,5.41413],[-75.0094,5.41431],[-75.0094,5.41429],[-75.0094,5.41429],[-75.00939,5.41435],[-75.00939,5.41435],[-75.00937,5.41441],[-75.00937,5.41445],[-75.00933,5.4146],[-75.0093,5.41469],[-75.0093,5.41477],[-75.00929,5.41484],[-75.00928,5.415],[-75.00916,5.41511],[-75.00883,5.41552],[-75.00878,5.41559],[-75.00861,5.41565],[-75.00861,5.41566],[-75.00855,5.41568],[-75.00822,5.41556],[-75.00804,5.41519],[-75.00797,5.41506],[-75.00776,5.41482],[-75.00776,5.41482],[-75.00757,5.41463],[-75.00749,5.41455],[-75.00726,5.41434],[-75.00711,5.41398],[-75.00694,5.41354],[-75.00685,5.4131],[-75.00661,5.41437],[-75.00634,5.41507],[-75.00769,5.41703],[-75.00853,5.41895]]]]},"properties":{"OBJECTID_12":1,"OBJECTID_1":1,"OBJECTID":0,"codigo":" ","vereda_cod":" ","numero_sub":0,"codigo_ant":" ","Area_ha":522.374817,"Nombre":"Altomira","Shape_Leng":0,"Tipo":" ","Shape_Le_1":16494.7239441,"Shape_Length":25417.47598761062,"Shape_Area":5223748.225167988,"Uso":"Predios para la conservación y protección"}},{"type":"Feature","id":3,"geometry":{"type":"Polygon","coordinates":[[[-74.92879,5.39241],[-74.92897,5.39256],[-74.92917,5.39271],[-74.92962,5.39272],[-74.92977,5.39272],[-74.92978,5.39273],[-74.92987,5.39275],[-74.92996,5.39279],[-74.93004,5.39284],[-74.93011,5.39287],[-74.93026,5.39298],[-74.93046,5.39299],[-74.93058,5.39294],[-74.9307,5.3929],[-74.93075,5.39289],[-74.93085,5.39286],[-74.93109,5.39279],[-74.9311,5.39279],[-74.93121,5.39276],[-74.93121,5.39248],[-74.9312,5.39243],[-74.93118,5.39239],[-74.93123,5.39236],[-74.93127,5.39234],[-74.93131,5.39233],[-74.93135,5.39231],[-74.9314,5.39229],[-74.93145,5.39227],[-74.9315,5.39224],[-74.93155,5.39221],[-74.9316,5.39219],[-74.93165,5.39216],[-74.9317,5.39212],[-74.93174,5.39209],[-74.93178,5.39206],[-74.93178,5.39206],[-74.93176,5.39197],[-74.93183,5.3914],[-74.93181,5.39111],[-74.93213,5.39116],[-74.93227,5.39116],[-74.93236,5.391],[-74.93236,5.39092],[-74.93226,5.39082],[-74.93214,5.39063],[-74.93203,5.39054],[-74.93186,5.39049],[-74.9316,5.3905],[-74.93135,5.39054],[-74.93089,5.39066],[-74.93058,5.39064],[-74.93052,5.39066],[-74.9305,5.39066],[-74.93037,5.3905],[-74.93037,5.39049],[-74.93035,5.39044],[-74.92987,5.39081],[-74.92969,5.39091],[-74.92944,5.39096],[-74.92888,5.391],[-74.92896,5.39132],[-74.92898,5.39143],[-74.92893,5.39163],[-74.92886,5.39186],[-74.92875,5.39204],[-74.92859,5.39214],[-74.92851,5.39216],[-74.92844,5.39216],[-74.92868,5.39228],[-74.92879,5.39241]],[[-74.93103,5.3919],[-74.9312,5.3922],[-74.93088,5.3923],[-74.93067,5.39199],[-74.93073,5.39187],[-74.93095,5.39183],[-74.93103,5.3919]]]},"properties":{"OBJECTID_12":3,"OBJECTID_1":null,"OBJECTID":null,"codigo":null,"vereda_cod":null,"numero_sub":null,"codigo_ant":null,"Area_ha":7.27423668,"Nombre":"Tasajos_-_La_Maria_34","Shape_Leng":null,"Tipo":null,"Shape_Le_1":null,"Shape_Length":1413.1035596541685,"Shape_Area":72742.36808950211,"Uso":"Predios para la conservación y protección"}},{"type":"Feature","id":4,"geometry":{"type":"Polygon","coordinates":[[[-74.94583,5.59701],[-74.94554,5.59708],[-74.94498,5.5973],[-74.9446,5.59745],[-74.9446,5.59747],[-74.94458,5.59793],[-74.94454,5.59798],[-74.94447,5.59808],[-74.94441,5.59818],[-74.94441,5.59821],[-74.94447,5.59839],[-74.94446,5.59843],[-74.94441,5.59843],[-74.94441,5.59849],[-74.94441,5.5985],[-74.94441,5.59851],[-74.94416,5.59872],[-74.94409,5.59878],[-74.94397,5.59905],[-74.94393,5.59912],[-74.94391,5.59918],[-74.94381,5.5993],[-74.94368,5.59939],[-74.94381,5.59953],[-74.94385,5.59955],[-74.94409,5.59971],[-74.94412,5.59973],[-74.94432,5.59981],[-74.94433,5.59982],[-74.94442,5.59984],[-74.94465,5.59989],[-74.94472,5.59999],[-74.94472,5.59999],[-74.94482,5.60022],[-74.94481,5.60023],[-74.94479,5.6003],[-74.94479,5.6003],[-74.9448,5.60035],[-74.9448,5.60036],[-74.94481,5.60037],[-74.94482,5.60041],[-74.94484,5.60047],[-74.9449,5.60065],[-74.94495,5.60079],[-74.94499,5.60101],[-74.945,5.6011],[-74.94504,5.60128],[-74.94507,5.60138],[-74.94511,5.60142],[-74.94518,5.60147],[-74.94534,5.60152],[-74.94562,5.6016],[-74.94564,5.60162],[-74.94593,5.60181],[-74.94601,5.60186],[-74.94606,5.6019],[-74.94623,5.60197],[-74.94628,5.602],[-74.94631,5.60202],[-74.94635,5.60204],[-74.94653,5.60214],[-74.94662,5.60232],[-74.94666,5.60241],[-74.94686,5.60273],[-74.94693,5.60284],[-74.947,5.60304],[-74.94694,5.60308],[-74.94678,5.60319],[-74.94671,5.60325],[-74.9467,5.60326],[-74.94666,5.6033],[-74.9465,5.60346],[-74.94659,5.60385],[-74.94662,5.60402],[-74.94665,5.60414],[-74.94661,5.60432],[-74.94657,5.60456],[-74.94656,5.6046],[-74.94654,5.6047],[-74.94648,5.60502],[-74.94648,5.60507],[-74.94646,5.60521],[-74.94644,5.60543],[-74.94643,5.60547],[-74.94641,5.60566],[-74.94641,5.60571],[-74.94638,5.60576],[-74.94632,5.60586],[-74.94629,5.60601],[-74.94623,5.60629],[-74.94619,5.60646],[-74.94619,5.60647],[-74.94618,5.60652],[-74.94617,5.60655],[-74.94616,5.60661],[-74.94617,5.60663],[-74.94617,5.60665],[-74.94617,5.60667],[-74.9462,5.60674],[-74.94609,5.6069],[-74.94576,5.60703],[-74.94623,5.60727],[-74.94633,5.60732],[-74.94643,5.60708],[-74.94647,5.60684],[-74.94652,5.60686],[-74.94678,5.60693],[-74.947,5.60666],[-74.94711,5.60662],[-74.94738,5.60674],[-74.94741,5.60674],[-74.9478,5.60666],[-74.94794,5.60677],[-74.94804,5.60677],[-74.94824,5.60676],[-74.94829,5.60678],[-74.94833,5.6068],[-74.94883,5.60685],[-74.94912,5.60676],[-74.94921,5.60689],[-74.94929,5.60684],[-74.94931,5.60672],[-74.94934,5.60653],[-74.94941,5.60615],[-74.94952,5.60594],[-74.94972,5.60574],[-74.94994,5.60557],[-74.95006,5.60551],[-74.95015,5.60543],[-74.95027,5.60524],[-74.95041,5.60501],[-74.95063,5.60484],[-74.951,5.60465],[-74.95133,5.60446],[-74.95152,5.60435],[-74.95163,5.60419],[-74.95185,5.6042],[-74.95195,5.6043],[-74.95211,5.60445],[-74.95218,5.60454],[-74.95218,5.6049],[-74.95229,5.60511],[-74.95237,5.60526],[-74.95252,5.60545],[-74.95261,5.60568],[-74.95265,5.60582],[-74.95267,5.60594],[-74.95262,5.60611],[-74.95255,5.60633],[-74.95251,5.60648],[-74.95254,5.60662],[-74.95272,5.6068],[-74.95293,5.60699],[-74.95296,5.60706],[-74.95298,5.60715],[-74.953,5.60725],[-74.95307,5.60739],[-74.95317,5.60744],[-74.95336,5.60748],[-74.95342,5.60752],[-74.95343,5.60757],[-74.95345,5.60767],[-74.95343,5.60785],[-74.95339,5.608],[-74.95341,5.60813],[-74.95346,5.60828],[-74.95347,5.60841],[-74.95357,5.60856],[-74.95376,5.60887],[-74.95387,5.60913],[-74.95395,5.60926],[-74.95414,5.60923],[-74.95449,5.60932],[-74.95468,5.60928],[-74.95482,5.60921],[-74.95483,5.6092],[-74.95488,5.60918],[-74.95492,5.60916],[-74.95497,5.60916],[-74.95502,5.60916],[-74.95511,5.60921],[-74.95518,5.60926],[-74.95522,5.60932],[-74.95525,5.60936],[-74.95527,5.6094],[-74.95534,5.60933],[-74.95543,5.60926],[-74.95547,5.60915],[-74.95546,5.60894],[-74.95549,5.60878],[-74.9555,5.60862],[-74.95553,5.60848],[-74.95557,5.60841],[-74.95555,5.60827],[-74.9555,5.6082],[-74.95542,5.6081],[-74.95541,5.60803],[-74.95538,5.60788],[-74.95543,5.60778],[-74.95542,5.60767],[-74.95538,5.60754],[-74.95535,5.60745],[-74.95535,5.60744],[-74.95529,5.60742],[-74.95526,5.60742],[-74.95516,5.60742],[-74.9551,5.60745],[-74.95505,5.60745],[-74.95498,5.60742],[-74.95497,5.60729],[-74.95498,5.60728],[-74.95505,5.60718],[-74.95515,5.60698],[-74.95515,5.60689],[-74.95511,5.60683],[-74.95505,5.60681],[-74.9549,5.60679],[-74.95479,5.60675],[-74.95466,5.60671],[-74.95457,5.60668],[-74.95452,5.60667],[-74.95441,5.60663],[-74.95435,5.6066],[-74.95432,5.60655],[-74.95435,5.60645],[-74.95439,5.60631],[-74.9544,5.60628],[-74.95435,5.60614],[-74.95429,5.60609],[-74.95425,5.60605],[-74.95416,5.60597],[-74.95406,5.60589],[-74.95401,5.60582],[-74.95396,5.60575],[-74.95385,5.60567],[-74.95381,5.60564],[-74.95376,5.60559],[-74.95373,5.60547],[-74.95375,5.60534],[-74.95376,5.60533],[-74.95379,5.60529],[-74.95397,5.60512],[-74.95403,5.60499],[-74.954,5.60497],[-74.95402,5.6049],[-74.95401,5.6048],[-74.95398,5.60471],[-74.9539,5.60463],[-74.95391,5.60449],[-74.9539,5.6044],[-74.95379,5.60426],[-74.95368,5.60411],[-74.95363,5.60406],[-74.9536,5.60404],[-74.95353,5.604],[-74.95345,5.60396],[-74.95335,5.60391],[-74.95322,5.60385],[-74.95321,5.60384],[-74.95312,5.60368],[-74.95311,5.60352],[-74.9531,5.60349],[-74.95307,5.60342],[-74.95296,5.60319],[-74.95291,5.60309],[-74.95276,5.60305],[-74.95266,5.603],[-74.95262,5.60288],[-74.95264,5.6028],[-74.95264,5.60269],[-74.95253,5.60253],[-74.95242,5.60247],[-74.95238,5.60242],[-74.95233,5.60237],[-74.95234,5.60219],[-74.9523,5.60203],[-74.95229,5.60203],[-74.95223,5.60197],[-74.9522,5.60189],[-74.95221,5.60184],[-74.95222,5.60178],[-74.95222,5.60174],[-74.9521,5.6017],[-74.95201,5.60167],[-74.95198,5.60161],[-74.95195,5.60156],[-74.95198,5.6015],[-74.952,5.60144],[-74.95202,5.60132],[-74.95206,5.60126],[-74.95205,5.6012],[-74.95201,5.60116],[-74.952,5.60115],[-74.95194,5.60107],[-74.95193,5.60093],[-74.95193,5.60082],[-74.95186,5.60081],[-74.9518,5.60072],[-74.95177,5.60066],[-74.95178,5.60062],[-74.95174,5.60056],[-74.95173,5.60054],[-74.95171,5.60051],[-74.9517,5.60047],[-74.95178,5.60037],[-74.95183,5.60031],[-74.95185,5.60025],[-74.95183,5.60022],[-74.95181,5.60019],[-74.95172,5.60014],[-74.95167,5.60013],[-74.95164,5.60017],[-74.95164,5.60017],[-74.95158,5.60015],[-74.95152,5.60017],[-74.95147,5.60016],[-74.95143,5.60017],[-74.95139,5.60019],[-74.95132,5.60021],[-74.95127,5.6002],[-74.95118,5.60017],[-74.95112,5.60011],[-74.95104,5.60009],[-74.95103,5.60014],[-74.95098,5.60019],[-74.95097,5.60022],[-74.95096,5.60026],[-74.95098,5.60036],[-74.95094,5.60041],[-74.9508,5.60045],[-74.95049,5.60034],[-74.95047,5.60029],[-74.95051,5.60022],[-74.95054,5.60018],[-74.95057,5.60011],[-74.95056,5.60004],[-74.95056,5.60003],[-74.95054,5.59996],[-74.95042,5.59995],[-74.95035,5.59985],[-74.95033,5.59978],[-74.95021,5.59972],[-74.95012,5.59971],[-74.9501,5.59964],[-74.95006,5.59955],[-74.95007,5.59945],[-74.95006,5.5994],[-74.95004,5.59932],[-74.95001,5.59924],[-74.94991,5.5991],[-74.94983,5.59905],[-74.94983,5.59905],[-74.94973,5.59896],[-74.94969,5.59891],[-74.94964,5.59894],[-74.94957,5.59901],[-74.94951,5.59905],[-74.94946,5.59902],[-74.94943,5.59902],[-74.94939,5.59901],[-74.94932,5.59904],[-74.94928,5.59907],[-74.94913,5.59903],[-74.94908,5.59898],[-74.94906,5.59896],[-74.94909,5.59886],[-74.94914,5.59879],[-74.94912,5.59863],[-74.94911,5.59859],[-74.94911,5.5985],[-74.94908,5.59843],[-74.94907,5.59842],[-74.94902,5.59835],[-74.94901,5.59835],[-74.94897,5.59837],[-74.94888,5.59833],[-74.94884,5.59831],[-74.94881,5.59832],[-74.94876,5.59833],[-74.94868,5.59837],[-74.9486,5.59835],[-74.9486,5.59834],[-74.94849,5.59828],[-74.94847,5.59828],[-74.94836,5.59823],[-74.94833,5.59821],[-74.94829,5.59818],[-74.9482,5.5982],[-74.94811,5.59823],[-74.94802,5.59827],[-74.94802,5.59827],[-74.94808,5.59819],[-74.94812,5.59807],[-74.94813,5.598],[-74.94812,5.59798],[-74.94828,5.59795],[-74.94838,5.59793],[-74.94847,5.59781],[-74.9485,5.59778],[-74.94854,5.59775],[-74.94858,5.59773],[-74.94863,5.59768],[-74.94841,5.59763],[-74.94822,5.59765],[-74.94794,5.59758],[-74.94774,5.59758],[-74.9476,5.59765],[-74.94752,5.59773],[-74.94711,5.59805],[-74.94694,5.59808],[-74.94687,5.59805],[-74.94689,5.59782],[-74.9468,5.59754],[-74.94655,5.59744],[-74.9462,5.59721],[-74.94603,5.59721],[-74.94593,5.59706],[-74.94583,5.59701]]]},"properties":{"OBJECTID_12":4,"OBJECTID_1":null,"OBJECTID":null,"codigo":null,"vereda_cod":null,"numero_sub":null,"codigo_ant":null,"Area_ha":71.5869904,"Nombre":"Media Cuesta Río Manso","Shape_Leng":null,"Tipo":null,"Shape_Le_1":null,"Shape_Length":5738.881907374423,"Shape_Area":715869.9383412335,"Uso":"Predios para la conservación y protección"}},{"type":"Feature","id":5,"geometry":{"type":"Polygon","coordinates":[[[-74.93035,5.39044],[-74.93037,5.39049],[-74.93037,5.3905],[-74.9305,5.39066],[-74.93052,5.39066],[-74.93058,5.39064],[-74.93089,5.39066],[-74.93135,5.39054],[-74.9316,5.3905],[-74.93186,5.39049],[-74.93203,5.39054],[-74.93214,5.39063],[-74.93226,5.39082],[-74.93236,5.39092],[-74.9324,5.39095],[-74.93258,5.39094],[-74.93267,5.39091],[-74.93301,5.3909],[-74.9332,5.391],[-74.93337,5.39105],[-74.93358,5.39105],[-74.93377,5.39096],[-74.93395,5.39084],[-74.93413,5.39076],[-74.93454,5.39077],[-74.93474,5.3907],[-74.93514,5.39069],[-74.93516,5.39068],[-74.93513,5.39064],[-74.93493,5.39021],[-74.93469,5.3898],[-74.93463,5.38975],[-74.93455,5.38972],[-74.93447,5.38979],[-74.93412,5.38995],[-74.93397,5.38997],[-74.93368,5.38994],[-74.93324,5.38984],[-74.93264,5.38963],[-74.9324,5.38947],[-74.93226,5.38944],[-74.932,5.38944],[-74.93174,5.38947],[-74.93123,5.38975],[-74.931,5.38994],[-74.93035,5.39044]]]},"properties":{"OBJECTID_12":5,"OBJECTID_1":null,"OBJECTID":null,"codigo":null,"vereda_cod":null,"numero_sub":null,"codigo_ant":null,"Area_ha":5.42106009,"Nombre":"Tasajos_-_La_Playa_5_M","Shape_Leng":null,"Tipo":null,"Shape_Le_1":null,"Shape_Length":1230.682491508625,"Shape_Area":54210.59982469945,"Uso":"Predios para la conservación y protección"}}]}