{"type":"FeatureCollection","name":"Areas_Conserv_Proteccion_Canaan","crs":{"type":"name","properties":{"name":"urn:ogc:def:crs:OGC:1.3:CRS84"}},"features":[{"type":"Feature","id":0,"geometry":{"type":"Polygon","coordinates":[[[-75.86611,5.08868],[-75.8661,5.0887],[-75.86618,5.08875],[-75.86611,5.08868]]]},"properties":{"FID":0,"OBJECTID":1,"AREA_ha":0.00137946424289,"CONTRATIST":"CORDEAM","CONTRATO":"EOT VITERBO 2021","SUELOS":"RURAL","CATEGORIA":"PROTECCIÓN","SUBCATEGOR":"ÁREAS DE INTERÉS AMBIENTAL MUNICIPAL","COMPONENTE":"OTRAS ÁREAS DE INTERÉS PARA LA PROTECCIÓN DE LA BIODIVERSIDAD","ELEMENTO":"Bosque protector del Asentamiento humano rural Santa Helena","NOMBRE":"Bosque protector del Asentamiento humano rural Santa Helena","NOMENCLATU":"Bosque protector del Asentamiento humano rural Santa Helena","RuleID":3,"Shape_Leng":24.7394219981,"Shape_Area":13.7947495629}},{"type":"Feature","id":1,"geometry":{"type":"MultiPolygon","coordinates":[[[[-75.89694,5.06411],[-75.89691,5.06412],[-75.89687,5.06413],[-75.89684,5.06414],[-75.89681,5.06416],[-75.8968,5.06417],[-75.89686,5.06414],[-75.89694,5.06411],[-75.89694,5.06411]]],[[[-75.89674,5.06422],[-75.8967,5.06425],[-75.89673,5.06431],[-75.89682,5.06427],[-75.89678,5.06419],[-75.89674,5.06422]]]]},"properties":{"FID":1,"OBJECTID":2,"AREA_ha":0.0105947916338,"CONTRATIST":"CORDEAM","CONTRATO":"EOT VITERBO 2021","SUELOS":"RURAL","CATEGORIA":"PROTECCIÓN","SUBCATEGOR":"ECOSISTEMAS ESTRATÉGICOS O ÁREAS DE ESPECIAL IMPORTANCIA ECOSISTÉMICA","COMPONENTE":"ÁREAS FORESTALES PROTECTORAS","ELEMENTO":"Áreas forestales protectoras","NOMBRE":"Nacimientos, manantiales y fajas de protección de cauces naturales","NOMENCLATU":"Fajas forestales protectoras de cauces rurales del Asentamiento humano rural Canaán","RuleID":1,"Shape_Leng":74.6566011273,"Shape_Area":105.947593245}},{"type":"Feature","id":2,"geometry":{"type":"Polygon","coordinates":[[[-75.89695,5.06408],[-75.89695,5.06409],[-75.89695,5.0641],[-75.89695,5.06411],[-75.89696,5.0641],[-75.89695,5.06408]]]},"properties":{"FID":2,"OBJECTID":3,"AREA_ha":0.000180099543415,"CONTRATIST":"CORDEAM","CONTRATO":"EOT VITERBO 2021","SUELOS":"RURAL","CATEGORIA":"PROTECCIÓN","SUBCATEGOR":"ÁREAS DE INTERÉS AMBIENTAL MUNICIPAL","COMPONENTE":"OTRAS ÁREAS DE INTERÉS PARA LA PROTECCIÓN DE LA BIODIVERSIDAD","ELEMENTO":"Bosque protector del Asentamiento humano rural Canaán","NOMBRE":"Bosque protector del Asentamiento humano rural Canaán","NOMENCLATU":"Bosque protector del Asentamiento humano rural Canaán","RuleID":2,"Shape_Leng":7.07755969543,"Shape_Area":1.80095187361}}]}