{"type":"FeatureCollection","name":"COND_AMENAZA_AV_TRR_RURAL","crs":{"type":"name","properties":{"name":"urn:ogc:def:crs:OGC:1.3:CRS84"}},"features":[{"type":"Feature","id":0,"geometry":{"type":"Polygon","coordinates":[[[-75.5081,5.42836],[-75.50824,5.42842],[-75.50824,5.4283],[-75.5082,5.4282],[-75.50818,5.4282],[-75.50817,5.42819],[-75.5081,5.42836]]]},"properties":{"FID":0,"OBJECTID":1,"E_EXPUESTO":"LA LOMA","Priorizaci":"Mediano plazo","Area_Has":0.0235477514307,"Shape_Leng":66.8037767901,"Shape_Area":235.477514307}},{"type":"Feature","id":1,"geometry":{"type":"MultiPolygon","coordinates":[[[[-75.4928,5.35645],[-75.49277,5.3565],[-75.49279,5.35652],[-75.49298,5.35639],[-75.49315,5.3562],[-75.49315,5.35617],[-75.49315,5.35602],[-75.49303,5.35568],[-75.49303,5.35567],[-75.493,5.35564],[-75.49281,5.35538],[-75.4928,5.35537],[-75.49267,5.35546],[-75.49264,5.35545],[-75.49259,5.35544],[-75.49252,5.35543],[-75.49248,5.35544],[-75.49243,5.35546],[-75.49238,5.35551],[-75.49234,5.35558],[-75.49232,5.35556],[-75.49232,5.35553],[-75.49231,5.3555],[-75.49229,5.35541],[-75.49225,5.35524],[-75.49225,5.35523],[-75.49225,5.35526],[-75.49225,5.35529],[-75.49233,5.35569],[-75.49267,5.3564],[-75.49269,5.35642],[-75.49273,5.35639],[-75.4928,5.35645]],[[-75.49288,5.35639],[-75.49283,5.35644],[-75.49275,5.35636],[-75.4928,5.35631],[-75.49288,5.35639]],[[-75.49284,5.35627],[-75.4929,5.35622],[-75.49298,5.35631],[-75.49292,5.35636],[-75.49284,5.35627]],[[-75.49292,5.35619],[-75.49298,5.35614],[-75.49306,5.35625],[-75.49301,5.35629],[-75.49292,5.35619]],[[-75.49276,5.35583],[-75.49258,5.35591],[-75.49249,5.35565],[-75.49267,5.35557],[-75.49276,5.35583]]],[[[-75.49232,5.35412],[-75.4922,5.35442],[-75.49221,5.35441],[-75.49237,5.35433],[-75.4925,5.35421],[-75.49243,5.35408],[-75.4924,5.35402],[-75.49237,5.35405],[-75.49239,5.35407],[-75.49234,5.3541],[-75.49234,5.3541],[-75.49232,5.35412]]],[[[-75.49278,5.35267],[-75.49261,5.35282],[-75.49247,5.35292],[-75.49221,5.3531],[-75.492,5.3533],[-75.492,5.35348],[-75.49201,5.35357],[-75.49254,5.3529],[-75.49256,5.35288],[-75.49259,5.35286],[-75.49262,5.35285],[-75.49286,5.35273],[-75.49278,5.35267],[-75.49278,5.35267]]]]},"properties":{"FID":1,"OBJECTID":2,"E_EXPUESTO":"LA UNIÓN","Priorizaci":"Mediano plazo","Area_Has":0.826729746811,"Shape_Leng":1071.28714399,"Shape_Area":8267.29746811}},{"type":"Feature","id":2,"geometry":{"type":"MultiPolygon","coordinates":[[[[-75.43905,5.38205],[-75.4391,5.38205],[-75.43907,5.38199],[-75.43905,5.38205]]],[[[-75.4413,5.382],[-75.44131,5.38199],[-75.44136,5.38199],[-75.44137,5.38198],[-75.44137,5.38193],[-75.44127,5.3819],[-75.4413,5.382]]]]},"properties":{"FID":2,"OBJECTID":3,"E_EXPUESTO":"RCD Proyectada","Priorizaci":"Largo plazo","Area_Has":0.00925322545307,"Shape_Leng":57.0432445543,"Shape_Area":92.5322545307}},{"type":"Feature","id":3,"geometry":{"type":"MultiPolygon","coordinates":[[[[-75.48588,5.41491],[-75.48588,5.41502],[-75.486,5.41502],[-75.486,5.41491],[-75.48588,5.41491]]],[[[-75.48588,5.4148],[-75.48574,5.41485],[-75.48588,5.41491],[-75.48588,5.4148]]],[[[-75.48588,5.4148],[-75.486,5.4148],[-75.48594,5.41465],[-75.48588,5.4148]]],[[[-75.48607,5.41361],[-75.48622,5.41367],[-75.48622,5.41355],[-75.48607,5.41361]]],[[[-75.48633,5.41321],[-75.48633,5.41333],[-75.48644,5.41333],[-75.48644,5.41321],[-75.48633,5.41321]]]]},"properties":{"FID":3,"OBJECTID":4,"E_EXPUESTO":"SUB Los Mangos","Priorizaci":"Mediano plazo","Area_Has":0.0612678125,"Shape_Leng":240.617395472,"Shape_Area":612.678125}},{"type":"Feature","id":4,"geometry":{"type":"MultiPolygon","coordinates":[[[[-75.48612,5.41965],[-75.48618,5.4198],[-75.48623,5.41965],[-75.48612,5.41965]]],[[[-75.48567,5.41966],[-75.48581,5.4196],[-75.48567,5.41954],[-75.48567,5.41966]]],[[[-75.48424,5.41821],[-75.48434,5.41812],[-75.4842,5.41808],[-75.48424,5.41821]]],[[[-75.48582,5.4181],[-75.48592,5.418],[-75.48578,5.41796],[-75.48582,5.4181]]],[[[-75.48491,5.41776],[-75.48501,5.41766],[-75.48487,5.41762],[-75.48491,5.41776]]],[[[-75.48465,5.41717],[-75.48465,5.41728],[-75.48479,5.41745],[-75.48487,5.41717],[-75.48465,5.41717]]],[[[-75.48593,5.41719],[-75.48603,5.41709],[-75.48589,5.41706],[-75.48593,5.41719]]],[[[-75.48487,5.41627],[-75.4851,5.41627],[-75.48498,5.41611],[-75.48487,5.41627]]],[[[-75.48592,5.41618],[-75.48602,5.41608],[-75.48589,5.41604],[-75.48592,5.41618]]]]},"properties":{"FID":4,"OBJECTID":5,"E_EXPUESTO":"UPR Los Mangos","Priorizaci":"Mediano plazo","Area_Has":0.143595607939,"Shape_Leng":491.206152932,"Shape_Area":1435.95607939}},{"type":"Feature","id":5,"geometry":{"type":"MultiPolygon","coordinates":[[[[-75.48231,5.37921],[-75.48245,5.37915],[-75.48231,5.3791],[-75.48231,5.37921]]],[[[-75.46965,5.36681],[-75.46976,5.36696],[-75.46988,5.36681],[-75.46965,5.36681]]]]},"properties":{"FID":5,"OBJECTID":6,"E_EXPUESTO":"UPR La Palma La Quiebra","Priorizaci":"Mediano plazo","Area_Has":0.0318069374998,"Shape_Leng":114.787800628,"Shape_Area":318.069374998}}]}