{"type":"FeatureCollection","name":"COND_RIESGO_AV_TRR_RURAL","crs":{"type":"name","properties":{"name":"urn:ogc:def:crs:OGC:1.3:CRS84"}},"features":[{"type":"Feature","id":0,"geometry":{"type":"MultiPolygon","coordinates":[[[[-75.49269,5.35642],[-75.49269,5.35643],[-75.49277,5.35651],[-75.49277,5.3565],[-75.4928,5.35645],[-75.49273,5.35639],[-75.49269,5.35642]]],[[[-75.49275,5.35636],[-75.49283,5.35644],[-75.49288,5.35639],[-75.4928,5.35631],[-75.49275,5.35636]]],[[[-75.49284,5.35627],[-75.49292,5.35636],[-75.49298,5.35631],[-75.4929,5.35622],[-75.49284,5.35627]]],[[[-75.49292,5.35619],[-75.49301,5.35629],[-75.49306,5.35625],[-75.49298,5.35614],[-75.49292,5.35619]]],[[[-75.49249,5.35565],[-75.49258,5.35591],[-75.49276,5.35583],[-75.49267,5.35557],[-75.49249,5.35565]]],[[[-75.49219,5.35542],[-75.49217,5.35544],[-75.49219,5.35544],[-75.49219,5.35542]]],[[[-75.49166,5.35483],[-75.49167,5.35483],[-75.49172,5.355],[-75.49175,5.35503],[-75.49177,5.355],[-75.49179,5.35498],[-75.49177,5.35491],[-75.49174,5.35473],[-75.49166,5.35477],[-75.49166,5.35483]]],[[[-75.49192,5.35491],[-75.49195,5.35491],[-75.49199,5.35491],[-75.49202,5.35491],[-75.49205,5.35492],[-75.49205,5.35486],[-75.49209,5.35486],[-75.49209,5.35477],[-75.49202,5.35476],[-75.49201,5.35483],[-75.49201,5.35463],[-75.49201,5.3546],[-75.49194,5.3546],[-75.49194,5.35446],[-75.49197,5.35447],[-75.49206,5.35431],[-75.49202,5.35427],[-75.4919,5.35443],[-75.49189,5.35465],[-75.49189,5.35467],[-75.49192,5.35483],[-75.49192,5.35491]]],[[[-75.49188,5.35418],[-75.49193,5.35425],[-75.49201,5.35419],[-75.49197,5.35413],[-75.49188,5.35418]]],[[[-75.49234,5.3541],[-75.49234,5.3541],[-75.49239,5.35407],[-75.49237,5.35405],[-75.49235,5.35401],[-75.49231,5.35404],[-75.49234,5.3541]]],[[[-75.49221,5.35368],[-75.49221,5.35378],[-75.49224,5.35378],[-75.49225,5.35386],[-75.49229,5.35386],[-75.49229,5.35378],[-75.49228,5.35367],[-75.49221,5.35368]]],[[[-75.49221,5.35353],[-75.49222,5.35353],[-75.49222,5.35358],[-75.49227,5.35358],[-75.49228,5.35342],[-75.49221,5.35342],[-75.49221,5.35353]]],[[[-75.49224,5.35337],[-75.4923,5.35342],[-75.49237,5.35334],[-75.49239,5.35332],[-75.49234,5.35327],[-75.49224,5.35337]]],[[[-75.49294,5.3528],[-75.49291,5.35281],[-75.49294,5.35285],[-75.49295,5.35286],[-75.49302,5.3528],[-75.49304,5.35277],[-75.49302,5.35275],[-75.49294,5.3528]]]]},"properties":{"FID":0,"OBJECTID":1,"E_EXPUESTO":"Construcción","Priorizaci":"Corto plazo","Area_Has":0.277171040479,"Shape_Leng":822.040770487,"Shape_Area":2771.71040479}},{"type":"Feature","id":1,"geometry":{"type":"MultiPolygon","coordinates":[[[[-75.46669,5.4505],[-75.46672,5.45052],[-75.46675,5.45054],[-75.46678,5.45055],[-75.46682,5.45055],[-75.46685,5.45055],[-75.46689,5.45054],[-75.46692,5.45052],[-75.46693,5.45052],[-75.46716,5.45036],[-75.46759,5.4503],[-75.46759,5.4503],[-75.46763,5.45029],[-75.46766,5.45027],[-75.46769,5.45025],[-75.46771,5.45023],[-75.46773,5.4502],[-75.46775,5.45016],[-75.46776,5.45013],[-75.46776,5.45009],[-75.46776,5.45006],[-75.46775,5.45006],[-75.46814,5.44991],[-75.46817,5.44989],[-75.4682,5.44987],[-75.46822,5.44985],[-75.46824,5.44982],[-75.46826,5.44979],[-75.46826,5.44975],[-75.46827,5.44972],[-75.46826,5.44968],[-75.46826,5.44965],[-75.46824,5.44962],[-75.46822,5.44959],[-75.46819,5.44956],[-75.46817,5.44954],[-75.46813,5.44953],[-75.4681,5.44952],[-75.46806,5.44951],[-75.46803,5.44952],[-75.46799,5.44953],[-75.46787,5.44958],[-75.4677,5.44977],[-75.46742,5.44993],[-75.46707,5.45004],[-75.4666,5.45021],[-75.46642,5.45016],[-75.4664,5.45019],[-75.46638,5.45021],[-75.46637,5.45023],[-75.46635,5.45026],[-75.46634,5.4503],[-75.46634,5.45033],[-75.46634,5.45037],[-75.46635,5.4504],[-75.46637,5.45043],[-75.46639,5.45046],[-75.46641,5.45049],[-75.46644,5.45051],[-75.46647,5.45052],[-75.46651,5.45053],[-75.46654,5.45054],[-75.46658,5.45053],[-75.46661,5.45052],[-75.46664,5.45051],[-75.46667,5.45049],[-75.46669,5.4505]]],[[[-75.47238,5.44884],[-75.4724,5.44887],[-75.47243,5.44889],[-75.47246,5.44891],[-75.47249,5.44893],[-75.47253,5.44894],[-75.47256,5.44894],[-75.4726,5.44894],[-75.4733,5.4488],[-75.47322,5.44881],[-75.47283,5.44878],[-75.4726,5.4488],[-75.47249,5.44867],[-75.47212,5.44856],[-75.47203,5.44845],[-75.47196,5.44846],[-75.47193,5.44847],[-75.4719,5.44848],[-75.47187,5.4485],[-75.47184,5.44853],[-75.47182,5.44856],[-75.47181,5.44859],[-75.4718,5.44862],[-75.4718,5.44866],[-75.4718,5.4487],[-75.47181,5.44873],[-75.47182,5.44876],[-75.47184,5.44879],[-75.47187,5.44882],[-75.4719,5.44884],[-75.47193,5.44885],[-75.47196,5.44886],[-75.472,5.44886],[-75.47204,5.44886],[-75.47237,5.4488],[-75.47237,5.44881],[-75.47238,5.44884]]],[[[-75.47395,5.4481],[-75.47372,5.44861],[-75.47396,5.44849],[-75.47397,5.44849],[-75.47399,5.44847],[-75.47403,5.44844],[-75.47404,5.44844],[-75.47406,5.44841],[-75.47408,5.44838],[-75.4741,5.44835],[-75.47411,5.44831],[-75.47411,5.44828],[-75.47411,5.44824],[-75.4741,5.44821],[-75.47408,5.44818],[-75.47408,5.44817],[-75.47448,5.44786],[-75.4745,5.44787],[-75.47452,5.44789],[-75.47456,5.44791],[-75.47459,5.44792],[-75.47463,5.44792],[-75.47466,5.44792],[-75.4747,5.44791],[-75.47473,5.44789],[-75.47475,5.44788],[-75.47478,5.44786],[-75.47642,5.447],[-75.47643,5.44699],[-75.47646,5.44697],[-75.47648,5.44695],[-75.4765,5.44692],[-75.4765,5.44691],[-75.4767,5.44654],[-75.47642,5.44662],[-75.47632,5.44675],[-75.47597,5.44685],[-75.47587,5.44697],[-75.4753,5.44708],[-75.47503,5.44741],[-75.47491,5.44725],[-75.47479,5.44725],[-75.4748,5.44748],[-75.47446,5.44748],[-75.47395,5.4481]]],[[[-75.47676,5.4464],[-75.47676,5.44643],[-75.4768,5.44636],[-75.47676,5.4464]]],[[[-75.47732,5.44481],[-75.47722,5.44494],[-75.4771,5.44504],[-75.477,5.44516],[-75.47687,5.44527],[-75.47688,5.44538],[-75.47686,5.44561],[-75.47692,5.44614],[-75.47723,5.44557],[-75.47788,5.44494],[-75.47841,5.4447],[-75.47828,5.44472],[-75.47811,5.4447],[-75.47732,5.44481]]],[[[-75.49672,5.41895],[-75.49672,5.41896],[-75.49674,5.41895],[-75.49672,5.41895]]],[[[-75.49867,5.41786],[-75.49889,5.41811],[-75.49891,5.41843],[-75.4986,5.41886],[-75.49875,5.41883],[-75.49878,5.41875],[-75.49906,5.41869],[-75.49911,5.41841],[-75.49949,5.41835],[-75.49947,5.41795],[-75.49946,5.41792],[-75.49946,5.41789],[-75.49944,5.41786],[-75.49942,5.41783],[-75.49942,5.41782],[-75.49906,5.41743],[-75.49868,5.41764],[-75.49857,5.41777],[-75.49835,5.41776],[-75.49802,5.41794],[-75.49751,5.41817],[-75.49723,5.41841],[-75.49722,5.41855],[-75.49766,5.41817],[-75.49841,5.41781],[-75.49867,5.41786]]],[[[-75.46887,5.40582],[-75.46897,5.40572],[-75.46884,5.40568],[-75.46887,5.40582]]],[[[-75.46921,5.40582],[-75.46931,5.40572],[-75.46917,5.40568],[-75.46921,5.40582]]],[[[-75.46814,5.4054],[-75.4681,5.40575],[-75.46811,5.40575],[-75.46865,5.40554],[-75.46966,5.40564],[-75.47001,5.4055],[-75.47067,5.40536],[-75.47022,5.40517],[-75.47019,5.40516],[-75.47016,5.40515],[-75.47014,5.40515],[-75.46993,5.40515],[-75.4696,5.40525],[-75.46946,5.40524],[-75.46882,5.40552],[-75.46876,5.40551],[-75.46898,5.40523],[-75.46905,5.40519],[-75.46877,5.40515],[-75.46872,5.40516],[-75.4687,5.40517],[-75.46868,5.40518],[-75.46865,5.40519],[-75.46863,5.40519],[-75.46863,5.40519],[-75.46856,5.40519],[-75.46857,5.40521],[-75.46858,5.40523],[-75.46859,5.40525],[-75.46859,5.40527],[-75.46859,5.4053],[-75.46858,5.40532],[-75.46857,5.40534],[-75.46856,5.40536],[-75.46854,5.40538],[-75.46852,5.40539],[-75.4685,5.4054],[-75.46848,5.40541],[-75.46845,5.40541],[-75.46845,5.40541],[-75.46814,5.4054]]],[[[-75.46928,5.40105],[-75.46957,5.40139],[-75.46957,5.40138],[-75.46958,5.40099],[-75.46939,5.40093],[-75.46939,5.40105],[-75.46928,5.40105]]],[[[-75.46939,5.40093],[-75.46931,5.4008],[-75.46901,5.40089],[-75.46928,5.40105],[-75.46928,5.40094],[-75.46939,5.40093]]],[[[-75.47451,5.39484],[-75.47465,5.3949],[-75.47457,5.39457],[-75.47451,5.39484]]],[[[-75.49211,5.35548],[-75.4921,5.35557],[-75.49265,5.35649],[-75.49281,5.35654],[-75.49279,5.35652],[-75.49277,5.3565],[-75.49277,5.35651],[-75.49269,5.35643],[-75.49269,5.35642],[-75.49267,5.3564],[-75.49233,5.35569],[-75.49225,5.35529],[-75.49224,5.35533],[-75.49223,5.35536],[-75.49221,5.35539],[-75.49219,5.35542],[-75.49219,5.35544],[-75.49217,5.35544],[-75.49214,5.35546],[-75.49211,5.35548]]],[[[-75.49157,5.3546],[-75.49163,5.35463],[-75.49183,5.3547],[-75.49183,5.35471],[-75.49184,5.3547],[-75.49185,5.35468],[-75.49187,5.35467],[-75.49189,5.35465],[-75.49189,5.35465],[-75.4919,5.35443],[-75.49202,5.35427],[-75.49206,5.35431],[-75.49197,5.35447],[-75.49194,5.35446],[-75.49194,5.3546],[-75.49201,5.3546],[-75.49201,5.35463],[-75.49214,5.35462],[-75.49215,5.35462],[-75.49215,5.35453],[-75.4922,5.35442],[-75.49232,5.35412],[-75.49234,5.3541],[-75.49231,5.35404],[-75.49235,5.35401],[-75.49237,5.35405],[-75.4924,5.35402],[-75.49263,5.35373],[-75.49268,5.35325],[-75.49267,5.35313],[-75.49279,5.35303],[-75.49289,5.35291],[-75.49295,5.35286],[-75.49294,5.35285],[-75.49291,5.35281],[-75.49294,5.3528],[-75.49286,5.35273],[-75.49262,5.35285],[-75.49259,5.35286],[-75.49256,5.35288],[-75.49254,5.3529],[-75.49201,5.35357],[-75.49183,5.35379],[-75.49181,5.35382],[-75.4918,5.35384],[-75.49158,5.35438],[-75.49157,5.35441],[-75.49156,5.35444],[-75.49156,5.35447],[-75.49157,5.3546]],[[-75.49188,5.35418],[-75.49197,5.35413],[-75.49201,5.35419],[-75.49193,5.35425],[-75.49188,5.35418]],[[-75.49221,5.35368],[-75.49228,5.35367],[-75.49229,5.35378],[-75.49229,5.35386],[-75.49225,5.35386],[-75.49224,5.35378],[-75.49221,5.35378],[-75.49221,5.35368]],[[-75.49221,5.35353],[-75.49221,5.35342],[-75.49228,5.35342],[-75.49227,5.35358],[-75.49222,5.35358],[-75.49222,5.35353],[-75.49221,5.35353]],[[-75.49224,5.35337],[-75.49234,5.35327],[-75.49239,5.35332],[-75.49237,5.35334],[-75.4923,5.35342],[-75.49224,5.35337]]],[[[-75.49337,5.35251],[-75.49349,5.35261],[-75.49349,5.35261],[-75.4935,5.35261],[-75.49358,5.35246],[-75.49368,5.35189],[-75.49381,5.35167],[-75.49379,5.35155],[-75.49403,5.35144],[-75.49413,5.35132],[-75.49426,5.35122],[-75.49424,5.3511],[-75.49448,5.35077],[-75.49458,5.35042],[-75.4947,5.3502],[-75.49468,5.3502],[-75.49465,5.35019],[-75.49462,5.35019],[-75.49459,5.35019],[-75.49457,5.3502],[-75.49403,5.35037],[-75.49402,5.35037],[-75.49399,5.35039],[-75.49396,5.35041],[-75.49394,5.35043],[-75.49392,5.35046],[-75.4939,5.35049],[-75.4939,5.35051],[-75.49365,5.35141],[-75.49365,5.35142],[-75.49346,5.35243],[-75.49341,5.35248],[-75.49337,5.35251]]],[[[-75.49699,5.34423],[-75.49702,5.34422],[-75.497,5.3442],[-75.49699,5.34423]]],[[[-75.4978,5.34171],[-75.49777,5.34172],[-75.49774,5.34174],[-75.49772,5.34177],[-75.4977,5.3418],[-75.49768,5.34183],[-75.49767,5.34186],[-75.49767,5.3419],[-75.49765,5.3419],[-75.49761,5.34191],[-75.4976,5.34192],[-75.49758,5.34202],[-75.49771,5.34227],[-75.49794,5.34173],[-75.49784,5.3417],[-75.4978,5.34171]]]]},"properties":{"FID":1,"OBJECTID":2,"E_EXPUESTO":"Vías secundarias","Priorizaci":"Mediano plazo","Area_Has":7.87456790068,"Shape_Leng":6380.87152778,"Shape_Area":78745.6790068}},{"type":"Feature","id":2,"geometry":{"type":"MultiPolygon","coordinates":[[[[-75.50006,5.40094],[-75.50018,5.4011],[-75.50019,5.40054],[-75.50071,5.40016],[-75.50071,5.40016],[-75.50073,5.40014],[-75.50074,5.40012],[-75.50075,5.4001],[-75.50076,5.40007],[-75.50076,5.40005],[-75.50076,5.40003],[-75.50075,5.4],[-75.50074,5.39998],[-75.50073,5.39996],[-75.50071,5.39995],[-75.50069,5.39993],[-75.50067,5.39992],[-75.50065,5.39992],[-75.50063,5.39992],[-75.50062,5.39992],[-75.50062,5.39989],[-75.50062,5.39987],[-75.50062,5.39985],[-75.50062,5.39982],[-75.50061,5.3998],[-75.50059,5.39978],[-75.50058,5.39977],[-75.50056,5.39975],[-75.50054,5.39974],[-75.50051,5.39974],[-75.50049,5.39973],[-75.50047,5.39974],[-75.50044,5.39974],[-75.50042,5.39975],[-75.50041,5.39976],[-75.50006,5.40001],[-75.49988,5.39991],[-75.49982,5.4001],[-75.50006,5.40094]],[[-75.50003,5.4003],[-75.50005,5.40031],[-75.50001,5.40034],[-75.50001,5.40032],[-75.50001,5.4003],[-75.5,5.40029],[-75.50003,5.4003]]],[[[-75.49558,5.40011],[-75.49568,5.40001],[-75.49555,5.39997],[-75.49558,5.40011]]],[[[-75.50105,5.39941],[-75.50104,5.39942],[-75.50102,5.39944],[-75.50101,5.39945],[-75.501,5.39947],[-75.50169,5.39934],[-75.5018,5.39922],[-75.50214,5.39911],[-75.50225,5.39899],[-75.50256,5.39885],[-75.5027,5.39854],[-75.50282,5.39843],[-75.50288,5.39824],[-75.50105,5.39941]]],[[[-75.50255,5.39613],[-75.50253,5.39613],[-75.502,5.39631],[-75.50218,5.39647],[-75.50208,5.39668],[-75.50227,5.39672],[-75.50226,5.39674],[-75.50268,5.39661],[-75.50269,5.39661],[-75.50271,5.3966],[-75.50273,5.39658],[-75.50274,5.39656],[-75.50276,5.39655],[-75.50277,5.39652],[-75.50277,5.3965],[-75.50277,5.39648],[-75.50277,5.39645],[-75.50277,5.39643],[-75.50276,5.39641],[-75.50274,5.39639],[-75.50273,5.39637],[-75.50271,5.39636],[-75.50268,5.39635],[-75.50268,5.39635],[-75.50269,5.39633],[-75.5027,5.39631],[-75.5027,5.39629],[-75.50271,5.39626],[-75.5027,5.39624],[-75.5027,5.39622],[-75.50269,5.3962],[-75.50267,5.39618],[-75.50266,5.39616],[-75.50264,5.39615],[-75.50262,5.39614],[-75.50259,5.39613],[-75.50257,5.39613],[-75.50255,5.39613]]],[[[-75.50311,5.39631],[-75.50312,5.39634],[-75.50313,5.39636],[-75.50314,5.39638],[-75.50316,5.39639],[-75.50318,5.39641],[-75.50319,5.39642],[-75.50314,5.39628],[-75.5031,5.39599],[-75.50301,5.39604],[-75.50299,5.39605],[-75.50298,5.39607],[-75.50296,5.39609],[-75.50295,5.39611],[-75.50295,5.39614],[-75.50294,5.39616],[-75.50295,5.39618],[-75.50295,5.39621],[-75.50296,5.39623],[-75.50298,5.39625],[-75.50299,5.39626],[-75.50301,5.39628],[-75.50303,5.39629],[-75.50306,5.39629],[-75.50308,5.39629],[-75.5031,5.39629],[-75.50311,5.39629],[-75.50311,5.39631]]],[[[-75.45695,5.3956],[-75.45697,5.39562],[-75.45698,5.39563],[-75.45701,5.39564],[-75.45703,5.39565],[-75.45705,5.39565],[-75.45706,5.39565],[-75.45726,5.39563],[-75.45694,5.39559],[-75.45695,5.3956]]],[[[-75.45911,5.39475],[-75.45916,5.39475],[-75.45911,5.39474],[-75.45911,5.39475]]],[[[-75.45606,5.39475],[-75.45606,5.39473],[-75.45562,5.39419],[-75.4555,5.39419],[-75.45489,5.39436],[-75.455,5.39448],[-75.45551,5.39448],[-75.45606,5.39475]]],[[[-75.45406,5.39437],[-75.45418,5.3944],[-75.45404,5.3943],[-75.45406,5.39437]]],[[[-75.45302,5.39385],[-75.45306,5.39399],[-75.45316,5.39389],[-75.45302,5.39385]]],[[[-75.45024,5.39372],[-75.45034,5.39376],[-75.45075,5.39376],[-75.45086,5.39395],[-75.45086,5.39395],[-75.45127,5.39382],[-75.45103,5.39346],[-75.45032,5.39341],[-75.45024,5.39372]],[[-75.45096,5.39354],[-75.45095,5.39356],[-75.45095,5.39357],[-75.45094,5.39356],[-75.45093,5.39354],[-75.45092,5.39353],[-75.45097,5.39353],[-75.45096,5.39354]]],[[[-75.45302,5.39385],[-75.45309,5.39368],[-75.45299,5.39359],[-75.45276,5.39354],[-75.45275,5.39354],[-75.45224,5.39345],[-75.45218,5.39358],[-75.45161,5.39368],[-75.45155,5.39383],[-75.45182,5.39388],[-75.45233,5.39379],[-75.45302,5.39385]]],[[[-75.4497,5.39378],[-75.44985,5.39376],[-75.45005,5.39376],[-75.45024,5.39327],[-75.44988,5.39327],[-75.4496,5.39337],[-75.4497,5.39378]]],[[[-75.44829,5.39347],[-75.44879,5.39357],[-75.44908,5.39334],[-75.44884,5.39336],[-75.44864,5.3933],[-75.44858,5.39325],[-75.44858,5.39322],[-75.4484,5.39319],[-75.44829,5.39347]]],[[[-75.44932,5.39332],[-75.44934,5.39343],[-75.44947,5.3933],[-75.44932,5.39332]]],[[[-75.49948,5.39056],[-75.49947,5.39056],[-75.49944,5.39057],[-75.49942,5.39058],[-75.4994,5.39059],[-75.49939,5.39061],[-75.49937,5.39063],[-75.49936,5.39065],[-75.49936,5.39067],[-75.49936,5.39069],[-75.49936,5.39072],[-75.49936,5.39074],[-75.49937,5.39076],[-75.49939,5.39078],[-75.4994,5.3908],[-75.49942,5.39081],[-75.49942,5.39081],[-75.49941,5.39083],[-75.49939,5.39085],[-75.49938,5.39087],[-75.49938,5.39089],[-75.49937,5.39092],[-75.49938,5.39094],[-75.49938,5.39096],[-75.49939,5.39099],[-75.49941,5.39101],[-75.49942,5.39102],[-75.49944,5.39104],[-75.49946,5.39105],[-75.49949,5.39105],[-75.49951,5.39105],[-75.49952,5.39105],[-75.49959,5.39105],[-75.49953,5.39063],[-75.49949,5.39056],[-75.49948,5.39056]]],[[[-75.44202,5.38757],[-75.442,5.38759],[-75.44199,5.38761],[-75.44199,5.38763],[-75.44199,5.38766],[-75.44199,5.38768],[-75.44199,5.3877],[-75.442,5.38772],[-75.44202,5.38774],[-75.44203,5.38776],[-75.44205,5.38777],[-75.44204,5.38778],[-75.44203,5.3878],[-75.44201,5.38782],[-75.442,5.38784],[-75.442,5.38786],[-75.442,5.38789],[-75.442,5.38791],[-75.442,5.38793],[-75.44201,5.38795],[-75.44203,5.38797],[-75.44204,5.38799],[-75.44206,5.388],[-75.44209,5.38801],[-75.44211,5.38802],[-75.44213,5.38802],[-75.44239,5.38802],[-75.44246,5.3879],[-75.44202,5.38757],[-75.44202,5.38757]]],[[[-75.50041,5.38649],[-75.50039,5.38649],[-75.50037,5.3865],[-75.50035,5.38652],[-75.50033,5.38653],[-75.50032,5.38655],[-75.50031,5.38658],[-75.5003,5.3866],[-75.5003,5.38662],[-75.5003,5.38665],[-75.50031,5.38667],[-75.50032,5.38669],[-75.50031,5.38669],[-75.50028,5.3867],[-75.50026,5.38671],[-75.50024,5.38672],[-75.50023,5.38674],[-75.50021,5.38676],[-75.50021,5.38677],[-75.50032,5.38669],[-75.50046,5.38649],[-75.50043,5.38649],[-75.50041,5.38649]]],[[[-75.49955,5.38627],[-75.49966,5.38629],[-75.49968,5.38632],[-75.49969,5.38633],[-75.49971,5.38634],[-75.49973,5.38635],[-75.49976,5.38636],[-75.49978,5.38636],[-75.4998,5.38636],[-75.49983,5.38635],[-75.49985,5.38634],[-75.49987,5.38633],[-75.49988,5.38631],[-75.4999,5.38629],[-75.49991,5.38627],[-75.49991,5.38625],[-75.49992,5.38622],[-75.49991,5.3862],[-75.49991,5.38618],[-75.49993,5.38619],[-75.49996,5.38618],[-75.49998,5.38618],[-75.5,5.38617],[-75.50002,5.38615],[-75.50004,5.38614],[-75.50005,5.38612],[-75.50006,5.3861],[-75.50007,5.38607],[-75.50007,5.38605],[-75.50007,5.38603],[-75.50006,5.386],[-75.50005,5.38598],[-75.50004,5.38596],[-75.50002,5.38595],[-75.4999,5.38585],[-75.49989,5.38583],[-75.49987,5.38583],[-75.49985,5.38582],[-75.49984,5.38582],[-75.49976,5.3858],[-75.49955,5.38627]]],[[[-75.50236,5.37734],[-75.50233,5.37734],[-75.50231,5.37735],[-75.50229,5.37737],[-75.50228,5.37738],[-75.50226,5.3774],[-75.50225,5.37743],[-75.50225,5.37745],[-75.50225,5.37747],[-75.50225,5.3775],[-75.50225,5.37752],[-75.50226,5.37754],[-75.50228,5.37756],[-75.50229,5.37758],[-75.50231,5.37759],[-75.50233,5.3776],[-75.50232,5.37761],[-75.50231,5.37763],[-75.5023,5.37765],[-75.50229,5.37767],[-75.50229,5.37769],[-75.50229,5.37772],[-75.5023,5.37774],[-75.50231,5.37776],[-75.50232,5.37778],[-75.50234,5.3778],[-75.50236,5.37781],[-75.50238,5.37782],[-75.50238,5.37782],[-75.50239,5.37782],[-75.50262,5.37729],[-75.50236,5.37734]]],[[[-75.50168,5.37646],[-75.50166,5.37646],[-75.50089,5.3767],[-75.50096,5.37674],[-75.50144,5.37685],[-75.50137,5.37707],[-75.50181,5.37694],[-75.50181,5.37694],[-75.50183,5.37693],[-75.50185,5.37691],[-75.50187,5.3769],[-75.50188,5.37688],[-75.50189,5.37685],[-75.5019,5.37683],[-75.5019,5.37681],[-75.5019,5.37678],[-75.50189,5.37676],[-75.50188,5.37674],[-75.50187,5.37672],[-75.50185,5.3767],[-75.50183,5.37669],[-75.50181,5.37668],[-75.50181,5.37668],[-75.50182,5.37666],[-75.50183,5.37664],[-75.50184,5.37662],[-75.50184,5.37659],[-75.50184,5.37657],[-75.50183,5.37655],[-75.50182,5.37653],[-75.50181,5.37651],[-75.50179,5.37649],[-75.50177,5.37648],[-75.50175,5.37647],[-75.50173,5.37646],[-75.5017,5.37646],[-75.50168,5.37646]]],[[[-75.50062,5.36682],[-75.50061,5.36679],[-75.50037,5.36669],[-75.50062,5.36682]]],[[[-75.49993,5.36407],[-75.49994,5.36406],[-75.49989,5.36375],[-75.49997,5.36369],[-75.49997,5.36346],[-75.49997,5.36335],[-75.49986,5.36335],[-75.49986,5.36323],[-75.49972,5.36312],[-75.49965,5.36261],[-75.49987,5.36208],[-75.50013,5.36193],[-75.50092,5.3617],[-75.50093,5.36169],[-75.50093,5.36169],[-75.50129,5.36098],[-75.50145,5.36101],[-75.50147,5.36098],[-75.50153,5.3605],[-75.5013,5.36045],[-75.50053,5.35998],[-75.50052,5.35997],[-75.5005,5.35996],[-75.50039,5.35993],[-75.50065,5.36024],[-75.50061,5.36061],[-75.50085,5.36076],[-75.50051,5.36142],[-75.50024,5.36173],[-75.49985,5.36204],[-75.49984,5.36205],[-75.49983,5.36206],[-75.49982,5.36207],[-75.49947,5.36265],[-75.49946,5.36266],[-75.49945,5.36268],[-75.49945,5.3627],[-75.49945,5.36272],[-75.49945,5.36275],[-75.49945,5.36277],[-75.49993,5.36407]],[[-75.50118,5.36069],[-75.50118,5.36069],[-75.50119,5.36069],[-75.50117,5.3607],[-75.50116,5.3607],[-75.50116,5.36068],[-75.50116,5.36068],[-75.50118,5.36069]]],[[[-75.44679,5.3592],[-75.4468,5.35913],[-75.4468,5.35919],[-75.44689,5.35901],[-75.44674,5.35895],[-75.44679,5.3592]]],[[[-75.46389,5.35762],[-75.46388,5.35765],[-75.46387,5.35767],[-75.46387,5.35769],[-75.46387,5.35771],[-75.4639,5.35796],[-75.46417,5.3578],[-75.46415,5.35756],[-75.46415,5.35756],[-75.46413,5.35758],[-75.46412,5.3576],[-75.46411,5.35761],[-75.46411,5.3576],[-75.46409,5.35759],[-75.46408,5.35757],[-75.46405,5.35756],[-75.46403,5.35756],[-75.46401,5.35756],[-75.46398,5.35756],[-75.46396,5.35756],[-75.46394,5.35757],[-75.46392,5.35759],[-75.4639,5.3576],[-75.46389,5.35762]]],[[[-75.46335,5.35748],[-75.4632,5.35766],[-75.4632,5.35766],[-75.46322,5.35767],[-75.46324,5.35768],[-75.46326,5.35769],[-75.46329,5.35769],[-75.46331,5.35769],[-75.46333,5.35768],[-75.46335,5.35767],[-75.46374,5.35745],[-75.46376,5.35743],[-75.46378,5.35742],[-75.46379,5.3574],[-75.4638,5.35737],[-75.46381,5.35737],[-75.46383,5.35727],[-75.46385,5.35728],[-75.46387,5.35728],[-75.46389,5.35729],[-75.46392,5.35728],[-75.46394,5.35728],[-75.46396,5.35727],[-75.46398,5.35725],[-75.464,5.35724],[-75.46401,5.35722],[-75.46402,5.3572],[-75.46403,5.35717],[-75.46403,5.35715],[-75.46404,5.35716],[-75.46406,5.35717],[-75.46408,5.35717],[-75.46411,5.35717],[-75.46413,5.35716],[-75.46415,5.35715],[-75.46417,5.35714],[-75.46419,5.35712],[-75.4642,5.3571],[-75.46421,5.35708],[-75.46422,5.35705],[-75.46422,5.35703],[-75.46422,5.35701],[-75.46421,5.35699],[-75.4642,5.35696],[-75.46412,5.35682],[-75.46394,5.35691],[-75.46388,5.35676],[-75.46411,5.3568],[-75.46402,5.35665],[-75.464,5.35663],[-75.46399,5.35661],[-75.46397,5.3566],[-75.46395,5.35659],[-75.46392,5.35658],[-75.4639,5.35658],[-75.46374,5.35658],[-75.46372,5.35658],[-75.4637,5.35659],[-75.46368,5.3566],[-75.46366,5.35661],[-75.46351,5.35672],[-75.4635,5.3567],[-75.46349,5.35669],[-75.46348,5.35667],[-75.46348,5.35671],[-75.4636,5.35682],[-75.4637,5.35694],[-75.46384,5.35705],[-75.46335,5.35748]]],[[[-75.49219,5.35502],[-75.49221,5.35505],[-75.49222,5.35508],[-75.49223,5.35511],[-75.49284,5.35506],[-75.49266,5.35458],[-75.49215,5.35462],[-75.49216,5.35471],[-75.49216,5.35477],[-75.49215,5.3548],[-75.49215,5.35483],[-75.49213,5.35487],[-75.49215,5.35489],[-75.49217,5.35492],[-75.49218,5.35496],[-75.49219,5.35502]]],[[[-75.49157,5.3546],[-75.49153,5.35458],[-75.49157,5.35465],[-75.49157,5.3546]]],[[[-75.49337,5.35251],[-75.49292,5.35216],[-75.49284,5.35218],[-75.49278,5.35241],[-75.49255,5.3525],[-75.49259,5.35252],[-75.49278,5.35267],[-75.49286,5.35273],[-75.4931,5.35263],[-75.49311,5.35262],[-75.49315,5.35261],[-75.49318,5.35261],[-75.49322,5.35261],[-75.49323,5.35262],[-75.49323,5.35261],[-75.49325,5.35259],[-75.49325,5.35258],[-75.49328,5.35256],[-75.49331,5.35254],[-75.49332,5.35253],[-75.49337,5.35251]]],[[[-75.29202,5.35149],[-75.29201,5.35151],[-75.29199,5.35153],[-75.29198,5.35155],[-75.29198,5.35157],[-75.29197,5.3516],[-75.29198,5.35162],[-75.29198,5.35164],[-75.29199,5.35165],[-75.29203,5.35148],[-75.29202,5.35149]]],[[[-75.48365,5.34921],[-75.48388,5.34942],[-75.48399,5.34964],[-75.48396,5.34977],[-75.48388,5.34985],[-75.48422,5.34999],[-75.48427,5.35016],[-75.48427,5.35016],[-75.48437,5.35006],[-75.48439,5.35005],[-75.4844,5.35003],[-75.48441,5.35002],[-75.48441,5.35],[-75.48451,5.34964],[-75.48451,5.34962],[-75.48451,5.3496],[-75.48451,5.34958],[-75.48451,5.34955],[-75.4845,5.34954],[-75.4843,5.34913],[-75.48429,5.34912],[-75.48428,5.3491],[-75.48426,5.34909],[-75.48408,5.34893],[-75.48399,5.34899],[-75.48387,5.34896],[-75.48365,5.34902],[-75.48336,5.34895],[-75.48319,5.34899],[-75.48304,5.34879],[-75.48277,5.34885],[-75.48365,5.34921]]],[[[-75.32477,5.34948],[-75.32479,5.3495],[-75.3248,5.34951],[-75.32482,5.34952],[-75.32486,5.34953],[-75.32477,5.34948]]],[[[-75.32394,5.34872],[-75.32409,5.34881],[-75.32432,5.34897],[-75.32434,5.34899],[-75.32455,5.34887],[-75.32394,5.3487],[-75.32394,5.34872]]],[[[-75.32342,5.34838],[-75.32343,5.34837],[-75.32341,5.34837],[-75.32342,5.34838]]],[[[-75.48215,5.34698],[-75.48225,5.34692],[-75.48208,5.34667],[-75.48215,5.34698]]],[[[-75.48123,5.34676],[-75.48127,5.34681],[-75.48137,5.34672],[-75.48212,5.34637],[-75.48209,5.34655],[-75.48223,5.34632],[-75.48206,5.34627],[-75.48185,5.34605],[-75.48172,5.34604],[-75.48164,5.34604],[-75.48112,5.34629],[-75.48111,5.3463],[-75.48109,5.34631],[-75.48057,5.34674],[-75.4806,5.34673],[-75.48099,5.34658],[-75.48123,5.34676]]],[[[-75.43203,5.34134],[-75.43204,5.34136],[-75.43206,5.34138],[-75.43207,5.3414],[-75.43209,5.34141],[-75.43212,5.34142],[-75.43214,5.34143],[-75.43216,5.34143],[-75.43219,5.34143],[-75.43221,5.34142],[-75.43223,5.34141],[-75.43225,5.3414],[-75.43227,5.34138],[-75.43228,5.34136],[-75.43229,5.34134],[-75.4324,5.34106],[-75.43235,5.34107],[-75.43191,5.34134],[-75.43191,5.34134],[-75.43193,5.34135],[-75.43196,5.34135],[-75.43198,5.34135],[-75.432,5.34134],[-75.43203,5.34133],[-75.43203,5.34133],[-75.43203,5.34134]]],[[[-75.43401,5.34067],[-75.43407,5.34078],[-75.43407,5.34079],[-75.43408,5.34081],[-75.4341,5.34083],[-75.43412,5.34084],[-75.43414,5.34085],[-75.43416,5.34086],[-75.43418,5.34086],[-75.4344,5.34087],[-75.43442,5.34087],[-75.43444,5.34086],[-75.43446,5.34085],[-75.43465,5.34077],[-75.43466,5.34076],[-75.43468,5.34075],[-75.43469,5.34074],[-75.43491,5.3405],[-75.43404,5.3404],[-75.43401,5.34067]]],[[[-75.43542,5.34036],[-75.43545,5.34037],[-75.4357,5.34065],[-75.43571,5.34067],[-75.43573,5.34068],[-75.43575,5.34069],[-75.43578,5.3407],[-75.43578,5.3407],[-75.43598,5.34072],[-75.4357,5.3405],[-75.43565,5.34044],[-75.43543,5.34035],[-75.43542,5.34036]]],[[[-75.31562,5.34095],[-75.31572,5.34085],[-75.31558,5.34081],[-75.31562,5.34095]]],[[[-75.43335,5.3396],[-75.43304,5.33986],[-75.43305,5.33987],[-75.43368,5.33978],[-75.4334,5.33954],[-75.43335,5.3396]]],[[[-75.4861,5.33813],[-75.48608,5.33814],[-75.48606,5.33814],[-75.48605,5.33815],[-75.48571,5.33834],[-75.48569,5.33835],[-75.48568,5.33837],[-75.48566,5.33839],[-75.48565,5.33841],[-75.48565,5.33842],[-75.48565,5.33842],[-75.48566,5.3385],[-75.48612,5.33868],[-75.48623,5.33861],[-75.48672,5.33854],[-75.48673,5.33854],[-75.48675,5.33853],[-75.48677,5.33852],[-75.48679,5.33851],[-75.48681,5.33849],[-75.48682,5.33847],[-75.48683,5.33845],[-75.48684,5.33843],[-75.48684,5.33841],[-75.48684,5.33838],[-75.48683,5.33836],[-75.48682,5.33834],[-75.48681,5.33832],[-75.48679,5.3383],[-75.48677,5.33829],[-75.48675,5.33828],[-75.48673,5.33827],[-75.48674,5.33826],[-75.48675,5.33824],[-75.48676,5.33822],[-75.48676,5.33819],[-75.48676,5.33819],[-75.4864,5.33809],[-75.4861,5.33813]]],[[[-75.45371,5.33707],[-75.45388,5.33712],[-75.45399,5.33693],[-75.45395,5.33668],[-75.4538,5.33656],[-75.45371,5.33707]]],[[[-75.45382,5.33635],[-75.45385,5.3364],[-75.45405,5.33636],[-75.45401,5.33617],[-75.45382,5.33635]]],[[[-75.48473,5.32611],[-75.485,5.32642],[-75.48501,5.32663],[-75.48521,5.32688],[-75.48551,5.32706],[-75.48553,5.32707],[-75.48551,5.32695],[-75.48551,5.32676],[-75.48515,5.32648],[-75.48521,5.32605],[-75.48475,5.32599],[-75.48473,5.32611]]],[[[-75.46104,5.32653],[-75.46127,5.3266],[-75.46133,5.32614],[-75.46096,5.32604],[-75.46093,5.32575],[-75.46095,5.32558],[-75.46092,5.32555],[-75.46076,5.32551],[-75.46075,5.32551],[-75.46072,5.32551],[-75.4607,5.32551],[-75.46068,5.32552],[-75.46066,5.32553],[-75.46064,5.32554],[-75.46062,5.32556],[-75.46062,5.32556],[-75.46047,5.32575],[-75.4606,5.32597],[-75.46055,5.32639],[-75.4606,5.32641],[-75.46085,5.32607],[-75.46104,5.32653]]],[[[-75.43248,5.32517],[-75.43251,5.32537],[-75.43274,5.32555],[-75.43276,5.32559],[-75.43297,5.3255],[-75.43287,5.32524],[-75.43258,5.32513],[-75.43248,5.32517]]],[[[-75.39458,5.31477],[-75.3946,5.31479],[-75.39461,5.31481],[-75.39463,5.31482],[-75.39466,5.31483],[-75.39468,5.31484],[-75.3947,5.31484],[-75.39473,5.31484],[-75.39475,5.31483],[-75.39477,5.31482],[-75.39479,5.31481],[-75.39481,5.31479],[-75.39482,5.31477],[-75.39482,5.31476],[-75.39485,5.31477],[-75.39487,5.31477],[-75.39489,5.31477],[-75.39492,5.31476],[-75.39494,5.31475],[-75.39496,5.31474],[-75.39497,5.31472],[-75.39499,5.3147],[-75.395,5.31468],[-75.395,5.31466],[-75.395,5.31464],[-75.395,5.31461],[-75.395,5.31459],[-75.395,5.31459],[-75.39491,5.31436],[-75.3949,5.31435],[-75.39477,5.31413],[-75.3947,5.31441],[-75.39449,5.31455],[-75.3945,5.31455],[-75.39458,5.31475],[-75.39458,5.31477]]],[[[-75.39487,5.31261],[-75.39492,5.31313],[-75.39533,5.31284],[-75.3952,5.31237],[-75.39487,5.31261]]],[[[-75.36631,5.30878],[-75.36634,5.30885],[-75.36662,5.30875],[-75.36655,5.3083],[-75.36609,5.30845],[-75.36609,5.30845],[-75.36631,5.30878]]],[[[-75.39312,5.3035],[-75.39315,5.30391],[-75.39321,5.30396],[-75.39338,5.30379],[-75.39339,5.30378],[-75.39339,5.30377],[-75.3935,5.30361],[-75.39351,5.3036],[-75.39352,5.30358],[-75.39363,5.30327],[-75.39312,5.3035]]],[[[-75.44684,5.30259],[-75.44711,5.30278],[-75.44718,5.30265],[-75.44704,5.30228],[-75.44702,5.30216],[-75.44702,5.30215],[-75.44696,5.30211],[-75.44684,5.30259]]],[[[-75.36657,5.29511],[-75.36658,5.29512],[-75.36659,5.29512],[-75.36694,5.29533],[-75.3669,5.29516],[-75.36661,5.29509],[-75.36657,5.29511]]],[[[-75.36479,5.29462],[-75.36489,5.29452],[-75.36475,5.29449],[-75.36479,5.29462]]],[[[-75.3664,5.29274],[-75.36626,5.29295],[-75.36624,5.293],[-75.36632,5.2934],[-75.3663,5.29363],[-75.36632,5.29362],[-75.36649,5.29317],[-75.36669,5.29291],[-75.36665,5.29272],[-75.36665,5.2927],[-75.36636,5.29252],[-75.3664,5.29274]]],[[[-75.3643,5.28043],[-75.36465,5.28051],[-75.36465,5.28051],[-75.36448,5.28027],[-75.36448,5.28026],[-75.36439,5.28025],[-75.3643,5.28043]]],[[[-75.36389,5.27962],[-75.3642,5.27935],[-75.3642,5.27934],[-75.3642,5.27934],[-75.36382,5.27923],[-75.36389,5.27962]]],[[[-75.37894,5.26556],[-75.37897,5.2655],[-75.37893,5.26549],[-75.37894,5.26556]]],[[[-75.37796,5.26338],[-75.3782,5.26357],[-75.37825,5.26356],[-75.37815,5.26342],[-75.37814,5.26341],[-75.37813,5.2634],[-75.37799,5.26327],[-75.37799,5.26326],[-75.37798,5.26325],[-75.37793,5.26323],[-75.37796,5.26338]]],[[[-75.37506,5.25348],[-75.37513,5.25321],[-75.37514,5.25318],[-75.37524,5.25338],[-75.37525,5.25342],[-75.37535,5.25319],[-75.37529,5.25272],[-75.37504,5.25265],[-75.3751,5.25316],[-75.37506,5.25348]]],[[[-75.3762,5.24708],[-75.37625,5.24705],[-75.3762,5.24704],[-75.3762,5.24708]]],[[[-75.37628,5.246],[-75.37639,5.24622],[-75.37664,5.24603],[-75.37628,5.24598],[-75.37628,5.246]]],[[[-75.37656,5.24438],[-75.37664,5.24408],[-75.37648,5.244],[-75.37656,5.24438]]],[[[-75.37649,5.24105],[-75.37667,5.24095],[-75.37667,5.24084],[-75.37659,5.24078],[-75.37649,5.24105]]]]},"properties":{"FID":2,"OBJECTID":3,"E_EXPUESTO":"Vías terciarias","Priorizaci":"Largo plazo","Area_Has":13.221904522,"Shape_Leng":12521.8109078,"Shape_Area":132219.04522}},{"type":"Feature","id":3,"geometry":{"type":"MultiPolygon","coordinates":[[[[-75.3164,5.44777],[-75.31639,5.44777],[-75.31638,5.44778],[-75.31616,5.44832],[-75.31618,5.44834],[-75.3164,5.44828],[-75.31641,5.44828],[-75.31644,5.44827],[-75.31646,5.44825],[-75.31647,5.44824],[-75.31649,5.44822],[-75.3165,5.4482],[-75.3165,5.44817],[-75.3165,5.44815],[-75.3165,5.44813],[-75.3165,5.4481],[-75.31649,5.44808],[-75.31647,5.44806],[-75.31645,5.44805],[-75.31644,5.44804],[-75.31646,5.44804],[-75.31647,5.44803],[-75.31649,5.44802],[-75.31651,5.44801],[-75.31653,5.44799],[-75.31654,5.44797],[-75.31655,5.44795],[-75.31656,5.44793],[-75.31656,5.4479],[-75.31656,5.44788],[-75.31655,5.44786],[-75.31654,5.44784],[-75.31653,5.44782],[-75.31651,5.4478],[-75.31649,5.44779],[-75.31647,5.44778],[-75.31645,5.44777],[-75.31642,5.44777],[-75.3164,5.44777]]],[[[-75.42857,5.44342],[-75.42856,5.44344],[-75.42856,5.44347],[-75.42856,5.44349],[-75.42856,5.44351],[-75.42856,5.44354],[-75.42857,5.44356],[-75.42859,5.44358],[-75.4286,5.44359],[-75.42862,5.44361],[-75.42865,5.44362],[-75.42867,5.44362],[-75.42869,5.44363],[-75.4287,5.44362],[-75.42881,5.44362],[-75.42883,5.44362],[-75.42885,5.44361],[-75.42887,5.4436],[-75.4289,5.44358],[-75.42881,5.4432],[-75.42839,5.44325],[-75.42833,5.4432],[-75.42833,5.44321],[-75.42832,5.44323],[-75.42831,5.44325],[-75.42831,5.44328],[-75.42831,5.4433],[-75.42832,5.44332],[-75.42833,5.44335],[-75.42834,5.44337],[-75.42836,5.44338],[-75.42838,5.4434],[-75.4284,5.44341],[-75.42842,5.44341],[-75.42844,5.44341],[-75.42845,5.44341],[-75.42859,5.44341],[-75.42857,5.44342]]],[[[-75.40851,5.43971],[-75.40851,5.43971],[-75.40864,5.43978],[-75.4087,5.43981],[-75.40871,5.4398],[-75.40873,5.43979],[-75.40875,5.43977],[-75.40876,5.43975],[-75.40877,5.43973],[-75.40878,5.43971],[-75.40878,5.43968],[-75.40878,5.43966],[-75.40874,5.43942],[-75.40874,5.43942],[-75.40864,5.4394],[-75.4083,5.43914],[-75.40823,5.43934],[-75.40823,5.43937],[-75.40823,5.43939],[-75.40823,5.43941],[-75.40825,5.43956],[-75.40825,5.43956],[-75.40843,5.43966],[-75.40843,5.43966],[-75.40845,5.43965],[-75.40847,5.43964],[-75.40849,5.43962],[-75.40849,5.43961],[-75.40851,5.43971]]],[[[-75.40952,5.43961],[-75.40953,5.43963],[-75.40955,5.43964],[-75.40957,5.43964],[-75.40969,5.43967],[-75.40953,5.43956],[-75.40944,5.43954],[-75.40952,5.43961]]],[[[-75.408,5.43891],[-75.40796,5.43888],[-75.40791,5.43882],[-75.40776,5.4388],[-75.408,5.43891]]],[[[-75.40619,5.43832],[-75.40621,5.43833],[-75.40624,5.43833],[-75.40626,5.43833],[-75.40629,5.43833],[-75.40605,5.43819],[-75.40596,5.43818],[-75.40619,5.43832]]],[[[-75.28199,5.43759],[-75.28207,5.43743],[-75.28223,5.43745],[-75.28233,5.4372],[-75.28233,5.4372],[-75.28206,5.43723],[-75.28189,5.43721],[-75.28177,5.43722],[-75.28153,5.4372],[-75.28154,5.43737],[-75.28199,5.43759]]],[[[-75.39703,5.43034],[-75.39702,5.43034],[-75.39697,5.43057],[-75.39714,5.43078],[-75.39713,5.43078],[-75.39711,5.43079],[-75.39708,5.4308],[-75.39706,5.43081],[-75.39705,5.43083],[-75.39703,5.43085],[-75.39702,5.43087],[-75.39702,5.43089],[-75.39702,5.43091],[-75.39702,5.43094],[-75.39703,5.43096],[-75.39704,5.43098],[-75.39705,5.431],[-75.39713,5.4311],[-75.39723,5.43087],[-75.39742,5.4307],[-75.39723,5.43054],[-75.39723,5.43047],[-75.39716,5.43038],[-75.39714,5.43037],[-75.39712,5.43035],[-75.3971,5.43034],[-75.39708,5.43034],[-75.39706,5.43033],[-75.39703,5.43034]]],[[[-75.31144,5.42857],[-75.31147,5.42862],[-75.31147,5.42874],[-75.31181,5.42891],[-75.31199,5.42863],[-75.31165,5.4284],[-75.31161,5.4283],[-75.31144,5.42857]]],[[[-75.34123,5.42852],[-75.34128,5.4285],[-75.34122,5.42849],[-75.34123,5.42852]]],[[[-75.36054,5.42227],[-75.3607,5.42245],[-75.3608,5.42204],[-75.36095,5.42182],[-75.36092,5.42165],[-75.36085,5.42163],[-75.36054,5.42227]]],[[[-75.36381,5.42013],[-75.36416,5.41998],[-75.36387,5.41994],[-75.36381,5.42013]]],[[[-75.46346,5.41493],[-75.4635,5.41486],[-75.46344,5.41485],[-75.46346,5.41493]]],[[[-75.34555,5.40873],[-75.34542,5.40883],[-75.3454,5.4089],[-75.34544,5.40889],[-75.34545,5.40889],[-75.34547,5.40888],[-75.34549,5.40886],[-75.34551,5.40885],[-75.34551,5.40884],[-75.34563,5.40869],[-75.3456,5.40866],[-75.34555,5.40873]]],[[[-75.3453,5.40826],[-75.34531,5.40827],[-75.3453,5.40839],[-75.34549,5.40848],[-75.3456,5.40833],[-75.34531,5.40826],[-75.3453,5.40826]]],[[[-75.46071,5.40522],[-75.46014,5.40531],[-75.46014,5.40531],[-75.46012,5.40532],[-75.46011,5.40533],[-75.45979,5.40565],[-75.46005,5.40581],[-75.46042,5.40573],[-75.46043,5.40572],[-75.4612,5.40528],[-75.46163,5.4052],[-75.46244,5.40538],[-75.46246,5.40538],[-75.46248,5.40538],[-75.4625,5.40538],[-75.46336,5.40516],[-75.46337,5.40516],[-75.46388,5.40498],[-75.4641,5.40498],[-75.46456,5.40541],[-75.46457,5.40542],[-75.46459,5.40543],[-75.46461,5.40544],[-75.46463,5.40544],[-75.46466,5.40545],[-75.46467,5.40545],[-75.46473,5.40544],[-75.46435,5.4049],[-75.4639,5.40481],[-75.4633,5.40499],[-75.46279,5.40486],[-75.46275,5.4048],[-75.46246,5.40487],[-75.46166,5.40471],[-75.46164,5.4047],[-75.46163,5.4047],[-75.46161,5.40471],[-75.46133,5.40476],[-75.46071,5.40522]]],[[[-75.46475,5.40544],[-75.46581,5.40532],[-75.46711,5.40536],[-75.46682,5.40519],[-75.4664,5.40507],[-75.46635,5.40501],[-75.46624,5.40501],[-75.46619,5.40508],[-75.46561,5.40517],[-75.4654,5.40531],[-75.46475,5.40544]]],[[[-75.46823,5.40523],[-75.46776,5.4053],[-75.46765,5.40528],[-75.46741,5.40537],[-75.46814,5.4054],[-75.46814,5.40539],[-75.46815,5.40537],[-75.46816,5.40534],[-75.46817,5.40532],[-75.46818,5.40529],[-75.46823,5.40523]]],[[[-75.29582,5.39809],[-75.29582,5.39809],[-75.2958,5.39811],[-75.29579,5.39813],[-75.29578,5.39815],[-75.29577,5.39817],[-75.29577,5.3982],[-75.29577,5.39822],[-75.29578,5.39824],[-75.29579,5.39826],[-75.2958,5.39828],[-75.29581,5.39829],[-75.29565,5.3984],[-75.29565,5.39841],[-75.29563,5.39843],[-75.29562,5.39845],[-75.29561,5.39847],[-75.2956,5.39849],[-75.2956,5.39851],[-75.2956,5.39854],[-75.29561,5.39856],[-75.29562,5.39858],[-75.29563,5.3986],[-75.29564,5.39861],[-75.29594,5.39824],[-75.29625,5.39798],[-75.29624,5.39786],[-75.29632,5.39771],[-75.29582,5.39809]]],[[[-75.29669,5.39746],[-75.29667,5.39747],[-75.29665,5.39748],[-75.29661,5.39751],[-75.29693,5.39741],[-75.29692,5.3974],[-75.29669,5.39746]]],[[[-75.33899,5.3946],[-75.33896,5.39471],[-75.33905,5.3948],[-75.33906,5.39481],[-75.33908,5.39482],[-75.3391,5.39483],[-75.33912,5.39484],[-75.33913,5.39484],[-75.33913,5.39485],[-75.33914,5.39487],[-75.33916,5.39489],[-75.33917,5.39491],[-75.33919,5.39492],[-75.33921,5.39493],[-75.33924,5.39494],[-75.33926,5.39494],[-75.33928,5.39494],[-75.33931,5.39493],[-75.33933,5.39492],[-75.33935,5.39491],[-75.33936,5.39489],[-75.33937,5.39488],[-75.33953,5.39464],[-75.33969,5.39456],[-75.33981,5.39456],[-75.34002,5.39464],[-75.34005,5.3946],[-75.34061,5.39455],[-75.34073,5.39442],[-75.34076,5.39439],[-75.34074,5.3944],[-75.34057,5.3944],[-75.34039,5.39432],[-75.34038,5.39431],[-75.33991,5.39414],[-75.33988,5.39413],[-75.33986,5.39413],[-75.33968,5.39413],[-75.33949,5.39419],[-75.33948,5.39418],[-75.33927,5.39428],[-75.33925,5.39429],[-75.33924,5.3943],[-75.33922,5.39432],[-75.33921,5.39433],[-75.33918,5.39438],[-75.33896,5.39424],[-75.33899,5.3946]]],[[[-75.34421,5.39452],[-75.34422,5.39454],[-75.34433,5.39454],[-75.3444,5.39447],[-75.34421,5.39452]]],[[[-75.33846,5.39399],[-75.33836,5.39424],[-75.33881,5.39437],[-75.33875,5.39411],[-75.3386,5.39402],[-75.33846,5.39399]]],[[[-75.34257,5.39409],[-75.34257,5.39408],[-75.34242,5.39395],[-75.3424,5.39394],[-75.34239,5.39393],[-75.34237,5.39392],[-75.34214,5.39386],[-75.34213,5.39386],[-75.34212,5.39385],[-75.34185,5.39383],[-75.34183,5.39383],[-75.34181,5.39383],[-75.3418,5.39383],[-75.34149,5.39392],[-75.34148,5.39392],[-75.34146,5.39393],[-75.34144,5.39395],[-75.34142,5.39396],[-75.34142,5.39397],[-75.3414,5.394],[-75.34149,5.39394],[-75.34179,5.39392],[-75.34257,5.39409]]],[[[-75.33846,5.39399],[-75.33845,5.39395],[-75.33836,5.39392],[-75.33833,5.39395],[-75.33846,5.39399]]],[[[-75.34439,5.39347],[-75.34406,5.39361],[-75.34425,5.3938],[-75.3446,5.39354],[-75.34444,5.39341],[-75.34439,5.39347]]],[[[-75.34687,5.39346],[-75.34726,5.39352],[-75.34727,5.39352],[-75.34734,5.39348],[-75.3474,5.39347],[-75.34743,5.39347],[-75.34753,5.39341],[-75.34704,5.39325],[-75.34687,5.39346]]],[[[-75.34852,5.39288],[-75.34843,5.39289],[-75.34863,5.393],[-75.34948,5.39277],[-75.34955,5.39277],[-75.34987,5.39248],[-75.3499,5.39243],[-75.35002,5.39233],[-75.35025,5.39181],[-75.35064,5.39148],[-75.35075,5.39148],[-75.35075,5.39136],[-75.35086,5.39136],[-75.35093,5.3912],[-75.35109,5.3906],[-75.35125,5.39039],[-75.35155,5.39016],[-75.35161,5.38984],[-75.35167,5.38972],[-75.35159,5.38973],[-75.35148,5.38971],[-75.35131,5.38974],[-75.35119,5.38972],[-75.35119,5.38972],[-75.35106,5.39038],[-75.35069,5.39111],[-75.35006,5.39173],[-75.34918,5.39253],[-75.34852,5.39288]]],[[[-75.3173,5.39168],[-75.31731,5.39167],[-75.31729,5.39164],[-75.3173,5.39168]]],[[[-75.34331,5.39084],[-75.34335,5.39089],[-75.34337,5.3909],[-75.34354,5.39106],[-75.34402,5.39111],[-75.34411,5.39107],[-75.34404,5.39096],[-75.34375,5.39071],[-75.34364,5.39059],[-75.34353,5.39059],[-75.34353,5.39047],[-75.34334,5.39038],[-75.34331,5.39084]]],[[[-75.35159,5.3891],[-75.35158,5.38911],[-75.35156,5.38912],[-75.35154,5.38913],[-75.35146,5.38921],[-75.35146,5.38925],[-75.35181,5.38903],[-75.35159,5.3891]]],[[[-75.35227,5.38909],[-75.35244,5.38921],[-75.35254,5.38895],[-75.35227,5.38909]]],[[[-75.35233,5.38862],[-75.35241,5.38855],[-75.35272,5.3886],[-75.35293,5.38825],[-75.35288,5.38826],[-75.35286,5.38827],[-75.35245,5.38842],[-75.35243,5.38843],[-75.35242,5.38845],[-75.3524,5.38846],[-75.35239,5.38848],[-75.35238,5.3885],[-75.35233,5.38862]]],[[[-75.30781,5.38815],[-75.30779,5.38816],[-75.30777,5.38817],[-75.30775,5.38818],[-75.30773,5.3882],[-75.30772,5.38822],[-75.30772,5.38822],[-75.30801,5.38817],[-75.30803,5.38807],[-75.30801,5.38806],[-75.30799,5.38805],[-75.30797,5.38805],[-75.30794,5.38805],[-75.30792,5.38806],[-75.3079,5.38807],[-75.30788,5.38808],[-75.30786,5.3881],[-75.30785,5.38812],[-75.30784,5.38814],[-75.30784,5.38815],[-75.30784,5.38815],[-75.30781,5.38815]]],[[[-75.36006,5.38408],[-75.36005,5.38409],[-75.35994,5.38426],[-75.36009,5.38422],[-75.36009,5.38411],[-75.36021,5.38411],[-75.36021,5.384],[-75.36032,5.384],[-75.36028,5.38379],[-75.36006,5.38408]]],[[[-75.36052,5.38359],[-75.36052,5.38359],[-75.36053,5.38358],[-75.36052,5.38359]]],[[[-75.36177,5.38322],[-75.36178,5.38323],[-75.36185,5.38308],[-75.362,5.38294],[-75.36201,5.38293],[-75.36195,5.38269],[-75.36173,5.38259],[-75.36172,5.38259],[-75.36151,5.3828],[-75.3615,5.38282],[-75.36149,5.38284],[-75.36135,5.38311],[-75.36134,5.38312],[-75.36134,5.38314],[-75.36136,5.38313],[-75.36177,5.38322]]],[[[-75.33348,5.38236],[-75.33329,5.38245],[-75.33329,5.38249],[-75.33325,5.38252],[-75.33325,5.38259],[-75.33334,5.38298],[-75.33335,5.38297],[-75.33337,5.38297],[-75.33339,5.38296],[-75.3334,5.38295],[-75.33342,5.38294],[-75.33367,5.38273],[-75.33368,5.38272],[-75.3337,5.38281],[-75.33371,5.38281],[-75.3337,5.3827],[-75.33363,5.38266],[-75.33348,5.38236]]],[[[-75.36272,5.38209],[-75.36245,5.38232],[-75.3627,5.38256],[-75.36275,5.38253],[-75.36295,5.38246],[-75.36304,5.38231],[-75.36325,5.38218],[-75.36331,5.38211],[-75.36398,5.382],[-75.36415,5.38207],[-75.36426,5.38207],[-75.36433,5.38203],[-75.36439,5.38177],[-75.36426,5.38176],[-75.36424,5.38176],[-75.36422,5.38177],[-75.36389,5.38185],[-75.36352,5.3819],[-75.36352,5.3819],[-75.36297,5.38199],[-75.36295,5.382],[-75.36272,5.38209]]],[[[-75.33348,5.38236],[-75.33362,5.38232],[-75.33352,5.38222],[-75.33348,5.38236]]],[[[-75.3336,5.38163],[-75.33346,5.38164],[-75.33346,5.38164],[-75.33343,5.38165],[-75.33341,5.38166],[-75.33339,5.38167],[-75.33338,5.38169],[-75.33336,5.38171],[-75.33336,5.38179],[-75.33336,5.38191],[-75.33342,5.38196],[-75.33363,5.38218],[-75.33375,5.38164],[-75.33364,5.38163],[-75.33362,5.38162],[-75.3336,5.38163]]],[[[-75.36606,5.38127],[-75.36599,5.38124],[-75.36589,5.38134],[-75.36589,5.38134],[-75.36581,5.38143],[-75.36601,5.38153],[-75.36606,5.38127]]],[[[-75.36606,5.38127],[-75.36621,5.38135],[-75.36629,5.3815],[-75.36633,5.3815],[-75.36663,5.38118],[-75.36664,5.38118],[-75.36669,5.38111],[-75.36668,5.38112],[-75.36626,5.38094],[-75.36609,5.38113],[-75.36606,5.38127]]],[[[-75.368,5.38046],[-75.36806,5.38071],[-75.36809,5.38048],[-75.36806,5.38047],[-75.36803,5.38046],[-75.368,5.38046]]],[[[-75.36846,5.38056],[-75.36847,5.38056],[-75.36845,5.38047],[-75.36841,5.38048],[-75.36835,5.38052],[-75.36835,5.38052],[-75.36833,5.38052],[-75.36832,5.38052],[-75.36828,5.38051],[-75.36828,5.38051],[-75.36826,5.38051],[-75.36824,5.38051],[-75.36819,5.3805],[-75.36846,5.38056]]]]},"properties":{"FID":3,"OBJECTID":4,"E_EXPUESTO":"Vías terciarias","Priorizaci":"Largo plazo","Area_Has":9.51017435848,"Shape_Leng":9172.30915627,"Shape_Area":95101.7435848}},{"type":"Feature","id":4,"geometry":{"type":"MultiPolygon","coordinates":[[[[-75.34839,5.39389],[-75.34842,5.3939],[-75.34845,5.3939],[-75.34848,5.3939],[-75.34851,5.39389],[-75.34854,5.39388],[-75.34839,5.39385],[-75.34839,5.39389]]],[[[-75.49224,5.3552],[-75.49225,5.35523],[-75.49224,5.35519],[-75.49224,5.3552]]]]},"properties":{"FID":4,"OBJECTID":5,"E_EXPUESTO":"Equipamientos vitales","Priorizaci":"Corto plazo","Area_Has":0.00474468931558,"Shape_Leng":46.0396172895,"Shape_Area":47.4468931564}},{"type":"Feature","id":5,"geometry":{"type":"Polygon","coordinates":[[[-75.49223,5.35515],[-75.49224,5.35519],[-75.49224,5.35515],[-75.49223,5.35511],[-75.49222,5.35511],[-75.49222,5.35511],[-75.49223,5.35515]]]},"properties":{"FID":5,"OBJECTID":6,"E_EXPUESTO":"Equipamientos vitales","Priorizaci":"Corto plazo","Area_Has":0.000847762329005,"Shape_Leng":19.5937930572,"Shape_Area":8.4776232894}},{"type":"Feature","id":6,"geometry":{"type":"Polygon","coordinates":[[[-75.49224,5.35524],[-75.49225,5.35529],[-75.49225,5.35526],[-75.49225,5.35523],[-75.49224,5.3552],[-75.49224,5.35524]]]},"properties":{"FID":6,"OBJECTID":7,"E_EXPUESTO":"Equipamientos vitales","Priorizaci":"Corto plazo","Area_Has":0.000819180856481,"Shape_Leng":20.4881908742,"Shape_Area":8.19180856481}},{"type":"Feature","id":7,"geometry":{"type":"Polygon","coordinates":[[[-75.49221,5.35511],[-75.49222,5.35513],[-75.49223,5.35515],[-75.49222,5.35511],[-75.49222,5.35511],[-75.49221,5.35511]]]},"properties":{"FID":7,"OBJECTID":8,"E_EXPUESTO":"Equipamientos vitales","Priorizaci":"Corto plazo","Area_Has":0.000242087233766,"Shape_Leng":11.1221361717,"Shape_Area":2.42087233834}},{"type":"Feature","id":8,"geometry":{"type":"Polygon","coordinates":[[[-75.49212,5.35541],[-75.49212,5.35544],[-75.49217,5.35544],[-75.49219,5.35542],[-75.49218,5.35535],[-75.49215,5.35538],[-75.49212,5.35541]]]},"properties":{"FID":8,"OBJECTID":9,"E_EXPUESTO":"Equipamientos vitales","Priorizaci":"Corto plazo","Area_Has":0.0046722654823,"Shape_Leng":29.6305264332,"Shape_Area":46.7226548202}},{"type":"Feature","id":9,"geometry":{"type":"MultiPolygon","coordinates":[[[[-75.49175,5.35503],[-75.49179,5.35506],[-75.49181,5.35504],[-75.49179,5.35498],[-75.49177,5.355],[-75.49175,5.35503]]],[[[-75.49192,5.35491],[-75.49192,5.35498],[-75.49197,5.35498],[-75.49201,5.35498],[-75.49201,5.35494],[-75.49206,5.35493],[-75.49205,5.35492],[-75.49202,5.35491],[-75.49199,5.35491],[-75.49195,5.35491],[-75.49192,5.35491]]]]},"properties":{"FID":9,"OBJECTID":10,"E_EXPUESTO":"Equipamientos vitales","Priorizaci":"Corto plazo","Area_Has":0.011630899785,"Shape_Leng":65.6471161864,"Shape_Area":116.308997852}},{"type":"Feature","id":10,"geometry":{"type":"MultiPolygon","coordinates":[[[[-75.49212,5.35544],[-75.49211,5.35548],[-75.49214,5.35546],[-75.49217,5.35544],[-75.49212,5.35544]]],[[[-75.49218,5.35535],[-75.49219,5.35542],[-75.49221,5.35539],[-75.49223,5.35536],[-75.49224,5.35533],[-75.49225,5.35529],[-75.49224,5.35524],[-75.49222,5.35528],[-75.49221,5.35532],[-75.49218,5.35535]]]]},"properties":{"FID":10,"OBJECTID":11,"E_EXPUESTO":"Equipamientos vitales","Priorizaci":"Corto plazo","Area_Has":0.00704805168011,"Shape_Leng":61.1079016592,"Shape_Area":70.4805168066}},{"type":"Feature","id":11,"geometry":{"type":"Polygon","coordinates":[[[-75.49185,5.35495],[-75.49184,5.35495],[-75.49185,5.35495],[-75.49185,5.35495],[-75.49185,5.35494],[-75.49185,5.35495]]]},"properties":{"FID":11,"OBJECTID":12,"E_EXPUESTO":"Equipamientos vitales","Priorizaci":"Corto plazo","Area_Has":8.24505314477e-05,"Shape_Leng":4.8011304847,"Shape_Area":0.824505314477}},{"type":"Feature","id":12,"geometry":{"type":"Polygon","coordinates":[[[-75.49221,5.3551],[-75.49221,5.35511],[-75.49222,5.35511],[-75.49223,5.35511],[-75.49222,5.35508],[-75.49221,5.35505],[-75.49219,5.35502],[-75.49221,5.3551]]]},"properties":{"FID":12,"OBJECTID":13,"E_EXPUESTO":"Equipamientos vitales","Priorizaci":"Corto plazo","Area_Has":0.00194164725176,"Shape_Leng":24.9608583792,"Shape_Area":19.4164725176}},{"type":"Feature","id":13,"geometry":{"type":"Polygon","coordinates":[[[-75.47111,5.36533],[-75.47111,5.36545],[-75.47122,5.36545],[-75.47122,5.36533],[-75.47111,5.36533]]]},"properties":{"FID":13,"OBJECTID":14,"E_EXPUESTO":"Vías secundarias","Priorizaci":"Mediano plazo","Area_Has":0.015625,"Shape_Leng":50,"Shape_Area":156.25}},{"type":"Feature","id":14,"geometry":{"type":"MultiPolygon","coordinates":[[[[-75.49205,5.35492],[-75.49209,5.35494],[-75.49213,5.35496],[-75.49216,5.35499],[-75.49219,5.35502],[-75.49218,5.35496],[-75.49217,5.35492],[-75.49215,5.35489],[-75.49213,5.35487],[-75.49215,5.35483],[-75.49215,5.3548],[-75.49216,5.35477],[-75.49216,5.35471],[-75.49215,5.35462],[-75.49214,5.35462],[-75.49201,5.35463],[-75.49201,5.35483],[-75.49202,5.35476],[-75.49209,5.35477],[-75.49209,5.35486],[-75.49205,5.35486],[-75.49205,5.35492]]],[[[-75.49166,5.35483],[-75.49166,5.35477],[-75.49174,5.35473],[-75.49177,5.35491],[-75.49179,5.35498],[-75.49182,5.35496],[-75.49185,5.35494],[-75.49189,5.35492],[-75.49192,5.35491],[-75.49192,5.35483],[-75.49189,5.35467],[-75.49189,5.35465],[-75.49189,5.35465],[-75.49187,5.35467],[-75.49185,5.35468],[-75.49184,5.3547],[-75.49183,5.35471],[-75.49183,5.3547],[-75.49163,5.35463],[-75.49157,5.3546],[-75.49157,5.35465],[-75.49166,5.35483]]],[[[-75.49286,5.35273],[-75.49294,5.3528],[-75.49302,5.35275],[-75.49304,5.35277],[-75.49313,5.35267],[-75.49345,5.3527],[-75.4935,5.35261],[-75.49349,5.35261],[-75.49349,5.35261],[-75.49337,5.35251],[-75.49332,5.35253],[-75.49331,5.35254],[-75.49328,5.35256],[-75.49325,5.35258],[-75.49325,5.35259],[-75.49323,5.35261],[-75.49323,5.35262],[-75.49322,5.35261],[-75.49318,5.35261],[-75.49315,5.35261],[-75.49311,5.35262],[-75.4931,5.35263],[-75.49286,5.35273]]]]},"properties":{"FID":14,"OBJECTID":15,"E_EXPUESTO":"Vías secundarias","Priorizaci":"Mediano plazo","Area_Has":0.191347789204,"Shape_Leng":465.829163378,"Shape_Area":1913.47789204}},{"type":"Feature","id":15,"geometry":{"type":"MultiPolygon","coordinates":[[[[-75.49205,5.35492],[-75.49209,5.35494],[-75.49213,5.35496],[-75.49216,5.35499],[-75.49219,5.35502],[-75.49218,5.35496],[-75.49217,5.35492],[-75.49215,5.35489],[-75.49213,5.35487],[-75.49215,5.35483],[-75.49215,5.3548],[-75.49216,5.35477],[-75.49216,5.35471],[-75.49215,5.35462],[-75.49214,5.35462],[-75.49201,5.35463],[-75.49201,5.35483],[-75.49202,5.35476],[-75.49209,5.35477],[-75.49209,5.35486],[-75.49205,5.35486],[-75.49205,5.35492]]],[[[-75.49166,5.35483],[-75.49166,5.35477],[-75.49174,5.35473],[-75.49177,5.35491],[-75.49179,5.35498],[-75.49182,5.35496],[-75.49185,5.35494],[-75.49189,5.35492],[-75.49192,5.35491],[-75.49192,5.35483],[-75.49189,5.35467],[-75.49189,5.35465],[-75.49189,5.35465],[-75.49187,5.35467],[-75.49185,5.35468],[-75.49184,5.3547],[-75.49183,5.35471],[-75.49183,5.3547],[-75.49163,5.35463],[-75.49157,5.3546],[-75.49157,5.35465],[-75.49166,5.35483]]],[[[-75.49286,5.35273],[-75.49294,5.3528],[-75.49302,5.35275],[-75.49304,5.35277],[-75.49313,5.35267],[-75.49345,5.3527],[-75.4935,5.35261],[-75.49349,5.35261],[-75.49349,5.35261],[-75.49337,5.35251],[-75.49332,5.35253],[-75.49331,5.35254],[-75.49328,5.35256],[-75.49325,5.35258],[-75.49325,5.35259],[-75.49323,5.35261],[-75.49323,5.35262],[-75.49322,5.35261],[-75.49318,5.35261],[-75.49315,5.35261],[-75.49311,5.35262],[-75.4931,5.35263],[-75.49286,5.35273]]]]},"properties":{"FID":15,"OBJECTID":16,"E_EXPUESTO":"Vías terciarias","Priorizaci":"Largo plazo","Area_Has":0.191347789204,"Shape_Leng":465.829163378,"Shape_Area":1913.47789204}},{"type":"Feature","id":16,"geometry":{"type":"Polygon","coordinates":[[[-75.46814,5.4054],[-75.46845,5.40541],[-75.46845,5.40541],[-75.46848,5.40541],[-75.4685,5.4054],[-75.46852,5.40539],[-75.46854,5.40538],[-75.46856,5.40536],[-75.46857,5.40534],[-75.46858,5.40532],[-75.46859,5.4053],[-75.46859,5.40527],[-75.46859,5.40525],[-75.46858,5.40523],[-75.46857,5.40521],[-75.46856,5.40519],[-75.46863,5.40519],[-75.46863,5.40519],[-75.46865,5.40519],[-75.46868,5.40518],[-75.4687,5.40517],[-75.46872,5.40516],[-75.46823,5.40523],[-75.46818,5.40529],[-75.46817,5.40532],[-75.46816,5.40534],[-75.46815,5.40537],[-75.46814,5.40539],[-75.46814,5.4054]]]},"properties":{"FID":16,"OBJECTID":17,"E_EXPUESTO":"Vías secundarias","Priorizaci":"Mediano plazo","Area_Has":0.0979679534641,"Shape_Leng":163.100534338,"Shape_Area":979.679534636}},{"type":"Feature","id":17,"geometry":{"type":"Polygon","coordinates":[[[-75.46814,5.4054],[-75.46845,5.40541],[-75.46845,5.40541],[-75.46848,5.40541],[-75.4685,5.4054],[-75.46852,5.40539],[-75.46854,5.40538],[-75.46856,5.40536],[-75.46857,5.40534],[-75.46858,5.40532],[-75.46859,5.4053],[-75.46859,5.40527],[-75.46859,5.40525],[-75.46858,5.40523],[-75.46857,5.40521],[-75.46856,5.40519],[-75.46863,5.40519],[-75.46863,5.40519],[-75.46865,5.40519],[-75.46868,5.40518],[-75.4687,5.40517],[-75.46872,5.40516],[-75.46823,5.40523],[-75.46818,5.40529],[-75.46817,5.40532],[-75.46816,5.40534],[-75.46815,5.40537],[-75.46814,5.40539],[-75.46814,5.4054]]]},"properties":{"FID":17,"OBJECTID":18,"E_EXPUESTO":"Vías terciarias","Priorizaci":"Largo plazo","Area_Has":0.0979679534641,"Shape_Leng":163.100534338,"Shape_Area":979.679534636}},{"type":"Feature","id":18,"geometry":{"type":"Polygon","coordinates":[[[-75.49223,5.35515],[-75.49224,5.3552],[-75.49224,5.35519],[-75.49223,5.35515]]]},"properties":{"FID":18,"OBJECTID":19,"E_EXPUESTO":"Equipamientos vitales","Priorizaci":"Corto plazo","Area_Has":0.000106035642269,"Shape_Leng":10.8974169363,"Shape_Area":1.06035642334}},{"type":"Feature","id":19,"geometry":{"type":"Polygon","coordinates":[[[-75.49223,5.35515],[-75.49224,5.3552],[-75.49224,5.35519],[-75.49223,5.35515]]]},"properties":{"FID":19,"OBJECTID":20,"E_EXPUESTO":"Equipamientos vitales","Priorizaci":"Corto plazo","Area_Has":0.000106035642269,"Shape_Leng":10.8974169363,"Shape_Area":1.06035642334}},{"type":"Feature","id":20,"geometry":{"type":"Polygon","coordinates":[[[-75.49221,5.35511],[-75.49224,5.35524],[-75.49224,5.3552],[-75.49223,5.35515],[-75.49222,5.35513],[-75.49221,5.35511],[-75.49221,5.35511]]]},"properties":{"FID":20,"OBJECTID":21,"E_EXPUESTO":"Equipamientos vitales","Priorizaci":"Corto plazo","Area_Has":0.00183848839127,"Shape_Leng":30.5785970447,"Shape_Area":18.3848839124}},{"type":"Feature","id":21,"geometry":{"type":"Polygon","coordinates":[[[-75.49221,5.35511],[-75.49224,5.35524],[-75.49224,5.3552],[-75.49223,5.35515],[-75.49222,5.35513],[-75.49221,5.35511],[-75.49221,5.35511]]]},"properties":{"FID":21,"OBJECTID":22,"E_EXPUESTO":"Equipamientos vitales","Priorizaci":"Corto plazo","Area_Has":0.00183848839127,"Shape_Leng":30.5785970447,"Shape_Area":18.3848839124}},{"type":"Feature","id":22,"geometry":{"type":"MultiPolygon","coordinates":[[[[-75.49209,5.35536],[-75.49212,5.35539],[-75.49212,5.35541],[-75.49215,5.35538],[-75.49218,5.35535],[-75.49216,5.35513],[-75.49207,5.35513],[-75.49209,5.35536]]],[[[-75.49179,5.35506],[-75.49182,5.35508],[-75.49181,5.35504],[-75.49179,5.35506]]],[[[-75.49192,5.35498],[-75.49192,5.355],[-75.49201,5.355],[-75.49201,5.35498],[-75.49197,5.35498],[-75.49192,5.35498]]]]},"properties":{"FID":22,"OBJECTID":23,"E_EXPUESTO":"Equipamientos vitales","Priorizaci":"Corto plazo","Area_Has":0.0321759093584,"Shape_Leng":112.368106601,"Shape_Area":321.759093588}},{"type":"Feature","id":23,"geometry":{"type":"MultiPolygon","coordinates":[[[[-75.49209,5.35536],[-75.49212,5.35539],[-75.49212,5.35541],[-75.49215,5.35538],[-75.49218,5.35535],[-75.49216,5.35513],[-75.49207,5.35513],[-75.49209,5.35536]]],[[[-75.49179,5.35506],[-75.49182,5.35508],[-75.49181,5.35504],[-75.49179,5.35506]]],[[[-75.49192,5.35498],[-75.49192,5.355],[-75.49201,5.355],[-75.49201,5.35498],[-75.49197,5.35498],[-75.49192,5.35498]]]]},"properties":{"FID":23,"OBJECTID":24,"E_EXPUESTO":"Equipamientos vitales","Priorizaci":"Corto plazo","Area_Has":0.0321759093584,"Shape_Leng":112.368106601,"Shape_Area":321.759093588}},{"type":"Feature","id":24,"geometry":{"type":"MultiPolygon","coordinates":[[[[-75.49201,5.35498],[-75.49205,5.35499],[-75.49209,5.355],[-75.49212,5.35502],[-75.49215,5.35504],[-75.49218,5.35507],[-75.49221,5.3551],[-75.49219,5.35502],[-75.49216,5.35499],[-75.49213,5.35496],[-75.49209,5.35494],[-75.49205,5.35492],[-75.49206,5.35493],[-75.49201,5.35494],[-75.49201,5.35498]]],[[[-75.49179,5.35498],[-75.49181,5.35504],[-75.49184,5.35501],[-75.49188,5.355],[-75.49192,5.35498],[-75.49192,5.35491],[-75.49189,5.35492],[-75.49185,5.35494],[-75.49182,5.35496],[-75.49179,5.35498]],[[-75.49185,5.35495],[-75.49185,5.35494],[-75.49185,5.35495],[-75.49185,5.35495],[-75.49184,5.35495],[-75.49185,5.35495]]]]},"properties":{"FID":24,"OBJECTID":25,"E_EXPUESTO":"Equipamientos vitales","Priorizaci":"Corto plazo","Area_Has":0.0247140368816,"Shape_Leng":115.625209768,"Shape_Area":247.140368822}},{"type":"Feature","id":25,"geometry":{"type":"MultiPolygon","coordinates":[[[[-75.49201,5.35498],[-75.49205,5.35499],[-75.49209,5.355],[-75.49212,5.35502],[-75.49215,5.35504],[-75.49218,5.35507],[-75.49221,5.3551],[-75.49219,5.35502],[-75.49216,5.35499],[-75.49213,5.35496],[-75.49209,5.35494],[-75.49205,5.35492],[-75.49206,5.35493],[-75.49201,5.35494],[-75.49201,5.35498]]],[[[-75.49179,5.35498],[-75.49181,5.35504],[-75.49184,5.35501],[-75.49188,5.355],[-75.49192,5.35498],[-75.49192,5.35491],[-75.49189,5.35492],[-75.49185,5.35494],[-75.49182,5.35496],[-75.49179,5.35498]],[[-75.49185,5.35495],[-75.49185,5.35494],[-75.49185,5.35495],[-75.49185,5.35495],[-75.49184,5.35495],[-75.49185,5.35495]]]]},"properties":{"FID":25,"OBJECTID":26,"E_EXPUESTO":"Equipamientos vitales","Priorizaci":"Corto plazo","Area_Has":0.0247140368816,"Shape_Leng":115.625209768,"Shape_Area":247.140368822}},{"type":"Feature","id":26,"geometry":{"type":"Polygon","coordinates":[[[-75.49199,5.35528],[-75.492,5.35529],[-75.49209,5.35536],[-75.49207,5.35513],[-75.49216,5.35513],[-75.49218,5.35535],[-75.49221,5.35532],[-75.49222,5.35528],[-75.49224,5.35524],[-75.49221,5.35511],[-75.49199,5.35513],[-75.49198,5.35513],[-75.49196,5.35513],[-75.49199,5.35528]]]},"properties":{"FID":26,"OBJECTID":27,"E_EXPUESTO":"Equipamientos vitales","Priorizaci":"Corto plazo","Area_Has":0.0386192873323,"Shape_Leng":148.803313302,"Shape_Area":386.192873319}},{"type":"Feature","id":27,"geometry":{"type":"Polygon","coordinates":[[[-75.49199,5.35528],[-75.492,5.35529],[-75.49209,5.35536],[-75.49207,5.35513],[-75.49216,5.35513],[-75.49218,5.35535],[-75.49221,5.35532],[-75.49222,5.35528],[-75.49224,5.35524],[-75.49221,5.35511],[-75.49199,5.35513],[-75.49198,5.35513],[-75.49196,5.35513],[-75.49199,5.35528]]]},"properties":{"FID":27,"OBJECTID":28,"E_EXPUESTO":"Equipamientos vitales","Priorizaci":"Corto plazo","Area_Has":0.0386192873323,"Shape_Leng":148.803313302,"Shape_Area":386.192873319}},{"type":"Feature","id":28,"geometry":{"type":"Polygon","coordinates":[[[-75.49221,5.3551],[-75.49221,5.35511],[-75.49221,5.35511],[-75.49221,5.3551]]]},"properties":{"FID":28,"OBJECTID":29,"E_EXPUESTO":"Equipamientos vitales","Priorizaci":"Corto plazo","Area_Has":2.085327532e-05,"Shape_Leng":2.59396649591,"Shape_Area":0.208532753106}},{"type":"Feature","id":29,"geometry":{"type":"Polygon","coordinates":[[[-75.49221,5.3551],[-75.49221,5.35511],[-75.49221,5.35511],[-75.49221,5.3551]]]},"properties":{"FID":29,"OBJECTID":30,"E_EXPUESTO":"Equipamientos vitales","Priorizaci":"Corto plazo","Area_Has":2.085327532e-05,"Shape_Leng":2.59396649591,"Shape_Area":0.208532753106}},{"type":"Feature","id":30,"geometry":{"type":"Polygon","coordinates":[[[-75.49182,5.35508],[-75.49185,5.3551],[-75.49199,5.35528],[-75.49196,5.35513],[-75.49198,5.35513],[-75.49199,5.35513],[-75.49221,5.35511],[-75.49221,5.3551],[-75.49218,5.35507],[-75.49215,5.35504],[-75.49212,5.35502],[-75.49209,5.355],[-75.49205,5.35499],[-75.49201,5.35498],[-75.49201,5.355],[-75.49192,5.355],[-75.49192,5.35498],[-75.49188,5.355],[-75.49184,5.35501],[-75.49181,5.35504],[-75.49182,5.35508]]]},"properties":{"FID":30,"OBJECTID":31,"E_EXPUESTO":"Equipamientos vitales","Priorizaci":"Corto plazo","Area_Has":0.0614459810327,"Shape_Leng":133.898137983,"Shape_Area":614.459810323}},{"type":"Feature","id":31,"geometry":{"type":"Polygon","coordinates":[[[-75.49182,5.35508],[-75.49185,5.3551],[-75.49199,5.35528],[-75.49196,5.35513],[-75.49198,5.35513],[-75.49199,5.35513],[-75.49221,5.35511],[-75.49221,5.3551],[-75.49218,5.35507],[-75.49215,5.35504],[-75.49212,5.35502],[-75.49209,5.355],[-75.49205,5.35499],[-75.49201,5.35498],[-75.49201,5.355],[-75.49192,5.355],[-75.49192,5.35498],[-75.49188,5.355],[-75.49184,5.35501],[-75.49181,5.35504],[-75.49182,5.35508]]]},"properties":{"FID":31,"OBJECTID":32,"E_EXPUESTO":"Equipamientos vitales","Priorizaci":"Corto plazo","Area_Has":0.0614459810327,"Shape_Leng":133.898137983,"Shape_Area":614.459810323}},{"type":"Feature","id":32,"geometry":{"type":"Polygon","coordinates":[[[-75.49182,5.35508],[-75.49185,5.3551],[-75.49199,5.35528],[-75.49196,5.35513],[-75.49198,5.35513],[-75.49199,5.35513],[-75.49221,5.35511],[-75.49221,5.3551],[-75.49218,5.35507],[-75.49215,5.35504],[-75.49212,5.35502],[-75.49209,5.355],[-75.49205,5.35499],[-75.49201,5.35498],[-75.49201,5.355],[-75.49192,5.355],[-75.49192,5.35498],[-75.49188,5.355],[-75.49184,5.35501],[-75.49181,5.35504],[-75.49182,5.35508]]]},"properties":{"FID":32,"OBJECTID":33,"E_EXPUESTO":"Equipamientos vitales","Priorizaci":"Corto plazo","Area_Has":0.0614459810327,"Shape_Leng":133.898137983,"Shape_Area":614.459810323}},{"type":"Feature","id":33,"geometry":{"type":"Polygon","coordinates":[[[-75.49182,5.35508],[-75.49185,5.3551],[-75.49199,5.35528],[-75.49196,5.35513],[-75.49198,5.35513],[-75.49199,5.35513],[-75.49221,5.35511],[-75.49221,5.3551],[-75.49218,5.35507],[-75.49215,5.35504],[-75.49212,5.35502],[-75.49209,5.355],[-75.49205,5.35499],[-75.49201,5.35498],[-75.49201,5.355],[-75.49192,5.355],[-75.49192,5.35498],[-75.49188,5.355],[-75.49184,5.35501],[-75.49181,5.35504],[-75.49182,5.35508]]]},"properties":{"FID":33,"OBJECTID":34,"E_EXPUESTO":"Equipamientos vitales","Priorizaci":"Corto plazo","Area_Has":0.0614459810327,"Shape_Leng":133.898137983,"Shape_Area":614.459810323}}]}