{"type":"FeatureCollection","name":"COND_AMENAZA_INUN_RURAL","crs":{"type":"name","properties":{"name":"urn:ogc:def:crs:OGC:1.3:CRS84"}},"features":[{"type":"Feature","id":0,"geometry":{"type":"Polygon","coordinates":[[[-75.45567,5.39904],[-75.45568,5.399],[-75.4557,5.39897],[-75.45571,5.39895],[-75.45563,5.39893],[-75.45567,5.39904]]]},"properties":{"FID":0,"OBJECTID":1,"E_EXPUESTO":"CAÑAVERAL","Priorizaci":"Mediano plazo","Area_Has":0.00456099866319,"Shape_Leng":32.6539894576,"Shape_Area":45.6099866319}},{"type":"Feature","id":1,"geometry":{"type":"MultiPolygon","coordinates":[[[[-75.47161,5.42922],[-75.47187,5.42908],[-75.47171,5.42895],[-75.47161,5.42922]]],[[[-75.47069,5.42884],[-75.47073,5.42909],[-75.47094,5.42889],[-75.47081,5.42884],[-75.47069,5.42884]]]]},"properties":{"FID":1,"OBJECTID":2,"E_EXPUESTO":"EL TIGRE","Priorizaci":"Mediano plazo","Area_Has":0.0726045272816,"Shape_Leng":174.188018968,"Shape_Area":726.045272816}},{"type":"Feature","id":2,"geometry":{"type":"Polygon","coordinates":[[[-75.46762,5.41721],[-75.46762,5.41727],[-75.46768,5.41723],[-75.46762,5.41721]]]},"properties":{"FID":2,"OBJECTID":3,"E_EXPUESTO":"LA DIVISA","Priorizaci":"Mediano plazo","Area_Has":0.00187677391015,"Shape_Leng":19.8960586881,"Shape_Area":18.7677391015}},{"type":"Feature","id":3,"geometry":{"type":"MultiPolygon","coordinates":[[[[-75.46762,5.41721],[-75.46751,5.41721],[-75.46751,5.41732],[-75.46752,5.41732],[-75.46762,5.41727],[-75.46762,5.41721]]],[[[-75.46766,5.41531],[-75.46775,5.41522],[-75.46762,5.41518],[-75.46766,5.41531]]]]},"properties":{"FID":3,"OBJECTID":4,"E_EXPUESTO":"LA DIVISA","Priorizaci":"Mediano plazo","Area_Has":0.0227795112807,"Shape_Leng":92.4656850704,"Shape_Area":227.795112807}},{"type":"Feature","id":4,"geometry":{"type":"Polygon","coordinates":[[[-75.50818,5.42844],[-75.50838,5.42834],[-75.50829,5.42829],[-75.50828,5.42828],[-75.50813,5.42819],[-75.50818,5.42844]]]},"properties":{"FID":4,"OBJECTID":5,"E_EXPUESTO":"LA LOMA","Priorizaci":"Mediano plazo","Area_Has":0.0347502198992,"Shape_Leng":86.0032700983,"Shape_Area":347.502198992}},{"type":"Feature","id":5,"geometry":{"type":"MultiPolygon","coordinates":[[[[-75.49263,5.35602],[-75.49263,5.35631],[-75.49265,5.35636],[-75.49274,5.35636],[-75.49274,5.35602],[-75.49263,5.35602]]],[[[-75.49251,5.35579],[-75.49251,5.35591],[-75.49258,5.35591],[-75.49254,5.35579],[-75.49251,5.35579]]],[[[-75.49262,5.35589],[-75.49259,5.35591],[-75.49262,5.35591],[-75.49262,5.35589]]],[[[-75.49233,5.35568],[-75.49233,5.35569],[-75.49238,5.35579],[-75.4924,5.35579],[-75.4924,5.35568],[-75.49233,5.35568]]],[[[-75.49296,5.35568],[-75.49296,5.35579],[-75.49307,5.35579],[-75.49303,5.35568],[-75.49303,5.35568],[-75.49296,5.35568]]],[[[-75.49285,5.35545],[-75.49285,5.35557],[-75.49295,5.35557],[-75.49287,5.35545],[-75.49285,5.35545]]],[[[-75.49228,5.35546],[-75.49229,5.35549],[-75.49229,5.35546],[-75.49228,5.35546]]],[[[-75.49274,5.35542],[-75.49274,5.35545],[-75.49285,5.35545],[-75.49285,5.35543],[-75.49281,5.35538],[-75.4928,5.35537],[-75.49274,5.35542]]]]},"properties":{"FID":5,"OBJECTID":6,"E_EXPUESTO":"LA UNIÓN","Priorizaci":"Mediano plazo","Area_Has":0.0889546409516,"Shape_Leng":312.745529656,"Shape_Area":889.546409516}},{"type":"Feature","id":6,"geometry":{"type":"MultiPolygon","coordinates":[[[[-75.49274,5.35636],[-75.49274,5.35639],[-75.4928,5.35645],[-75.49277,5.3565],[-75.49279,5.35652],[-75.49298,5.35639],[-75.49315,5.3562],[-75.49315,5.35617],[-75.49315,5.35602],[-75.49307,5.35579],[-75.49296,5.35579],[-75.49296,5.35568],[-75.49296,5.35558],[-75.49295,5.35557],[-75.49285,5.35557],[-75.49285,5.35545],[-75.49274,5.35545],[-75.49274,5.35542],[-75.49267,5.35546],[-75.49264,5.35545],[-75.49259,5.35544],[-75.49252,5.35543],[-75.49248,5.35544],[-75.49243,5.35546],[-75.49238,5.35551],[-75.49234,5.35558],[-75.49232,5.35556],[-75.49232,5.35553],[-75.49231,5.3555],[-75.49229,5.35541],[-75.49225,5.35524],[-75.49225,5.35523],[-75.49225,5.35526],[-75.49225,5.35529],[-75.49228,5.35546],[-75.49229,5.35546],[-75.49229,5.35549],[-75.49233,5.35568],[-75.4924,5.35568],[-75.4924,5.35579],[-75.49251,5.35579],[-75.49254,5.35579],[-75.49249,5.35565],[-75.49267,5.35557],[-75.49276,5.35583],[-75.49262,5.35589],[-75.49262,5.35591],[-75.49263,5.35602],[-75.49274,5.35602],[-75.49274,5.35636]],[[-75.49288,5.35639],[-75.49283,5.35644],[-75.49275,5.35636],[-75.4928,5.35631],[-75.49288,5.35639]],[[-75.49284,5.35627],[-75.4929,5.35622],[-75.49298,5.35631],[-75.49292,5.35636],[-75.49284,5.35627]],[[-75.49292,5.35619],[-75.49298,5.35614],[-75.49306,5.35625],[-75.49301,5.35629],[-75.49292,5.35619]]],[[[-75.49232,5.35412],[-75.4922,5.35442],[-75.49221,5.35441],[-75.49237,5.35433],[-75.4925,5.35421],[-75.49243,5.35408],[-75.4924,5.35402],[-75.49237,5.35405],[-75.49239,5.35407],[-75.49234,5.3541],[-75.49234,5.3541],[-75.49232,5.35412]]],[[[-75.49278,5.35267],[-75.49261,5.35282],[-75.49247,5.35292],[-75.49221,5.3531],[-75.492,5.3533],[-75.492,5.35348],[-75.49201,5.35357],[-75.49254,5.3529],[-75.49256,5.35288],[-75.49259,5.35286],[-75.49262,5.35285],[-75.49286,5.35273],[-75.49278,5.35267],[-75.49278,5.35267]]]]},"properties":{"FID":6,"OBJECTID":7,"E_EXPUESTO":"LA UNIÓN","Priorizaci":"Mediano plazo","Area_Has":0.666486842733,"Shape_Leng":1070.49813849,"Shape_Area":6664.86842733}},{"type":"Feature","id":7,"geometry":{"type":"Polygon","coordinates":[[[-75.44115,5.38052],[-75.44115,5.38055],[-75.44117,5.38054],[-75.44116,5.38053],[-75.44115,5.38052]]]},"properties":{"FID":7,"OBJECTID":8,"E_EXPUESTO":"RCD Proyectada","Priorizaci":"Largo plazo","Area_Has":0.00024943736998,"Shape_Leng":7.25958753734,"Shape_Area":2.4943736998}},{"type":"Feature","id":8,"geometry":{"type":"Polygon","coordinates":[[[-75.44115,5.38052],[-75.44112,5.38049],[-75.44104,5.38049],[-75.44104,5.38055],[-75.44115,5.38055],[-75.44115,5.38052]]]},"properties":{"FID":8,"OBJECTID":9,"E_EXPUESTO":"RCD Proyectada","Priorizaci":"Largo plazo","Area_Has":0.00672566114819,"Shape_Leng":34.6941030665,"Shape_Area":67.2566114819}},{"type":"Feature","id":9,"geometry":{"type":"MultiPolygon","coordinates":[[[[-75.48208,5.3791],[-75.48208,5.37921],[-75.48208,5.37932],[-75.48219,5.37932],[-75.48219,5.3791],[-75.48208,5.3791]]],[[[-75.48184,5.37299],[-75.48169,5.37306],[-75.48169,5.37306],[-75.48195,5.37311],[-75.48195,5.37299],[-75.48184,5.37299]]],[[[-75.47809,5.36396],[-75.4781,5.36397],[-75.4781,5.36396],[-75.47809,5.36396]]],[[[-75.47821,5.36385],[-75.4781,5.36385],[-75.4781,5.36396],[-75.47821,5.36396],[-75.47821,5.36385]]],[[[-75.47799,5.36351],[-75.47773,5.36356],[-75.47787,5.36362],[-75.47799,5.36362],[-75.47799,5.36351]]],[[[-75.47843,5.36283],[-75.47838,5.36269],[-75.47832,5.36283],[-75.47843,5.36283]]]]},"properties":{"FID":9,"OBJECTID":10,"E_EXPUESTO":"UPR La Palma La Quiebra","Priorizaci":"Corto plazo","Area_Has":0.10189719662,"Shape_Leng":318.708135223,"Shape_Area":1018.9719662}},{"type":"Feature","id":10,"geometry":{"type":"MultiPolygon","coordinates":[[[[-75.4887,5.41355],[-75.48859,5.41355],[-75.48859,5.41366],[-75.48865,5.41381],[-75.4887,5.41355]]],[[[-75.4887,5.41355],[-75.48884,5.41351],[-75.48874,5.41341],[-75.4887,5.41355]]]]},"properties":{"FID":10,"OBJECTID":11,"E_EXPUESTO":"SUB Los Mangos","Priorizaci":"Corto plazo","Area_Has":0.0331933340875,"Shape_Leng":119.160889828,"Shape_Area":331.933340875}},{"type":"Feature","id":11,"geometry":{"type":"MultiPolygon","coordinates":[[[[-75.48368,5.38055],[-75.4837,5.38051],[-75.48344,5.38045],[-75.48349,5.38055],[-75.48368,5.38055]]],[[[-75.48184,5.37299],[-75.48195,5.37299],[-75.48195,5.37311],[-75.48207,5.37311],[-75.48207,5.37299],[-75.48207,5.37277],[-75.48184,5.37277],[-75.48184,5.37299]]],[[[-75.46973,5.36696],[-75.46993,5.36677],[-75.46965,5.36669],[-75.46973,5.36696]]],[[[-75.46946,5.36672],[-75.46956,5.36662],[-75.46942,5.36658],[-75.46946,5.36672]]],[[[-75.47787,5.36362],[-75.47795,5.36378],[-75.47798,5.36394],[-75.47807,5.36396],[-75.47809,5.36396],[-75.4781,5.36396],[-75.4781,5.36385],[-75.47821,5.36385],[-75.47806,5.36355],[-75.47799,5.36351],[-75.47799,5.36362],[-75.47787,5.36362]]],[[[-75.47832,5.36283],[-75.47808,5.3629],[-75.47817,5.36322],[-75.47843,5.36283],[-75.47832,5.36283]]]]},"properties":{"FID":11,"OBJECTID":12,"E_EXPUESTO":"UPR La Palma La Quiebra","Priorizaci":"Corto plazo","Area_Has":0.318013460698,"Shape_Leng":610.610470487,"Shape_Area":3180.13460698}},{"type":"Feature","id":12,"geometry":{"type":"MultiPolygon","coordinates":[[[[-75.48336,5.3841],[-75.48348,5.3839],[-75.48322,5.38384],[-75.48336,5.3841]]],[[[-75.48349,5.38055],[-75.48358,5.38071],[-75.48368,5.38055],[-75.48349,5.38055]]]]},"properties":{"FID":12,"OBJECTID":13,"E_EXPUESTO":"SUB La Palma","Priorizaci":"Corto plazo","Area_Has":0.0549831477503,"Shape_Leng":149.886700007,"Shape_Area":549.831477503}}]}