{"type":"FeatureCollection","name":"COND_RIESGO_INUN_SF","crs":{"type":"name","properties":{"name":"urn:ogc:def:crs:OGC:1.3:CRS84"}},"features":[{"type":"Feature","id":0,"geometry":{"type":"MultiPolygon","coordinates":[[[[-75.37291,5.37561],[-75.37291,5.37561],[-75.37291,5.3756],[-75.37291,5.37559],[-75.37291,5.37559],[-75.37291,5.37558],[-75.37291,5.37557],[-75.37291,5.37556],[-75.37291,5.37556],[-75.37291,5.37555],[-75.37291,5.37552],[-75.37292,5.37552],[-75.37292,5.37551],[-75.37292,5.37551],[-75.37292,5.3755],[-75.37293,5.3755],[-75.37293,5.37549],[-75.37293,5.37548],[-75.37294,5.37548],[-75.37294,5.37547],[-75.37294,5.37544],[-75.37295,5.37544],[-75.37295,5.37539],[-75.37296,5.37539],[-75.37296,5.37535],[-75.37296,5.37534],[-75.37296,5.37531],[-75.37295,5.37531],[-75.37295,5.3753],[-75.37295,5.37529],[-75.37295,5.37528],[-75.37295,5.37527],[-75.37295,5.37526],[-75.37295,5.37525],[-75.37296,5.37525],[-75.37296,5.37524],[-75.37296,5.37523],[-75.37297,5.37523],[-75.37298,5.37523],[-75.37298,5.37523],[-75.37299,5.37523],[-75.373,5.37523],[-75.373,5.37523],[-75.373,5.37522],[-75.37301,5.37522],[-75.37302,5.37522],[-75.37302,5.37521],[-75.37303,5.37521],[-75.37304,5.37521],[-75.37304,5.3752],[-75.37305,5.3752],[-75.37305,5.37521],[-75.37306,5.37521],[-75.37306,5.3752],[-75.37307,5.3752],[-75.37308,5.3752],[-75.37309,5.3752],[-75.37309,5.37519],[-75.37309,5.37519],[-75.3731,5.37519],[-75.3731,5.37518],[-75.37311,5.37518],[-75.37312,5.37518],[-75.37312,5.37517],[-75.37313,5.37517],[-75.37314,5.37517],[-75.37315,5.37517],[-75.37315,5.37516],[-75.37316,5.37516],[-75.37318,5.37516],[-75.37318,5.37515],[-75.37318,5.37515],[-75.37319,5.37515],[-75.37319,5.37514],[-75.3732,5.37514],[-75.37321,5.37514],[-75.37322,5.37514],[-75.37322,5.37515],[-75.37323,5.37515],[-75.37323,5.37514],[-75.37324,5.37514],[-75.37325,5.37514],[-75.37326,5.37514],[-75.37327,5.37514],[-75.37327,5.37513],[-75.37328,5.37513],[-75.37329,5.37513],[-75.37329,5.37513],[-75.3733,5.37513],[-75.37331,5.37513],[-75.37331,5.37512],[-75.37332,5.37512],[-75.37332,5.37512],[-75.3733,5.37509],[-75.37328,5.37508],[-75.37327,5.37508],[-75.37325,5.37511],[-75.3732,5.3751],[-75.37316,5.37511],[-75.37311,5.3751],[-75.37308,5.37512],[-75.37303,5.37514],[-75.37296,5.37515],[-75.37292,5.37517],[-75.3729,5.37519],[-75.37289,5.37522],[-75.37288,5.37526],[-75.37285,5.37532],[-75.37285,5.37538],[-75.37285,5.37544],[-75.37282,5.37548],[-75.3728,5.37552],[-75.37279,5.37555],[-75.37281,5.37555],[-75.37285,5.37558],[-75.37291,5.37561]]],[[[-75.37333,5.37513],[-75.37333,5.37513],[-75.37333,5.37512],[-75.37333,5.37513]]]]},"properties":{"FID":0,"OBJECTID":1,"E_EXPUESTO":"Equipamientos","Priorizaci":"Mediano plazo","Area_Ha":0.0745846558647,"Shape_Leng":218.439908826,"Shape_Area":745.846558647}},{"type":"Feature","id":1,"geometry":{"type":"Polygon","coordinates":[[[-75.37217,5.37738],[-75.37217,5.37739],[-75.37216,5.37739],[-75.37216,5.3774],[-75.37215,5.3774],[-75.37215,5.37741],[-75.37214,5.37741],[-75.37214,5.37741],[-75.37214,5.37742],[-75.37213,5.37742],[-75.37213,5.37743],[-75.37212,5.37743],[-75.37212,5.37744],[-75.37212,5.37745],[-75.37223,5.37754],[-75.37228,5.37749],[-75.37229,5.37748],[-75.37218,5.37738],[-75.37217,5.37738]]]},"properties":{"FID":1,"OBJECTID":2,"E_EXPUESTO":"Equipamientos","Priorizaci":"Mediano plazo","Area_Ha":0.0154684028777,"Shape_Leng":54.3572039613,"Shape_Area":154.684028777}},{"type":"Feature","id":2,"geometry":{"type":"MultiPolygon","coordinates":[[[[-75.37273,5.37549],[-75.37274,5.3755],[-75.37278,5.37533],[-75.37279,5.37513],[-75.37283,5.375],[-75.37296,5.37491],[-75.37296,5.37491],[-75.37295,5.37491],[-75.37294,5.37491],[-75.37294,5.3749],[-75.3729,5.3749],[-75.3729,5.37491],[-75.3729,5.37491],[-75.37289,5.37491],[-75.37289,5.37492],[-75.37288,5.37492],[-75.37288,5.37493],[-75.37287,5.37493],[-75.37287,5.37495],[-75.37286,5.37495],[-75.37285,5.37495],[-75.37285,5.37495],[-75.37285,5.37496],[-75.37283,5.37496],[-75.37283,5.37497],[-75.37282,5.37497],[-75.37282,5.37498],[-75.37281,5.37498],[-75.37281,5.37499],[-75.3728,5.37499],[-75.3728,5.37502],[-75.3728,5.37504],[-75.37276,5.37504],[-75.37276,5.37505],[-75.37275,5.37505],[-75.37275,5.37507],[-75.37274,5.37507],[-75.37274,5.37508],[-75.37273,5.37508],[-75.37273,5.37509],[-75.37272,5.37509],[-75.37272,5.3751],[-75.37272,5.37511],[-75.37272,5.37511],[-75.37272,5.37513],[-75.37272,5.37514],[-75.37271,5.37514],[-75.37271,5.37514],[-75.37271,5.37516],[-75.37272,5.37516],[-75.37272,5.37517],[-75.37272,5.37518],[-75.37272,5.37519],[-75.37272,5.37519],[-75.37272,5.37522],[-75.37272,5.37522],[-75.37272,5.37523],[-75.37272,5.37524],[-75.37272,5.37525],[-75.37272,5.37526],[-75.37272,5.37528],[-75.37271,5.37528],[-75.37271,5.37531],[-75.37271,5.37532],[-75.37271,5.37534],[-75.3727,5.37534],[-75.3727,5.37535],[-75.3727,5.37536],[-75.3727,5.37537],[-75.3727,5.37538],[-75.37269,5.37538],[-75.37269,5.37541],[-75.3727,5.37541],[-75.3727,5.37542],[-75.3727,5.37543],[-75.37271,5.37543],[-75.37271,5.37544],[-75.37271,5.37546],[-75.37271,5.37546],[-75.37271,5.37547],[-75.37272,5.37547],[-75.37272,5.37547],[-75.37272,5.37548],[-75.37273,5.37548],[-75.37273,5.37548],[-75.37273,5.37549],[-75.37273,5.37549],[-75.37273,5.37549]]],[[[-75.37305,5.37493],[-75.37304,5.37493],[-75.37299,5.37493],[-75.37299,5.37493],[-75.37304,5.37496],[-75.37306,5.37493],[-75.37305,5.37493]]],[[[-75.37297,5.37492],[-75.37299,5.37493],[-75.37299,5.37492],[-75.37297,5.37492]]]]},"properties":{"FID":2,"OBJECTID":3,"E_EXPUESTO":"Construcciones","Priorizaci":"Corto plazo","Area_Ha":0.0449937222078,"Shape_Leng":200.79123482,"Shape_Area":449.937222078}},{"type":"Feature","id":3,"geometry":{"type":"Polygon","coordinates":[[[-75.37352,5.37518],[-75.37354,5.37518],[-75.37354,5.37517],[-75.37355,5.37517],[-75.37355,5.37517],[-75.37355,5.37516],[-75.37356,5.37516],[-75.37356,5.37515],[-75.37357,5.37515],[-75.37357,5.37515],[-75.3735,5.3751],[-75.37343,5.37516],[-75.37344,5.37516],[-75.37345,5.37516],[-75.37345,5.37516],[-75.37346,5.37517],[-75.37346,5.37517],[-75.37348,5.37517],[-75.3735,5.37517],[-75.37351,5.37517],[-75.37352,5.37517],[-75.37352,5.37518]]]},"properties":{"FID":3,"OBJECTID":4,"E_EXPUESTO":"Construcciones","Priorizaci":"Corto plazo","Area_Ha":0.00730886325665,"Shape_Leng":41.6974189046,"Shape_Area":73.0886325665}},{"type":"Feature","id":4,"geometry":{"type":"MultiPolygon","coordinates":[[[[-75.37289,5.37609],[-75.373,5.37597],[-75.37299,5.37597],[-75.37299,5.37596],[-75.37298,5.37596],[-75.37297,5.37596],[-75.37296,5.37596],[-75.37296,5.37597],[-75.37293,5.37597],[-75.37293,5.37598],[-75.37292,5.37598],[-75.37292,5.37598],[-75.37292,5.37598],[-75.37292,5.37599],[-75.3729,5.37599],[-75.3729,5.376],[-75.3729,5.37601],[-75.37289,5.37601],[-75.37289,5.376],[-75.37289,5.37599],[-75.37288,5.37599],[-75.37288,5.37598],[-75.37289,5.37598],[-75.37289,5.37597],[-75.3729,5.37597],[-75.3729,5.37596],[-75.37291,5.37596],[-75.37291,5.37594],[-75.37291,5.37593],[-75.3729,5.37593],[-75.3729,5.37592],[-75.37289,5.37592],[-75.37287,5.37595],[-75.37282,5.37592],[-75.37279,5.37598],[-75.37289,5.37609]]],[[[-75.373,5.37596],[-75.373,5.37597],[-75.373,5.37596],[-75.373,5.37596]]]]},"properties":{"FID":4,"OBJECTID":5,"E_EXPUESTO":"Construcciones","Priorizaci":"Corto plazo","Area_Ha":0.0183922499861,"Shape_Leng":89.3317618893,"Shape_Area":183.922499861}},{"type":"Feature","id":5,"geometry":{"type":"MultiPolygon","coordinates":[[[[-75.37239,5.37577],[-75.37237,5.37579],[-75.3723,5.37588],[-75.37229,5.3759],[-75.3723,5.37591],[-75.37231,5.37592],[-75.37232,5.37592],[-75.37234,5.37594],[-75.37236,5.37593],[-75.37238,5.37593],[-75.37234,5.37589],[-75.37247,5.37575],[-75.37246,5.37574],[-75.37246,5.37573],[-75.37245,5.37573],[-75.37245,5.37573],[-75.37245,5.37572],[-75.37244,5.37572],[-75.37243,5.37572],[-75.37243,5.37572],[-75.37239,5.37577]]],[[[-75.37265,5.37549],[-75.37265,5.3755],[-75.37265,5.3755],[-75.37266,5.37549],[-75.37266,5.37549],[-75.37265,5.37549]]]]},"properties":{"FID":5,"OBJECTID":6,"E_EXPUESTO":"Construcciones","Priorizaci":"Corto plazo","Area_Ha":0.0145961256683,"Shape_Leng":75.9232069809,"Shape_Area":145.961256683}},{"type":"Feature","id":6,"geometry":{"type":"Polygon","coordinates":[[[-75.37322,5.37598],[-75.37321,5.37598],[-75.37321,5.37598],[-75.3732,5.37598],[-75.3732,5.37598],[-75.3732,5.37597],[-75.37319,5.37597],[-75.37318,5.37597],[-75.37318,5.37596],[-75.37317,5.37596],[-75.37317,5.37595],[-75.37315,5.37595],[-75.37313,5.37595],[-75.37313,5.37594],[-75.3731,5.37594],[-75.3731,5.37594],[-75.3731,5.37595],[-75.37308,5.37595],[-75.37291,5.37614],[-75.37302,5.37621],[-75.37318,5.37603],[-75.37322,5.37598]]]},"properties":{"FID":6,"OBJECTID":7,"E_EXPUESTO":"Construcciones","Priorizaci":"Corto plazo","Area_Ha":0.0445770911382,"Shape_Leng":96.6882673207,"Shape_Area":445.770911382}},{"type":"Feature","id":7,"geometry":{"type":"Polygon","coordinates":[[[-75.37318,5.37603],[-75.37336,5.37618],[-75.37341,5.37613],[-75.37337,5.37609],[-75.37337,5.37609],[-75.37337,5.37609],[-75.37336,5.37608],[-75.37335,5.37608],[-75.37335,5.37607],[-75.37334,5.37607],[-75.37333,5.37607],[-75.37332,5.37607],[-75.37332,5.37607],[-75.37331,5.37607],[-75.3733,5.37607],[-75.3733,5.37606],[-75.37329,5.37606],[-75.37329,5.37605],[-75.37329,5.37604],[-75.37329,5.37604],[-75.37329,5.37603],[-75.37327,5.37603],[-75.37327,5.37602],[-75.37326,5.37602],[-75.37326,5.37601],[-75.37325,5.37601],[-75.37325,5.376],[-75.37324,5.376],[-75.37324,5.37599],[-75.37323,5.37599],[-75.37323,5.37598],[-75.37322,5.37598],[-75.37322,5.37598],[-75.37318,5.37603]]]},"properties":{"FID":7,"OBJECTID":8,"E_EXPUESTO":"Construcciones","Priorizaci":"Corto plazo","Area_Ha":0.0200501712372,"Shape_Leng":76.3002147561,"Shape_Area":200.501712372}},{"type":"Feature","id":8,"geometry":{"type":"Polygon","coordinates":[[[-75.37219,5.37607],[-75.37226,5.37607],[-75.37226,5.37607],[-75.37218,5.376],[-75.37216,5.37601],[-75.37216,5.37601],[-75.37217,5.37601],[-75.37217,5.37602],[-75.37218,5.37602],[-75.37218,5.37604],[-75.37218,5.37604],[-75.37219,5.37606],[-75.37219,5.37606],[-75.37219,5.37607]]]},"properties":{"FID":8,"OBJECTID":9,"E_EXPUESTO":"Construcciones","Priorizaci":"Corto plazo","Area_Ha":0.0033422100993,"Shape_Leng":31.1626066029,"Shape_Area":33.422100993}},{"type":"Feature","id":9,"geometry":{"type":"Polygon","coordinates":[[[-75.3725,5.37705],[-75.3725,5.37706],[-75.37251,5.37706],[-75.37263,5.37692],[-75.37262,5.37692],[-75.37262,5.37693],[-75.3726,5.37693],[-75.37259,5.37693],[-75.37259,5.37693],[-75.37259,5.37694],[-75.37258,5.37694],[-75.37257,5.37694],[-75.37257,5.37694],[-75.37257,5.37695],[-75.37256,5.37695],[-75.37256,5.37696],[-75.37255,5.37696],[-75.37255,5.37697],[-75.37253,5.37697],[-75.37253,5.37698],[-75.37252,5.37698],[-75.37251,5.37698],[-75.37251,5.37699],[-75.3725,5.37699],[-75.3725,5.37701],[-75.3725,5.37702],[-75.37249,5.37702],[-75.37249,5.37704],[-75.3725,5.37704],[-75.3725,5.37705]]]},"properties":{"FID":9,"OBJECTID":10,"E_EXPUESTO":"Construcciones","Priorizaci":"Corto plazo","Area_Ha":0.00681015873346,"Shape_Leng":53.8971093599,"Shape_Area":68.1015873346}},{"type":"Feature","id":10,"geometry":{"type":"Polygon","coordinates":[[[-75.37183,5.37541],[-75.37183,5.37543],[-75.37182,5.37543],[-75.37182,5.37546],[-75.37182,5.37547],[-75.37181,5.37547],[-75.37181,5.37548],[-75.3718,5.37548],[-75.3718,5.37549],[-75.3718,5.37549],[-75.3718,5.3755],[-75.37179,5.3755],[-75.37179,5.37551],[-75.37179,5.37552],[-75.37179,5.37554],[-75.37179,5.37555],[-75.37178,5.37555],[-75.37178,5.37556],[-75.37178,5.37557],[-75.37179,5.37559],[-75.37188,5.37567],[-75.37196,5.37556],[-75.37183,5.37541],[-75.37183,5.37541]]]},"properties":{"FID":10,"OBJECTID":11,"E_EXPUESTO":"Construcciones","Priorizaci":"Corto plazo","Area_Ha":0.0290549917604,"Shape_Leng":76.1221994655,"Shape_Area":290.549917604}},{"type":"Feature","id":11,"geometry":{"type":"Polygon","coordinates":[[[-75.37218,5.37592],[-75.37219,5.3759],[-75.37221,5.37588],[-75.37222,5.37587],[-75.37224,5.37584],[-75.37231,5.37576],[-75.3724,5.37566],[-75.37239,5.37566],[-75.37239,5.37565],[-75.37235,5.37565],[-75.37235,5.37562],[-75.37234,5.37562],[-75.37234,5.37561],[-75.37234,5.3756],[-75.37233,5.3756],[-75.37233,5.37559],[-75.37232,5.37559],[-75.37232,5.37558],[-75.37231,5.37558],[-75.37231,5.37557],[-75.3723,5.37557],[-75.3723,5.37556],[-75.37229,5.37556],[-75.37229,5.37554],[-75.37229,5.37553],[-75.3723,5.37553],[-75.3723,5.37552],[-75.3723,5.37551],[-75.3723,5.3755],[-75.37229,5.3755],[-75.37228,5.3755],[-75.37228,5.37549],[-75.37227,5.37549],[-75.37227,5.37548],[-75.37226,5.37548],[-75.37226,5.37547],[-75.37226,5.37547],[-75.37226,5.37544],[-75.37225,5.37544],[-75.37225,5.37542],[-75.37224,5.37542],[-75.37224,5.3754],[-75.37223,5.3754],[-75.37223,5.37539],[-75.37223,5.37538],[-75.37222,5.37538],[-75.37222,5.37537],[-75.37221,5.37537],[-75.37221,5.37536],[-75.37221,5.37535],[-75.3722,5.37535],[-75.37219,5.37535],[-75.37218,5.37535],[-75.37216,5.37535],[-75.37216,5.37536],[-75.37215,5.37536],[-75.37211,5.37536],[-75.37211,5.37535],[-75.37209,5.37535],[-75.37209,5.37535],[-75.37209,5.37536],[-75.37209,5.37536],[-75.37206,5.37539],[-75.37231,5.37559],[-75.37214,5.37578],[-75.37212,5.37576],[-75.37206,5.3757],[-75.37201,5.37568],[-75.37197,5.37575],[-75.37218,5.37592]]]},"properties":{"FID":11,"OBJECTID":12,"E_EXPUESTO":"Construcciones","Priorizaci":"Corto plazo","Area_Ha":0.0890477827012,"Shape_Leng":234.972070787,"Shape_Area":890.477827012}},{"type":"Feature","id":12,"geometry":{"type":"MultiPolygon","coordinates":[[[[-75.37148,5.37624],[-75.37149,5.37625],[-75.37151,5.37626],[-75.37151,5.37626],[-75.37154,5.37626],[-75.37155,5.37626],[-75.37155,5.37626],[-75.37155,5.37625],[-75.37155,5.37624],[-75.37156,5.37624],[-75.37156,5.37623],[-75.37156,5.37621],[-75.37156,5.37619],[-75.37156,5.37616],[-75.37156,5.37615],[-75.37155,5.37614],[-75.37148,5.37624]]],[[[-75.37212,5.37598],[-75.37215,5.37595],[-75.372,5.37582],[-75.37197,5.37584],[-75.37198,5.37585],[-75.37199,5.37585],[-75.37199,5.37585],[-75.37199,5.37586],[-75.372,5.37586],[-75.372,5.37586],[-75.372,5.37587],[-75.372,5.37587],[-75.37201,5.37587],[-75.37201,5.37588],[-75.37201,5.37588],[-75.37202,5.37588],[-75.37202,5.37589],[-75.37202,5.37589],[-75.37203,5.37589],[-75.37203,5.37589],[-75.37203,5.3759],[-75.37204,5.3759],[-75.37204,5.37591],[-75.37205,5.37591],[-75.37205,5.37591],[-75.37206,5.37591],[-75.37206,5.37592],[-75.37207,5.37592],[-75.37208,5.37592],[-75.37208,5.37593],[-75.37209,5.37593],[-75.37209,5.37593],[-75.37209,5.37594],[-75.3721,5.37594],[-75.3721,5.37596],[-75.37211,5.37596],[-75.37211,5.37597],[-75.37212,5.37597],[-75.37212,5.37598]]]]},"properties":{"FID":12,"OBJECTID":13,"E_EXPUESTO":"Construcciones","Priorizaci":"Corto plazo","Area_Ha":0.0148730838988,"Shape_Leng":95.8828601991,"Shape_Area":148.730838988}},{"type":"Feature","id":13,"geometry":{"type":"Polygon","coordinates":[[[-75.37153,5.37572],[-75.37153,5.37573],[-75.37152,5.37573],[-75.37152,5.37573],[-75.37152,5.37573],[-75.37152,5.37574],[-75.37151,5.37574],[-75.37151,5.37575],[-75.3715,5.37575],[-75.3715,5.37576],[-75.3715,5.37577],[-75.37149,5.37577],[-75.37149,5.37578],[-75.37149,5.37579],[-75.37148,5.37579],[-75.37148,5.3758],[-75.37148,5.37581],[-75.37147,5.37581],[-75.37147,5.37582],[-75.37146,5.37582],[-75.37146,5.37583],[-75.37146,5.37583],[-75.37145,5.37583],[-75.37144,5.37583],[-75.37144,5.37584],[-75.37144,5.37584],[-75.37144,5.37585],[-75.37144,5.37586],[-75.37143,5.37586],[-75.37143,5.37587],[-75.37142,5.37587],[-75.37141,5.37587],[-75.37141,5.37588],[-75.37146,5.37593],[-75.37158,5.37581],[-75.37155,5.37577],[-75.37158,5.37576],[-75.37153,5.37571],[-75.37153,5.37572]]]},"properties":{"FID":13,"OBJECTID":14,"E_EXPUESTO":"Construcciones","Priorizaci":"Corto plazo","Area_Ha":0.0193765802961,"Shape_Leng":73.5222806797,"Shape_Area":193.765802961}},{"type":"Feature","id":14,"geometry":{"type":"Polygon","coordinates":[[[-75.37131,5.37595],[-75.37131,5.37596],[-75.37131,5.37597],[-75.3713,5.37597],[-75.3713,5.37598],[-75.3713,5.37599],[-75.3713,5.376],[-75.3713,5.37601],[-75.3713,5.37602],[-75.3713,5.37602],[-75.37129,5.37602],[-75.37129,5.37603],[-75.37129,5.37604],[-75.37129,5.37604],[-75.37132,5.37608],[-75.37139,5.376],[-75.37133,5.37594],[-75.37131,5.37595]]]},"properties":{"FID":14,"OBJECTID":15,"E_EXPUESTO":"Construcciones","Priorizaci":"Corto plazo","Area_Ha":0.00931124129237,"Shape_Leng":41.2454849561,"Shape_Area":93.1124129237}},{"type":"Feature","id":15,"geometry":{"type":"Polygon","coordinates":[[[-75.37153,5.37637],[-75.37153,5.37637],[-75.37153,5.37637],[-75.37153,5.37637]]]},"properties":{"FID":15,"OBJECTID":16,"E_EXPUESTO":"Construcciones","Priorizaci":"Corto plazo","Area_Ha":7.85399993351e-08,"Shape_Leng":0.136361185409,"Shape_Area":0.000785399993351}},{"type":"Feature","id":16,"geometry":{"type":"MultiPolygon","coordinates":[[[[-75.37089,5.37649],[-75.37089,5.3765],[-75.37088,5.3765],[-75.37088,5.3765],[-75.37088,5.37651],[-75.3709,5.37649],[-75.37089,5.37649]]],[[[-75.37092,5.37641],[-75.37092,5.37642],[-75.37091,5.37642],[-75.37091,5.37643],[-75.37091,5.37644],[-75.37091,5.37645],[-75.3709,5.37645],[-75.3709,5.37646],[-75.37091,5.37647],[-75.3709,5.37647],[-75.3709,5.37648],[-75.3709,5.37649],[-75.37098,5.37638],[-75.37101,5.3764],[-75.3711,5.3763],[-75.3711,5.37629],[-75.37109,5.37629],[-75.37109,5.37629],[-75.37109,5.37628],[-75.37108,5.37628],[-75.37108,5.37629],[-75.37107,5.37629],[-75.37107,5.3763],[-75.37107,5.37631],[-75.37106,5.37631],[-75.37103,5.37631],[-75.37101,5.37631],[-75.371,5.37631],[-75.371,5.37631],[-75.37091,5.3764],[-75.37091,5.3764],[-75.37092,5.3764],[-75.37092,5.37641]]]]},"properties":{"FID":16,"OBJECTID":17,"E_EXPUESTO":"Construcciones","Priorizaci":"Corto plazo","Area_Ha":0.0122983218411,"Shape_Leng":85.8119449933,"Shape_Area":122.983218411}},{"type":"Feature","id":17,"geometry":{"type":"Polygon","coordinates":[[[-75.37131,5.37617],[-75.3713,5.37617],[-75.37129,5.37617],[-75.37129,5.37618],[-75.37128,5.37618],[-75.37128,5.37619],[-75.37127,5.37619],[-75.37127,5.3762],[-75.37127,5.37621],[-75.37127,5.37621],[-75.37127,5.37621],[-75.37126,5.37621],[-75.37126,5.37622],[-75.37126,5.37623],[-75.37125,5.37623],[-75.37125,5.37624],[-75.37124,5.37624],[-75.37125,5.37625],[-75.37133,5.37619],[-75.37128,5.37612],[-75.37127,5.37612],[-75.37127,5.37616],[-75.3713,5.37616],[-75.37131,5.37616],[-75.37131,5.37617]]]},"properties":{"FID":17,"OBJECTID":18,"E_EXPUESTO":"Construcciones","Priorizaci":"Corto plazo","Area_Ha":0.00408358223715,"Shape_Leng":47.6489572724,"Shape_Area":40.8358223715}},{"type":"Feature","id":18,"geometry":{"type":"Polygon","coordinates":[[[-75.37059,5.37676],[-75.37058,5.37676],[-75.37058,5.37677],[-75.37056,5.37677],[-75.37056,5.37679],[-75.37055,5.37679],[-75.37055,5.37679],[-75.37054,5.37679],[-75.37054,5.3768],[-75.37054,5.3768],[-75.37054,5.37681],[-75.37057,5.37685],[-75.37065,5.37676],[-75.37065,5.37676],[-75.37064,5.37676],[-75.37064,5.37676],[-75.37063,5.37676],[-75.37063,5.37675],[-75.37062,5.37675],[-75.37059,5.37675],[-75.37059,5.37676]]]},"properties":{"FID":18,"OBJECTID":19,"E_EXPUESTO":"Construcciones","Priorizaci":"Corto plazo","Area_Ha":0.00655055796681,"Shape_Leng":39.8169308965,"Shape_Area":65.5055796681}},{"type":"Feature","id":19,"geometry":{"type":"Polygon","coordinates":[[[-75.37005,5.37687],[-75.37041,5.37691],[-75.37041,5.37687],[-75.37041,5.37687],[-75.3704,5.37687],[-75.3704,5.37686],[-75.37039,5.37686],[-75.37039,5.37685],[-75.37039,5.37684],[-75.37039,5.37684],[-75.37021,5.37682],[-75.37021,5.37682],[-75.37019,5.37682],[-75.37018,5.37682],[-75.37015,5.37682],[-75.37014,5.37682],[-75.37012,5.37682],[-75.37009,5.37682],[-75.37008,5.37682],[-75.37008,5.37681],[-75.37007,5.37681],[-75.37007,5.37682],[-75.37006,5.37682],[-75.37005,5.37687]]]},"properties":{"FID":19,"OBJECTID":20,"E_EXPUESTO":"Construcciones","Priorizaci":"Corto plazo","Area_Ha":0.0256878703846,"Shape_Leng":93.5593777264,"Shape_Area":256.878703846}},{"type":"Feature","id":20,"geometry":{"type":"MultiPolygon","coordinates":[[[[-75.37045,5.37706],[-75.37046,5.37706],[-75.37046,5.37706],[-75.37047,5.37706],[-75.37048,5.37706],[-75.37048,5.37706],[-75.37042,5.37702],[-75.37042,5.37703],[-75.37042,5.37703],[-75.37043,5.37703],[-75.37043,5.37704],[-75.37044,5.37704],[-75.37044,5.37705],[-75.37045,5.37705],[-75.37045,5.37706]]],[[[-75.37098,5.37691],[-75.37098,5.37691],[-75.37098,5.37691],[-75.37098,5.37691]]],[[[-75.37098,5.3769],[-75.37099,5.3769],[-75.37099,5.3769],[-75.37098,5.3769]]]]},"properties":{"FID":20,"OBJECTID":21,"E_EXPUESTO":"Construcciones","Priorizaci":"Corto plazo","Area_Ha":0.0010388018261,"Shape_Leng":21.7471298296,"Shape_Area":10.388018261}},{"type":"Feature","id":21,"geometry":{"type":"Polygon","coordinates":[[[-75.37102,5.37755],[-75.37102,5.37756],[-75.37102,5.37757],[-75.37102,5.37757],[-75.37111,5.37749],[-75.37103,5.37741],[-75.37106,5.37738],[-75.37106,5.37737],[-75.37102,5.37737],[-75.37102,5.37738],[-75.37102,5.37738],[-75.37102,5.37739],[-75.37101,5.37739],[-75.37101,5.3774],[-75.371,5.3774],[-75.371,5.37741],[-75.37099,5.37741],[-75.37099,5.37742],[-75.37098,5.37742],[-75.37098,5.37743],[-75.37098,5.37744],[-75.37098,5.37744],[-75.37097,5.37744],[-75.37097,5.37745],[-75.37097,5.37746],[-75.37097,5.37747],[-75.37098,5.37747],[-75.37098,5.37748],[-75.37098,5.37749],[-75.37098,5.3775],[-75.37099,5.3775],[-75.37099,5.37751],[-75.371,5.37751],[-75.371,5.37752],[-75.371,5.37753],[-75.37101,5.37753],[-75.37101,5.37753],[-75.37101,5.37754],[-75.37102,5.37754],[-75.37102,5.37755]]]},"properties":{"FID":21,"OBJECTID":22,"E_EXPUESTO":"Construcciones","Priorizaci":"Corto plazo","Area_Ha":0.0172686167694,"Shape_Leng":68.9141117266,"Shape_Area":172.686167694}},{"type":"Feature","id":22,"geometry":{"type":"Polygon","coordinates":[[[-75.37046,5.37861],[-75.37045,5.37861],[-75.37045,5.37862],[-75.37044,5.37862],[-75.37044,5.37863],[-75.37043,5.37863],[-75.37043,5.37864],[-75.37045,5.37864],[-75.37046,5.37861],[-75.37046,5.37861]]]},"properties":{"FID":22,"OBJECTID":23,"E_EXPUESTO":"Construcciones","Priorizaci":"Corto plazo","Area_Ha":0.000593001031688,"Shape_Leng":12.1439360644,"Shape_Area":5.93001031688}},{"type":"Feature","id":23,"geometry":{"type":"MultiPolygon","coordinates":[[[[-75.37251,5.37722],[-75.37251,5.37723],[-75.37252,5.37722],[-75.37251,5.37722]]],[[[-75.37252,5.3772],[-75.37252,5.37721],[-75.37252,5.37722],[-75.37255,5.37719],[-75.37252,5.37716],[-75.37249,5.37716],[-75.37249,5.37718],[-75.3725,5.37718],[-75.3725,5.37719],[-75.37251,5.37719],[-75.37252,5.37719],[-75.37252,5.3772]]]]},"properties":{"FID":23,"OBJECTID":24,"E_EXPUESTO":"Construcciones","Priorizaci":"Corto plazo","Area_Ha":0.00197789477496,"Shape_Leng":25.2713588158,"Shape_Area":19.7789477496}},{"type":"Feature","id":24,"geometry":{"type":"Polygon","coordinates":[[[-75.3732,5.37744],[-75.3732,5.37744],[-75.3732,5.37743],[-75.3732,5.37744]]]},"properties":{"FID":24,"OBJECTID":25,"E_EXPUESTO":"Construcciones","Priorizaci":"Corto plazo","Area_Ha":1.8358665014e-05,"Shape_Leng":2.06884516239,"Shape_Area":0.18358665014}},{"type":"Feature","id":25,"geometry":{"type":"Polygon","coordinates":[[[-75.37217,5.37765],[-75.37219,5.37766],[-75.37219,5.37766],[-75.3722,5.37766],[-75.3722,5.37765],[-75.37221,5.37765],[-75.37222,5.37765],[-75.37222,5.37764],[-75.37222,5.37763],[-75.37222,5.37761],[-75.37222,5.37761],[-75.37217,5.37765]]]},"properties":{"FID":25,"OBJECTID":26,"E_EXPUESTO":"Construcciones","Priorizaci":"Corto plazo","Area_Ha":0.00144493968659,"Shape_Leng":18.1476107991,"Shape_Area":14.4493968659}},{"type":"Feature","id":26,"geometry":{"type":"Polygon","coordinates":[[[-75.37161,5.37787],[-75.37165,5.37784],[-75.37166,5.37787],[-75.37168,5.37785],[-75.37168,5.37785],[-75.37169,5.37785],[-75.37169,5.37785],[-75.37169,5.37784],[-75.3717,5.37784],[-75.37171,5.37783],[-75.37166,5.37778],[-75.37161,5.37777],[-75.37157,5.37777],[-75.37154,5.37778],[-75.37161,5.37787]]]},"properties":{"FID":26,"OBJECTID":27,"E_EXPUESTO":"Construcciones","Priorizaci":"Corto plazo","Area_Ha":0.0129056561107,"Shape_Leng":50.2334036575,"Shape_Area":129.056561107}},{"type":"Feature","id":27,"geometry":{"type":"Polygon","coordinates":[[[-75.37147,5.37787],[-75.37147,5.37788],[-75.37149,5.37788],[-75.3715,5.37788],[-75.37151,5.37788],[-75.37152,5.37788],[-75.37149,5.37785],[-75.37147,5.37787]]]},"properties":{"FID":27,"OBJECTID":28,"E_EXPUESTO":"Construcciones","Priorizaci":"Corto plazo","Area_Ha":0.000901333122591,"Shape_Leng":14.0835138512,"Shape_Area":9.01333122591}},{"type":"Feature","id":28,"geometry":{"type":"Polygon","coordinates":[[[-75.37124,5.37773],[-75.37127,5.37773],[-75.37127,5.37773],[-75.37129,5.37771],[-75.37114,5.37758],[-75.37109,5.37763],[-75.37116,5.3777],[-75.37118,5.3777],[-75.37118,5.37771],[-75.37121,5.37771],[-75.37121,5.37772],[-75.37122,5.37772],[-75.37122,5.37772],[-75.37123,5.37772],[-75.37124,5.37772],[-75.37124,5.37773]]]},"properties":{"FID":28,"OBJECTID":29,"E_EXPUESTO":"Construcciones","Priorizaci":"Corto plazo","Area_Ha":0.0162355038317,"Shape_Leng":61.2491098681,"Shape_Area":162.355038317}},{"type":"Feature","id":29,"geometry":{"type":"Polygon","coordinates":[[[-75.37102,5.37776],[-75.37107,5.3778],[-75.37108,5.3778],[-75.37108,5.37779],[-75.37109,5.37779],[-75.37109,5.37778],[-75.3711,5.37778],[-75.3711,5.37777],[-75.37111,5.37777],[-75.37112,5.37777],[-75.37112,5.37776],[-75.37112,5.37776],[-75.37112,5.37775],[-75.37113,5.37775],[-75.37113,5.37774],[-75.37113,5.37773],[-75.37109,5.37769],[-75.37102,5.37776]]]},"properties":{"FID":29,"OBJECTID":30,"E_EXPUESTO":"Construcciones","Priorizaci":"Corto plazo","Area_Ha":0.00786568590339,"Shape_Leng":38.6815328001,"Shape_Area":78.6568590339}},{"type":"Feature","id":30,"geometry":{"type":"Polygon","coordinates":[[[-75.37097,5.37824],[-75.37097,5.37824],[-75.37097,5.37823],[-75.37097,5.37824]]]},"properties":{"FID":30,"OBJECTID":31,"E_EXPUESTO":"Construcciones","Priorizaci":"Corto plazo","Area_Ha":1.06875409871e-05,"Shape_Leng":1.79757925319,"Shape_Area":0.106875409871}},{"type":"Feature","id":31,"geometry":{"type":"Polygon","coordinates":[[[-75.37074,5.37857],[-75.37076,5.37858],[-75.37077,5.37858],[-75.37077,5.37858],[-75.37077,5.37858],[-75.37077,5.37857],[-75.37077,5.37856],[-75.37078,5.37856],[-75.37078,5.37855],[-75.37078,5.37853],[-75.37078,5.37852],[-75.37074,5.37857]]]},"properties":{"FID":31,"OBJECTID":32,"E_EXPUESTO":"Construcciones","Priorizaci":"Corto plazo","Area_Ha":0.0013738124685,"Shape_Leng":18.5921263591,"Shape_Area":13.738124685}},{"type":"Feature","id":32,"geometry":{"type":"Polygon","coordinates":[[[-75.36999,5.37689],[-75.36999,5.3769],[-75.36999,5.3769],[-75.36999,5.37691],[-75.36999,5.37691],[-75.36999,5.37692],[-75.36999,5.37693],[-75.37001,5.3769],[-75.36999,5.37688],[-75.36999,5.37689]]]},"properties":{"FID":32,"OBJECTID":33,"E_EXPUESTO":"Construcciones","Priorizaci":"Corto plazo","Area_Ha":0.00057722194239,"Shape_Leng":12.6360657329,"Shape_Area":5.7722194239}},{"type":"Feature","id":33,"geometry":{"type":"MultiPolygon","coordinates":[[[[-75.37011,5.37849],[-75.37008,5.37851],[-75.37012,5.37853],[-75.37012,5.37852],[-75.37012,5.37852],[-75.37012,5.37851],[-75.37012,5.3785],[-75.37012,5.37849],[-75.37013,5.37849],[-75.37013,5.37848],[-75.37014,5.37848],[-75.37014,5.37847],[-75.37011,5.37849]]],[[[-75.37015,5.37846],[-75.37014,5.37847],[-75.37015,5.37847],[-75.37015,5.37846],[-75.37015,5.37846]]],[[[-75.37015,5.37846],[-75.37016,5.37846],[-75.37016,5.37845],[-75.37015,5.37846]]],[[[-75.37019,5.37842],[-75.37016,5.37845],[-75.37016,5.37845],[-75.37017,5.37845],[-75.37018,5.37845],[-75.37018,5.37844],[-75.37019,5.37844],[-75.37019,5.37843],[-75.3702,5.37843],[-75.3702,5.37842],[-75.3702,5.37841],[-75.37021,5.37841],[-75.37021,5.3784],[-75.37021,5.3784],[-75.37019,5.37842]]],[[[-75.37021,5.3784],[-75.37021,5.3784],[-75.37021,5.37839],[-75.37021,5.37838],[-75.37021,5.3784]]],[[[-75.37023,5.37832],[-75.37023,5.37833],[-75.37023,5.37833],[-75.37023,5.37832],[-75.37023,5.37832],[-75.37023,5.37832]]],[[[-75.37024,5.37831],[-75.37025,5.37831],[-75.37026,5.37831],[-75.37026,5.37831],[-75.37024,5.37831]]],[[[-75.3703,5.37823],[-75.37027,5.37825],[-75.37026,5.37828],[-75.37026,5.3783],[-75.37027,5.3783],[-75.37027,5.3783],[-75.37027,5.37829],[-75.37027,5.37828],[-75.37028,5.37828],[-75.37029,5.37828],[-75.37029,5.37827],[-75.37029,5.37826],[-75.3703,5.37826],[-75.3703,5.37826],[-75.3703,5.37825],[-75.3703,5.37824],[-75.37031,5.37824],[-75.37031,5.37823],[-75.37032,5.37823],[-75.37032,5.37822],[-75.37033,5.37822],[-75.37033,5.37821],[-75.37034,5.37821],[-75.37034,5.37819],[-75.37035,5.37819],[-75.37035,5.37818],[-75.37035,5.37817],[-75.37033,5.37816],[-75.3703,5.37823]]]]},"properties":{"FID":33,"OBJECTID":34,"E_EXPUESTO":"Construcciones","Priorizaci":"Corto plazo","Area_Ha":0.00620881613818,"Shape_Leng":103.117536176,"Shape_Area":62.0881613818}},{"type":"Feature","id":34,"geometry":{"type":"Polygon","coordinates":[[[-75.37012,5.37869],[-75.37013,5.37869],[-75.37014,5.37867],[-75.37014,5.37867],[-75.37013,5.37867],[-75.37013,5.37866],[-75.37013,5.37865],[-75.37012,5.37865],[-75.37012,5.37866],[-75.37012,5.37866],[-75.37012,5.37867],[-75.37012,5.37868],[-75.37011,5.37868],[-75.37011,5.37868],[-75.37012,5.37868],[-75.37012,5.37868],[-75.37012,5.37869]]]},"properties":{"FID":34,"OBJECTID":35,"E_EXPUESTO":"Construcciones","Priorizaci":"Corto plazo","Area_Ha":0.00103780924647,"Shape_Leng":17.080274192,"Shape_Area":10.3780924647}},{"type":"Feature","id":35,"geometry":{"type":"MultiPolygon","coordinates":[[[[-75.36994,5.3786],[-75.36994,5.3786],[-75.36994,5.3786],[-75.36994,5.3786]]],[[[-75.36995,5.3786],[-75.36996,5.3786],[-75.36996,5.37859],[-75.36997,5.37859],[-75.36997,5.37859],[-75.36997,5.37858],[-75.36997,5.37856],[-75.36998,5.37856],[-75.36998,5.37855],[-75.36999,5.37855],[-75.37,5.37855],[-75.37,5.37856],[-75.37001,5.37856],[-75.37001,5.37857],[-75.37002,5.37857],[-75.37003,5.37857],[-75.37003,5.37858],[-75.37004,5.37858],[-75.37005,5.37858],[-75.36998,5.37853],[-75.36995,5.37859],[-75.36995,5.37859],[-75.36995,5.3786]]]]},"properties":{"FID":35,"OBJECTID":36,"E_EXPUESTO":"Construcciones","Priorizaci":"Corto plazo","Area_Ha":0.00188152954094,"Shape_Leng":39.6670559625,"Shape_Area":18.8152954094}},{"type":"Feature","id":36,"geometry":{"type":"MultiPolygon","coordinates":[[[[-75.36871,5.37953],[-75.36871,5.37953],[-75.36872,5.37953],[-75.36872,5.37952],[-75.36872,5.3795],[-75.36873,5.3795],[-75.36873,5.37948],[-75.36874,5.37948],[-75.36874,5.37946],[-75.36874,5.37945],[-75.36873,5.37945],[-75.36873,5.37937],[-75.36873,5.37937],[-75.36873,5.37936],[-75.36873,5.37935],[-75.36872,5.37935],[-75.36872,5.37934],[-75.36872,5.37932],[-75.36871,5.37933],[-75.36871,5.37934],[-75.3687,5.37936],[-75.36867,5.37941],[-75.36862,5.37944],[-75.36871,5.37953]]],[[[-75.36872,5.37932],[-75.36873,5.37932],[-75.36873,5.37932],[-75.36872,5.37932]]],[[[-75.36905,5.379],[-75.36905,5.37905],[-75.36903,5.37912],[-75.36902,5.37916],[-75.36902,5.37918],[-75.36902,5.37918],[-75.36903,5.37918],[-75.36903,5.37918],[-75.36904,5.37918],[-75.36905,5.37918],[-75.36906,5.37918],[-75.36906,5.37917],[-75.36907,5.37917],[-75.36908,5.37917],[-75.36908,5.37916],[-75.36909,5.37916],[-75.36909,5.37915],[-75.3691,5.37915],[-75.3691,5.37914],[-75.36911,5.37914],[-75.36911,5.37913],[-75.36912,5.37913],[-75.36912,5.37912],[-75.36912,5.37901],[-75.36912,5.379],[-75.36911,5.379],[-75.36911,5.37899],[-75.36911,5.37899],[-75.36911,5.37898],[-75.36911,5.37897],[-75.36911,5.37896],[-75.36912,5.37896],[-75.36912,5.37895],[-75.36912,5.37895],[-75.36912,5.37894],[-75.36913,5.37894],[-75.36913,5.37893],[-75.36914,5.37893],[-75.36914,5.37892],[-75.36914,5.37891],[-75.36915,5.37891],[-75.36915,5.3789],[-75.36916,5.3789],[-75.36916,5.37889],[-75.36917,5.37889],[-75.36917,5.37889],[-75.36918,5.37889],[-75.36919,5.37889],[-75.36919,5.37888],[-75.3692,5.37888],[-75.3692,5.37887],[-75.36921,5.37887],[-75.36921,5.37887],[-75.36922,5.37887],[-75.36922,5.37886],[-75.36924,5.37886],[-75.36924,5.37885],[-75.36929,5.37885],[-75.3693,5.37885],[-75.3693,5.37885],[-75.36931,5.37885],[-75.36931,5.37886],[-75.36932,5.37886],[-75.36933,5.37886],[-75.36934,5.37886],[-75.36927,5.37877],[-75.36923,5.37877],[-75.36918,5.37879],[-75.36912,5.37882],[-75.36909,5.37884],[-75.36908,5.37888],[-75.36906,5.37893],[-75.36905,5.379]]],[[[-75.36934,5.37887],[-75.36934,5.37887],[-75.36934,5.37886],[-75.36934,5.37887]]]]},"properties":{"FID":36,"OBJECTID":37,"E_EXPUESTO":"Equipamientos","Priorizaci":"Mediano plazo","Area_Ha":0.0605513704637,"Shape_Leng":213.053119301,"Shape_Area":605.513704637}},{"type":"Feature","id":37,"geometry":{"type":"Polygon","coordinates":[[[-75.37353,5.37394],[-75.37355,5.37395],[-75.37375,5.37392],[-75.37375,5.37391],[-75.37376,5.37391],[-75.37376,5.3739],[-75.37376,5.37389],[-75.37376,5.37389],[-75.37376,5.37388],[-75.37378,5.37388],[-75.37378,5.37387],[-75.37379,5.37387],[-75.37379,5.37386],[-75.3738,5.37386],[-75.37379,5.37381],[-75.37378,5.37381],[-75.37378,5.37382],[-75.37377,5.37382],[-75.37377,5.37377],[-75.37376,5.37377],[-75.37376,5.37376],[-75.37376,5.37375],[-75.37376,5.37371],[-75.37377,5.37371],[-75.37377,5.37368],[-75.37378,5.37368],[-75.37378,5.37367],[-75.37377,5.37367],[-75.37377,5.37366],[-75.37376,5.37366],[-75.37372,5.37366],[-75.37372,5.37365],[-75.3737,5.37365],[-75.3737,5.37364],[-75.3735,5.37365],[-75.37345,5.37365],[-75.37345,5.37366],[-75.37345,5.37367],[-75.37345,5.37368],[-75.37344,5.37368],[-75.37344,5.37369],[-75.37344,5.3737],[-75.37344,5.37371],[-75.37344,5.37372],[-75.37345,5.37372],[-75.37345,5.37372],[-75.37345,5.37373],[-75.37345,5.37373],[-75.37346,5.37373],[-75.37346,5.37374],[-75.37346,5.37375],[-75.37346,5.37376],[-75.37346,5.37377],[-75.37347,5.37377],[-75.37347,5.37378],[-75.37347,5.37379],[-75.37346,5.37379],[-75.37346,5.37379],[-75.37346,5.3738],[-75.37347,5.3738],[-75.37347,5.3738],[-75.37347,5.37381],[-75.37347,5.37382],[-75.37347,5.37382],[-75.37347,5.37383],[-75.37349,5.37384],[-75.37351,5.37386],[-75.37351,5.37388],[-75.3735,5.37392],[-75.37353,5.37394]],[[-75.37361,5.37391],[-75.37362,5.37391],[-75.37362,5.37392],[-75.37361,5.37392],[-75.37361,5.37391],[-75.37361,5.37391],[-75.37361,5.3739],[-75.37361,5.3739],[-75.37361,5.37391]],[[-75.37372,5.37389],[-75.37373,5.37389],[-75.37373,5.37391],[-75.37372,5.37391],[-75.37372,5.37389]]]},"properties":{"FID":37,"OBJECTID":38,"E_EXPUESTO":"Equipamientos Vitales","Priorizaci":"Corto plazo","Area_Ha":0.101787424186,"Shape_Leng":158.227115288,"Shape_Area":1017.87424186}},{"type":"Feature","id":38,"geometry":{"type":"Polygon","coordinates":[[[-75.37461,5.3742],[-75.37473,5.37419],[-75.37473,5.37418],[-75.37472,5.37418],[-75.37472,5.37416],[-75.37473,5.37416],[-75.37473,5.37415],[-75.37473,5.37411],[-75.37472,5.37411],[-75.37472,5.3741],[-75.37472,5.3741],[-75.37472,5.37409],[-75.37471,5.37409],[-75.37471,5.37408],[-75.3747,5.37408],[-75.3747,5.37407],[-75.37469,5.37407],[-75.37469,5.37406],[-75.37468,5.37406],[-75.37468,5.37406],[-75.37468,5.37405],[-75.37467,5.37405],[-75.37467,5.37404],[-75.37467,5.37403],[-75.37467,5.37396],[-75.37466,5.37396],[-75.37466,5.37395],[-75.37465,5.37395],[-75.37465,5.37394],[-75.37464,5.37394],[-75.37464,5.37392],[-75.37464,5.37391],[-75.37465,5.37391],[-75.37465,5.3739],[-75.37465,5.37389],[-75.37465,5.37388],[-75.37465,5.37386],[-75.37466,5.37386],[-75.37466,5.37385],[-75.37465,5.37385],[-75.37465,5.37384],[-75.37465,5.37383],[-75.37465,5.37382],[-75.37465,5.37379],[-75.37465,5.37378],[-75.37465,5.37378],[-75.37465,5.37377],[-75.37465,5.37376],[-75.37465,5.37375],[-75.37465,5.37374],[-75.37464,5.37374],[-75.37464,5.37373],[-75.37464,5.37372],[-75.37464,5.37371],[-75.37464,5.3737],[-75.37463,5.3737],[-75.37463,5.37369],[-75.37463,5.37368],[-75.37462,5.37368],[-75.37462,5.37367],[-75.37462,5.37366],[-75.37462,5.37365],[-75.37462,5.37364],[-75.37462,5.37363],[-75.37463,5.37363],[-75.37463,5.37362],[-75.37463,5.37361],[-75.37464,5.37361],[-75.37464,5.3736],[-75.37464,5.37359],[-75.37456,5.3736],[-75.37455,5.3736],[-75.37454,5.37363],[-75.37455,5.37366],[-75.37456,5.37371],[-75.37458,5.37373],[-75.37457,5.37377],[-75.37459,5.3738],[-75.3746,5.37382],[-75.3746,5.37383],[-75.37457,5.37389],[-75.37456,5.37402],[-75.3746,5.37411],[-75.37459,5.37415],[-75.37461,5.3742]]]},"properties":{"FID":38,"OBJECTID":39,"E_EXPUESTO":"Equipamientos","Priorizaci":"Mediano plazo","Area_Ha":0.0666555253084,"Shape_Leng":180.933740362,"Shape_Area":666.555253084}},{"type":"Feature","id":39,"geometry":{"type":"Polygon","coordinates":[[[-75.37447,5.37136],[-75.37448,5.37142],[-75.37448,5.37142],[-75.37448,5.37141],[-75.37449,5.37141],[-75.37449,5.3714],[-75.37452,5.3714],[-75.37452,5.37135],[-75.37447,5.37136]]]},"properties":{"FID":39,"OBJECTID":40,"E_EXPUESTO":"Construcciones","Priorizaci":"Corto plazo","Area_Ha":0.00252449825238,"Shape_Leng":22.753855556,"Shape_Area":25.2449825238}},{"type":"Feature","id":40,"geometry":{"type":"Polygon","coordinates":[[[-75.37421,5.37169],[-75.37422,5.37169],[-75.37422,5.37169],[-75.37421,5.37168],[-75.37421,5.37169]]]},"properties":{"FID":40,"OBJECTID":41,"E_EXPUESTO":"Construcciones","Priorizaci":"Corto plazo","Area_Ha":1.27757234847e-05,"Shape_Leng":1.45175518294,"Shape_Area":0.127757234847}},{"type":"Feature","id":41,"geometry":{"type":"Polygon","coordinates":[[[-75.37345,5.37204],[-75.37345,5.37204],[-75.37346,5.37203],[-75.37345,5.37203],[-75.37345,5.37204]]]},"properties":{"FID":41,"OBJECTID":42,"E_EXPUESTO":"Construcciones","Priorizaci":"Corto plazo","Area_Ha":6.45776554814e-05,"Shape_Leng":3.65512049763,"Shape_Area":0.645776554814}},{"type":"Feature","id":42,"geometry":{"type":"Polygon","coordinates":[[[-75.37363,5.37285],[-75.37372,5.37284],[-75.37372,5.3728],[-75.37371,5.3728],[-75.37371,5.37279],[-75.37372,5.37279],[-75.37372,5.37275],[-75.37363,5.37276],[-75.37363,5.37285]]]},"properties":{"FID":42,"OBJECTID":43,"E_EXPUESTO":"Construcciones","Priorizaci":"Corto plazo","Area_Ha":0.00982799802756,"Shape_Leng":41.5362839443,"Shape_Area":98.2799802756}},{"type":"Feature","id":43,"geometry":{"type":"MultiPolygon","coordinates":[[[[-75.37439,5.3734],[-75.37438,5.3734],[-75.37438,5.3734],[-75.37439,5.3734],[-75.37439,5.37339],[-75.37439,5.3734]]],[[[-75.3744,5.37323],[-75.3744,5.37324],[-75.3744,5.37325],[-75.3744,5.37325],[-75.3744,5.37318],[-75.37438,5.37318],[-75.37438,5.37319],[-75.37439,5.37319],[-75.37439,5.3732],[-75.37439,5.37322],[-75.3744,5.37322],[-75.3744,5.37323]]]]},"properties":{"FID":43,"OBJECTID":44,"E_EXPUESTO":"Construcciones","Priorizaci":"Corto plazo","Area_Ha":0.000848489288645,"Shape_Leng":24.5438282989,"Shape_Area":8.48489288645}},{"type":"Feature","id":44,"geometry":{"type":"MultiPolygon","coordinates":[[[[-75.37443,5.37386],[-75.37443,5.37387],[-75.37444,5.37387],[-75.37444,5.37386],[-75.37443,5.37386]]],[[[-75.37444,5.37385],[-75.37444,5.37387],[-75.37445,5.37387],[-75.37445,5.37385],[-75.37444,5.37385]]]]},"properties":{"FID":44,"OBJECTID":45,"E_EXPUESTO":"Construcciones","Priorizaci":"Corto plazo","Area_Ha":0.000299479999952,"Shape_Leng":9.99479999952,"Shape_Area":2.99479999952}},{"type":"Feature","id":45,"geometry":{"type":"Polygon","coordinates":[[[-75.37446,5.37501],[-75.37447,5.37501],[-75.37447,5.37499],[-75.37457,5.37499],[-75.37458,5.37499],[-75.37457,5.37495],[-75.37456,5.37493],[-75.37457,5.37491],[-75.37455,5.37486],[-75.37453,5.37482],[-75.37451,5.37482],[-75.37451,5.37483],[-75.37452,5.37483],[-75.37452,5.37484],[-75.37453,5.37484],[-75.37453,5.37485],[-75.37453,5.37486],[-75.37452,5.37486],[-75.37452,5.37487],[-75.37452,5.37488],[-75.37451,5.37488],[-75.37451,5.37491],[-75.3745,5.37491],[-75.37449,5.37491],[-75.37449,5.37491],[-75.37448,5.37491],[-75.37448,5.37492],[-75.37447,5.37492],[-75.37446,5.37492],[-75.37446,5.37493],[-75.37446,5.37494],[-75.37446,5.37494],[-75.37446,5.375],[-75.37446,5.37501],[-75.37446,5.37501],[-75.37446,5.37501]]]},"properties":{"FID":45,"OBJECTID":46,"E_EXPUESTO":"Construcciones","Priorizaci":"Corto plazo","Area_Ha":0.0148823715335,"Shape_Leng":70.0674015559,"Shape_Area":148.823715335}},{"type":"Feature","id":46,"geometry":{"type":"Polygon","coordinates":[[[-75.37363,5.37466],[-75.37363,5.37467],[-75.37369,5.37452],[-75.37362,5.37448],[-75.37362,5.37449],[-75.37362,5.37449],[-75.37362,5.3745],[-75.37362,5.37451],[-75.37363,5.37452],[-75.37363,5.37452],[-75.37363,5.37455],[-75.37363,5.37459],[-75.37363,5.37459],[-75.37363,5.3746],[-75.37362,5.3746],[-75.37362,5.37464],[-75.37363,5.37464],[-75.37363,5.37465],[-75.37363,5.37465],[-75.37363,5.37466]]]},"properties":{"FID":46,"OBJECTID":47,"E_EXPUESTO":"Construcciones","Priorizaci":"Corto plazo","Area_Ha":0.00770312968915,"Shape_Leng":53.6342397742,"Shape_Area":77.0312968915}},{"type":"Feature","id":47,"geometry":{"type":"Polygon","coordinates":[[[-75.3732,5.37331],[-75.37319,5.37331],[-75.37319,5.37332],[-75.37318,5.37332],[-75.37318,5.37333],[-75.37318,5.37334],[-75.37322,5.37334],[-75.37321,5.37323],[-75.37331,5.37324],[-75.37329,5.37309],[-75.37324,5.37308],[-75.37322,5.37292],[-75.37322,5.37292],[-75.37322,5.37293],[-75.37321,5.37293],[-75.37321,5.37294],[-75.37321,5.37295],[-75.37321,5.37296],[-75.37321,5.37297],[-75.37321,5.37298],[-75.37322,5.37298],[-75.37322,5.37301],[-75.37321,5.37301],[-75.37321,5.37303],[-75.37322,5.37303],[-75.37322,5.37305],[-75.37322,5.3731],[-75.37322,5.37311],[-75.37321,5.37311],[-75.37321,5.37315],[-75.37322,5.37315],[-75.37322,5.37315],[-75.37321,5.37315],[-75.37321,5.37316],[-75.37321,5.37317],[-75.3732,5.37317],[-75.3732,5.37318],[-75.37319,5.37318],[-75.37319,5.37319],[-75.37318,5.37319],[-75.37318,5.3732],[-75.37317,5.3732],[-75.37317,5.37324],[-75.37317,5.37325],[-75.37318,5.37324],[-75.37318,5.37326],[-75.37318,5.37327],[-75.37319,5.37327],[-75.37319,5.37328],[-75.3732,5.37328],[-75.3732,5.37331]]]},"properties":{"FID":47,"OBJECTID":48,"E_EXPUESTO":"Construcciones","Priorizaci":"Corto plazo","Area_Ha":0.0254679453138,"Shape_Leng":127.743340409,"Shape_Area":254.679453138}},{"type":"Feature","id":48,"geometry":{"type":"Polygon","coordinates":[[[-75.37334,5.37272],[-75.37332,5.37272],[-75.37331,5.37272],[-75.37331,5.37272],[-75.3733,5.37272],[-75.3733,5.37273],[-75.37329,5.37273],[-75.37328,5.37273],[-75.37327,5.37273],[-75.37327,5.37274],[-75.37326,5.37274],[-75.37325,5.37274],[-75.37325,5.37275],[-75.37325,5.37275],[-75.37325,5.37289],[-75.37337,5.37288],[-75.37334,5.37272],[-75.37334,5.37272]]]},"properties":{"FID":48,"OBJECTID":49,"E_EXPUESTO":"Construcciones","Priorizaci":"Corto plazo","Area_Ha":0.0208685875192,"Shape_Leng":60.3505302335,"Shape_Area":208.685875192}},{"type":"Feature","id":49,"geometry":{"type":"Polygon","coordinates":[[[-75.37329,5.37296],[-75.37329,5.37302],[-75.37334,5.37303],[-75.37334,5.37296],[-75.37329,5.37296]]]},"properties":{"FID":49,"OBJECTID":50,"E_EXPUESTO":"Construcciones","Priorizaci":"Corto plazo","Area_Ha":0.00390230748115,"Shape_Leng":25.3370276013,"Shape_Area":39.0230748115}},{"type":"Feature","id":50,"geometry":{"type":"Polygon","coordinates":[[[-75.37372,5.37342],[-75.37374,5.37346],[-75.37365,5.37346],[-75.37365,5.37353],[-75.37378,5.37352],[-75.37378,5.37351],[-75.37379,5.37351],[-75.37379,5.37351],[-75.37379,5.37351],[-75.37379,5.3735],[-75.3738,5.3735],[-75.3738,5.37349],[-75.37381,5.37349],[-75.37381,5.37348],[-75.37382,5.37348],[-75.37382,5.37343],[-75.37382,5.37342],[-75.37381,5.37342],[-75.37381,5.37341],[-75.3738,5.37341],[-75.3738,5.3734],[-75.37379,5.3734],[-75.37379,5.37337],[-75.37377,5.37337],[-75.37376,5.37341],[-75.37372,5.37342]]]},"properties":{"FID":50,"OBJECTID":51,"E_EXPUESTO":"Construcciones","Priorizaci":"Corto plazo","Area_Ha":0.0192086048406,"Shape_Leng":72.3364836238,"Shape_Area":192.086048406}},{"type":"Feature","id":51,"geometry":{"type":"Polygon","coordinates":[[[-75.36996,5.37898],[-75.36995,5.37898],[-75.36995,5.37898],[-75.36998,5.37898],[-75.36999,5.37898],[-75.37,5.37898],[-75.37,5.37897],[-75.37001,5.37897],[-75.37002,5.37897],[-75.37003,5.37897],[-75.37004,5.37897],[-75.37004,5.37897],[-75.37004,5.37897],[-75.37004,5.37896],[-75.37005,5.37896],[-75.37006,5.37896],[-75.37006,5.37895],[-75.37007,5.37895],[-75.37007,5.37896],[-75.37009,5.37896],[-75.37009,5.37895],[-75.3701,5.37895],[-75.37011,5.37895],[-75.37011,5.37894],[-75.37012,5.37894],[-75.37013,5.37894],[-75.37013,5.37894],[-75.37014,5.37894],[-75.37015,5.37894],[-75.37017,5.37894],[-75.37018,5.37894],[-75.37019,5.37894],[-75.37019,5.37895],[-75.3702,5.37895],[-75.3702,5.37896],[-75.37021,5.37896],[-75.37021,5.37895],[-75.37022,5.37895],[-75.37022,5.37895],[-75.37022,5.37894],[-75.37023,5.37894],[-75.37023,5.37893],[-75.37024,5.37893],[-75.37024,5.37892],[-75.37025,5.37892],[-75.37025,5.37891],[-75.37026,5.37891],[-75.37026,5.3789],[-75.37026,5.37889],[-75.37027,5.37889],[-75.37027,5.37887],[-75.37027,5.37886],[-75.37026,5.37886],[-75.37025,5.37885],[-75.37022,5.37887],[-75.37021,5.37887],[-75.37016,5.37885],[-75.37015,5.37887],[-75.3701,5.37888],[-75.37008,5.37888],[-75.36996,5.37898]]]},"properties":{"FID":51,"OBJECTID":52,"E_EXPUESTO":"Construcciones","Priorizaci":"Corto plazo","Area_Ha":0.0226179454376,"Shape_Leng":96.5749132139,"Shape_Area":226.179454376}},{"type":"Feature","id":52,"geometry":{"type":"Polygon","coordinates":[[[-75.36841,5.37986],[-75.36841,5.37986],[-75.36841,5.37986],[-75.36841,5.37986]]]},"properties":{"FID":52,"OBJECTID":53,"E_EXPUESTO":"Construcciones","Priorizaci":"Corto plazo","Area_Ha":9.86325897323e-06,"Shape_Leng":1.62971441884,"Shape_Area":0.0986325897323}},{"type":"Feature","id":53,"geometry":{"type":"Polygon","coordinates":[[[-75.37004,5.37874],[-75.37004,5.37875],[-75.37004,5.37876],[-75.37004,5.37874],[-75.37004,5.37874]]]},"properties":{"FID":53,"OBJECTID":54,"E_EXPUESTO":"Construcciones","Priorizaci":"Corto plazo","Area_Ha":8.13479959855e-05,"Shape_Leng":4.62655438887,"Shape_Area":0.813479959855}}]}