{"type":"FeatureCollection","name":"COND_RIESGO_AV_TRR_SF","crs":{"type":"name","properties":{"name":"urn:ogc:def:crs:OGC:1.3:CRS84"}},"features":[{"type":"Feature","id":0,"geometry":{"type":"Polygon","coordinates":[[[-75.37292,5.37561],[-75.37292,5.37561],[-75.37292,5.37558],[-75.37291,5.37558],[-75.37291,5.37557],[-75.37291,5.37556],[-75.37291,5.37552],[-75.37291,5.37552],[-75.37291,5.3755],[-75.37291,5.3755],[-75.37291,5.37548],[-75.37292,5.37548],[-75.37292,5.37545],[-75.37293,5.37545],[-75.37293,5.3754],[-75.37294,5.3754],[-75.37294,5.37527],[-75.37293,5.37527],[-75.37293,5.37526],[-75.37294,5.37526],[-75.37294,5.37524],[-75.37295,5.37524],[-75.37295,5.37523],[-75.37297,5.37523],[-75.37297,5.37522],[-75.37298,5.37522],[-75.37298,5.37521],[-75.373,5.37521],[-75.373,5.3752],[-75.37303,5.3752],[-75.37303,5.37519],[-75.37308,5.37519],[-75.37308,5.37518],[-75.3731,5.37518],[-75.3731,5.37517],[-75.37312,5.37517],[-75.37312,5.37516],[-75.37314,5.37516],[-75.37314,5.37515],[-75.37317,5.37515],[-75.37317,5.37514],[-75.3732,5.37514],[-75.3732,5.37513],[-75.37326,5.37513],[-75.37326,5.37513],[-75.37328,5.37513],[-75.37328,5.37512],[-75.37331,5.37512],[-75.37332,5.37512],[-75.3733,5.37509],[-75.37328,5.37508],[-75.37327,5.37508],[-75.37325,5.37511],[-75.3732,5.3751],[-75.37316,5.37511],[-75.37311,5.3751],[-75.37308,5.37512],[-75.37303,5.37514],[-75.37296,5.37515],[-75.37292,5.37517],[-75.3729,5.37519],[-75.37289,5.37522],[-75.37288,5.37526],[-75.37285,5.37532],[-75.37285,5.37538],[-75.37285,5.37544],[-75.37282,5.37548],[-75.3728,5.37552],[-75.37279,5.37555],[-75.37281,5.37555],[-75.37285,5.37558],[-75.37292,5.37561]]]},"properties":{"FID":0,"OBJECTID":1,"E_EXPUESTO":"Equipamientos","Priorizaci":"Mediano plazo","Area_Ha":0.0643709097048,"Shape_Leng":216.69756952,"Shape_Area":643.709097048}},{"type":"Feature","id":1,"geometry":{"type":"Polygon","coordinates":[[[-75.37212,5.37744],[-75.37223,5.37754],[-75.37226,5.3775],[-75.37226,5.3775],[-75.37227,5.3775],[-75.37228,5.37749],[-75.37229,5.37748],[-75.37219,5.37739],[-75.37217,5.37739],[-75.37217,5.3774],[-75.37216,5.3774],[-75.37216,5.37741],[-75.37214,5.37741],[-75.37214,5.37741],[-75.37213,5.37741],[-75.37213,5.37742],[-75.37212,5.37742],[-75.37212,5.37743],[-75.37212,5.37743],[-75.37212,5.37744]]]},"properties":{"FID":1,"OBJECTID":2,"E_EXPUESTO":"Equipamientos","Priorizaci":"Mediano plazo","Area_Ha":0.015429092405,"Shape_Leng":54.9332012174,"Shape_Area":154.29092405}},{"type":"Feature","id":2,"geometry":{"type":"MultiPolygon","coordinates":[[[[-75.37274,5.3755],[-75.37278,5.37533],[-75.37279,5.37513],[-75.37281,5.37506],[-75.3728,5.37506],[-75.3728,5.37505],[-75.37278,5.37505],[-75.37278,5.37506],[-75.37277,5.37506],[-75.37277,5.37507],[-75.37276,5.37507],[-75.37276,5.37508],[-75.37275,5.37508],[-75.37275,5.37509],[-75.37274,5.37509],[-75.37274,5.3751],[-75.37273,5.3751],[-75.37273,5.37513],[-75.37272,5.37513],[-75.37272,5.3752],[-75.37272,5.37521],[-75.37272,5.37526],[-75.37272,5.37526],[-75.37272,5.37527],[-75.37272,5.37533],[-75.37271,5.37533],[-75.37271,5.37537],[-75.3727,5.37537],[-75.3727,5.37541],[-75.37271,5.37541],[-75.37271,5.37543],[-75.37272,5.37543],[-75.37272,5.37545],[-75.37272,5.37545],[-75.37272,5.37546],[-75.37274,5.37546],[-75.37274,5.37547],[-75.37272,5.37547],[-75.37272,5.37546],[-75.37271,5.37546],[-75.37271,5.37546],[-75.37274,5.3755]]],[[[-75.37282,5.37499],[-75.37282,5.375],[-75.37281,5.375],[-75.37281,5.37505],[-75.37283,5.375],[-75.37284,5.37499],[-75.37282,5.37499]]],[[[-75.37285,5.37498],[-75.37285,5.37499],[-75.37286,5.37498],[-75.37285,5.37498]]],[[[-75.37291,5.37492],[-75.3729,5.37492],[-75.3729,5.37494],[-75.37289,5.37494],[-75.37289,5.37495],[-75.37288,5.37495],[-75.37288,5.37495],[-75.37286,5.37495],[-75.37286,5.37498],[-75.37295,5.37492],[-75.37294,5.37492],[-75.37294,5.37491],[-75.37291,5.37491],[-75.37291,5.37492]]],[[[-75.373,5.37494],[-75.37304,5.37496],[-75.37305,5.37494],[-75.373,5.37494]]]]},"properties":{"FID":2,"OBJECTID":3,"E_EXPUESTO":"Construcciones","Priorizaci":"Corto plazo","Area_Ha":0.0335100706218,"Shape_Leng":186.204800609,"Shape_Area":335.100706218}},{"type":"Feature","id":3,"geometry":{"type":"Polygon","coordinates":[[[-75.37348,5.37516],[-75.37354,5.37516],[-75.37354,5.37515],[-75.37355,5.37515],[-75.37355,5.37514],[-75.37356,5.37514],[-75.37356,5.37514],[-75.3735,5.3751],[-75.37344,5.37515],[-75.37348,5.37515],[-75.37348,5.37516]]]},"properties":{"FID":3,"OBJECTID":4,"E_EXPUESTO":"Construcciones","Priorizaci":"Corto plazo","Area_Ha":0.0049004606377,"Shape_Leng":34.4394592736,"Shape_Area":49.004606377}},{"type":"Feature","id":4,"geometry":{"type":"MultiPolygon","coordinates":[[[[-75.37289,5.37609],[-75.37294,5.37603],[-75.37294,5.37601],[-75.37292,5.37601],[-75.37292,5.376],[-75.37292,5.376],[-75.37292,5.37598],[-75.37292,5.37598],[-75.37292,5.37596],[-75.37292,5.37596],[-75.37292,5.37594],[-75.37292,5.37594],[-75.37292,5.37593],[-75.37291,5.37593],[-75.37291,5.37592],[-75.3729,5.37592],[-75.3729,5.37592],[-75.37287,5.37595],[-75.37282,5.37592],[-75.37279,5.37598],[-75.37289,5.37609]]],[[[-75.3729,5.37572],[-75.37291,5.37572],[-75.37291,5.37572],[-75.3729,5.37572]]]]},"properties":{"FID":4,"OBJECTID":5,"E_EXPUESTO":"Construcciones","Priorizaci":"Corto plazo","Area_Ha":0.0171869469179,"Shape_Leng":65.8992031904,"Shape_Area":171.869469179}},{"type":"Feature","id":5,"geometry":{"type":"MultiPolygon","coordinates":[[[[-75.37239,5.37577],[-75.37237,5.37579],[-75.3723,5.37588],[-75.37229,5.3759],[-75.3723,5.37591],[-75.37231,5.37592],[-75.37232,5.37592],[-75.37234,5.37594],[-75.37236,5.37593],[-75.37238,5.37593],[-75.37234,5.37589],[-75.37247,5.37575],[-75.37247,5.37575],[-75.37246,5.37575],[-75.37246,5.37575],[-75.37246,5.37574],[-75.37245,5.37574],[-75.37245,5.37573],[-75.37241,5.37573],[-75.37239,5.37577]]],[[[-75.37264,5.37551],[-75.37266,5.37549],[-75.37265,5.37548],[-75.37265,5.37549],[-75.37264,5.37549],[-75.37264,5.37551]]]]},"properties":{"FID":5,"OBJECTID":6,"E_EXPUESTO":"Construcciones","Priorizaci":"Corto plazo","Area_Ha":0.0143808022038,"Shape_Leng":77.7707191884,"Shape_Area":143.808022038}},{"type":"Feature","id":6,"geometry":{"type":"Polygon","coordinates":[[[-75.37321,5.37599],[-75.37319,5.37599],[-75.37319,5.37598],[-75.37317,5.37598],[-75.37317,5.37598],[-75.37315,5.37598],[-75.37315,5.37597],[-75.37311,5.37597],[-75.37311,5.37598],[-75.3731,5.37598],[-75.3731,5.37597],[-75.37307,5.37597],[-75.37291,5.37614],[-75.37302,5.37621],[-75.37318,5.37603],[-75.37321,5.37599]]]},"properties":{"FID":6,"OBJECTID":7,"E_EXPUESTO":"Construcciones","Priorizaci":"Corto plazo","Area_Ha":0.0405284426343,"Shape_Leng":92.5613590319,"Shape_Area":405.284426343}},{"type":"Feature","id":7,"geometry":{"type":"Polygon","coordinates":[[[-75.37318,5.37603],[-75.37336,5.37618],[-75.37341,5.37613],[-75.37337,5.37609],[-75.37334,5.37609],[-75.37334,5.37608],[-75.37332,5.37608],[-75.37332,5.37607],[-75.3733,5.37607],[-75.3733,5.37607],[-75.37329,5.37607],[-75.37329,5.37606],[-75.37328,5.37606],[-75.37328,5.37605],[-75.37327,5.37605],[-75.37327,5.37604],[-75.37326,5.37604],[-75.37326,5.37603],[-75.37325,5.37603],[-75.37325,5.37602],[-75.37324,5.37602],[-75.37324,5.37601],[-75.37323,5.37601],[-75.37323,5.376],[-75.37321,5.376],[-75.37321,5.37599],[-75.37321,5.37599],[-75.37318,5.37603]]]},"properties":{"FID":7,"OBJECTID":8,"E_EXPUESTO":"Construcciones","Priorizaci":"Corto plazo","Area_Ha":0.0171852537377,"Shape_Leng":75.1914304504,"Shape_Area":171.852537377}},{"type":"Feature","id":8,"geometry":{"type":"Polygon","coordinates":[[[-75.3722,5.37603],[-75.37222,5.37603],[-75.37218,5.376],[-75.37218,5.376],[-75.37218,5.376],[-75.37218,5.37601],[-75.37219,5.37601],[-75.37219,5.37602],[-75.3722,5.37602],[-75.3722,5.37603]]]},"properties":{"FID":8,"OBJECTID":9,"E_EXPUESTO":"Construcciones","Priorizaci":"Corto plazo","Area_Ha":0.000227684255691,"Shape_Leng":11.8187881974,"Shape_Area":2.27684255691}},{"type":"Feature","id":9,"geometry":{"type":"Polygon","coordinates":[[[-75.37251,5.37705],[-75.37251,5.37705],[-75.37262,5.37693],[-75.3726,5.37693],[-75.3726,5.37694],[-75.37257,5.37694],[-75.37257,5.37695],[-75.37257,5.37695],[-75.37257,5.37696],[-75.37256,5.37696],[-75.37256,5.37697],[-75.37255,5.37697],[-75.37255,5.37698],[-75.37253,5.37698],[-75.37253,5.37699],[-75.37252,5.37699],[-75.37252,5.377],[-75.37251,5.377],[-75.37251,5.37702],[-75.3725,5.37702],[-75.3725,5.37704],[-75.37251,5.37704],[-75.37251,5.37705]]]},"properties":{"FID":9,"OBJECTID":10,"E_EXPUESTO":"Construcciones","Priorizaci":"Corto plazo","Area_Ha":0.00469874499934,"Shape_Leng":44.5375730801,"Shape_Area":46.9874499934}},{"type":"Feature","id":10,"geometry":{"type":"Polygon","coordinates":[[[-75.3718,5.37559],[-75.37188,5.37567],[-75.37196,5.37556],[-75.37184,5.37542],[-75.37184,5.37543],[-75.37183,5.37543],[-75.37183,5.37547],[-75.37182,5.37547],[-75.37182,5.37548],[-75.37181,5.37548],[-75.37181,5.37549],[-75.3718,5.37549],[-75.3718,5.3755],[-75.3718,5.3755],[-75.3718,5.37552],[-75.37179,5.37552],[-75.37179,5.37557],[-75.3718,5.37557],[-75.3718,5.37559]]]},"properties":{"FID":10,"OBJECTID":11,"E_EXPUESTO":"Construcciones","Priorizaci":"Corto plazo","Area_Ha":0.0275378102502,"Shape_Leng":73.4788653022,"Shape_Area":275.378102502}},{"type":"Feature","id":11,"geometry":{"type":"MultiPolygon","coordinates":[[[[-75.37218,5.37592],[-75.37219,5.3759],[-75.37221,5.37588],[-75.37222,5.37587],[-75.37224,5.37584],[-75.37231,5.37576],[-75.37236,5.3757],[-75.37236,5.3757],[-75.37236,5.37569],[-75.37233,5.37569],[-75.37233,5.37565],[-75.37234,5.37565],[-75.37234,5.37562],[-75.37233,5.37562],[-75.37233,5.3756],[-75.37232,5.3756],[-75.37232,5.37559],[-75.37231,5.37559],[-75.37231,5.37558],[-75.3723,5.37558],[-75.37231,5.37559],[-75.37214,5.37578],[-75.37212,5.37576],[-75.37206,5.3757],[-75.37201,5.37568],[-75.37197,5.37575],[-75.37218,5.37592]]],[[[-75.3723,5.37558],[-75.3723,5.37557],[-75.37229,5.37557],[-75.37229,5.37556],[-75.37228,5.37556],[-75.37228,5.37553],[-75.37229,5.37553],[-75.37229,5.37551],[-75.37227,5.37551],[-75.37227,5.3755],[-75.37227,5.3755],[-75.37227,5.37549],[-75.37226,5.37549],[-75.37226,5.37548],[-75.37225,5.37548],[-75.37225,5.37546],[-75.37224,5.37546],[-75.37224,5.37545],[-75.37223,5.37545],[-75.37223,5.37544],[-75.37222,5.37544],[-75.37222,5.37543],[-75.37221,5.37543],[-75.37221,5.37541],[-75.3722,5.37541],[-75.3722,5.37539],[-75.37219,5.37539],[-75.37219,5.37536],[-75.37217,5.37536],[-75.37217,5.37537],[-75.37215,5.37537],[-75.37215,5.37538],[-75.37207,5.37538],[-75.37206,5.37539],[-75.3723,5.37558]]]]},"properties":{"FID":11,"OBJECTID":12,"E_EXPUESTO":"Construcciones","Priorizaci":"Corto plazo","Area_Ha":0.0777705007142,"Shape_Leng":228.694278787,"Shape_Area":777.705007142}},{"type":"Feature","id":12,"geometry":{"type":"MultiPolygon","coordinates":[[[[-75.37148,5.37624],[-75.37149,5.37625],[-75.37153,5.37628],[-75.37153,5.37625],[-75.37154,5.37625],[-75.37154,5.3762],[-75.37155,5.3762],[-75.37155,5.37619],[-75.37156,5.37619],[-75.37156,5.37616],[-75.37156,5.37615],[-75.37155,5.37614],[-75.37148,5.37624]]],[[[-75.37213,5.37594],[-75.37214,5.37594],[-75.372,5.37582],[-75.37197,5.37584],[-75.37198,5.37585],[-75.372,5.37585],[-75.372,5.37586],[-75.37201,5.37586],[-75.37201,5.37587],[-75.37202,5.37587],[-75.37202,5.37588],[-75.37203,5.37588],[-75.37203,5.37589],[-75.37204,5.37589],[-75.37204,5.3759],[-75.37205,5.3759],[-75.37205,5.37591],[-75.37207,5.37591],[-75.37207,5.37591],[-75.37208,5.37591],[-75.37208,5.37592],[-75.37211,5.37592],[-75.37211,5.37593],[-75.37213,5.37593],[-75.37213,5.37594]]]]},"properties":{"FID":12,"OBJECTID":13,"E_EXPUESTO":"Construcciones","Priorizaci":"Corto plazo","Area_Ha":0.0108332273864,"Shape_Leng":92.8077377847,"Shape_Area":108.332273864}},{"type":"Feature","id":13,"geometry":{"type":"Polygon","coordinates":[[[-75.37153,5.37572],[-75.37153,5.37572],[-75.37153,5.37573],[-75.37153,5.37574],[-75.37152,5.37574],[-75.37152,5.37575],[-75.37151,5.37575],[-75.37151,5.37577],[-75.3715,5.37577],[-75.3715,5.37579],[-75.37149,5.37579],[-75.37149,5.37581],[-75.37148,5.37581],[-75.37148,5.37582],[-75.37147,5.37582],[-75.37147,5.37583],[-75.37146,5.37583],[-75.37146,5.37584],[-75.37145,5.37584],[-75.37145,5.37585],[-75.37144,5.37585],[-75.37144,5.37586],[-75.37144,5.37586],[-75.37144,5.37587],[-75.37143,5.37587],[-75.37143,5.37588],[-75.37141,5.37588],[-75.37146,5.37593],[-75.37158,5.37581],[-75.37155,5.37577],[-75.37158,5.37576],[-75.37153,5.37572],[-75.37153,5.37572]]]},"properties":{"FID":13,"OBJECTID":14,"E_EXPUESTO":"Construcciones","Priorizaci":"Corto plazo","Area_Ha":0.0173968700305,"Shape_Leng":73.4743536998,"Shape_Area":173.968700305}},{"type":"Feature","id":14,"geometry":{"type":"Polygon","coordinates":[[[-75.37132,5.37595],[-75.37132,5.37596],[-75.37131,5.37596],[-75.37131,5.37602],[-75.3713,5.37602],[-75.3713,5.37604],[-75.37129,5.37604],[-75.37129,5.37604],[-75.37132,5.37608],[-75.37139,5.376],[-75.37133,5.37594],[-75.37132,5.37595]]]},"properties":{"FID":14,"OBJECTID":15,"E_EXPUESTO":"Construcciones","Priorizaci":"Corto plazo","Area_Ha":0.00848685684697,"Shape_Leng":41.8509389133,"Shape_Area":84.8685684697}},{"type":"Feature","id":15,"geometry":{"type":"MultiPolygon","coordinates":[[[[-75.37089,5.3765],[-75.37089,5.3765],[-75.37089,5.3765],[-75.37089,5.3765]]],[[[-75.37091,5.37647],[-75.37091,5.37647],[-75.37091,5.37647],[-75.37091,5.37647]]],[[[-75.37091,5.37645],[-75.37091,5.37646],[-75.37092,5.37645],[-75.37091,5.37645]]],[[[-75.37094,5.37643],[-75.37098,5.37638],[-75.37101,5.3764],[-75.37109,5.37631],[-75.37109,5.37631],[-75.37109,5.3763],[-75.37108,5.3763],[-75.37108,5.37632],[-75.37099,5.37632],[-75.37099,5.37632],[-75.37092,5.37639],[-75.37092,5.3764],[-75.37093,5.3764],[-75.37093,5.37641],[-75.37094,5.37641],[-75.37094,5.37643]]]]},"properties":{"FID":15,"OBJECTID":16,"E_EXPUESTO":"Construcciones","Priorizaci":"Corto plazo","Area_Ha":0.00906326615756,"Shape_Leng":64.9653220368,"Shape_Area":90.6326615756}},{"type":"Feature","id":16,"geometry":{"type":"Polygon","coordinates":[[[-75.37127,5.37622],[-75.37127,5.37622],[-75.37127,5.37623],[-75.37126,5.37623],[-75.37126,5.37624],[-75.37125,5.37624],[-75.37125,5.37625],[-75.37125,5.37625],[-75.37133,5.37619],[-75.3713,5.37615],[-75.3713,5.37615],[-75.37129,5.37615],[-75.37129,5.37616],[-75.37128,5.37616],[-75.37128,5.37618],[-75.37127,5.37618],[-75.37127,5.37619],[-75.37127,5.37619],[-75.37127,5.37621],[-75.37127,5.37621],[-75.37127,5.37621],[-75.37127,5.37622]]]},"properties":{"FID":16,"OBJECTID":17,"E_EXPUESTO":"Construcciones","Priorizaci":"Corto plazo","Area_Ha":0.00360985401215,"Shape_Leng":36.2150370973,"Shape_Area":36.0985401215}},{"type":"Feature","id":17,"geometry":{"type":"Polygon","coordinates":[[[-75.37064,5.37677],[-75.37064,5.37678],[-75.37061,5.37678],[-75.37061,5.37679],[-75.37058,5.37679],[-75.37058,5.37679],[-75.37057,5.37679],[-75.37057,5.37682],[-75.37055,5.37682],[-75.37055,5.37683],[-75.37057,5.37685],[-75.37065,5.37677],[-75.37064,5.37677]]]},"properties":{"FID":17,"OBJECTID":18,"E_EXPUESTO":"Construcciones","Priorizaci":"Corto plazo","Area_Ha":0.00271121279269,"Shape_Leng":31.6597230863,"Shape_Area":27.1121279269}},{"type":"Feature","id":18,"geometry":{"type":"Polygon","coordinates":[[[-75.37041,5.37691],[-75.37041,5.37688],[-75.37041,5.37688],[-75.37041,5.37687],[-75.37039,5.37687],[-75.37039,5.37685],[-75.37038,5.37685],[-75.37038,5.37684],[-75.37022,5.37682],[-75.37021,5.37682],[-75.37021,5.37683],[-75.37008,5.37683],[-75.37008,5.37684],[-75.37006,5.37684],[-75.37005,5.37687],[-75.37041,5.37691]]]},"properties":{"FID":18,"OBJECTID":19,"E_EXPUESTO":"Construcciones","Priorizaci":"Corto plazo","Area_Ha":0.0234291931971,"Shape_Leng":91.9697672566,"Shape_Area":234.291931971}},{"type":"Feature","id":19,"geometry":{"type":"Polygon","coordinates":[[[-75.37044,5.37705],[-75.37047,5.37705],[-75.37042,5.37702],[-75.37042,5.37703],[-75.37042,5.37703],[-75.37043,5.37703],[-75.37043,5.37704],[-75.37044,5.37704],[-75.37044,5.37705]]]},"properties":{"FID":19,"OBJECTID":20,"E_EXPUESTO":"Construcciones","Priorizaci":"Corto plazo","Area_Ha":0.000684888881533,"Shape_Leng":15.5485766992,"Shape_Area":6.84888881533}},{"type":"Feature","id":20,"geometry":{"type":"Polygon","coordinates":[[[-75.37102,5.37757],[-75.37111,5.37749],[-75.37103,5.37741],[-75.37105,5.37739],[-75.37104,5.37739],[-75.37104,5.37738],[-75.37102,5.37738],[-75.37102,5.37739],[-75.37102,5.37739],[-75.37102,5.3774],[-75.37101,5.3774],[-75.37101,5.37741],[-75.371,5.37741],[-75.371,5.37743],[-75.37099,5.37743],[-75.37099,5.37745],[-75.37098,5.37745],[-75.37098,5.37747],[-75.37098,5.37748],[-75.37099,5.37748],[-75.37099,5.37749],[-75.37099,5.3775],[-75.371,5.3775],[-75.371,5.37751],[-75.37101,5.37751],[-75.37101,5.37753],[-75.37101,5.37753],[-75.37102,5.37753],[-75.37102,5.37754],[-75.37102,5.37756],[-75.37102,5.37756],[-75.37102,5.37757]]]},"properties":{"FID":20,"OBJECTID":21,"E_EXPUESTO":"Construcciones","Priorizaci":"Corto plazo","Area_Ha":0.0148235564791,"Shape_Leng":63.3792448796,"Shape_Area":148.235564791}},{"type":"Feature","id":21,"geometry":{"type":"MultiPolygon","coordinates":[[[[-75.37044,5.37863],[-75.37044,5.37864],[-75.37044,5.37864],[-75.37045,5.37864],[-75.37046,5.37863],[-75.37044,5.37863]]],[[[-75.37046,5.37862],[-75.37046,5.37862],[-75.37046,5.37862],[-75.37046,5.37862]]]]},"properties":{"FID":21,"OBJECTID":22,"E_EXPUESTO":"Construcciones","Priorizaci":"Corto plazo","Area_Ha":0.000208104793101,"Shape_Leng":6.12693681463,"Shape_Area":2.08104793101}},{"type":"Feature","id":22,"geometry":{"type":"Polygon","coordinates":[[[-75.37249,5.37722],[-75.37249,5.37725],[-75.37249,5.37725],[-75.37255,5.37719],[-75.3725,5.37714],[-75.37249,5.37714],[-75.37249,5.37715],[-75.37249,5.37715],[-75.37249,5.37716],[-75.37249,5.37717],[-75.37248,5.37717],[-75.37248,5.37719],[-75.37249,5.37719],[-75.37249,5.37722]]]},"properties":{"FID":22,"OBJECTID":23,"E_EXPUESTO":"Construcciones","Priorizaci":"Corto plazo","Area_Ha":0.0053192676936,"Shape_Leng":33.7561367348,"Shape_Area":53.192676936}},{"type":"Feature","id":23,"geometry":{"type":"Polygon","coordinates":[[[-75.37217,5.37765],[-75.37218,5.37766],[-75.37219,5.37766],[-75.37219,5.37765],[-75.3722,5.37765],[-75.3722,5.37763],[-75.37221,5.37763],[-75.37221,5.37762],[-75.37222,5.37762],[-75.37222,5.37762],[-75.37222,5.37762],[-75.37222,5.37761],[-75.37217,5.37765]]]},"properties":{"FID":23,"OBJECTID":24,"E_EXPUESTO":"Construcciones","Priorizaci":"Corto plazo","Area_Ha":0.000914498074992,"Shape_Leng":19.0251778823,"Shape_Area":9.14498074992}},{"type":"Feature","id":24,"geometry":{"type":"Polygon","coordinates":[[[-75.3716,5.37787],[-75.3716,5.37787],[-75.37161,5.37787],[-75.37165,5.37784],[-75.37166,5.37787],[-75.37167,5.37787],[-75.37167,5.37786],[-75.37167,5.37786],[-75.37167,5.37785],[-75.37168,5.37785],[-75.37168,5.37784],[-75.3717,5.37784],[-75.3717,5.37783],[-75.37171,5.37783],[-75.37166,5.37778],[-75.37161,5.37777],[-75.37157,5.37777],[-75.37154,5.37778],[-75.3716,5.37786],[-75.3716,5.37786],[-75.3716,5.37787]]]},"properties":{"FID":24,"OBJECTID":25,"E_EXPUESTO":"Construcciones","Priorizaci":"Corto plazo","Area_Ha":0.012575975225,"Shape_Leng":51.6378627558,"Shape_Area":125.75975225}},{"type":"Feature","id":25,"geometry":{"type":"Polygon","coordinates":[[[-75.37149,5.37787],[-75.37151,5.37787],[-75.37149,5.37785],[-75.37148,5.37786],[-75.37149,5.37786],[-75.37149,5.37787]]]},"properties":{"FID":25,"OBJECTID":26,"E_EXPUESTO":"Construcciones","Priorizaci":"Corto plazo","Area_Ha":0.000303019489007,"Shape_Leng":8.32163531564,"Shape_Area":3.03019489007}},{"type":"Feature","id":26,"geometry":{"type":"Polygon","coordinates":[[[-75.37124,5.37772],[-75.37129,5.37772],[-75.37129,5.37771],[-75.37114,5.37758],[-75.37109,5.37763],[-75.37117,5.37771],[-75.37118,5.37771],[-75.37118,5.3777],[-75.37119,5.3777],[-75.37119,5.37769],[-75.37121,5.37769],[-75.37121,5.3777],[-75.37123,5.3777],[-75.37123,5.37771],[-75.37124,5.37771],[-75.37124,5.37772]]]},"properties":{"FID":26,"OBJECTID":27,"E_EXPUESTO":"Construcciones","Priorizaci":"Corto plazo","Area_Ha":0.0142636686378,"Shape_Leng":61.7569188351,"Shape_Area":142.636686378}},{"type":"Feature","id":27,"geometry":{"type":"Polygon","coordinates":[[[-75.37102,5.37776],[-75.37107,5.3778],[-75.37108,5.3778],[-75.37108,5.37779],[-75.37109,5.37779],[-75.3711,5.37779],[-75.3711,5.37778],[-75.37111,5.37778],[-75.37111,5.37777],[-75.37112,5.37777],[-75.37112,5.37777],[-75.37112,5.37776],[-75.37113,5.37776],[-75.37114,5.37776],[-75.37114,5.37775],[-75.37114,5.37774],[-75.37115,5.37774],[-75.37109,5.37769],[-75.37102,5.37776]]]},"properties":{"FID":27,"OBJECTID":28,"E_EXPUESTO":"Construcciones","Priorizaci":"Corto plazo","Area_Ha":0.00858615090007,"Shape_Leng":41.194510604,"Shape_Area":85.8615090007}},{"type":"Feature","id":28,"geometry":{"type":"Polygon","coordinates":[[[-75.37074,5.37857],[-75.37075,5.37858],[-75.37076,5.37858],[-75.37076,5.37857],[-75.37077,5.37857],[-75.37077,5.37854],[-75.37074,5.37857]]]},"properties":{"FID":28,"OBJECTID":29,"E_EXPUESTO":"Construcciones","Priorizaci":"Corto plazo","Area_Ha":0.000426160771837,"Shape_Leng":10.1463913848,"Shape_Area":4.26160771837}},{"type":"Feature","id":29,"geometry":{"type":"Polygon","coordinates":[[[-75.36999,5.37688],[-75.36999,5.37689],[-75.36999,5.3769],[-75.36999,5.37691],[-75.36998,5.37691],[-75.36998,5.37691],[-75.36999,5.37693],[-75.37001,5.3769],[-75.36999,5.37688],[-75.36999,5.37688]]]},"properties":{"FID":29,"OBJECTID":30,"E_EXPUESTO":"Construcciones","Priorizaci":"Corto plazo","Area_Ha":0.000993299996366,"Shape_Leng":15.1456172581,"Shape_Area":9.93299996366}},{"type":"Feature","id":30,"geometry":{"type":"MultiPolygon","coordinates":[[[[-75.37011,5.37849],[-75.37008,5.37851],[-75.37011,5.37852],[-75.37012,5.37852],[-75.37012,5.37851],[-75.37012,5.37851],[-75.37012,5.3785],[-75.37012,5.3785],[-75.37013,5.3785],[-75.37013,5.37849],[-75.37014,5.37849],[-75.37014,5.37847],[-75.37011,5.37849]]],[[[-75.37015,5.37846],[-75.37014,5.37847],[-75.37015,5.37847],[-75.37015,5.37846],[-75.37015,5.37846]]],[[[-75.37016,5.37845],[-75.37016,5.37845],[-75.37017,5.37845],[-75.37017,5.37844],[-75.37016,5.37845]]],[[[-75.37019,5.37842],[-75.37017,5.37844],[-75.37018,5.37844],[-75.37019,5.37844],[-75.37019,5.37843],[-75.3702,5.37843],[-75.3702,5.37841],[-75.3702,5.37841],[-75.37019,5.37842]]],[[[-75.3702,5.3784],[-75.37021,5.3784],[-75.37021,5.3784],[-75.3702,5.3784]]],[[[-75.37023,5.37832],[-75.37023,5.37834],[-75.37023,5.37834],[-75.37023,5.37833],[-75.37024,5.37833],[-75.37024,5.37832],[-75.37025,5.37832],[-75.37025,5.37831],[-75.37026,5.37831],[-75.37026,5.37831],[-75.37023,5.37832]]],[[[-75.3703,5.37823],[-75.37027,5.37825],[-75.37026,5.37828],[-75.37026,5.3783],[-75.37027,5.3783],[-75.37027,5.3783],[-75.37029,5.3783],[-75.37029,5.37829],[-75.3703,5.37829],[-75.3703,5.37828],[-75.3703,5.37828],[-75.3703,5.37827],[-75.37031,5.37827],[-75.37031,5.37826],[-75.37032,5.37826],[-75.37032,5.37825],[-75.37033,5.37825],[-75.37033,5.37824],[-75.37034,5.37824],[-75.37034,5.37822],[-75.37035,5.37822],[-75.37035,5.37821],[-75.37036,5.37821],[-75.37036,5.37818],[-75.37033,5.37816],[-75.3703,5.37823]]]]},"properties":{"FID":30,"OBJECTID":31,"E_EXPUESTO":"Construcciones","Priorizaci":"Corto plazo","Area_Ha":0.00930026236661,"Shape_Leng":99.0930865449,"Shape_Area":93.0026236661}},{"type":"Feature","id":31,"geometry":{"type":"MultiPolygon","coordinates":[[[[-75.37012,5.37871],[-75.37013,5.37871],[-75.37016,5.37862],[-75.37014,5.37861],[-75.37013,5.37861],[-75.37012,5.37861],[-75.37012,5.37862],[-75.3701,5.37862],[-75.3701,5.37862],[-75.37009,5.37864],[-75.3701,5.37864],[-75.3701,5.37863],[-75.37011,5.37863],[-75.37011,5.37864],[-75.37012,5.37864],[-75.37012,5.37867],[-75.37011,5.37867],[-75.37011,5.37868],[-75.3701,5.37868],[-75.3701,5.37868],[-75.37009,5.37868],[-75.37009,5.37868],[-75.37007,5.37868],[-75.37007,5.37869],[-75.37008,5.3787],[-75.37011,5.3787],[-75.37011,5.3787],[-75.37011,5.37869],[-75.37012,5.37869],[-75.37012,5.37871]],[[-75.37015,5.37864],[-75.37014,5.37864],[-75.37014,5.37863],[-75.37015,5.37863],[-75.37015,5.37864]]],[[[-75.37008,5.37867],[-75.37008,5.37867],[-75.37008,5.37866],[-75.37008,5.37867]]]]},"properties":{"FID":31,"OBJECTID":32,"E_EXPUESTO":"Construcciones","Priorizaci":"Corto plazo","Area_Ha":0.00473068576275,"Shape_Leng":53.9700300655,"Shape_Area":47.3068576275}},{"type":"Feature","id":32,"geometry":{"type":"Polygon","coordinates":[[[-75.37003,5.37866],[-75.37007,5.37858],[-75.36998,5.37853],[-75.36994,5.37862],[-75.37003,5.37866]],[[-75.37,5.37863],[-75.36999,5.37863],[-75.36999,5.37862],[-75.37,5.37862],[-75.37,5.37863]]]},"properties":{"FID":32,"OBJECTID":33,"E_EXPUESTO":"Construcciones","Priorizaci":"Corto plazo","Area_Ha":0.0113824500077,"Shape_Leng":47.0092198716,"Shape_Area":113.824500077}},{"type":"Feature","id":33,"geometry":{"type":"MultiPolygon","coordinates":[[[[-75.36867,5.37941],[-75.36862,5.37944],[-75.36871,5.37953],[-75.36871,5.37953],[-75.36871,5.37947],[-75.36872,5.37947],[-75.36872,5.37939],[-75.36873,5.37939],[-75.36873,5.37938],[-75.36872,5.37938],[-75.36872,5.37932],[-75.36871,5.37933],[-75.36871,5.37934],[-75.3687,5.37936],[-75.36867,5.37941]]],[[[-75.36905,5.37905],[-75.36903,5.37912],[-75.36902,5.37916],[-75.36901,5.37918],[-75.36902,5.37918],[-75.36902,5.37918],[-75.36904,5.37918],[-75.36905,5.37918],[-75.36905,5.37917],[-75.36906,5.37917],[-75.36907,5.37917],[-75.36907,5.37916],[-75.36908,5.37916],[-75.36909,5.37916],[-75.36909,5.37915],[-75.3691,5.37915],[-75.3691,5.37914],[-75.36911,5.37914],[-75.36911,5.37912],[-75.36912,5.37912],[-75.36912,5.37902],[-75.36911,5.37902],[-75.36911,5.37898],[-75.36912,5.37898],[-75.36912,5.37897],[-75.36912,5.37897],[-75.36912,5.37895],[-75.36912,5.37893],[-75.36913,5.37893],[-75.36913,5.37892],[-75.36914,5.37892],[-75.36914,5.37891],[-75.36915,5.37891],[-75.36915,5.3789],[-75.36916,5.3789],[-75.36916,5.37889],[-75.36917,5.37889],[-75.36917,5.37889],[-75.36919,5.37889],[-75.36919,5.37888],[-75.3692,5.37888],[-75.3692,5.37887],[-75.36921,5.37887],[-75.36921,5.37886],[-75.36923,5.37886],[-75.36923,5.37885],[-75.36926,5.37885],[-75.36926,5.37884],[-75.36928,5.37884],[-75.36928,5.37885],[-75.36931,5.37885],[-75.36931,5.37886],[-75.36932,5.37886],[-75.36932,5.37888],[-75.36931,5.37888],[-75.36931,5.37889],[-75.36933,5.37889],[-75.36933,5.37889],[-75.36934,5.37889],[-75.36934,5.37892],[-75.36935,5.37892],[-75.36935,5.37893],[-75.36937,5.37893],[-75.36937,5.37894],[-75.36938,5.37894],[-75.36938,5.37895],[-75.36939,5.37895],[-75.36939,5.37897],[-75.3694,5.37897],[-75.3694,5.37898],[-75.36941,5.37898],[-75.36941,5.37898],[-75.36942,5.37898],[-75.36943,5.37898],[-75.36927,5.37877],[-75.36923,5.37877],[-75.36918,5.37879],[-75.36912,5.37882],[-75.36909,5.37884],[-75.36908,5.37888],[-75.36906,5.37893],[-75.36905,5.379],[-75.36905,5.37905]]]]},"properties":{"FID":33,"OBJECTID":34,"E_EXPUESTO":"Equipamientos","Priorizaci":"Mediano plazo","Area_Ha":0.0615385611286,"Shape_Leng":254.339396369,"Shape_Area":615.385611286}},{"type":"Feature","id":34,"geometry":{"type":"Polygon","coordinates":[[[-75.37353,5.37394],[-75.37355,5.37395],[-75.37376,5.37392],[-75.37376,5.3739],[-75.37375,5.3739],[-75.37375,5.37389],[-75.37376,5.37389],[-75.37376,5.37389],[-75.37378,5.37389],[-75.37378,5.37388],[-75.3738,5.37388],[-75.3738,5.37387],[-75.3738,5.37387],[-75.3738,5.37385],[-75.37381,5.37385],[-75.37381,5.37382],[-75.37382,5.37382],[-75.37382,5.37381],[-75.37381,5.37381],[-75.37381,5.3738],[-75.37379,5.3738],[-75.37379,5.3738],[-75.37379,5.3738],[-75.37379,5.37377],[-75.37378,5.37377],[-75.37378,5.37375],[-75.37379,5.37375],[-75.37379,5.37374],[-75.37379,5.37374],[-75.37379,5.37372],[-75.3738,5.37372],[-75.3738,5.3737],[-75.37381,5.3737],[-75.37381,5.3737],[-75.37382,5.3737],[-75.37382,5.37369],[-75.37383,5.37369],[-75.37383,5.37367],[-75.37384,5.37367],[-75.37384,5.37364],[-75.3735,5.37365],[-75.37344,5.37366],[-75.37344,5.37366],[-75.37344,5.37367],[-75.37345,5.37367],[-75.37345,5.37368],[-75.37346,5.37368],[-75.37346,5.3737],[-75.37345,5.3737],[-75.37345,5.37371],[-75.37346,5.37371],[-75.37346,5.37373],[-75.37347,5.37373],[-75.37347,5.37379],[-75.37346,5.37379],[-75.37346,5.37379],[-75.37347,5.37383],[-75.37349,5.37384],[-75.37351,5.37386],[-75.37351,5.37388],[-75.3735,5.37392],[-75.37353,5.37394]],[[-75.37361,5.37391],[-75.37361,5.37391],[-75.37361,5.37392],[-75.37362,5.37392],[-75.37362,5.37393],[-75.37361,5.37393],[-75.37361,5.37391],[-75.3736,5.37391],[-75.3736,5.3739],[-75.37361,5.3739],[-75.37361,5.37391]]]},"properties":{"FID":34,"OBJECTID":35,"E_EXPUESTO":"Equipamientos Vitales","Priorizaci":"Corto plazo","Area_Ha":0.111950190953,"Shape_Leng":174.287063803,"Shape_Area":1119.50190953}},{"type":"Feature","id":35,"geometry":{"type":"Polygon","coordinates":[[[-75.37459,5.37415],[-75.37461,5.3742],[-75.37471,5.37419],[-75.37471,5.37413],[-75.3747,5.37413],[-75.3747,5.37411],[-75.37469,5.37411],[-75.37469,5.3741],[-75.37468,5.3741],[-75.37468,5.37409],[-75.37466,5.37409],[-75.37466,5.37403],[-75.37465,5.37403],[-75.37465,5.37392],[-75.37465,5.3739],[-75.37465,5.37388],[-75.37466,5.37388],[-75.37466,5.37387],[-75.37466,5.37378],[-75.37466,5.37377],[-75.37465,5.37377],[-75.37465,5.37376],[-75.37465,5.37375],[-75.37465,5.37374],[-75.37464,5.37374],[-75.37464,5.37369],[-75.37463,5.37369],[-75.37463,5.37367],[-75.37462,5.37367],[-75.37462,5.37365],[-75.37462,5.37364],[-75.37463,5.37364],[-75.37463,5.37363],[-75.37463,5.37362],[-75.37463,5.37361],[-75.37464,5.37361],[-75.37464,5.3736],[-75.37464,5.37359],[-75.37456,5.3736],[-75.37455,5.3736],[-75.37454,5.37363],[-75.37455,5.37366],[-75.37456,5.37371],[-75.37458,5.37373],[-75.37457,5.37376],[-75.37457,5.37377],[-75.37459,5.3738],[-75.3746,5.37382],[-75.3746,5.37383],[-75.37457,5.37389],[-75.37456,5.37402],[-75.3746,5.37411],[-75.37459,5.37415]]]},"properties":{"FID":35,"OBJECTID":36,"E_EXPUESTO":"Equipamientos","Priorizaci":"Mediano plazo","Area_Ha":0.0613694493603,"Shape_Leng":170.857079381,"Shape_Area":613.694493603}},{"type":"Feature","id":36,"geometry":{"type":"Polygon","coordinates":[[[-75.37447,5.37136],[-75.37447,5.37138],[-75.37448,5.37138],[-75.37448,5.37137],[-75.37452,5.37137],[-75.37452,5.37135],[-75.37447,5.37136]]]},"properties":{"FID":36,"OBJECTID":37,"E_EXPUESTO":"Construcciones","Priorizaci":"Corto plazo","Area_Ha":0.000852519078223,"Shape_Leng":15.1739331917,"Shape_Area":8.52519078223}},{"type":"Feature","id":37,"geometry":{"type":"Polygon","coordinates":[[[-75.37421,5.37171],[-75.37422,5.37171],[-75.37422,5.37169],[-75.37421,5.37168],[-75.37421,5.37169],[-75.37421,5.37169],[-75.37421,5.37171]]]},"properties":{"FID":37,"OBJECTID":38,"E_EXPUESTO":"Construcciones","Priorizaci":"Corto plazo","Area_Ha":0.000119443297478,"Shape_Leng":7.48853534434,"Shape_Area":1.19443297478}},{"type":"Feature","id":38,"geometry":{"type":"Polygon","coordinates":[[[-75.37363,5.37285],[-75.37372,5.37284],[-75.37372,5.37281],[-75.37371,5.37281],[-75.37371,5.37277],[-75.37372,5.37277],[-75.37372,5.37275],[-75.37363,5.37276],[-75.37363,5.37285]]]},"properties":{"FID":38,"OBJECTID":39,"E_EXPUESTO":"Construcciones","Priorizaci":"Corto plazo","Area_Ha":0.00957981808223,"Shape_Leng":41.5141755207,"Shape_Area":95.7981808223}},{"type":"Feature","id":39,"geometry":{"type":"Polygon","coordinates":[[[-75.3744,5.37318],[-75.3744,5.3732],[-75.3744,5.3732],[-75.3744,5.37318],[-75.3744,5.37318]]]},"properties":{"FID":39,"OBJECTID":40,"E_EXPUESTO":"Construcciones","Priorizaci":"Corto plazo","Area_Ha":6.274728901e-05,"Shape_Leng":4.27065134153,"Shape_Area":0.6274728901}},{"type":"Feature","id":40,"geometry":{"type":"MultiPolygon","coordinates":[[[[-75.37442,5.37388],[-75.37445,5.37388],[-75.37445,5.37384],[-75.37443,5.37384],[-75.37442,5.37384],[-75.37442,5.37385],[-75.37437,5.37385],[-75.37437,5.37386],[-75.3744,5.37386],[-75.3744,5.37387],[-75.37441,5.37387],[-75.37442,5.37387],[-75.37442,5.37388]]],[[[-75.37436,5.37374],[-75.37438,5.37374],[-75.37439,5.37374],[-75.37439,5.37373],[-75.37435,5.37373],[-75.37435,5.37373],[-75.37436,5.37373],[-75.37436,5.37374]]]]},"properties":{"FID":40,"OBJECTID":41,"E_EXPUESTO":"Construcciones","Priorizaci":"Corto plazo","Area_Ha":0.00275093388667,"Shape_Leng":36.9150456149,"Shape_Area":27.5093388667}},{"type":"Feature","id":41,"geometry":{"type":"Polygon","coordinates":[[[-75.37448,5.37499],[-75.37457,5.37499],[-75.37458,5.37499],[-75.37457,5.37495],[-75.37456,5.37493],[-75.37457,5.37491],[-75.37455,5.37486],[-75.37453,5.37482],[-75.37452,5.37482],[-75.37452,5.37484],[-75.37452,5.37486],[-75.37453,5.37486],[-75.37453,5.37491],[-75.37451,5.37491],[-75.37451,5.37491],[-75.3745,5.37491],[-75.3745,5.37492],[-75.37448,5.37492],[-75.37448,5.37494],[-75.37447,5.37494],[-75.37447,5.37499],[-75.37448,5.37499],[-75.37448,5.37499]]]},"properties":{"FID":41,"OBJECTID":42,"E_EXPUESTO":"Construcciones","Priorizaci":"Corto plazo","Area_Ha":0.0118591140333,"Shape_Leng":58.6751393935,"Shape_Area":118.591140333}},{"type":"Feature","id":42,"geometry":{"type":"MultiPolygon","coordinates":[[[[-75.37365,5.37462],[-75.37365,5.37462],[-75.37365,5.37462],[-75.37365,5.37462]]],[[[-75.37366,5.37458],[-75.37366,5.3746],[-75.37367,5.37458],[-75.37366,5.37458]]],[[[-75.37367,5.37457],[-75.37369,5.37452],[-75.37365,5.3745],[-75.37365,5.37451],[-75.37366,5.37451],[-75.37366,5.37455],[-75.37367,5.37455],[-75.37367,5.37457]]]]},"properties":{"FID":42,"OBJECTID":43,"E_EXPUESTO":"Construcciones","Priorizaci":"Corto plazo","Area_Ha":0.00152286288766,"Shape_Leng":27.1985555891,"Shape_Area":15.2286288766}},{"type":"Feature","id":43,"geometry":{"type":"MultiPolygon","coordinates":[[[[-75.37321,5.37332],[-75.3732,5.37332],[-75.3732,5.37334],[-75.37322,5.37334],[-75.37321,5.37323],[-75.37331,5.37324],[-75.37329,5.37309],[-75.37326,5.37308],[-75.37326,5.3731],[-75.37325,5.3731],[-75.37325,5.37311],[-75.37324,5.37311],[-75.37324,5.37315],[-75.37323,5.37315],[-75.37323,5.37317],[-75.37323,5.37317],[-75.37323,5.37319],[-75.37322,5.37319],[-75.37322,5.3732],[-75.37321,5.3732],[-75.37321,5.37321],[-75.3732,5.37321],[-75.3732,5.37328],[-75.37321,5.37328],[-75.37321,5.37332]]],[[[-75.37322,5.37298],[-75.37323,5.37298],[-75.37322,5.37298],[-75.37322,5.37298]]],[[[-75.37322,5.37294],[-75.37322,5.37296],[-75.37322,5.37296],[-75.37322,5.37294],[-75.37322,5.37294]]]]},"properties":{"FID":43,"OBJECTID":44,"E_EXPUESTO":"Construcciones","Priorizaci":"Corto plazo","Area_Ha":0.0142654313113,"Shape_Leng":89.0824427056,"Shape_Area":142.654313113}},{"type":"Feature","id":44,"geometry":{"type":"Polygon","coordinates":[[[-75.37327,5.37288],[-75.37326,5.37288],[-75.37326,5.37289],[-75.37337,5.37288],[-75.37335,5.37273],[-75.3733,5.37273],[-75.37329,5.37273],[-75.37329,5.37274],[-75.37327,5.37274],[-75.37327,5.37275],[-75.37326,5.37275],[-75.37325,5.37275],[-75.37325,5.37286],[-75.37325,5.37286],[-75.37325,5.37287],[-75.37326,5.37287],[-75.37326,5.37287],[-75.37327,5.37287],[-75.37327,5.37288]]]},"properties":{"FID":44,"OBJECTID":45,"E_EXPUESTO":"Construcciones","Priorizaci":"Corto plazo","Area_Ha":0.0195430443724,"Shape_Leng":60.5653967688,"Shape_Area":195.430443724}},{"type":"Feature","id":45,"geometry":{"type":"Polygon","coordinates":[[[-75.37329,5.37296],[-75.37329,5.37302],[-75.37334,5.37303],[-75.37334,5.37296],[-75.37329,5.37296]]]},"properties":{"FID":45,"OBJECTID":46,"E_EXPUESTO":"Construcciones","Priorizaci":"Corto plazo","Area_Ha":0.00390230748115,"Shape_Leng":25.3370276013,"Shape_Area":39.0230748115}},{"type":"Feature","id":46,"geometry":{"type":"MultiPolygon","coordinates":[[[[-75.37372,5.37342],[-75.37374,5.37346],[-75.37365,5.37346],[-75.37365,5.37353],[-75.3737,5.37353],[-75.3737,5.37352],[-75.37371,5.37352],[-75.37371,5.37352],[-75.37372,5.37352],[-75.37372,5.37351],[-75.37373,5.37351],[-75.37373,5.3735],[-75.37374,5.3735],[-75.37374,5.37348],[-75.37375,5.37348],[-75.37375,5.37344],[-75.37376,5.37344],[-75.37376,5.37341],[-75.37372,5.37342]]],[[[-75.37377,5.37337],[-75.37376,5.3734],[-75.37377,5.3734],[-75.37377,5.37337],[-75.37377,5.37337]]]]},"properties":{"FID":46,"OBJECTID":47,"E_EXPUESTO":"Construcciones","Priorizaci":"Corto plazo","Area_Ha":0.00840030249137,"Shape_Leng":57.3912233693,"Shape_Area":84.0030249137}},{"type":"Feature","id":47,"geometry":{"type":"Polygon","coordinates":[[[-75.36996,5.37898],[-75.36993,5.37899],[-75.36995,5.37899],[-75.36998,5.37899],[-75.36999,5.37899],[-75.36999,5.37898],[-75.37,5.37898],[-75.37002,5.37898],[-75.37002,5.37897],[-75.37004,5.37897],[-75.37004,5.37897],[-75.37004,5.37897],[-75.37005,5.37897],[-75.37005,5.37896],[-75.37006,5.37896],[-75.37009,5.37896],[-75.37009,5.37895],[-75.3701,5.37895],[-75.37011,5.37895],[-75.37011,5.37894],[-75.37012,5.37894],[-75.37013,5.37894],[-75.37013,5.37894],[-75.37013,5.37895],[-75.37014,5.37895],[-75.37015,5.37895],[-75.37015,5.37896],[-75.37017,5.37896],[-75.37018,5.37896],[-75.37018,5.37897],[-75.3702,5.37896],[-75.37021,5.37896],[-75.37021,5.37896],[-75.37022,5.37896],[-75.37022,5.37896],[-75.37022,5.37895],[-75.37023,5.37895],[-75.37023,5.37894],[-75.37025,5.37894],[-75.37026,5.37891],[-75.37027,5.37887],[-75.37027,5.37886],[-75.37026,5.37886],[-75.37025,5.37885],[-75.37022,5.37887],[-75.37021,5.37887],[-75.37016,5.37885],[-75.37015,5.37887],[-75.3701,5.37888],[-75.37008,5.37888],[-75.36996,5.37898]]]},"properties":{"FID":47,"OBJECTID":48,"E_EXPUESTO":"Construcciones","Priorizaci":"Corto plazo","Area_Ha":0.0257504544346,"Shape_Leng":99.1318764134,"Shape_Area":257.504544346}},{"type":"Feature","id":48,"geometry":{"type":"MultiPolygon","coordinates":[[[[-75.37007,5.37869],[-75.37004,5.37875],[-75.3701,5.37878],[-75.3701,5.37878],[-75.3701,5.37878],[-75.3701,5.37878],[-75.37011,5.37874],[-75.37011,5.37874],[-75.37011,5.37873],[-75.3701,5.37873],[-75.3701,5.37872],[-75.37011,5.37872],[-75.37011,5.3787],[-75.37011,5.3787],[-75.37008,5.3787],[-75.37007,5.37869]]],[[[-75.37012,5.37871],[-75.37012,5.37871],[-75.37013,5.37871],[-75.37012,5.37871]]]]},"properties":{"FID":48,"OBJECTID":49,"E_EXPUESTO":"Construcciones","Priorizaci":"Corto plazo","Area_Ha":0.00516860607136,"Shape_Leng":33.4233477842,"Shape_Area":51.6860607136}}]}