{"type":"FeatureCollection","name":"Zonificación Reserva Torre4","crs":{"type":"name","properties":{"name":"urn:ogc:def:crs:OGC:1.3:CRS84"}},"features":[{"type":"Feature","id":1,"geometry":{"type":"Polygon","coordinates":[[[-75.37656,5.0604],[-75.3765,5.06039],[-75.3764,5.06039],[-75.37632,5.06044],[-75.37654,5.0604],[-75.37656,5.0604]]]},"properties":{"OBJECTID":1,"CODDEP":"17","AREA":0.00699622741777,"Tipo":"Bosque denso alto de tierra firme","Zona":"Zona de preservación","Subzona":"Zona de preservación","Shape_Length":56.26605306132535,"Shape_Area":69.9356688554447}},{"type":"Feature","id":2,"geometry":{"type":"Polygon","coordinates":[[[-75.39154,5.02425],[-75.39143,5.02431],[-75.39131,5.02431],[-75.39124,5.02444],[-75.39112,5.0245],[-75.39112,5.02463],[-75.39112,5.02475],[-75.39112,5.02477],[-75.39112,5.02477],[-75.3916,5.02434],[-75.39166,5.02428],[-75.39154,5.02425]]]},"properties":{"OBJECTID":2,"CODDEP":"17","AREA":0.127393005615,"Tipo":"Mosaico de pastos con espacios naturales","Zona":"Zona de restauración","Subzona":"Zona de restauración","Shape_Length":183.79931960596298,"Shape_Area":1273.4468617325035}},{"type":"Feature","id":3,"geometry":{"type":"Polygon","coordinates":[[[-75.38617,5.02761],[-75.38617,5.02753],[-75.38616,5.02743],[-75.38612,5.02734],[-75.38607,5.02724],[-75.38602,5.02715],[-75.38593,5.02705],[-75.38593,5.02695],[-75.38593,5.02686],[-75.38593,5.02676],[-75.38592,5.02667],[-75.38597,5.02657],[-75.38602,5.02648],[-75.38607,5.02638],[-75.38611,5.02628],[-75.38621,5.02624],[-75.38631,5.02624],[-75.38635,5.02614],[-75.38645,5.02609],[-75.38654,5.02609],[-75.38664,5.02609],[-75.38673,5.02609],[-75.38683,5.02609],[-75.38692,5.02614],[-75.38699,5.02601],[-75.38703,5.02594],[-75.38703,5.02592],[-75.38705,5.0259],[-75.38706,5.02587],[-75.38708,5.02585],[-75.3871,5.02583],[-75.38712,5.0258],[-75.38714,5.02578],[-75.38716,5.02577],[-75.38719,5.02575],[-75.38721,5.02573],[-75.38724,5.02572],[-75.38727,5.02571],[-75.38729,5.0257],[-75.38732,5.02569],[-75.38735,5.02568],[-75.38738,5.02568],[-75.38741,5.02567],[-75.38744,5.02567],[-75.38747,5.02567],[-75.3875,5.02568],[-75.38753,5.02568],[-75.38755,5.02569],[-75.38758,5.0257],[-75.38761,5.02571],[-75.38764,5.02572],[-75.38766,5.02573],[-75.38769,5.02575],[-75.38771,5.02576],[-75.38773,5.02578],[-75.38776,5.0258],[-75.38776,5.02581],[-75.38802,5.02608],[-75.38803,5.02609],[-75.38805,5.02612],[-75.38807,5.02614],[-75.38809,5.02616],[-75.3881,5.02619],[-75.38836,5.02669],[-75.38836,5.0267],[-75.38836,5.02671],[-75.38841,5.02671],[-75.3885,5.02666],[-75.3886,5.02661],[-75.38879,5.02652],[-75.38879,5.02642],[-75.38879,5.02628],[-75.38879,5.02618],[-75.38879,5.02609],[-75.38874,5.02599],[-75.38874,5.0259],[-75.38869,5.0258],[-75.38864,5.02571],[-75.38859,5.02561],[-75.38859,5.02551],[-75.38855,5.02542],[-75.38845,5.02537],[-75.3884,5.02528],[-75.38831,5.02528],[-75.38821,5.02528],[-75.38812,5.02528],[-75.38802,5.02528],[-75.38793,5.02528],[-75.38783,5.02528],[-75.38773,5.02523],[-75.38764,5.02523],[-75.38754,5.02518],[-75.38745,5.02518],[-75.38735,5.02509],[-75.38726,5.02499],[-75.38716,5.02494],[-75.38716,5.02485],[-75.38711,5.02475],[-75.38711,5.02466],[-75.38702,5.02461],[-75.38692,5.02461],[-75.38683,5.02456],[-75.38673,5.02456],[-75.38664,5.02456],[-75.38654,5.02456],[-75.38645,5.02461],[-75.38635,5.02466],[-75.38625,5.02475],[-75.38621,5.02485],[-75.38616,5.02494],[-75.38606,5.02494],[-75.38606,5.02504],[-75.38597,5.02509],[-75.38592,5.02518],[-75.38583,5.02523],[-75.38583,5.02533],[-75.38578,5.02542],[-75.38568,5.02547],[-75.38568,5.02557],[-75.38564,5.02571],[-75.38559,5.02581],[-75.38554,5.02595],[-75.38554,5.02605],[-75.38545,5.02609],[-75.3854,5.02619],[-75.38535,5.02629],[-75.3853,5.02638],[-75.38526,5.02648],[-75.38526,5.02657],[-75.38516,5.02662],[-75.38511,5.02676],[-75.38507,5.02686],[-75.38502,5.027],[-75.38502,5.0271],[-75.38497,5.0272],[-75.38497,5.02729],[-75.38492,5.02739],[-75.38492,5.02748],[-75.38492,5.02758],[-75.38488,5.02767],[-75.38488,5.02777],[-75.38488,5.02787],[-75.38488,5.02796],[-75.38488,5.02806],[-75.38478,5.02811],[-75.38474,5.02825],[-75.38464,5.0283],[-75.38454,5.02839],[-75.38445,5.02844],[-75.38435,5.02849],[-75.38421,5.02854],[-75.38412,5.02854],[-75.38397,5.02854],[-75.38388,5.02859],[-75.38378,5.02859],[-75.38369,5.02859],[-75.38359,5.02859],[-75.3835,5.02859],[-75.38335,5.02859],[-75.38326,5.02859],[-75.38311,5.02859],[-75.38302,5.02859],[-75.38292,5.02859],[-75.3829,5.02859],[-75.38291,5.02864],[-75.38295,5.02882],[-75.38297,5.02893],[-75.38301,5.02907],[-75.38307,5.02926],[-75.38307,5.02932],[-75.38307,5.02935],[-75.3831,5.0295],[-75.38309,5.02965],[-75.38311,5.02983],[-75.38312,5.03002],[-75.38302,5.03029],[-75.38298,5.03062],[-75.38284,5.03095],[-75.38276,5.03136],[-75.38261,5.03183],[-75.38266,5.03188],[-75.38272,5.03194],[-75.38278,5.03194],[-75.38284,5.03194],[-75.3829,5.03194],[-75.38296,5.032],[-75.38302,5.032],[-75.38308,5.032],[-75.38314,5.032],[-75.3832,5.03194],[-75.3832,5.03188],[-75.38326,5.03188],[-75.38326,5.03182],[-75.38332,5.03182],[-75.38332,5.03176],[-75.38332,5.0317],[-75.38332,5.03164],[-75.38332,5.03158],[-75.38332,5.03152],[-75.38332,5.03146],[-75.38332,5.0314],[-75.38338,5.0314],[-75.38344,5.0314],[-75.3835,5.0314],[-75.38355,5.03146],[-75.38367,5.03146],[-75.38373,5.03158],[-75.38385,5.03164],[-75.38391,5.0317],[-75.38397,5.03176],[-75.38403,5.03182],[-75.38409,5.03188],[-75.38421,5.03194],[-75.38421,5.032],[-75.38433,5.032],[-75.38433,5.03206],[-75.38439,5.03212],[-75.38445,5.03218],[-75.38451,5.03218],[-75.38451,5.03224],[-75.38457,5.03224],[-75.38457,5.0323],[-75.38457,5.03236],[-75.38457,5.03241],[-75.38466,5.03241],[-75.38471,5.03238],[-75.38474,5.03232],[-75.38484,5.03232],[-75.38493,5.03231],[-75.38503,5.03227],[-75.38512,5.03222],[-75.38522,5.03217],[-75.38532,5.03212],[-75.38541,5.03212],[-75.38551,5.03207],[-75.38551,5.03198],[-75.3856,5.03193],[-75.3857,5.03183],[-75.38574,5.03174],[-75.38579,5.03164],[-75.38589,5.0316],[-75.38593,5.0315],[-75.38603,5.0314],[-75.38613,5.03136],[-75.38622,5.03131],[-75.38627,5.03121],[-75.38636,5.03116],[-75.38646,5.03112],[-75.38655,5.03102],[-75.38661,5.03099],[-75.38659,5.03067],[-75.38652,5.03026],[-75.38633,5.03004],[-75.38633,5.03003],[-75.38633,5.03003],[-75.38632,5.03001],[-75.38629,5.02995],[-75.3862,5.02978],[-75.38617,5.02978],[-75.38607,5.02978],[-75.38603,5.02968],[-75.38603,5.02959],[-75.38603,5.02957],[-75.38584,5.02947],[-75.38584,5.02947],[-75.38583,5.02946],[-75.38583,5.02946],[-75.38583,5.02945],[-75.38583,5.02945],[-75.38571,5.02889],[-75.38571,5.02889],[-75.38571,5.02888],[-75.38571,5.02888],[-75.38592,5.02797],[-75.38594,5.0279],[-75.38617,5.02761]]]},"properties":{"OBJECTID":3,"CODDEP":"17","AREA":20.3720317159,"Tipo":"Mosaico de pastos con espacios naturales","Zona":"Zona de restauración","Subzona":"Zona de restauración","Shape_Length":3113.7864651087484,"Shape_Area":203641.86000735706}},{"type":"Feature","id":4,"geometry":{"type":"Polygon","coordinates":[[[-75.38661,5.03099],[-75.38655,5.03102],[-75.38646,5.03112],[-75.38636,5.03116],[-75.38627,5.03121],[-75.38622,5.03131],[-75.38613,5.03136],[-75.38603,5.0314],[-75.38593,5.0315],[-75.38589,5.0316],[-75.38579,5.03164],[-75.38574,5.03174],[-75.3857,5.03183],[-75.3856,5.03193],[-75.38551,5.03198],[-75.38551,5.03207],[-75.38541,5.03212],[-75.38532,5.03212],[-75.38522,5.03217],[-75.38512,5.03222],[-75.38503,5.03227],[-75.38493,5.03231],[-75.38484,5.03232],[-75.38474,5.03232],[-75.38471,5.03238],[-75.38466,5.03241],[-75.38457,5.03241],[-75.38457,5.03241],[-75.38447,5.03241],[-75.38437,5.03241],[-75.38428,5.03245],[-75.38414,5.03245],[-75.38395,5.0325],[-75.38385,5.03255],[-75.38375,5.03255],[-75.38366,5.03255],[-75.38356,5.03265],[-75.38347,5.03265],[-75.38333,5.03265],[-75.38323,5.03274],[-75.38313,5.03279],[-75.38304,5.03284],[-75.38294,5.03294],[-75.38294,5.03303],[-75.3829,5.03313],[-75.3829,5.03322],[-75.3829,5.03332],[-75.3829,5.03341],[-75.3829,5.03351],[-75.3829,5.03361],[-75.3829,5.0337],[-75.3829,5.0338],[-75.3829,5.03389],[-75.3829,5.03399],[-75.3829,5.03408],[-75.3829,5.03418],[-75.3829,5.03427],[-75.3829,5.03437],[-75.3829,5.03447],[-75.3829,5.03461],[-75.38285,5.03471],[-75.38285,5.0348],[-75.38285,5.0349],[-75.38281,5.03499],[-75.38281,5.03509],[-75.38281,5.03518],[-75.38281,5.03528],[-75.38281,5.03538],[-75.38281,5.03547],[-75.38281,5.03557],[-75.38281,5.03571],[-75.38281,5.03581],[-75.38281,5.0359],[-75.38276,5.03605],[-75.38276,5.03614],[-75.38271,5.03624],[-75.38271,5.03633],[-75.38271,5.03643],[-75.38271,5.03652],[-75.38271,5.03662],[-75.38267,5.03672],[-75.38267,5.03681],[-75.38267,5.03691],[-75.38267,5.037],[-75.38267,5.0371],[-75.38267,5.03719],[-75.38257,5.03724],[-75.38252,5.03734],[-75.38248,5.03743],[-75.38243,5.03753],[-75.38238,5.03762],[-75.38238,5.03772],[-75.38238,5.03782],[-75.38238,5.03791],[-75.38238,5.03806],[-75.38238,5.03815],[-75.38238,5.03825],[-75.38238,5.03834],[-75.38238,5.03844],[-75.38238,5.03853],[-75.38238,5.03863],[-75.38238,5.03873],[-75.38238,5.03882],[-75.38238,5.03892],[-75.38238,5.03901],[-75.38238,5.03911],[-75.38238,5.0392],[-75.38238,5.0393],[-75.38238,5.03944],[-75.38239,5.03954],[-75.38239,5.03968],[-75.38229,5.03978],[-75.38219,5.03992],[-75.3821,5.03992],[-75.38196,5.03992],[-75.38186,5.03987],[-75.38179,5.03987],[-75.38171,5.04008],[-75.38169,5.0405],[-75.38171,5.04075],[-75.38164,5.04109],[-75.38159,5.04132],[-75.38157,5.04138],[-75.38163,5.04141],[-75.38163,5.0415],[-75.38163,5.0416],[-75.38163,5.04169],[-75.38163,5.04179],[-75.38163,5.04188],[-75.38163,5.04198],[-75.38163,5.04212],[-75.38163,5.04222],[-75.38163,5.04232],[-75.38163,5.04246],[-75.38163,5.04255],[-75.38163,5.04265],[-75.38163,5.04279],[-75.38163,5.04289],[-75.38158,5.04298],[-75.38149,5.04303],[-75.38144,5.04313],[-75.38134,5.04318],[-75.38125,5.04318],[-75.38115,5.04318],[-75.38113,5.04318],[-75.38112,5.04321],[-75.38111,5.04346],[-75.38107,5.04363],[-75.38107,5.04363],[-75.38104,5.04364],[-75.3809,5.04364],[-75.38064,5.04365],[-75.38045,5.0436],[-75.38038,5.04359],[-75.38027,5.04358],[-75.38006,5.04352],[-75.37991,5.04346],[-75.37972,5.0434],[-75.37942,5.04336],[-75.3793,5.04334],[-75.37911,5.04332],[-75.37888,5.04327],[-75.37878,5.04325],[-75.37849,5.04321],[-75.37833,5.04319],[-75.37833,5.0432],[-75.37828,5.04313],[-75.37823,5.04301],[-75.37819,5.04281],[-75.37814,5.04269],[-75.37813,5.04242],[-75.37812,5.0423],[-75.37811,5.04232],[-75.37807,5.04235],[-75.37798,5.0424],[-75.37783,5.04248],[-75.37768,5.04249],[-75.37756,5.04247],[-75.37734,5.04255],[-75.37713,5.0426],[-75.37704,5.04264],[-75.37693,5.04268],[-75.37689,5.04269],[-75.37673,5.04272],[-75.3765,5.04275],[-75.3761,5.04279],[-75.37558,5.04291],[-75.37544,5.04299],[-75.37534,5.04308],[-75.37533,5.04309],[-75.37519,5.04317],[-75.37508,5.04329],[-75.37507,5.04337],[-75.37508,5.04344],[-75.37508,5.04349],[-75.37507,5.0436],[-75.37507,5.04369],[-75.37508,5.04383],[-75.3751,5.04391],[-75.37512,5.04398],[-75.37513,5.04408],[-75.37513,5.04409],[-75.37518,5.04412],[-75.37533,5.0442],[-75.37539,5.04437],[-75.3753,5.04451],[-75.37514,5.04474],[-75.37504,5.04485],[-75.37489,5.04503],[-75.37486,5.04515],[-75.37487,5.04516],[-75.37488,5.04529],[-75.37488,5.04531],[-75.37492,5.04547],[-75.37497,5.04553],[-75.37501,5.04564],[-75.37502,5.04574],[-75.37505,5.04584],[-75.3751,5.0459],[-75.37515,5.04593],[-75.37524,5.04613],[-75.37524,5.04619],[-75.37529,5.04625],[-75.37537,5.04636],[-75.37539,5.04648],[-75.37538,5.0466],[-75.37538,5.04673],[-75.37533,5.04689],[-75.37524,5.04706],[-75.37509,5.04724],[-75.37504,5.0473],[-75.37485,5.04748],[-75.37463,5.04769],[-75.37456,5.04777],[-75.3745,5.04784],[-75.3744,5.04796],[-75.3743,5.04808],[-75.3742,5.04826],[-75.37411,5.04842],[-75.37404,5.04855],[-75.37406,5.04871],[-75.37412,5.04883],[-75.37411,5.04889],[-75.37399,5.0489],[-75.37399,5.04903],[-75.37404,5.04913],[-75.37404,5.04923],[-75.37404,5.04932],[-75.37404,5.04942],[-75.37404,5.04951],[-75.374,5.04961],[-75.37395,5.0497],[-75.3739,5.0498],[-75.3739,5.0499],[-75.37385,5.05004],[-75.37385,5.05018],[-75.37381,5.05028],[-75.37376,5.05037],[-75.37376,5.05047],[-75.37371,5.05057],[-75.37366,5.05071],[-75.37362,5.0508],[-75.37357,5.0509],[-75.3735,5.05097],[-75.37347,5.05101],[-75.37347,5.05109],[-75.37347,5.05119],[-75.37347,5.05128],[-75.37347,5.05138],[-75.37347,5.05147],[-75.37347,5.05157],[-75.37352,5.05167],[-75.37362,5.05171],[-75.37371,5.05176],[-75.37381,5.05176],[-75.3739,5.05181],[-75.374,5.05181],[-75.3741,5.05181],[-75.37419,5.0519],[-75.37429,5.0519],[-75.37438,5.0519],[-75.37442,5.0519],[-75.37451,5.0519],[-75.37456,5.05177],[-75.37456,5.05168],[-75.3746,5.05158],[-75.37465,5.05149],[-75.37465,5.05139],[-75.3747,5.05129],[-75.3747,5.0512],[-75.3747,5.0511],[-75.37474,5.05101],[-75.37474,5.05091],[-75.37479,5.05082],[-75.37484,5.05072],[-75.37493,5.05062],[-75.37503,5.05062],[-75.37503,5.05053],[-75.37513,5.05053],[-75.37513,5.05043],[-75.37513,5.05029],[-75.37512,5.05019],[-75.37517,5.0501],[-75.37522,5.05],[-75.37522,5.04991],[-75.37522,5.04981],[-75.37517,5.04971],[-75.37508,5.04967],[-75.37498,5.04962],[-75.37493,5.04952],[-75.37488,5.04943],[-75.37484,5.04933],[-75.37484,5.04924],[-75.37484,5.04914],[-75.37479,5.04905],[-75.37479,5.04895],[-75.37479,5.04885],[-75.37479,5.04876],[-75.37484,5.04866],[-75.37488,5.04857],[-75.37498,5.04857],[-75.37507,5.04857],[-75.37517,5.04857],[-75.37526,5.04857],[-75.37536,5.04857],[-75.37546,5.04857],[-75.37555,5.04857],[-75.3756,5.04847],[-75.37569,5.04842],[-75.37579,5.04833],[-75.37588,5.04833],[-75.37598,5.04823],[-75.37607,5.04813],[-75.37612,5.04804],[-75.37617,5.04794],[-75.37622,5.04785],[-75.37631,5.04775],[-75.37631,5.04761],[-75.37631,5.04751],[-75.37631,5.04737],[-75.37631,5.04727],[-75.37631,5.04718],[-75.37631,5.04708],[-75.37636,5.04699],[-75.37636,5.04689],[-75.37641,5.04679],[-75.37641,5.0467],[-75.37641,5.0466],[-75.37641,5.04651],[-75.37641,5.04641],[-75.37641,5.04632],[-75.37641,5.04622],[-75.37636,5.04612],[-75.37612,5.04555],[-75.37607,5.04555],[-75.37597,5.04555],[-75.37588,5.0455],[-75.37578,5.04546],[-75.37569,5.04541],[-75.37559,5.04531],[-75.3755,5.04531],[-75.3754,5.04527],[-75.37531,5.04512],[-75.37526,5.04498],[-75.37535,5.04488],[-75.37545,5.04488],[-75.37554,5.04479],[-75.37564,5.04469],[-75.37564,5.04459],[-75.37564,5.0445],[-75.37564,5.0444],[-75.37564,5.04431],[-75.37564,5.04421],[-75.37559,5.04412],[-75.37559,5.04402],[-75.37559,5.04393],[-75.37559,5.04378],[-75.37559,5.04369],[-75.37559,5.04359],[-75.37559,5.04349],[-75.37559,5.0434],[-75.37559,5.0433],[-75.37568,5.04321],[-75.37578,5.04316],[-75.37587,5.04306],[-75.37597,5.04302],[-75.37602,5.04292],[-75.37611,5.04292],[-75.37621,5.04287],[-75.3763,5.04282],[-75.3764,5.04282],[-75.37649,5.04282],[-75.37659,5.04282],[-75.37668,5.04282],[-75.37673,5.04297],[-75.37677,5.04298],[-75.37683,5.04301],[-75.37692,5.04297],[-75.37702,5.04292],[-75.37711,5.04292],[-75.37721,5.04287],[-75.3773,5.04287],[-75.3774,5.04287],[-75.3775,5.04287],[-75.37759,5.04287],[-75.37759,5.04296],[-75.37759,5.04306],[-75.37759,5.04316],[-75.37759,5.04325],[-75.37759,5.04335],[-75.37759,5.04344],[-75.3775,5.04349],[-75.37745,5.04359],[-75.3774,5.04373],[-75.37735,5.04383],[-75.37731,5.04392],[-75.37726,5.04402],[-75.37726,5.04411],[-75.37721,5.04421],[-75.37721,5.0443],[-75.37721,5.0444],[-75.37721,5.0445],[-75.37726,5.04459],[-75.37731,5.04469],[-75.37736,5.04478],[-75.3774,5.04488],[-75.3774,5.04497],[-75.37745,5.04507],[-75.37755,5.04517],[-75.3776,5.04526],[-75.37769,5.04536],[-75.37774,5.04545],[-75.37783,5.0455],[-75.37793,5.04555],[-75.37803,5.04555],[-75.37812,5.04559],[-75.37817,5.04569],[-75.37817,5.04579],[-75.37826,5.04579],[-75.37836,5.04588],[-75.37846,5.04588],[-75.37855,5.04593],[-75.37855,5.04602],[-75.37855,5.04612],[-75.3785,5.04622],[-75.37841,5.04626],[-75.37831,5.04631],[-75.37831,5.04641],[-75.37831,5.0465],[-75.37841,5.0465],[-75.3785,5.0465],[-75.3786,5.0465],[-75.3787,5.0465],[-75.37879,5.0465],[-75.37893,5.04645],[-75.37898,5.04655],[-75.37898,5.04665],[-75.37898,5.04674],[-75.37889,5.04679],[-75.37879,5.04693],[-75.3787,5.04698],[-75.3786,5.04698],[-75.37851,5.04703],[-75.37841,5.04703],[-75.37832,5.04713],[-75.37822,5.04713],[-75.37812,5.04722],[-75.37803,5.04727],[-75.37793,5.04727],[-75.37784,5.04732],[-75.37779,5.04741],[-75.37774,5.04751],[-75.3777,5.0476],[-75.37774,5.0477],[-75.37784,5.0478],[-75.37793,5.0478],[-75.37803,5.0478],[-75.37813,5.0478],[-75.37822,5.0478],[-75.37832,5.04779],[-75.37841,5.04775],[-75.37855,5.04765],[-75.37865,5.0476],[-75.37875,5.04755],[-75.37875,5.04746],[-75.37879,5.04736],[-75.37884,5.04727],[-75.37889,5.04717],[-75.37898,5.04712],[-75.37908,5.04708],[-75.37917,5.04708],[-75.37927,5.04708],[-75.37932,5.04722],[-75.37937,5.04731],[-75.37941,5.04741],[-75.37946,5.04751],[-75.37946,5.0476],[-75.37951,5.04774],[-75.37954,5.0478],[-75.37949,5.04782],[-75.37944,5.04792],[-75.37935,5.04796],[-75.37935,5.04806],[-75.37925,5.04816],[-75.37921,5.04825],[-75.37911,5.0483],[-75.37906,5.0484],[-75.37902,5.04849],[-75.37892,5.04854],[-75.37887,5.04863],[-75.37878,5.04868],[-75.37868,5.04873],[-75.37859,5.04883],[-75.37849,5.04887],[-75.3784,5.04897],[-75.3783,5.04897],[-75.37821,5.04902],[-75.37811,5.04907],[-75.37801,5.04907],[-75.37792,5.04911],[-75.37782,5.04916],[-75.37773,5.04921],[-75.37763,5.04921],[-75.37759,5.04931],[-75.37749,5.04936],[-75.37739,5.0495],[-75.3774,5.04959],[-75.3774,5.04969],[-75.37749,5.04974],[-75.37754,5.04983],[-75.37763,5.04988],[-75.37768,5.04998],[-75.37763,5.05007],[-75.37763,5.05017],[-75.37754,5.05022],[-75.37744,5.05026],[-75.37735,5.05031],[-75.37725,5.05031],[-75.37716,5.05031],[-75.37706,5.05031],[-75.37692,5.05036],[-75.37682,5.05041],[-75.37678,5.0505],[-75.37668,5.05055],[-75.37663,5.05065],[-75.37663,5.05074],[-75.37654,5.05079],[-75.37649,5.05089],[-75.37649,5.05098],[-75.37649,5.05108],[-75.37644,5.05118],[-75.3764,5.05127],[-75.3764,5.05137],[-75.3764,5.05146],[-75.3764,5.05156],[-75.3764,5.05165],[-75.3764,5.05175],[-75.37645,5.05184],[-75.37654,5.05189],[-75.37659,5.05199],[-75.37668,5.05199],[-75.37678,5.05204],[-75.37683,5.05213],[-75.37692,5.05213],[-75.37702,5.05218],[-75.37711,5.05218],[-75.37721,5.05223],[-75.37731,5.05227],[-75.3774,5.05227],[-75.3775,5.05227],[-75.37764,5.05227],[-75.37773,5.05227],[-75.37788,5.05227],[-75.37797,5.05222],[-75.37807,5.05213],[-75.37807,5.05203],[-75.37807,5.05194],[-75.37807,5.05184],[-75.37812,5.05175],[-75.37811,5.05165],[-75.37811,5.05155],[-75.37821,5.05155],[-75.37831,5.05155],[-75.3784,5.05155],[-75.3785,5.0516],[-75.37859,5.0516],[-75.37869,5.05165],[-75.37878,5.0517],[-75.37883,5.05179],[-75.37883,5.05189],[-75.37893,5.05194],[-75.37902,5.05198],[-75.37912,5.05203],[-75.37921,5.05208],[-75.37931,5.05213],[-75.3794,5.05213],[-75.3795,5.05217],[-75.3795,5.05227],[-75.37945,5.05237],[-75.3794,5.05246],[-75.3794,5.05256],[-75.37931,5.05265],[-75.37921,5.0527],[-75.37912,5.0528],[-75.37902,5.05284],[-75.37893,5.05289],[-75.37883,5.05289],[-75.37874,5.05294],[-75.37864,5.05299],[-75.37855,5.05299],[-75.37845,5.05299],[-75.37836,5.05299],[-75.37826,5.05299],[-75.37817,5.05299],[-75.37807,5.05299],[-75.37797,5.05299],[-75.37788,5.05299],[-75.37778,5.05299],[-75.37769,5.05304],[-75.37759,5.05309],[-75.3775,5.05309],[-75.3774,5.05313],[-75.37731,5.05318],[-75.37726,5.05328],[-75.37716,5.05337],[-75.37716,5.05347],[-75.37716,5.05357],[-75.37721,5.05366],[-75.37721,5.0538],[-75.37721,5.0539],[-75.37726,5.054],[-75.37726,5.05409],[-75.37736,5.05414],[-75.37736,5.05424],[-75.37736,5.05433],[-75.3774,5.05443],[-75.37741,5.05452],[-75.37745,5.05462],[-75.37745,5.05471],[-75.37745,5.05481],[-75.37745,5.0549],[-75.37745,5.055],[-75.37741,5.0551],[-75.37741,5.05519],[-75.37741,5.05529],[-75.37736,5.05538],[-75.37731,5.05548],[-75.37726,5.05558],[-75.37717,5.05562],[-75.37717,5.05572],[-75.37717,5.05581],[-75.37722,5.05591],[-75.37731,5.05601],[-75.37736,5.0561],[-75.37741,5.0562],[-75.37741,5.05629],[-75.37746,5.05639],[-75.37755,5.05644],[-75.3776,5.05653],[-75.3776,5.05663],[-75.3776,5.05672],[-75.3776,5.05682],[-75.3776,5.05691],[-75.3776,5.05706],[-75.3776,5.05715],[-75.3776,5.05725],[-75.3776,5.05734],[-75.3776,5.05749],[-75.37765,5.05758],[-75.37775,5.05768],[-75.37784,5.05768],[-75.37794,5.05763],[-75.37794,5.05754],[-75.37794,5.05744],[-75.37794,5.05734],[-75.37794,5.05725],[-75.37798,5.05715],[-75.37798,5.05706],[-75.37798,5.05696],[-75.37798,5.05682],[-75.37798,5.05672],[-75.37798,5.05663],[-75.37803,5.05653],[-75.37803,5.05643],[-75.37803,5.05634],[-75.37808,5.05624],[-75.37812,5.05615],[-75.37812,5.05605],[-75.37822,5.05596],[-75.37827,5.05605],[-75.37831,5.05615],[-75.37836,5.05624],[-75.37841,5.05634],[-75.37851,5.05639],[-75.37855,5.05648],[-75.37855,5.05658],[-75.37865,5.05662],[-75.3787,5.05672],[-75.37879,5.05677],[-75.37884,5.05686],[-75.37894,5.05686],[-75.37898,5.05696],[-75.37908,5.05701],[-75.37918,5.05705],[-75.37927,5.0571],[-75.37937,5.0572],[-75.37946,5.05729],[-75.37951,5.05739],[-75.37961,5.05739],[-75.37965,5.05748],[-75.37975,5.05758],[-75.37984,5.05758],[-75.37994,5.05767],[-75.38004,5.05777],[-75.38013,5.05782],[-75.38013,5.05791],[-75.38023,5.05796],[-75.38027,5.05806],[-75.38037,5.05806],[-75.38047,5.05815],[-75.38051,5.05825],[-75.38056,5.05839],[-75.38061,5.05849],[-75.38061,5.05858],[-75.38071,5.05868],[-75.38071,5.0587],[-75.38097,5.05865],[-75.38103,5.05865],[-75.38103,5.05857],[-75.38108,5.05847],[-75.38108,5.05838],[-75.38113,5.05828],[-75.38117,5.05819],[-75.38117,5.05809],[-75.38127,5.05799],[-75.38136,5.05795],[-75.38136,5.05785],[-75.38146,5.05785],[-75.38146,5.05775],[-75.38155,5.05775],[-75.38165,5.05766],[-75.38174,5.05761],[-75.38184,5.05761],[-75.38193,5.05751],[-75.38203,5.05747],[-75.38213,5.05747],[-75.38222,5.05747],[-75.38232,5.05742],[-75.38241,5.05737],[-75.38251,5.05732],[-75.3826,5.05732],[-75.38265,5.05723],[-75.38275,5.05723],[-75.38284,5.05723],[-75.38294,5.05723],[-75.38303,5.05723],[-75.38303,5.05732],[-75.38303,5.05742],[-75.38303,5.05751],[-75.38308,5.05761],[-75.38308,5.0577],[-75.38308,5.0578],[-75.38308,5.0579],[-75.38308,5.05799],[-75.38308,5.05809],[-75.38318,5.05823],[-75.38327,5.05818],[-75.38337,5.05809],[-75.38337,5.05799],[-75.38346,5.05789],[-75.38351,5.05775],[-75.38351,5.05766],[-75.3836,5.05765],[-75.38365,5.05756],[-75.3838,5.05756],[-75.38384,5.05765],[-75.38384,5.05775],[-75.38384,5.05785],[-75.38384,5.05794],[-75.38384,5.05804],[-75.38384,5.05813],[-75.38384,5.05823],[-75.38384,5.05832],[-75.38384,5.05842],[-75.38385,5.05852],[-75.38389,5.05866],[-75.38389,5.05875],[-75.38399,5.0588],[-75.38408,5.0588],[-75.38418,5.0588],[-75.38428,5.0588],[-75.38432,5.05871],[-75.38442,5.05871],[-75.38444,5.05869],[-75.38437,5.05853],[-75.38435,5.05816],[-75.38432,5.05786],[-75.38431,5.05768],[-75.38432,5.05752],[-75.38433,5.05747],[-75.38435,5.05728],[-75.38436,5.0571],[-75.38435,5.05693],[-75.38438,5.05689],[-75.38442,5.05679],[-75.38458,5.05633],[-75.38464,5.05614],[-75.38466,5.05605],[-75.38463,5.05588],[-75.3846,5.05561],[-75.38458,5.05537],[-75.38458,5.05511],[-75.38457,5.05488],[-75.38458,5.05449],[-75.38459,5.0543],[-75.38458,5.05417],[-75.38451,5.05399],[-75.3844,5.05378],[-75.38414,5.0535],[-75.3839,5.05324],[-75.38383,5.05308],[-75.38375,5.05297],[-75.3837,5.05288],[-75.38358,5.05271],[-75.38328,5.05247],[-75.38306,5.05213],[-75.38307,5.05203],[-75.38305,5.05195],[-75.383,5.05185],[-75.3829,5.05171],[-75.38282,5.05163],[-75.38277,5.05153],[-75.38268,5.0514],[-75.38261,5.05126],[-75.38264,5.05117],[-75.38267,5.0511],[-75.38277,5.05085],[-75.38282,5.05071],[-75.38285,5.05061],[-75.38286,5.05051],[-75.38285,5.05039],[-75.38282,5.05001],[-75.38283,5.04978],[-75.38285,5.04957],[-75.38281,5.04939],[-75.38276,5.04923],[-75.38267,5.04904],[-75.38263,5.0489],[-75.38257,5.04874],[-75.38241,5.04843],[-75.3823,5.0483],[-75.38227,5.0482],[-75.38227,5.04802],[-75.38227,5.04791],[-75.38221,5.04768],[-75.38219,5.04759],[-75.38218,5.0475],[-75.38215,5.04725],[-75.38216,5.04709],[-75.38219,5.04689],[-75.38221,5.04683],[-75.38222,5.04672],[-75.38226,5.04668],[-75.38231,5.04664],[-75.38248,5.04654],[-75.38257,5.04651],[-75.38267,5.04648],[-75.38268,5.04646],[-75.38271,5.04646],[-75.38285,5.04639],[-75.38303,5.04628],[-75.38315,5.04624],[-75.38317,5.04622],[-75.38319,5.04616],[-75.3832,5.0461],[-75.3832,5.04605],[-75.38321,5.04599],[-75.38323,5.0459],[-75.38324,5.04583],[-75.38327,5.04573],[-75.38328,5.04568],[-75.38329,5.04552],[-75.3833,5.04537],[-75.3833,5.04528],[-75.3833,5.04511],[-75.3833,5.04508],[-75.3833,5.045],[-75.3833,5.04482],[-75.38331,5.04476],[-75.38332,5.04472],[-75.38339,5.04455],[-75.38348,5.04443],[-75.38358,5.04421],[-75.38362,5.04411],[-75.38365,5.04402],[-75.3837,5.04395],[-75.38378,5.04382],[-75.3838,5.04378],[-75.38386,5.04367],[-75.3839,5.04364],[-75.38395,5.04356],[-75.38398,5.04352],[-75.38404,5.04343],[-75.38407,5.04334],[-75.38407,5.0433],[-75.38409,5.04323],[-75.38411,5.04315],[-75.38414,5.04304],[-75.38418,5.04294],[-75.38422,5.04285],[-75.38427,5.04278],[-75.38438,5.04265],[-75.38443,5.04257],[-75.38449,5.04249],[-75.38455,5.04242],[-75.38464,5.04235],[-75.38469,5.0423],[-75.38473,5.04224],[-75.38473,5.04214],[-75.38472,5.04204],[-75.38467,5.04187],[-75.3846,5.0417],[-75.38453,5.04156],[-75.3845,5.04149],[-75.38446,5.04138],[-75.38443,5.04129],[-75.3844,5.04121],[-75.38439,5.04113],[-75.3844,5.04095],[-75.3844,5.04083],[-75.38441,5.0407],[-75.38445,5.04053],[-75.3845,5.04038],[-75.38452,5.04027],[-75.38455,5.04017],[-75.38463,5.04007],[-75.38467,5.03999],[-75.38481,5.03975],[-75.38484,5.03969],[-75.38495,5.03953],[-75.38506,5.03942],[-75.3852,5.03926],[-75.38529,5.03914],[-75.38543,5.03896],[-75.3855,5.03886],[-75.38556,5.03861],[-75.38558,5.03835],[-75.38567,5.03813],[-75.38574,5.03794],[-75.38583,5.03774],[-75.38597,5.03753],[-75.38617,5.03738],[-75.38631,5.03728],[-75.38649,5.03718],[-75.38683,5.03697],[-75.38689,5.03683],[-75.38689,5.03674],[-75.38685,5.03662],[-75.38662,5.03638],[-75.38639,5.03626],[-75.38625,5.03609],[-75.38625,5.03607],[-75.38616,5.03589],[-75.38609,5.03573],[-75.38603,5.03557],[-75.386,5.03541],[-75.386,5.03525],[-75.386,5.03513],[-75.38606,5.03496],[-75.38614,5.03487],[-75.38623,5.0348],[-75.3863,5.03476],[-75.38636,5.03472],[-75.38651,5.03469],[-75.38662,5.03468],[-75.38663,5.03468],[-75.38664,5.03467],[-75.38669,5.03457],[-75.38669,5.03448],[-75.38678,5.03443],[-75.38683,5.03433],[-75.38692,5.03433],[-75.38702,5.03438],[-75.38712,5.03438],[-75.38713,5.03439],[-75.38714,5.03437],[-75.38717,5.03428],[-75.38717,5.0342],[-75.38713,5.03415],[-75.38708,5.0341],[-75.38697,5.03406],[-75.38692,5.03404],[-75.3868,5.03402],[-75.38675,5.03399],[-75.38668,5.03395],[-75.38657,5.0339],[-75.3865,5.03382],[-75.3865,5.03364],[-75.38661,5.03349],[-75.38667,5.03344],[-75.38673,5.03335],[-75.38679,5.0333],[-75.38693,5.03313],[-75.38703,5.03306],[-75.38715,5.03299],[-75.38723,5.03295],[-75.3873,5.0329],[-75.38737,5.03287],[-75.38749,5.03275],[-75.38759,5.03266],[-75.3877,5.03257],[-75.38778,5.03249],[-75.38783,5.03239],[-75.38775,5.03226],[-75.3877,5.03214],[-75.38765,5.03207],[-75.38762,5.03203],[-75.38755,5.03194],[-75.38734,5.03185],[-75.38708,5.03159],[-75.38705,5.03138],[-75.38706,5.0313],[-75.38707,5.03126],[-75.3871,5.03113],[-75.38714,5.03105],[-75.38715,5.03104],[-75.38717,5.031],[-75.3872,5.03096],[-75.38728,5.03083],[-75.38733,5.03067],[-75.38737,5.03053],[-75.38745,5.03036],[-75.38751,5.03016],[-75.38753,5.03012],[-75.38758,5.03004],[-75.38766,5.0299],[-75.38766,5.02989],[-75.38766,5.02986],[-75.38769,5.02973],[-75.38768,5.02969],[-75.38768,5.02967],[-75.38768,5.0296],[-75.38763,5.0295],[-75.38761,5.02948],[-75.38754,5.02938],[-75.38748,5.0293],[-75.38745,5.02925],[-75.38737,5.02911],[-75.38735,5.02907],[-75.38727,5.02891],[-75.38727,5.02876],[-75.38729,5.02871],[-75.38733,5.0286],[-75.38739,5.02849],[-75.38747,5.02839],[-75.38752,5.02834],[-75.38761,5.02829],[-75.38776,5.02821],[-75.38786,5.02812],[-75.3879,5.02807],[-75.38806,5.02793],[-75.38816,5.02787],[-75.38825,5.02781],[-75.38837,5.02776],[-75.38844,5.02772],[-75.38852,5.02765],[-75.38859,5.02758],[-75.38862,5.02755],[-75.38867,5.02748],[-75.38874,5.02741],[-75.38882,5.02731],[-75.38888,5.02726],[-75.38893,5.02719],[-75.38894,5.02711],[-75.38895,5.02699],[-75.38894,5.02696],[-75.38894,5.02685],[-75.38895,5.02667],[-75.3889,5.02656],[-75.3889,5.02649],[-75.38882,5.02618],[-75.38876,5.02595],[-75.38889,5.02573],[-75.38914,5.02563],[-75.38946,5.02562],[-75.38979,5.0255],[-75.38996,5.02539],[-75.39008,5.02531],[-75.39017,5.02521],[-75.39024,5.02514],[-75.39064,5.02503],[-75.39079,5.025],[-75.39112,5.02477],[-75.39112,5.02475],[-75.39112,5.02463],[-75.39112,5.0245],[-75.39124,5.02444],[-75.39131,5.02431],[-75.39143,5.02431],[-75.39154,5.02425],[-75.39149,5.02424],[-75.39141,5.0243],[-75.39117,5.02427],[-75.39116,5.02427],[-75.39107,5.02423],[-75.39099,5.02428],[-75.39092,5.02429],[-75.39083,5.0243],[-75.39075,5.02432],[-75.39067,5.02434],[-75.39052,5.02437],[-75.39043,5.02439],[-75.39039,5.02441],[-75.39034,5.02444],[-75.39031,5.02446],[-75.39027,5.02446],[-75.39021,5.02447],[-75.39013,5.02447],[-75.39005,5.02447],[-75.38998,5.02449],[-75.38995,5.0245],[-75.38987,5.02454],[-75.38981,5.02456],[-75.38976,5.02459],[-75.38972,5.0246],[-75.38967,5.02461],[-75.38961,5.02457],[-75.38961,5.02457],[-75.38955,5.02455],[-75.3895,5.02454],[-75.3894,5.02453],[-75.38932,5.02454],[-75.38927,5.02456],[-75.38924,5.02456],[-75.38919,5.02457],[-75.38913,5.02458],[-75.38907,5.02459],[-75.38897,5.02461],[-75.38887,5.02463],[-75.38873,5.02468],[-75.38865,5.02471],[-75.38857,5.02474],[-75.38848,5.02475],[-75.38839,5.02476],[-75.38833,5.02478],[-75.38826,5.0248],[-75.38819,5.02481],[-75.38816,5.02482],[-75.38806,5.02482],[-75.38797,5.02481],[-75.38793,5.02481],[-75.38789,5.0248],[-75.38786,5.02478],[-75.38773,5.02476],[-75.38768,5.02467],[-75.38763,5.02456],[-75.38757,5.02448],[-75.3875,5.02444],[-75.38749,5.02443],[-75.38738,5.02436],[-75.38732,5.02432],[-75.38726,5.02426],[-75.38714,5.02419],[-75.38703,5.02416],[-75.38692,5.02417],[-75.38682,5.02419],[-75.38677,5.02419],[-75.38667,5.0242],[-75.3866,5.02422],[-75.38651,5.02424],[-75.38637,5.02428],[-75.38628,5.02431],[-75.38622,5.02434],[-75.38616,5.02437],[-75.38608,5.0244],[-75.38599,5.02446],[-75.3859,5.02453],[-75.38584,5.02456],[-75.38576,5.02459],[-75.38569,5.02463],[-75.38566,5.02466],[-75.38559,5.0247],[-75.38552,5.02478],[-75.38548,5.02484],[-75.38545,5.02494],[-75.38543,5.02499],[-75.38541,5.02504],[-75.38533,5.02521],[-75.38531,5.02524],[-75.3853,5.02529],[-75.38528,5.02535],[-75.38527,5.0254],[-75.38526,5.02543],[-75.38525,5.02547],[-75.38521,5.02553],[-75.38516,5.02563],[-75.38513,5.02568],[-75.38506,5.02576],[-75.38497,5.02591],[-75.38492,5.02598],[-75.3849,5.02603],[-75.38488,5.02613],[-75.38488,5.02619],[-75.38489,5.02622],[-75.38487,5.0263],[-75.38487,5.02642],[-75.38485,5.02654],[-75.38484,5.0266],[-75.38482,5.02669],[-75.38482,5.02676],[-75.38479,5.02684],[-75.38478,5.02691],[-75.38476,5.02695],[-75.38471,5.02701],[-75.38467,5.02707],[-75.38461,5.02712],[-75.38455,5.02719],[-75.38451,5.02724],[-75.38448,5.02728],[-75.38445,5.02732],[-75.38442,5.02736],[-75.38434,5.02744],[-75.38429,5.02754],[-75.38424,5.02761],[-75.38421,5.02768],[-75.38419,5.02774],[-75.38418,5.02779],[-75.38416,5.02784],[-75.38412,5.02792],[-75.38408,5.02797],[-75.38402,5.02805],[-75.38395,5.02812],[-75.38392,5.02815],[-75.38386,5.0282],[-75.38379,5.02823],[-75.38375,5.02825],[-75.38371,5.02827],[-75.38355,5.02832],[-75.3835,5.02834],[-75.38346,5.02835],[-75.38342,5.02835],[-75.38338,5.02836],[-75.38332,5.02837],[-75.38329,5.02838],[-75.38323,5.02839],[-75.38317,5.0284],[-75.3831,5.02842],[-75.38301,5.02843],[-75.38296,5.02845],[-75.38289,5.02845],[-75.3829,5.02859],[-75.38292,5.02859],[-75.38302,5.02859],[-75.38311,5.02859],[-75.38326,5.02859],[-75.38335,5.02859],[-75.3835,5.02859],[-75.38359,5.02859],[-75.38369,5.02859],[-75.38378,5.02859],[-75.38388,5.02859],[-75.38397,5.02854],[-75.38412,5.02854],[-75.38421,5.02854],[-75.38435,5.02849],[-75.38445,5.02844],[-75.38454,5.02839],[-75.38464,5.0283],[-75.38474,5.02825],[-75.38478,5.02811],[-75.38488,5.02806],[-75.38488,5.02796],[-75.38488,5.02787],[-75.38488,5.02777],[-75.38488,5.02767],[-75.38492,5.02758],[-75.38492,5.02748],[-75.38492,5.02739],[-75.38497,5.02729],[-75.38497,5.0272],[-75.38502,5.0271],[-75.38502,5.027],[-75.38507,5.02686],[-75.38511,5.02676],[-75.38516,5.02662],[-75.38526,5.02657],[-75.38526,5.02648],[-75.3853,5.02638],[-75.38535,5.02629],[-75.3854,5.02619],[-75.38545,5.02609],[-75.38554,5.02605],[-75.38554,5.02595],[-75.38559,5.02581],[-75.38564,5.02571],[-75.38568,5.02557],[-75.38568,5.02547],[-75.38578,5.02542],[-75.38583,5.02533],[-75.38583,5.02523],[-75.38592,5.02518],[-75.38597,5.02509],[-75.38606,5.02504],[-75.38606,5.02494],[-75.38616,5.02494],[-75.38621,5.02485],[-75.38625,5.02475],[-75.38635,5.02466],[-75.38645,5.02461],[-75.38654,5.02456],[-75.38664,5.02456],[-75.38673,5.02456],[-75.38683,5.02456],[-75.38692,5.02461],[-75.38702,5.02461],[-75.38711,5.02466],[-75.38711,5.02475],[-75.38716,5.02485],[-75.38716,5.02494],[-75.38726,5.02499],[-75.38735,5.02509],[-75.38745,5.02518],[-75.38754,5.02518],[-75.38764,5.02523],[-75.38773,5.02523],[-75.38783,5.02528],[-75.38793,5.02528],[-75.38802,5.02528],[-75.38812,5.02528],[-75.38821,5.02528],[-75.38831,5.02528],[-75.3884,5.02528],[-75.38845,5.02537],[-75.38855,5.02542],[-75.38859,5.02551],[-75.38859,5.02561],[-75.38864,5.02571],[-75.38869,5.0258],[-75.38874,5.0259],[-75.38874,5.02599],[-75.38879,5.02609],[-75.38879,5.02618],[-75.38879,5.02628],[-75.38879,5.02642],[-75.38879,5.02652],[-75.3886,5.02661],[-75.3885,5.02666],[-75.38841,5.02671],[-75.38836,5.02671],[-75.38837,5.02673],[-75.38838,5.02675],[-75.38839,5.02678],[-75.3884,5.02681],[-75.3884,5.02684],[-75.3884,5.02687],[-75.38841,5.0269],[-75.3884,5.02693],[-75.3884,5.02696],[-75.3884,5.02699],[-75.38839,5.02702],[-75.38838,5.02704],[-75.38837,5.02707],[-75.38836,5.0271],[-75.38835,5.02712],[-75.38833,5.02715],[-75.38831,5.02717],[-75.38829,5.0272],[-75.38827,5.02722],[-75.38825,5.02724],[-75.38823,5.02726],[-75.38821,5.02727],[-75.38818,5.02729],[-75.38816,5.0273],[-75.38813,5.02732],[-75.3881,5.02733],[-75.38807,5.02734],[-75.38804,5.02734],[-75.38801,5.02735],[-75.38799,5.02735],[-75.38796,5.02735],[-75.38793,5.02735],[-75.3879,5.02735],[-75.38787,5.02734],[-75.38784,5.02734],[-75.38749,5.02725],[-75.38742,5.02723],[-75.38741,5.02723],[-75.38738,5.02722],[-75.38736,5.02721],[-75.38733,5.02719],[-75.3873,5.02718],[-75.38728,5.02716],[-75.38725,5.02715],[-75.38724,5.02713],[-75.38723,5.02713],[-75.38721,5.02711],[-75.38719,5.02709],[-75.38717,5.02706],[-75.38716,5.02704],[-75.387,5.02682],[-75.387,5.02682],[-75.38672,5.02714],[-75.38672,5.02715],[-75.38629,5.02756],[-75.38622,5.02765],[-75.38626,5.02767],[-75.38626,5.02777],[-75.38631,5.02786],[-75.38631,5.02796],[-75.38636,5.02805],[-75.38636,5.02815],[-75.38636,5.02825],[-75.38636,5.02834],[-75.38636,5.02844],[-75.38626,5.02848],[-75.38621,5.02858],[-75.38617,5.02868],[-75.38607,5.02877],[-75.38602,5.02887],[-75.38602,5.02896],[-75.38603,5.02906],[-75.38603,5.02916],[-75.38603,5.02925],[-75.38603,5.02935],[-75.38603,5.02944],[-75.38603,5.02949],[-75.38617,5.02957],[-75.38617,5.02957],[-75.38618,5.02957],[-75.38618,5.02958],[-75.38618,5.02958],[-75.38628,5.02977],[-75.38636,5.02973],[-75.38646,5.02968],[-75.38655,5.02963],[-75.38665,5.02954],[-75.38669,5.02944],[-75.38679,5.02939],[-75.38688,5.0293],[-75.38688,5.0292],[-75.38698,5.0292],[-75.38707,5.02915],[-75.38717,5.0291],[-75.38727,5.0291],[-75.38727,5.0292],[-75.38727,5.0293],[-75.38727,5.02939],[-75.38717,5.02949],[-75.38717,5.02958],[-75.38708,5.02968],[-75.38708,5.02977],[-75.38708,5.02987],[-75.38708,5.02997],[-75.38708,5.03006],[-75.38708,5.03016],[-75.38708,5.0303],[-75.38708,5.0304],[-75.38708,5.03049],[-75.38708,5.03059],[-75.38708,5.03068],[-75.38708,5.03073],[-75.38708,5.03078],[-75.38708,5.03083],[-75.38698,5.03083],[-75.38684,5.03088],[-75.38674,5.03092],[-75.38668,5.03096],[-75.38671,5.03135],[-75.38671,5.03135],[-75.3867,5.03136],[-75.3867,5.03136],[-75.3867,5.03137],[-75.3867,5.03137],[-75.38669,5.03138],[-75.38669,5.03138],[-75.38668,5.03138],[-75.38668,5.03138],[-75.38667,5.03138],[-75.38666,5.03138],[-75.38666,5.03138],[-75.38665,5.03138],[-75.38665,5.03138],[-75.38664,5.03137],[-75.38664,5.03137],[-75.38664,5.03136],[-75.38663,5.03136],[-75.38663,5.03135],[-75.38661,5.03099]]]},"properties":{"OBJECTID":4,"CODDEP":"17","AREA":170.863053471,"Tipo":"Bosque denso alto de tierra firme","Zona":"Zona de preservación","Subzona":"Zona de preservación","Shape_Length":18091.705324519757,"Shape_Area":1707968.5125233768}},{"type":"Feature","id":5,"geometry":{"type":"Polygon","coordinates":[[[-75.38741,5.02567],[-75.38738,5.02568],[-75.38735,5.02568],[-75.38732,5.02569],[-75.38729,5.0257],[-75.38727,5.02571],[-75.38724,5.02572],[-75.38721,5.02573],[-75.38719,5.02575],[-75.38716,5.02577],[-75.38714,5.02578],[-75.38712,5.0258],[-75.3871,5.02583],[-75.38708,5.02585],[-75.38706,5.02587],[-75.38705,5.0259],[-75.38703,5.02592],[-75.38703,5.02594],[-75.38699,5.02601],[-75.38692,5.02614],[-75.38689,5.02619],[-75.38689,5.02619],[-75.38687,5.02622],[-75.38686,5.02625],[-75.38685,5.02628],[-75.38684,5.0263],[-75.38683,5.02633],[-75.38683,5.02636],[-75.38683,5.02639],[-75.38683,5.02642],[-75.38683,5.02645],[-75.38683,5.02648],[-75.38683,5.02651],[-75.38684,5.02654],[-75.38685,5.02657],[-75.38686,5.02659],[-75.38687,5.02662],[-75.38689,5.02665],[-75.3869,5.02667],[-75.3869,5.02668],[-75.38716,5.02704],[-75.38717,5.02706],[-75.38719,5.02709],[-75.38721,5.02711],[-75.38723,5.02713],[-75.38724,5.02713],[-75.38725,5.02715],[-75.38728,5.02716],[-75.3873,5.02718],[-75.38733,5.02719],[-75.38736,5.02721],[-75.38738,5.02722],[-75.38741,5.02723],[-75.38742,5.02723],[-75.38749,5.02725],[-75.38784,5.02734],[-75.38787,5.02734],[-75.3879,5.02735],[-75.38793,5.02735],[-75.38796,5.02735],[-75.38799,5.02735],[-75.38801,5.02735],[-75.38804,5.02734],[-75.38807,5.02734],[-75.3881,5.02733],[-75.38813,5.02732],[-75.38816,5.0273],[-75.38818,5.02729],[-75.38821,5.02727],[-75.38823,5.02726],[-75.38825,5.02724],[-75.38827,5.02722],[-75.38829,5.0272],[-75.38831,5.02717],[-75.38833,5.02715],[-75.38835,5.02712],[-75.38836,5.0271],[-75.38837,5.02707],[-75.38838,5.02704],[-75.38839,5.02702],[-75.3884,5.02699],[-75.3884,5.02696],[-75.3884,5.02693],[-75.38841,5.0269],[-75.3884,5.02687],[-75.3884,5.02684],[-75.3884,5.02681],[-75.38839,5.02678],[-75.38838,5.02675],[-75.38837,5.02673],[-75.38836,5.02671],[-75.38836,5.0267],[-75.38836,5.02669],[-75.3881,5.02619],[-75.38809,5.02616],[-75.38807,5.02614],[-75.38805,5.02612],[-75.38803,5.02609],[-75.38802,5.02608],[-75.38776,5.02581],[-75.38776,5.0258],[-75.38773,5.02578],[-75.38771,5.02576],[-75.38769,5.02575],[-75.38766,5.02573],[-75.38764,5.02572],[-75.38761,5.02571],[-75.38758,5.0257],[-75.38755,5.02569],[-75.38753,5.02568],[-75.3875,5.02568],[-75.38747,5.02567],[-75.38744,5.02567],[-75.38741,5.02567]]]},"properties":{"OBJECTID":5,"CODDEP":"17","AREA":2.27151173767,"Tipo":"Area de influencia vivienda","Zona":"Zona general de uso público","Subzona":"Subzona de alta densidad de uso","Shape_Length":554.0328400665201,"Shape_Area":22706.40368279763}},{"type":"Feature","id":6,"geometry":{"type":"Polygon","coordinates":[[[-75.38678,5.03443],[-75.38669,5.03448],[-75.38669,5.03457],[-75.38664,5.03467],[-75.38663,5.03468],[-75.38676,5.03466],[-75.38691,5.03461],[-75.38703,5.03455],[-75.3871,5.03447],[-75.38713,5.03439],[-75.38712,5.03438],[-75.38702,5.03438],[-75.38692,5.03433],[-75.38683,5.03433],[-75.38678,5.03443]]]},"properties":{"OBJECTID":6,"CODDEP":"17","AREA":0.117429084691,"Tipo":"Vegetacion secundaria o en transicion","Zona":"Zona de restauración","Subzona":"Zona de restauración","Shape_Length":150.31352024047743,"Shape_Area":1173.8400668937559}},{"type":"Feature","id":7,"geometry":{"type":"Polygon","coordinates":[[[-75.38196,5.03992],[-75.3821,5.03992],[-75.38219,5.03992],[-75.38229,5.03978],[-75.38239,5.03968],[-75.38239,5.03954],[-75.38238,5.03944],[-75.38238,5.0393],[-75.38238,5.0392],[-75.38238,5.03911],[-75.38238,5.03901],[-75.38238,5.03892],[-75.38238,5.03882],[-75.38238,5.03873],[-75.38238,5.03863],[-75.38238,5.03853],[-75.38238,5.03844],[-75.38238,5.03834],[-75.38238,5.03825],[-75.38238,5.03815],[-75.38238,5.03806],[-75.38238,5.03791],[-75.38238,5.03782],[-75.38238,5.03772],[-75.38238,5.03762],[-75.38243,5.03753],[-75.38248,5.03743],[-75.38252,5.03734],[-75.38257,5.03724],[-75.38267,5.03719],[-75.38267,5.0371],[-75.38267,5.037],[-75.38267,5.03691],[-75.38267,5.03681],[-75.38267,5.03672],[-75.38271,5.03662],[-75.38271,5.03652],[-75.38271,5.03643],[-75.38271,5.03633],[-75.38271,5.03624],[-75.38276,5.03614],[-75.38276,5.03605],[-75.38281,5.0359],[-75.38281,5.03581],[-75.38281,5.03571],[-75.38281,5.03557],[-75.38281,5.03547],[-75.38281,5.03538],[-75.38281,5.03528],[-75.38281,5.03518],[-75.38281,5.03509],[-75.38281,5.03499],[-75.38285,5.0349],[-75.38285,5.0348],[-75.38285,5.03471],[-75.3829,5.03461],[-75.3829,5.03447],[-75.3829,5.03437],[-75.3829,5.03427],[-75.3829,5.03418],[-75.3829,5.03408],[-75.3829,5.03399],[-75.3829,5.03389],[-75.3829,5.0338],[-75.3829,5.0337],[-75.3829,5.03361],[-75.3829,5.03351],[-75.3829,5.03341],[-75.3829,5.03332],[-75.3829,5.03322],[-75.3829,5.03313],[-75.38294,5.03303],[-75.38294,5.03294],[-75.38304,5.03284],[-75.38313,5.03279],[-75.38323,5.03274],[-75.38333,5.03265],[-75.38347,5.03265],[-75.38356,5.03265],[-75.38366,5.03255],[-75.38375,5.03255],[-75.38385,5.03255],[-75.38395,5.0325],[-75.38414,5.03245],[-75.38428,5.03245],[-75.38437,5.03241],[-75.38447,5.03241],[-75.38457,5.03241],[-75.38457,5.03241],[-75.38457,5.03236],[-75.38457,5.0323],[-75.38457,5.03224],[-75.38451,5.03224],[-75.38451,5.03218],[-75.38445,5.03218],[-75.38439,5.03212],[-75.38433,5.03206],[-75.38433,5.032],[-75.38421,5.032],[-75.38421,5.03194],[-75.38409,5.03188],[-75.38403,5.03182],[-75.38397,5.03176],[-75.38391,5.0317],[-75.38385,5.03164],[-75.38373,5.03158],[-75.38367,5.03146],[-75.38355,5.03146],[-75.3835,5.0314],[-75.38344,5.0314],[-75.38338,5.0314],[-75.38332,5.0314],[-75.38332,5.03146],[-75.38332,5.03152],[-75.38332,5.03158],[-75.38332,5.03164],[-75.38332,5.0317],[-75.38332,5.03176],[-75.38332,5.03182],[-75.38326,5.03182],[-75.38326,5.03188],[-75.3832,5.03188],[-75.3832,5.03194],[-75.38314,5.032],[-75.38308,5.032],[-75.38302,5.032],[-75.38296,5.032],[-75.3829,5.03194],[-75.38284,5.03194],[-75.38278,5.03194],[-75.38272,5.03194],[-75.38266,5.03188],[-75.38261,5.03183],[-75.3826,5.03187],[-75.38252,5.03227],[-75.38249,5.03275],[-75.38247,5.03313],[-75.38253,5.03356],[-75.38259,5.03374],[-75.38271,5.03407],[-75.38274,5.03444],[-75.38276,5.03482],[-75.38274,5.03521],[-75.38267,5.03547],[-75.38255,5.03582],[-75.38244,5.03606],[-75.3823,5.03631],[-75.38223,5.03645],[-75.38206,5.03726],[-75.38182,5.03795],[-75.38186,5.03816],[-75.38211,5.0388],[-75.38207,5.03907],[-75.38206,5.03913],[-75.38201,5.03935],[-75.38184,5.03972],[-75.38179,5.03987],[-75.38186,5.03987],[-75.38196,5.03992]]]},"properties":{"OBJECTID":7,"CODDEP":"17","AREA":5.07427172647,"Tipo":"Vegetacion secundaria o en transicion","Zona":"Zona de restauración","Subzona":"Zona de restauración","Shape_Length":2324.9131173526494,"Shape_Area":50723.10007747686}},{"type":"Feature","id":8,"geometry":{"type":"Polygon","coordinates":[[[-75.38153,5.0415],[-75.38149,5.04171],[-75.38144,5.04196],[-75.38138,5.04229],[-75.38138,5.04234],[-75.38115,5.04299],[-75.38113,5.04318],[-75.38115,5.04318],[-75.38125,5.04318],[-75.38134,5.04318],[-75.38144,5.04313],[-75.38149,5.04303],[-75.38158,5.04298],[-75.38163,5.04289],[-75.38163,5.04279],[-75.38163,5.04265],[-75.38163,5.04255],[-75.38163,5.04246],[-75.38163,5.04232],[-75.38163,5.04222],[-75.38163,5.04212],[-75.38163,5.04198],[-75.38163,5.04188],[-75.38163,5.04179],[-75.38163,5.04169],[-75.38163,5.0416],[-75.38163,5.0415],[-75.38163,5.04141],[-75.38157,5.04138],[-75.38153,5.0415]]]},"properties":{"OBJECTID":8,"CODDEP":"17","AREA":0.55714038702,"Tipo":"Vegetacion secundaria o en transicion","Zona":"Zona de restauración","Subzona":"Zona de restauración","Shape_Length":448.1488712476363,"Shape_Area":5569.243210373142}},{"type":"Feature","id":9,"geometry":{"type":"Polygon","coordinates":[[[-75.38268,5.04646],[-75.38267,5.04648],[-75.38267,5.04648],[-75.38271,5.04646],[-75.38268,5.04646]]]},"properties":{"OBJECTID":9,"CODDEP":"17","AREA":0.000424334188889,"Tipo":"Vegetacion secundaria o en transicion","Zona":"Zona de restauración","Subzona":"Zona de restauración","Shape_Length":11.364351080569147,"Shape_Area":4.241632272302015}},{"type":"Feature","id":10,"geometry":{"type":"Polygon","coordinates":[[[-75.37064,5.05537],[-75.37065,5.05573],[-75.37077,5.05609],[-75.37089,5.0566],[-75.3709,5.05668],[-75.37092,5.05695],[-75.37083,5.05715],[-75.37072,5.05738],[-75.37058,5.05756],[-75.37045,5.05782],[-75.37038,5.05817],[-75.37035,5.05847],[-75.3703,5.05874],[-75.37058,5.05882],[-75.37061,5.05876],[-75.37065,5.05866],[-75.37065,5.05857],[-75.37075,5.05847],[-75.37084,5.05833],[-75.37084,5.05823],[-75.37089,5.05813],[-75.37094,5.05804],[-75.37099,5.05794],[-75.37103,5.05785],[-75.37108,5.05775],[-75.37108,5.05766],[-75.37113,5.05751],[-75.37118,5.05742],[-75.37122,5.05732],[-75.37122,5.05723],[-75.37122,5.05708],[-75.37122,5.05699],[-75.37127,5.05689],[-75.37132,5.05679],[-75.37137,5.0567],[-75.37141,5.0566],[-75.37146,5.05651],[-75.37151,5.05641],[-75.3716,5.05636],[-75.3716,5.05627],[-75.3717,5.05622],[-75.37175,5.05612],[-75.37179,5.05603],[-75.37184,5.05588],[-75.37189,5.05579],[-75.37189,5.05569],[-75.37189,5.0555],[-75.37189,5.05536],[-75.37189,5.05526],[-75.37189,5.05517],[-75.37184,5.05507],[-75.37174,5.05507],[-75.3716,5.05498],[-75.37151,5.05488],[-75.37141,5.05483],[-75.37127,5.05478],[-75.37117,5.05469],[-75.37108,5.05469],[-75.37098,5.05464],[-75.37088,5.05459],[-75.37079,5.0545],[-75.37069,5.0545],[-75.37065,5.05448],[-75.37066,5.05452],[-75.37071,5.05475],[-75.37072,5.05502],[-75.37064,5.05537]]]},"properties":{"OBJECTID":10,"CODDEP":"17","AREA":3.58594525277,"Tipo":"Vegetacion secundaria o en transicion","Zona":"Zona de restauración","Subzona":"Zona de restauración","Shape_Length":1137.6956025479515,"Shape_Area":35845.31001370854}},{"type":"Feature","id":11,"geometry":{"type":"Polygon","coordinates":[[[-75.38196,5.05883],[-75.38216,5.05886],[-75.38245,5.0589],[-75.38276,5.05896],[-75.38308,5.059],[-75.38328,5.05906],[-75.38352,5.05909],[-75.38364,5.05913],[-75.3837,5.05915],[-75.38397,5.05921],[-75.3842,5.05925],[-75.38452,5.05932],[-75.38453,5.05926],[-75.38453,5.05903],[-75.38452,5.05885],[-75.38445,5.05872],[-75.38444,5.05869],[-75.38442,5.05871],[-75.38432,5.05871],[-75.38428,5.0588],[-75.38418,5.0588],[-75.38408,5.0588],[-75.38399,5.0588],[-75.38389,5.05875],[-75.38389,5.05866],[-75.38385,5.05852],[-75.38384,5.05842],[-75.38384,5.05832],[-75.38384,5.05823],[-75.38384,5.05813],[-75.38384,5.05804],[-75.38384,5.05794],[-75.38384,5.05785],[-75.38384,5.05775],[-75.38384,5.05765],[-75.3838,5.05756],[-75.38365,5.05756],[-75.3836,5.05765],[-75.38351,5.05766],[-75.38351,5.05775],[-75.38346,5.05789],[-75.38337,5.05799],[-75.38337,5.05809],[-75.38327,5.05818],[-75.38318,5.05823],[-75.38308,5.05809],[-75.38308,5.05799],[-75.38308,5.0579],[-75.38308,5.0578],[-75.38308,5.0577],[-75.38308,5.05761],[-75.38303,5.05751],[-75.38303,5.05742],[-75.38303,5.05732],[-75.38303,5.05723],[-75.38294,5.05723],[-75.38284,5.05723],[-75.38275,5.05723],[-75.38265,5.05723],[-75.3826,5.05732],[-75.38251,5.05732],[-75.38241,5.05737],[-75.38232,5.05742],[-75.38222,5.05747],[-75.38213,5.05747],[-75.38203,5.05747],[-75.38193,5.05751],[-75.38184,5.05761],[-75.38174,5.05761],[-75.38165,5.05766],[-75.38155,5.05775],[-75.38146,5.05775],[-75.38146,5.05785],[-75.38136,5.05785],[-75.38136,5.05795],[-75.38127,5.05799],[-75.38117,5.05809],[-75.38117,5.05819],[-75.38113,5.05828],[-75.38108,5.05838],[-75.38108,5.05847],[-75.38103,5.05857],[-75.38103,5.05865],[-75.38104,5.05865],[-75.38113,5.05865],[-75.38115,5.05865],[-75.38126,5.05868],[-75.38147,5.05873],[-75.38161,5.05876],[-75.38196,5.05883]]]},"properties":{"OBJECTID":11,"CODDEP":"17","AREA":4.71355616083,"Tipo":"Vegetacion secundaria o en transicion","Zona":"Zona de restauración","Subzona":"Zona de restauración","Shape_Length":1224.3793236541298,"Shape_Area":47117.324038747494}},{"type":"Feature","id":12,"geometry":{"type":"Polygon","coordinates":[[[-75.37481,5.06043],[-75.37472,5.06043],[-75.37462,5.06043],[-75.37453,5.06043],[-75.37443,5.06048],[-75.37433,5.06048],[-75.37424,5.06048],[-75.37414,5.06048],[-75.37405,5.06048],[-75.37395,5.06048],[-75.37386,5.06048],[-75.37376,5.06058],[-75.37367,5.06058],[-75.37357,5.06063],[-75.37349,5.06071],[-75.37397,5.06174],[-75.3741,5.06164],[-75.37445,5.06139],[-75.37477,5.06118],[-75.37511,5.06094],[-75.37533,5.06081],[-75.37564,5.06065],[-75.37594,5.06051],[-75.37614,5.06047],[-75.37632,5.06044],[-75.3764,5.06039],[-75.3765,5.06039],[-75.37656,5.0604],[-75.37692,5.06034],[-75.37709,5.06029],[-75.37729,5.06018],[-75.37756,5.06015],[-75.37775,5.06013],[-75.37792,5.06006],[-75.37815,5.05997],[-75.3783,5.05994],[-75.37843,5.05991],[-75.37868,5.05987],[-75.37894,5.05981],[-75.37926,5.0597],[-75.37951,5.05961],[-75.37957,5.05956],[-75.37986,5.05929],[-75.37987,5.05927],[-75.37997,5.0592],[-75.38011,5.05911],[-75.38024,5.05905],[-75.38028,5.05901],[-75.38039,5.0589],[-75.38047,5.05883],[-75.38064,5.05872],[-75.38071,5.0587],[-75.38071,5.05868],[-75.38061,5.05858],[-75.38061,5.05849],[-75.38056,5.05839],[-75.38051,5.05825],[-75.38047,5.05815],[-75.38037,5.05806],[-75.38027,5.05806],[-75.38023,5.05796],[-75.38013,5.05791],[-75.38013,5.05782],[-75.38004,5.05777],[-75.37994,5.05767],[-75.37984,5.05758],[-75.37975,5.05758],[-75.37965,5.05748],[-75.37961,5.05739],[-75.37951,5.05739],[-75.37946,5.05729],[-75.37937,5.0572],[-75.37927,5.0571],[-75.37918,5.05705],[-75.37908,5.05701],[-75.37898,5.05696],[-75.37894,5.05686],[-75.37884,5.05686],[-75.37879,5.05677],[-75.3787,5.05672],[-75.37865,5.05662],[-75.37855,5.05658],[-75.37855,5.05648],[-75.37851,5.05639],[-75.37841,5.05634],[-75.37836,5.05624],[-75.37831,5.05615],[-75.37827,5.05605],[-75.37822,5.05596],[-75.37812,5.05605],[-75.37812,5.05615],[-75.37808,5.05624],[-75.37803,5.05634],[-75.37803,5.05643],[-75.37803,5.05653],[-75.37798,5.05663],[-75.37798,5.05672],[-75.37798,5.05682],[-75.37798,5.05696],[-75.37798,5.05706],[-75.37798,5.05715],[-75.37794,5.05725],[-75.37794,5.05734],[-75.37794,5.05744],[-75.37794,5.05754],[-75.37794,5.05763],[-75.37784,5.05768],[-75.37775,5.05768],[-75.37765,5.05758],[-75.3776,5.05749],[-75.3776,5.05734],[-75.3776,5.05725],[-75.3776,5.05715],[-75.3776,5.05706],[-75.3776,5.05691],[-75.3776,5.05682],[-75.3776,5.05672],[-75.3776,5.05663],[-75.3776,5.05653],[-75.37755,5.05644],[-75.37746,5.05639],[-75.37741,5.05629],[-75.37741,5.0562],[-75.37736,5.0561],[-75.37731,5.05601],[-75.37722,5.05591],[-75.37717,5.05581],[-75.37717,5.05572],[-75.37717,5.05562],[-75.37726,5.05558],[-75.37731,5.05548],[-75.37736,5.05538],[-75.37741,5.05529],[-75.37741,5.05519],[-75.37741,5.0551],[-75.37745,5.055],[-75.37745,5.0549],[-75.37745,5.05481],[-75.37745,5.05471],[-75.37745,5.05462],[-75.37741,5.05452],[-75.3774,5.05443],[-75.37736,5.05433],[-75.37736,5.05424],[-75.37736,5.05414],[-75.37726,5.05409],[-75.37726,5.054],[-75.37721,5.0539],[-75.37721,5.0538],[-75.37721,5.05366],[-75.37716,5.05357],[-75.37716,5.05347],[-75.37716,5.05337],[-75.37726,5.05328],[-75.37731,5.05318],[-75.3774,5.05313],[-75.3775,5.05309],[-75.37759,5.05309],[-75.37769,5.05304],[-75.37778,5.05299],[-75.37788,5.05299],[-75.37797,5.05299],[-75.37807,5.05299],[-75.37817,5.05299],[-75.37826,5.05299],[-75.37836,5.05299],[-75.37845,5.05299],[-75.37855,5.05299],[-75.37864,5.05299],[-75.37874,5.05294],[-75.37883,5.05289],[-75.37893,5.05289],[-75.37902,5.05284],[-75.37912,5.0528],[-75.37921,5.0527],[-75.37931,5.05265],[-75.3794,5.05256],[-75.3794,5.05246],[-75.37945,5.05237],[-75.3795,5.05227],[-75.3795,5.05217],[-75.3794,5.05213],[-75.37931,5.05213],[-75.37921,5.05208],[-75.37912,5.05203],[-75.37902,5.05198],[-75.37893,5.05194],[-75.37883,5.05189],[-75.37883,5.05179],[-75.37878,5.0517],[-75.37869,5.05165],[-75.37859,5.0516],[-75.3785,5.0516],[-75.3784,5.05155],[-75.37831,5.05155],[-75.37821,5.05155],[-75.37811,5.05155],[-75.37811,5.05165],[-75.37812,5.05175],[-75.37807,5.05184],[-75.37807,5.05194],[-75.37807,5.05203],[-75.37807,5.05213],[-75.37797,5.05222],[-75.37788,5.05227],[-75.37773,5.05227],[-75.37764,5.05227],[-75.3775,5.05227],[-75.3774,5.05227],[-75.37731,5.05227],[-75.37721,5.05223],[-75.37711,5.05218],[-75.37702,5.05218],[-75.37692,5.05213],[-75.37683,5.05213],[-75.37678,5.05204],[-75.37668,5.05199],[-75.37659,5.05199],[-75.37654,5.05189],[-75.37645,5.05184],[-75.3764,5.05175],[-75.3764,5.05165],[-75.3764,5.05156],[-75.3764,5.05146],[-75.3764,5.05137],[-75.3764,5.05127],[-75.37644,5.05118],[-75.37649,5.05108],[-75.37649,5.05098],[-75.37649,5.05089],[-75.37654,5.05079],[-75.37663,5.05074],[-75.37663,5.05065],[-75.37668,5.05055],[-75.37678,5.0505],[-75.37682,5.05041],[-75.37692,5.05036],[-75.37706,5.05031],[-75.37716,5.05031],[-75.37725,5.05031],[-75.37735,5.05031],[-75.37744,5.05026],[-75.37754,5.05022],[-75.37763,5.05017],[-75.37763,5.05007],[-75.37768,5.04998],[-75.37763,5.04988],[-75.37754,5.04983],[-75.37749,5.04974],[-75.3774,5.04969],[-75.3774,5.04959],[-75.37739,5.0495],[-75.37749,5.04936],[-75.37759,5.04931],[-75.37763,5.04921],[-75.37773,5.04921],[-75.37782,5.04916],[-75.37792,5.04911],[-75.37801,5.04907],[-75.37811,5.04907],[-75.37821,5.04902],[-75.3783,5.04897],[-75.3784,5.04897],[-75.37849,5.04887],[-75.37859,5.04883],[-75.37868,5.04873],[-75.37878,5.04868],[-75.37887,5.04863],[-75.37892,5.04854],[-75.37902,5.04849],[-75.37906,5.0484],[-75.37911,5.0483],[-75.37921,5.04825],[-75.37925,5.04816],[-75.37935,5.04806],[-75.37935,5.04796],[-75.37944,5.04792],[-75.37949,5.04782],[-75.37954,5.0478],[-75.37951,5.04774],[-75.37946,5.0476],[-75.37946,5.04751],[-75.37941,5.04741],[-75.37937,5.04731],[-75.37932,5.04722],[-75.37927,5.04708],[-75.37917,5.04708],[-75.37908,5.04708],[-75.37898,5.04712],[-75.37889,5.04717],[-75.37884,5.04727],[-75.37879,5.04736],[-75.37875,5.04746],[-75.37875,5.04755],[-75.37865,5.0476],[-75.37855,5.04765],[-75.37841,5.04775],[-75.37832,5.04779],[-75.37822,5.0478],[-75.37813,5.0478],[-75.37803,5.0478],[-75.37793,5.0478],[-75.37784,5.0478],[-75.37774,5.0477],[-75.3777,5.0476],[-75.37774,5.04751],[-75.37779,5.04741],[-75.37784,5.04732],[-75.37793,5.04727],[-75.37803,5.04727],[-75.37812,5.04722],[-75.37822,5.04713],[-75.37832,5.04713],[-75.37841,5.04703],[-75.37851,5.04703],[-75.3786,5.04698],[-75.3787,5.04698],[-75.37879,5.04693],[-75.37889,5.04679],[-75.37898,5.04674],[-75.37898,5.04665],[-75.37898,5.04655],[-75.37893,5.04645],[-75.37879,5.0465],[-75.3787,5.0465],[-75.3786,5.0465],[-75.3785,5.0465],[-75.37841,5.0465],[-75.37831,5.0465],[-75.37831,5.04641],[-75.37831,5.04631],[-75.37841,5.04626],[-75.3785,5.04622],[-75.37855,5.04612],[-75.37855,5.04602],[-75.37855,5.04593],[-75.37846,5.04588],[-75.37836,5.04588],[-75.37826,5.04579],[-75.37817,5.04579],[-75.37817,5.04569],[-75.37812,5.04559],[-75.37803,5.04555],[-75.37793,5.04555],[-75.37783,5.0455],[-75.37774,5.04545],[-75.37769,5.04536],[-75.3776,5.04526],[-75.37755,5.04517],[-75.37745,5.04507],[-75.3774,5.04497],[-75.3774,5.04488],[-75.37736,5.04478],[-75.37731,5.04469],[-75.37726,5.04459],[-75.37721,5.0445],[-75.37721,5.0444],[-75.37721,5.0443],[-75.37721,5.04421],[-75.37726,5.04411],[-75.37726,5.04402],[-75.37731,5.04392],[-75.37735,5.04383],[-75.3774,5.04373],[-75.37745,5.04359],[-75.3775,5.04349],[-75.37759,5.04344],[-75.37759,5.04335],[-75.37759,5.04325],[-75.37759,5.04316],[-75.37759,5.04306],[-75.37759,5.04296],[-75.37759,5.04287],[-75.3775,5.04287],[-75.3774,5.04287],[-75.3773,5.04287],[-75.37721,5.04287],[-75.37711,5.04292],[-75.37702,5.04292],[-75.37692,5.04297],[-75.37683,5.04301],[-75.37677,5.04298],[-75.37673,5.04297],[-75.37668,5.04282],[-75.37659,5.04282],[-75.37649,5.04282],[-75.3764,5.04282],[-75.3763,5.04282],[-75.37621,5.04287],[-75.37611,5.04292],[-75.37602,5.04292],[-75.37597,5.04302],[-75.37587,5.04306],[-75.37578,5.04316],[-75.37568,5.04321],[-75.37559,5.0433],[-75.37559,5.0434],[-75.37559,5.04349],[-75.37559,5.04359],[-75.37559,5.04369],[-75.37559,5.04378],[-75.37559,5.04393],[-75.37559,5.04402],[-75.37559,5.04412],[-75.37564,5.04421],[-75.37564,5.04431],[-75.37564,5.0444],[-75.37564,5.0445],[-75.37564,5.04459],[-75.37564,5.04469],[-75.37554,5.04479],[-75.37545,5.04488],[-75.37535,5.04488],[-75.37526,5.04498],[-75.37531,5.04512],[-75.3754,5.04527],[-75.3755,5.04531],[-75.37559,5.04531],[-75.37569,5.04541],[-75.37578,5.04546],[-75.37588,5.0455],[-75.37597,5.04555],[-75.37607,5.04555],[-75.37612,5.04555],[-75.37636,5.04612],[-75.37641,5.04622],[-75.37641,5.04632],[-75.37641,5.04641],[-75.37641,5.04651],[-75.37641,5.0466],[-75.37641,5.0467],[-75.37641,5.04679],[-75.37636,5.04689],[-75.37636,5.04699],[-75.37631,5.04708],[-75.37631,5.04718],[-75.37631,5.04727],[-75.37631,5.04737],[-75.37631,5.04751],[-75.37631,5.04761],[-75.37631,5.04775],[-75.37622,5.04785],[-75.37617,5.04794],[-75.37612,5.04804],[-75.37607,5.04813],[-75.37598,5.04823],[-75.37588,5.04833],[-75.37579,5.04833],[-75.37569,5.04842],[-75.3756,5.04847],[-75.37555,5.04857],[-75.37546,5.04857],[-75.37536,5.04857],[-75.37526,5.04857],[-75.37517,5.04857],[-75.37507,5.04857],[-75.37498,5.04857],[-75.37488,5.04857],[-75.37484,5.04866],[-75.37479,5.04876],[-75.37479,5.04885],[-75.37479,5.04895],[-75.37479,5.04905],[-75.37484,5.04914],[-75.37484,5.04924],[-75.37484,5.04933],[-75.37488,5.04943],[-75.37493,5.04952],[-75.37498,5.04962],[-75.37508,5.04967],[-75.37517,5.04971],[-75.37522,5.04981],[-75.37522,5.04991],[-75.37522,5.05],[-75.37517,5.0501],[-75.37512,5.05019],[-75.37513,5.05029],[-75.37513,5.05043],[-75.37513,5.05053],[-75.37503,5.05053],[-75.37503,5.05062],[-75.37493,5.05062],[-75.37484,5.05072],[-75.37479,5.05082],[-75.37474,5.05091],[-75.37474,5.05101],[-75.3747,5.0511],[-75.3747,5.0512],[-75.3747,5.05129],[-75.37465,5.05139],[-75.37465,5.05149],[-75.3746,5.05158],[-75.37456,5.05168],[-75.37456,5.05177],[-75.37451,5.0519],[-75.37442,5.0519],[-75.37442,5.05199],[-75.37442,5.05209],[-75.37442,5.05218],[-75.37442,5.05228],[-75.37442,5.05237],[-75.37442,5.05247],[-75.37442,5.05256],[-75.37437,5.05266],[-75.37437,5.05275],[-75.37437,5.05285],[-75.37437,5.05295],[-75.37437,5.05304],[-75.37437,5.05314],[-75.37437,5.05323],[-75.37438,5.05333],[-75.37438,5.05342],[-75.37442,5.05352],[-75.37442,5.05362],[-75.37442,5.05371],[-75.37442,5.05381],[-75.37447,5.0539],[-75.37447,5.054],[-75.37447,5.05409],[-75.37447,5.05419],[-75.37447,5.05429],[-75.37447,5.05438],[-75.37447,5.05448],[-75.37447,5.05457],[-75.37447,5.05467],[-75.37447,5.05476],[-75.37447,5.05486],[-75.37447,5.05496],[-75.37447,5.05505],[-75.37447,5.05515],[-75.37447,5.05524],[-75.37447,5.05534],[-75.37447,5.05543],[-75.37447,5.05553],[-75.37452,5.05563],[-75.37457,5.05572],[-75.37462,5.05582],[-75.37467,5.05591],[-75.37471,5.05601],[-75.37471,5.0561],[-75.37476,5.0562],[-75.37481,5.05629],[-75.37491,5.05639],[-75.375,5.05649],[-75.3751,5.05658],[-75.37519,5.05668],[-75.37524,5.05677],[-75.37529,5.05687],[-75.37538,5.05692],[-75.37543,5.05701],[-75.37548,5.05711],[-75.37553,5.0572],[-75.37558,5.0573],[-75.37567,5.05735],[-75.37572,5.05744],[-75.37581,5.05749],[-75.37586,5.05758],[-75.37591,5.05768],[-75.37596,5.05778],[-75.37605,5.05787],[-75.3761,5.05797],[-75.37615,5.05806],[-75.3762,5.05816],[-75.37625,5.05825],[-75.37634,5.0583],[-75.37639,5.0584],[-75.37644,5.05849],[-75.37648,5.05859],[-75.37655,5.05862],[-75.37667,5.05938],[-75.37667,5.05947],[-75.37667,5.05957],[-75.37662,5.05966],[-75.37658,5.05976],[-75.37648,5.05985],[-75.37638,5.05995],[-75.37629,5.06],[-75.37619,5.06009],[-75.3761,5.06009],[-75.376,5.06014],[-75.37591,5.06014],[-75.37581,5.06019],[-75.37567,5.06024],[-75.37557,5.06029],[-75.37548,5.06029],[-75.37538,5.06029],[-75.37524,5.06034],[-75.37515,5.06034],[-75.37505,5.06038],[-75.37491,5.06038],[-75.37481,5.06043]]]},"properties":{"OBJECTID":12,"CODDEP":"17","AREA":61.1766851534,"Tipo":"Vegetacion secundaria o en transicion","Zona":"Zona de restauración","Subzona":"Zona de restauración","Shape_Length":7549.94488593985,"Shape_Area":611527.8140396785}},{"type":"Feature","id":13,"geometry":{"type":"Polygon","coordinates":[[[-75.37288,5.04893],[-75.37287,5.04907],[-75.37293,5.04929],[-75.37293,5.0493],[-75.373,5.04945],[-75.37308,5.04962],[-75.37319,5.04985],[-75.37333,5.05006],[-75.37347,5.05023],[-75.37356,5.0505],[-75.37358,5.05085],[-75.3735,5.05097],[-75.37357,5.0509],[-75.37362,5.0508],[-75.37366,5.05071],[-75.37371,5.05057],[-75.37376,5.05047],[-75.37376,5.05037],[-75.37381,5.05028],[-75.37385,5.05018],[-75.37385,5.05004],[-75.3739,5.0499],[-75.3739,5.0498],[-75.37395,5.0497],[-75.374,5.04961],[-75.37404,5.04951],[-75.37404,5.04942],[-75.37404,5.04932],[-75.37404,5.04923],[-75.37404,5.04913],[-75.37399,5.04903],[-75.37399,5.0489],[-75.37382,5.04892],[-75.37348,5.04888],[-75.37313,5.04891],[-75.3729,5.04892],[-75.37288,5.04893]]]},"properties":{"OBJECTID":13,"CODDEP":"17","AREA":1.56955701552,"Tipo":"Mosaico de pastos con espacios naturales","Zona":"Zona de restauración","Subzona":"Zona de restauración","Shape_Length":615.7785135863309,"Shape_Area":15689.409064446534}},{"type":"Feature","id":14,"geometry":{"type":"Polygon","coordinates":[[[-75.37331,5.06035],[-75.37349,5.06071],[-75.37357,5.06063],[-75.37367,5.06058],[-75.37376,5.06058],[-75.37386,5.06048],[-75.37395,5.06048],[-75.37405,5.06048],[-75.37414,5.06048],[-75.37424,5.06048],[-75.37433,5.06048],[-75.37443,5.06048],[-75.37453,5.06043],[-75.37462,5.06043],[-75.37472,5.06043],[-75.37481,5.06043],[-75.37491,5.06038],[-75.37505,5.06038],[-75.37515,5.06034],[-75.37524,5.06034],[-75.37538,5.06029],[-75.37548,5.06029],[-75.37557,5.06029],[-75.37567,5.06024],[-75.37581,5.06019],[-75.37591,5.06014],[-75.376,5.06014],[-75.3761,5.06009],[-75.37619,5.06009],[-75.37629,5.06],[-75.37638,5.05995],[-75.37648,5.05985],[-75.37658,5.05976],[-75.37662,5.05966],[-75.37667,5.05957],[-75.37667,5.05947],[-75.37667,5.05938],[-75.37655,5.05862],[-75.37648,5.05859],[-75.37644,5.05849],[-75.37639,5.0584],[-75.37634,5.0583],[-75.37625,5.05825],[-75.3762,5.05816],[-75.37615,5.05806],[-75.3761,5.05797],[-75.37605,5.05787],[-75.37596,5.05778],[-75.37591,5.05768],[-75.37586,5.05758],[-75.37581,5.05749],[-75.37572,5.05744],[-75.37567,5.05735],[-75.37558,5.0573],[-75.37553,5.0572],[-75.37548,5.05711],[-75.37543,5.05701],[-75.37538,5.05692],[-75.37529,5.05687],[-75.37524,5.05677],[-75.37519,5.05668],[-75.3751,5.05658],[-75.375,5.05649],[-75.37491,5.05639],[-75.37481,5.05629],[-75.37476,5.0562],[-75.37471,5.0561],[-75.37471,5.05601],[-75.37467,5.05591],[-75.37462,5.05582],[-75.37457,5.05572],[-75.37452,5.05563],[-75.37447,5.05553],[-75.37447,5.05543],[-75.37447,5.05534],[-75.37447,5.05524],[-75.37447,5.05515],[-75.37447,5.05505],[-75.37447,5.05496],[-75.37447,5.05486],[-75.37447,5.05476],[-75.37447,5.05467],[-75.37447,5.05457],[-75.37447,5.05448],[-75.37447,5.05438],[-75.37447,5.05429],[-75.37447,5.05419],[-75.37447,5.05409],[-75.37447,5.054],[-75.37447,5.0539],[-75.37442,5.05381],[-75.37442,5.05371],[-75.37442,5.05362],[-75.37442,5.05352],[-75.37438,5.05342],[-75.37438,5.05333],[-75.37437,5.05323],[-75.37437,5.05314],[-75.37437,5.05304],[-75.37437,5.05295],[-75.37437,5.05285],[-75.37437,5.05275],[-75.37437,5.05266],[-75.37442,5.05256],[-75.37442,5.05247],[-75.37442,5.05237],[-75.37442,5.05228],[-75.37442,5.05218],[-75.37442,5.05209],[-75.37442,5.05199],[-75.37442,5.0519],[-75.37438,5.0519],[-75.37429,5.0519],[-75.37419,5.0519],[-75.3741,5.05181],[-75.374,5.05181],[-75.3739,5.05181],[-75.37381,5.05176],[-75.37371,5.05176],[-75.37362,5.05171],[-75.37352,5.05167],[-75.37347,5.05157],[-75.37347,5.05147],[-75.37347,5.05138],[-75.37347,5.05128],[-75.37347,5.05119],[-75.37347,5.05109],[-75.37347,5.05101],[-75.37344,5.05107],[-75.37328,5.05124],[-75.37318,5.05138],[-75.3731,5.05151],[-75.37301,5.05166],[-75.37281,5.05193],[-75.3727,5.05222],[-75.37265,5.05242],[-75.37264,5.05247],[-75.37261,5.05258],[-75.37256,5.05282],[-75.37255,5.05287],[-75.37248,5.05315],[-75.37232,5.05335],[-75.3721,5.0535],[-75.3719,5.05366],[-75.37164,5.0538],[-75.37158,5.05385],[-75.37144,5.05392],[-75.37124,5.054],[-75.37085,5.05414],[-75.37067,5.0543],[-75.37063,5.05431],[-75.37065,5.05448],[-75.37069,5.0545],[-75.37079,5.0545],[-75.37088,5.05459],[-75.37098,5.05464],[-75.37108,5.05469],[-75.37117,5.05469],[-75.37127,5.05478],[-75.37141,5.05483],[-75.37151,5.05488],[-75.3716,5.05498],[-75.37174,5.05507],[-75.37184,5.05507],[-75.37189,5.05517],[-75.37189,5.05526],[-75.37189,5.05536],[-75.37189,5.0555],[-75.37189,5.05569],[-75.37189,5.05579],[-75.37184,5.05588],[-75.37179,5.05603],[-75.37175,5.05612],[-75.3717,5.05622],[-75.3716,5.05627],[-75.3716,5.05636],[-75.37151,5.05641],[-75.37146,5.05651],[-75.37141,5.0566],[-75.37137,5.0567],[-75.37132,5.05679],[-75.37127,5.05689],[-75.37122,5.05699],[-75.37122,5.05708],[-75.37122,5.05723],[-75.37122,5.05732],[-75.37118,5.05742],[-75.37113,5.05751],[-75.37108,5.05766],[-75.37108,5.05775],[-75.37103,5.05785],[-75.37099,5.05794],[-75.37094,5.05804],[-75.37089,5.05813],[-75.37084,5.05823],[-75.37084,5.05833],[-75.37075,5.05847],[-75.37065,5.05857],[-75.37065,5.05866],[-75.37061,5.05876],[-75.37058,5.05882],[-75.37138,5.05906],[-75.37253,5.05871],[-75.37331,5.06035]]]},"properties":{"OBJECTID":14,"CODDEP":"17","AREA":35.9462581415,"Tipo":"Mosaico de pastos con espacios naturales","Zona":"Zona de restauración","Subzona":"Zona de restauración","Shape_Length":3132.2691385643043,"Shape_Area":359321.34523881937}},{"type":"Feature","id":15,"geometry":{"type":"Polygon","coordinates":[[[-75.38622,5.02765],[-75.38601,5.02794],[-75.38587,5.02852],[-75.38584,5.02864],[-75.38578,5.02889],[-75.38589,5.02942],[-75.38603,5.02949],[-75.38603,5.02944],[-75.38603,5.02935],[-75.38603,5.02925],[-75.38603,5.02916],[-75.38603,5.02906],[-75.38602,5.02896],[-75.38602,5.02887],[-75.38607,5.02877],[-75.38617,5.02868],[-75.38621,5.02858],[-75.38626,5.02848],[-75.38636,5.02844],[-75.38636,5.02834],[-75.38636,5.02825],[-75.38636,5.02815],[-75.38636,5.02805],[-75.38631,5.02796],[-75.38631,5.02786],[-75.38626,5.02777],[-75.38626,5.02767],[-75.38622,5.02765]]]},"properties":{"OBJECTID":15,"CODDEP":"17","AREA":0.615114919705,"Tipo":"Mosaico de pastos con espacios naturales","Zona":"Zona de restauración","Subzona":"Zona de restauración","Shape_Length":446.8612080024185,"Shape_Area":6148.783192509878}},{"type":"Feature","id":16,"geometry":{"type":"Polygon","coordinates":[[[-75.38628,5.02977],[-75.38639,5.02999],[-75.38658,5.03022],[-75.38659,5.03022],[-75.38659,5.03022],[-75.38659,5.03023],[-75.38659,5.03023],[-75.38666,5.03066],[-75.38666,5.03066],[-75.38668,5.03096],[-75.38674,5.03092],[-75.38684,5.03088],[-75.38698,5.03083],[-75.38708,5.03083],[-75.38708,5.03078],[-75.38708,5.03073],[-75.38708,5.03068],[-75.38708,5.03059],[-75.38708,5.03049],[-75.38708,5.0304],[-75.38708,5.0303],[-75.38708,5.03016],[-75.38708,5.03006],[-75.38708,5.02997],[-75.38708,5.02987],[-75.38708,5.02977],[-75.38708,5.02968],[-75.38717,5.02958],[-75.38717,5.02949],[-75.38727,5.02939],[-75.38727,5.0293],[-75.38727,5.0292],[-75.38727,5.0291],[-75.38717,5.0291],[-75.38707,5.02915],[-75.38698,5.0292],[-75.38688,5.0292],[-75.38688,5.0293],[-75.38679,5.02939],[-75.38669,5.02944],[-75.38665,5.02954],[-75.38655,5.02963],[-75.38646,5.02968],[-75.38636,5.02973],[-75.38628,5.02977]]]},"properties":{"OBJECTID":16,"CODDEP":"17","AREA":1.10441288194,"Tipo":"Mosaico de pastos con espacios naturales","Zona":"Zona de restauración","Subzona":"Zona de restauración","Shape_Length":532.3357016202793,"Shape_Area":11039.884507020843}},{"type":"Feature","id":17,"geometry":{"type":"Polygon","coordinates":[[[-75.38603,5.02957],[-75.38603,5.02959],[-75.38603,5.02968],[-75.38607,5.02978],[-75.38617,5.02978],[-75.3862,5.02978],[-75.38612,5.02962],[-75.38603,5.02957]]]},"properties":{"OBJECTID":17,"CODDEP":"17","AREA":0.0258747302571,"Tipo":"Bosque denso alto de tierra firme","Zona":"Zona de preservación","Subzona":"Zona de preservación","Shape_Length":69.28491758660226,"Shape_Area":258.6479694376283}},{"type":"Feature","id":18,"geometry":{"type":"Polygon","coordinates":[[[-75.38696,5.02676],[-75.3869,5.02668],[-75.3869,5.02667],[-75.38689,5.02665],[-75.38687,5.02662],[-75.38686,5.02659],[-75.38685,5.02657],[-75.38684,5.02654],[-75.38683,5.02651],[-75.38683,5.02648],[-75.38683,5.02645],[-75.38683,5.02642],[-75.38683,5.02639],[-75.38683,5.02636],[-75.38683,5.02633],[-75.38684,5.0263],[-75.38685,5.02628],[-75.38686,5.02625],[-75.38687,5.02622],[-75.38689,5.02619],[-75.38689,5.02619],[-75.38692,5.02614],[-75.38683,5.02609],[-75.38673,5.02609],[-75.38664,5.02609],[-75.38654,5.02609],[-75.38645,5.02609],[-75.38635,5.02614],[-75.38631,5.02624],[-75.38621,5.02624],[-75.38611,5.02628],[-75.38607,5.02638],[-75.38602,5.02648],[-75.38597,5.02657],[-75.38592,5.02667],[-75.38593,5.02676],[-75.38593,5.02686],[-75.38593,5.02695],[-75.38593,5.02705],[-75.38602,5.02715],[-75.38607,5.02724],[-75.38612,5.02734],[-75.38616,5.02743],[-75.38617,5.02753],[-75.38617,5.02761],[-75.38624,5.02751],[-75.38624,5.02751],[-75.38624,5.02751],[-75.38667,5.0271],[-75.38695,5.02677],[-75.38695,5.02676],[-75.38695,5.02676],[-75.38696,5.02676],[-75.38696,5.02676]]]},"properties":{"OBJECTID":18,"CODDEP":"17","AREA":1.18841142001,"Tipo":"Bosque denso alto de tierra firme","Zona":"Zona de preservación","Subzona":"Zona de preservación","Shape_Length":463.23722564927294,"Shape_Area":11879.54883687299}},{"type":"Feature","id":19,"geometry":{"type":"Polygon","coordinates":[[[-75.38696,5.02676],[-75.38695,5.02676],[-75.38695,5.02676],[-75.38695,5.02677],[-75.38667,5.0271],[-75.38624,5.02751],[-75.38624,5.02751],[-75.38624,5.02751],[-75.38617,5.02761],[-75.38594,5.0279],[-75.38592,5.02797],[-75.38571,5.02888],[-75.38571,5.02888],[-75.38571,5.02889],[-75.38571,5.02889],[-75.38583,5.02945],[-75.38583,5.02945],[-75.38583,5.02946],[-75.38583,5.02946],[-75.38584,5.02947],[-75.38584,5.02947],[-75.38603,5.02957],[-75.38612,5.02962],[-75.3862,5.02978],[-75.38629,5.02995],[-75.38632,5.03001],[-75.38633,5.03003],[-75.38633,5.03003],[-75.38633,5.03004],[-75.38652,5.03026],[-75.38659,5.03067],[-75.38661,5.03099],[-75.38663,5.03135],[-75.38663,5.03136],[-75.38664,5.03136],[-75.38664,5.03137],[-75.38664,5.03137],[-75.38665,5.03138],[-75.38665,5.03138],[-75.38666,5.03138],[-75.38667,5.03138],[-75.38667,5.03138],[-75.38668,5.03138],[-75.38668,5.03138],[-75.38669,5.03138],[-75.38669,5.03137],[-75.3867,5.03137],[-75.3867,5.03136],[-75.3867,5.03136],[-75.38671,5.03135],[-75.38671,5.03135],[-75.38668,5.03096],[-75.38666,5.03066],[-75.38666,5.03066],[-75.38659,5.03023],[-75.38659,5.03023],[-75.38659,5.03022],[-75.38659,5.03022],[-75.38658,5.03022],[-75.38639,5.02999],[-75.38628,5.02977],[-75.38618,5.02958],[-75.38618,5.02958],[-75.38618,5.02957],[-75.38617,5.02957],[-75.38617,5.02957],[-75.38603,5.02949],[-75.38589,5.02942],[-75.38578,5.02889],[-75.38584,5.02864],[-75.38587,5.02852],[-75.38601,5.02794],[-75.38622,5.02765],[-75.38629,5.02756],[-75.38672,5.02715],[-75.38672,5.02714],[-75.387,5.02682],[-75.387,5.02682],[-75.38696,5.02676],[-75.38696,5.02676]]]},"properties":{"OBJECTID":19,"CODDEP":"17","AREA":0.470700264541,"Tipo":"Sendero","Zona":"Zona general de uso público","Subzona":"Subzona de alta densidad de uso","Shape_Length":1190.9161462771672,"Shape_Area":4705.203611872931}}]}