{"type":"FeatureCollection","name":"Zonificación Reserva Sabinas","crs":{"type":"name","properties":{"name":"urn:ogc:def:crs:OGC:1.3:CRS84"}},"features":[{"type":"Feature","id":1,"geometry":{"type":"MultiPolygon","coordinates":[[[[-75.40872,5.03162],[-75.40868,5.03169],[-75.40864,5.03175],[-75.4086,5.03181],[-75.40855,5.03186],[-75.4084,5.03202],[-75.40864,5.03198],[-75.40894,5.03188],[-75.40922,5.03183],[-75.40945,5.03174],[-75.40978,5.0316],[-75.41007,5.03143],[-75.41025,5.03127],[-75.41048,5.03118],[-75.41062,5.03116],[-75.41071,5.0311],[-75.411,5.03093],[-75.41139,5.03081],[-75.41139,5.03062],[-75.41109,5.03073],[-75.41097,5.03081],[-75.41079,5.03099],[-75.41056,5.0311],[-75.41001,5.03128],[-75.40973,5.03133],[-75.40935,5.03152],[-75.40922,5.03166],[-75.40892,5.03165],[-75.40872,5.03162],[-75.40872,5.03162]]],[[[-75.40171,5.03386],[-75.40208,5.03413],[-75.40239,5.03404],[-75.40278,5.03389],[-75.40318,5.03374],[-75.40321,5.03369],[-75.40326,5.03365],[-75.4033,5.03361],[-75.40337,5.03362],[-75.40369,5.03358],[-75.40389,5.03357],[-75.4043,5.03363],[-75.4045,5.03354],[-75.40484,5.03355],[-75.40526,5.03343],[-75.40548,5.03337],[-75.40593,5.03333],[-75.4061,5.03328],[-75.40637,5.03315],[-75.4065,5.03301],[-75.40653,5.0329],[-75.40661,5.03277],[-75.40675,5.03251],[-75.40687,5.03245],[-75.40689,5.03244],[-75.4068,5.0324],[-75.40671,5.03237],[-75.40656,5.0323],[-75.40641,5.03216],[-75.40632,5.03207],[-75.40624,5.03199],[-75.40617,5.0319],[-75.40613,5.03187],[-75.40597,5.03197],[-75.40574,5.03202],[-75.40545,5.03201],[-75.40514,5.03188],[-75.40493,5.03171],[-75.40488,5.03159],[-75.4048,5.03176],[-75.40474,5.03185],[-75.40469,5.03189],[-75.40464,5.03191],[-75.40458,5.03191],[-75.40452,5.0319],[-75.40445,5.03186],[-75.40441,5.0318],[-75.40438,5.03171],[-75.40436,5.03157],[-75.40435,5.03142],[-75.40417,5.03129],[-75.40378,5.03088],[-75.40347,5.03088],[-75.40331,5.03092],[-75.40325,5.03099],[-75.40312,5.03104],[-75.40288,5.03106],[-75.40284,5.03106],[-75.40279,5.03107],[-75.40267,5.03113],[-75.40259,5.03114],[-75.40258,5.03136],[-75.40258,5.0314],[-75.40258,5.03153],[-75.40254,5.0316],[-75.40248,5.03165],[-75.4024,5.03169],[-75.40233,5.0317],[-75.40226,5.03168],[-75.40217,5.03162],[-75.40208,5.03152],[-75.40203,5.03139],[-75.40202,5.03128],[-75.40201,5.03119],[-75.40171,5.0311],[-75.40118,5.03106],[-75.40102,5.031],[-75.40098,5.03107],[-75.40096,5.03109],[-75.40093,5.03116],[-75.4009,5.03119],[-75.40086,5.03122],[-75.40081,5.03124],[-75.40075,5.03124],[-75.40069,5.03124],[-75.40065,5.03122],[-75.40063,5.03117],[-75.40063,5.03113],[-75.40063,5.03109],[-75.40063,5.03104],[-75.40064,5.03096],[-75.40064,5.03091],[-75.40064,5.03085],[-75.40054,5.03085],[-75.40022,5.03043],[-75.40015,5.03057],[-75.40015,5.03058],[-75.40014,5.03059],[-75.39994,5.0309],[-75.3998,5.03131],[-75.3998,5.03137],[-75.39984,5.03144],[-75.39988,5.03154],[-75.39993,5.03163],[-75.39993,5.03173],[-75.40003,5.03178],[-75.40007,5.03187],[-75.40012,5.03202],[-75.40017,5.03211],[-75.40022,5.03221],[-75.40022,5.0323],[-75.40031,5.0324],[-75.40031,5.03254],[-75.40036,5.03264],[-75.40036,5.03273],[-75.40036,5.03283],[-75.40036,5.03293],[-75.40036,5.03302],[-75.40036,5.03312],[-75.40036,5.03321],[-75.40033,5.03327],[-75.40047,5.03331],[-75.40072,5.03337],[-75.40095,5.03342],[-75.40123,5.03347],[-75.40131,5.03354],[-75.40144,5.0336],[-75.40171,5.03386]]]]},"properties":{"OBJECTID_1":1,"OBJECTID":1,"Area_Ha":17.9965637543,"Shape_Leng":2981.90757822,"Zona":"Zona de restauración","Subzona":"Zona de restauración","Tipo":"Pastos limpios","Shape_Length":2981.342919731196,"Shape_Area":179900.28951061037}},{"type":"Feature","id":2,"geometry":{"type":"MultiPolygon","coordinates":[[[[-75.39292,5.02781],[-75.39298,5.02778],[-75.39305,5.02776],[-75.39303,5.02774],[-75.39297,5.02768],[-75.39292,5.02763],[-75.39292,5.02781]]],[[[-75.39306,5.03114],[-75.39302,5.03092],[-75.39292,5.03066],[-75.39292,5.03066],[-75.39292,5.03067],[-75.39292,5.03073],[-75.39292,5.03079],[-75.39292,5.03084],[-75.39292,5.0309],[-75.39298,5.03096],[-75.39298,5.03102],[-75.39298,5.03108],[-75.39304,5.03108],[-75.39306,5.03114]]],[[[-75.38952,5.03088],[-75.38956,5.03128],[-75.38973,5.03137],[-75.38995,5.03152],[-75.39016,5.03166],[-75.39063,5.03217],[-75.39083,5.03219],[-75.39083,5.03216],[-75.39077,5.03211],[-75.39071,5.03205],[-75.39065,5.03199],[-75.39065,5.03193],[-75.39059,5.03187],[-75.39053,5.03175],[-75.39047,5.03169],[-75.39041,5.03163],[-75.39035,5.03151],[-75.39035,5.03139],[-75.39035,5.03133],[-75.39035,5.03127],[-75.39035,5.03115],[-75.39035,5.03109],[-75.39041,5.03103],[-75.39041,5.03097],[-75.39041,5.03091],[-75.39041,5.03085],[-75.39041,5.03079],[-75.39047,5.03073],[-75.39047,5.03067],[-75.39053,5.03061],[-75.39053,5.03055],[-75.39053,5.03049],[-75.39059,5.03043],[-75.39065,5.03031],[-75.39071,5.03031],[-75.39071,5.03025],[-75.39071,5.03013],[-75.39077,5.03013],[-75.39077,5.03007],[-75.39083,5.03007],[-75.39089,5.03001],[-75.39089,5.02995],[-75.39095,5.02995],[-75.39101,5.02995],[-75.39107,5.02995],[-75.39107,5.02989],[-75.39113,5.02989],[-75.39118,5.02983],[-75.39124,5.02977],[-75.3913,5.02971],[-75.39136,5.02965],[-75.39142,5.02965],[-75.39148,5.02959],[-75.39148,5.02953],[-75.39154,5.02953],[-75.3916,5.02953],[-75.39166,5.02947],[-75.39172,5.02947],[-75.39178,5.02941],[-75.39184,5.02935],[-75.3919,5.02935],[-75.39196,5.02935],[-75.39202,5.02935],[-75.39208,5.02935],[-75.39214,5.02935],[-75.39214,5.02941],[-75.3922,5.02941],[-75.39226,5.02947],[-75.39229,5.02947],[-75.3923,5.02914],[-75.39231,5.02912],[-75.39231,5.0291],[-75.3924,5.02886],[-75.39238,5.02879],[-75.39237,5.02872],[-75.39237,5.02864],[-75.39237,5.02856],[-75.39238,5.02849],[-75.3924,5.02841],[-75.39242,5.02834],[-75.39245,5.02827],[-75.39248,5.0282],[-75.39252,5.02814],[-75.39256,5.02808],[-75.39261,5.02802],[-75.39267,5.02797],[-75.39265,5.02789],[-75.39264,5.02787],[-75.39264,5.02785],[-75.39265,5.02757],[-75.39266,5.02755],[-75.39268,5.02744],[-75.39267,5.02744],[-75.39255,5.02738],[-75.39249,5.02732],[-75.39243,5.02726],[-75.39237,5.0272],[-75.39231,5.02714],[-75.39231,5.02714],[-75.39224,5.02713],[-75.39217,5.02712],[-75.3921,5.0271],[-75.39203,5.02708],[-75.39196,5.02706],[-75.3919,5.02702],[-75.39184,5.02699],[-75.39182,5.02699],[-75.39163,5.02699],[-75.3915,5.02699],[-75.39137,5.02699],[-75.39125,5.02699],[-75.39112,5.02699],[-75.39099,5.02699],[-75.39099,5.02686],[-75.39093,5.02673],[-75.3908,5.02667],[-75.3908,5.02654],[-75.39068,5.02643],[-75.3906,5.02638],[-75.39045,5.02633],[-75.39019,5.02634],[-75.39004,5.02645],[-75.38997,5.02652],[-75.38997,5.02661],[-75.39004,5.02673],[-75.3901,5.02686],[-75.3901,5.02699],[-75.39023,5.02705],[-75.39023,5.02718],[-75.39023,5.02731],[-75.39017,5.02744],[-75.39017,5.02756],[-75.39017,5.02769],[-75.39017,5.02788],[-75.39017,5.02801],[-75.39017,5.02814],[-75.39023,5.02826],[-75.39023,5.02839],[-75.39023,5.02852],[-75.39023,5.02865],[-75.39023,5.02878],[-75.39023,5.0289],[-75.39023,5.02903],[-75.39017,5.02916],[-75.39017,5.02929],[-75.39004,5.02935],[-75.38992,5.02948],[-75.38979,5.02954],[-75.38966,5.02954],[-75.38947,5.02954],[-75.38934,5.02948],[-75.38934,5.02935],[-75.38934,5.02922],[-75.38941,5.0291],[-75.38941,5.02897],[-75.38941,5.02884],[-75.38941,5.02871],[-75.38953,5.02859],[-75.3896,5.02846],[-75.3896,5.02833],[-75.3896,5.0282],[-75.3896,5.02807],[-75.38947,5.02801],[-75.38934,5.02801],[-75.38921,5.02801],[-75.38909,5.02808],[-75.38896,5.02814],[-75.3889,5.02827],[-75.38877,5.02833],[-75.38864,5.0284],[-75.38852,5.02846],[-75.38839,5.02846],[-75.38832,5.02859],[-75.38845,5.02871],[-75.38845,5.02884],[-75.38845,5.02897],[-75.38845,5.0291],[-75.38845,5.02923],[-75.38845,5.02935],[-75.38845,5.02948],[-75.38845,5.02961],[-75.38845,5.02974],[-75.38839,5.02986],[-75.38833,5.02999],[-75.3882,5.03012],[-75.38807,5.03025],[-75.38807,5.03037],[-75.38801,5.0305],[-75.38795,5.03063],[-75.38795,5.03076],[-75.38795,5.03088],[-75.38795,5.03098],[-75.38852,5.03103],[-75.38948,5.03083],[-75.38952,5.03088]]],[[[-75.39322,5.03282],[-75.39322,5.03288],[-75.39322,5.03294],[-75.39322,5.033],[-75.39322,5.03306],[-75.39322,5.03312],[-75.39322,5.03318],[-75.39322,5.03324],[-75.39322,5.0333],[-75.39322,5.03336],[-75.39322,5.03336],[-75.39325,5.03334],[-75.39334,5.0333],[-75.39342,5.0333],[-75.39342,5.03329],[-75.39341,5.03327],[-75.3934,5.03325],[-75.3934,5.03324],[-75.3934,5.03321],[-75.39334,5.03297],[-75.39322,5.03279],[-75.39322,5.03279],[-75.39322,5.03282]]],[[[-75.39492,5.03403],[-75.39519,5.03408],[-75.39542,5.03409],[-75.39578,5.03416],[-75.39578,5.03415],[-75.39578,5.03406],[-75.39578,5.03396],[-75.39578,5.03387],[-75.39574,5.03384],[-75.39569,5.03375],[-75.39559,5.0337],[-75.3955,5.03365],[-75.39545,5.03356],[-75.39535,5.03351],[-75.39535,5.03341],[-75.39535,5.03332],[-75.39535,5.03322],[-75.39535,5.03313],[-75.39535,5.03303],[-75.39535,5.03294],[-75.39535,5.03284],[-75.39535,5.03274],[-75.39535,5.03265],[-75.39545,5.0326],[-75.39554,5.0325],[-75.39564,5.03241],[-75.39569,5.03231],[-75.39578,5.03226],[-75.39588,5.03222],[-75.39588,5.03212],[-75.39588,5.03203],[-75.39588,5.03193],[-75.39588,5.03183],[-75.39588,5.03169],[-75.39588,5.03159],[-75.39588,5.0315],[-75.39588,5.0314],[-75.39588,5.03131],[-75.39587,5.03121],[-75.39587,5.03112],[-75.39587,5.03102],[-75.39587,5.03092],[-75.39587,5.03083],[-75.39585,5.03079],[-75.39592,5.03075],[-75.39602,5.03071],[-75.39611,5.03066],[-75.39621,5.03061],[-75.39631,5.03056],[-75.3964,5.03056],[-75.39645,5.03046],[-75.39655,5.03041],[-75.39665,5.03041],[-75.39669,5.03032],[-75.39679,5.03027],[-75.39689,5.03017],[-75.39698,5.03017],[-75.39708,5.03012],[-75.39723,5.03007],[-75.39732,5.03002],[-75.39742,5.03002],[-75.39747,5.02993],[-75.39757,5.02993],[-75.39766,5.02993],[-75.39776,5.02997],[-75.39786,5.03007],[-75.3979,5.03017],[-75.3979,5.03027],[-75.398,5.03036],[-75.3981,5.03036],[-75.3982,5.03036],[-75.39829,5.03036],[-75.39834,5.03026],[-75.39844,5.03022],[-75.39849,5.03012],[-75.39848,5.03002],[-75.39858,5.02992],[-75.39863,5.02983],[-75.39868,5.02973],[-75.39873,5.02963],[-75.39877,5.02954],[-75.39887,5.02944],[-75.39895,5.02936],[-75.39896,5.02929],[-75.39898,5.02922],[-75.39901,5.02915],[-75.39904,5.02908],[-75.39907,5.02902],[-75.39899,5.02898],[-75.39894,5.02892],[-75.39882,5.02886],[-75.3987,5.02886],[-75.3987,5.0288],[-75.39864,5.0288],[-75.39864,5.02868],[-75.39858,5.02868],[-75.39852,5.02862],[-75.39852,5.0285],[-75.39846,5.0285],[-75.39846,5.02838],[-75.39834,5.02832],[-75.39834,5.02826],[-75.39828,5.0282],[-75.39822,5.02814],[-75.39822,5.02808],[-75.39822,5.02802],[-75.39822,5.0279],[-75.39816,5.02784],[-75.3981,5.02778],[-75.39804,5.02773],[-75.39798,5.02767],[-75.39795,5.02767],[-75.39766,5.02786],[-75.39725,5.02809],[-75.39703,5.02817],[-75.39656,5.02829],[-75.39619,5.02829],[-75.39619,5.02833],[-75.39619,5.02839],[-75.39619,5.02845],[-75.39619,5.02851],[-75.39619,5.02857],[-75.39619,5.02863],[-75.39613,5.02869],[-75.39613,5.02875],[-75.39607,5.02875],[-75.39601,5.02887],[-75.39595,5.02893],[-75.39589,5.02899],[-75.39589,5.02904],[-75.39583,5.0291],[-75.39577,5.02911],[-75.39578,5.02922],[-75.39578,5.02928],[-75.39578,5.02934],[-75.39578,5.0294],[-75.39578,5.02946],[-75.39578,5.02952],[-75.39578,5.02958],[-75.39578,5.02964],[-75.39578,5.0297],[-75.39578,5.02976],[-75.39572,5.02976],[-75.39572,5.02982],[-75.39566,5.02982],[-75.39566,5.02988],[-75.3956,5.02988],[-75.39554,5.02988],[-75.39542,5.02988],[-75.39542,5.02982],[-75.39542,5.02976],[-75.39536,5.02976],[-75.39536,5.0297],[-75.3953,5.0297],[-75.3953,5.02958],[-75.39524,5.02952],[-75.39524,5.02946],[-75.39518,5.02941],[-75.39518,5.02935],[-75.39512,5.02935],[-75.39506,5.02929],[-75.39506,5.02923],[-75.395,5.02917],[-75.395,5.02911],[-75.39494,5.02905],[-75.39488,5.02899],[-75.39488,5.02893],[-75.39488,5.02887],[-75.39482,5.02881],[-75.39476,5.02875],[-75.39464,5.02869],[-75.39464,5.02863],[-75.39458,5.02863],[-75.39452,5.02857],[-75.39446,5.02857],[-75.3944,5.02851],[-75.39434,5.02845],[-75.39428,5.02845],[-75.39416,5.02845],[-75.39415,5.02845],[-75.39417,5.02853],[-75.39417,5.02861],[-75.39417,5.02869],[-75.39416,5.02877],[-75.39415,5.02885],[-75.39413,5.02893],[-75.3941,5.029],[-75.39406,5.02907],[-75.39402,5.02914],[-75.39397,5.02921],[-75.39392,5.02927],[-75.39386,5.02932],[-75.3938,5.02937],[-75.39373,5.02942],[-75.39366,5.02945],[-75.39359,5.02949],[-75.39351,5.02951],[-75.39343,5.02953],[-75.39335,5.02954],[-75.39327,5.02954],[-75.39319,5.02954],[-75.39311,5.02953],[-75.39303,5.02951],[-75.39296,5.02949],[-75.39288,5.02946],[-75.39281,5.02942],[-75.39275,5.02937],[-75.39268,5.02933],[-75.39262,5.02927],[-75.39257,5.02921],[-75.39255,5.02955],[-75.39262,5.02977],[-75.39272,5.03],[-75.39314,5.0305],[-75.39315,5.03052],[-75.39316,5.03054],[-75.39328,5.03083],[-75.39328,5.03083],[-75.39328,5.03085],[-75.39333,5.03111],[-75.39333,5.03111],[-75.39334,5.03113],[-75.39335,5.03151],[-75.39335,5.03151],[-75.39335,5.03153],[-75.39329,5.03195],[-75.3933,5.03234],[-75.39345,5.03265],[-75.39358,5.03284],[-75.39359,5.03285],[-75.3936,5.03287],[-75.3936,5.03289],[-75.39366,5.03315],[-75.39367,5.03316],[-75.39367,5.03317],[-75.39367,5.0332],[-75.39368,5.0332],[-75.39377,5.03315],[-75.39383,5.03315],[-75.39384,5.03319],[-75.39389,5.03328],[-75.39399,5.03343],[-75.39404,5.03353],[-75.39414,5.03362],[-75.39418,5.03372],[-75.39428,5.03382],[-75.39438,5.03391],[-75.39443,5.03401],[-75.39452,5.03406],[-75.39453,5.03406],[-75.39464,5.03402],[-75.39492,5.03403]]]]},"properties":{"OBJECTID_1":2,"OBJECTID":2,"Area_Ha":36.0181716517,"Shape_Leng":5787.99451589,"Zona":"Zona de restauración","Subzona":"Zona de restauración","Tipo":"Pastos limpios","Shape_Length":5786.735248833565,"Shape_Area":360075.42325610464}},{"type":"Feature","id":3,"geometry":{"type":"MultiPolygon","coordinates":[[[[-75.3998,5.03166],[-75.39985,5.03187],[-75.39989,5.03193],[-75.39989,5.03195],[-75.40008,5.03245],[-75.40009,5.03246],[-75.4002,5.03291],[-75.4002,5.03292],[-75.40021,5.03294],[-75.40021,5.03321],[-75.4002,5.03324],[-75.4002,5.03325],[-75.40026,5.03326],[-75.40031,5.03326],[-75.40033,5.03327],[-75.40036,5.03321],[-75.40036,5.03312],[-75.40036,5.03302],[-75.40036,5.03293],[-75.40036,5.03283],[-75.40036,5.03273],[-75.40036,5.03264],[-75.40031,5.03254],[-75.40031,5.0324],[-75.40022,5.0323],[-75.40022,5.03221],[-75.40017,5.03211],[-75.40012,5.03202],[-75.40007,5.03187],[-75.40003,5.03178],[-75.39993,5.03173],[-75.39993,5.03163],[-75.39988,5.03154],[-75.39984,5.03144],[-75.3998,5.03137],[-75.3998,5.03166]]],[[[-75.39656,5.0341],[-75.39665,5.03415],[-75.39675,5.0342],[-75.39675,5.0343],[-75.39675,5.03439],[-75.3967,5.03449],[-75.39669,5.03451],[-75.39685,5.03447],[-75.39725,5.03429],[-75.39773,5.03419],[-75.39828,5.03404],[-75.39862,5.03394],[-75.39907,5.03363],[-75.39933,5.03352],[-75.39951,5.03343],[-75.39969,5.03338],[-75.39995,5.03327],[-75.39995,5.03327],[-75.39994,5.03326],[-75.39994,5.03324],[-75.39994,5.03321],[-75.39994,5.03296],[-75.39983,5.03254],[-75.39964,5.03205],[-75.39961,5.03198],[-75.3996,5.03196],[-75.3996,5.03195],[-75.39953,5.03171],[-75.39953,5.0317],[-75.39953,5.03168],[-75.39953,5.03128],[-75.39953,5.03126],[-75.39954,5.03124],[-75.39969,5.0308],[-75.3997,5.03077],[-75.3997,5.03077],[-75.39991,5.03044],[-75.39994,5.03039],[-75.39989,5.03039],[-75.39984,5.0304],[-75.39976,5.03039],[-75.39969,5.03038],[-75.39961,5.03037],[-75.39954,5.03034],[-75.39947,5.03031],[-75.3994,5.03028],[-75.39933,5.03024],[-75.39927,5.03019],[-75.39921,5.03014],[-75.39916,5.03008],[-75.39911,5.03002],[-75.39907,5.02996],[-75.39903,5.02989],[-75.399,5.02982],[-75.39897,5.02974],[-75.39896,5.02967],[-75.39894,5.02959],[-75.39894,5.02951],[-75.39894,5.02944],[-75.39895,5.02936],[-75.39887,5.02944],[-75.39877,5.02954],[-75.39873,5.02963],[-75.39868,5.02973],[-75.39863,5.02983],[-75.39858,5.02992],[-75.39848,5.03002],[-75.39849,5.03012],[-75.39844,5.03022],[-75.39834,5.03026],[-75.39829,5.03036],[-75.3982,5.03036],[-75.3981,5.03036],[-75.398,5.03036],[-75.3979,5.03027],[-75.3979,5.03017],[-75.39786,5.03007],[-75.39776,5.02997],[-75.39766,5.02993],[-75.39757,5.02993],[-75.39747,5.02993],[-75.39742,5.03002],[-75.39732,5.03002],[-75.39723,5.03007],[-75.39708,5.03012],[-75.39698,5.03017],[-75.39689,5.03017],[-75.39679,5.03027],[-75.39669,5.03032],[-75.39665,5.03041],[-75.39655,5.03041],[-75.39645,5.03046],[-75.3964,5.03056],[-75.39631,5.03056],[-75.39621,5.03061],[-75.39611,5.03066],[-75.39602,5.03071],[-75.39592,5.03075],[-75.39585,5.03079],[-75.39587,5.03083],[-75.39587,5.03092],[-75.39587,5.03102],[-75.39587,5.03112],[-75.39587,5.03121],[-75.39588,5.03131],[-75.39588,5.0314],[-75.39588,5.0315],[-75.39588,5.03159],[-75.39588,5.03169],[-75.39588,5.03183],[-75.39588,5.03193],[-75.39588,5.03203],[-75.39588,5.03212],[-75.39588,5.03222],[-75.39578,5.03226],[-75.39569,5.03231],[-75.39564,5.03241],[-75.39554,5.0325],[-75.39545,5.0326],[-75.39535,5.03265],[-75.39535,5.03274],[-75.39535,5.03284],[-75.39535,5.03294],[-75.39535,5.03303],[-75.39535,5.03313],[-75.39535,5.03322],[-75.39535,5.03332],[-75.39535,5.03341],[-75.39535,5.03351],[-75.39545,5.03356],[-75.3955,5.03365],[-75.39559,5.0337],[-75.39569,5.03375],[-75.39574,5.03384],[-75.39578,5.03387],[-75.39578,5.03386],[-75.39583,5.03376],[-75.39593,5.03376],[-75.39598,5.03386],[-75.39607,5.03391],[-75.39617,5.03396],[-75.39622,5.03406],[-75.39631,5.03405],[-75.39646,5.03405],[-75.39656,5.0341]]]]},"properties":{"OBJECTID_1":3,"OBJECTID":3,"Area_Ha":19.1535584269,"Shape_Leng":2407.91166078,"Zona":"Zona de restauración","Subzona":"Zona de restauración","Tipo":"Pastos enmalezados","Shape_Length":2407.4032963625223,"Shape_Area":191474.2963407945}},{"type":"Feature","id":4,"geometry":{"type":"MultiPolygon","coordinates":[[[[-75.39279,5.02701],[-75.39275,5.02703],[-75.39271,5.02705],[-75.39271,5.02707],[-75.3928,5.02713],[-75.39282,5.02708],[-75.39282,5.02702],[-75.39279,5.02701]]],[[[-75.39889,5.02798],[-75.39943,5.02869],[-75.39949,5.02866],[-75.39956,5.02863],[-75.39963,5.02861],[-75.39963,5.02861],[-75.39947,5.02827],[-75.39962,5.02781],[-75.39976,5.0276],[-75.39982,5.02751],[-75.39984,5.02734],[-75.39965,5.02723],[-75.39939,5.02708],[-75.39939,5.02698],[-75.39949,5.02673],[-75.39949,5.02672],[-75.39947,5.02624],[-75.39933,5.02597],[-75.3993,5.0259],[-75.39898,5.02575],[-75.39866,5.02571],[-75.39831,5.02584],[-75.39821,5.02592],[-75.39741,5.02653],[-75.39686,5.02657],[-75.39654,5.02659],[-75.39621,5.02651],[-75.39593,5.02625],[-75.39563,5.02572],[-75.39548,5.02546],[-75.39521,5.02523],[-75.39521,5.02524],[-75.39516,5.02539],[-75.39506,5.02534],[-75.39497,5.02534],[-75.39487,5.02524],[-75.39478,5.0252],[-75.39468,5.02515],[-75.39463,5.02505],[-75.39454,5.025],[-75.39454,5.02491],[-75.39449,5.02477],[-75.3944,5.02472],[-75.39437,5.02467],[-75.39391,5.02479],[-75.39365,5.02487],[-75.39364,5.02488],[-75.39362,5.02488],[-75.3936,5.02488],[-75.39358,5.02488],[-75.39357,5.02488],[-75.39355,5.02488],[-75.39354,5.02488],[-75.39327,5.02486],[-75.39305,5.02486],[-75.39296,5.02523],[-75.39293,5.02537],[-75.39294,5.02556],[-75.393,5.02562],[-75.39305,5.02568],[-75.39309,5.02575],[-75.39313,5.02582],[-75.39317,5.02589],[-75.39319,5.02597],[-75.39321,5.02604],[-75.39323,5.02612],[-75.39323,5.0262],[-75.39323,5.02628],[-75.39323,5.02636],[-75.39321,5.02644],[-75.39319,5.02652],[-75.39316,5.02659],[-75.39312,5.02667],[-75.39312,5.02667],[-75.39309,5.02689],[-75.39309,5.02699],[-75.39315,5.0269],[-75.39325,5.02665],[-75.39331,5.02635],[-75.39332,5.02613],[-75.39337,5.026],[-75.39337,5.02594],[-75.39339,5.02587],[-75.39345,5.02575],[-75.39346,5.02574],[-75.39356,5.02566],[-75.39372,5.02565],[-75.3939,5.0257],[-75.39404,5.02578],[-75.39414,5.02587],[-75.39424,5.02605],[-75.39426,5.02628],[-75.39443,5.02624],[-75.3946,5.0267],[-75.39474,5.02705],[-75.39529,5.02757],[-75.39517,5.02774],[-75.39554,5.02805],[-75.39577,5.02812],[-75.39619,5.02811],[-75.39619,5.02809],[-75.39625,5.02809],[-75.39631,5.02803],[-75.39631,5.02797],[-75.39637,5.02797],[-75.39637,5.02791],[-75.39643,5.02791],[-75.39649,5.02791],[-75.39655,5.02791],[-75.39663,5.02791],[-75.39662,5.02788],[-75.39676,5.02783],[-75.39685,5.02779],[-75.39691,5.02773],[-75.39696,5.02773],[-75.39702,5.02767],[-75.39702,5.02761],[-75.39714,5.02761],[-75.3972,5.02761],[-75.39726,5.02755],[-75.39732,5.02755],[-75.39738,5.02755],[-75.3975,5.02755],[-75.39756,5.02755],[-75.39768,5.02755],[-75.39768,5.02761],[-75.39771,5.02761],[-75.39782,5.02753],[-75.39788,5.02749],[-75.39802,5.0274],[-75.39812,5.02735],[-75.39831,5.02741],[-75.39839,5.02751],[-75.39839,5.02751],[-75.3985,5.02767],[-75.39853,5.02771],[-75.39858,5.02778],[-75.39861,5.02798],[-75.39877,5.0278],[-75.39889,5.02798]]]]},"properties":{"OBJECTID_1":4,"OBJECTID":4,"Area_Ha":13.09904571,"Shape_Leng":2660.02776258,"Zona":"Zona de restauración","Subzona":"Zona de restauración","Tipo":"Pastos enmalezados","Shape_Length":2659.47083337571,"Shape_Area":130951.52643209326}},{"type":"Feature","id":5,"geometry":{"type":"MultiPolygon","coordinates":[[[[-75.39013,5.02616],[-75.39006,5.02621],[-75.39016,5.02616],[-75.39013,5.02616]]],[[[-75.39079,5.025],[-75.39064,5.02503],[-75.39024,5.02514],[-75.39017,5.02521],[-75.39008,5.02531],[-75.38996,5.02539],[-75.38979,5.0255],[-75.38946,5.02562],[-75.38914,5.02563],[-75.38911,5.02565],[-75.38889,5.02573],[-75.38876,5.02595],[-75.38882,5.02618],[-75.38888,5.02642],[-75.38895,5.02617],[-75.38895,5.02615],[-75.38896,5.02614],[-75.38897,5.02612],[-75.38898,5.02611],[-75.38918,5.02591],[-75.38919,5.0259],[-75.3892,5.02589],[-75.3894,5.02575],[-75.38942,5.02574],[-75.38944,5.02573],[-75.3899,5.02558],[-75.38991,5.02558],[-75.39038,5.02546],[-75.39073,5.02536],[-75.39087,5.02531],[-75.39109,5.02516],[-75.39115,5.02509],[-75.39112,5.02501],[-75.39112,5.02488],[-75.39112,5.02477],[-75.39079,5.025]]],[[[-75.39099,5.02686],[-75.39099,5.02699],[-75.39112,5.02699],[-75.39125,5.02699],[-75.39137,5.02699],[-75.3915,5.02699],[-75.39163,5.02699],[-75.39182,5.02699],[-75.39184,5.02699],[-75.39177,5.02694],[-75.39171,5.02689],[-75.39166,5.02684],[-75.39161,5.02678],[-75.3915,5.02682],[-75.39127,5.02685],[-75.39107,5.02677],[-75.39074,5.02644],[-75.39071,5.02644],[-75.39068,5.02643],[-75.3908,5.02654],[-75.3908,5.02667],[-75.39093,5.02673],[-75.39099,5.02686]]],[[[-75.39282,5.027],[-75.39281,5.027],[-75.3928,5.027],[-75.3928,5.02701],[-75.39279,5.02701],[-75.39282,5.02702],[-75.39282,5.02699],[-75.39282,5.027]]],[[[-75.38743,5.02886],[-75.38741,5.02918],[-75.38742,5.0292],[-75.38742,5.02916],[-75.38742,5.02913],[-75.38743,5.02911],[-75.38745,5.02906],[-75.38746,5.02883],[-75.38746,5.02882],[-75.38746,5.02881],[-75.38743,5.02881],[-75.38743,5.02886]]],[[[-75.39963,5.02861],[-75.39971,5.0286],[-75.39979,5.02859],[-75.39987,5.02859],[-75.39995,5.02859],[-75.40002,5.02861],[-75.4001,5.02863],[-75.40018,5.02865],[-75.40025,5.02868],[-75.40032,5.02872],[-75.40038,5.02877],[-75.40044,5.02882],[-75.4005,5.02887],[-75.40055,5.02894],[-75.4006,5.029],[-75.40064,5.02907],[-75.40067,5.02914],[-75.4007,5.02922],[-75.40072,5.02929],[-75.40073,5.02937],[-75.40074,5.02945],[-75.40074,5.02953],[-75.40073,5.02961],[-75.40074,5.02961],[-75.40075,5.0296],[-75.40077,5.0296],[-75.40102,5.0296],[-75.40126,5.02954],[-75.40126,5.02954],[-75.40159,5.02947],[-75.40174,5.02939],[-75.40183,5.02925],[-75.40184,5.02924],[-75.40186,5.02923],[-75.40187,5.02922],[-75.402,5.02914],[-75.40218,5.02894],[-75.40227,5.02884],[-75.40229,5.02882],[-75.40229,5.02882],[-75.40242,5.02871],[-75.40238,5.0287],[-75.40234,5.02868],[-75.40231,5.02866],[-75.40204,5.02846],[-75.40202,5.02844],[-75.402,5.02842],[-75.40198,5.02839],[-75.40198,5.02839],[-75.4017,5.0283],[-75.40163,5.02815],[-75.40164,5.02793],[-75.40157,5.02773],[-75.40155,5.02771],[-75.40154,5.02769],[-75.40153,5.02767],[-75.40139,5.02734],[-75.40138,5.02732],[-75.40129,5.02722],[-75.40126,5.02701],[-75.40128,5.02666],[-75.40135,5.02641],[-75.40136,5.02598],[-75.40128,5.02582],[-75.40119,5.02578],[-75.40115,5.02576],[-75.40111,5.02573],[-75.40097,5.02561],[-75.40042,5.02542],[-75.39997,5.02535],[-75.39878,5.02545],[-75.39853,5.02553],[-75.39834,5.02561],[-75.39831,5.02563],[-75.39829,5.02564],[-75.39826,5.02565],[-75.39795,5.02578],[-75.39791,5.02579],[-75.39791,5.02579],[-75.3975,5.02588],[-75.39747,5.02589],[-75.39681,5.02594],[-75.39677,5.02594],[-75.39672,5.02593],[-75.39634,5.02583],[-75.39631,5.02582],[-75.39596,5.02568],[-75.39595,5.02568],[-75.39592,5.02567],[-75.39564,5.0255],[-75.3956,5.02548],[-75.39557,5.02545],[-75.39504,5.02484],[-75.39482,5.02463],[-75.39464,5.02461],[-75.39437,5.02467],[-75.3944,5.02472],[-75.39449,5.02477],[-75.39454,5.02491],[-75.39454,5.025],[-75.39463,5.02505],[-75.39468,5.02515],[-75.39478,5.0252],[-75.39487,5.02524],[-75.39497,5.02534],[-75.39506,5.02534],[-75.39516,5.02539],[-75.39521,5.02524],[-75.39521,5.02523],[-75.39548,5.02546],[-75.39563,5.02572],[-75.39593,5.02625],[-75.39621,5.02651],[-75.39654,5.02659],[-75.39686,5.02657],[-75.39741,5.02653],[-75.39821,5.02592],[-75.39831,5.02584],[-75.39866,5.02571],[-75.39898,5.02575],[-75.3993,5.0259],[-75.39933,5.02597],[-75.39947,5.02624],[-75.39949,5.02672],[-75.39949,5.02673],[-75.39939,5.02698],[-75.39939,5.02708],[-75.39965,5.02723],[-75.39984,5.02734],[-75.39982,5.02751],[-75.39976,5.0276],[-75.39962,5.02781],[-75.39947,5.02827],[-75.39963,5.02861],[-75.39963,5.02861]]],[[[-75.40885,5.02945],[-75.40877,5.02975],[-75.40874,5.0299],[-75.40874,5.02991],[-75.40856,5.03052],[-75.40856,5.03053],[-75.40855,5.03055],[-75.40854,5.03057],[-75.40853,5.03058],[-75.40858,5.03063],[-75.40863,5.03069],[-75.40867,5.03075],[-75.40871,5.03082],[-75.40874,5.03089],[-75.40907,5.03089],[-75.40908,5.03089],[-75.40968,5.03072],[-75.41,5.0306],[-75.41004,5.03058],[-75.41026,5.0305],[-75.41062,5.03042],[-75.41062,5.03041],[-75.41071,5.03032],[-75.41071,5.03022],[-75.41071,5.03012],[-75.41081,5.03012],[-75.41091,5.02992],[-75.41091,5.02983],[-75.41091,5.02973],[-75.41091,5.02953],[-75.41091,5.02943],[-75.41091,5.02934],[-75.41091,5.02924],[-75.41081,5.02924],[-75.41081,5.02914],[-75.41061,5.02914],[-75.41061,5.02904],[-75.41052,5.02904],[-75.41052,5.02894],[-75.41042,5.02894],[-75.41032,5.02885],[-75.41022,5.02885],[-75.41022,5.02875],[-75.41012,5.02875],[-75.41012,5.02865],[-75.41003,5.02855],[-75.40993,5.02846],[-75.40983,5.02836],[-75.40983,5.02828],[-75.40932,5.02841],[-75.40932,5.02843],[-75.40932,5.02844],[-75.40932,5.02846],[-75.40928,5.02862],[-75.40928,5.02864],[-75.40927,5.02865],[-75.40916,5.02889],[-75.40915,5.0289],[-75.40915,5.02891],[-75.40893,5.02922],[-75.40885,5.02945]]],[[[-75.38789,5.03097],[-75.38795,5.03098],[-75.38795,5.03088],[-75.38795,5.03076],[-75.38795,5.03063],[-75.38801,5.0305],[-75.38807,5.03037],[-75.38807,5.03025],[-75.3882,5.03012],[-75.38833,5.02999],[-75.38839,5.02986],[-75.38845,5.02974],[-75.38845,5.02961],[-75.38845,5.02948],[-75.38845,5.02935],[-75.38845,5.02923],[-75.38845,5.0291],[-75.38845,5.02897],[-75.38845,5.02884],[-75.38845,5.02871],[-75.38832,5.02859],[-75.38839,5.02846],[-75.38852,5.02846],[-75.38864,5.0284],[-75.38877,5.02833],[-75.3889,5.02827],[-75.38896,5.02814],[-75.38909,5.02808],[-75.38921,5.02801],[-75.38934,5.02801],[-75.38947,5.02801],[-75.3896,5.02807],[-75.3896,5.0282],[-75.3896,5.02833],[-75.3896,5.02846],[-75.38953,5.02859],[-75.38941,5.02871],[-75.38941,5.02884],[-75.38941,5.02897],[-75.38941,5.0291],[-75.38934,5.02922],[-75.38934,5.02935],[-75.38934,5.02948],[-75.38947,5.02954],[-75.38966,5.02954],[-75.38979,5.02954],[-75.38992,5.02948],[-75.39004,5.02935],[-75.39017,5.02929],[-75.39017,5.02916],[-75.39023,5.02903],[-75.39023,5.0289],[-75.39023,5.02878],[-75.39023,5.02865],[-75.39023,5.02852],[-75.39023,5.02839],[-75.39023,5.02826],[-75.39017,5.02814],[-75.39017,5.02801],[-75.39017,5.02788],[-75.39017,5.02769],[-75.39017,5.02756],[-75.39017,5.02744],[-75.39023,5.02731],[-75.39023,5.02718],[-75.39023,5.02705],[-75.3901,5.02699],[-75.3901,5.02686],[-75.39004,5.02673],[-75.38997,5.02661],[-75.38997,5.02652],[-75.38991,5.02659],[-75.38983,5.02671],[-75.3897,5.02698],[-75.38959,5.0273],[-75.38955,5.02748],[-75.38941,5.02769],[-75.38916,5.02794],[-75.38879,5.02819],[-75.38861,5.02827],[-75.38843,5.02843],[-75.38815,5.0285],[-75.38796,5.0286],[-75.38791,5.02866],[-75.3879,5.02887],[-75.3879,5.02906],[-75.38789,5.02915],[-75.38786,5.02924],[-75.38784,5.02929],[-75.38781,5.02936],[-75.38775,5.02941],[-75.38769,5.02942],[-75.38769,5.02944],[-75.38777,5.03027],[-75.38777,5.03029],[-75.38777,5.03031],[-75.38769,5.03069],[-75.38769,5.03071],[-75.38764,5.03083],[-75.38764,5.03096],[-75.3877,5.03092],[-75.38789,5.03097]]],[[[-75.40585,5.03096],[-75.40613,5.03117],[-75.40632,5.03109],[-75.40653,5.03087],[-75.40675,5.0307],[-75.40702,5.03074],[-75.40711,5.03079],[-75.40715,5.03073],[-75.4072,5.03066],[-75.40725,5.03061],[-75.4073,5.03055],[-75.40736,5.0305],[-75.40743,5.03046],[-75.40749,5.03042],[-75.40756,5.03039],[-75.40764,5.03036],[-75.40771,5.03034],[-75.40779,5.03033],[-75.40786,5.03032],[-75.40794,5.03032],[-75.40802,5.03033],[-75.40809,5.03034],[-75.40817,5.03036],[-75.40824,5.03039],[-75.40831,5.03042],[-75.40848,5.02984],[-75.4085,5.0297],[-75.4085,5.02969],[-75.40859,5.02937],[-75.40859,5.02936],[-75.40868,5.02911],[-75.40869,5.02908],[-75.4087,5.02907],[-75.40892,5.02877],[-75.40902,5.02855],[-75.40903,5.02851],[-75.40902,5.02851],[-75.409,5.02851],[-75.40899,5.02851],[-75.40875,5.02851],[-75.40873,5.02851],[-75.40871,5.02851],[-75.40842,5.02848],[-75.40841,5.02848],[-75.40809,5.02848],[-75.40804,5.02849],[-75.40803,5.0285],[-75.40801,5.0285],[-75.408,5.0285],[-75.40794,5.02851],[-75.40785,5.02852],[-75.40767,5.02857],[-75.40766,5.02861],[-75.40766,5.02862],[-75.40755,5.02892],[-75.40741,5.02937],[-75.40741,5.02938],[-75.4074,5.02939],[-75.40725,5.02971],[-75.40723,5.03002],[-75.40731,5.03025],[-75.40732,5.03027],[-75.40732,5.03029],[-75.40732,5.03032],[-75.40731,5.03034],[-75.4073,5.03036],[-75.40729,5.03038],[-75.40727,5.0304],[-75.40725,5.03041],[-75.40723,5.03042],[-75.40721,5.03043],[-75.40718,5.03043],[-75.40716,5.03043],[-75.40714,5.03042],[-75.40712,5.03041],[-75.4071,5.0304],[-75.40708,5.03038],[-75.40707,5.03036],[-75.40706,5.03034],[-75.40697,5.03009],[-75.40696,5.03007],[-75.40696,5.03005],[-75.40696,5.03003],[-75.40698,5.02967],[-75.40699,5.02965],[-75.40699,5.02963],[-75.407,5.02962],[-75.40716,5.02928],[-75.40729,5.02884],[-75.40729,5.02883],[-75.40736,5.02865],[-75.40726,5.02867],[-75.4071,5.02863],[-75.40706,5.02859],[-75.40701,5.02859],[-75.40701,5.02859],[-75.407,5.02859],[-75.40699,5.02859],[-75.40697,5.02859],[-75.40695,5.02859],[-75.40693,5.02858],[-75.40692,5.02858],[-75.4069,5.02857],[-75.40689,5.02857],[-75.40681,5.02864],[-75.40661,5.02889],[-75.40649,5.02928],[-75.40626,5.03055],[-75.40625,5.03057],[-75.40624,5.03059],[-75.40623,5.03061],[-75.40621,5.03063],[-75.40619,5.03064],[-75.40617,5.03065],[-75.40615,5.03066],[-75.40612,5.03066],[-75.4061,5.03066],[-75.40608,5.03065],[-75.40606,5.03064],[-75.40604,5.03063],[-75.40602,5.03061],[-75.40601,5.03059],[-75.406,5.03057],[-75.40599,5.03055],[-75.40599,5.03052],[-75.40599,5.0305],[-75.40623,5.02922],[-75.40623,5.02921],[-75.40636,5.02879],[-75.40636,5.02877],[-75.40637,5.02876],[-75.40638,5.02874],[-75.40661,5.02846],[-75.40662,5.02845],[-75.40668,5.02839],[-75.40667,5.02839],[-75.40666,5.02837],[-75.40665,5.02836],[-75.40664,5.02835],[-75.40663,5.02833],[-75.40662,5.02831],[-75.40661,5.0283],[-75.40661,5.02828],[-75.40661,5.02828],[-75.40652,5.02818],[-75.40631,5.02797],[-75.40622,5.02791],[-75.40598,5.02782],[-75.40567,5.02786],[-75.40567,5.02823],[-75.40567,5.02826],[-75.40567,5.02826],[-75.40561,5.02857],[-75.4056,5.02859],[-75.40559,5.0286],[-75.40558,5.02862],[-75.40557,5.02864],[-75.40538,5.02882],[-75.40537,5.02882],[-75.40536,5.02883],[-75.4051,5.02901],[-75.40499,5.02923],[-75.40487,5.02952],[-75.40487,5.02953],[-75.40477,5.02972],[-75.40476,5.02972],[-75.40475,5.02974],[-75.40466,5.02985],[-75.40465,5.02986],[-75.40464,5.02988],[-75.40463,5.02988],[-75.40435,5.03005],[-75.40433,5.03006],[-75.4043,5.03007],[-75.40428,5.03007],[-75.40426,5.03007],[-75.40423,5.03006],[-75.40421,5.03005],[-75.40419,5.03004],[-75.40418,5.03002],[-75.40416,5.03],[-75.40415,5.02998],[-75.40415,5.02996],[-75.40414,5.02993],[-75.40415,5.02991],[-75.40415,5.02989],[-75.40416,5.02987],[-75.40418,5.02985],[-75.40419,5.02983],[-75.40421,5.02982],[-75.40447,5.02966],[-75.40453,5.02958],[-75.40462,5.02941],[-75.40475,5.02912],[-75.40475,5.02911],[-75.40488,5.02886],[-75.40489,5.02884],[-75.4049,5.02882],[-75.40492,5.02881],[-75.4052,5.02861],[-75.40535,5.02847],[-75.4054,5.02822],[-75.4054,5.02792],[-75.40519,5.02797],[-75.40516,5.02797],[-75.40515,5.02797],[-75.40487,5.02799],[-75.40465,5.02807],[-75.40435,5.02821],[-75.40405,5.02839],[-75.40402,5.02841],[-75.40398,5.02842],[-75.40363,5.02852],[-75.40362,5.02853],[-75.40359,5.02855],[-75.40356,5.02857],[-75.40352,5.02858],[-75.40338,5.02861],[-75.40328,5.02865],[-75.40326,5.02865],[-75.40288,5.02874],[-75.40288,5.02874],[-75.40284,5.02875],[-75.4028,5.02875],[-75.40278,5.02876],[-75.40277,5.02878],[-75.40247,5.02902],[-75.40239,5.02912],[-75.40238,5.02912],[-75.40218,5.02933],[-75.40217,5.02935],[-75.40216,5.02936],[-75.40204,5.02943],[-75.40194,5.02957],[-75.40193,5.02959],[-75.40191,5.0296],[-75.40189,5.02961],[-75.40171,5.02972],[-75.40169,5.02972],[-75.40167,5.02973],[-75.40132,5.02981],[-75.40107,5.02987],[-75.40106,5.02987],[-75.40104,5.02987],[-75.40079,5.02987],[-75.40064,5.02991],[-75.4006,5.02998],[-75.40055,5.03005],[-75.4005,5.03011],[-75.40045,5.03016],[-75.40038,5.03021],[-75.40032,5.03026],[-75.4004,5.03036],[-75.4005,5.03033],[-75.40057,5.0303],[-75.40083,5.03009],[-75.40124,5.02994],[-75.4016,5.03002],[-75.40179,5.03],[-75.40214,5.03],[-75.40214,5.03001],[-75.4025,5.03019],[-75.40289,5.03019],[-75.40304,5.03009],[-75.40319,5.03],[-75.40344,5.02974],[-75.4037,5.02968],[-75.40444,5.03028],[-75.40452,5.03034],[-75.40482,5.03036],[-75.40486,5.03035],[-75.4049,5.03034],[-75.40527,5.03025],[-75.40567,5.03025],[-75.40572,5.03045],[-75.40585,5.03096]]],[[[-75.38749,5.03022],[-75.38745,5.03036],[-75.38737,5.03053],[-75.38733,5.03067],[-75.38728,5.03083],[-75.3872,5.03096],[-75.38717,5.031],[-75.38715,5.03104],[-75.38714,5.03105],[-75.3871,5.03113],[-75.38707,5.03126],[-75.38706,5.0313],[-75.38736,5.03117],[-75.38737,5.0308],[-75.38737,5.03078],[-75.38738,5.03076],[-75.38743,5.03063],[-75.3875,5.03028],[-75.38749,5.03021],[-75.38749,5.03022]]],[[[-75.39047,5.03067],[-75.39047,5.03073],[-75.39041,5.03079],[-75.39041,5.03085],[-75.39041,5.03091],[-75.39041,5.03097],[-75.39041,5.03103],[-75.39035,5.03109],[-75.39035,5.03115],[-75.39035,5.03127],[-75.39035,5.03133],[-75.39035,5.03139],[-75.39035,5.03151],[-75.39041,5.03163],[-75.39047,5.03169],[-75.39053,5.03175],[-75.39059,5.03187],[-75.39065,5.03193],[-75.39065,5.03199],[-75.39071,5.03205],[-75.39077,5.03211],[-75.39083,5.03216],[-75.39083,5.03219],[-75.39098,5.0322],[-75.39131,5.03214],[-75.39183,5.03159],[-75.39222,5.03113],[-75.39244,5.03066],[-75.3927,5.03088],[-75.39289,5.03161],[-75.39302,5.03216],[-75.39302,5.03195],[-75.39302,5.03194],[-75.39302,5.03192],[-75.39308,5.03151],[-75.39307,5.03115],[-75.39306,5.03114],[-75.39304,5.03108],[-75.39298,5.03108],[-75.39298,5.03102],[-75.39298,5.03096],[-75.39292,5.0309],[-75.39292,5.03084],[-75.39292,5.03079],[-75.39292,5.03073],[-75.39292,5.03067],[-75.39292,5.03066],[-75.3925,5.03016],[-75.39249,5.03014],[-75.39248,5.03013],[-75.39237,5.02987],[-75.39236,5.02986],[-75.39236,5.02986],[-75.39229,5.0296],[-75.39228,5.02959],[-75.39228,5.02957],[-75.39228,5.02956],[-75.39229,5.02947],[-75.39226,5.02947],[-75.3922,5.02941],[-75.39214,5.02941],[-75.39214,5.02935],[-75.39208,5.02935],[-75.39202,5.02935],[-75.39196,5.02935],[-75.3919,5.02935],[-75.39184,5.02935],[-75.39178,5.02941],[-75.39172,5.02947],[-75.39166,5.02947],[-75.3916,5.02953],[-75.39154,5.02953],[-75.39148,5.02953],[-75.39148,5.02959],[-75.39142,5.02965],[-75.39136,5.02965],[-75.3913,5.02971],[-75.39124,5.02977],[-75.39118,5.02983],[-75.39113,5.02989],[-75.39107,5.02989],[-75.39107,5.02995],[-75.39101,5.02995],[-75.39095,5.02995],[-75.39089,5.02995],[-75.39089,5.03001],[-75.39083,5.03007],[-75.39077,5.03007],[-75.39077,5.03013],[-75.39071,5.03013],[-75.39071,5.03025],[-75.39071,5.03031],[-75.39065,5.03031],[-75.39059,5.03043],[-75.39053,5.03049],[-75.39053,5.03055],[-75.39053,5.03061],[-75.39047,5.03067]]],[[[-75.39578,5.03406],[-75.39578,5.03415],[-75.39578,5.03416],[-75.39587,5.03418],[-75.396,5.03433],[-75.39612,5.03449],[-75.39654,5.03455],[-75.39669,5.03451],[-75.3967,5.03449],[-75.39675,5.03439],[-75.39675,5.0343],[-75.39675,5.0342],[-75.39665,5.03415],[-75.39656,5.0341],[-75.39646,5.03405],[-75.39631,5.03405],[-75.39622,5.03406],[-75.39617,5.03396],[-75.39607,5.03391],[-75.39598,5.03386],[-75.39593,5.03376],[-75.39583,5.03376],[-75.39578,5.03386],[-75.39578,5.03387],[-75.39578,5.03396],[-75.39578,5.03406]]],[[[-75.39234,5.03435],[-75.39238,5.03453],[-75.39254,5.03464],[-75.39268,5.03463],[-75.3929,5.0344],[-75.39317,5.03416],[-75.39342,5.034],[-75.39363,5.03392],[-75.39389,5.03407],[-75.39409,5.03408],[-75.39428,5.03414],[-75.39453,5.03406],[-75.39452,5.03406],[-75.39443,5.03401],[-75.39438,5.03391],[-75.39428,5.03382],[-75.39418,5.03372],[-75.39414,5.03362],[-75.39404,5.03353],[-75.39399,5.03343],[-75.39389,5.03328],[-75.39384,5.03319],[-75.39383,5.03315],[-75.39377,5.03315],[-75.39368,5.0332],[-75.39367,5.0332],[-75.39367,5.03321],[-75.39367,5.03323],[-75.39367,5.03325],[-75.39366,5.03327],[-75.39365,5.03329],[-75.39364,5.03331],[-75.39362,5.03333],[-75.39361,5.03334],[-75.39358,5.03335],[-75.39356,5.03336],[-75.39354,5.03336],[-75.39351,5.03336],[-75.39349,5.03335],[-75.39347,5.03334],[-75.39345,5.03333],[-75.39343,5.03331],[-75.39342,5.0333],[-75.39334,5.0333],[-75.39325,5.03334],[-75.39322,5.03336],[-75.39322,5.03336],[-75.39322,5.0333],[-75.39322,5.03324],[-75.39322,5.03318],[-75.39322,5.03312],[-75.39322,5.03306],[-75.39322,5.033],[-75.39322,5.03294],[-75.39322,5.03288],[-75.39322,5.03282],[-75.39322,5.03279],[-75.39321,5.03278],[-75.39321,5.03277],[-75.39304,5.03243],[-75.39304,5.03242],[-75.39303,5.0324],[-75.39304,5.03293],[-75.39279,5.03378],[-75.39234,5.03435]]]]},"properties":{"OBJECTID_1":5,"OBJECTID":5,"Area_Ha":43.5583390641,"Shape_Leng":13070.9357978,"Zona":"Zona de preservación","Subzona":"Zona de preservación","Tipo":"Bosque denso alto de tierra firme","Shape_Length":13068.319246282259,"Shape_Area":435443.2192425834}},{"type":"Feature","id":6,"geometry":{"type":"Polygon","coordinates":[[[-75.40983,5.02828],[-75.40983,5.02836],[-75.40993,5.02846],[-75.41003,5.02855],[-75.41012,5.02865],[-75.41012,5.02875],[-75.41022,5.02875],[-75.41022,5.02885],[-75.41032,5.02885],[-75.41042,5.02894],[-75.41052,5.02894],[-75.41052,5.02904],[-75.41061,5.02904],[-75.41061,5.02914],[-75.41081,5.02914],[-75.41081,5.02924],[-75.41091,5.02924],[-75.41091,5.02934],[-75.41091,5.02943],[-75.41091,5.02953],[-75.41091,5.02973],[-75.41091,5.02983],[-75.41091,5.02992],[-75.41081,5.03012],[-75.41071,5.03012],[-75.41071,5.03022],[-75.41071,5.03032],[-75.41062,5.03041],[-75.41062,5.03042],[-75.41122,5.03028],[-75.41137,5.0303],[-75.41132,5.03011],[-75.41121,5.02967],[-75.41109,5.02902],[-75.41099,5.02852],[-75.41097,5.0285],[-75.41095,5.02846],[-75.41093,5.02844],[-75.41092,5.02842],[-75.41091,5.02841],[-75.41089,5.02839],[-75.41089,5.02839],[-75.41089,5.02839],[-75.41087,5.02837],[-75.41084,5.02835],[-75.41083,5.02835],[-75.41083,5.02835],[-75.41083,5.02834],[-75.41081,5.02833],[-75.4108,5.02832],[-75.41076,5.02828],[-75.41074,5.02825],[-75.41072,5.02823],[-75.41071,5.02822],[-75.41068,5.02819],[-75.41064,5.02815],[-75.41063,5.02815],[-75.41062,5.02813],[-75.41058,5.02809],[-75.41054,5.02806],[-75.41052,5.02804],[-75.41051,5.02804],[-75.41,5.02824],[-75.40997,5.02825],[-75.40983,5.02828]]]},"properties":{"OBJECTID_1":6,"OBJECTID":6,"Area_Ha":1.54490963122,"Shape_Leng":791.970064221,"Zona":"Zona de restauración","Subzona":"Zona de restauración","Tipo":"Pastos enmalezados","Shape_Length":791.8240761580282,"Shape_Area":15443.40450425551}},{"type":"Feature","id":7,"geometry":{"type":"MultiPolygon","coordinates":[[[[-75.3915,5.02464],[-75.39149,5.02465],[-75.39148,5.02466],[-75.39146,5.02468],[-75.39121,5.02502],[-75.39115,5.02509],[-75.39109,5.02516],[-75.39087,5.02531],[-75.39073,5.02536],[-75.39038,5.02546],[-75.38991,5.02558],[-75.3899,5.02558],[-75.38944,5.02573],[-75.38942,5.02574],[-75.3894,5.02575],[-75.3892,5.02589],[-75.38919,5.0259],[-75.38918,5.02591],[-75.38898,5.02611],[-75.38897,5.02612],[-75.38896,5.02614],[-75.38895,5.02615],[-75.38895,5.02617],[-75.38888,5.02642],[-75.3889,5.02649],[-75.3889,5.02656],[-75.38895,5.02667],[-75.38894,5.02685],[-75.38894,5.02696],[-75.38895,5.02699],[-75.38894,5.0271],[-75.38911,5.02679],[-75.38912,5.02677],[-75.38912,5.02676],[-75.38912,5.02674],[-75.38914,5.02662],[-75.38914,5.02661],[-75.38914,5.02651],[-75.3892,5.02627],[-75.38937,5.02611],[-75.38954,5.02599],[-75.38998,5.02584],[-75.39045,5.02573],[-75.39045,5.02573],[-75.39082,5.02562],[-75.39083,5.02562],[-75.39083,5.02562],[-75.39098,5.02555],[-75.391,5.02555],[-75.391,5.02554],[-75.39126,5.02538],[-75.39127,5.02537],[-75.39128,5.02536],[-75.39129,5.02535],[-75.39142,5.02519],[-75.39143,5.02518],[-75.39166,5.02486],[-75.39188,5.02473],[-75.3919,5.02472],[-75.39191,5.02471],[-75.39192,5.02469],[-75.39197,5.02462],[-75.39237,5.02468],[-75.39271,5.02476],[-75.39279,5.0248],[-75.39269,5.02516],[-75.39269,5.02517],[-75.39269,5.02518],[-75.39266,5.02534],[-75.39266,5.02536],[-75.39266,5.02537],[-75.39266,5.02539],[-75.39272,5.02542],[-75.39278,5.02545],[-75.39284,5.02548],[-75.39289,5.02552],[-75.39294,5.02556],[-75.39293,5.02537],[-75.39296,5.02523],[-75.39305,5.02486],[-75.39327,5.02486],[-75.39354,5.02488],[-75.39355,5.02488],[-75.39357,5.02488],[-75.39358,5.02488],[-75.3936,5.02488],[-75.39362,5.02488],[-75.39364,5.02488],[-75.39365,5.02487],[-75.39391,5.02479],[-75.39437,5.02467],[-75.39464,5.02461],[-75.39482,5.02463],[-75.39504,5.02484],[-75.39557,5.02545],[-75.3956,5.02548],[-75.39564,5.0255],[-75.39592,5.02567],[-75.39595,5.02568],[-75.39596,5.02568],[-75.39631,5.02582],[-75.39634,5.02583],[-75.39672,5.02593],[-75.39677,5.02594],[-75.39681,5.02594],[-75.39747,5.02589],[-75.3975,5.02588],[-75.39791,5.02579],[-75.39791,5.02579],[-75.39795,5.02578],[-75.39826,5.02565],[-75.39829,5.02564],[-75.39831,5.02563],[-75.39834,5.02561],[-75.39853,5.02553],[-75.39878,5.02545],[-75.39997,5.02535],[-75.40042,5.02542],[-75.40097,5.02561],[-75.40111,5.02573],[-75.40115,5.02576],[-75.40119,5.02578],[-75.40128,5.02582],[-75.40136,5.02598],[-75.40135,5.02641],[-75.40136,5.02636],[-75.40152,5.02615],[-75.40149,5.02593],[-75.40138,5.02569],[-75.40118,5.02546],[-75.40071,5.02532],[-75.40018,5.0253],[-75.39988,5.02528],[-75.39949,5.02529],[-75.3991,5.02525],[-75.39881,5.02536],[-75.39851,5.02542],[-75.39808,5.02554],[-75.39767,5.02554],[-75.39753,5.02569],[-75.39731,5.02583],[-75.39708,5.02585],[-75.3967,5.02583],[-75.39637,5.02574],[-75.39606,5.02557],[-75.39572,5.02534],[-75.39545,5.02517],[-75.39518,5.02483],[-75.39519,5.02478],[-75.3952,5.02466],[-75.39513,5.02442],[-75.39504,5.02426],[-75.39484,5.02414],[-75.39447,5.02413],[-75.39417,5.02417],[-75.39391,5.02429],[-75.39375,5.02449],[-75.3937,5.02451],[-75.39344,5.02457],[-75.39292,5.02445],[-75.39287,5.02445],[-75.39272,5.02441],[-75.39241,5.02435],[-75.39182,5.02412],[-75.39166,5.02428],[-75.3916,5.02434],[-75.39145,5.02447],[-75.39149,5.02448],[-75.39168,5.02454],[-75.3915,5.02464]]],[[[-75.40139,5.02734],[-75.40153,5.02767],[-75.40154,5.02769],[-75.40155,5.02771],[-75.40157,5.02773],[-75.40164,5.02793],[-75.40166,5.02772],[-75.40157,5.02753],[-75.40138,5.02732],[-75.40139,5.02734]]],[[[-75.3927,5.02736],[-75.39269,5.02738],[-75.39269,5.02739],[-75.39268,5.02741],[-75.39268,5.02744],[-75.39266,5.02755],[-75.39265,5.02757],[-75.39264,5.02785],[-75.39264,5.02787],[-75.39265,5.02789],[-75.39267,5.02797],[-75.39272,5.02792],[-75.39278,5.02788],[-75.39285,5.02784],[-75.39292,5.02781],[-75.39292,5.02763],[-75.39292,5.02759],[-75.39294,5.02749],[-75.39299,5.02743],[-75.39298,5.02736],[-75.39274,5.02731],[-75.3927,5.02736]]],[[[-75.38825,5.02781],[-75.38816,5.02787],[-75.38806,5.02793],[-75.3879,5.02807],[-75.38786,5.02812],[-75.38776,5.02821],[-75.38764,5.02827],[-75.38756,5.02842],[-75.38765,5.02836],[-75.38773,5.0283],[-75.38788,5.02824],[-75.38798,5.02822],[-75.38801,5.02817],[-75.38807,5.02812],[-75.38809,5.0281],[-75.38809,5.0281],[-75.38828,5.02783],[-75.38836,5.02777],[-75.38825,5.02781]]],[[[-75.40806,5.02848],[-75.40794,5.02851],[-75.408,5.0285],[-75.40801,5.0285],[-75.40803,5.0285],[-75.40804,5.02849],[-75.40809,5.02848],[-75.40806,5.02848]]],[[[-75.40748,5.02861],[-75.40736,5.02865],[-75.40729,5.02883],[-75.40729,5.02884],[-75.40716,5.02928],[-75.407,5.02962],[-75.40699,5.02963],[-75.40699,5.02965],[-75.40698,5.02967],[-75.40696,5.03003],[-75.40696,5.03005],[-75.40696,5.03007],[-75.40697,5.03009],[-75.40706,5.03034],[-75.40707,5.03036],[-75.40708,5.03038],[-75.4071,5.0304],[-75.40712,5.03041],[-75.40714,5.03042],[-75.40716,5.03043],[-75.40718,5.03043],[-75.40721,5.03043],[-75.40723,5.03042],[-75.40725,5.03041],[-75.40727,5.0304],[-75.40729,5.03038],[-75.4073,5.03036],[-75.40731,5.03034],[-75.40732,5.03032],[-75.40732,5.03029],[-75.40732,5.03027],[-75.40731,5.03025],[-75.40723,5.03002],[-75.40725,5.02971],[-75.4074,5.02939],[-75.40741,5.02938],[-75.40741,5.02937],[-75.40755,5.02892],[-75.40766,5.02862],[-75.40766,5.02861],[-75.40767,5.02857],[-75.40748,5.02861]]],[[[-75.40902,5.02855],[-75.40892,5.02877],[-75.4087,5.02907],[-75.40869,5.02908],[-75.40868,5.02911],[-75.40859,5.02936],[-75.40859,5.02937],[-75.4085,5.02969],[-75.4085,5.0297],[-75.40848,5.02984],[-75.40831,5.03042],[-75.40837,5.03045],[-75.40843,5.03049],[-75.40848,5.03053],[-75.40853,5.03058],[-75.40854,5.03057],[-75.40855,5.03055],[-75.40856,5.03053],[-75.40856,5.03052],[-75.40874,5.02991],[-75.40874,5.0299],[-75.40877,5.02975],[-75.40885,5.02945],[-75.40893,5.02922],[-75.40915,5.02891],[-75.40915,5.0289],[-75.40916,5.02889],[-75.40927,5.02865],[-75.40928,5.02864],[-75.40928,5.02862],[-75.40932,5.02846],[-75.40932,5.02844],[-75.40932,5.02843],[-75.40932,5.02841],[-75.40983,5.02828],[-75.40997,5.02825],[-75.41,5.02824],[-75.41051,5.02804],[-75.41052,5.02804],[-75.41051,5.02802],[-75.41048,5.028],[-75.41002,5.0282],[-75.40968,5.02831],[-75.4092,5.02842],[-75.40892,5.02846],[-75.40872,5.02848],[-75.40842,5.02848],[-75.40871,5.02851],[-75.40873,5.02851],[-75.40875,5.02851],[-75.40899,5.02851],[-75.409,5.02851],[-75.40902,5.02851],[-75.40903,5.02851],[-75.40902,5.02855]]],[[[-75.40638,5.02874],[-75.40637,5.02876],[-75.40636,5.02877],[-75.40636,5.02879],[-75.40623,5.02921],[-75.40623,5.02922],[-75.40599,5.0305],[-75.40599,5.03052],[-75.40599,5.03055],[-75.406,5.03057],[-75.40601,5.03059],[-75.40602,5.03061],[-75.40604,5.03063],[-75.40606,5.03064],[-75.40608,5.03065],[-75.4061,5.03066],[-75.40612,5.03066],[-75.40615,5.03066],[-75.40617,5.03065],[-75.40619,5.03064],[-75.40621,5.03063],[-75.40623,5.03061],[-75.40624,5.03059],[-75.40625,5.03057],[-75.40626,5.03055],[-75.40649,5.02928],[-75.40661,5.02889],[-75.40681,5.02864],[-75.40689,5.02857],[-75.4069,5.02857],[-75.40692,5.02858],[-75.40693,5.02858],[-75.40695,5.02859],[-75.40697,5.02859],[-75.40699,5.02859],[-75.407,5.02859],[-75.40701,5.02859],[-75.40701,5.02859],[-75.40706,5.02859],[-75.40699,5.02852],[-75.40677,5.02828],[-75.40658,5.02804],[-75.40636,5.02787],[-75.40587,5.02774],[-75.40513,5.02774],[-75.40488,5.02777],[-75.40461,5.02786],[-75.40451,5.02791],[-75.40418,5.02809],[-75.40369,5.02831],[-75.4033,5.02846],[-75.40295,5.02855],[-75.40259,5.02851],[-75.40225,5.02844],[-75.40198,5.02839],[-75.402,5.02842],[-75.40202,5.02844],[-75.40204,5.02846],[-75.40231,5.02866],[-75.40234,5.02868],[-75.40238,5.0287],[-75.40242,5.02871],[-75.40229,5.02882],[-75.40229,5.02882],[-75.40227,5.02884],[-75.40218,5.02894],[-75.402,5.02914],[-75.40187,5.02922],[-75.40186,5.02923],[-75.40184,5.02924],[-75.40183,5.02925],[-75.40174,5.02939],[-75.40159,5.02947],[-75.40126,5.02954],[-75.40126,5.02954],[-75.40102,5.0296],[-75.40077,5.0296],[-75.40075,5.0296],[-75.40074,5.02961],[-75.40073,5.02961],[-75.40072,5.02969],[-75.4007,5.02976],[-75.40067,5.02984],[-75.40064,5.02991],[-75.40079,5.02987],[-75.40104,5.02987],[-75.40106,5.02987],[-75.40107,5.02987],[-75.40132,5.02981],[-75.40167,5.02973],[-75.40169,5.02972],[-75.40171,5.02972],[-75.40189,5.02961],[-75.40191,5.0296],[-75.40193,5.02959],[-75.40194,5.02957],[-75.40204,5.02943],[-75.40216,5.02936],[-75.40217,5.02935],[-75.40218,5.02933],[-75.40238,5.02912],[-75.40239,5.02912],[-75.40247,5.02902],[-75.40277,5.02878],[-75.40278,5.02876],[-75.4028,5.02875],[-75.40284,5.02875],[-75.40288,5.02874],[-75.40288,5.02874],[-75.40326,5.02865],[-75.40328,5.02865],[-75.40338,5.02861],[-75.40352,5.02858],[-75.40356,5.02857],[-75.40359,5.02855],[-75.40362,5.02853],[-75.40363,5.02852],[-75.40398,5.02842],[-75.40402,5.02841],[-75.40405,5.02839],[-75.40435,5.02821],[-75.40465,5.02807],[-75.40487,5.02799],[-75.40515,5.02797],[-75.40516,5.02797],[-75.40519,5.02797],[-75.4054,5.02792],[-75.4054,5.02822],[-75.40535,5.02847],[-75.4052,5.02861],[-75.40492,5.02881],[-75.4049,5.02882],[-75.40489,5.02884],[-75.40488,5.02886],[-75.40475,5.02911],[-75.40475,5.02912],[-75.40462,5.02941],[-75.40453,5.02958],[-75.40447,5.02966],[-75.40421,5.02982],[-75.40419,5.02983],[-75.40418,5.02985],[-75.40416,5.02987],[-75.40415,5.02989],[-75.40415,5.02991],[-75.40414,5.02993],[-75.40415,5.02996],[-75.40415,5.02998],[-75.40416,5.03],[-75.40418,5.03002],[-75.40419,5.03004],[-75.40421,5.03005],[-75.40423,5.03006],[-75.40426,5.03007],[-75.40428,5.03007],[-75.4043,5.03007],[-75.40433,5.03006],[-75.40435,5.03005],[-75.40463,5.02988],[-75.40464,5.02988],[-75.40465,5.02986],[-75.40466,5.02985],[-75.40475,5.02974],[-75.40476,5.02972],[-75.40477,5.02972],[-75.40487,5.02953],[-75.40487,5.02952],[-75.40499,5.02923],[-75.4051,5.02901],[-75.40536,5.02883],[-75.40537,5.02882],[-75.40538,5.02882],[-75.40557,5.02864],[-75.40558,5.02862],[-75.40559,5.0286],[-75.4056,5.02859],[-75.40561,5.02857],[-75.40567,5.02826],[-75.40567,5.02826],[-75.40567,5.02823],[-75.40567,5.02786],[-75.40598,5.02782],[-75.40622,5.02791],[-75.40631,5.02797],[-75.40652,5.02818],[-75.40661,5.02828],[-75.40661,5.02828],[-75.40661,5.0283],[-75.40662,5.02831],[-75.40663,5.02833],[-75.40664,5.02835],[-75.40665,5.02836],[-75.40666,5.02837],[-75.40667,5.02839],[-75.40668,5.02839],[-75.40662,5.02845],[-75.40661,5.02846],[-75.40638,5.02874]]],[[[-75.38761,5.02948],[-75.38763,5.0295],[-75.38768,5.0296],[-75.38768,5.02967],[-75.38768,5.02969],[-75.38769,5.02973],[-75.38766,5.02986],[-75.38766,5.02989],[-75.38766,5.0299],[-75.38758,5.03004],[-75.38753,5.03012],[-75.38751,5.03016],[-75.38749,5.03021],[-75.3875,5.03028],[-75.38743,5.03063],[-75.38738,5.03076],[-75.38737,5.03078],[-75.38737,5.0308],[-75.38736,5.03117],[-75.3874,5.03115],[-75.38764,5.03096],[-75.38764,5.03083],[-75.38769,5.03071],[-75.38769,5.03069],[-75.38777,5.03031],[-75.38777,5.03029],[-75.38777,5.03027],[-75.38769,5.02944],[-75.38769,5.02942],[-75.38766,5.02943],[-75.38762,5.02943],[-75.38756,5.02936],[-75.38751,5.02929],[-75.38747,5.02919],[-75.38746,5.02905],[-75.38748,5.02889],[-75.38748,5.02882],[-75.38746,5.02881],[-75.38746,5.02882],[-75.38746,5.02883],[-75.38745,5.02906],[-75.38743,5.02911],[-75.38742,5.02913],[-75.38742,5.02916],[-75.38742,5.0292],[-75.38745,5.02925],[-75.38748,5.0293],[-75.38754,5.02938],[-75.38761,5.02948]]],[[[-75.39994,5.03324],[-75.39994,5.03326],[-75.39995,5.03327],[-75.40004,5.03323],[-75.40011,5.03322],[-75.4002,5.03325],[-75.4002,5.03324],[-75.40021,5.03321],[-75.40021,5.03294],[-75.4002,5.03292],[-75.4002,5.03291],[-75.40009,5.03246],[-75.40008,5.03245],[-75.39989,5.03195],[-75.39989,5.03193],[-75.39985,5.03187],[-75.3998,5.03166],[-75.3998,5.03137],[-75.3998,5.03131],[-75.39994,5.0309],[-75.40014,5.03059],[-75.40015,5.03058],[-75.40015,5.03057],[-75.40022,5.03043],[-75.40016,5.03034],[-75.40008,5.03036],[-75.40001,5.03038],[-75.39994,5.03039],[-75.39991,5.03044],[-75.3997,5.03077],[-75.3997,5.03077],[-75.39969,5.0308],[-75.39954,5.03124],[-75.39953,5.03126],[-75.39953,5.03128],[-75.39953,5.03168],[-75.39953,5.0317],[-75.39953,5.03171],[-75.3996,5.03195],[-75.3996,5.03196],[-75.39961,5.03198],[-75.39964,5.03205],[-75.39983,5.03254],[-75.39994,5.03296],[-75.39994,5.03321],[-75.39994,5.03324]]],[[[-75.39231,5.0291],[-75.39231,5.02912],[-75.3923,5.02914],[-75.39229,5.02947],[-75.39228,5.02956],[-75.39228,5.02957],[-75.39228,5.02959],[-75.39229,5.0296],[-75.39236,5.02986],[-75.39236,5.02986],[-75.39237,5.02987],[-75.39248,5.03013],[-75.39249,5.03014],[-75.3925,5.03016],[-75.39292,5.03066],[-75.39292,5.03066],[-75.39302,5.03092],[-75.39306,5.03114],[-75.39307,5.03115],[-75.39308,5.03151],[-75.39302,5.03192],[-75.39302,5.03194],[-75.39302,5.03195],[-75.39302,5.03216],[-75.39303,5.03219],[-75.39303,5.0324],[-75.39304,5.03242],[-75.39304,5.03243],[-75.39321,5.03277],[-75.39321,5.03278],[-75.39322,5.03279],[-75.39322,5.03279],[-75.39334,5.03297],[-75.3934,5.03321],[-75.3934,5.03324],[-75.3934,5.03325],[-75.39341,5.03327],[-75.39342,5.03329],[-75.39342,5.0333],[-75.39343,5.03331],[-75.39345,5.03333],[-75.39347,5.03334],[-75.39349,5.03335],[-75.39351,5.03336],[-75.39354,5.03336],[-75.39356,5.03336],[-75.39358,5.03335],[-75.39361,5.03334],[-75.39362,5.03333],[-75.39364,5.03331],[-75.39365,5.03329],[-75.39366,5.03327],[-75.39367,5.03325],[-75.39367,5.03323],[-75.39367,5.03321],[-75.39367,5.0332],[-75.39367,5.03317],[-75.39367,5.03316],[-75.39366,5.03315],[-75.3936,5.03289],[-75.3936,5.03287],[-75.39359,5.03285],[-75.39358,5.03284],[-75.39345,5.03265],[-75.3933,5.03234],[-75.39329,5.03195],[-75.39335,5.03153],[-75.39335,5.03151],[-75.39335,5.03151],[-75.39334,5.03113],[-75.39333,5.03111],[-75.39333,5.03111],[-75.39328,5.03085],[-75.39328,5.03083],[-75.39328,5.03083],[-75.39316,5.03054],[-75.39315,5.03052],[-75.39314,5.0305],[-75.39272,5.03],[-75.39262,5.02977],[-75.39255,5.02955],[-75.39257,5.02921],[-75.39252,5.02915],[-75.39248,5.02908],[-75.39245,5.02901],[-75.39242,5.02894],[-75.3924,5.02886],[-75.39231,5.0291]]]]},"properties":{"OBJECTID_1":7,"OBJECTID":7,"Area_Ha":12.8391196575,"Shape_Leng":10918.701399,"Zona":"Zona de preservación","Subzona":"Zona de preservación","Tipo":"Retiro de drenajes","Shape_Length":10916.43962413163,"Shape_Area":128348.26426350734}},{"type":"Feature","id":8,"geometry":{"type":"MultiPolygon","coordinates":[[[[-75.40872,5.03162],[-75.40872,5.03162],[-75.40872,5.03162],[-75.40872,5.03162]]],[[[-75.40855,5.03186],[-75.40849,5.03192],[-75.40843,5.03196],[-75.40836,5.03201],[-75.40829,5.03204],[-75.40834,5.03204],[-75.4084,5.03202],[-75.40855,5.03186]]],[[[-75.40671,5.03237],[-75.4068,5.0324],[-75.40689,5.03244],[-75.40712,5.03234],[-75.40726,5.03234],[-75.40748,5.03229],[-75.40772,5.03227],[-75.40788,5.03222],[-75.40802,5.03212],[-75.40796,5.03213],[-75.40791,5.03213],[-75.40783,5.03213],[-75.40776,5.03212],[-75.40769,5.0321],[-75.40761,5.03208],[-75.40754,5.03205],[-75.40748,5.03202],[-75.40741,5.03198],[-75.40735,5.03194],[-75.4073,5.03189],[-75.40724,5.03184],[-75.40719,5.03178],[-75.40715,5.03172],[-75.40711,5.03166],[-75.40699,5.03167],[-75.40671,5.03178],[-75.4067,5.03178],[-75.40664,5.03178],[-75.40662,5.03178],[-75.40633,5.0318],[-75.40617,5.03184],[-75.40613,5.03187],[-75.40617,5.0319],[-75.40624,5.03199],[-75.40632,5.03207],[-75.40641,5.03216],[-75.40656,5.0323],[-75.40671,5.03237]]]]},"properties":{"OBJECTID_1":8,"OBJECTID":8,"Area_Ha":0.892706923606,"Shape_Leng":546.27329173,"Zona":"Zona de preservación","Subzona":"Zona de preservación","Tipo":"Obra de tratamiento geotécnico","Shape_Length":546.1286148114912,"Shape_Area":8932.497125843594}},{"type":"Feature","id":9,"geometry":{"type":"Polygon","coordinates":[[[-75.40436,5.03157],[-75.40438,5.03171],[-75.40441,5.0318],[-75.40445,5.03186],[-75.40452,5.0319],[-75.40458,5.03191],[-75.40464,5.03191],[-75.40469,5.03189],[-75.40474,5.03185],[-75.4048,5.03176],[-75.40488,5.03159],[-75.40486,5.03152],[-75.40476,5.03149],[-75.40435,5.03142],[-75.40436,5.03157]]]},"properties":{"OBJECTID_1":9,"OBJECTID":9,"Area_Ha":0.229245043534,"Shape_Leng":184.628586201,"Zona":"Zona de preservación","Subzona":"Zona de preservación","Tipo":"Obra de tratamiento geotécnico","Shape_Length":184.59418129745796,"Shape_Area":2291.5941405501594}},{"type":"Feature","id":10,"geometry":{"type":"Polygon","coordinates":[[[-75.40254,5.03114],[-75.40201,5.03119],[-75.40202,5.03128],[-75.40203,5.03139],[-75.40208,5.03152],[-75.40217,5.03162],[-75.40226,5.03168],[-75.40233,5.0317],[-75.4024,5.03169],[-75.40248,5.03165],[-75.40254,5.0316],[-75.40258,5.03153],[-75.40258,5.0314],[-75.40258,5.03136],[-75.40259,5.03114],[-75.40254,5.03114]]]},"properties":{"OBJECTID_1":10,"OBJECTID":10,"Area_Ha":0.316334617841,"Shape_Leng":215.797494222,"Zona":"Zona de preservación","Subzona":"Zona de preservación","Tipo":"Obra de tratamiento geotécnico","Shape_Length":215.75706990718248,"Shape_Area":3162.161929665696}},{"type":"Feature","id":11,"geometry":{"type":"Polygon","coordinates":[[[-75.40064,5.03091],[-75.40064,5.03096],[-75.40063,5.03104],[-75.40063,5.03109],[-75.40063,5.03113],[-75.40063,5.03117],[-75.40065,5.03122],[-75.40069,5.03124],[-75.40075,5.03124],[-75.40081,5.03124],[-75.40086,5.03122],[-75.4009,5.03119],[-75.40093,5.03116],[-75.40096,5.03109],[-75.40098,5.03107],[-75.40102,5.031],[-75.40099,5.03099],[-75.40088,5.03086],[-75.40064,5.03085],[-75.40064,5.03091]]]},"properties":{"OBJECTID_1":11,"OBJECTID":11,"Area_Ha":0.142150718965,"Shape_Leng":144.519632359,"Zona":"Zona de preservación","Subzona":"Zona de preservación","Tipo":"Obra de tratamiento geotécnico","Shape_Length":144.49252020253022,"Shape_Area":1420.973911673243}},{"type":"Feature","id":12,"geometry":{"type":"Polygon","coordinates":[[[-75.39313,5.02775],[-75.3932,5.02774],[-75.39327,5.02773],[-75.39334,5.02774],[-75.39341,5.02775],[-75.39348,5.02776],[-75.39354,5.02778],[-75.39361,5.0278],[-75.39365,5.02777],[-75.3937,5.02761],[-75.3937,5.02746],[-75.39369,5.02732],[-75.39362,5.02711],[-75.39349,5.02692],[-75.39338,5.02681],[-75.39335,5.02688],[-75.39331,5.02699],[-75.39316,5.0272],[-75.39303,5.02731],[-75.39302,5.02733],[-75.393,5.02734],[-75.39298,5.02736],[-75.39299,5.02743],[-75.393,5.02752],[-75.39307,5.02767],[-75.39313,5.02775]]]},"properties":{"OBJECTID_1":12,"OBJECTID":12,"Area_Ha":0.557720879194,"Shape_Leng":300.602079828,"Zona":"Zona de preservación","Subzona":"Zona de preservación","Tipo":"Obra de tratamiento geotécnico","Shape_Length":300.53195647033675,"Shape_Area":5577.685955103706}},{"type":"Feature","id":13,"geometry":{"type":"Polygon","coordinates":[[[-75.38775,5.02876],[-75.38763,5.02882],[-75.3876,5.02882],[-75.38753,5.02882],[-75.38748,5.02882],[-75.38748,5.02889],[-75.38746,5.02905],[-75.38747,5.02919],[-75.38751,5.02929],[-75.38756,5.02936],[-75.38762,5.02943],[-75.38766,5.02943],[-75.38769,5.02942],[-75.38775,5.02941],[-75.38781,5.02936],[-75.38784,5.02929],[-75.38786,5.02924],[-75.38789,5.02915],[-75.3879,5.02906],[-75.3879,5.02887],[-75.38791,5.02866],[-75.38787,5.02871],[-75.38781,5.02873],[-75.38775,5.02876]]]},"properties":{"OBJECTID_1":13,"OBJECTID":13,"Area_Ha":0.3017673164,"Shape_Leng":227.047828159,"Zona":"Zona de preservación","Subzona":"Zona de preservación","Tipo":"Obra de tratamiento geotécnico","Shape_Length":227.0043801964491,"Shape_Area":3016.5154940788248}},{"type":"Feature","id":14,"geometry":{"type":"Polygon","coordinates":[[[-75.40878,5.03144],[-75.40894,5.03147],[-75.40914,5.03148],[-75.40924,5.03137],[-75.40942,5.03128],[-75.40947,5.03126],[-75.40958,5.03121],[-75.4095,5.03106],[-75.40917,5.03125],[-75.40905,5.03132],[-75.40888,5.03132],[-75.4088,5.03129],[-75.4088,5.03137],[-75.40878,5.03144]]]},"properties":{"OBJECTID_1":14,"OBJECTID":14,"Area_Ha":0.156887539906,"Shape_Leng":218.154165594,"Zona":"Zona de preservación","Subzona":"Zona de preservación","Tipo":"Muro de contención","Shape_Length":218.10889604807696,"Shape_Area":1569.324874167894}},{"type":"Feature","id":15,"geometry":{"type":"Polygon","coordinates":[[[-75.407,5.03126],[-75.40685,5.03128],[-75.40668,5.03135],[-75.40649,5.03138],[-75.40634,5.03138],[-75.40626,5.03137],[-75.40628,5.03162],[-75.4063,5.03162],[-75.40667,5.0316],[-75.40695,5.03149],[-75.40704,5.03148],[-75.40702,5.03141],[-75.40701,5.03133],[-75.407,5.03126]]]},"properties":{"OBJECTID_1":15,"OBJECTID":15,"Area_Ha":0.215856083198,"Shape_Leng":224.578631379,"Zona":"Zona de preservación","Subzona":"Zona de preservación","Tipo":"Muro de contención","Shape_Length":224.52955205935882,"Shape_Area":2159.2481440061897}},{"type":"Feature","id":16,"geometry":{"type":"Polygon","coordinates":[[[-75.40421,5.03107],[-75.40429,5.03116],[-75.40442,5.03125],[-75.40462,5.03129],[-75.40467,5.03129],[-75.4047,5.03112],[-75.40459,5.03111],[-75.40453,5.0311],[-75.40444,5.03106],[-75.40435,5.03096],[-75.40431,5.03094],[-75.40421,5.03107]]]},"properties":{"OBJECTID_1":16,"OBJECTID":16,"Area_Ha":0.105567214284,"Shape_Leng":148.063897649,"Zona":"Zona de preservación","Subzona":"Zona de preservación","Tipo":"Muro de contención","Shape_Length":148.03625847828107,"Shape_Area":1055.2781655829724}},{"type":"Feature","id":17,"geometry":{"type":"Polygon","coordinates":[[[-75.40361,5.03045],[-75.40361,5.0307],[-75.40386,5.0307],[-75.40399,5.03084],[-75.40401,5.03086],[-75.40416,5.03071],[-75.40386,5.03044],[-75.40361,5.03045]]]},"properties":{"OBJECTID_1":17,"OBJECTID":17,"Area_Ha":0.153403179607,"Shape_Leng":175.475943031,"Zona":"Zona de preservación","Subzona":"Zona de preservación","Tipo":"Muro de contención","Shape_Length":175.44326309176876,"Shape_Area":1533.4609595100246}},{"type":"Feature","id":18,"geometry":{"type":"Polygon","coordinates":[[[-75.40241,5.03097],[-75.40262,5.03095],[-75.40275,5.03089],[-75.40308,5.03086],[-75.40315,5.03084],[-75.40321,5.03076],[-75.4033,5.03074],[-75.40334,5.03073],[-75.40332,5.0305],[-75.40282,5.03072],[-75.4024,5.03071],[-75.40241,5.03097]]]},"properties":{"OBJECTID_1":18,"OBJECTID":18,"Area_Ha":0.24804435455,"Shape_Leng":270.21499137,"Zona":"Zona de preservación","Subzona":"Zona de preservación","Tipo":"Muro de contención","Shape_Length":270.16437022060234,"Shape_Area":2479.519260200768}},{"type":"Feature","id":19,"geometry":{"type":"Polygon","coordinates":[[[-75.39943,5.02869],[-75.39889,5.02798],[-75.39877,5.0278],[-75.39861,5.02798],[-75.39861,5.02806],[-75.39882,5.02826],[-75.39924,5.02882],[-75.3993,5.02877],[-75.39936,5.02873],[-75.39943,5.02869]]]},"properties":{"OBJECTID_1":19,"OBJECTID":19,"Area_Ha":0.310799944454,"Shape_Leng":292.894346132,"Zona":"Zona de preservación","Subzona":"Zona de preservación","Tipo":"Muro de contención","Shape_Length":292.83149689405514,"Shape_Area":3108.3851191516064}},{"type":"Feature","id":20,"geometry":{"type":"Polygon","coordinates":[[[-75.39663,5.02791],[-75.39669,5.02807],[-75.39698,5.028],[-75.39718,5.02793],[-75.39729,5.02787],[-75.39732,5.02784],[-75.39724,5.02765],[-75.39676,5.02783],[-75.39662,5.02788],[-75.39663,5.02791]]]},"properties":{"OBJECTID_1":20,"OBJECTID":20,"Area_Ha":0.18599858832,"Shape_Leng":194.318957747,"Zona":"Zona de preservación","Subzona":"Zona de preservación","Tipo":"Muro de contención","Shape_Length":194.28243875205925,"Shape_Area":1859.2851977911666}},{"type":"Feature","id":21,"geometry":{"type":"Polygon","coordinates":[[[-75.39426,5.02628],[-75.39426,5.02635],[-75.39446,5.02678],[-75.39459,5.02718],[-75.39464,5.02725],[-75.39487,5.02744],[-75.39505,5.02764],[-75.3951,5.02768],[-75.39514,5.02772],[-75.39517,5.02774],[-75.39529,5.02757],[-75.39474,5.02705],[-75.3946,5.0267],[-75.39443,5.02624],[-75.39426,5.02628]]]},"properties":{"OBJECTID_1":21,"OBJECTID":21,"Area_Ha":0.388255102595,"Shape_Leng":417.755068923,"Zona":"Zona de preservación","Subzona":"Zona de preservación","Tipo":"Muro de contención","Shape_Length":417.67601058702417,"Shape_Area":3881.080049261408}},{"type":"Feature","id":22,"geometry":{"type":"Polygon","coordinates":[[[-75.39146,5.02646],[-75.3913,5.02647],[-75.39122,5.0264],[-75.39108,5.02652],[-75.39117,5.02661],[-75.39129,5.02666],[-75.39145,5.02665],[-75.39152,5.02662],[-75.3915,5.02657],[-75.39148,5.02651],[-75.39146,5.02646]]]},"properties":{"OBJECTID_1":22,"OBJECTID":22,"Area_Ha":0.0854997259895,"Shape_Leng":123.219514008,"Zona":"Zona de preservación","Subzona":"Zona de preservación","Tipo":"Muro de contención","Shape_Length":123.19288563260156,"Shape_Area":855.3208450291164}},{"type":"Feature","id":23,"geometry":{"type":"Polygon","coordinates":[[[-75.39021,5.02616],[-75.3902,5.02598],[-75.38997,5.02605],[-75.38981,5.02617],[-75.38968,5.02627],[-75.38952,5.02646],[-75.38943,5.02663],[-75.38929,5.02698],[-75.38923,5.02722],[-75.38917,5.02746],[-75.38935,5.02745],[-75.38938,5.02741],[-75.38942,5.02725],[-75.38953,5.02691],[-75.38967,5.02662],[-75.38976,5.02648],[-75.38992,5.02631],[-75.39003,5.02623],[-75.39006,5.02621],[-75.39013,5.02616],[-75.39016,5.02616],[-75.39021,5.02616],[-75.39021,5.02616]]]},"properties":{"OBJECTID_1":23,"OBJECTID":23,"Area_Ha":0.418896529308,"Shape_Leng":433.84644711,"Zona":"Zona de preservación","Subzona":"Zona de preservación","Tipo":"Muro de contención","Shape_Length":433.76353179167165,"Shape_Area":4187.362573558229}},{"type":"Feature","id":24,"geometry":{"type":"Polygon","coordinates":[[[-75.3875,5.02864],[-75.3875,5.02864],[-75.38759,5.02864],[-75.38764,5.02862],[-75.38776,5.02856],[-75.38784,5.02846],[-75.38785,5.02845],[-75.38809,5.02833],[-75.38835,5.02827],[-75.38851,5.02811],[-75.3887,5.02803],[-75.38881,5.02796],[-75.38888,5.02791],[-75.38874,5.02777],[-75.38869,5.02781],[-75.38849,5.02788],[-75.3884,5.02796],[-75.38823,5.0281],[-75.38803,5.0282],[-75.38798,5.02822],[-75.38788,5.02824],[-75.38773,5.0283],[-75.38765,5.02836],[-75.38756,5.02842],[-75.38751,5.02845],[-75.38745,5.02847],[-75.38747,5.02863],[-75.3875,5.02864]]]},"properties":{"OBJECTID_1":24,"OBJECTID":24,"Area_Ha":0.360990609809,"Shape_Leng":385.676340924,"Zona":"Zona de preservación","Subzona":"Zona de preservación","Tipo":"Muro de contención","Shape_Length":385.6024906923988,"Shape_Area":3608.5260330154583}},{"type":"Feature","id":25,"geometry":{"type":"Polygon","coordinates":[[[-75.41052,5.02804],[-75.41054,5.02806],[-75.41058,5.02809],[-75.41062,5.02813],[-75.41063,5.02815],[-75.41064,5.02815],[-75.41068,5.02819],[-75.41071,5.02822],[-75.41072,5.02823],[-75.41074,5.02825],[-75.41076,5.02828],[-75.4108,5.02832],[-75.41081,5.02833],[-75.41083,5.02834],[-75.41083,5.02835],[-75.41083,5.02835],[-75.41084,5.02835],[-75.41087,5.02837],[-75.41089,5.02839],[-75.41089,5.02839],[-75.41089,5.02839],[-75.41091,5.02841],[-75.41092,5.02842],[-75.41093,5.02844],[-75.41095,5.02846],[-75.41097,5.0285],[-75.41099,5.02852],[-75.41096,5.02836],[-75.41095,5.02825],[-75.41095,5.02825],[-75.41092,5.02823],[-75.41091,5.02822],[-75.41087,5.02818],[-75.41087,5.02818],[-75.41084,5.02815],[-75.41083,5.02813],[-75.41082,5.02813],[-75.41081,5.02811],[-75.41078,5.02808],[-75.41074,5.02805],[-75.41073,5.02804],[-75.41072,5.02802],[-75.41068,5.02799],[-75.41068,5.02799],[-75.41064,5.02795],[-75.41062,5.02794],[-75.41048,5.028],[-75.41051,5.02802],[-75.41052,5.02804]]]},"properties":{"OBJECTID_1":25,"OBJECTID":25,"Area_Ha":0.10164291975,"Shape_Leng":177.989294867,"Zona":"Zona de uso sostenible","Subzona":"Subzona de desarrollo","Tipo":"Poliducto","Shape_Length":177.95659038477308,"Shape_Area":1016.0551244636544}},{"type":"Feature","id":26,"geometry":{"type":"Polygon","coordinates":[[[-75.41062,5.02794],[-75.41064,5.02795],[-75.41068,5.02799],[-75.41068,5.02799],[-75.41096,5.02791],[-75.41096,5.02789],[-75.41101,5.02776],[-75.4108,5.02786],[-75.41066,5.02792],[-75.41062,5.02794]]]},"properties":{"OBJECTID_1":26,"OBJECTID":26,"Area_Ha":0.0416689470516,"Shape_Leng":106.132225174,"Zona":"Zona de preservación","Subzona":"Zona de preservación","Tipo":"Retiro de drenajes","Shape_Length":106.11272687553027,"Shape_Area":416.535913571405}},{"type":"Feature","id":27,"geometry":{"type":"Polygon","coordinates":[[[-75.41068,5.02799],[-75.41072,5.02802],[-75.41073,5.02804],[-75.41074,5.02805],[-75.41078,5.02808],[-75.41081,5.02811],[-75.41082,5.02813],[-75.41083,5.02813],[-75.41084,5.02815],[-75.41087,5.02818],[-75.41087,5.02818],[-75.41091,5.02822],[-75.41092,5.02823],[-75.41095,5.02825],[-75.41095,5.02825],[-75.41094,5.02811],[-75.41095,5.02806],[-75.41096,5.02793],[-75.41096,5.02791],[-75.41068,5.02799]]]},"properties":{"OBJECTID_1":27,"OBJECTID":27,"Area_Ha":0.057076659095,"Shape_Leng":112.265220438,"Zona":"Zona de restauración","Subzona":"Zona de restauración","Tipo":"Pastos enmalezados","Shape_Length":112.24448806975985,"Shape_Area":570.5553568139949}},{"type":"Feature","id":28,"geometry":{"type":"Polygon","coordinates":[[[-75.40791,5.03213],[-75.40799,5.03213],[-75.40807,5.03212],[-75.40814,5.0321],[-75.40822,5.03207],[-75.40829,5.03204],[-75.40836,5.032],[-75.40843,5.03196],[-75.40849,5.03191],[-75.40855,5.03186],[-75.40861,5.0318],[-75.40865,5.03173],[-75.4087,5.03166],[-75.40873,5.03159],[-75.40876,5.03152],[-75.40878,5.03144],[-75.4088,5.03136],[-75.40881,5.03128],[-75.40881,5.0312],[-75.4088,5.03112],[-75.40879,5.03105],[-75.40877,5.03097],[-75.40875,5.03089],[-75.40871,5.03082],[-75.40867,5.03075],[-75.40863,5.03068],[-75.40858,5.03062],[-75.40852,5.03056],[-75.40846,5.03051],[-75.4084,5.03047],[-75.40833,5.03043],[-75.40825,5.03039],[-75.40818,5.03036],[-75.4081,5.03034],[-75.40802,5.03033],[-75.40794,5.03032],[-75.40786,5.03032],[-75.40778,5.03033],[-75.4077,5.03034],[-75.40763,5.03037],[-75.40755,5.03039],[-75.40748,5.03043],[-75.40741,5.03047],[-75.40735,5.03051],[-75.40729,5.03057],[-75.40723,5.03062],[-75.40718,5.03069],[-75.40713,5.03075],[-75.4071,5.03082],[-75.40706,5.0309],[-75.40704,5.03097],[-75.40702,5.03105],[-75.40701,5.03113],[-75.407,5.03121],[-75.407,5.03129],[-75.40701,5.03137],[-75.40703,5.03145],[-75.40705,5.03152],[-75.40708,5.0316],[-75.40712,5.03167],[-75.40716,5.03174],[-75.40721,5.0318],[-75.40726,5.03186],[-75.40732,5.03191],[-75.40738,5.03196],[-75.40745,5.03201],[-75.40752,5.03204],[-75.40759,5.03207],[-75.40767,5.0321],[-75.40775,5.03212],[-75.40783,5.03213],[-75.40791,5.03213]]]},"properties":{"OBJECTID_1":28,"OBJECTID":28,"Area_Ha":3.14159265359,"Shape_Leng":628.318530718,"Zona":"Zona general de uso público","Subzona":"Subzona de alta densidad de uso","Tipo":"Viviendas","Shape_Length":628.88705617656,"Shape_Area":31452.167883544345}},{"type":"Feature","id":29,"geometry":{"type":"Polygon","coordinates":[[[-75.39984,5.0304],[-75.39992,5.03039],[-75.4,5.03038],[-75.40008,5.03036],[-75.40016,5.03034],[-75.40023,5.03031],[-75.4003,5.03027],[-75.40037,5.03023],[-75.40043,5.03018],[-75.40049,5.03012],[-75.40054,5.03006],[-75.40059,5.03],[-75.40063,5.02993],[-75.40067,5.02986],[-75.4007,5.02978],[-75.40072,5.02971],[-75.40073,5.02963],[-75.40074,5.02955],[-75.40074,5.02947],[-75.40074,5.02939],[-75.40073,5.02931],[-75.40071,5.02923],[-75.40068,5.02916],[-75.40065,5.02908],[-75.40061,5.02901],[-75.40056,5.02895],[-75.40051,5.02889],[-75.40046,5.02883],[-75.4004,5.02878],[-75.40033,5.02873],[-75.40026,5.02869],[-75.40019,5.02866],[-75.40011,5.02863],[-75.40004,5.02861],[-75.39996,5.02859],[-75.39988,5.02859],[-75.3998,5.02859],[-75.39972,5.0286],[-75.39964,5.02861],[-75.39956,5.02863],[-75.39949,5.02866],[-75.39942,5.02869],[-75.39935,5.02873],[-75.39928,5.02878],[-75.39922,5.02883],[-75.39917,5.02889],[-75.39912,5.02895],[-75.39907,5.02902],[-75.39903,5.02909],[-75.399,5.02916],[-75.39897,5.02924],[-75.39895,5.02931],[-75.39894,5.02939],[-75.39894,5.02947],[-75.39894,5.02955],[-75.39895,5.02963],[-75.39896,5.02971],[-75.39899,5.02979],[-75.39902,5.02986],[-75.39905,5.02993],[-75.39909,5.03],[-75.39914,5.03007],[-75.3992,5.03012],[-75.39925,5.03018],[-75.39932,5.03023],[-75.39938,5.03027],[-75.39945,5.03031],[-75.39953,5.03034],[-75.39961,5.03036],[-75.39968,5.03038],[-75.39976,5.03039],[-75.39984,5.0304]]]},"properties":{"OBJECTID_1":29,"OBJECTID":29,"Area_Ha":3.14159265359,"Shape_Leng":628.318530718,"Zona":"Zona general de uso público","Subzona":"Subzona de alta densidad de uso","Tipo":"Viviendas","Shape_Length":628.8862438458442,"Shape_Area":31452.08644368789}},{"type":"Feature","id":30,"geometry":{"type":"Polygon","coordinates":[[[-75.39233,5.02714],[-75.39241,5.02713],[-75.39249,5.02712],[-75.39257,5.0271],[-75.39265,5.02708],[-75.39272,5.02705],[-75.39279,5.02701],[-75.39286,5.02697],[-75.39292,5.02692],[-75.39298,5.02686],[-75.39303,5.0268],[-75.39308,5.02674],[-75.39312,5.02667],[-75.39316,5.0266],[-75.39319,5.02652],[-75.39321,5.02645],[-75.39323,5.02637],[-75.39324,5.02629],[-75.39324,5.02621],[-75.39323,5.02613],[-75.39322,5.02605],[-75.3932,5.02597],[-75.39317,5.0259],[-75.39314,5.02583],[-75.3931,5.02576],[-75.39306,5.02569],[-75.39301,5.02563],[-75.39295,5.02557],[-75.39289,5.02552],[-75.39282,5.02547],[-75.39275,5.02543],[-75.39268,5.0254],[-75.39261,5.02537],[-75.39253,5.02535],[-75.39245,5.02534],[-75.39237,5.02533],[-75.39229,5.02533],[-75.39221,5.02534],[-75.39213,5.02535],[-75.39206,5.02537],[-75.39198,5.0254],[-75.39191,5.02543],[-75.39184,5.02547],[-75.39177,5.02552],[-75.39171,5.02557],[-75.39166,5.02563],[-75.39161,5.02569],[-75.39156,5.02576],[-75.39152,5.02583],[-75.39149,5.0259],[-75.39147,5.02598],[-75.39145,5.02605],[-75.39143,5.02613],[-75.39143,5.02621],[-75.39143,5.02629],[-75.39144,5.02637],[-75.39146,5.02645],[-75.39148,5.02653],[-75.39151,5.0266],[-75.39154,5.02667],[-75.39159,5.02674],[-75.39163,5.02681],[-75.39169,5.02687],[-75.39175,5.02692],[-75.39181,5.02697],[-75.39188,5.02701],[-75.39195,5.02705],[-75.39202,5.02708],[-75.3921,5.0271],[-75.39218,5.02712],[-75.39225,5.02713],[-75.39233,5.02714]]]},"properties":{"OBJECTID_1":30,"OBJECTID":30,"Area_Ha":3.14159265359,"Shape_Leng":628.318530718,"Zona":"Zona general de uso público","Subzona":"Subzona de alta densidad de uso","Tipo":"Viviendas","Shape_Length":628.8863405012331,"Shape_Area":31452.0957745484}},{"type":"Feature","id":31,"geometry":{"type":"Polygon","coordinates":[[[-75.39327,5.02954],[-75.39335,5.02954],[-75.39343,5.02953],[-75.39351,5.02951],[-75.39359,5.02949],[-75.39366,5.02946],[-75.39373,5.02942],[-75.3938,5.02937],[-75.39386,5.02932],[-75.39392,5.02927],[-75.39397,5.02921],[-75.39402,5.02915],[-75.39406,5.02908],[-75.3941,5.02901],[-75.39413,5.02893],[-75.39415,5.02886],[-75.39416,5.02878],[-75.39417,5.0287],[-75.39417,5.02862],[-75.39417,5.02854],[-75.39416,5.02846],[-75.39414,5.02838],[-75.39411,5.02831],[-75.39408,5.02823],[-75.39404,5.02816],[-75.39399,5.0281],[-75.39394,5.02803],[-75.39389,5.02798],[-75.39383,5.02793],[-75.39376,5.02788],[-75.39369,5.02784],[-75.39362,5.0278],[-75.39354,5.02778],[-75.39347,5.02776],[-75.39339,5.02774],[-75.39331,5.02774],[-75.39323,5.02774],[-75.39315,5.02774],[-75.39307,5.02776],[-75.39299,5.02778],[-75.39292,5.02781],[-75.39285,5.02784],[-75.39278,5.02788],[-75.39271,5.02793],[-75.39265,5.02798],[-75.3926,5.02804],[-75.39254,5.0281],[-75.3925,5.02817],[-75.39246,5.02824],[-75.39243,5.02831],[-75.3924,5.02838],[-75.39238,5.02846],[-75.39237,5.02854],[-75.39237,5.02862],[-75.39237,5.0287],[-75.39238,5.02878],[-75.39239,5.02886],[-75.39242,5.02894],[-75.39245,5.02901],[-75.39248,5.02908],[-75.39252,5.02915],[-75.39257,5.02921],[-75.39262,5.02927],[-75.39268,5.02933],[-75.39275,5.02938],[-75.39281,5.02942],[-75.39288,5.02946],[-75.39296,5.02949],[-75.39303,5.02951],[-75.39311,5.02953],[-75.39319,5.02954],[-75.39327,5.02954]]]},"properties":{"OBJECTID_1":31,"OBJECTID":31,"Area_Ha":3.14159265359,"Shape_Leng":628.318530718,"Zona":"Zona general de uso público","Subzona":"Subzona de alta densidad de uso","Tipo":"Viviendas","Shape_Length":628.8853056196369,"Shape_Area":31451.992516247254}},{"type":"Feature","id":32,"geometry":{"type":"Polygon","coordinates":[[[-75.41139,5.03043],[-75.41139,5.03036],[-75.41137,5.0303],[-75.41122,5.03028],[-75.41062,5.03042],[-75.41026,5.0305],[-75.41004,5.03058],[-75.41,5.0306],[-75.40968,5.03072],[-75.40908,5.03089],[-75.40907,5.03089],[-75.40874,5.03089],[-75.40877,5.03095],[-75.40878,5.03102],[-75.4088,5.03109],[-75.4088,5.03116],[-75.40881,5.03122],[-75.4088,5.03129],[-75.40888,5.03132],[-75.40905,5.03132],[-75.40917,5.03125],[-75.4095,5.03106],[-75.40958,5.03121],[-75.40967,5.03116],[-75.40997,5.03111],[-75.41049,5.03093],[-75.41068,5.03084],[-75.41085,5.03067],[-75.41101,5.03056],[-75.41139,5.03043]]]},"properties":{"OBJECTID_1":32,"OBJECTID":32,"Area_Ha":1.24047544652,"Shape_Leng":687.286065287,"Zona":"Zona de restauración","Subzona":"Zona de restauración","Tipo":"Pastos limpios","Shape_Length":687.1486636763923,"Shape_Area":12402.335764671532}},{"type":"Feature","id":33,"geometry":{"type":"MultiPolygon","coordinates":[[[[-75.3982,5.02756],[-75.39841,5.02785],[-75.39844,5.02814],[-75.39868,5.02838],[-75.39911,5.02896],[-75.39915,5.02891],[-75.39919,5.02886],[-75.39924,5.02882],[-75.39882,5.02826],[-75.39861,5.02806],[-75.39861,5.02805],[-75.39861,5.02798],[-75.39858,5.02778],[-75.39853,5.02771],[-75.3985,5.02767],[-75.39839,5.02751],[-75.39839,5.02751],[-75.39831,5.02741],[-75.39812,5.02735],[-75.39802,5.0274],[-75.39788,5.02749],[-75.39782,5.02753],[-75.39771,5.02761],[-75.39757,5.02771],[-75.39732,5.02784],[-75.39729,5.02787],[-75.39718,5.02793],[-75.39698,5.028],[-75.39669,5.02807],[-75.39654,5.02811],[-75.39619,5.02811],[-75.39577,5.02812],[-75.39554,5.02805],[-75.39517,5.02774],[-75.39514,5.02772],[-75.3951,5.02768],[-75.39505,5.02764],[-75.39487,5.02744],[-75.39476,5.02735],[-75.39474,5.02733],[-75.39464,5.02725],[-75.39459,5.02718],[-75.39446,5.02678],[-75.39426,5.02635],[-75.39426,5.02628],[-75.39424,5.02605],[-75.39414,5.02587],[-75.39404,5.02578],[-75.3939,5.0257],[-75.39372,5.02565],[-75.39356,5.02566],[-75.39346,5.02574],[-75.39345,5.02575],[-75.39339,5.02587],[-75.39337,5.02594],[-75.39337,5.026],[-75.39332,5.02613],[-75.39331,5.02635],[-75.39325,5.02665],[-75.39315,5.0269],[-75.39309,5.02699],[-75.39302,5.02708],[-75.39293,5.02716],[-75.39281,5.02713],[-75.3928,5.02713],[-75.39271,5.02707],[-75.39271,5.02705],[-75.39265,5.02708],[-75.39259,5.0271],[-75.39253,5.02711],[-75.39258,5.02719],[-75.39273,5.0273],[-75.39274,5.02731],[-75.39298,5.02736],[-75.393,5.02734],[-75.39302,5.02733],[-75.39303,5.02731],[-75.39316,5.0272],[-75.39331,5.02699],[-75.39335,5.02688],[-75.39338,5.02681],[-75.39343,5.0267],[-75.39349,5.02637],[-75.3935,5.02616],[-75.39356,5.02604],[-75.39355,5.0259],[-75.39358,5.02588],[-75.39363,5.02584],[-75.3937,5.02583],[-75.39383,5.02586],[-75.39393,5.02592],[-75.394,5.02599],[-75.39406,5.0261],[-75.39408,5.02633],[-75.39408,5.02636],[-75.39409,5.0264],[-75.39429,5.02684],[-75.39443,5.02726],[-75.39451,5.02737],[-75.39474,5.02757],[-75.39493,5.02777],[-75.39541,5.02817],[-75.39545,5.02821],[-75.39545,5.02821],[-75.39575,5.0283],[-75.39619,5.02829],[-75.39656,5.02829],[-75.39703,5.02817],[-75.39725,5.02809],[-75.39766,5.02786],[-75.39795,5.02767],[-75.39811,5.02755],[-75.39813,5.02754],[-75.3982,5.02756]]],[[[-75.38727,5.02891],[-75.38735,5.02907],[-75.38737,5.02911],[-75.38741,5.02918],[-75.38743,5.02886],[-75.38743,5.02881],[-75.38746,5.02881],[-75.38748,5.02882],[-75.38753,5.02882],[-75.3876,5.02882],[-75.38763,5.02882],[-75.38775,5.02876],[-75.38781,5.02873],[-75.38787,5.02871],[-75.38791,5.02866],[-75.38796,5.0286],[-75.38815,5.0285],[-75.38843,5.02843],[-75.38861,5.02827],[-75.38879,5.02819],[-75.38916,5.02794],[-75.38941,5.02769],[-75.38955,5.02748],[-75.38959,5.0273],[-75.3897,5.02698],[-75.38983,5.02671],[-75.38991,5.02659],[-75.38997,5.02652],[-75.39004,5.02645],[-75.39019,5.02634],[-75.39045,5.02633],[-75.3906,5.02638],[-75.39068,5.02643],[-75.39071,5.02644],[-75.39074,5.02644],[-75.39107,5.02677],[-75.39127,5.02685],[-75.3915,5.02682],[-75.39161,5.02678],[-75.39158,5.02673],[-75.39155,5.02667],[-75.39152,5.02662],[-75.39145,5.02665],[-75.39129,5.02666],[-75.39117,5.02661],[-75.39108,5.02652],[-75.39081,5.02625],[-75.39075,5.02625],[-75.39067,5.02621],[-75.39057,5.02618],[-75.3905,5.02616],[-75.39042,5.02616],[-75.39029,5.02616],[-75.39027,5.02616],[-75.39021,5.02616],[-75.39016,5.02616],[-75.39006,5.02621],[-75.39003,5.02623],[-75.38992,5.02631],[-75.38976,5.02648],[-75.38967,5.02662],[-75.38953,5.02691],[-75.38947,5.02709],[-75.38946,5.02714],[-75.38942,5.02725],[-75.38938,5.02741],[-75.38935,5.02745],[-75.38927,5.02757],[-75.38905,5.0278],[-75.38888,5.02791],[-75.38881,5.02796],[-75.3887,5.02803],[-75.38851,5.02811],[-75.38835,5.02827],[-75.38809,5.02833],[-75.38785,5.02845],[-75.38784,5.02846],[-75.38776,5.02856],[-75.38764,5.02862],[-75.38759,5.02864],[-75.3875,5.02864],[-75.3875,5.02864],[-75.38747,5.02863],[-75.38734,5.0286],[-75.38733,5.0286],[-75.38729,5.02871],[-75.38727,5.02876],[-75.38727,5.02891]]],[[[-75.40878,5.03144],[-75.40876,5.0315],[-75.40874,5.03156],[-75.40872,5.03162],[-75.40872,5.03162],[-75.40892,5.03165],[-75.40922,5.03166],[-75.40935,5.03152],[-75.40973,5.03133],[-75.41001,5.03128],[-75.41056,5.0311],[-75.41079,5.03099],[-75.41097,5.03081],[-75.41109,5.03073],[-75.41139,5.03062],[-75.41139,5.03043],[-75.41101,5.03056],[-75.41085,5.03067],[-75.41068,5.03084],[-75.41049,5.03093],[-75.40997,5.03111],[-75.40967,5.03116],[-75.40958,5.03121],[-75.40947,5.03126],[-75.40942,5.03128],[-75.40924,5.03137],[-75.40914,5.03148],[-75.40894,5.03147],[-75.40878,5.03144]]],[[[-75.40514,5.03188],[-75.40545,5.03201],[-75.40574,5.03202],[-75.40597,5.03197],[-75.40613,5.03187],[-75.40617,5.03184],[-75.40617,5.03184],[-75.40633,5.0318],[-75.40662,5.03178],[-75.40664,5.03178],[-75.4067,5.03178],[-75.40671,5.03178],[-75.40699,5.03167],[-75.40711,5.03166],[-75.40709,5.0316],[-75.40706,5.03154],[-75.40704,5.03148],[-75.40695,5.03149],[-75.40667,5.0316],[-75.40632,5.03162],[-75.40627,5.03163],[-75.4061,5.03167],[-75.4059,5.0318],[-75.40572,5.03184],[-75.40549,5.03183],[-75.40524,5.03172],[-75.40508,5.0316],[-75.40499,5.03137],[-75.4048,5.03131],[-75.40467,5.03129],[-75.40462,5.03129],[-75.40442,5.03125],[-75.40429,5.03116],[-75.40421,5.03107],[-75.40401,5.03086],[-75.40399,5.03084],[-75.40386,5.0307],[-75.40361,5.0307],[-75.40345,5.0307],[-75.40334,5.03073],[-75.4033,5.03074],[-75.40321,5.03076],[-75.40315,5.03084],[-75.40308,5.03086],[-75.40281,5.03088],[-75.40275,5.03089],[-75.40275,5.03089],[-75.40262,5.03095],[-75.40241,5.03097],[-75.40203,5.031],[-75.40174,5.03092],[-75.40122,5.03088],[-75.4011,5.03084],[-75.40097,5.03068],[-75.40064,5.03067],[-75.4004,5.03036],[-75.40032,5.03026],[-75.4003,5.03027],[-75.40023,5.03031],[-75.40016,5.03034],[-75.40022,5.03043],[-75.40054,5.03085],[-75.40064,5.03085],[-75.40088,5.03086],[-75.40099,5.03099],[-75.40102,5.031],[-75.40118,5.03106],[-75.40171,5.0311],[-75.40201,5.03119],[-75.40254,5.03114],[-75.40259,5.03114],[-75.40267,5.03113],[-75.40279,5.03107],[-75.40284,5.03106],[-75.40288,5.03106],[-75.40312,5.03104],[-75.40325,5.03099],[-75.40331,5.03092],[-75.40347,5.03088],[-75.40378,5.03088],[-75.40417,5.03129],[-75.40435,5.03142],[-75.40476,5.03149],[-75.40486,5.03152],[-75.40488,5.03159],[-75.40493,5.03171],[-75.40514,5.03188]]]]},"properties":{"OBJECTID_1":33,"OBJECTID":33,"Area_Ha":5.88305782036,"Shape_Leng":6076.54361271,"Zona":"Zona general de uso público","Subzona":"Subzona de alta densidad de uso","Tipo":"Vias","Shape_Length":6075.373031253516,"Shape_Area":58813.55946257633}},{"type":"Feature","id":34,"geometry":{"type":"Polygon","coordinates":[[[-75.40467,5.03129],[-75.4048,5.03131],[-75.40499,5.03137],[-75.40508,5.0316],[-75.40524,5.03172],[-75.40549,5.03183],[-75.40572,5.03184],[-75.4059,5.0318],[-75.4061,5.03167],[-75.40627,5.03163],[-75.40632,5.03162],[-75.4063,5.03162],[-75.40628,5.03162],[-75.40626,5.03137],[-75.40634,5.03138],[-75.40649,5.03138],[-75.40668,5.03135],[-75.40685,5.03128],[-75.407,5.03126],[-75.407,5.03118],[-75.40701,5.0311],[-75.40703,5.03102],[-75.40705,5.03094],[-75.40708,5.03087],[-75.40711,5.03079],[-75.40702,5.03074],[-75.40675,5.0307],[-75.40653,5.03087],[-75.40632,5.03109],[-75.40613,5.03117],[-75.40585,5.03096],[-75.40572,5.03045],[-75.40567,5.03025],[-75.40527,5.03025],[-75.4049,5.03034],[-75.40486,5.03035],[-75.40482,5.03036],[-75.40452,5.03034],[-75.40444,5.03028],[-75.4037,5.02968],[-75.40344,5.02974],[-75.40319,5.03],[-75.40304,5.03009],[-75.40289,5.03019],[-75.4025,5.03019],[-75.40214,5.03001],[-75.40214,5.03],[-75.40179,5.03],[-75.4016,5.03002],[-75.40124,5.02994],[-75.40083,5.03009],[-75.40057,5.0303],[-75.4005,5.03033],[-75.4004,5.03036],[-75.40064,5.03067],[-75.40097,5.03068],[-75.4011,5.03084],[-75.40122,5.03088],[-75.40174,5.03092],[-75.40203,5.031],[-75.40241,5.03097],[-75.4024,5.03071],[-75.40282,5.03072],[-75.40332,5.0305],[-75.40334,5.03073],[-75.40345,5.0307],[-75.40361,5.0307],[-75.40361,5.03045],[-75.40386,5.03044],[-75.40416,5.03071],[-75.40401,5.03086],[-75.40421,5.03107],[-75.40431,5.03094],[-75.40435,5.03096],[-75.40444,5.03106],[-75.40453,5.0311],[-75.40459,5.03111],[-75.4047,5.03112],[-75.40467,5.03129]]]},"properties":{"OBJECTID_1":34,"OBJECTID":34,"Area_Ha":6.48514094216,"Shape_Leng":1969.0421363,"Zona":"Zona de restauración","Subzona":"Zona de restauración","Tipo":"Pastos limpios","Shape_Length":1968.6570435171354,"Shape_Area":64830.74957740375}},{"type":"Feature","id":35,"geometry":{"type":"MultiPolygon","coordinates":[[[[-75.39112,5.02477],[-75.39112,5.02477],[-75.39112,5.02488],[-75.39112,5.02501],[-75.39115,5.02509],[-75.39121,5.02502],[-75.39146,5.02468],[-75.39148,5.02466],[-75.39149,5.02465],[-75.3915,5.02464],[-75.39168,5.02454],[-75.39149,5.02448],[-75.39145,5.02447],[-75.39112,5.02477]]],[[[-75.39156,5.02552],[-75.39169,5.02558],[-75.39171,5.02558],[-75.39176,5.02553],[-75.39183,5.02548],[-75.3919,5.02544],[-75.39197,5.02541],[-75.39204,5.02538],[-75.39212,5.02535],[-75.3922,5.02534],[-75.39227,5.02533],[-75.39235,5.02533],[-75.39243,5.02533],[-75.39251,5.02535],[-75.39259,5.02537],[-75.39266,5.02539],[-75.39266,5.02537],[-75.39266,5.02536],[-75.39266,5.02534],[-75.39269,5.02518],[-75.39269,5.02517],[-75.39269,5.02516],[-75.39279,5.0248],[-75.39271,5.02476],[-75.39237,5.02468],[-75.39197,5.02462],[-75.39192,5.02469],[-75.39191,5.02471],[-75.3919,5.02472],[-75.39188,5.02473],[-75.39166,5.02486],[-75.39143,5.02518],[-75.39142,5.02519],[-75.39129,5.02535],[-75.39128,5.02536],[-75.39131,5.02546],[-75.39144,5.02546],[-75.39156,5.02552]]],[[[-75.39231,5.02714],[-75.39237,5.0272],[-75.39243,5.02726],[-75.39249,5.02732],[-75.39255,5.02738],[-75.39267,5.02744],[-75.39268,5.02744],[-75.39268,5.02741],[-75.39269,5.02739],[-75.39269,5.02738],[-75.3927,5.02736],[-75.39274,5.02731],[-75.39273,5.0273],[-75.39258,5.02719],[-75.39253,5.02711],[-75.39247,5.02713],[-75.3924,5.02713],[-75.39233,5.02714],[-75.39231,5.02714],[-75.39231,5.02714]]],[[[-75.39294,5.02749],[-75.39292,5.02759],[-75.39292,5.02763],[-75.39297,5.02768],[-75.39303,5.02774],[-75.39305,5.02776],[-75.39313,5.02775],[-75.39307,5.02767],[-75.393,5.02752],[-75.39299,5.02743],[-75.39294,5.02749]]],[[[-75.39894,5.02892],[-75.39899,5.02898],[-75.39907,5.02902],[-75.39911,5.02896],[-75.39868,5.02838],[-75.39844,5.02814],[-75.39841,5.02785],[-75.3982,5.02756],[-75.39813,5.02754],[-75.39811,5.02755],[-75.39795,5.02767],[-75.39798,5.02767],[-75.39804,5.02773],[-75.3981,5.02778],[-75.39816,5.02784],[-75.39822,5.0279],[-75.39822,5.02802],[-75.39822,5.02808],[-75.39822,5.02814],[-75.39828,5.0282],[-75.39834,5.02826],[-75.39834,5.02832],[-75.39846,5.02838],[-75.39846,5.0285],[-75.39852,5.0285],[-75.39852,5.02862],[-75.39858,5.02868],[-75.39864,5.02868],[-75.39864,5.0288],[-75.3987,5.0288],[-75.3987,5.02886],[-75.39882,5.02886],[-75.39894,5.02892]]],[[[-75.39542,5.02982],[-75.39542,5.02988],[-75.39554,5.02988],[-75.3956,5.02988],[-75.39566,5.02988],[-75.39566,5.02982],[-75.39572,5.02982],[-75.39572,5.02976],[-75.39578,5.02976],[-75.39578,5.0297],[-75.39578,5.02964],[-75.39578,5.02958],[-75.39578,5.02952],[-75.39578,5.02946],[-75.39578,5.0294],[-75.39578,5.02934],[-75.39578,5.02928],[-75.39578,5.02922],[-75.39577,5.02911],[-75.39583,5.0291],[-75.39589,5.02904],[-75.39589,5.02899],[-75.39595,5.02893],[-75.39601,5.02887],[-75.39607,5.02875],[-75.39613,5.02875],[-75.39613,5.02869],[-75.39619,5.02863],[-75.39619,5.02857],[-75.39619,5.02851],[-75.39619,5.02845],[-75.39619,5.02839],[-75.39619,5.02833],[-75.39619,5.02829],[-75.39575,5.0283],[-75.39545,5.02821],[-75.39545,5.02821],[-75.39541,5.02817],[-75.39493,5.02777],[-75.39474,5.02757],[-75.39451,5.02737],[-75.39443,5.02726],[-75.39429,5.02684],[-75.39409,5.0264],[-75.39408,5.02636],[-75.39408,5.02633],[-75.39406,5.0261],[-75.394,5.02599],[-75.39393,5.02592],[-75.39383,5.02586],[-75.3937,5.02583],[-75.39363,5.02584],[-75.39358,5.02588],[-75.39355,5.0259],[-75.39356,5.02604],[-75.3935,5.02616],[-75.39349,5.02637],[-75.39343,5.0267],[-75.39338,5.02681],[-75.39349,5.02692],[-75.39362,5.02711],[-75.39369,5.02732],[-75.3937,5.02746],[-75.3937,5.02761],[-75.39365,5.02777],[-75.39361,5.0278],[-75.39368,5.02783],[-75.39375,5.02787],[-75.39382,5.02792],[-75.39388,5.02797],[-75.39393,5.02803],[-75.39399,5.02809],[-75.39403,5.02815],[-75.39407,5.02822],[-75.3941,5.0283],[-75.39413,5.02837],[-75.39415,5.02845],[-75.39416,5.02845],[-75.39428,5.02845],[-75.39434,5.02845],[-75.3944,5.02851],[-75.39446,5.02857],[-75.39452,5.02857],[-75.39458,5.02863],[-75.39464,5.02863],[-75.39464,5.02869],[-75.39476,5.02875],[-75.39482,5.02881],[-75.39488,5.02887],[-75.39488,5.02893],[-75.39488,5.02899],[-75.39494,5.02905],[-75.395,5.02911],[-75.395,5.02917],[-75.39506,5.02923],[-75.39506,5.02929],[-75.39512,5.02935],[-75.39518,5.02935],[-75.39518,5.02941],[-75.39524,5.02946],[-75.39524,5.02952],[-75.3953,5.02958],[-75.3953,5.0297],[-75.39536,5.0297],[-75.39536,5.02976],[-75.39542,5.02976],[-75.39542,5.02982]]]]},"properties":{"OBJECTID_1":35,"OBJECTID":35,"Area_Ha":6.37927720941,"Shape_Leng":2589.35890741,"Zona":"Zona de restauración","Subzona":"Zona de restauración","Tipo":"Pastos enmalezados","Shape_Length":2588.7735567683744,"Shape_Area":63784.70008547495}},{"type":"Feature","id":36,"geometry":{"type":"Polygon","coordinates":[[[-75.3928,5.02713],[-75.39281,5.02713],[-75.39293,5.02716],[-75.39302,5.02708],[-75.39309,5.02699],[-75.39309,5.02689],[-75.39312,5.02667],[-75.39312,5.02667],[-75.39309,5.02673],[-75.39304,5.02679],[-75.39299,5.02685],[-75.39294,5.0269],[-75.39288,5.02695],[-75.39282,5.02699],[-75.39282,5.02702],[-75.39282,5.02708],[-75.3928,5.02713]]]},"properties":{"OBJECTID_1":36,"OBJECTID":36,"Area_Ha":0.0813133723993,"Shape_Leng":142.487459332,"Zona":"Zona de preservación","Subzona":"Zona de preservación","Tipo":"Retiro de drenajes","Shape_Length":142.44566736886642,"Shape_Area":815.7776281069354}},{"type":"Feature","id":37,"geometry":{"type":"Polygon","coordinates":[[[-75.39669,5.02807],[-75.39663,5.02791],[-75.39655,5.02791],[-75.39649,5.02791],[-75.39643,5.02791],[-75.39637,5.02791],[-75.39637,5.02797],[-75.39631,5.02797],[-75.39631,5.02803],[-75.39625,5.02809],[-75.39619,5.02809],[-75.39619,5.02811],[-75.39654,5.02811],[-75.39669,5.02807]]]},"properties":{"OBJECTID_1":37,"OBJECTID":37,"Area_Ha":0.086697949167,"Shape_Leng":143.148378237,"Zona":"Zona de restauración","Subzona":"Zona de restauración","Tipo":"Pastos limpios","Shape_Length":143.12119521956868,"Shape_Area":866.6504445345466}},{"type":"Feature","id":38,"geometry":{"type":"Polygon","coordinates":[[[-75.39771,5.02761],[-75.39768,5.02761],[-75.39768,5.02755],[-75.39756,5.02755],[-75.3975,5.02755],[-75.39738,5.02755],[-75.39732,5.02755],[-75.39726,5.02755],[-75.3972,5.02761],[-75.39714,5.02761],[-75.39702,5.02761],[-75.39702,5.02767],[-75.39696,5.02773],[-75.39691,5.02773],[-75.39685,5.02779],[-75.39676,5.02783],[-75.39724,5.02765],[-75.39732,5.02784],[-75.39757,5.02771],[-75.39771,5.02761]]]},"properties":{"OBJECTID_1":38,"OBJECTID":38,"Area_Ha":0.137420757032,"Shape_Leng":258.891125975,"Zona":"Zona de restauración","Subzona":"Zona de restauración","Tipo":"Pastos limpios","Shape_Length":258.8424640299457,"Shape_Area":1373.6883094329003}},{"type":"Feature","id":39,"geometry":{"type":"MultiPolygon","coordinates":[[[[-75.38828,5.02783],[-75.38809,5.0281],[-75.38809,5.0281],[-75.38807,5.02812],[-75.38801,5.02817],[-75.38798,5.02822],[-75.38803,5.0282],[-75.38823,5.0281],[-75.3884,5.02796],[-75.38849,5.02788],[-75.38869,5.02781],[-75.38874,5.02777],[-75.38888,5.02791],[-75.38905,5.0278],[-75.38927,5.02757],[-75.38935,5.02745],[-75.38917,5.02746],[-75.38923,5.02722],[-75.38929,5.02698],[-75.38943,5.02663],[-75.38952,5.02646],[-75.38968,5.02627],[-75.38981,5.02617],[-75.38997,5.02605],[-75.3902,5.02598],[-75.39021,5.02616],[-75.39027,5.02616],[-75.39029,5.02616],[-75.39042,5.02616],[-75.3905,5.02616],[-75.39055,5.02616],[-75.39057,5.02618],[-75.39067,5.02621],[-75.39075,5.02625],[-75.39081,5.02625],[-75.39108,5.02652],[-75.39122,5.0264],[-75.3913,5.02647],[-75.39146,5.02646],[-75.39144,5.02638],[-75.39143,5.0263],[-75.39143,5.02622],[-75.39144,5.02614],[-75.39145,5.02606],[-75.39147,5.02599],[-75.39149,5.02591],[-75.39152,5.02584],[-75.39156,5.02577],[-75.3916,5.0257],[-75.39165,5.02564],[-75.39171,5.02558],[-75.39169,5.02558],[-75.39156,5.02552],[-75.39144,5.02546],[-75.39131,5.02546],[-75.39128,5.02536],[-75.39127,5.02537],[-75.39126,5.02538],[-75.391,5.02554],[-75.391,5.02555],[-75.39098,5.02555],[-75.39083,5.02562],[-75.39083,5.02562],[-75.39082,5.02562],[-75.39045,5.02573],[-75.39045,5.02573],[-75.38998,5.02584],[-75.38954,5.02599],[-75.38937,5.02611],[-75.3892,5.02627],[-75.38914,5.02651],[-75.38914,5.02661],[-75.38914,5.02662],[-75.38912,5.02674],[-75.38912,5.02676],[-75.38912,5.02677],[-75.38911,5.02679],[-75.38894,5.0271],[-75.38894,5.02711],[-75.38893,5.02719],[-75.38888,5.02726],[-75.38882,5.02731],[-75.38874,5.02741],[-75.38867,5.02748],[-75.38862,5.02755],[-75.38859,5.02758],[-75.38852,5.02765],[-75.38844,5.02772],[-75.38837,5.02776],[-75.38836,5.02777],[-75.38828,5.02783]]],[[[-75.38761,5.02829],[-75.38752,5.02834],[-75.38747,5.02839],[-75.38739,5.02849],[-75.38734,5.0286],[-75.38747,5.02863],[-75.38745,5.02847],[-75.38751,5.02845],[-75.38756,5.02842],[-75.38764,5.02827],[-75.38761,5.02829]]]]},"properties":{"OBJECTID_1":39,"OBJECTID":39,"Area_Ha":2.35851301229,"Shape_Leng":1406.7164275,"Zona":"Zona de preservación","Subzona":"Zona de preservación","Tipo":"Bosque denso alto de tierra firme","Shape_Length":1406.4091207358779,"Shape_Area":23583.040979260786}},{"type":"Feature","id":40,"geometry":{"type":"Polygon","coordinates":[[[-75.39027,5.02616],[-75.39021,5.02616],[-75.39021,5.02616],[-75.39027,5.02616]]]},"properties":{"OBJECTID_1":40,"OBJECTID":40,"Area_Ha":7.71188112535e-05,"Shape_Leng":13.7204077216,"Zona":"Zona de restauración","Subzona":"Zona de restauración","Tipo":"Pastos limpios","Shape_Length":13.717825681034494,"Shape_Area":0.7709729338607524}},{"type":"Feature","id":41,"geometry":{"type":"Polygon","coordinates":[[[-75.3905,5.02616],[-75.39057,5.02618],[-75.39055,5.02616],[-75.3905,5.02616]]]},"properties":{"OBJECTID_1":41,"OBJECTID":41,"Area_Ha":0.000530476099928,"Shape_Leng":15.4405488784,"Zona":"Zona de restauración","Subzona":"Zona de restauración","Tipo":"Pastos limpios","Shape_Length":15.437582788411866,"Shape_Area":5.302801471845171}}]}