{"type":"FeatureCollection","name":"Zonificación Reserva La Linda","crs":{"type":"name","properties":{"name":"urn:ogc:def:crs:OGC:1.3:CRS84"}},"features":[{"type":"Feature","id":1,"geometry":{"type":"Polygon","coordinates":[[[-75.1111,5.4019],[-75.11107,5.40201],[-75.11107,5.40208],[-75.11107,5.40217],[-75.11108,5.40226],[-75.11113,5.40232],[-75.11121,5.40238],[-75.11127,5.40241],[-75.11139,5.40243],[-75.11148,5.40245],[-75.11154,5.4025],[-75.11163,5.40266],[-75.11169,5.40271],[-75.11176,5.40278],[-75.11183,5.40281],[-75.11191,5.40284],[-75.112,5.40289],[-75.11204,5.4029],[-75.11221,5.40295],[-75.11224,5.40297],[-75.11233,5.40306],[-75.11239,5.40314],[-75.11247,5.4032],[-75.11257,5.40327],[-75.11271,5.40334],[-75.11277,5.40338],[-75.11286,5.40337],[-75.1129,5.40333],[-75.11291,5.40326],[-75.11292,5.40321],[-75.11294,5.40315],[-75.11298,5.40305],[-75.11299,5.40298],[-75.11299,5.40292],[-75.11299,5.40282],[-75.113,5.40278],[-75.11301,5.40275],[-75.11294,5.40268],[-75.11289,5.40259],[-75.11282,5.4025],[-75.11279,5.40244],[-75.11276,5.40238],[-75.11276,5.40228],[-75.11278,5.40223],[-75.11282,5.40214],[-75.11291,5.40197],[-75.11295,5.40187],[-75.11295,5.40181],[-75.11293,5.4018],[-75.11286,5.4018],[-75.11281,5.4018],[-75.11278,5.40185],[-75.11276,5.40189],[-75.11271,5.40192],[-75.11266,5.40193],[-75.11263,5.40195],[-75.11258,5.40197],[-75.11255,5.40201],[-75.11249,5.40202],[-75.11243,5.40204],[-75.11233,5.40204],[-75.11224,5.40204],[-75.11219,5.40204],[-75.11215,5.40204],[-75.11212,5.40206],[-75.11207,5.4021],[-75.11207,5.40212],[-75.11203,5.40213],[-75.11199,5.40214],[-75.11196,5.40214],[-75.11188,5.40214],[-75.11184,5.40214],[-75.11183,5.40214],[-75.1118,5.40216],[-75.1117,5.40222],[-75.11166,5.40224],[-75.11162,5.40226],[-75.11156,5.40229],[-75.1115,5.40229],[-75.11146,5.40221],[-75.1114,5.40215],[-75.11131,5.40205],[-75.11123,5.40201],[-75.11114,5.40191],[-75.1111,5.4019]]]},"properties":{"OBJECTID":1,"CODDEP":"17","AREA":1.77390549287,"Tipo":"Bosque denso alto de tierra firme","Zona":"Zona de preservación","Subzona":"Zona de preservación","Shape_Length":716.8157135371904,"Shape_Area":17729.024086136924}},{"type":"Feature","id":2,"geometry":{"type":"Polygon","coordinates":[[[-75.11041,5.40494],[-75.11046,5.40491],[-75.1106,5.40485],[-75.11072,5.40485],[-75.11082,5.40485],[-75.11095,5.4049],[-75.11104,5.40492],[-75.11114,5.40496],[-75.11126,5.40502],[-75.11141,5.40506],[-75.11152,5.40509],[-75.11162,5.40512],[-75.1117,5.40511],[-75.11182,5.40511],[-75.11195,5.40511],[-75.11204,5.4051],[-75.11213,5.40507],[-75.11231,5.40507],[-75.11241,5.405],[-75.11245,5.40499],[-75.11247,5.40496],[-75.11252,5.40488],[-75.11259,5.40481],[-75.1126,5.40474],[-75.11258,5.40473],[-75.1125,5.40466],[-75.1124,5.40459],[-75.11231,5.40454],[-75.11223,5.4045],[-75.11212,5.4045],[-75.11203,5.40454],[-75.11194,5.40456],[-75.11181,5.40459],[-75.11172,5.4046],[-75.11166,5.40466],[-75.11163,5.40469],[-75.11155,5.40472],[-75.11149,5.40475],[-75.11139,5.40476],[-75.11135,5.40476],[-75.11126,5.40476],[-75.11119,5.40479],[-75.11112,5.40481],[-75.11108,5.40478],[-75.11108,5.40472],[-75.11112,5.40468],[-75.11113,5.40464],[-75.11112,5.40461],[-75.11104,5.40457],[-75.11087,5.40452],[-75.11075,5.40447],[-75.11068,5.40446],[-75.11059,5.40441],[-75.11046,5.40441],[-75.11039,5.40443],[-75.11033,5.40448],[-75.11031,5.40453],[-75.11028,5.40459],[-75.11027,5.40467],[-75.11028,5.40473],[-75.11031,5.40479],[-75.11035,5.40484],[-75.11041,5.40492],[-75.11041,5.40494]]]},"properties":{"OBJECTID":2,"CODDEP":"17","AREA":1.13563768161,"Tipo":"Vegetacion secundaria o en transicion","Zona":"Zona de restauración","Subzona":"Zona de restauración","Shape_Length":626.2506332047876,"Shape_Area":11349.954488031388}},{"type":"Feature","id":3,"geometry":{"type":"Polygon","coordinates":[[[-75.10684,5.39374],[-75.10685,5.39375],[-75.1069,5.3938],[-75.10688,5.39376],[-75.10684,5.39374]]]},"properties":{"OBJECTID":3,"CODDEP":"17","AREA":0.000702605085458,"Tipo":"Vegetacion secundaria o en transicion","Zona":"Zona de restauración","Subzona":"Zona de restauración","Shape_Length":18.452454614066703,"Shape_Area":7.022059503793868}},{"type":"Feature","id":4,"geometry":{"type":"Polygon","coordinates":[[[-75.11301,5.40275],[-75.113,5.40278],[-75.11299,5.40282],[-75.11299,5.40292],[-75.11299,5.40298],[-75.11298,5.40305],[-75.11294,5.40315],[-75.11292,5.40321],[-75.11314,5.40319],[-75.11326,5.40316],[-75.11321,5.40311],[-75.1132,5.40301],[-75.11318,5.40279],[-75.11316,5.40268],[-75.11316,5.40268],[-75.11306,5.4027],[-75.11301,5.40275]]]},"properties":{"OBJECTID":4,"CODDEP":"17","AREA":0.131907481006,"Tipo":"Bosque denso alto de tierra firme","Zona":"Zona de preservación","Subzona":"Zona de preservación","Shape_Length":165.37832494790933,"Shape_Area":1318.328429301238}},{"type":"Feature","id":5,"geometry":{"type":"Polygon","coordinates":[[[-75.11316,5.40268],[-75.11316,5.40268],[-75.11315,5.40262],[-75.11314,5.40264],[-75.11316,5.40268]]]},"properties":{"OBJECTID":5,"CODDEP":"17","AREA":0.000837884696775,"Tipo":"Vegetacion secundaria o en transicion","Zona":"Zona de restauración","Subzona":"Zona de restauración","Shape_Length":15.04169340159825,"Shape_Area":8.374091768331649}},{"type":"Feature","id":6,"geometry":{"type":"Polygon","coordinates":[[[-75.10148,5.39449],[-75.10149,5.39454],[-75.10149,5.3946],[-75.10151,5.3947],[-75.10151,5.39476],[-75.10152,5.39481],[-75.10155,5.39489],[-75.10163,5.39491],[-75.10168,5.39491],[-75.10176,5.39492],[-75.10179,5.39497],[-75.10176,5.39501],[-75.10174,5.39505],[-75.10173,5.39508],[-75.1018,5.39516],[-75.10188,5.39519],[-75.10195,5.39522],[-75.10206,5.39526],[-75.10214,5.3953],[-75.10221,5.39537],[-75.1023,5.39542],[-75.10237,5.39543],[-75.10247,5.39543],[-75.10254,5.39537],[-75.10262,5.39531],[-75.10272,5.39526],[-75.10285,5.39523],[-75.1029,5.39522],[-75.10303,5.39522],[-75.10316,5.39524],[-75.10322,5.39527],[-75.1033,5.39529],[-75.10341,5.39532],[-75.10342,5.39524],[-75.1034,5.39519],[-75.10333,5.39512],[-75.10329,5.39509],[-75.10321,5.39501],[-75.10317,5.39493],[-75.10315,5.39492],[-75.10307,5.39485],[-75.1029,5.39481],[-75.10279,5.39475],[-75.10272,5.3947],[-75.10268,5.39469],[-75.10261,5.39468],[-75.10251,5.39461],[-75.10238,5.3946],[-75.10233,5.39459],[-75.10228,5.39458],[-75.1021,5.3945],[-75.102,5.39443],[-75.10188,5.39438],[-75.10187,5.39436],[-75.10169,5.3944],[-75.10148,5.39449]]]},"properties":{"OBJECTID":6,"CODDEP":"17","AREA":1.34967083386,"Tipo":"Vegetacion secundaria o en transicion","Zona":"Zona de restauración","Subzona":"Zona de restauración","Shape_Length":556.7083063769392,"Shape_Area":13488.991829306933}},{"type":"Feature","id":7,"geometry":{"type":"Polygon","coordinates":[[[-75.09979,5.39914],[-75.09981,5.39923],[-75.09976,5.39932],[-75.09972,5.39939],[-75.09968,5.39946],[-75.09963,5.39957],[-75.09962,5.39958],[-75.09957,5.39964],[-75.09951,5.39968],[-75.09949,5.3997],[-75.09947,5.39978],[-75.09946,5.39989],[-75.09943,5.39997],[-75.09938,5.40001],[-75.0993,5.40004],[-75.09925,5.40005],[-75.09924,5.4001],[-75.09924,5.40017],[-75.09926,5.40025],[-75.09933,5.4003],[-75.09938,5.40036],[-75.09944,5.40042],[-75.09948,5.40047],[-75.09953,5.40049],[-75.09955,5.40049],[-75.09959,5.40049],[-75.0996,5.40044],[-75.09965,5.4004],[-75.09968,5.40043],[-75.09972,5.4005],[-75.09972,5.40056],[-75.09976,5.40064],[-75.09982,5.40069],[-75.09985,5.40078],[-75.09991,5.40083],[-75.10002,5.40086],[-75.10012,5.40088],[-75.10017,5.40088],[-75.10021,5.40091],[-75.10023,5.40095],[-75.10026,5.40101],[-75.1003,5.40104],[-75.10037,5.40104],[-75.10046,5.401],[-75.10052,5.40094],[-75.10056,5.40089],[-75.1006,5.40085],[-75.10064,5.40082],[-75.10068,5.40078],[-75.10077,5.40076],[-75.10091,5.40076],[-75.10096,5.40073],[-75.10102,5.40066],[-75.10109,5.40062],[-75.1012,5.40059],[-75.10128,5.40055],[-75.10132,5.40052],[-75.10143,5.40043],[-75.1015,5.40037],[-75.10158,5.40033],[-75.10168,5.40031],[-75.10177,5.40031],[-75.10188,5.40031],[-75.10202,5.4003],[-75.10216,5.40029],[-75.10229,5.40026],[-75.10237,5.40019],[-75.10243,5.40014],[-75.10247,5.40005],[-75.10252,5.39995],[-75.10256,5.39986],[-75.10257,5.39978],[-75.10258,5.39971],[-75.10259,5.39963],[-75.10259,5.39958],[-75.10257,5.39952],[-75.10253,5.39946],[-75.10243,5.3994],[-75.10226,5.39934],[-75.10208,5.3993],[-75.10192,5.39925],[-75.10178,5.3992],[-75.10165,5.39915],[-75.10144,5.39909],[-75.10137,5.39912],[-75.10129,5.39914],[-75.10119,5.39919],[-75.10109,5.39919],[-75.10097,5.39919],[-75.10093,5.39918],[-75.10085,5.39911],[-75.1008,5.39908],[-75.10068,5.39907],[-75.1006,5.39909],[-75.10053,5.39912],[-75.10043,5.39916],[-75.10036,5.39918],[-75.10033,5.39918],[-75.10026,5.39918],[-75.10017,5.39918],[-75.10001,5.39919],[-75.09994,5.39916],[-75.09979,5.39914]]]},"properties":{"OBJECTID":7,"CODDEP":"17","AREA":5.13715078711,"Tipo":"Vegetacion secundaria o en transicion","Zona":"Zona de restauración","Subzona":"Zona de restauración","Shape_Length":986.4685160258933,"Shape_Area":51342.08458531933}},{"type":"Feature","id":8,"geometry":{"type":"Polygon","coordinates":[[[-75.10187,5.39436],[-75.10188,5.39438],[-75.102,5.39443],[-75.1021,5.3945],[-75.10228,5.39458],[-75.10233,5.39459],[-75.10238,5.3946],[-75.10251,5.39461],[-75.10261,5.39468],[-75.10268,5.39469],[-75.10272,5.3947],[-75.10279,5.39475],[-75.1029,5.39481],[-75.10307,5.39485],[-75.10315,5.39492],[-75.10317,5.39493],[-75.10321,5.39501],[-75.10329,5.39509],[-75.10333,5.39512],[-75.1034,5.39519],[-75.10342,5.39524],[-75.10341,5.39532],[-75.10369,5.395],[-75.10354,5.39458],[-75.10364,5.39415],[-75.10378,5.39373],[-75.10336,5.39369],[-75.10317,5.39331],[-75.10284,5.39315],[-75.10284,5.39315],[-75.10283,5.3933],[-75.10297,5.39346],[-75.10307,5.39362],[-75.1031,5.39372],[-75.10298,5.39387],[-75.10289,5.39398],[-75.10274,5.3941],[-75.10253,5.39416],[-75.10228,5.39424],[-75.10206,5.39431],[-75.10187,5.39436]]]},"properties":{"OBJECTID":8,"CODDEP":"17","AREA":1.83777715923,"Tipo":"Vegetacion secundaria o en transicion","Zona":"Zona de restauración","Subzona":"Zona de restauración","Shape_Length":774.9205997209892,"Shape_Area":18367.267445269175}},{"type":"Feature","id":9,"geometry":{"type":"Polygon","coordinates":[[[-75.09915,5.40107],[-75.09916,5.40108],[-75.09928,5.40123],[-75.09932,5.40132],[-75.09934,5.40138],[-75.0994,5.40163],[-75.09946,5.40173],[-75.09948,5.40169],[-75.09952,5.40127],[-75.09919,5.40103],[-75.09915,5.40107]]]},"properties":{"OBJECTID":9,"CODDEP":"17","AREA":0.110047758654,"Tipo":"Vegetacion secundaria o en transicion","Zona":"Zona de restauración","Subzona":"Zona de restauración","Shape_Length":184.61941428981078,"Shape_Area":1099.8484181864783}},{"type":"Feature","id":10,"geometry":{"type":"Polygon","coordinates":[[[-75.101,5.40435],[-75.10102,5.40436],[-75.10139,5.40455],[-75.10144,5.40412],[-75.10125,5.40375],[-75.10106,5.40333],[-75.10069,5.40314],[-75.10027,5.403],[-75.09999,5.40264],[-75.1,5.40266],[-75.10001,5.40283],[-75.10009,5.40303],[-75.10018,5.40321],[-75.10032,5.40336],[-75.10053,5.40367],[-75.1007,5.40386],[-75.10083,5.40406],[-75.10096,5.40423],[-75.101,5.40435]]]},"properties":{"OBJECTID":10,"CODDEP":"17","AREA":1.09117033609,"Tipo":"Vegetacion secundaria o en transicion","Zona":"Zona de restauración","Subzona":"Zona de restauración","Shape_Length":562.3594731202248,"Shape_Area":10905.445898047994}},{"type":"Feature","id":11,"geometry":{"type":"Polygon","coordinates":[[[-75.09624,5.39286],[-75.09615,5.39289],[-75.09598,5.39299],[-75.09585,5.39307],[-75.09566,5.39324],[-75.09541,5.39337],[-75.09525,5.39351],[-75.09512,5.39364],[-75.09503,5.39372],[-75.09496,5.39386],[-75.09489,5.39398],[-75.09477,5.3941],[-75.09482,5.39417],[-75.09494,5.39429],[-75.09505,5.39441],[-75.09517,5.39446],[-75.09533,5.39465],[-75.09541,5.39481],[-75.09552,5.395],[-75.09563,5.39515],[-75.09573,5.39531],[-75.09574,5.3954],[-75.09583,5.39558],[-75.09593,5.39574],[-75.09604,5.39607],[-75.09608,5.39629],[-75.09614,5.39661],[-75.09614,5.39684],[-75.09618,5.39699],[-75.09618,5.39706],[-75.09639,5.39696],[-75.09681,5.39696],[-75.09723,5.39687],[-75.09704,5.39649],[-75.09671,5.39626],[-75.09643,5.39593],[-75.09662,5.39556],[-75.09685,5.39523],[-75.09727,5.39504],[-75.0976,5.39476],[-75.09765,5.39434],[-75.09784,5.39397],[-75.0976,5.39364],[-75.09718,5.3935],[-75.09676,5.39355],[-75.09633,5.3935],[-75.09615,5.39312],[-75.09624,5.39286]]]},"properties":{"OBJECTID":11,"CODDEP":"17","AREA":7.09197420689,"Tipo":"Bosque denso alto de tierra firme","Zona":"Zona de preservación","Subzona":"Zona de preservación","Shape_Length":1399.3740871434843,"Shape_Area":70878.9082955122}},{"type":"Feature","id":12,"geometry":{"type":"Polygon","coordinates":[[[-75.101,5.40435],[-75.101,5.40435],[-75.10109,5.40447],[-75.10117,5.40458],[-75.10123,5.40472],[-75.10128,5.40484],[-75.10129,5.40495],[-75.1013,5.40519],[-75.10132,5.40528],[-75.1014,5.40538],[-75.10146,5.40563],[-75.10149,5.40579],[-75.10154,5.4059],[-75.10163,5.40606],[-75.10165,5.40622],[-75.1017,5.40634],[-75.10174,5.40644],[-75.10177,5.40659],[-75.1018,5.40672],[-75.10183,5.40685],[-75.10185,5.40692],[-75.1019,5.40719],[-75.10194,5.40729],[-75.10199,5.40742],[-75.10205,5.40752],[-75.1021,5.40766],[-75.10216,5.40776],[-75.10215,5.40789],[-75.10227,5.40789],[-75.10236,5.40789],[-75.10253,5.4079],[-75.10286,5.40791],[-75.1031,5.40793],[-75.10312,5.40782],[-75.10331,5.40745],[-75.10331,5.40703],[-75.10331,5.40661],[-75.10322,5.40618],[-75.10308,5.40576],[-75.10331,5.40543],[-75.1035,5.40581],[-75.10369,5.40623],[-75.10387,5.40661],[-75.10411,5.40693],[-75.10453,5.40703],[-75.10467,5.40745],[-75.10486,5.40787],[-75.10488,5.40791],[-75.10507,5.40793],[-75.10526,5.40792],[-75.10548,5.40787],[-75.10571,5.40787],[-75.10572,5.40786],[-75.1057,5.40773],[-75.10556,5.40731],[-75.10518,5.40712],[-75.10486,5.40689],[-75.10453,5.40661],[-75.10434,5.40623],[-75.10415,5.40586],[-75.1042,5.40544],[-75.10462,5.40543],[-75.105,5.40562],[-75.10542,5.40562],[-75.10551,5.4052],[-75.10509,5.40506],[-75.10486,5.40473],[-75.10528,5.40473],[-75.1057,5.40473],[-75.10575,5.40431],[-75.10579,5.40389],[-75.10565,5.40347],[-75.10556,5.40305],[-75.10579,5.40272],[-75.10579,5.4023],[-75.10584,5.40188],[-75.10626,5.40169],[-75.10668,5.40183],[-75.10711,5.40169],[-75.10734,5.40136],[-75.10776,5.40136],[-75.10808,5.40164],[-75.10795,5.40206],[-75.10795,5.40249],[-75.10795,5.40291],[-75.10753,5.403],[-75.10734,5.40338],[-75.10692,5.40338],[-75.10692,5.4038],[-75.10692,5.40422],[-75.10706,5.40464],[-75.10711,5.40506],[-75.10711,5.40531],[-75.10711,5.40531],[-75.10726,5.40531],[-75.10746,5.40528],[-75.10772,5.40522],[-75.10793,5.4051],[-75.10804,5.40508],[-75.10818,5.40504],[-75.10829,5.405],[-75.10831,5.40499],[-75.10842,5.40499],[-75.10857,5.40499],[-75.10871,5.40499],[-75.10884,5.40499],[-75.10898,5.40499],[-75.10915,5.40503],[-75.10919,5.40508],[-75.1093,5.4051],[-75.10938,5.40515],[-75.10958,5.40519],[-75.10966,5.40519],[-75.10978,5.40519],[-75.10988,5.40519],[-75.10997,5.40516],[-75.11008,5.40511],[-75.11016,5.4051],[-75.11031,5.405],[-75.11041,5.40494],[-75.11041,5.40492],[-75.11035,5.40484],[-75.11031,5.40479],[-75.11028,5.40473],[-75.11027,5.40467],[-75.11028,5.40459],[-75.11031,5.40453],[-75.11033,5.40448],[-75.11039,5.40443],[-75.11046,5.40441],[-75.11059,5.40441],[-75.11068,5.40446],[-75.11075,5.40447],[-75.11087,5.40452],[-75.11104,5.40457],[-75.11104,5.40441],[-75.11146,5.40445],[-75.11188,5.4045],[-75.1123,5.40441],[-75.11272,5.40431],[-75.11314,5.40445],[-75.11338,5.40412],[-75.11332,5.40386],[-75.11347,5.40384],[-75.11355,5.40384],[-75.11348,5.4037],[-75.11333,5.40338],[-75.11327,5.40318],[-75.11326,5.40316],[-75.11314,5.40319],[-75.11292,5.40321],[-75.11291,5.40326],[-75.1129,5.40333],[-75.11286,5.40337],[-75.11277,5.40338],[-75.11271,5.40334],[-75.11257,5.40327],[-75.11247,5.4032],[-75.11239,5.40314],[-75.11233,5.40306],[-75.11224,5.40297],[-75.11221,5.40295],[-75.11204,5.4029],[-75.112,5.40289],[-75.11191,5.40284],[-75.11183,5.40281],[-75.11176,5.40278],[-75.11169,5.40271],[-75.11163,5.40266],[-75.11154,5.4025],[-75.11148,5.40245],[-75.11139,5.40243],[-75.11127,5.40241],[-75.11121,5.40238],[-75.11113,5.40232],[-75.11108,5.40226],[-75.11107,5.40217],[-75.11107,5.40208],[-75.11107,5.40201],[-75.1111,5.4019],[-75.11103,5.40187],[-75.11091,5.40176],[-75.11084,5.40171],[-75.11074,5.40169],[-75.11062,5.40167],[-75.11053,5.40164],[-75.11043,5.40162],[-75.11038,5.40156],[-75.11032,5.40156],[-75.11024,5.40151],[-75.11025,5.40151],[-75.11024,5.40131],[-75.11018,5.40119],[-75.11011,5.40107],[-75.11004,5.40095],[-75.10999,5.40085],[-75.1099,5.40064],[-75.10984,5.40046],[-75.10973,5.40029],[-75.10969,5.4002],[-75.10963,5.40009],[-75.10952,5.39999],[-75.10932,5.39985],[-75.10921,5.39977],[-75.10911,5.39974],[-75.10905,5.39967],[-75.10894,5.39956],[-75.10879,5.39942],[-75.10868,5.39933],[-75.10853,5.39916],[-75.10835,5.39897],[-75.10825,5.39884],[-75.10816,5.39875],[-75.10815,5.39871],[-75.10807,5.3986],[-75.10783,5.3981],[-75.1078,5.39802],[-75.10775,5.39795],[-75.10763,5.39792],[-75.1076,5.39785],[-75.10752,5.39784],[-75.10736,5.39779],[-75.10719,5.39775],[-75.10711,5.39769],[-75.10708,5.39761],[-75.10704,5.39755],[-75.107,5.39746],[-75.10694,5.39732],[-75.10693,5.39723],[-75.1069,5.39709],[-75.10685,5.39697],[-75.10679,5.39682],[-75.10671,5.39667],[-75.10667,5.39661],[-75.10665,5.39653],[-75.10661,5.39644],[-75.10658,5.39632],[-75.10652,5.39618],[-75.10658,5.39603],[-75.10658,5.39586],[-75.10661,5.39574],[-75.10665,5.39563],[-75.10666,5.39558],[-75.10667,5.39555],[-75.10671,5.3954],[-75.10676,5.39526],[-75.10676,5.39517],[-75.10677,5.39505],[-75.1068,5.39496],[-75.1068,5.39467],[-75.10683,5.39452],[-75.10686,5.39444],[-75.10688,5.39435],[-75.10694,5.39423],[-75.10697,5.39412],[-75.107,5.39404],[-75.10706,5.39394],[-75.107,5.39389],[-75.10695,5.39388],[-75.10691,5.3938],[-75.1069,5.3938],[-75.10685,5.39375],[-75.10684,5.39374],[-75.1068,5.39372],[-75.10672,5.39363],[-75.10669,5.39359],[-75.10666,5.3935],[-75.10663,5.39342],[-75.10653,5.39333],[-75.10647,5.39328],[-75.10637,5.39322],[-75.10636,5.39315],[-75.10627,5.3931],[-75.10622,5.39304],[-75.10613,5.39299],[-75.10605,5.39292],[-75.10601,5.39283],[-75.10595,5.39267],[-75.10593,5.39255],[-75.1059,5.39248],[-75.10589,5.39237],[-75.10587,5.39226],[-75.10584,5.39217],[-75.10581,5.39219],[-75.10573,5.39225],[-75.10564,5.39231],[-75.10552,5.39231],[-75.10551,5.39228],[-75.10538,5.39223],[-75.10537,5.39217],[-75.10534,5.39207],[-75.10531,5.39199],[-75.10528,5.39194],[-75.10525,5.39182],[-75.10519,5.39175],[-75.10518,5.39162],[-75.10502,5.39162],[-75.10482,5.39165],[-75.10462,5.39165],[-75.10449,5.39166],[-75.10426,5.39166],[-75.10418,5.39163],[-75.10389,5.39163],[-75.10379,5.39166],[-75.10369,5.39175],[-75.10359,5.39182],[-75.10348,5.39187],[-75.10335,5.39202],[-75.10316,5.39218],[-75.10301,5.39237],[-75.10284,5.3924],[-75.10269,5.39247],[-75.10269,5.39268],[-75.10269,5.39282],[-75.10272,5.39298],[-75.10284,5.39315],[-75.10317,5.39331],[-75.10336,5.39369],[-75.10378,5.39373],[-75.10364,5.39415],[-75.10354,5.39458],[-75.10369,5.395],[-75.10341,5.39532],[-75.10341,5.39575],[-75.10345,5.39617],[-75.10345,5.39659],[-75.10364,5.39701],[-75.10364,5.39743],[-75.10383,5.3978],[-75.10402,5.39827],[-75.10397,5.39869],[-75.10406,5.39865],[-75.10439,5.39869],[-75.10462,5.39902],[-75.10434,5.39935],[-75.10402,5.39963],[-75.10402,5.40005],[-75.10402,5.40047],[-75.10402,5.40089],[-75.10402,5.40132],[-75.10411,5.40174],[-75.1042,5.40216],[-75.10425,5.40258],[-75.10425,5.403],[-75.10397,5.40333],[-75.10373,5.403],[-75.10341,5.40324],[-75.10308,5.40347],[-75.10308,5.40389],[-75.10275,5.40412],[-75.10233,5.40408],[-75.10209,5.40375],[-75.10191,5.40338],[-75.10163,5.40305],[-75.10181,5.40267],[-75.10209,5.40235],[-75.10247,5.40216],[-75.10289,5.40221],[-75.10303,5.40263],[-75.10341,5.40244],[-75.10341,5.40202],[-75.10317,5.40169],[-75.10327,5.40127],[-75.10322,5.40085],[-75.10289,5.40057],[-75.10247,5.40047],[-75.10205,5.40038],[-75.10172,5.40061],[-75.10154,5.40099],[-75.1013,5.40066],[-75.10102,5.40066],[-75.10096,5.40073],[-75.10091,5.40076],[-75.10077,5.40076],[-75.10068,5.40078],[-75.10064,5.40082],[-75.1006,5.40085],[-75.10056,5.40089],[-75.10052,5.40094],[-75.10046,5.401],[-75.10037,5.40104],[-75.1003,5.40104],[-75.10026,5.40101],[-75.10023,5.40095],[-75.10021,5.40091],[-75.10017,5.40088],[-75.10012,5.40088],[-75.10002,5.40086],[-75.09991,5.40083],[-75.09985,5.40078],[-75.09982,5.40069],[-75.09976,5.40064],[-75.09972,5.40056],[-75.09972,5.4005],[-75.09968,5.40043],[-75.09965,5.4004],[-75.0996,5.40044],[-75.09959,5.40049],[-75.09955,5.40049],[-75.09953,5.40049],[-75.09948,5.40047],[-75.09944,5.40042],[-75.09938,5.40036],[-75.09933,5.4003],[-75.09926,5.40025],[-75.09924,5.40017],[-75.09924,5.4001],[-75.09925,5.40005],[-75.0993,5.40004],[-75.09938,5.40001],[-75.09943,5.39997],[-75.09946,5.39989],[-75.09947,5.39978],[-75.09949,5.3997],[-75.09951,5.39968],[-75.09957,5.39964],[-75.09962,5.39958],[-75.09963,5.39957],[-75.09968,5.39946],[-75.09972,5.39939],[-75.09976,5.39932],[-75.09981,5.39923],[-75.09979,5.39914],[-75.09974,5.39911],[-75.0997,5.39907],[-75.09966,5.39904],[-75.09958,5.39903],[-75.09944,5.399],[-75.0993,5.39899],[-75.09916,5.39897],[-75.09906,5.39895],[-75.09898,5.39894],[-75.09889,5.3989],[-75.09878,5.39887],[-75.09868,5.3988],[-75.0986,5.39877],[-75.09853,5.3987],[-75.09846,5.39865],[-75.09837,5.39862],[-75.09826,5.39859],[-75.0982,5.39856],[-75.09812,5.39855],[-75.09812,5.39865],[-75.09802,5.39907],[-75.09807,5.39949],[-75.09816,5.39991],[-75.09813,5.40004],[-75.09838,5.40027],[-75.09861,5.4005],[-75.09885,5.40073],[-75.099,5.40096],[-75.09915,5.40107],[-75.09919,5.40103],[-75.09952,5.40127],[-75.09948,5.40169],[-75.09946,5.40173],[-75.09948,5.40176],[-75.09961,5.40184],[-75.09968,5.40198],[-75.09977,5.40213],[-75.09983,5.40227],[-75.09992,5.40245],[-75.09999,5.40264],[-75.10027,5.403],[-75.10069,5.40314],[-75.10106,5.40333],[-75.10125,5.40375],[-75.10144,5.40412],[-75.10139,5.40455],[-75.10102,5.40436],[-75.101,5.40435]]]},"properties":{"OBJECTID":12,"CODDEP":"17","AREA":99.0027455624,"Tipo":"Bosque denso alto de tierra firme","Zona":"Zona de preservación","Subzona":"Zona de preservación","Shape_Length":10312.530028540186,"Shape_Area":989463.3142452837}},{"type":"Feature","id":13,"geometry":{"type":"Polygon","coordinates":[[[-75.11295,5.40181],[-75.11295,5.40187],[-75.11291,5.40197],[-75.11282,5.40214],[-75.11278,5.40223],[-75.11276,5.40228],[-75.11276,5.40238],[-75.11279,5.40244],[-75.11282,5.4025],[-75.11289,5.40259],[-75.11294,5.40268],[-75.11301,5.40275],[-75.11306,5.4027],[-75.11316,5.40268],[-75.11314,5.40264],[-75.11315,5.40262],[-75.11314,5.40255],[-75.11314,5.40245],[-75.11314,5.40231],[-75.11314,5.40217],[-75.11314,5.40205],[-75.11314,5.40195],[-75.11314,5.40184],[-75.11313,5.40182],[-75.11307,5.40182],[-75.11303,5.40182],[-75.11299,5.40182],[-75.11295,5.40181]]]},"properties":{"OBJECTID":13,"CODDEP":"17","AREA":0.32048108536,"Tipo":"Bosque denso alto de tierra firme","Zona":"Zona de preservación","Subzona":"Zona de preservación","Shape_Length":253.0876791527131,"Shape_Area":3203.0009872263663}},{"type":"Feature","id":14,"geometry":{"type":"Polygon","coordinates":[[[-75.11104,5.40457],[-75.11112,5.40461],[-75.11113,5.40464],[-75.11112,5.40468],[-75.11108,5.40472],[-75.11108,5.40478],[-75.11112,5.40481],[-75.11119,5.40479],[-75.11126,5.40476],[-75.11135,5.40476],[-75.11139,5.40476],[-75.11149,5.40475],[-75.11155,5.40472],[-75.11163,5.40469],[-75.11166,5.40466],[-75.11172,5.4046],[-75.11181,5.40459],[-75.11194,5.40456],[-75.11203,5.40454],[-75.11212,5.4045],[-75.11223,5.4045],[-75.11231,5.40454],[-75.1124,5.40459],[-75.1125,5.40466],[-75.11258,5.40473],[-75.1126,5.40474],[-75.11259,5.40481],[-75.11252,5.40488],[-75.11247,5.40496],[-75.11245,5.40499],[-75.11253,5.40497],[-75.11263,5.40494],[-75.11267,5.40489],[-75.11282,5.40483],[-75.1129,5.40475],[-75.11308,5.40469],[-75.11318,5.40461],[-75.11329,5.40453],[-75.11337,5.4045],[-75.11346,5.40447],[-75.11353,5.40447],[-75.11365,5.40447],[-75.11371,5.40447],[-75.11375,5.40446],[-75.11384,5.40446],[-75.11378,5.40433],[-75.11369,5.40422],[-75.11361,5.404],[-75.11358,5.40389],[-75.11355,5.40384],[-75.11347,5.40384],[-75.11332,5.40386],[-75.11338,5.40412],[-75.11314,5.40445],[-75.11272,5.40431],[-75.1123,5.40441],[-75.11188,5.4045],[-75.11146,5.40445],[-75.11104,5.40441],[-75.11104,5.40457]]]},"properties":{"OBJECTID":14,"CODDEP":"17","AREA":1.00853278261,"Tipo":"Bosque denso alto de tierra firme","Zona":"Zona de preservación","Subzona":"Zona de preservación","Shape_Length":855.2280329616096,"Shape_Area":10079.62323279835}},{"type":"Feature","id":15,"geometry":{"type":"Polygon","coordinates":[[[-75.10711,5.40531],[-75.10711,5.40506],[-75.10706,5.40464],[-75.10692,5.40422],[-75.10692,5.4038],[-75.10692,5.40338],[-75.10734,5.40338],[-75.10753,5.403],[-75.10795,5.40291],[-75.10795,5.40249],[-75.10795,5.40206],[-75.10808,5.40164],[-75.10776,5.40136],[-75.10734,5.40136],[-75.10711,5.40169],[-75.10668,5.40183],[-75.10626,5.40169],[-75.10584,5.40188],[-75.10579,5.4023],[-75.10579,5.40272],[-75.10556,5.40305],[-75.10565,5.40347],[-75.10579,5.40389],[-75.10575,5.40431],[-75.1057,5.40473],[-75.10528,5.40473],[-75.10486,5.40473],[-75.10509,5.40506],[-75.10551,5.4052],[-75.10542,5.40562],[-75.105,5.40562],[-75.10462,5.40543],[-75.1042,5.40544],[-75.10415,5.40586],[-75.10434,5.40623],[-75.10453,5.40661],[-75.10486,5.40689],[-75.10518,5.40712],[-75.10556,5.40731],[-75.1057,5.40773],[-75.10572,5.40786],[-75.10593,5.40782],[-75.10621,5.40776],[-75.10628,5.40775],[-75.10624,5.40774],[-75.1062,5.40773],[-75.10616,5.40771],[-75.10612,5.40768],[-75.1061,5.40765],[-75.10607,5.40761],[-75.10605,5.40757],[-75.10604,5.40753],[-75.10604,5.40749],[-75.10604,5.40744],[-75.10605,5.4074],[-75.10607,5.40736],[-75.10609,5.40732],[-75.10612,5.40729],[-75.10615,5.40726],[-75.10619,5.40724],[-75.10623,5.40722],[-75.10627,5.40721],[-75.10631,5.40721],[-75.10635,5.40721],[-75.1064,5.40722],[-75.10644,5.40724],[-75.10647,5.40727],[-75.10651,5.4073],[-75.10653,5.40733],[-75.10655,5.40737],[-75.10657,5.40741],[-75.10658,5.40745],[-75.10658,5.40749],[-75.10657,5.40754],[-75.10656,5.40758],[-75.10654,5.40762],[-75.10652,5.40765],[-75.10649,5.40768],[-75.10645,5.40771],[-75.10641,5.40773],[-75.10651,5.40772],[-75.1066,5.4077],[-75.10662,5.40764],[-75.10662,5.40754],[-75.10666,5.40741],[-75.10666,5.40731],[-75.10667,5.40719],[-75.10667,5.40694],[-75.10667,5.40678],[-75.1067,5.40656],[-75.1067,5.40641],[-75.1067,5.40616],[-75.1067,5.40597],[-75.10669,5.40575],[-75.10669,5.40556],[-75.10664,5.4053],[-75.10682,5.40531],[-75.10711,5.40531]]]},"properties":{"OBJECTID":15,"CODDEP":"17","AREA":13.1304072126,"Tipo":"Vegetacion secundaria o en transicion","Zona":"Zona de restauración","Subzona":"Zona de restauración","Shape_Length":2412.3525067758437,"Shape_Area":131229.31595150343}},{"type":"Feature","id":16,"geometry":{"type":"Polygon","coordinates":[[[-75.1031,5.40793],[-75.10321,5.40794],[-75.10359,5.40794],[-75.10397,5.40794],[-75.10448,5.40794],[-75.10482,5.40791],[-75.10488,5.40791],[-75.10486,5.40787],[-75.10467,5.40745],[-75.10453,5.40703],[-75.10411,5.40693],[-75.10387,5.40661],[-75.10369,5.40623],[-75.1035,5.40581],[-75.10331,5.40543],[-75.10308,5.40576],[-75.10322,5.40618],[-75.10331,5.40661],[-75.10331,5.40703],[-75.10331,5.40745],[-75.10312,5.40782],[-75.1031,5.40793]]]},"properties":{"OBJECTID":16,"CODDEP":"17","AREA":2.56116189887,"Tipo":"Vegetacion secundaria o en transicion","Zona":"Zona de restauración","Subzona":"Zona de restauración","Shape_Length":832.5976330057338,"Shape_Area":25597.00566183252}},{"type":"Feature","id":17,"geometry":{"type":"Polygon","coordinates":[[[-75.09836,5.39154],[-75.09841,5.39167],[-75.09851,5.39184],[-75.09858,5.39193],[-75.09863,5.39208],[-75.09865,5.39213],[-75.09865,5.39206],[-75.09865,5.39197],[-75.0986,5.39185],[-75.09857,5.39175],[-75.09854,5.39169],[-75.0985,5.39162],[-75.09845,5.39159],[-75.09839,5.39156],[-75.09836,5.39154]]]},"properties":{"OBJECTID":17,"CODDEP":"17","AREA":0.0511064997787,"Tipo":"Vegetacion secundaria o en transicion","Zona":"Zona de restauración","Subzona":"Zona de restauración","Shape_Length":150.2390907464961,"Shape_Area":510.7713000508407}},{"type":"Feature","id":18,"geometry":{"type":"Polygon","coordinates":[[[-75.10631,5.40775],[-75.10635,5.40775],[-75.10639,5.40774],[-75.10643,5.40772],[-75.10647,5.4077],[-75.1065,5.40767],[-75.10653,5.40763],[-75.10655,5.4076],[-75.10657,5.40756],[-75.10658,5.40751],[-75.10658,5.40747],[-75.10657,5.40743],[-75.10656,5.40738],[-75.10654,5.40735],[-75.10652,5.40731],[-75.10649,5.40728],[-75.10645,5.40725],[-75.10641,5.40723],[-75.10637,5.40722],[-75.10633,5.40721],[-75.10629,5.40721],[-75.10624,5.40722],[-75.1062,5.40723],[-75.10616,5.40725],[-75.10613,5.40728],[-75.1061,5.40731],[-75.10607,5.40735],[-75.10606,5.40739],[-75.10604,5.40743],[-75.10604,5.40747],[-75.10604,5.40751],[-75.10605,5.40756],[-75.10606,5.4076],[-75.10609,5.40764],[-75.10611,5.40767],[-75.10615,5.4077],[-75.10618,5.40772],[-75.10622,5.40774],[-75.10627,5.40775],[-75.10631,5.40775]]]},"properties":{"OBJECTID":18,"CODDEP":"17","AREA":0.28152114519,"Tipo":"Vivienda","Zona":"Zona general de uso público","Subzona":"Subzona de alta densidad de uso","Shape_Length":188.23795224844292,"Shape_Area":2813.608887852279}},{"type":"Feature","id":19,"geometry":{"type":"Polygon","coordinates":[[[-75.10132,5.39852],[-75.10137,5.39852],[-75.10141,5.39851],[-75.10145,5.39849],[-75.10149,5.39847],[-75.10152,5.39844],[-75.10155,5.3984],[-75.10157,5.39836],[-75.10158,5.39832],[-75.10159,5.39828],[-75.10159,5.39824],[-75.10159,5.39819],[-75.10158,5.39815],[-75.10156,5.39811],[-75.10153,5.39808],[-75.1015,5.39805],[-75.10147,5.39802],[-75.10143,5.398],[-75.10139,5.39799],[-75.10134,5.39798],[-75.1013,5.39798],[-75.10126,5.39799],[-75.10122,5.398],[-75.10118,5.39802],[-75.10114,5.39805],[-75.10111,5.39808],[-75.10109,5.39811],[-75.10107,5.39815],[-75.10106,5.39819],[-75.10105,5.39824],[-75.10105,5.39828],[-75.10106,5.39832],[-75.10108,5.39837],[-75.1011,5.3984],[-75.10113,5.39844],[-75.10116,5.39847],[-75.1012,5.39849],[-75.10124,5.39851],[-75.10128,5.39852],[-75.10132,5.39852]]]},"properties":{"OBJECTID":19,"CODDEP":"17","AREA":0.281521871493,"Tipo":"Vivienda","Zona":"Zona general de uso público","Subzona":"Subzona de alta densidad de uso","Shape_Length":188.2378511085501,"Shape_Area":2813.6058644305735}},{"type":"Feature","id":20,"geometry":{"type":"Polygon","coordinates":[[[-75.10323,5.39945],[-75.10327,5.39944],[-75.10331,5.39943],[-75.10335,5.39942],[-75.10339,5.39939],[-75.10342,5.39936],[-75.10345,5.39933],[-75.10347,5.39929],[-75.10348,5.39925],[-75.10349,5.39921],[-75.1035,5.39916],[-75.10349,5.39912],[-75.10348,5.39908],[-75.10346,5.39904],[-75.10343,5.399],[-75.1034,5.39897],[-75.10337,5.39895],[-75.10333,5.39893],[-75.10329,5.39891],[-75.10325,5.39891],[-75.1032,5.39891],[-75.10316,5.39891],[-75.10312,5.39893],[-75.10308,5.39895],[-75.10305,5.39897],[-75.10301,5.399],[-75.10299,5.39904],[-75.10297,5.39908],[-75.10296,5.39912],[-75.10295,5.39917],[-75.10296,5.39921],[-75.10297,5.39925],[-75.10298,5.39929],[-75.103,5.39933],[-75.10303,5.39936],[-75.10306,5.39939],[-75.1031,5.39942],[-75.10314,5.39943],[-75.10318,5.39944],[-75.10323,5.39945]]]},"properties":{"OBJECTID":20,"CODDEP":"17","AREA":0.28152090715,"Tipo":"Vivienda","Zona":"Zona general de uso público","Subzona":"Subzona de alta densidad de uso","Shape_Length":188.23766990059522,"Shape_Area":2813.6004472719565}},{"type":"Feature","id":21,"geometry":{"type":"Polygon","coordinates":[[[-75.10124,5.39689],[-75.1012,5.39693],[-75.10115,5.39697],[-75.10108,5.39697],[-75.10103,5.39698],[-75.10099,5.39701],[-75.10094,5.39706],[-75.10086,5.39709],[-75.10077,5.39712],[-75.10064,5.39715],[-75.10055,5.39721],[-75.10052,5.39729],[-75.10048,5.39738],[-75.1004,5.3975],[-75.10032,5.39755],[-75.10024,5.39758],[-75.10022,5.3976],[-75.10014,5.39764],[-75.10005,5.39765],[-75.09997,5.39765],[-75.09993,5.39768],[-75.0999,5.3977],[-75.09987,5.39776],[-75.09983,5.39781],[-75.09974,5.39782],[-75.09966,5.3978],[-75.09963,5.39776],[-75.09957,5.39768],[-75.09946,5.39759],[-75.09937,5.39751],[-75.09931,5.39753],[-75.09928,5.39756],[-75.09928,5.39764],[-75.09932,5.39768],[-75.09934,5.39773],[-75.09933,5.39779],[-75.09923,5.39779],[-75.09913,5.39778],[-75.09907,5.39773],[-75.09899,5.39768],[-75.09888,5.3976],[-75.09878,5.39756],[-75.09871,5.3975],[-75.09863,5.39749],[-75.09851,5.39752],[-75.09843,5.39751],[-75.09833,5.39749],[-75.09821,5.39745],[-75.09814,5.3974],[-75.09807,5.39732],[-75.09802,5.39725],[-75.09796,5.39718],[-75.0979,5.39706],[-75.09782,5.39694],[-75.09777,5.39691],[-75.09769,5.3969],[-75.09762,5.39691],[-75.09751,5.397],[-75.09745,5.3971],[-75.09741,5.3972],[-75.09738,5.39728],[-75.09735,5.39738],[-75.09734,5.39753],[-75.09734,5.39766],[-75.09736,5.39784],[-75.09737,5.39792],[-75.0974,5.39803],[-75.09749,5.39817],[-75.09759,5.39828],[-75.09763,5.39835],[-75.09767,5.3984],[-75.0977,5.39845],[-75.09771,5.3985],[-75.09776,5.39854],[-75.09779,5.39854],[-75.09786,5.39856],[-75.09792,5.39856],[-75.09806,5.39855],[-75.09812,5.39855],[-75.0982,5.39856],[-75.09826,5.39859],[-75.09837,5.39862],[-75.09846,5.39865],[-75.09853,5.3987],[-75.0986,5.39877],[-75.09868,5.3988],[-75.09878,5.39887],[-75.09889,5.3989],[-75.09898,5.39894],[-75.09906,5.39895],[-75.09916,5.39897],[-75.0993,5.39899],[-75.09944,5.399],[-75.09958,5.39903],[-75.09966,5.39904],[-75.0997,5.39907],[-75.09974,5.39911],[-75.09979,5.39914],[-75.09994,5.39916],[-75.10001,5.39919],[-75.10017,5.39918],[-75.10026,5.39918],[-75.10033,5.39918],[-75.10036,5.39918],[-75.10043,5.39916],[-75.10053,5.39912],[-75.1006,5.39909],[-75.10068,5.39907],[-75.1008,5.39908],[-75.10085,5.39911],[-75.10093,5.39918],[-75.10097,5.39919],[-75.10109,5.39919],[-75.10119,5.39919],[-75.10129,5.39914],[-75.10137,5.39912],[-75.10144,5.39909],[-75.10149,5.39907],[-75.10162,5.39907],[-75.10172,5.39903],[-75.10183,5.39895],[-75.10188,5.39888],[-75.10188,5.39881],[-75.10186,5.39877],[-75.10183,5.39872],[-75.10176,5.3987],[-75.1017,5.39868],[-75.10165,5.39864],[-75.10163,5.39858],[-75.10161,5.39852],[-75.10162,5.39849],[-75.10164,5.39842],[-75.10164,5.39837],[-75.10163,5.39826],[-75.10163,5.3982],[-75.10158,5.39813],[-75.10153,5.39805],[-75.10145,5.39799],[-75.10145,5.39793],[-75.1015,5.39792],[-75.10153,5.39794],[-75.10158,5.39798],[-75.10163,5.39803],[-75.10167,5.39811],[-75.10169,5.39813],[-75.10172,5.39816],[-75.10175,5.39822],[-75.10176,5.39827],[-75.10178,5.39832],[-75.1018,5.39837],[-75.1018,5.39844],[-75.10184,5.39847],[-75.10192,5.39847],[-75.10204,5.39846],[-75.10211,5.39841],[-75.10215,5.39838],[-75.1022,5.39835],[-75.10228,5.3983],[-75.10238,5.39824],[-75.10244,5.39822],[-75.10253,5.39824],[-75.10258,5.39821],[-75.10258,5.39814],[-75.10258,5.39805],[-75.10258,5.39798],[-75.1026,5.39785],[-75.10263,5.39779],[-75.10263,5.39774],[-75.10262,5.39768],[-75.1026,5.39763],[-75.10256,5.39753],[-75.1025,5.39745],[-75.1025,5.39738],[-75.10246,5.39731],[-75.10243,5.39726],[-75.10232,5.39717],[-75.10228,5.39712],[-75.10224,5.397],[-75.1022,5.39692],[-75.10214,5.39685],[-75.10211,5.39679],[-75.10211,5.39673],[-75.10211,5.39664],[-75.10204,5.39655],[-75.10196,5.39655],[-75.1019,5.39657],[-75.10186,5.39661],[-75.10179,5.39668],[-75.10169,5.39676],[-75.10165,5.39677],[-75.10164,5.39682],[-75.10164,5.39688],[-75.10164,5.39692],[-75.1016,5.39695],[-75.10155,5.39694],[-75.10151,5.39691],[-75.10148,5.39688],[-75.10144,5.39683],[-75.10138,5.39682],[-75.10134,5.39684],[-75.10133,5.39688],[-75.10132,5.39689],[-75.10132,5.39689],[-75.10125,5.39708],[-75.10125,5.3972],[-75.10125,5.39721],[-75.10121,5.39742],[-75.10121,5.39758],[-75.10121,5.39758],[-75.10119,5.39777],[-75.10122,5.39794],[-75.10124,5.39799],[-75.10128,5.39798],[-75.10132,5.39798],[-75.10137,5.39798],[-75.10141,5.39799],[-75.10145,5.39801],[-75.10148,5.39803],[-75.10151,5.39806],[-75.10154,5.39809],[-75.10156,5.39813],[-75.10158,5.39816],[-75.10159,5.39821],[-75.10159,5.39825],[-75.10159,5.39829],[-75.10158,5.39833],[-75.10156,5.39837],[-75.10154,5.39841],[-75.10152,5.39844],[-75.10148,5.39847],[-75.10145,5.39849],[-75.10141,5.39851],[-75.10137,5.39852],[-75.10132,5.39852],[-75.10128,5.39852],[-75.10124,5.39851],[-75.1012,5.39849],[-75.10116,5.39847],[-75.10113,5.39844],[-75.1011,5.3984],[-75.10108,5.39837],[-75.10106,5.39833],[-75.10106,5.39828],[-75.10105,5.39824],[-75.10106,5.3982],[-75.10107,5.39816],[-75.10109,5.39812],[-75.10111,5.39808],[-75.10114,5.39805],[-75.10117,5.39802],[-75.10115,5.39796],[-75.10115,5.39795],[-75.10112,5.39777],[-75.10112,5.39777],[-75.10112,5.39777],[-75.10114,5.39758],[-75.10114,5.39742],[-75.10114,5.39741],[-75.10117,5.3972],[-75.10118,5.39707],[-75.10118,5.39706],[-75.10118,5.39706],[-75.10124,5.39689]]]},"properties":{"OBJECTID":21,"CODDEP":"17","AREA":9.44759210999,"Tipo":"Vegetacion secundaria o en transicion","Zona":"Zona de restauración","Subzona":"Zona de restauración","Shape_Length":2278.1092567768646,"Shape_Area":94421.7547868431}},{"type":"Feature","id":22,"geometry":{"type":"Polygon","coordinates":[[[-75.0986,5.39234],[-75.09858,5.39236],[-75.09855,5.39238],[-75.0985,5.3924],[-75.09841,5.39242],[-75.09836,5.39242],[-75.0983,5.39245],[-75.09825,5.39248],[-75.09821,5.39257],[-75.09815,5.39262],[-75.09808,5.39268],[-75.09797,5.39271],[-75.09791,5.39271],[-75.09781,5.3927],[-75.09767,5.39266],[-75.09756,5.39263],[-75.09746,5.3926],[-75.09735,5.39253],[-75.09722,5.39249],[-75.09715,5.39245],[-75.09714,5.39245],[-75.09703,5.39245],[-75.0968,5.39251],[-75.09654,5.39266],[-75.09638,5.39279],[-75.09631,5.39284],[-75.09624,5.39286],[-75.09615,5.39312],[-75.09633,5.3935],[-75.09676,5.39355],[-75.09718,5.3935],[-75.0976,5.39364],[-75.09784,5.39397],[-75.09765,5.39434],[-75.0976,5.39476],[-75.09727,5.39504],[-75.09685,5.39523],[-75.09662,5.39556],[-75.09643,5.39593],[-75.09671,5.39626],[-75.09704,5.39649],[-75.09723,5.39687],[-75.09681,5.39696],[-75.09639,5.39696],[-75.09618,5.39706],[-75.09618,5.39711],[-75.09618,5.39719],[-75.09619,5.39724],[-75.09618,5.39759],[-75.09622,5.39777],[-75.09622,5.39791],[-75.09643,5.39812],[-75.09661,5.39828],[-75.09673,5.39837],[-75.09678,5.39857],[-75.09695,5.39875],[-75.09722,5.39902],[-75.09753,5.39937],[-75.09782,5.39968],[-75.09792,5.3998],[-75.09806,5.39997],[-75.09813,5.40004],[-75.09816,5.39991],[-75.09807,5.39949],[-75.09802,5.39907],[-75.09812,5.39865],[-75.09812,5.39855],[-75.09806,5.39855],[-75.09792,5.39856],[-75.09786,5.39856],[-75.09779,5.39854],[-75.09776,5.39854],[-75.09771,5.3985],[-75.0977,5.39845],[-75.09767,5.3984],[-75.09763,5.39835],[-75.09759,5.39828],[-75.09749,5.39817],[-75.0974,5.39803],[-75.09737,5.39792],[-75.09736,5.39784],[-75.09734,5.39766],[-75.09734,5.39753],[-75.09735,5.39738],[-75.09738,5.39728],[-75.09741,5.3972],[-75.09745,5.3971],[-75.09751,5.397],[-75.09762,5.39691],[-75.09769,5.3969],[-75.09777,5.39691],[-75.09782,5.39694],[-75.0979,5.39706],[-75.09796,5.39718],[-75.09802,5.39725],[-75.09807,5.39732],[-75.09814,5.3974],[-75.09821,5.39745],[-75.09833,5.39749],[-75.09843,5.39751],[-75.09851,5.39752],[-75.09863,5.39749],[-75.09871,5.3975],[-75.09878,5.39756],[-75.09888,5.3976],[-75.09899,5.39768],[-75.09907,5.39773],[-75.09913,5.39778],[-75.09923,5.39779],[-75.09933,5.39779],[-75.09934,5.39773],[-75.09932,5.39768],[-75.09928,5.39764],[-75.09928,5.39756],[-75.09931,5.39753],[-75.09937,5.39751],[-75.09946,5.39759],[-75.09957,5.39768],[-75.09963,5.39776],[-75.09966,5.3978],[-75.09974,5.39782],[-75.09983,5.39781],[-75.09987,5.39776],[-75.0999,5.3977],[-75.09993,5.39768],[-75.09997,5.39765],[-75.10005,5.39765],[-75.10014,5.39764],[-75.10022,5.3976],[-75.10024,5.39758],[-75.10032,5.39755],[-75.1004,5.3975],[-75.10048,5.39738],[-75.10052,5.39729],[-75.10055,5.39721],[-75.10064,5.39715],[-75.10077,5.39712],[-75.10086,5.39709],[-75.10094,5.39706],[-75.10099,5.39701],[-75.10103,5.39698],[-75.10108,5.39697],[-75.10115,5.39697],[-75.1012,5.39693],[-75.10124,5.39689],[-75.10126,5.39686],[-75.10131,5.39662],[-75.10131,5.39636],[-75.10131,5.39621],[-75.10129,5.39612],[-75.10118,5.39605],[-75.10108,5.396],[-75.10099,5.396],[-75.10099,5.396],[-75.10085,5.396],[-75.10074,5.39601],[-75.10074,5.39601],[-75.10074,5.39601],[-75.10062,5.396],[-75.10062,5.396],[-75.10062,5.396],[-75.10051,5.39598],[-75.1005,5.39597],[-75.1005,5.39597],[-75.10049,5.39597],[-75.10037,5.39586],[-75.10036,5.39585],[-75.10036,5.39585],[-75.10026,5.39571],[-75.10012,5.39559],[-75.09998,5.39551],[-75.09997,5.39551],[-75.0999,5.39545],[-75.09979,5.39539],[-75.09979,5.39538],[-75.09978,5.39538],[-75.09978,5.39537],[-75.0997,5.39525],[-75.0997,5.39525],[-75.09959,5.39505],[-75.09959,5.39505],[-75.09959,5.39505],[-75.09958,5.39504],[-75.09956,5.39487],[-75.09956,5.39487],[-75.09956,5.39473],[-75.09955,5.39453],[-75.09951,5.39439],[-75.09951,5.39439],[-75.09947,5.39425],[-75.09947,5.39424],[-75.09947,5.39424],[-75.09944,5.39408],[-75.09935,5.39384],[-75.09935,5.39384],[-75.09932,5.39376],[-75.09932,5.39375],[-75.0993,5.39362],[-75.09925,5.3935],[-75.09925,5.3935],[-75.09925,5.39349],[-75.09924,5.39342],[-75.0992,5.39335],[-75.0991,5.39319],[-75.09897,5.39306],[-75.09879,5.39295],[-75.09879,5.39295],[-75.09878,5.39295],[-75.09878,5.39294],[-75.09878,5.39294],[-75.09877,5.39293],[-75.09875,5.39284],[-75.09867,5.39274],[-75.09867,5.39274],[-75.09867,5.39273],[-75.09867,5.39273],[-75.09867,5.39272],[-75.09867,5.39261],[-75.09863,5.39248],[-75.09863,5.39247],[-75.09861,5.39237],[-75.0986,5.39234]]]},"properties":{"OBJECTID":22,"CODDEP":"17","AREA":20.9555142194,"Tipo":"Vegetacion secundaria o en transicion","Zona":"Zona de restauración","Subzona":"Zona de restauración","Shape_Length":3119.0351688219507,"Shape_Area":209434.75374386285}},{"type":"Feature","id":23,"geometry":{"type":"Polygon","coordinates":[[[-75.10134,5.39684],[-75.10138,5.39682],[-75.10144,5.39683],[-75.10148,5.39688],[-75.10151,5.39691],[-75.10155,5.39694],[-75.1016,5.39695],[-75.10164,5.39692],[-75.10164,5.39688],[-75.10164,5.39682],[-75.10165,5.39677],[-75.10169,5.39676],[-75.10179,5.39668],[-75.10186,5.39661],[-75.1019,5.39657],[-75.10196,5.39655],[-75.10204,5.39655],[-75.10211,5.39664],[-75.10211,5.39673],[-75.10211,5.39679],[-75.10214,5.39685],[-75.1022,5.39692],[-75.10224,5.397],[-75.10228,5.39712],[-75.10232,5.39717],[-75.10243,5.39726],[-75.10246,5.39731],[-75.1025,5.39738],[-75.1025,5.39745],[-75.10256,5.39753],[-75.1026,5.39763],[-75.10262,5.39768],[-75.10263,5.39774],[-75.10263,5.39779],[-75.1026,5.39785],[-75.10258,5.39798],[-75.10258,5.39805],[-75.10258,5.39814],[-75.10258,5.39821],[-75.10253,5.39824],[-75.10244,5.39822],[-75.10238,5.39824],[-75.10228,5.3983],[-75.1022,5.39835],[-75.10215,5.39838],[-75.10211,5.39841],[-75.10204,5.39846],[-75.10192,5.39847],[-75.10184,5.39847],[-75.1018,5.39844],[-75.1018,5.39837],[-75.10178,5.39832],[-75.10176,5.39827],[-75.10175,5.39822],[-75.10172,5.39816],[-75.10169,5.39813],[-75.10167,5.39811],[-75.10163,5.39803],[-75.10158,5.39798],[-75.10153,5.39794],[-75.1015,5.39792],[-75.10145,5.39793],[-75.10145,5.39799],[-75.10153,5.39805],[-75.10158,5.39813],[-75.10163,5.3982],[-75.10163,5.39826],[-75.10164,5.39837],[-75.10164,5.39842],[-75.10162,5.39849],[-75.10161,5.39852],[-75.10163,5.39858],[-75.10165,5.39864],[-75.1017,5.39868],[-75.10176,5.3987],[-75.10183,5.39872],[-75.10186,5.39877],[-75.10188,5.39881],[-75.10188,5.39888],[-75.10183,5.39895],[-75.10172,5.39903],[-75.10162,5.39907],[-75.10149,5.39907],[-75.10144,5.39909],[-75.10165,5.39915],[-75.10178,5.3992],[-75.10192,5.39925],[-75.10208,5.3993],[-75.10226,5.39934],[-75.10243,5.3994],[-75.10253,5.39946],[-75.10257,5.39952],[-75.10259,5.39958],[-75.10259,5.39963],[-75.10258,5.39971],[-75.10257,5.39978],[-75.10256,5.39986],[-75.10252,5.39995],[-75.10247,5.40005],[-75.10243,5.40014],[-75.10237,5.40019],[-75.10229,5.40026],[-75.10216,5.40029],[-75.10202,5.4003],[-75.10188,5.40031],[-75.10177,5.40031],[-75.10168,5.40031],[-75.10158,5.40033],[-75.1015,5.40037],[-75.10143,5.40043],[-75.10132,5.40052],[-75.10128,5.40055],[-75.1012,5.40059],[-75.10109,5.40062],[-75.10102,5.40066],[-75.1013,5.40066],[-75.10154,5.40099],[-75.10172,5.40061],[-75.10205,5.40038],[-75.10247,5.40047],[-75.10289,5.40057],[-75.10322,5.40085],[-75.10327,5.40127],[-75.10317,5.40169],[-75.10341,5.40202],[-75.10341,5.40244],[-75.10303,5.40263],[-75.10289,5.40221],[-75.10247,5.40216],[-75.10209,5.40235],[-75.10181,5.40267],[-75.10163,5.40305],[-75.10191,5.40338],[-75.10209,5.40375],[-75.10233,5.40408],[-75.10275,5.40412],[-75.10308,5.40389],[-75.10308,5.40347],[-75.10341,5.40324],[-75.10373,5.403],[-75.10397,5.40333],[-75.10425,5.403],[-75.10425,5.40258],[-75.1042,5.40216],[-75.10411,5.40174],[-75.10402,5.40132],[-75.10402,5.40089],[-75.10402,5.40047],[-75.10402,5.40005],[-75.10402,5.39963],[-75.10434,5.39935],[-75.10462,5.39902],[-75.10439,5.39869],[-75.10406,5.39865],[-75.10397,5.39869],[-75.10402,5.39827],[-75.10383,5.3978],[-75.10364,5.39743],[-75.10364,5.39701],[-75.10345,5.39659],[-75.10345,5.39617],[-75.10341,5.39575],[-75.10341,5.39532],[-75.1033,5.39529],[-75.10322,5.39527],[-75.10316,5.39524],[-75.10303,5.39522],[-75.1029,5.39522],[-75.10285,5.39523],[-75.10272,5.39526],[-75.10262,5.39531],[-75.10254,5.39537],[-75.10247,5.39543],[-75.10237,5.39543],[-75.1023,5.39542],[-75.10221,5.39537],[-75.10214,5.3953],[-75.10206,5.39526],[-75.10195,5.39522],[-75.10188,5.39519],[-75.1018,5.39516],[-75.10173,5.39508],[-75.10174,5.39505],[-75.10176,5.39501],[-75.10179,5.39497],[-75.10176,5.39492],[-75.10168,5.39491],[-75.10163,5.39491],[-75.10155,5.39489],[-75.10152,5.39481],[-75.10151,5.39476],[-75.10151,5.3947],[-75.10149,5.3946],[-75.10149,5.39454],[-75.10148,5.39449],[-75.10143,5.39441],[-75.10136,5.39431],[-75.10135,5.39427],[-75.10132,5.39418],[-75.10129,5.39405],[-75.10125,5.39393],[-75.10123,5.39387],[-75.10119,5.39375],[-75.10114,5.3936],[-75.10106,5.39345],[-75.10105,5.39332],[-75.10102,5.39313],[-75.10105,5.39302],[-75.10103,5.39291],[-75.101,5.3928],[-75.10091,5.39264],[-75.10091,5.39238],[-75.10085,5.39225],[-75.1009,5.39222],[-75.10088,5.39213],[-75.10088,5.39194],[-75.10091,5.39178],[-75.10094,5.39162],[-75.10095,5.39149],[-75.10096,5.39135],[-75.101,5.39125],[-75.10098,5.39121],[-75.10078,5.39121],[-75.10061,5.39121],[-75.10049,5.39121],[-75.10036,5.39121],[-75.10019,5.39121],[-75.10001,5.39122],[-75.09987,5.39125],[-75.09964,5.39122],[-75.09955,5.39122],[-75.09947,5.39118],[-75.09929,5.39118],[-75.09885,5.39118],[-75.09874,5.39119],[-75.09845,5.39119],[-75.09818,5.39119],[-75.09825,5.39129],[-75.09834,5.39147],[-75.09836,5.39154],[-75.09839,5.39156],[-75.09845,5.39159],[-75.0985,5.39162],[-75.09854,5.39169],[-75.09857,5.39175],[-75.0986,5.39185],[-75.09865,5.39197],[-75.09865,5.39206],[-75.09865,5.39213],[-75.09868,5.39218],[-75.09865,5.39218],[-75.09865,5.39222],[-75.09865,5.39225],[-75.09868,5.39235],[-75.09868,5.39236],[-75.0987,5.39246],[-75.09874,5.3926],[-75.09874,5.3926],[-75.09874,5.39261],[-75.09874,5.39271],[-75.09881,5.39281],[-75.09881,5.39281],[-75.09881,5.39282],[-75.09884,5.3929],[-75.09901,5.393],[-75.09901,5.393],[-75.09902,5.393],[-75.09915,5.39315],[-75.09916,5.39315],[-75.09916,5.39315],[-75.09927,5.39331],[-75.09927,5.39331],[-75.09927,5.39331],[-75.09931,5.3934],[-75.09931,5.3934],[-75.09931,5.39341],[-75.09932,5.39348],[-75.09937,5.3936],[-75.09937,5.3936],[-75.09937,5.39361],[-75.09939,5.39374],[-75.09942,5.39381],[-75.09951,5.39405],[-75.09951,5.39406],[-75.09951,5.39406],[-75.09954,5.39423],[-75.09958,5.39437],[-75.09962,5.39451],[-75.09962,5.39452],[-75.09962,5.39452],[-75.09963,5.39473],[-75.09963,5.39473],[-75.09963,5.39487],[-75.09965,5.39502],[-75.09977,5.39521],[-75.09984,5.39533],[-75.09994,5.39539],[-75.09995,5.39539],[-75.10002,5.39545],[-75.10016,5.39553],[-75.10016,5.39554],[-75.10031,5.39565],[-75.10032,5.39566],[-75.10032,5.39566],[-75.10042,5.39581],[-75.10053,5.39591],[-75.10063,5.39593],[-75.10074,5.39594],[-75.10084,5.39593],[-75.10085,5.39593],[-75.10099,5.39593],[-75.10109,5.39592],[-75.10109,5.39592],[-75.1011,5.39592],[-75.1011,5.39593],[-75.10111,5.39593],[-75.10121,5.39598],[-75.10121,5.39599],[-75.10121,5.39599],[-75.10134,5.39606],[-75.10134,5.39607],[-75.10135,5.39607],[-75.10135,5.39607],[-75.10135,5.39608],[-75.10135,5.39608],[-75.10138,5.39619],[-75.10138,5.3962],[-75.10138,5.3962],[-75.10138,5.39636],[-75.10138,5.39662],[-75.10138,5.39663],[-75.10138,5.39663],[-75.10134,5.39684]],[[-75.10323,5.39945],[-75.10318,5.39944],[-75.10314,5.39943],[-75.1031,5.39942],[-75.10306,5.39939],[-75.10303,5.39936],[-75.103,5.39933],[-75.10298,5.39929],[-75.10297,5.39925],[-75.10296,5.39921],[-75.10295,5.39917],[-75.10296,5.39912],[-75.10297,5.39908],[-75.10299,5.39904],[-75.10301,5.399],[-75.10305,5.39897],[-75.10308,5.39895],[-75.10312,5.39893],[-75.10316,5.39891],[-75.1032,5.39891],[-75.10325,5.39891],[-75.10329,5.39891],[-75.10333,5.39893],[-75.10337,5.39895],[-75.1034,5.39897],[-75.10343,5.399],[-75.10346,5.39904],[-75.10348,5.39908],[-75.10349,5.39912],[-75.1035,5.39916],[-75.10349,5.39921],[-75.10348,5.39925],[-75.10347,5.39929],[-75.10345,5.39933],[-75.10342,5.39936],[-75.10339,5.39939],[-75.10335,5.39942],[-75.10331,5.39943],[-75.10327,5.39944],[-75.10323,5.39945]]]},"properties":{"OBJECTID":23,"CODDEP":"17","AREA":28.6442612508,"Tipo":"Vegetacion secundaria o en transicion","Zona":"Zona de restauración","Subzona":"Zona de restauración","Shape_Length":5215.236873000239,"Shape_Area":286278.7206587427}},{"type":"Feature","id":24,"geometry":{"type":"Polygon","coordinates":[[[-75.09853,5.39218],[-75.09846,5.39218],[-75.09837,5.39218],[-75.0982,5.39218],[-75.09809,5.39218],[-75.09804,5.39226],[-75.09797,5.39234],[-75.09785,5.39242],[-75.09778,5.39244],[-75.09753,5.39245],[-75.0974,5.39245],[-75.09732,5.39245],[-75.09716,5.39245],[-75.09714,5.39245],[-75.09715,5.39245],[-75.09722,5.39249],[-75.09735,5.39253],[-75.09746,5.3926],[-75.09756,5.39263],[-75.09767,5.39266],[-75.09781,5.3927],[-75.09791,5.39271],[-75.09797,5.39271],[-75.09808,5.39268],[-75.09815,5.39262],[-75.09821,5.39257],[-75.09825,5.39248],[-75.0983,5.39245],[-75.09836,5.39242],[-75.09841,5.39242],[-75.0985,5.3924],[-75.09855,5.39238],[-75.09858,5.39236],[-75.0986,5.39234],[-75.09857,5.39227],[-75.09853,5.39218]]]},"properties":{"OBJECTID":24,"CODDEP":"17","AREA":0.416360743893,"Tipo":"Vegetacion secundaria o en transicion","Zona":"Zona de restauración","Subzona":"Zona de restauración","Shape_Length":367.2474132089104,"Shape_Area":4161.215046820741}},{"type":"Feature","id":25,"geometry":{"type":"Polygon","coordinates":[[[-75.10118,5.39605],[-75.10129,5.39612],[-75.10131,5.39621],[-75.10131,5.39636],[-75.10131,5.39662],[-75.10126,5.39686],[-75.10124,5.39689],[-75.10118,5.39706],[-75.10118,5.39706],[-75.10118,5.39707],[-75.10117,5.3972],[-75.10114,5.39741],[-75.10114,5.39742],[-75.10114,5.39758],[-75.10112,5.39777],[-75.10112,5.39777],[-75.10112,5.39777],[-75.10115,5.39795],[-75.10115,5.39796],[-75.10117,5.39802],[-75.10121,5.398],[-75.10124,5.39799],[-75.10122,5.39794],[-75.10119,5.39777],[-75.10121,5.39758],[-75.10121,5.39758],[-75.10121,5.39742],[-75.10125,5.39721],[-75.10125,5.3972],[-75.10125,5.39708],[-75.10132,5.39689],[-75.10132,5.39689],[-75.10133,5.39688],[-75.10134,5.39684],[-75.10138,5.39663],[-75.10138,5.39663],[-75.10138,5.39662],[-75.10138,5.39636],[-75.10138,5.3962],[-75.10138,5.3962],[-75.10138,5.39619],[-75.10135,5.39608],[-75.10135,5.39608],[-75.10135,5.39607],[-75.10135,5.39607],[-75.10134,5.39607],[-75.10134,5.39606],[-75.10121,5.39599],[-75.10121,5.39599],[-75.10121,5.39598],[-75.10111,5.39593],[-75.1011,5.39593],[-75.1011,5.39592],[-75.10109,5.39592],[-75.10109,5.39592],[-75.10099,5.39593],[-75.10085,5.39593],[-75.10084,5.39593],[-75.10074,5.39594],[-75.10063,5.39593],[-75.10053,5.39591],[-75.10042,5.39581],[-75.10032,5.39566],[-75.10032,5.39566],[-75.10031,5.39565],[-75.10016,5.39554],[-75.10016,5.39553],[-75.10002,5.39545],[-75.09995,5.39539],[-75.09994,5.39539],[-75.09984,5.39533],[-75.09977,5.39521],[-75.09965,5.39502],[-75.09963,5.39487],[-75.09963,5.39473],[-75.09963,5.39473],[-75.09962,5.39452],[-75.09962,5.39452],[-75.09962,5.39451],[-75.09958,5.39437],[-75.09954,5.39423],[-75.09951,5.39406],[-75.09951,5.39406],[-75.09951,5.39405],[-75.09942,5.39381],[-75.09939,5.39374],[-75.09937,5.39361],[-75.09937,5.3936],[-75.09937,5.3936],[-75.09932,5.39348],[-75.09931,5.39341],[-75.09931,5.3934],[-75.09931,5.3934],[-75.09927,5.39331],[-75.09927,5.39331],[-75.09927,5.39331],[-75.09916,5.39315],[-75.09916,5.39315],[-75.09915,5.39315],[-75.09902,5.393],[-75.09901,5.393],[-75.09901,5.393],[-75.09884,5.3929],[-75.09881,5.39282],[-75.09881,5.39281],[-75.09881,5.39281],[-75.09874,5.39271],[-75.09874,5.39261],[-75.09874,5.3926],[-75.09874,5.3926],[-75.0987,5.39246],[-75.09868,5.39236],[-75.09868,5.39235],[-75.09865,5.39225],[-75.09865,5.39222],[-75.09865,5.39218],[-75.09861,5.39218],[-75.09858,5.39218],[-75.09853,5.39218],[-75.09857,5.39227],[-75.0986,5.39234],[-75.09861,5.39237],[-75.09863,5.39247],[-75.09863,5.39248],[-75.09867,5.39261],[-75.09867,5.39272],[-75.09867,5.39273],[-75.09867,5.39273],[-75.09867,5.39274],[-75.09867,5.39274],[-75.09875,5.39284],[-75.09877,5.39293],[-75.09878,5.39294],[-75.09878,5.39294],[-75.09878,5.39295],[-75.09879,5.39295],[-75.09879,5.39295],[-75.09897,5.39306],[-75.0991,5.39319],[-75.0992,5.39335],[-75.09924,5.39342],[-75.09925,5.39349],[-75.09925,5.3935],[-75.09925,5.3935],[-75.0993,5.39362],[-75.09932,5.39375],[-75.09932,5.39376],[-75.09935,5.39384],[-75.09935,5.39384],[-75.09944,5.39408],[-75.09947,5.39424],[-75.09947,5.39424],[-75.09947,5.39425],[-75.09951,5.39439],[-75.09951,5.39439],[-75.09955,5.39453],[-75.09956,5.39473],[-75.09956,5.39487],[-75.09956,5.39487],[-75.09958,5.39504],[-75.09959,5.39505],[-75.09959,5.39505],[-75.09959,5.39505],[-75.0997,5.39525],[-75.0997,5.39525],[-75.09978,5.39537],[-75.09978,5.39538],[-75.09979,5.39538],[-75.09979,5.39539],[-75.0999,5.39545],[-75.09997,5.39551],[-75.09998,5.39551],[-75.10012,5.39559],[-75.10026,5.39571],[-75.10036,5.39585],[-75.10036,5.39585],[-75.10037,5.39586],[-75.10049,5.39597],[-75.1005,5.39597],[-75.1005,5.39597],[-75.10051,5.39598],[-75.10062,5.396],[-75.10062,5.396],[-75.10062,5.396],[-75.10074,5.39601],[-75.10074,5.39601],[-75.10074,5.39601],[-75.10085,5.396],[-75.10099,5.396],[-75.10099,5.396],[-75.10108,5.396],[-75.10118,5.39605]]]},"properties":{"OBJECTID":25,"CODDEP":"17","AREA":0.642813114615,"Tipo":"Camino","Zona":"Zona general de uso público","Subzona":"Subzona de alta densidad de uso","Shape_Length":1623.034964115203,"Shape_Area":6424.444313769059}}]}