{"type":"FeatureCollection","name":"Zonificación Reserva El Popal","crs":{"type":"name","properties":{"name":"urn:ogc:def:crs:OGC:1.3:CRS84"}},"features":[{"type":"Feature","id":1,"geometry":{"type":"Polygon","coordinates":[[[-75.18878,5.36871],[-75.18876,5.36871],[-75.18871,5.36871],[-75.18857,5.36871],[-75.18852,5.36871],[-75.18847,5.36871],[-75.18833,5.36871],[-75.18828,5.36871],[-75.18823,5.36866],[-75.18819,5.36866],[-75.18809,5.36866],[-75.18804,5.36866],[-75.1879,5.36866],[-75.18776,5.36866],[-75.18766,5.36866],[-75.18761,5.36866],[-75.18752,5.36867],[-75.18747,5.36867],[-75.18737,5.36867],[-75.18737,5.36871],[-75.18733,5.36871],[-75.18723,5.36876],[-75.18718,5.36876],[-75.18714,5.36881],[-75.18709,5.36881],[-75.18704,5.36886],[-75.18699,5.36891],[-75.18695,5.36891],[-75.1869,5.36895],[-75.18685,5.36895],[-75.18685,5.36896],[-75.18685,5.369],[-75.18682,5.369],[-75.18677,5.36907],[-75.1867,5.36915],[-75.18663,5.36921],[-75.18656,5.36928],[-75.18656,5.36929],[-75.18652,5.36934],[-75.18647,5.36938],[-75.18642,5.36943],[-75.18642,5.36948],[-75.18637,5.36948],[-75.18637,5.36953],[-75.18628,5.36958],[-75.18628,5.36962],[-75.18623,5.36967],[-75.18618,5.36967],[-75.18618,5.36972],[-75.18614,5.36977],[-75.18604,5.36977],[-75.18599,5.36982],[-75.18594,5.36982],[-75.1859,5.36986],[-75.18585,5.36991],[-75.18581,5.36991],[-75.18578,5.36994],[-75.18571,5.37001],[-75.18567,5.37003],[-75.18562,5.37006],[-75.18554,5.37014],[-75.18547,5.37019],[-75.18533,5.37034],[-75.18523,5.37045],[-75.18518,5.3705],[-75.18518,5.37054],[-75.18518,5.37063],[-75.18518,5.37068],[-75.18518,5.37073],[-75.18518,5.37077],[-75.18518,5.37087],[-75.18518,5.37092],[-75.18533,5.37111],[-75.18542,5.37116],[-75.18547,5.37116],[-75.18547,5.3712],[-75.18552,5.3712],[-75.18556,5.3712],[-75.18561,5.3712],[-75.18561,5.37125],[-75.18571,5.37125],[-75.18576,5.3713],[-75.18585,5.3713],[-75.1859,5.3713],[-75.18595,5.3713],[-75.18599,5.3713],[-75.18609,5.37135],[-75.18609,5.37139],[-75.18614,5.37139],[-75.18623,5.37149],[-75.18633,5.37154],[-75.18638,5.37154],[-75.18643,5.37178],[-75.18643,5.37182],[-75.18643,5.37187],[-75.18643,5.37197],[-75.18652,5.37206],[-75.18666,5.37216],[-75.18671,5.37221],[-75.18676,5.37225],[-75.18686,5.37225],[-75.18686,5.3723],[-75.1869,5.37235],[-75.18695,5.37235],[-75.18695,5.3724],[-75.187,5.3724],[-75.18701,5.37241],[-75.18739,5.37238],[-75.18739,5.37238],[-75.18776,5.37238],[-75.18776,5.3723],[-75.18776,5.37225],[-75.18776,5.37221],[-75.18776,5.37216],[-75.18776,5.37211],[-75.18776,5.37201],[-75.18776,5.37197],[-75.18776,5.37187],[-75.18767,5.37177],[-75.18767,5.37173],[-75.18767,5.37168],[-75.18762,5.37168],[-75.18762,5.37163],[-75.18752,5.37154],[-75.18738,5.37146],[-75.18733,5.37144],[-75.18724,5.37139],[-75.18719,5.37139],[-75.18719,5.37134],[-75.18714,5.37135],[-75.18714,5.3713],[-75.18714,5.37125],[-75.18714,5.37115],[-75.18714,5.37111],[-75.18714,5.37106],[-75.18719,5.37101],[-75.18724,5.37101],[-75.18733,5.37101],[-75.18737,5.37097],[-75.18738,5.37096],[-75.18743,5.37096],[-75.18747,5.37096],[-75.18752,5.37096],[-75.18766,5.37091],[-75.18765,5.37091],[-75.18761,5.37084],[-75.18757,5.37057],[-75.18767,5.37043],[-75.18795,5.3704],[-75.188,5.37029],[-75.188,5.37029],[-75.18805,5.37029],[-75.18809,5.37029],[-75.18819,5.37029],[-75.18824,5.37029],[-75.18833,5.37029],[-75.18862,5.37029],[-75.18871,5.37029],[-75.18886,5.37029],[-75.1889,5.37029],[-75.18895,5.37029],[-75.189,5.37029],[-75.18905,5.37029],[-75.18919,5.37034],[-75.18924,5.37034],[-75.18929,5.37034],[-75.18938,5.37034],[-75.18938,5.37038],[-75.18948,5.37043],[-75.18953,5.37048],[-75.18957,5.37053],[-75.18962,5.37058],[-75.18967,5.37067],[-75.18972,5.37072],[-75.18976,5.37086],[-75.18977,5.37091],[-75.18981,5.37096],[-75.18986,5.37101],[-75.1899,5.37105],[-75.18989,5.37096],[-75.18989,5.37096],[-75.18986,5.37071],[-75.18975,5.37052],[-75.18974,5.37052],[-75.18966,5.37034],[-75.18966,5.37033],[-75.18966,5.37033],[-75.18964,5.37014],[-75.18957,5.36996],[-75.18956,5.36995],[-75.18952,5.3699],[-75.18934,5.36968],[-75.18912,5.36956],[-75.18912,5.36956],[-75.18891,5.3694],[-75.18891,5.36939],[-75.1889,5.36939],[-75.1889,5.36939],[-75.18881,5.36924],[-75.18881,5.36923],[-75.18881,5.36923],[-75.1888,5.36923],[-75.18879,5.36902],[-75.18879,5.36902],[-75.18879,5.36878],[-75.18878,5.36871]]]},"properties":{"OBJECTID":1,"CODDEP":"17","AREA":9.98285754396,"PERIMETER":4854.14442798,"Shape_Leng":4854.14442798,"Tipo":"Vegetacion secundaria o en transicion","Zona":"Zona de restauración","Subzona":"Zona de restauración","Shape_Length":1857.5722652507777,"Shape_Area":99777.05271782915}},{"type":"Feature","id":2,"geometry":{"type":"Polygon","coordinates":[[[-75.18944,5.37541],[-75.18934,5.37546],[-75.1893,5.37555],[-75.1893,5.3756],[-75.1893,5.37565],[-75.1893,5.37565],[-75.18954,5.37573],[-75.18987,5.37572],[-75.19016,5.37558],[-75.19038,5.37545],[-75.19058,5.3754],[-75.19063,5.37541],[-75.19063,5.37541],[-75.19063,5.37536],[-75.19063,5.37526],[-75.19063,5.37521],[-75.19063,5.37512],[-75.19063,5.37493],[-75.19063,5.37488],[-75.19063,5.37483],[-75.19063,5.37469],[-75.19063,5.37464],[-75.19063,5.37459],[-75.19063,5.37454],[-75.19063,5.3745],[-75.19063,5.37443],[-75.1906,5.37445],[-75.19056,5.37447],[-75.19052,5.37448],[-75.19047,5.3745],[-75.19042,5.3745],[-75.19038,5.37451],[-75.19035,5.37451],[-75.1903,5.3745],[-75.19024,5.37449],[-75.19019,5.37447],[-75.19014,5.37444],[-75.1901,5.37441],[-75.19006,5.37437],[-75.19002,5.37433],[-75.18999,5.37428],[-75.18997,5.37424],[-75.18995,5.37418],[-75.18993,5.37413],[-75.18993,5.37408],[-75.18993,5.37402],[-75.18994,5.37397],[-75.18995,5.37391],[-75.18997,5.37386],[-75.19,5.37381],[-75.19003,5.37377],[-75.19007,5.37373],[-75.19008,5.37372],[-75.19004,5.3736],[-75.19004,5.3736],[-75.19001,5.3735],[-75.19001,5.37349],[-75.18996,5.37345],[-75.18996,5.3734],[-75.18991,5.3734],[-75.18986,5.37335],[-75.18977,5.3733],[-75.18967,5.37325],[-75.18934,5.37306],[-75.18929,5.37306],[-75.18924,5.37306],[-75.1892,5.37306],[-75.18915,5.37306],[-75.1891,5.37306],[-75.18877,5.37292],[-75.18877,5.37287],[-75.18867,5.37283],[-75.18867,5.37278],[-75.18862,5.37268],[-75.18857,5.37263],[-75.18853,5.37254],[-75.18843,5.37249],[-75.18843,5.37245],[-75.18805,5.37241],[-75.18776,5.37241],[-75.18776,5.37244],[-75.18781,5.37244],[-75.18781,5.37254],[-75.18781,5.37259],[-75.18786,5.37259],[-75.18786,5.37264],[-75.18791,5.37264],[-75.18795,5.37268],[-75.188,5.37268],[-75.1881,5.37283],[-75.1881,5.37287],[-75.18815,5.37287],[-75.18819,5.37292],[-75.18824,5.37297],[-75.18824,5.37302],[-75.18829,5.37302],[-75.18834,5.37311],[-75.18838,5.37316],[-75.18838,5.37321],[-75.18843,5.37321],[-75.18848,5.37321],[-75.18853,5.37321],[-75.18858,5.37326],[-75.18862,5.3733],[-75.18867,5.37335],[-75.18872,5.37335],[-75.18877,5.3734],[-75.18877,5.37345],[-75.18877,5.3735],[-75.18877,5.37354],[-75.18877,5.37359],[-75.18877,5.37364],[-75.18877,5.37369],[-75.18877,5.37373],[-75.18877,5.37378],[-75.18882,5.37383],[-75.18886,5.37393],[-75.18891,5.37402],[-75.18891,5.37407],[-75.18905,5.37407],[-75.1891,5.37407],[-75.18915,5.37412],[-75.18944,5.37421],[-75.18948,5.37421],[-75.18953,5.37426],[-75.18958,5.37426],[-75.18963,5.37431],[-75.18968,5.37435],[-75.18968,5.3744],[-75.18972,5.37445],[-75.18972,5.3745],[-75.18972,5.37455],[-75.18972,5.37459],[-75.18972,5.37464],[-75.18972,5.37474],[-75.18972,5.37483],[-75.18968,5.37488],[-75.18968,5.37498],[-75.18968,5.37507],[-75.18963,5.37517],[-75.18953,5.37522],[-75.18953,5.37526],[-75.18949,5.37531],[-75.18949,5.37536],[-75.18944,5.37536],[-75.18944,5.37541]]]},"properties":{"OBJECTID":2,"CODDEP":"17","AREA":3.64588547513,"PERIMETER":2128.51013424,"Shape_Leng":2128.51013424,"Tipo":"Vegetacion secundaria o en transicion","Zona":"Zona de restauración","Subzona":"Zona de restauración","Shape_Length":1274.0064967571868,"Shape_Area":36440.08515847337}},{"type":"Feature","id":3,"geometry":{"type":"Polygon","coordinates":[[[-75.19063,5.37443],[-75.19067,5.3744],[-75.19071,5.37436],[-75.19075,5.37431],[-75.19078,5.37427],[-75.1908,5.37422],[-75.19082,5.37416],[-75.19083,5.37411],[-75.19083,5.37405],[-75.19083,5.374],[-75.19082,5.37394],[-75.1908,5.37389],[-75.19078,5.37384],[-75.19075,5.37379],[-75.19071,5.37375],[-75.19067,5.37371],[-75.19063,5.37368],[-75.19058,5.37365],[-75.19053,5.37363],[-75.19047,5.37361],[-75.19042,5.3736],[-75.19036,5.3736],[-75.19031,5.37361],[-75.19025,5.37362],[-75.1902,5.37364],[-75.19015,5.37366],[-75.19011,5.37369],[-75.19007,5.37373],[-75.19003,5.37377],[-75.19,5.37381],[-75.18997,5.37386],[-75.18995,5.37391],[-75.18994,5.37397],[-75.18993,5.37402],[-75.18993,5.37408],[-75.18993,5.37413],[-75.18995,5.37418],[-75.18997,5.37424],[-75.18999,5.37428],[-75.19002,5.37433],[-75.19006,5.37437],[-75.1901,5.37441],[-75.19014,5.37444],[-75.19019,5.37447],[-75.19024,5.37449],[-75.1903,5.3745],[-75.19035,5.37451],[-75.19038,5.37451],[-75.19042,5.3745],[-75.19047,5.3745],[-75.19052,5.37448],[-75.19056,5.37447],[-75.1906,5.37445],[-75.19063,5.37443]]]},"properties":{"OBJECTID":3,"CODDEP":"17","AREA":0.78351300307,"PERIMETER":4854.14442798,"Shape_Leng":4854.14442798,"Tipo":"Area de influencia vivienda","Zona":"Zona general de uso público","Subzona":"Subzona para la recreación","Shape_Length":313.889895615428,"Shape_Area":7831.100326023493}},{"type":"Feature","id":4,"geometry":{"type":"Polygon","coordinates":[[[-75.18682,5.369],[-75.18685,5.369],[-75.18685,5.36896],[-75.18682,5.369]]]},"properties":{"OBJECTID":4,"CODDEP":"17","AREA":0.00094387757162,"PERIMETER":1026298.95091,"Shape_Leng":1026298.95082,"Tipo":"Bosque denso alto de tierra firme","Zona":"Zona de preservación","Subzona":"Zona de preservación","Shape_Length":14.98863583423475,"Shape_Area":9.433824716865654}},{"type":"Feature","id":5,"geometry":{"type":"Polygon","coordinates":[[[-75.18648,5.36936],[-75.18633,5.36949],[-75.18608,5.36969],[-75.18591,5.36982],[-75.18584,5.36989],[-75.18581,5.36991],[-75.18585,5.36991],[-75.1859,5.36986],[-75.18594,5.36982],[-75.18599,5.36982],[-75.18604,5.36977],[-75.18614,5.36977],[-75.18618,5.36972],[-75.18618,5.36967],[-75.18623,5.36967],[-75.18628,5.36962],[-75.18628,5.36958],[-75.18637,5.36953],[-75.18637,5.36948],[-75.18642,5.36948],[-75.18642,5.36943],[-75.18647,5.36938],[-75.18652,5.36934],[-75.18656,5.36929],[-75.18656,5.36928],[-75.18648,5.36936]]]},"properties":{"OBJECTID":5,"CODDEP":"17","AREA":0.0492707381104,"PERIMETER":1026298.95091,"Shape_Leng":1026298.95082,"Tipo":"Bosque denso alto de tierra firme","Zona":"Zona de preservación","Subzona":"Zona de preservación","Shape_Length":233.9391441902522,"Shape_Area":492.45038887771665}},{"type":"Feature","id":6,"geometry":{"type":"Polygon","coordinates":[[[-75.18569,5.37001],[-75.18567,5.37003],[-75.18571,5.37001],[-75.18578,5.36994],[-75.18569,5.37001]]]},"properties":{"OBJECTID":6,"CODDEP":"17","AREA":0.000805075014484,"PERIMETER":1026298.95091,"Shape_Leng":1026298.95082,"Tipo":"Bosque denso alto de tierra firme","Zona":"Zona de preservación","Subzona":"Zona de preservación","Shape_Length":31.150731276218348,"Shape_Area":8.046581509450847}},{"type":"Feature","id":7,"geometry":{"type":"Polygon","coordinates":[[[-75.18701,5.37241],[-75.187,5.3724],[-75.18695,5.3724],[-75.18695,5.37235],[-75.1869,5.37235],[-75.18686,5.3723],[-75.18686,5.37225],[-75.18676,5.37225],[-75.18671,5.37221],[-75.18666,5.37216],[-75.18652,5.37206],[-75.18643,5.37197],[-75.18643,5.37187],[-75.18643,5.37182],[-75.18643,5.37178],[-75.18638,5.37154],[-75.18633,5.37154],[-75.18623,5.37149],[-75.18614,5.37139],[-75.18609,5.37139],[-75.18609,5.37135],[-75.18599,5.3713],[-75.18595,5.3713],[-75.1859,5.3713],[-75.18585,5.3713],[-75.18576,5.3713],[-75.18571,5.37125],[-75.18561,5.37125],[-75.18561,5.3712],[-75.18556,5.3712],[-75.18552,5.3712],[-75.18547,5.3712],[-75.18547,5.37116],[-75.18542,5.37116],[-75.18533,5.37111],[-75.18518,5.37092],[-75.18518,5.37087],[-75.18518,5.37077],[-75.18518,5.37073],[-75.18518,5.37068],[-75.18518,5.37063],[-75.18518,5.37054],[-75.18518,5.3705],[-75.18511,5.37058],[-75.18497,5.37074],[-75.18482,5.3709],[-75.18468,5.37103],[-75.1846,5.37111],[-75.18451,5.37119],[-75.18443,5.37127],[-75.18434,5.37134],[-75.18451,5.37154],[-75.18467,5.37187],[-75.18485,5.37215],[-75.18506,5.37237],[-75.18531,5.37248],[-75.18544,5.37255],[-75.18547,5.37274],[-75.18592,5.37267],[-75.18652,5.37245],[-75.18653,5.37245],[-75.18653,5.37245],[-75.18701,5.37241]]]},"properties":{"OBJECTID":7,"CODDEP":"17","AREA":3.22248304804,"PERIMETER":1026298.95091,"Shape_Leng":1026298.95082,"Tipo":"Bosque denso alto de tierra firme","Zona":"Zona de preservación","Subzona":"Zona de preservación","Shape_Length":868.0400024884252,"Shape_Area":32208.162136581752}},{"type":"Feature","id":8,"geometry":{"type":"Polygon","coordinates":[[[-75.18584,5.37482],[-75.18602,5.37479],[-75.18626,5.37475],[-75.1864,5.37476],[-75.18661,5.37482],[-75.18665,5.37482],[-75.18662,5.37479],[-75.18662,5.37474],[-75.18653,5.3746],[-75.18653,5.37455],[-75.18653,5.3745],[-75.18648,5.37446],[-75.18633,5.37436],[-75.18629,5.37431],[-75.18629,5.37427],[-75.18624,5.37427],[-75.18619,5.37422],[-75.18614,5.37422],[-75.1861,5.37417],[-75.186,5.37412],[-75.18586,5.37412],[-75.18581,5.37412],[-75.18581,5.37407],[-75.18576,5.37407],[-75.18572,5.37407],[-75.18575,5.37426],[-75.18579,5.37452],[-75.18584,5.37482]]]},"properties":{"OBJECTID":8,"CODDEP":"17","AREA":0.508213965584,"PERIMETER":1026298.95091,"Shape_Leng":1026298.95082,"Tipo":"Bosque denso alto de tierra firme","Zona":"Zona de preservación","Subzona":"Zona de preservación","Shape_Length":326.9682083567396,"Shape_Area":5079.514161164335}},{"type":"Feature","id":9,"geometry":{"type":"Polygon","coordinates":[[[-75.19006,5.37353],[-75.19015,5.37359],[-75.1902,5.37364],[-75.1902,5.37364],[-75.19025,5.37362],[-75.19031,5.37361],[-75.19036,5.3736],[-75.19042,5.3736],[-75.19047,5.37361],[-75.19053,5.37363],[-75.19058,5.37365],[-75.19063,5.37368],[-75.19067,5.37371],[-75.19071,5.37375],[-75.19075,5.37379],[-75.19078,5.37384],[-75.1908,5.37389],[-75.19082,5.37394],[-75.19083,5.374],[-75.19083,5.37405],[-75.19083,5.37411],[-75.19082,5.37416],[-75.1908,5.37422],[-75.19078,5.37427],[-75.19075,5.37431],[-75.19071,5.37436],[-75.19067,5.3744],[-75.19063,5.37443],[-75.19063,5.3745],[-75.19063,5.37454],[-75.19063,5.37459],[-75.19063,5.37464],[-75.19063,5.37469],[-75.19063,5.37483],[-75.19063,5.37488],[-75.19063,5.37493],[-75.19063,5.37512],[-75.19063,5.37521],[-75.19063,5.37526],[-75.19063,5.37536],[-75.19063,5.37541],[-75.19063,5.37541],[-75.19091,5.3755],[-75.19125,5.37564],[-75.19147,5.37562],[-75.19171,5.37553],[-75.19187,5.37549],[-75.19241,5.37545],[-75.19282,5.37544],[-75.19307,5.37537],[-75.19319,5.37523],[-75.19325,5.37509],[-75.19333,5.37501],[-75.19342,5.37496],[-75.19367,5.37494],[-75.19414,5.37493],[-75.19451,5.37494],[-75.19481,5.37491],[-75.19512,5.37483],[-75.19546,5.37468],[-75.19572,5.37453],[-75.19588,5.37449],[-75.1961,5.37448],[-75.19628,5.37447],[-75.19644,5.37459],[-75.1966,5.37477],[-75.19672,5.37479],[-75.19693,5.3749],[-75.19707,5.3749],[-75.1972,5.37481],[-75.19737,5.37478],[-75.19748,5.37486],[-75.19758,5.37511],[-75.19762,5.37533],[-75.19771,5.37551],[-75.19784,5.37568],[-75.19794,5.37578],[-75.19809,5.37581],[-75.19821,5.37593],[-75.1983,5.37612],[-75.19839,5.37626],[-75.19852,5.37638],[-75.19864,5.3764],[-75.19885,5.376],[-75.1991,5.37545],[-75.19913,5.37504],[-75.19908,5.37464],[-75.19901,5.37433],[-75.19892,5.37401],[-75.19882,5.37379],[-75.19875,5.37356],[-75.19867,5.37336],[-75.19865,5.37312],[-75.19871,5.37283],[-75.19881,5.37233],[-75.19895,5.37176],[-75.19904,5.37131],[-75.19911,5.37088],[-75.19917,5.37052],[-75.19918,5.37012],[-75.19919,5.36965],[-75.19921,5.36923],[-75.19922,5.36876],[-75.19923,5.3683],[-75.19924,5.36801],[-75.19921,5.36772],[-75.19929,5.36746],[-75.19941,5.36726],[-75.19957,5.36708],[-75.19971,5.36687],[-75.19985,5.36673],[-75.19996,5.36656],[-75.20009,5.36629],[-75.20023,5.36591],[-75.2003,5.36558],[-75.20034,5.36529],[-75.20023,5.36501],[-75.20008,5.36457],[-75.2,5.36438],[-75.19995,5.36409],[-75.20002,5.3638],[-75.20009,5.3636],[-75.20014,5.3633],[-75.2003,5.36292],[-75.20048,5.36257],[-75.20072,5.36209],[-75.2008,5.36185],[-75.20097,5.3615],[-75.20113,5.36128],[-75.20123,5.36103],[-75.20135,5.36068],[-75.20139,5.3605],[-75.20139,5.36034],[-75.20172,5.36025],[-75.20194,5.36015],[-75.20217,5.35991],[-75.20234,5.35976],[-75.20243,5.3596],[-75.20253,5.35933],[-75.20254,5.35911],[-75.20255,5.35883],[-75.20249,5.35848],[-75.20234,5.35812],[-75.20218,5.35781],[-75.20199,5.35763],[-75.20183,5.35738],[-75.20157,5.35723],[-75.2014,5.35713],[-75.20128,5.35706],[-75.20121,5.35701],[-75.20122,5.35692],[-75.20129,5.35674],[-75.20136,5.35649],[-75.20141,5.35639],[-75.20139,5.35626],[-75.20022,5.35608],[-75.19975,5.35589],[-75.19953,5.35584],[-75.19939,5.35574],[-75.19919,5.35567],[-75.19878,5.35656],[-75.19863,5.35709],[-75.19851,5.35751],[-75.19844,5.35769],[-75.1984,5.35781],[-75.19826,5.35798],[-75.19807,5.35817],[-75.1978,5.35833],[-75.19753,5.35853],[-75.1973,5.35874],[-75.19712,5.35888],[-75.19685,5.35899],[-75.19655,5.35909],[-75.19637,5.35916],[-75.19607,5.3593],[-75.1959,5.3594],[-75.19551,5.35983],[-75.19536,5.36005],[-75.19509,5.36042],[-75.19502,5.36048],[-75.19493,5.36056],[-75.1948,5.36061],[-75.1946,5.36068],[-75.19445,5.36074],[-75.19433,5.36076],[-75.19421,5.3608],[-75.19399,5.36082],[-75.19366,5.36083],[-75.19348,5.36087],[-75.19321,5.36096],[-75.19311,5.36098],[-75.19294,5.36104],[-75.19281,5.36107],[-75.19272,5.36111],[-75.19261,5.36116],[-75.19252,5.36121],[-75.19245,5.36127],[-75.19236,5.36132],[-75.19229,5.36138],[-75.1922,5.36144],[-75.19204,5.3616],[-75.19198,5.36169],[-75.19191,5.36177],[-75.19186,5.36184],[-75.19179,5.36192],[-75.19171,5.36201],[-75.19162,5.36212],[-75.19156,5.3622],[-75.19151,5.36228],[-75.19138,5.36244],[-75.1913,5.36255],[-75.19123,5.36264],[-75.19119,5.36271],[-75.19113,5.3628],[-75.19108,5.3629],[-75.19103,5.363],[-75.191,5.36309],[-75.19096,5.36317],[-75.1909,5.36336],[-75.19087,5.36345],[-75.19083,5.36355],[-75.1908,5.36366],[-75.19075,5.36378],[-75.19072,5.36388],[-75.19066,5.36405],[-75.19059,5.36423],[-75.19056,5.36432],[-75.1905,5.36452],[-75.19047,5.36462],[-75.19044,5.36471],[-75.19041,5.36482],[-75.19039,5.3649],[-75.19038,5.36499],[-75.19034,5.36508],[-75.19031,5.3652],[-75.19028,5.3653],[-75.19026,5.36539],[-75.19024,5.36548],[-75.19021,5.36557],[-75.19019,5.36567],[-75.19017,5.36577],[-75.19014,5.36585],[-75.19011,5.36595],[-75.19008,5.36605],[-75.19006,5.36614],[-75.19002,5.36624],[-75.18997,5.36632],[-75.18991,5.36639],[-75.18984,5.36645],[-75.18976,5.3665],[-75.18965,5.36653],[-75.18956,5.36655],[-75.18947,5.36656],[-75.18929,5.36657],[-75.1892,5.36659],[-75.18912,5.36663],[-75.18903,5.36669],[-75.18896,5.36677],[-75.18889,5.36686],[-75.18878,5.367],[-75.18871,5.36708],[-75.18867,5.36716],[-75.18862,5.36725],[-75.18856,5.36733],[-75.18852,5.36741],[-75.18845,5.3675],[-75.18838,5.36757],[-75.18832,5.36763],[-75.18827,5.36768],[-75.18834,5.36773],[-75.18834,5.36773],[-75.18835,5.36773],[-75.18835,5.36774],[-75.18835,5.36774],[-75.18842,5.36804],[-75.1885,5.36831],[-75.18871,5.36846],[-75.18871,5.36846],[-75.18872,5.36846],[-75.18878,5.36853],[-75.18878,5.36853],[-75.18878,5.36854],[-75.18878,5.36854],[-75.18881,5.36871],[-75.18885,5.36871],[-75.1889,5.36871],[-75.18895,5.36871],[-75.18905,5.36871],[-75.18914,5.36871],[-75.18938,5.36871],[-75.18947,5.36871],[-75.18952,5.36871],[-75.18995,5.36871],[-75.19,5.36871],[-75.19005,5.36871],[-75.1901,5.36876],[-75.19019,5.36876],[-75.19029,5.36879],[-75.19029,5.36885],[-75.19029,5.3689],[-75.19029,5.36895],[-75.19029,5.36904],[-75.19029,5.36914],[-75.19029,5.36919],[-75.19029,5.36928],[-75.19029,5.36933],[-75.19029,5.36938],[-75.19029,5.36943],[-75.19029,5.36947],[-75.19034,5.36957],[-75.19043,5.36962],[-75.19043,5.36971],[-75.19048,5.36981],[-75.19048,5.36986],[-75.19048,5.36995],[-75.19048,5.37005],[-75.19048,5.3701],[-75.19048,5.37019],[-75.19048,5.37038],[-75.19048,5.37043],[-75.19048,5.37053],[-75.19048,5.37057],[-75.19048,5.37067],[-75.19048,5.37072],[-75.19048,5.37081],[-75.19048,5.37091],[-75.19048,5.37096],[-75.19048,5.371],[-75.19043,5.37105],[-75.19043,5.3711],[-75.19039,5.37115],[-75.19029,5.37115],[-75.19024,5.37115],[-75.19024,5.3712],[-75.1902,5.3712],[-75.19015,5.3712],[-75.1901,5.3712],[-75.19005,5.37115],[-75.19,5.37115],[-75.19,5.3711],[-75.18995,5.37107],[-75.19009,5.37128],[-75.19009,5.37128],[-75.19011,5.3713],[-75.19013,5.37133],[-75.19017,5.37141],[-75.19033,5.37165],[-75.19033,5.37165],[-75.19033,5.37165],[-75.19041,5.37184],[-75.19041,5.37184],[-75.19041,5.37185],[-75.19043,5.37198],[-75.19043,5.37198],[-75.19043,5.37199],[-75.19043,5.37199],[-75.19035,5.37224],[-75.19026,5.37255],[-75.19026,5.37256],[-75.19026,5.37256],[-75.19002,5.37293],[-75.19,5.37307],[-75.19003,5.37341],[-75.19006,5.37353]]]},"properties":{"OBJECTID":9,"CODDEP":"17","AREA":190.732866324,"PERIMETER":1026298.95091,"Shape_Leng":1026298.95082,"Tipo":"Bosque denso alto de tierra firme","Zona":"Zona de preservación","Subzona":"Zona de preservación","Shape_Length":6909.054853461995,"Shape_Area":1906354.669146978}},{"type":"Feature","id":10,"geometry":{"type":"Polygon","coordinates":[[[-75.18704,5.37244],[-75.18705,5.37245],[-75.18705,5.37249],[-75.18705,5.37254],[-75.18705,5.37264],[-75.18705,5.37268],[-75.18705,5.37273],[-75.1869,5.37283],[-75.18676,5.37288],[-75.18671,5.37288],[-75.18662,5.37288],[-75.18657,5.37288],[-75.18652,5.37288],[-75.18647,5.37288],[-75.18643,5.37288],[-75.18638,5.37288],[-75.18633,5.37288],[-75.18628,5.37288],[-75.18624,5.37288],[-75.18619,5.37288],[-75.18614,5.37293],[-75.18605,5.37302],[-75.186,5.37302],[-75.18595,5.37307],[-75.1859,5.37312],[-75.1859,5.37317],[-75.18581,5.37321],[-75.18576,5.37336],[-75.18571,5.3734],[-75.18566,5.3735],[-75.18562,5.3735],[-75.18557,5.37355],[-75.18556,5.37355],[-75.18571,5.37402],[-75.18572,5.37407],[-75.18576,5.37407],[-75.18581,5.37407],[-75.18581,5.37412],[-75.18586,5.37412],[-75.186,5.37412],[-75.1861,5.37417],[-75.18614,5.37422],[-75.18619,5.37422],[-75.18624,5.37427],[-75.18629,5.37427],[-75.18629,5.37431],[-75.18633,5.37436],[-75.18648,5.37446],[-75.18653,5.3745],[-75.18653,5.37455],[-75.18653,5.3746],[-75.18662,5.37474],[-75.18662,5.37479],[-75.18665,5.37482],[-75.18674,5.37482],[-75.18698,5.37476],[-75.1872,5.37477],[-75.18758,5.375],[-75.1879,5.37518],[-75.18819,5.37535],[-75.18836,5.37543],[-75.18865,5.37548],[-75.18909,5.37558],[-75.18927,5.37564],[-75.1893,5.37565],[-75.1893,5.37565],[-75.1893,5.3756],[-75.1893,5.37555],[-75.18934,5.37546],[-75.18944,5.37541],[-75.18944,5.37536],[-75.18949,5.37536],[-75.18949,5.37531],[-75.18953,5.37526],[-75.18953,5.37522],[-75.18963,5.37517],[-75.18968,5.37507],[-75.18968,5.37498],[-75.18968,5.37488],[-75.18972,5.37483],[-75.18972,5.37474],[-75.18972,5.37464],[-75.18972,5.37459],[-75.18972,5.37455],[-75.18972,5.3745],[-75.18972,5.37445],[-75.18968,5.3744],[-75.18968,5.37435],[-75.18963,5.37431],[-75.18958,5.37426],[-75.18953,5.37426],[-75.18948,5.37421],[-75.18944,5.37421],[-75.18915,5.37412],[-75.1891,5.37407],[-75.18905,5.37407],[-75.18891,5.37407],[-75.18891,5.37402],[-75.18886,5.37393],[-75.18882,5.37383],[-75.18877,5.37378],[-75.18877,5.37373],[-75.18877,5.37369],[-75.18877,5.37364],[-75.18877,5.37359],[-75.18877,5.37354],[-75.18877,5.3735],[-75.18877,5.37345],[-75.18877,5.3734],[-75.18872,5.37335],[-75.18867,5.37335],[-75.18862,5.3733],[-75.18858,5.37326],[-75.18853,5.37321],[-75.18848,5.37321],[-75.18843,5.37321],[-75.18838,5.37321],[-75.18838,5.37316],[-75.18834,5.37311],[-75.18829,5.37302],[-75.18824,5.37302],[-75.18824,5.37297],[-75.18819,5.37292],[-75.18815,5.37287],[-75.1881,5.37287],[-75.1881,5.37283],[-75.188,5.37268],[-75.18795,5.37268],[-75.18791,5.37264],[-75.18786,5.37264],[-75.18786,5.37259],[-75.18781,5.37259],[-75.18781,5.37254],[-75.18781,5.37244],[-75.18776,5.37244],[-75.18776,5.37241],[-75.18739,5.37241],[-75.18704,5.37244]]]},"properties":{"OBJECTID":10,"CODDEP":"17","AREA":9.11954294419,"PERIMETER":4854.14442798,"Shape_Leng":4854.14442798,"Tipo":"Vegetacion secundaria o en transicion","Zona":"Zona de restauración","Subzona":"Zona de restauración","Shape_Length":1377.8795445547537,"Shape_Area":91148.38573023886}},{"type":"Feature","id":11,"geometry":{"type":"Polygon","coordinates":[[[-75.18548,5.37278],[-75.18548,5.37282],[-75.18549,5.37318],[-75.18555,5.37351],[-75.18556,5.37355],[-75.18557,5.37355],[-75.18562,5.3735],[-75.18566,5.3735],[-75.18571,5.3734],[-75.18576,5.37336],[-75.18581,5.37321],[-75.1859,5.37317],[-75.1859,5.37312],[-75.18595,5.37307],[-75.186,5.37302],[-75.18605,5.37302],[-75.18614,5.37293],[-75.18619,5.37288],[-75.18624,5.37288],[-75.18628,5.37288],[-75.18633,5.37288],[-75.18638,5.37288],[-75.18643,5.37288],[-75.18647,5.37288],[-75.18652,5.37288],[-75.18657,5.37288],[-75.18662,5.37288],[-75.18671,5.37288],[-75.18676,5.37288],[-75.1869,5.37283],[-75.18705,5.37273],[-75.18705,5.37268],[-75.18705,5.37264],[-75.18705,5.37254],[-75.18705,5.37249],[-75.18705,5.37245],[-75.18704,5.37244],[-75.18653,5.37249],[-75.18594,5.3727],[-75.18593,5.3727],[-75.18548,5.37278]]]},"properties":{"OBJECTID":11,"CODDEP":"17","AREA":0.81278936074,"PERIMETER":1026298.95091,"Shape_Leng":1026298.95082,"Tipo":"Bosque denso alto de tierra firme","Zona":"Zona de preservación","Subzona":"Zona de preservación","Shape_Length":506.33014120169224,"Shape_Area":8123.687013172019}},{"type":"Feature","id":12,"geometry":{"type":"Polygon","coordinates":[[[-75.18843,5.37245],[-75.18843,5.37249],[-75.18853,5.37254],[-75.18857,5.37263],[-75.18862,5.37268],[-75.18867,5.37278],[-75.18867,5.37283],[-75.18877,5.37287],[-75.18877,5.37292],[-75.1891,5.37306],[-75.18915,5.37306],[-75.1892,5.37306],[-75.18924,5.37306],[-75.18929,5.37306],[-75.18934,5.37306],[-75.18967,5.37325],[-75.18977,5.3733],[-75.18986,5.37335],[-75.18991,5.3734],[-75.18996,5.3734],[-75.18996,5.37345],[-75.19001,5.37349],[-75.19001,5.3735],[-75.18999,5.37341],[-75.18999,5.37341],[-75.18999,5.37341],[-75.18996,5.37307],[-75.18996,5.37307],[-75.18996,5.37306],[-75.18998,5.37292],[-75.18998,5.37292],[-75.18999,5.37285],[-75.18992,5.37261],[-75.18973,5.37252],[-75.18952,5.37251],[-75.18952,5.37251],[-75.18904,5.37245],[-75.18846,5.37245],[-75.18846,5.37245],[-75.18843,5.37245]]]},"properties":{"OBJECTID":12,"CODDEP":"17","AREA":1.03463699153,"PERIMETER":1026298.95091,"Shape_Leng":1026298.95082,"Tipo":"Bosque denso alto de tierra firme","Zona":"Zona de preservación","Subzona":"Zona de preservación","Shape_Length":496.83307560073905,"Shape_Area":10341.040764086394}},{"type":"Feature","id":13,"geometry":{"type":"Polygon","coordinates":[[[-75.18776,5.37238],[-75.18805,5.37238],[-75.18805,5.37238],[-75.18843,5.37242],[-75.18843,5.3724],[-75.18843,5.37235],[-75.18843,5.37225],[-75.18838,5.3722],[-75.18834,5.37211],[-75.18834,5.37206],[-75.18833,5.37196],[-75.18833,5.37192],[-75.18833,5.37187],[-75.18833,5.37177],[-75.18833,5.37173],[-75.18833,5.37168],[-75.18833,5.37158],[-75.18833,5.37153],[-75.18833,5.37149],[-75.18829,5.37144],[-75.18829,5.37139],[-75.18824,5.37139],[-75.18819,5.37134],[-75.18819,5.3713],[-75.18819,5.37125],[-75.18814,5.37125],[-75.18809,5.3712],[-75.18805,5.37115],[-75.18795,5.37106],[-75.18786,5.37096],[-75.18781,5.37091],[-75.18776,5.37091],[-75.18771,5.37091],[-75.18766,5.37091],[-75.18752,5.37096],[-75.18747,5.37096],[-75.18743,5.37096],[-75.18738,5.37096],[-75.18737,5.37097],[-75.18733,5.37101],[-75.18724,5.37101],[-75.18719,5.37101],[-75.18714,5.37106],[-75.18714,5.37111],[-75.18714,5.37115],[-75.18714,5.37125],[-75.18714,5.3713],[-75.18714,5.37135],[-75.18719,5.37134],[-75.18719,5.37139],[-75.18724,5.37139],[-75.18733,5.37144],[-75.18738,5.37146],[-75.18752,5.37154],[-75.18762,5.37163],[-75.18762,5.37168],[-75.18767,5.37168],[-75.18767,5.37173],[-75.18767,5.37177],[-75.18776,5.37187],[-75.18776,5.37197],[-75.18776,5.37201],[-75.18776,5.37211],[-75.18776,5.37216],[-75.18776,5.37221],[-75.18776,5.37225],[-75.18776,5.3723],[-75.18776,5.37238]]]},"properties":{"OBJECTID":13,"CODDEP":"17","AREA":1.31898523274,"PERIMETER":2128.51013424,"Shape_Leng":2128.51013424,"Tipo":"Vegetacion secundaria o en transicion","Zona":"Zona de restauración","Subzona":"Zona de restauración","Shape_Length":543.7336178472115,"Shape_Area":13183.048352165732}},{"type":"Feature","id":14,"geometry":{"type":"Polygon","coordinates":[[[-75.18824,5.3677],[-75.18814,5.36777],[-75.18805,5.36784],[-75.18796,5.3679],[-75.18787,5.36797],[-75.18778,5.36804],[-75.1877,5.3681],[-75.18759,5.36817],[-75.18743,5.36832],[-75.18727,5.36847],[-75.18713,5.36861],[-75.18699,5.36877],[-75.18688,5.36892],[-75.18685,5.36895],[-75.1869,5.36895],[-75.18695,5.36891],[-75.18699,5.36891],[-75.18704,5.36886],[-75.18709,5.36881],[-75.18714,5.36881],[-75.18718,5.36876],[-75.18723,5.36876],[-75.18733,5.36871],[-75.18737,5.36871],[-75.18737,5.36867],[-75.18747,5.36867],[-75.18752,5.36867],[-75.18761,5.36866],[-75.18766,5.36866],[-75.18776,5.36866],[-75.1879,5.36866],[-75.18804,5.36866],[-75.18809,5.36866],[-75.18819,5.36866],[-75.18823,5.36866],[-75.18828,5.36871],[-75.18833,5.36871],[-75.18847,5.36871],[-75.18852,5.36871],[-75.18857,5.36871],[-75.18871,5.36871],[-75.18876,5.36871],[-75.18878,5.36871],[-75.18875,5.36855],[-75.18869,5.36849],[-75.18848,5.36833],[-75.18847,5.36833],[-75.18847,5.36833],[-75.18847,5.36833],[-75.18847,5.36832],[-75.18839,5.36805],[-75.18839,5.36805],[-75.18831,5.36775],[-75.18824,5.3677]]]},"properties":{"OBJECTID":14,"CODDEP":"17","AREA":1.11043590195,"PERIMETER":1026298.95091,"Shape_Leng":1026298.95082,"Tipo":"Bosque denso alto de tierra firme","Zona":"Zona de preservación","Subzona":"Zona de preservación","Shape_Length":572.4966879385282,"Shape_Area":11098.632539915347}},{"type":"Feature","id":15,"geometry":{"type":"Polygon","coordinates":[[[-75.18843,5.37242],[-75.18846,5.37242],[-75.18904,5.37242],[-75.18904,5.37242],[-75.18952,5.37247],[-75.18974,5.37249],[-75.18974,5.37249],[-75.18975,5.37249],[-75.18995,5.37258],[-75.18995,5.37258],[-75.18995,5.37258],[-75.18995,5.37258],[-75.18995,5.37258],[-75.18996,5.37258],[-75.18996,5.37259],[-75.19003,5.37285],[-75.19003,5.37285],[-75.19023,5.37254],[-75.19032,5.37223],[-75.19039,5.37198],[-75.19038,5.37185],[-75.1903,5.37167],[-75.19014,5.37143],[-75.19014,5.37143],[-75.19006,5.3713],[-75.18991,5.37108],[-75.18991,5.37107],[-75.18991,5.37107],[-75.18991,5.37107],[-75.1899,5.37105],[-75.18986,5.37101],[-75.18981,5.37096],[-75.18977,5.37091],[-75.18976,5.37086],[-75.18972,5.37072],[-75.18967,5.37067],[-75.18962,5.37058],[-75.18957,5.37053],[-75.18953,5.37048],[-75.18948,5.37043],[-75.18938,5.37038],[-75.18938,5.37034],[-75.18929,5.37034],[-75.18924,5.37034],[-75.18919,5.37034],[-75.18905,5.37029],[-75.189,5.37029],[-75.18895,5.37029],[-75.1889,5.37029],[-75.18886,5.37029],[-75.18871,5.37029],[-75.18862,5.37029],[-75.18833,5.37029],[-75.18824,5.37029],[-75.18819,5.37029],[-75.18809,5.37029],[-75.18805,5.37029],[-75.188,5.37029],[-75.188,5.37029],[-75.18795,5.3704],[-75.18767,5.37043],[-75.18757,5.37057],[-75.18761,5.37084],[-75.18765,5.37091],[-75.18766,5.37091],[-75.18771,5.37091],[-75.18776,5.37091],[-75.18781,5.37091],[-75.18786,5.37096],[-75.18795,5.37106],[-75.18805,5.37115],[-75.18809,5.3712],[-75.18814,5.37125],[-75.18819,5.37125],[-75.18819,5.3713],[-75.18819,5.37134],[-75.18824,5.37139],[-75.18829,5.37139],[-75.18829,5.37144],[-75.18833,5.37149],[-75.18833,5.37153],[-75.18833,5.37158],[-75.18833,5.37168],[-75.18833,5.37173],[-75.18833,5.37177],[-75.18833,5.37187],[-75.18833,5.37192],[-75.18833,5.37196],[-75.18834,5.37206],[-75.18834,5.37211],[-75.18838,5.3722],[-75.18843,5.37225],[-75.18843,5.37235],[-75.18843,5.3724],[-75.18843,5.37242]]]},"properties":{"OBJECTID":15,"CODDEP":"17","AREA":5.19465983024,"PERIMETER":1026298.95091,"Shape_Leng":1026298.95082,"Tipo":"Bosque denso alto de tierra firme","Zona":"Zona de preservación","Subzona":"Zona de preservación","Shape_Length":1001.6102302119157,"Shape_Area":51919.85292564388}},{"type":"Feature","id":16,"geometry":{"type":"Polygon","coordinates":[[[-75.19006,5.37353],[-75.19007,5.37359],[-75.19011,5.37369],[-75.19011,5.37369],[-75.19015,5.37366],[-75.1902,5.37364],[-75.1902,5.37364],[-75.19015,5.37359],[-75.19006,5.37353]]]},"properties":{"OBJECTID":16,"CODDEP":"17","AREA":0.0127116712708,"PERIMETER":2128.51013424,"Shape_Leng":2128.51013424,"Tipo":"Vegetacion secundaria o en transicion","Zona":"Zona de restauración","Subzona":"Zona de restauración","Shape_Length":52.17727186176164,"Shape_Area":127.05180764994266}},{"type":"Feature","id":17,"geometry":{"type":"Polygon","coordinates":[[[-75.18995,5.37107],[-75.19,5.3711],[-75.19,5.37115],[-75.19005,5.37115],[-75.1901,5.3712],[-75.19015,5.3712],[-75.1902,5.3712],[-75.19024,5.3712],[-75.19024,5.37115],[-75.19029,5.37115],[-75.19039,5.37115],[-75.19043,5.3711],[-75.19043,5.37105],[-75.19048,5.371],[-75.19048,5.37096],[-75.19048,5.37091],[-75.19048,5.37081],[-75.19048,5.37072],[-75.19048,5.37067],[-75.19048,5.37057],[-75.19048,5.37053],[-75.19048,5.37043],[-75.19048,5.37038],[-75.19048,5.37019],[-75.19048,5.3701],[-75.19048,5.37005],[-75.19048,5.36995],[-75.19048,5.36986],[-75.19048,5.36981],[-75.19043,5.36971],[-75.19043,5.36962],[-75.19034,5.36957],[-75.19029,5.36947],[-75.19029,5.36943],[-75.19029,5.36938],[-75.19029,5.36933],[-75.19029,5.36928],[-75.19029,5.36919],[-75.19029,5.36914],[-75.19029,5.36904],[-75.19029,5.36895],[-75.19029,5.3689],[-75.19029,5.36885],[-75.19029,5.36879],[-75.19019,5.36876],[-75.1901,5.36876],[-75.19005,5.36871],[-75.19,5.36871],[-75.18995,5.36871],[-75.18952,5.36871],[-75.18947,5.36871],[-75.18938,5.36871],[-75.18914,5.36871],[-75.18905,5.36871],[-75.18895,5.36871],[-75.1889,5.36871],[-75.18885,5.36871],[-75.18881,5.36871],[-75.18883,5.36878],[-75.18883,5.36878],[-75.18883,5.36878],[-75.18883,5.36902],[-75.18884,5.36915],[-75.18884,5.36922],[-75.18893,5.36937],[-75.18914,5.36953],[-75.18936,5.36965],[-75.18936,5.36965],[-75.18936,5.36966],[-75.1896,5.36994],[-75.1896,5.36994],[-75.1896,5.36995],[-75.18967,5.37013],[-75.18967,5.37013],[-75.18967,5.37014],[-75.18969,5.37032],[-75.18978,5.3705],[-75.18989,5.37069],[-75.18989,5.3707],[-75.18989,5.3707],[-75.18989,5.3707],[-75.18992,5.37096],[-75.18994,5.37106],[-75.18995,5.37107]]]},"properties":{"OBJECTID":17,"CODDEP":"17","AREA":2.92690439011,"PERIMETER":4854.14442798,"Shape_Leng":4854.14442798,"Tipo":"Vegetacion secundaria o en transicion","Zona":"Zona de restauración","Subzona":"Zona de restauración","Shape_Length":809.2057636450317,"Shape_Area":29253.987826029414}},{"type":"Feature","id":18,"geometry":{"type":"Polygon","coordinates":[[[-75.18999,5.37285],[-75.18998,5.37292],[-75.18998,5.37292],[-75.18996,5.37306],[-75.18996,5.37307],[-75.18996,5.37307],[-75.18999,5.37341],[-75.18999,5.37341],[-75.18999,5.37341],[-75.19001,5.3735],[-75.19004,5.3736],[-75.19004,5.3736],[-75.19008,5.37372],[-75.19011,5.37369],[-75.19007,5.37359],[-75.19006,5.37353],[-75.19003,5.37341],[-75.19,5.37307],[-75.19002,5.37293],[-75.19026,5.37256],[-75.19026,5.37256],[-75.19026,5.37255],[-75.19035,5.37224],[-75.19043,5.37199],[-75.19043,5.37199],[-75.19043,5.37198],[-75.19043,5.37198],[-75.19041,5.37185],[-75.19041,5.37184],[-75.19041,5.37184],[-75.19033,5.37165],[-75.19033,5.37165],[-75.19033,5.37165],[-75.19017,5.37141],[-75.19013,5.37133],[-75.19011,5.3713],[-75.19009,5.37128],[-75.19009,5.37128],[-75.18995,5.37107],[-75.18994,5.37106],[-75.18992,5.37096],[-75.18989,5.3707],[-75.18989,5.3707],[-75.18989,5.3707],[-75.18989,5.37069],[-75.18978,5.3705],[-75.18969,5.37032],[-75.18967,5.37014],[-75.18967,5.37013],[-75.18967,5.37013],[-75.1896,5.36995],[-75.1896,5.36994],[-75.1896,5.36994],[-75.18936,5.36966],[-75.18936,5.36965],[-75.18936,5.36965],[-75.18914,5.36953],[-75.18893,5.36937],[-75.18884,5.36922],[-75.18884,5.36915],[-75.18883,5.36902],[-75.18883,5.36878],[-75.18883,5.36878],[-75.18883,5.36878],[-75.18881,5.36871],[-75.18878,5.36854],[-75.18878,5.36854],[-75.18878,5.36853],[-75.18878,5.36853],[-75.18872,5.36846],[-75.18871,5.36846],[-75.18871,5.36846],[-75.1885,5.36831],[-75.18842,5.36804],[-75.18835,5.36774],[-75.18835,5.36774],[-75.18835,5.36773],[-75.18834,5.36773],[-75.18834,5.36773],[-75.18827,5.36768],[-75.18825,5.3677],[-75.18824,5.3677],[-75.18831,5.36775],[-75.18839,5.36805],[-75.18839,5.36805],[-75.18847,5.36832],[-75.18847,5.36833],[-75.18847,5.36833],[-75.18847,5.36833],[-75.18848,5.36833],[-75.18869,5.36849],[-75.18875,5.36855],[-75.18878,5.36871],[-75.18879,5.36878],[-75.18879,5.36902],[-75.18879,5.36902],[-75.1888,5.36923],[-75.18881,5.36923],[-75.18881,5.36923],[-75.18881,5.36924],[-75.1889,5.36939],[-75.1889,5.36939],[-75.18891,5.36939],[-75.18891,5.3694],[-75.18912,5.36956],[-75.18912,5.36956],[-75.18934,5.36968],[-75.18952,5.3699],[-75.18956,5.36995],[-75.18957,5.36996],[-75.18964,5.37014],[-75.18966,5.37033],[-75.18966,5.37033],[-75.18966,5.37034],[-75.18974,5.37052],[-75.18975,5.37052],[-75.18986,5.37071],[-75.18989,5.37096],[-75.18989,5.37096],[-75.1899,5.37105],[-75.18991,5.37107],[-75.18991,5.37107],[-75.18991,5.37107],[-75.18991,5.37108],[-75.19006,5.3713],[-75.19014,5.37143],[-75.19014,5.37143],[-75.1903,5.37167],[-75.19038,5.37185],[-75.19039,5.37198],[-75.19032,5.37223],[-75.19023,5.37254],[-75.19003,5.37285],[-75.19003,5.37285],[-75.18996,5.37259],[-75.18996,5.37258],[-75.18995,5.37258],[-75.18995,5.37258],[-75.18995,5.37258],[-75.18995,5.37258],[-75.18995,5.37258],[-75.18975,5.37249],[-75.18974,5.37249],[-75.18974,5.37249],[-75.18952,5.37247],[-75.18904,5.37242],[-75.18904,5.37242],[-75.18846,5.37242],[-75.18843,5.37242],[-75.18805,5.37238],[-75.18805,5.37238],[-75.18776,5.37238],[-75.18739,5.37238],[-75.18739,5.37238],[-75.18701,5.37241],[-75.18653,5.37245],[-75.18653,5.37245],[-75.18652,5.37245],[-75.18592,5.37267],[-75.18547,5.37274],[-75.18548,5.37278],[-75.18593,5.3727],[-75.18594,5.3727],[-75.18653,5.37249],[-75.18704,5.37244],[-75.18739,5.37241],[-75.18776,5.37241],[-75.18805,5.37241],[-75.18843,5.37245],[-75.18846,5.37245],[-75.18846,5.37245],[-75.18904,5.37245],[-75.18952,5.37251],[-75.18952,5.37251],[-75.18973,5.37252],[-75.18992,5.37261],[-75.18999,5.37285]]]},"properties":{"OBJECTID":18,"CODDEP":"17","AREA":0.518485389353,"PERIMETER":4854.14442798,"Shape_Leng":4854.14442798,"Tipo":"Camino","Zona":"Zona general de uso público","Subzona":"Subzona para la recreación","Shape_Length":2595.0727058040384,"Shape_Area":5182.184665655714}}]}