{"type":"FeatureCollection","name":"Conflictos Ambientales","crs":{"type":"name","properties":{"name":"urn:ogc:def:crs:OGC:1.3:CRS84"}},"features":[{"type":"Feature","id":0,"geometry":{"type":"Point","coordinates":[-75.00624,5.5141]},"properties":{"FID":0,"Registro_1":"Energía","Registro_2":"Proyecto hidroeléctrico La Miel II","Registro_3":"Samaná","Registro_4":" ","Registro_5":"La Miel","Registro_6":"Bosque montano","Registro_7":"Alta","Registro_8":"Pre-construcción","Registro_9":"1996, modificación 2010","Registro10":"120 mw","Registro11":"2019","Registro12":"1.\tGobernación de Caldas\n2.\tInficaldas\n3.\tPromotora Energética del Centro S.A.S. E.S.P","Registro13":"\tTrámite de licencia ambiental\n\tSocialización del proyecto\n\tBúsqueda de inversor extranjero","Registro14":"1.\tAutoridad Nacional de Licencias Ambientales                                                                 1.\tCorpocaldas \n2.\tAlcaldía Municipal de Victoria \n3.\tAlcaldía Municipal de Samaná\n4.\tAlcaldía Municipal de Pensilvania\n5.\tDefensoría del","Registro15":"\tRespuestas a derechos de petición\n\tReconocimiento de terceros intervinientes \n\tMesa de Diálogo social con entidades gubernamentales del orden departamental y nacional. Desde julio de 2023.                                              \tMesa de Diálogo","Registro16":"1.\tMovimiento ambiental campesino del oriente de Caldas\n2.\tAlianza abrazo al rio La Miel\n3.\tMovimiento socioambiental \nKumanday\n4.\tCentral Unitaria de Trabajadores Caldas \n5.\tGrupo de estudios jurídicos y sociojurídicos de la Universidad de Caldas","Registro17":"\tMesa de Diálogo social con entidades gubernamentales del orden departamental y nacional. Desde julio de 2023.\n\tComunicaciones, audiovisuales e imágenes en redes sociales digitales y medios de comunicación\n\tDerechos de petición\n\tConsulta popular camp","Registro18":"1.\tPoblación rural y campesina","Registro19":"\tMovilizaciones públicas\n\tAcciones de tutela\n\tAcción popular en curso\n\tSolicitud de revocatoria directa en curso\n\tConstitución terceros intervinientes \n\tDenuncias públicas\n\tCabildo abierto \n\tSesiones en el Congreso de la República \n\tArticulación so","Registro20":"\tAfectación del componente ambiental geomorfo\n\tAfectación o pérdida de biodiversidad: flora, fauna silvestre, agrobiodiversidad\n\tAfectación o pérdida de paisaje / degradación estética\n\tCambio en el uso del suelo\n\tContaminación atmosférica\n\tDismi","Registro21":"\tGeneración de empleo\n\tMejorar la economía del departamento de Caldas\n\tIngresos económicos para los municipios del área de influencia \n\tConservación de áreas de bosque y fuentes de agua\n\tProyectos sociales y económicos"}},{"type":"Feature","id":1,"geometry":{"type":"Point","coordinates":[-75.04646,5.31746]},"properties":{"FID":1,"Registro_1":"Energía","Registro_2":"Proyecto hidroeléctrico La Miel II","Registro_3":" Marquetalia","Registro_4":" ","Registro_5":"La Miel","Registro_6":"Bosque montano","Registro_7":"Alta","Registro_8":"Pre-construcción","Registro_9":"1996, modificación 2010","Registro10":"120 mw","Registro11":"2019","Registro12":"1.\tGobernación de Caldas\n2.\tInficaldas\n3.\tPromotora Energética del Centro S.A.S. E.S.P","Registro13":"\tTrámite de licencia ambiental\n\tSocialización del proyecto\n\tBúsqueda de inversor extranjero","Registro14":"1.\tAutoridad Nacional de Licencias Ambientales                                                                 1.\tCorpocaldas \n2.\tAlcaldía Municipal de Victoria \n3.\tAlcaldía Municipal de Samaná\n4.\tAlcaldía Municipal de Pensilvania\n5.\tDefensoría del","Registro15":"\tRespuestas a derechos de petición\n\tReconocimiento de terceros intervinientes \n\tMesa de Diálogo social con entidades gubernamentales del orden departamental y nacional. Desde julio de 2023.                                              \tMesa de Diálogo","Registro16":"1.\tMovimiento ambiental campesino del oriente de Caldas\n2.\tAlianza abrazo al rio La Miel\n3.\tMovimiento socioambiental \nKumanday\n4.\tCentral Unitaria de Trabajadores Caldas \n5.\tGrupo de estudios jurídicos y sociojurídicos de la Universidad de Caldas","Registro17":"\tMesa de Diálogo social con entidades gubernamentales del orden departamental y nacional. Desde julio de 2023.\n\tComunicaciones, audiovisuales e imágenes en redes sociales digitales y medios de comunicación\n\tDerechos de petición\n\tConsulta popular camp","Registro18":"1.\tPoblación rural y campesina","Registro19":"\tMovilizaciones públicas\n\tAcciones de tutela\n\tAcción popular en curso\n\tSolicitud de revocatoria directa en curso\n\tConstitución terceros intervinientes \n\tDenuncias públicas\n\tCabildo abierto \n\tSesiones en el Congreso de la República \n\tArticulación so","Registro20":"\tAfectación del componente ambiental geomorfo\n\tAfectación o pérdida de biodiversidad: flora, fauna silvestre, agrobiodiversidad\n\tAfectación o pérdida de paisaje / degradación estética\n\tCambio en el uso del suelo\n\tContaminación atmosférica\n\tDismi","Registro21":"\tGeneración de empleo\n\tMejorar la economía del departamento de Caldas\n\tIngresos económicos para los municipios del área de influencia \n\tConservación de áreas de bosque y fuentes de agua\n\tProyectos sociales y económicos"}},{"type":"Feature","id":2,"geometry":{"type":"Point","coordinates":[-75.16329,5.38451]},"properties":{"FID":2,"Registro_1":"Energía","Registro_2":"Proyecto hidroeléctrico El Edén","Registro_3":"Pensilvania","Registro_4":"Bolivia","Registro_5":"La Miel","Registro_6":"Bosque montano","Registro_7":"Media","Registro_8":"En operación","Registro_9":"2011","Registro10":"19,5 mv","Registro11":"2016","Registro12":"1. Central hidroeléctrica El Edén S.A.S. E.S.P","Registro13":"\tReforestación y conservación de áreas de bosques y cuencas \n\tProyectos sociales y de educación ambiental","Registro14":"1.\tCorpocaldas                                            1.\tAlcaldía Municipal de Pensilvania\n2.\tConcejo Municipal de Pensilvania\n3.\tDefensoría del Pueblo\n4.\tProcuraduría General de la Nación\n5.\tMinisterio de Ambiente y Desarrollo Sostenible\n6.\tMini","Registro15":"\tRespuestas a derechos de petición\n\tSeguimiento al Plan de Manejo Ambiental \n\tMesa de Diálogo social con entidades gubernamentales del orden departamental y nacional. Desde julio de 2023                                                \tMesa de Diálogo","Registro16":"1.\tMovimiento ambiental campesino del oriente de Caldas\n2.\tAlianza abrazo al rio La Miel\n3.\tMovimiento socioambiental \nKumanday\n4.\tCentral Unitaria de Trabajadores Caldas \n5.\tGrupo de estudios jurídicos y sociojurídicos de la Universidad de Caldas","Registro17":"\tMesa de Diálogo social con entidades gubernamentales del orden departamental y nacional. Desde julio de 2023.\n\tComunicaciones, audiovisuales e imágenes en redes sociales digitales y medios de comunicación\n\tDerechos de petición\n\tAsistencia Sociojurí","Registro18":"1.\tPoblación rural y campesina","Registro19":"\tMovilizaciones públicas\n\tAcción popular en Concejo de Estado a fecha de marzo de 2024\n\tAcción de grupo\n\tDenuncias públicas\n\tCabildo abierto \n\tSesiones en el Congreso de la República \n\tArticulación social con movimientos y redes ambientales del ord","Registro20":"\tAfectación del componente ambiental geomorfo\n\tAfectación o pérdida de biodiversidad: flora, fauna silvestre, agrobiodiversidad\n\tCambio en el uso del suelo\n\tDisminución de las fuentes de agua\n\tPérdida conectividad ecológica\n\tPérdida de cobertura v","Registro21":"\tIngresos económicos para los municipios del área de influencia \n\tConservación de áreas de bosque y fuentes de agua\n\tProyectos sociales y económicos \n\tCon el Proyecto Hidroeléctrico El Edén y la Corporación MASBOSQUES con su esquema Banco2 se com"}},{"type":"Feature","id":3,"geometry":{"type":"Point","coordinates":[-74.82475,5.46145]},"properties":{"FID":3,"Registro_1":"Energía","Registro_2":"Proyecto hidroeléctrico La Miel II","Registro_3":" Victoria","Registro_4":" ","Registro_5":"La Miel","Registro_6":"Bosque montano","Registro_7":"Alta","Registro_8":"Pre-construcción","Registro_9":"1996, modificación 2010","Registro10":"120 mw","Registro11":"2019","Registro12":"1.\tGobernación de Caldas\n2.\tInficaldas\n3.\tPromotora Energética del Centro S.A.S. E.S.P","Registro13":"\tTrámite de licencia ambiental\n\tSocialización del proyecto\n\tBúsqueda de inversor extranjero","Registro14":"1.\tAutoridad Nacional de Licencias Ambientales                                                                 1.\tCorpocaldas \n2.\tAlcaldía Municipal de Victoria \n3.\tAlcaldía Municipal de Samaná\n4.\tAlcaldía Municipal de Pensilvania\n5.\tDefensoría del","Registro15":"\tRespuestas a derechos de petición\n\tReconocimiento de terceros intervinientes \n\tMesa de Diálogo social con entidades gubernamentales del orden departamental y nacional. Desde julio de 2023.                                              \tMesa de Diálogo","Registro16":"1.\tMovimiento ambiental campesino del oriente de Caldas\n2.\tAlianza abrazo al rio La Miel\n3.\tMovimiento socioambiental \nKumanday\n4.\tCentral Unitaria de Trabajadores Caldas \n5.\tGrupo de estudios jurídicos y sociojurídicos de la Universidad de Caldas","Registro17":"\tMesa de Diálogo social con entidades gubernamentales del orden departamental y nacional. Desde julio de 2023.\n\tComunicaciones, audiovisuales e imágenes en redes sociales digitales y medios de comunicación\n\tDerechos de petición\n\tConsulta popular camp","Registro18":"1.\tPoblación rural y campesina","Registro19":"\tMovilizaciones públicas\n\tAcciones de tutela\n\tAcción popular en curso\n\tSolicitud de revocatoria directa en curso\n\tConstitución terceros intervinientes \n\tDenuncias públicas\n\tCabildo abierto \n\tSesiones en el Congreso de la República \n\tArticulación so","Registro20":"\tAfectación del componente ambiental geomorfo\n\tAfectación o pérdida de biodiversidad: flora, fauna silvestre, agrobiodiversidad\n\tAfectación o pérdida de paisaje / degradación estética\n\tCambio en el uso del suelo\n\tContaminación atmosférica\n\tDismi","Registro21":"\tGeneración de empleo\n\tMejorar la economía del departamento de Caldas\n\tIngresos económicos para los municipios del área de influencia \n\tConservación de áreas de bosque y fuentes de agua\n\tProyectos sociales y económicos"}},{"type":"Feature","id":4,"geometry":{"type":"Point","coordinates":[-75.07953,5.35972]},"properties":{"FID":4,"Registro_1":"Energía","Registro_2":"Proyecto hidroeléctrico El Edén","Registro_3":"Pensilvania","Registro_4":"El Higueron","Registro_5":"La Miel","Registro_6":"Bosque montano","Registro_7":"Media","Registro_8":"En operación","Registro_9":"2011","Registro10":"19,5 mv","Registro11":"2016","Registro12":"1. Central hidroeléctrica El Edén S.A.S. E.S.P","Registro13":"\tReforestación y conservación de áreas de bosques y cuencas \n\tProyectos sociales y de educación ambiental","Registro14":"1.\tCorpocaldas                                            1.\tAlcaldía Municipal de Pensilvania\n2.\tConcejo Municipal de Pensilvania\n3.\tDefensoría del Pueblo\n4.\tProcuraduría General de la Nación\n5.\tMinisterio de Ambiente y Desarrollo Sostenible\n6.\tMini","Registro15":"\tRespuestas a derechos de petición\n\tSeguimiento al Plan de Manejo Ambiental \n\tMesa de Diálogo social con entidades gubernamentales del orden departamental y nacional. Desde julio de 2023                                                \tMesa de Diálogo","Registro16":"1.\tMovimiento ambiental campesino del oriente de Caldas\n2.\tAlianza abrazo al rio La Miel\n3.\tMovimiento socioambiental \nKumanday\n4.\tCentral Unitaria de Trabajadores Caldas \n5.\tGrupo de estudios jurídicos y sociojurídicos de la Universidad de Caldas","Registro17":"\tMesa de Diálogo social con entidades gubernamentales del orden departamental y nacional. Desde julio de 2023.\n\tComunicaciones, audiovisuales e imágenes en redes sociales digitales y medios de comunicación\n\tDerechos de petición\n\tAsistencia Sociojurí","Registro18":"1.\tPoblación rural y campesina","Registro19":"\tMovilizaciones públicas\n\tAcción popular en Concejo de Estado a fecha de marzo de 2024\n\tAcción de grupo\n\tDenuncias públicas\n\tCabildo abierto \n\tSesiones en el Congreso de la República \n\tArticulación social con movimientos y redes ambientales del ord","Registro20":"\tAfectación del componente ambiental geomorfo\n\tAfectación o pérdida de biodiversidad: flora, fauna silvestre, agrobiodiversidad\n\tCambio en el uso del suelo\n\tDisminución de las fuentes de agua\n\tPérdida conectividad ecológica\n\tPérdida de cobertura v","Registro21":"\tIngresos económicos para los municipios del área de influencia \n\tConservación de áreas de bosque y fuentes de agua\n\tProyectos sociales y económicos \n\tCon el Proyecto Hidroeléctrico El Edén y la Corporación MASBOSQUES con su esquema Banco2 se com"}},{"type":"Feature","id":5,"geometry":{"type":"Point","coordinates":[-75.16867,5.18506]},"properties":{"FID":5,"Registro_1":"Energía","Registro_2":"Proyecto hidroeléctrico Montebonito","Registro_3":"Manzanares","Registro_4":"Veredas La Sonrisa, La Gallera, La Floresta, Corregimiento Montebonito","Registro_5":"Guarinó","Registro_6":"Bosque húmedo montano","Registro_7":"Baja","Registro_8":"Modificación de licencia ambiental","Registro_9":"2011","Registro10":"26 mw","Registro11":"2016","Registro12":"1. Central hidroeléctrica \nMontebonito S.A.S. E.S.P","Registro13":"\tTrámite de licencia ambiental\n\tSocialización del proyecto","Registro14":"1.\tCorpocaldas                                             1.\tAlcaldía Municipal de Marulanda\n2.\tConcejo Municipal de Marulanda","Registro15":"\tRespuestas a derechos de petición\n\tReconocimiento de terceros intervinientes \n\tAudiencia pública ambiental                            \tSesiones de debate público","Registro16":"1.\tComunidad campesina del corregimiento de Montebonito\n2.\tGrupo de estudios jurídicos y sociojurídicos de la Universidad de Caldas","Registro17":"\tComunicaciones, audiovisuales e imágenes en redes sociales digitales y medios de comunicación\n\tDerechos de petición\n\tAsistencia Sociojurídica a las comunidades\n\tReuniones\n\tFormación en justicia ambiental y mecanismos de participación ciudadana\n\tPu","Registro18":"1.\tPoblación rural y campesina","Registro19":"\tMovilizaciones públicas\n\tDenuncias públicas\n\tSolicitud de revocatoria directa negada\n\tConstitución terceros intervinientes","Registro20":"\tAfectación del componente ambiental geomorfo\n\tAfectación o pérdida de biodiversidad: flora, fauna silvestre, agrobiodiversidad\n\tAfectación o pérdida de paisaje / degradación estética\n\tCambio en el uso del suelo\n\tContaminación atmosférica\n\tDismi","Registro21":"\tGeneración de empleo\n\tIngresos económicos para los municipios del área de influencia \n\tConservación de áreas de bosque y fuentes de agua\n\tProyectos sociales y económicos"}},{"type":"Feature","id":6,"geometry":{"type":"Point","coordinates":[-75.18713,5.19228]},"properties":{"FID":6,"Registro_1":"Energía","Registro_2":"Proyecto hidroeléctrico Montebonito","Registro_3":" Marulanda","Registro_4":"Veredas La Sonrisa, La Gallera, La Floresta, Corregimiento Montebonito","Registro_5":"Guarinó","Registro_6":"Bosque húmedo montano","Registro_7":"Baja","Registro_8":"Modificación de licencia ambiental","Registro_9":"2011","Registro10":"26 mw","Registro11":"2016","Registro12":"1. Central hidroeléctrica \nMontebonito S.A.S. E.S.P","Registro13":"\tTrámite de licencia ambiental\n\tSocialización del proyecto","Registro14":"1.\tCorpocaldas                                             1.\tAlcaldía Municipal de Marulanda\n2.\tConcejo Municipal de Marulanda","Registro15":"\tRespuestas a derechos de petición\n\tReconocimiento de terceros intervinientes \n\tAudiencia pública ambiental                            \tSesiones de debate público","Registro16":"1.\tComunidad campesina del corregimiento de Montebonito\n2.\tGrupo de estudios jurídicos y sociojurídicos de la Universidad de Caldas","Registro17":"\tComunicaciones, audiovisuales e imágenes en redes sociales digitales y medios de comunicación\n\tDerechos de petición\n\tAsistencia Sociojurídica a las comunidades\n\tReuniones\n\tFormación en justicia ambiental y mecanismos de participación ciudadana\n\tPu","Registro18":"1.\tPoblación rural y campesina","Registro19":"\tMovilizaciones públicas\n\tDenuncias públicas\n\tSolicitud de revocatoria directa negada\n\tConstitución terceros intervinientes","Registro20":"\tAfectación del componente ambiental geomorfo\n\tAfectación o pérdida de biodiversidad: flora, fauna silvestre, agrobiodiversidad\n\tAfectación o pérdida de paisaje / degradación estética\n\tCambio en el uso del suelo\n\tContaminación atmosférica\n\tDismi","Registro21":"\tGeneración de empleo\n\tIngresos económicos para los municipios del área de influencia \n\tConservación de áreas de bosque y fuentes de agua\n\tProyectos sociales y económicos"}},{"type":"Feature","id":7,"geometry":{"type":"Point","coordinates":[-75.46667,4.98793]},"properties":{"FID":7,"Registro_1":"Energía","Registro_2":"Proyecto geotérmico Valle de Nereidas","Registro_3":"Villamaría","Registro_4":"Villamaría","Registro_5":"Chinchiná","Registro_6":"Complejo Páramo Los Nevados, Cuenca río Claro","Registro_7":"Latente","Registro_8":"Trámite de modificación de Licencia Ambiental","Registro_9":"La Licencia Ambiental por parte del Ministerio del Medio Ambiente mediante la Resolución 211 de 2 de 1994\nCesión de la Licencia por parte de Geoenergía Andina en favor de CHEC S.A., E.S.P se dio mediante la Resolución 896 de 5 de mayo de 2008","Registro10":"Entre 50 y 100 megavatios (MW)","Registro11":"2023","Registro12":"1. CHEC-GRUPO EPM, Ecopetrol, Baker Hughes","Registro13":"\tTrámite sustracción Reserva Forestal Central\n\tPendiente iniciar construcción \n\tMemorando de entendimiento para estructurar estudios de factibilidad","Registro14":"1. Corpocaldas                                                               2. Ministerio de Ambiente y Desarrollo Sostenible\n","Registro15":"\tTrámite de licencia ambiental \n\tRespuestas a derechos de petición                  \tTrámite sustracción Reserva Forestal Central","Registro16":"1. Movimiento socioambiental Kumanday","Registro17":"\tReuniones\n\tDerechos de petición  \n\tComunicaciones, audiovisuales e imágenes en redes sociales digitales y medios de comunicación","Registro18":" ","Registro19":" ","Registro20":"\tAfectación del componente ambiental geomorfo\n\tAfectación o pérdida de biodiversidad: flora, fauna silvestre, agrobiodiversidad\n\tAfectación de especies endémicas, casi endémicas, y con nivel de amenaza\n\tContaminación atmosférica \n\tDisminución de","Registro21":"\tGeneración de empleo\n\tIngresos económicos para los municipios del área de influencia \n\tConservación de áreas de bosque y fuentes de agua\n\tProgramas de conservación, sociales y económicos"}},{"type":"Feature","id":8,"geometry":{"type":"Point","coordinates":[-75.02213,5.46269]},"properties":{"FID":8,"Registro_1":"Energía","Registro_2":"Proyecto hidroeléctrico Paujil 1","Registro_3":"Samaná","Registro_4":" ","Registro_5":"La Miel","Registro_6":"Bosque montano","Registro_7":"Latente","Registro_8":"Pre-construcción","Registro_9":"2011","Registro10":"15 mw","Registro11":"2016","Registro12":"1.\tCentral Hidroeléctrica Paujil S.A.S. E.S.P","Registro13":"\tPendiente iniciar construcción \n\tSocialización del proyecto","Registro14":"1.\tCorpocaldas","Registro15":"\tOtorgamiento de licencia ambiental y de modificación de la licencia","Registro16":"1.\tMovimiento ambiental campesino del oriente de Caldas","Registro17":"\tReuniones, asambleas, encuentros","Registro18":"1.\tPoblación rural y campesina","Registro19":"\tMovilizaciones públicas","Registro20":"\tAfectación del componente ambiental geomorfo\n\tAfectación o pérdida de biodiversidad: flora, fauna silvestre, agrobiodiversidad\n\tCambio en el uso del suelo\n\tDisminución de las fuentes de agua\n\tPérdida de cobertura vegetal\n\tDesplazamiento social\n\tAfe","Registro21":"\tGeneración de empleo\n\tIngresos económicos para los municipios del área de influencia \n\tConservación de áreas de bosque y fuentes de agua\n\tProyectos sociales y económicos"}},{"type":"Feature","id":9,"geometry":{"type":"Point","coordinates":[-75.19577,5.38228]},"properties":{"FID":9,"Registro_1":"Energía","Registro_2":"Proyecto hidroeléctrico Paujil 1","Registro_3":" Pensilvania","Registro_4":" ","Registro_5":"La Miel","Registro_6":"Bosque montano","Registro_7":"Latente","Registro_8":"Pre-construcción","Registro_9":"2011","Registro10":"15 mw","Registro11":"2016","Registro12":"1.\tCentral Hidroeléctrica Paujil S.A.S. E.S.P","Registro13":"\tPendiente iniciar construcción \n\tSocialización del proyecto","Registro14":"1.\tCorpocaldas","Registro15":"\tOtorgamiento de licencia ambiental y de modificación de la licencia","Registro16":"1.\tMovimiento ambiental campesino del oriente de Caldas","Registro17":"\tReuniones, asambleas, encuentros","Registro18":"1.\tPoblación rural y campesina","Registro19":"\tMovilizaciones públicas","Registro20":"\tAfectación del componente ambiental geomorfo\n\tAfectación o pérdida de biodiversidad: flora, fauna silvestre, agrobiodiversidad\n\tCambio en el uso del suelo\n\tDisminución de las fuentes de agua\n\tPérdida de cobertura vegetal\n\tDesplazamiento social\n\tAfe","Registro21":"\tGeneración de empleo\n\tIngresos económicos para los municipios del área de influencia \n\tConservación de áreas de bosque y fuentes de agua\n\tProyectos sociales y económicos"}},{"type":"Feature","id":10,"geometry":{"type":"Point","coordinates":[-75.41076,4.95533]},"properties":{"FID":10,"Registro_1":"Energía","Registro_2":"Proyecto geotérmico Valle de Nereidas","Registro_3":"Villamaría","Registro_4":"Villamaría","Registro_5":"Chinchiná","Registro_6":"Complejo Páramo Los Nevados, Cuenca río Claro","Registro_7":"Latente","Registro_8":"Trámite de modificación de Licencia Ambiental","Registro_9":"La Licencia Ambiental por parte del Ministerio del Medio Ambiente mediante la Resolución 211 de 2 de 1994\nCesión de la Licencia por parte de Geoenergía Andina en favor de CHEC S.A., E.S.P se dio mediante la Resolución 896 de 5 de mayo de 2008","Registro10":"Entre 50 y 100 megavatios (MW)","Registro11":"2023","Registro12":"1. CHEC-GRUPO EPM, Ecopetrol, Baker Hughes","Registro13":"\tTrámite sustracción Reserva Forestal Central\n\tPendiente iniciar construcción \n\tMemorando de entendimiento para estructurar estudios de factibilidad","Registro14":"1. Corpocaldas                                                               2. Ministerio de Ambiente y Desarrollo Sostenible\n","Registro15":"\tTrámite de licencia ambiental \n\tRespuestas a derechos de petición                  \tTrámite sustracción Reserva Forestal Central","Registro16":"1. Movimiento socioambiental Kumanday","Registro17":"\tReuniones\n\tDerechos de petición  \n\tComunicaciones, audiovisuales e imágenes en redes sociales digitales y medios de comunicación","Registro18":" ","Registro19":" ","Registro20":"\tAfectación del componente ambiental geomorfo\n\tAfectación o pérdida de biodiversidad: flora, fauna silvestre, agrobiodiversidad\n\tAfectación de especies endémicas, casi endémicas, y con nivel de amenaza\n\tContaminación atmosférica \n\tDisminución de","Registro21":"\tGeneración de empleo\n\tIngresos económicos para los municipios del área de influencia \n\tConservación de áreas de bosque y fuentes de agua\n\tProgramas de conservación, sociales y económicos"}},{"type":"Feature","id":11,"geometry":{"type":"Point","coordinates":[-75.50125,5.00669]},"properties":{"FID":11,"Registro_1":"Energía","Registro_2":"Proyecto geotérmico Valle de Nereidas","Registro_3":"Villamaría","Registro_4":"Alto Arroyo\n","Registro_5":"Chinchiná","Registro_6":"Complejo Páramo Los Nevados, Cuenca río Claro","Registro_7":"Latente","Registro_8":"Trámite de modificación de Licencia Ambiental","Registro_9":"La Licencia Ambiental por parte del Ministerio del Medio Ambiente mediante la Resolución 211 de 2 de 1994\nCesión de la Licencia por parte de Geoenergía Andina en favor de CHEC S.A., E.S.P se dio mediante la Resolución 896 de 5 de mayo de 2008","Registro10":"Entre 50 y 100 megavatios (MW)","Registro11":"2023","Registro12":"1. CHEC-GRUPO EPM, Ecopetrol, Baker Hughes","Registro13":"\tTrámite sustracción Reserva Forestal Central\n\tPendiente iniciar construcción \n\tMemorando de entendimiento para estructurar estudios de factibilidad","Registro14":"1. Corpocaldas                                                               2. Ministerio de Ambiente y Desarrollo Sostenible\n","Registro15":"\tTrámite de licencia ambiental \n\tRespuestas a derechos de petición                  \tTrámite sustracción Reserva Forestal Central","Registro16":"1. Movimiento socioambiental Kumanday","Registro17":"\tReuniones\n\tDerechos de petición  \n\tComunicaciones, audiovisuales e imágenes en redes sociales digitales y medios de comunicación","Registro18":" ","Registro19":" ","Registro20":"\tAfectación del componente ambiental geomorfo\n\tAfectación o pérdida de biodiversidad: flora, fauna silvestre, agrobiodiversidad\n\tAfectación de especies endémicas, casi endémicas, y con nivel de amenaza\n\tContaminación atmosférica \n\tDisminución de","Registro21":"\tGeneración de empleo\n\tIngresos económicos para los municipios del área de influencia \n\tConservación de áreas de bosque y fuentes de agua\n\tProgramas de conservación, sociales y económicos"}},{"type":"Feature","id":12,"geometry":{"type":"Point","coordinates":[-75.40141,4.88668]},"properties":{"FID":12,"Registro_1":"Energía","Registro_2":"Proyecto geotérmico Valle de Nereidas","Registro_3":"Villamaría","Registro_4":"El Páramo","Registro_5":"Chinchiná","Registro_6":"Complejo Páramo Los Nevados, Cuenca río Claro","Registro_7":"Latente","Registro_8":"Trámite de modificación de Licencia Ambiental","Registro_9":"La Licencia Ambiental por parte del Ministerio del Medio Ambiente mediante la Resolución 211 de 2 de 1994\nCesión de la Licencia por parte de Geoenergía Andina en favor de CHEC S.A., E.S.P se dio mediante la Resolución 896 de 5 de mayo de 2008","Registro10":"Entre 50 y 100 megavatios (MW)","Registro11":"2023","Registro12":"1. CHEC-GRUPO EPM, Ecopetrol, Baker Hughes","Registro13":"\tTrámite sustracción Reserva Forestal Central\n\tPendiente iniciar construcción \n\tMemorando de entendimiento para estructurar estudios de factibilidad","Registro14":"1. Corpocaldas                                                               2. Ministerio de Ambiente y Desarrollo Sostenible\n","Registro15":"\tTrámite de licencia ambiental \n\tRespuestas a derechos de petición                  \tTrámite sustracción Reserva Forestal Central","Registro16":"1. Movimiento socioambiental Kumanday","Registro17":"\tReuniones\n\tDerechos de petición  \n\tComunicaciones, audiovisuales e imágenes en redes sociales digitales y medios de comunicación","Registro18":" ","Registro19":" ","Registro20":"\tAfectación del componente ambiental geomorfo\n\tAfectación o pérdida de biodiversidad: flora, fauna silvestre, agrobiodiversidad\n\tAfectación de especies endémicas, casi endémicas, y con nivel de amenaza\n\tContaminación atmosférica \n\tDisminución de","Registro21":"\tGeneración de empleo\n\tIngresos económicos para los municipios del área de influencia \n\tConservación de áreas de bosque y fuentes de agua\n\tProgramas de conservación, sociales y económicos"}},{"type":"Feature","id":13,"geometry":{"type":"Point","coordinates":[-75.48205,4.98363]},"properties":{"FID":13,"Registro_1":"Energía","Registro_2":"Proyecto geotérmico Valle de Nereidas","Registro_3":"Villamaría","Registro_4":"El Pindo","Registro_5":"Chinchiná","Registro_6":"Complejo Páramo Los Nevados, Cuenca río Claro","Registro_7":"Latente","Registro_8":"Trámite de modificación de Licencia Ambiental","Registro_9":"La Licencia Ambiental por parte del Ministerio del Medio Ambiente mediante la Resolución 211 de 2 de 1994\nCesión de la Licencia por parte de Geoenergía Andina en favor de CHEC S.A., E.S.P se dio mediante la Resolución 896 de 5 de mayo de 2008","Registro10":"Entre 50 y 100 megavatios (MW)","Registro11":"2023","Registro12":"1. CHEC-GRUPO EPM, Ecopetrol, Baker Hughes","Registro13":"\tTrámite sustracción Reserva Forestal Central\n\tPendiente iniciar construcción \n\tMemorando de entendimiento para estructurar estudios de factibilidad","Registro14":"1. Corpocaldas                                                               2. Ministerio de Ambiente y Desarrollo Sostenible\n","Registro15":"\tTrámite de licencia ambiental \n\tRespuestas a derechos de petición                  \tTrámite sustracción Reserva Forestal Central","Registro16":"1. Movimiento socioambiental Kumanday","Registro17":"\tReuniones\n\tDerechos de petición  \n\tComunicaciones, audiovisuales e imágenes en redes sociales digitales y medios de comunicación","Registro18":" ","Registro19":" ","Registro20":"\tAfectación del componente ambiental geomorfo\n\tAfectación o pérdida de biodiversidad: flora, fauna silvestre, agrobiodiversidad\n\tAfectación de especies endémicas, casi endémicas, y con nivel de amenaza\n\tContaminación atmosférica \n\tDisminución de","Registro21":"\tGeneración de empleo\n\tIngresos económicos para los municipios del área de influencia \n\tConservación de áreas de bosque y fuentes de agua\n\tProgramas de conservación, sociales y económicos"}},{"type":"Feature","id":14,"geometry":{"type":"Point","coordinates":[-75.4593,4.92702]},"properties":{"FID":14,"Registro_1":"Energía","Registro_2":"Proyecto geotérmico Valle de Nereidas","Registro_3":"Villamaría","Registro_4":"La Laguna Alta","Registro_5":"Chinchiná","Registro_6":"Complejo Páramo Los Nevados, Cuenca río Claro","Registro_7":"Latente","Registro_8":"Trámite de modificación de Licencia Ambiental","Registro_9":"La Licencia Ambiental por parte del Ministerio del Medio Ambiente mediante la Resolución 211 de 2 de 1994\nCesión de la Licencia por parte de Geoenergía Andina en favor de CHEC S.A., E.S.P se dio mediante la Resolución 896 de 5 de mayo de 2008","Registro10":"Entre 50 y 100 megavatios (MW)","Registro11":"2023","Registro12":"1. CHEC-GRUPO EPM, Ecopetrol, Baker Hughes","Registro13":"\tTrámite sustracción Reserva Forestal Central\n\tPendiente iniciar construcción \n\tMemorando de entendimiento para estructurar estudios de factibilidad","Registro14":"1. Corpocaldas                                                               2. Ministerio de Ambiente y Desarrollo Sostenible\n","Registro15":"\tTrámite de licencia ambiental \n\tRespuestas a derechos de petición                  \tTrámite sustracción Reserva Forestal Central","Registro16":"1. Movimiento socioambiental Kumanday","Registro17":"\tReuniones\n\tDerechos de petición  \n\tComunicaciones, audiovisuales e imágenes en redes sociales digitales y medios de comunicación","Registro18":" ","Registro19":" ","Registro20":"\tAfectación del componente ambiental geomorfo\n\tAfectación o pérdida de biodiversidad: flora, fauna silvestre, agrobiodiversidad\n\tAfectación de especies endémicas, casi endémicas, y con nivel de amenaza\n\tContaminación atmosférica \n\tDisminución de","Registro21":"\tGeneración de empleo\n\tIngresos económicos para los municipios del área de influencia \n\tConservación de áreas de bosque y fuentes de agua\n\tProgramas de conservación, sociales y económicos"}},{"type":"Feature","id":15,"geometry":{"type":"Point","coordinates":[-75.48873,4.95197]},"properties":{"FID":15,"Registro_1":"Energía","Registro_2":"Proyecto geotérmico Valle de Nereidas","Registro_3":"Villamaría","Registro_4":"Papayal \n","Registro_5":"Chinchiná","Registro_6":"Complejo Páramo Los Nevados, Cuenca río Claro","Registro_7":"Latente","Registro_8":"Trámite de modificación de Licencia Ambiental","Registro_9":"La Licencia Ambiental por parte del Ministerio del Medio Ambiente mediante la Resolución 211 de 2 de 1994\nCesión de la Licencia por parte de Geoenergía Andina en favor de CHEC S.A., E.S.P se dio mediante la Resolución 896 de 5 de mayo de 2008","Registro10":"Entre 50 y 100 megavatios (MW)","Registro11":"2023","Registro12":"1. CHEC-GRUPO EPM, Ecopetrol, Baker Hughes","Registro13":"\tTrámite sustracción Reserva Forestal Central\n\tPendiente iniciar construcción \n\tMemorando de entendimiento para estructurar estudios de factibilidad","Registro14":"1. Corpocaldas                                                               2. Ministerio de Ambiente y Desarrollo Sostenible\n","Registro15":"\tTrámite de licencia ambiental \n\tRespuestas a derechos de petición                  \tTrámite sustracción Reserva Forestal Central","Registro16":"1. Movimiento socioambiental Kumanday","Registro17":"\tReuniones\n\tDerechos de petición  \n\tComunicaciones, audiovisuales e imágenes en redes sociales digitales y medios de comunicación","Registro18":" ","Registro19":" ","Registro20":"\tAfectación del componente ambiental geomorfo\n\tAfectación o pérdida de biodiversidad: flora, fauna silvestre, agrobiodiversidad\n\tAfectación de especies endémicas, casi endémicas, y con nivel de amenaza\n\tContaminación atmosférica \n\tDisminución de","Registro21":"\tGeneración de empleo\n\tIngresos económicos para los municipios del área de influencia \n\tConservación de áreas de bosque y fuentes de agua\n\tProgramas de conservación, sociales y económicos"}},{"type":"Feature","id":16,"geometry":{"type":"Point","coordinates":[-75.40707,4.91351]},"properties":{"FID":16,"Registro_1":"Energía","Registro_2":"Proyecto geotérmico Valle de Nereidas","Registro_3":"Villamaría","Registro_4":"Playa larga \n","Registro_5":"Chinchiná","Registro_6":"Complejo Páramo Los Nevados, Cuenca río Claro","Registro_7":"Latente","Registro_8":"Trámite de modificación de Licencia Ambiental","Registro_9":"La Licencia Ambiental por parte del Ministerio del Medio Ambiente mediante la Resolución 211 de 2 de 1994\nCesión de la Licencia por parte de Geoenergía Andina en favor de CHEC S.A., E.S.P se dio mediante la Resolución 896 de 5 de mayo de 2008","Registro10":"Entre 50 y 100 megavatios (MW)","Registro11":"2023","Registro12":"1. CHEC-GRUPO EPM, Ecopetrol, Baker Hughes","Registro13":"\tTrámite sustracción Reserva Forestal Central\n\tPendiente iniciar construcción \n\tMemorando de entendimiento para estructurar estudios de factibilidad","Registro14":"1. Corpocaldas                                                               2. Ministerio de Ambiente y Desarrollo Sostenible\n","Registro15":"\tTrámite de licencia ambiental \n\tRespuestas a derechos de petición                  \tTrámite sustracción Reserva Forestal Central","Registro16":"1. Movimiento socioambiental Kumanday","Registro17":"\tReuniones\n\tDerechos de petición  \n\tComunicaciones, audiovisuales e imágenes en redes sociales digitales y medios de comunicación","Registro18":" ","Registro19":" ","Registro20":"\tAfectación del componente ambiental geomorfo\n\tAfectación o pérdida de biodiversidad: flora, fauna silvestre, agrobiodiversidad\n\tAfectación de especies endémicas, casi endémicas, y con nivel de amenaza\n\tContaminación atmosférica \n\tDisminución de","Registro21":"\tGeneración de empleo\n\tIngresos económicos para los municipios del área de influencia \n\tConservación de áreas de bosque y fuentes de agua\n\tProgramas de conservación, sociales y económicos"}},{"type":"Feature","id":17,"geometry":{"type":"Point","coordinates":[-75.52635,4.96558]},"properties":{"FID":17,"Registro_1":"Energía","Registro_2":"Proyecto geotérmico Valle de Nereidas","Registro_3":"Villamaría","Registro_4":"Santo Domingo","Registro_5":"Chinchiná","Registro_6":"Complejo Páramo Los Nevados, Cuenca río Claro","Registro_7":"Latente","Registro_8":"Trámite de modificación de Licencia Ambiental","Registro_9":"La Licencia Ambiental por parte del Ministerio del Medio Ambiente mediante la Resolución 211 de 2 de 1994\nCesión de la Licencia por parte de Geoenergía Andina en favor de CHEC S.A., E.S.P se dio mediante la Resolución 896 de 5 de mayo de 2008","Registro10":"Entre 50 y 100 megavatios (MW)","Registro11":"2023","Registro12":"1. CHEC-GRUPO EPM, Ecopetrol, Baker Hughes","Registro13":"\tTrámite sustracción Reserva Forestal Central\n\tPendiente iniciar construcción \n\tMemorando de entendimiento para estructurar estudios de factibilidad","Registro14":"1. Corpocaldas                                                               2. Ministerio de Ambiente y Desarrollo Sostenible\n","Registro15":"\tTrámite de licencia ambiental \n\tRespuestas a derechos de petición                  \tTrámite sustracción Reserva Forestal Central","Registro16":"1. Movimiento socioambiental Kumanday","Registro17":"\tReuniones\n\tDerechos de petición  \n\tComunicaciones, audiovisuales e imágenes en redes sociales digitales y medios de comunicación","Registro18":" ","Registro19":" ","Registro20":"\tAfectación del componente ambiental geomorfo\n\tAfectación o pérdida de biodiversidad: flora, fauna silvestre, agrobiodiversidad\n\tAfectación de especies endémicas, casi endémicas, y con nivel de amenaza\n\tContaminación atmosférica \n\tDisminución de","Registro21":"\tGeneración de empleo\n\tIngresos económicos para los municipios del área de influencia \n\tConservación de áreas de bosque y fuentes de agua\n\tProgramas de conservación, sociales y económicos"}},{"type":"Feature","id":18,"geometry":{"type":"Point","coordinates":[-75.50752,4.95369]},"properties":{"FID":18,"Registro_1":"Energía","Registro_2":"Proyecto geotérmico Valle de Nereidas","Registro_3":"Villamaría","Registro_4":" la Guyana","Registro_5":"Chinchiná","Registro_6":"Complejo Páramo Los Nevados, Cuenca río Claro","Registro_7":"Latente","Registro_8":"Trámite de modificación de Licencia Ambiental","Registro_9":"La Licencia Ambiental por parte del Ministerio del Medio Ambiente mediante la Resolución 211 de 2 de 1994\nCesión de la Licencia por parte de Geoenergía Andina en favor de CHEC S.A., E.S.P se dio mediante la Resolución 896 de 5 de mayo de 2008","Registro10":"Entre 50 y 100 megavatios (MW)","Registro11":"2023","Registro12":"1. CHEC-GRUPO EPM, Ecopetrol, Baker Hughes","Registro13":"\tTrámite sustracción Reserva Forestal Central\n\tPendiente iniciar construcción \n\tMemorando de entendimiento para estructurar estudios de factibilidad","Registro14":"1. Corpocaldas                                                               2. Ministerio de Ambiente y Desarrollo Sostenible\n","Registro15":"\tTrámite de licencia ambiental \n\tRespuestas a derechos de petición                  \tTrámite sustracción Reserva Forestal Central","Registro16":"1. Movimiento socioambiental Kumanday","Registro17":"\tReuniones\n\tDerechos de petición  \n\tComunicaciones, audiovisuales e imágenes en redes sociales digitales y medios de comunicación","Registro18":" ","Registro19":" ","Registro20":"\tAfectación del componente ambiental geomorfo\n\tAfectación o pérdida de biodiversidad: flora, fauna silvestre, agrobiodiversidad\n\tAfectación de especies endémicas, casi endémicas, y con nivel de amenaza\n\tContaminación atmosférica \n\tDisminución de","Registro21":"\tGeneración de empleo\n\tIngresos económicos para los municipios del área de influencia \n\tConservación de áreas de bosque y fuentes de agua\n\tProgramas de conservación, sociales y económicos"}},{"type":"Feature","id":19,"geometry":{"type":"Point","coordinates":[-75.48227,4.9455]},"properties":{"FID":19,"Registro_1":"Energía","Registro_2":"Proyecto geotérmico Valle de Nereidas","Registro_3":"Villamaría","Registro_4":"Caserío La Paz","Registro_5":"Chinchiná","Registro_6":"Complejo Páramo Los Nevados, Cuenca río Claro","Registro_7":"Latente","Registro_8":"Trámite de modificación de Licencia Ambiental","Registro_9":"La Licencia Ambiental por parte del Ministerio del Medio Ambiente mediante la Resolución 211 de 2 de 1994\nCesión de la Licencia por parte de Geoenergía Andina en favor de CHEC S.A., E.S.P se dio mediante la Resolución 896 de 5 de mayo de 2008","Registro10":"Entre 50 y 100 megavatios (MW)","Registro11":"2023","Registro12":"1. CHEC-GRUPO EPM, Ecopetrol, Baker Hughes","Registro13":"\tTrámite sustracción Reserva Forestal Central\n\tPendiente iniciar construcción \n\tMemorando de entendimiento para estructurar estudios de factibilidad","Registro14":"1. Corpocaldas                                                               2. Ministerio de Ambiente y Desarrollo Sostenible\n","Registro15":"\tTrámite de licencia ambiental \n\tRespuestas a derechos de petición                  \tTrámite sustracción Reserva Forestal Central","Registro16":"1. Movimiento socioambiental Kumanday","Registro17":"\tReuniones\n\tDerechos de petición  \n\tComunicaciones, audiovisuales e imágenes en redes sociales digitales y medios de comunicación","Registro18":" ","Registro19":" ","Registro20":"\tAfectación del componente ambiental geomorfo\n\tAfectación o pérdida de biodiversidad: flora, fauna silvestre, agrobiodiversidad\n\tAfectación de especies endémicas, casi endémicas, y con nivel de amenaza\n\tContaminación atmosférica \n\tDisminución de","Registro21":"\tGeneración de empleo\n\tIngresos económicos para los municipios del área de influencia \n\tConservación de áreas de bosque y fuentes de agua\n\tProgramas de conservación, sociales y económicos"}},{"type":"Feature","id":20,"geometry":{"type":"Point","coordinates":[-75.59175,5.47226]},"properties":{"FID":20,"Registro_1":"Minería","Registro_2":"Minería de inversión extranjera en Marmato","Registro_3":"Marmato","Registro_4":" ","Registro_5":"Opiramá y otros directos al Cauca","Registro_6":"Bosque muy Húmedo Premotano, cuenca del río Cauca","Registro_7":"Alta","Registro_8":"Explotación","Registro_9":"2001, modificación 2023","Registro10":"400.000 onzas de oro por año","Registro11":"2005","Registro12":"1.\tEmpresa Aris Mining","Registro13":"\tTrámite de licencia ambiental\n\tAudiencia pública ambiental \n\tSocialización del proyecto\n\tProyectos sociales y económicos \n\tConvenio con Ministerio de Minas y Energía para formalización de pequeños mineros","Registro14":"1.\tCorpocaldas                                            2.\tAgencia Nacional Minera                   1.\tAlcaldía Municipal de Marmato\n2.\tConcejo municipal de Marmato\n3.\tDefensoría del Pueblo\n4.\tProcuraduría General de la Nación\n5.\tMinisterio de Amb","Registro15":"\tAudiencia pública ambiental \n\tRespuestas a derechos de petición\n\tAprobación de modificación de licencia ambiental\n\tMesa social y minera de diálogo con entidades gubernamentales del orden departamental y nacional. Desde enero de 2023.\n\tMesa técnica","Registro16":"1.\tFuerzas Vivas \n2.\tAsomitrama\n3.\tFuerzas unidas Marmato\n4.\tConcejales\n5.\tSintraminergética\n6.\tEmpresarios\n7.\tMineros\n8.\tPoblación indígena\n9.\tMineros pequeños","Registro17":"\tMesa social y minera de diálogo con entidades gubernamentales del orden departamental y nacional. Desde enero de 2023.\n\tComunicaciones, audiovisuales e imágenes en redes sociales digitales y medios de comunicación\n\tDerechos de petición\n\tAsistencia S","Registro18":" ","Registro19":" ","Registro20":"\tAfectación del componente ambiental geomorfo\n\tContaminación atmosférica\n\tContaminación acústica\n\tGeneración de residuos\n\tDisminución y contaminación de las fuentes de agua\n\tDesplazamiento social\n\tPérdida de medios de subsistencia\n\tZozobra, ince","Registro21":"\tGeneración de empleo\n\tMejorar la economía del departamento de Caldas\n\tIngresos económicos para el municipio\n\tProyectos sociales y económicos"}},{"type":"Feature","id":21,"geometry":{"type":"Point","coordinates":[-75.19258,5.36157]},"properties":{"FID":21,"Registro_1":"Minería","Registro_2":"Minera Guayaquil","Registro_3":"Pensilvania","Registro_4":"Corregimiento Pueblo nuevo","Registro_5":"Samaná Sur","Registro_6":"Bosque alto andino","Registro_7":"Latente","Registro_8":"Explotación","Registro_9":"2013","Registro10":"Explotación de oro, plata y zinc","Registro11":"2014","Registro12":"1.\tPensilvania Gold & Mineral","Registro13":"\tTrámite de título minero\n\tProyectos sociales, ambientales y económicos","Registro14":"1.\tCorpocaldas                                            2.\tAgencia Nacional minera","Registro15":"Visitas técnicas y seguimiento                                                  \tConcesión de título minero","Registro16":"1.\tComunidad campesina\n2.\tMovimiento ambiental campesino del oriente de Caldas","Registro17":"\tReuniones","Registro18":" ","Registro19":" ","Registro20":"\tContaminación atmosférica\n\tContaminación acústica\n\tMuerte de animales por caídas en perforaciones en el suelo realizados por la empresa\n\tPrivatización de caminos \n\tZozobra, incertidumbre y afectaciones emocionales\n\tDeterioro de viviendas\n\tAfectaci","Registro21":"\tGeneración de empleo\n\tIngresos económicos para el municipio\n\tProyectos sociales y económicos"}},{"type":"Feature","id":22,"geometry":{"type":"Point","coordinates":[-75.37586,4.99363]},"properties":{"FID":22,"Registro_1":"Minería","Registro_2":"Minera Tolda Fría y California","Registro_3":"Villamaría","Registro_4":"Vereda Montaño","Registro_5":"Chinchiná","Registro_6":"Bosque alto andino","Registro_7":"Latente","Registro_8":"Explotación","Registro_9":"Concesión 163-17 2011\nConcesión minera GEWM – 12","Registro10":" ","Registro11":"2016","Registro12":"1.\tRío Novo Colombia Holdings Ltda","Registro13":"\tTrámite de licencia ambiental\n\tAudiencia pública ambiental \n\tSocialización del proyecto\n\tProyectos sociales y económicos \n\tConvenio con Ministerio de Minas y Energía para formalización de pequeños mineros","Registro14":"1.\tCorpocaldas                                            2.\tAgencia Nacional Minera                   3.\tConsejo de Estado","Registro15":"\tRespuestas a derechos de petición\n\tMulta por $169 millones                                    \tConcesión 163-17 2011                                   \tRatificó el 23 de mayo del 2017 suspensión de las actividades de extracción de oro en la mina To","Registro16":"1.\tSociedad de Mejoras Públicas\n2.\tClínica sociojurídica de interés público de la Universidad de Caldas","Registro17":"\tComunicaciones, audiovisuales e imágenes en redes sociales digitales y medios de comunicación\n\tDerechos de petición\n\tAsistencia Sociojurídica a las comunidades\n\tReuniones, asambleas, encuentros\n\tAcción popular en Concejo de Estado a fecha de marzo","Registro18":" ","Registro19":" ","Registro20":"\tContaminación atmosférica\n\tContaminación acústica\n\tGeneración de residuos\n\tDisminución y contaminación de las fuentes de agua\n\tAfectación Reserva forestal Central y bosques de la CHEC\n\tAfectación a la planta de tratamiento Luis Prieto que abast","Registro21":"\tGeneración de empleo\n\tMejorar la economía del departamento de Caldas\n\tIngresos económicos para el municipio\n\tProyectos sociales y económicos"}},{"type":"Feature","id":23,"geometry":{"type":"Point","coordinates":[-75.47986,5.29314]},"properties":{"FID":23,"Registro_1":"Minería","Registro_2":"Minera en la subregión norte de Caldas","Registro_3":"Aranzazu","Registro_4":" ","Registro_5":"Tapias y Otros Directos al Cauca","Registro_6":"Bosque alto andino","Registro_7":"Latente","Registro_8":"Solicitud de concesiones mineras","Registro_9":" ","Registro10":"Posible explotación de oro, plata, cobre, platino, paladio, rutenio, rodio y osmio","Registro11":"2021","Registro12":"Empresas mineras: Northern Colombia, Minerales Córdoba, Minerales Camino Real S.A.S., Logiexpo S.A.S., Nacional de Minerales y Metales S.A.S., Sociedad Exploraciones Northern Colombia S.A.S.\n2. Agencia Nacional Minera \n3. Alcaldías de: Aguadas, Aránza","Registro13":"\tTrámite de concesiones mineras \n\tTrámite de audiencias públicas \n\tActas de concertación suscritas con las Entidades Territoriales, y Actas de Audiencia Pública y Participación de Terceros","Registro14":"1.\tCorpocaldas","Registro15":"\tRespuestas a derechos de petición","Registro16":"1.\tAranzazu sin minería\n2.\tFiladelfia sin Minería","Registro17":"\tComunicaciones, audiovisuales e imágenes en redes sociales digitales y medios de comunicación\n\tDerechos de petición\n\tAsistencia Sociojurídica a las comunidades\n\tReuniones, asambleas, encuentros\n\tMovilizaciones públicas\n\tDenuncias públicas\n\tArticul","Registro18":" ","Registro19":" ","Registro20":"\tAfectación del componente ambiental geomorfo\n\tAfectación o pérdida de biodiversidad: flora, fauna silvestre, agrobiodiversidad\n\tAfectación o pérdida de paisaje / degradación estética\n\tCambio en el uso del suelo\n\tContaminación atmosférica\n\tConta","Registro21":"\tGeneración de empleo\n\tMejorar la economía del departamento de Caldas\n\tIngresos económicos para los municipios"}},{"type":"Feature","id":24,"geometry":{"type":"Point","coordinates":[-75.44023,5.17996]},"properties":{"FID":24,"Registro_1":"Minería","Registro_2":"Minera en la subregión norte de Caldas","Registro_3":"Neira","Registro_4":" ","Registro_5":"Tapias y Otros Directos al Cauca","Registro_6":"Bosque alto andino","Registro_7":"Latente","Registro_8":"Solicitud de concesiones mineras","Registro_9":" ","Registro10":"Posible explotación de oro, plata, cobre, platino, paladio, rutenio, rodio y osmio","Registro11":"2021","Registro12":"Empresas mineras: Northern Colombia, Minerales Córdoba, Minerales Camino Real S.A.S., Logiexpo S.A.S., Nacional de Minerales y Metales S.A.S., Sociedad Exploraciones Northern Colombia S.A.S.\n2. Agencia Nacional Minera \n3. Alcaldías de: Aguadas, Aránza","Registro13":"\tTrámite de concesiones mineras \n\tTrámite de audiencias públicas \n\tActas de concertación suscritas con las Entidades Territoriales, y Actas de Audiencia Pública y Participación de Terceros","Registro14":"1.\tCorpocaldas","Registro15":"\tRespuestas a derechos de petición","Registro16":"1.\tAranzazu sin minería\n2.\tFiladelfia sin Minería","Registro17":"\tComunicaciones, audiovisuales e imágenes en redes sociales digitales y medios de comunicación\n\tDerechos de petición\n\tAsistencia Sociojurídica a las comunidades\n\tReuniones, asambleas, encuentros\n\tMovilizaciones públicas\n\tDenuncias públicas\n\tArticul","Registro18":" ","Registro19":" ","Registro20":"\tAfectación del componente ambiental geomorfo\n\tAfectación o pérdida de biodiversidad: flora, fauna silvestre, agrobiodiversidad\n\tAfectación o pérdida de paisaje / degradación estética\n\tCambio en el uso del suelo\n\tContaminación atmosférica\n\tConta","Registro21":"\tGeneración de empleo\n\tMejorar la economía del departamento de Caldas\n\tIngresos económicos para los municipios"}},{"type":"Feature","id":25,"geometry":{"type":"Point","coordinates":[-75.6175,5.26821]},"properties":{"FID":25,"Registro_1":"Minería","Registro_2":"Minera en la subregión norte de Caldas","Registro_3":"Filadelfia","Registro_4":" ","Registro_5":"Tapias y Otros Directos al Cauca","Registro_6":"Bosque alto andino","Registro_7":"Latente","Registro_8":"Solicitud de concesiones mineras","Registro_9":" ","Registro10":"Posible explotación de oro, plata, cobre, platino, paladio, rutenio, rodio y osmio","Registro11":"2021","Registro12":"Empresas mineras: Northern Colombia, Minerales Córdoba, Minerales Camino Real S.A.S., Logiexpo S.A.S., Nacional de Minerales y Metales S.A.S., Sociedad Exploraciones Northern Colombia S.A.S.\n2. Agencia Nacional Minera \n3. Alcaldías de: Aguadas, Aránza","Registro13":"\tTrámite de concesiones mineras \n\tTrámite de audiencias públicas \n\tActas de concertación suscritas con las Entidades Territoriales, y Actas de Audiencia Pública y Participación de Terceros","Registro14":"1.\tCorpocaldas","Registro15":"\tRespuestas a derechos de petición","Registro16":"1.\tAranzazu sin minería\n2.\tFiladelfia sin Minería","Registro17":"\tComunicaciones, audiovisuales e imágenes en redes sociales digitales y medios de comunicación\n\tDerechos de petición\n\tAsistencia Sociojurídica a las comunidades\n\tReuniones, asambleas, encuentros\n\tMovilizaciones públicas\n\tDenuncias públicas\n\tArticul","Registro18":" ","Registro19":" ","Registro20":"\tAfectación del componente ambiental geomorfo\n\tAfectación o pérdida de biodiversidad: flora, fauna silvestre, agrobiodiversidad\n\tAfectación o pérdida de paisaje / degradación estética\n\tCambio en el uso del suelo\n\tContaminación atmosférica\n\tConta","Registro21":"\tGeneración de empleo\n\tMejorar la economía del departamento de Caldas\n\tIngresos económicos para los municipios"}},{"type":"Feature","id":26,"geometry":{"type":"Point","coordinates":[-75.43962,5.3471]},"properties":{"FID":26,"Registro_1":"Minería","Registro_2":"Minera en la subregión norte de Caldas","Registro_3":"Salamina","Registro_4":" ","Registro_5":"Tapias y Otros Directos al Cauca","Registro_6":"Bosque alto andino","Registro_7":"Latente","Registro_8":"Solicitud de concesiones mineras","Registro_9":" ","Registro10":"Posible explotación de oro, plata, cobre, platino, paladio, rutenio, rodio y osmio","Registro11":"2021","Registro12":"Empresas mineras: Northern Colombia, Minerales Córdoba, Minerales Camino Real S.A.S., Logiexpo S.A.S., Nacional de Minerales y Metales S.A.S., Sociedad Exploraciones Northern Colombia S.A.S.\n2. Agencia Nacional Minera \n3. Alcaldías de: Aguadas, Aránza","Registro13":"\tTrámite de concesiones mineras \n\tTrámite de audiencias públicas \n\tActas de concertación suscritas con las Entidades Territoriales, y Actas de Audiencia Pública y Participación de Terceros","Registro14":"1.\tCorpocaldas","Registro15":"\tRespuestas a derechos de petición","Registro16":"1.\tAranzazu sin minería\n2.\tFiladelfia sin Minería","Registro17":"\tComunicaciones, audiovisuales e imágenes en redes sociales digitales y medios de comunicación\n\tDerechos de petición\n\tAsistencia Sociojurídica a las comunidades\n\tReuniones, asambleas, encuentros\n\tMovilizaciones públicas\n\tDenuncias públicas\n\tArticul","Registro18":" ","Registro19":" ","Registro20":"\tAfectación del componente ambiental geomorfo\n\tAfectación o pérdida de biodiversidad: flora, fauna silvestre, agrobiodiversidad\n\tAfectación o pérdida de paisaje / degradación estética\n\tCambio en el uso del suelo\n\tContaminación atmosférica\n\tConta","Registro21":"\tGeneración de empleo\n\tMejorar la economía del departamento de Caldas\n\tIngresos económicos para los municipios"}},{"type":"Feature","id":27,"geometry":{"type":"Point","coordinates":[-75.55834,5.39263]},"properties":{"FID":27,"Registro_1":"Minería","Registro_2":"Minera en la subregión norte de Caldas","Registro_3":"La Merced","Registro_4":" ","Registro_5":"Tapias y Otros Directos al Cauca","Registro_6":"Bosque alto andino","Registro_7":"Latente","Registro_8":"Solicitud de concesiones mineras","Registro_9":" ","Registro10":"Posible explotación de oro, plata, cobre, platino, paladio, rutenio, rodio y osmio","Registro11":"2021","Registro12":"Empresas mineras: Northern Colombia, Minerales Córdoba, Minerales Camino Real S.A.S., Logiexpo S.A.S., Nacional de Minerales y Metales S.A.S., Sociedad Exploraciones Northern Colombia S.A.S.\n2. Agencia Nacional Minera \n3. Alcaldías de: Aguadas, Aránza","Registro13":"\tTrámite de concesiones mineras \n\tTrámite de audiencias públicas \n\tActas de concertación suscritas con las Entidades Territoriales, y Actas de Audiencia Pública y Participación de Terceros","Registro14":"1.\tCorpocaldas","Registro15":"\tRespuestas a derechos de petición","Registro16":"1.\tAranzazu sin minería\n2.\tFiladelfia sin Minería","Registro17":"\tComunicaciones, audiovisuales e imágenes en redes sociales digitales y medios de comunicación\n\tDerechos de petición\n\tAsistencia Sociojurídica a las comunidades\n\tReuniones, asambleas, encuentros\n\tMovilizaciones públicas\n\tDenuncias públicas\n\tArticul","Registro18":" ","Registro19":" ","Registro20":"\tAfectación del componente ambiental geomorfo\n\tAfectación o pérdida de biodiversidad: flora, fauna silvestre, agrobiodiversidad\n\tAfectación o pérdida de paisaje / degradación estética\n\tCambio en el uso del suelo\n\tContaminación atmosférica\n\tConta","Registro21":"\tGeneración de empleo\n\tMejorar la economía del departamento de Caldas\n\tIngresos económicos para los municipios"}},{"type":"Feature","id":28,"geometry":{"type":"Point","coordinates":[-75.49953,5.25515]},"properties":{"FID":28,"Registro_1":"Agroindustria","Registro_2":"Monocultivo de aguacate hass","Registro_3":"Aranzazu","Registro_4":" ","Registro_5":"Tapias y Otros Directos al Cauca","Registro_6":"Bosque alto andino","Registro_7":"Alta","Registro_8":"En producción","Registro_9":"Concesiones de agua","Registro10":"5.000 hectáreas","Registro11":"2018","Registro12":"1.\tEmpresas productoras de aguacate:\n Camposol Colombia S.A.S. (empresa peruana), El Roble Hass S.A.S., G y J S.C.A. (empresa colombiana), Agroindustria   La Glorida S.A. y Jorge Hernan Toro Mejia (empresa colombiana), Agrosideral S.A.S. (filial de Campo","Registro13":"\tTrámite de concesiones de agua \n\tAcuerdo de voluntades que firmaron los productores de aguacate Hass en Aranzazu y Salamina","Registro14":"1. Corpocaldas                                                               2. ICA\n","Registro15":"\tRespuestas a derechos de petición\n\tProcedimiento sancionatorio ambiental contra Wakate y Camposol \n\tMesa departamental del Aguacate\n\tEspacios de diálogo\n\tJornadas para el buen manejo de residuos orgánicos, uso racional de agroquímicos y manejo adecu","Registro16":"1.\tVeeduría “Por la vida y para la dignidad del campo”\n2.\tMovimiento defensa campesina Caldas de Aranzazu\n3.\tJuntas de acción comunal\n4.\tMontes nativos sin monocultivos","Registro17":"\tComunicaciones, audiovisuales e imágenes en redes sociales digitales y medios de comunicación\n\tDerechos de petición\n\tAsistencia Sociojurídica a las comunidades\n\tReuniones, asambleas, encuentros\n\tMovilizaciones públicas\n\tDenuncias públicas\n\tArticul","Registro18":" ","Registro19":" ","Registro20":"\tAfectación o pérdida de biodiversidad: flora, fauna silvestre, agrobiodiversidad\n\tAfectación o pérdida de paisaje / degradación estética\n\tCambio en el uso del suelo\n\tContaminación/afectación a fuentes hídricas\n\tAfectación rondas hídricas \n\tCo","Registro21":"\tGeneración de empleo\n\tMejorar la economía del departamento de Caldas\n\tIngresos económicos para los municipios"}},{"type":"Feature","id":29,"geometry":{"type":"Point","coordinates":[-75.53874,5.17011]},"properties":{"FID":29,"Registro_1":"Agroindustria","Registro_2":"Monocultivo de aguacate hass","Registro_3":"Neira","Registro_4":" ","Registro_5":"Tapias y Otros Directos al Cauca","Registro_6":"Bosque alto andino","Registro_7":"Alta","Registro_8":"En producción","Registro_9":"Concesiones de agua","Registro10":"5.000 hectáreas","Registro11":"2018","Registro12":"1.\tEmpresas productoras de aguacate:\n Camposol Colombia S.A.S. (empresa peruana), El Roble Hass S.A.S., G y J S.C.A. (empresa colombiana), Agroindustria   La Glorida S.A. y Jorge Hernan Toro Mejia (empresa colombiana), Agrosideral S.A.S. (filial de Campo","Registro13":"\tTrámite de concesiones de agua \n\tAcuerdo de voluntades que firmaron los productores de aguacate Hass en Aranzazu y Salamina","Registro14":"1. Corpocaldas                                                               2. ICA\n","Registro15":"\tRespuestas a derechos de petición\n\tProcedimiento sancionatorio ambiental contra Wakate y Camposol \n\tMesa departamental del Aguacate\n\tEspacios de diálogo\n\tJornadas para el buen manejo de residuos orgánicos, uso racional de agroquímicos y manejo adecu","Registro16":"1.\tVeeduría “Por la vida y para la dignidad del campo”\n2.\tMovimiento defensa campesina Caldas de Aranzazu\n3.\tJuntas de acción comunal\n4.\tMontes nativos sin monocultivos","Registro17":"\tComunicaciones, audiovisuales e imágenes en redes sociales digitales y medios de comunicación\n\tDerechos de petición\n\tAsistencia Sociojurídica a las comunidades\n\tReuniones, asambleas, encuentros\n\tMovilizaciones públicas\n\tDenuncias públicas\n\tArticul","Registro18":" ","Registro19":" ","Registro20":"\tAfectación o pérdida de biodiversidad: flora, fauna silvestre, agrobiodiversidad\n\tAfectación o pérdida de paisaje / degradación estética\n\tCambio en el uso del suelo\n\tContaminación/afectación a fuentes hídricas\n\tAfectación rondas hídricas \n\tCo","Registro21":"\tGeneración de empleo\n\tMejorar la economía del departamento de Caldas\n\tIngresos económicos para los municipios"}},{"type":"Feature","id":30,"geometry":{"type":"Point","coordinates":[-75.58252,5.29294]},"properties":{"FID":30,"Registro_1":"Agroindustria","Registro_2":"Monocultivo de aguacate hass","Registro_3":"Filadelfia","Registro_4":" ","Registro_5":"Tapias y Otros Directos al Cauca","Registro_6":"Bosque alto andino","Registro_7":"Alta","Registro_8":"En producción","Registro_9":"Concesiones de agua","Registro10":"5.000 hectáreas","Registro11":"2018","Registro12":"1.\tEmpresas productoras de aguacate:\n Camposol Colombia S.A.S. (empresa peruana), El Roble Hass S.A.S., G y J S.C.A. (empresa colombiana), Agroindustria   La Glorida S.A. y Jorge Hernan Toro Mejia (empresa colombiana), Agrosideral S.A.S. (filial de Campo","Registro13":"\tTrámite de concesiones de agua \n\tAcuerdo de voluntades que firmaron los productores de aguacate Hass en Aranzazu y Salamina","Registro14":"1. Corpocaldas                                                               2. ICA\n","Registro15":"\tRespuestas a derechos de petición\n\tProcedimiento sancionatorio ambiental contra Wakate y Camposol \n\tMesa departamental del Aguacate\n\tEspacios de diálogo\n\tJornadas para el buen manejo de residuos orgánicos, uso racional de agroquímicos y manejo adecu","Registro16":"1.\tVeeduría “Por la vida y para la dignidad del campo”\n2.\tMovimiento defensa campesina Caldas de Aranzazu\n3.\tJuntas de acción comunal\n4.\tMontes nativos sin monocultivos","Registro17":"\tComunicaciones, audiovisuales e imágenes en redes sociales digitales y medios de comunicación\n\tDerechos de petición\n\tAsistencia Sociojurídica a las comunidades\n\tReuniones, asambleas, encuentros\n\tMovilizaciones públicas\n\tDenuncias públicas\n\tArticul","Registro18":" ","Registro19":" ","Registro20":"\tAfectación o pérdida de biodiversidad: flora, fauna silvestre, agrobiodiversidad\n\tAfectación o pérdida de paisaje / degradación estética\n\tCambio en el uso del suelo\n\tContaminación/afectación a fuentes hídricas\n\tAfectación rondas hídricas \n\tCo","Registro21":"\tGeneración de empleo\n\tMejorar la economía del departamento de Caldas\n\tIngresos económicos para los municipios"}},{"type":"Feature","id":31,"geometry":{"type":"Point","coordinates":[-75.4101,5.32235]},"properties":{"FID":31,"Registro_1":"Agroindustria","Registro_2":"Monocultivo de aguacate hass","Registro_3":"Salamina","Registro_4":" ","Registro_5":"Tapias y Otros Directos al Cauca","Registro_6":"Bosque alto andino","Registro_7":"Alta","Registro_8":"En producción","Registro_9":"Concesiones de agua","Registro10":"5.000 hectáreas","Registro11":"2018","Registro12":"1.\tEmpresas productoras de aguacate:\n Camposol Colombia S.A.S. (empresa peruana), El Roble Hass S.A.S., G y J S.C.A. (empresa colombiana), Agroindustria   La Glorida S.A. y Jorge Hernan Toro Mejia (empresa colombiana), Agrosideral S.A.S. (filial de Campo","Registro13":"\tTrámite de concesiones de agua \n\tAcuerdo de voluntades que firmaron los productores de aguacate Hass en Aranzazu y Salamina","Registro14":"1. Corpocaldas                                                               2. ICA\n","Registro15":"\tRespuestas a derechos de petición\n\tProcedimiento sancionatorio ambiental contra Wakate y Camposol \n\tMesa departamental del Aguacate\n\tEspacios de diálogo\n\tJornadas para el buen manejo de residuos orgánicos, uso racional de agroquímicos y manejo adecu","Registro16":"1.\tVeeduría “Por la vida y para la dignidad del campo”\n2.\tMovimiento defensa campesina Caldas de Aranzazu\n3.\tJuntas de acción comunal\n4.\tMontes nativos sin monocultivos","Registro17":"\tComunicaciones, audiovisuales e imágenes en redes sociales digitales y medios de comunicación\n\tDerechos de petición\n\tAsistencia Sociojurídica a las comunidades\n\tReuniones, asambleas, encuentros\n\tMovilizaciones públicas\n\tDenuncias públicas\n\tArticul","Registro18":" ","Registro19":" ","Registro20":"\tAfectación o pérdida de biodiversidad: flora, fauna silvestre, agrobiodiversidad\n\tAfectación o pérdida de paisaje / degradación estética\n\tCambio en el uso del suelo\n\tContaminación/afectación a fuentes hídricas\n\tAfectación rondas hídricas \n\tCo","Registro21":"\tGeneración de empleo\n\tMejorar la economía del departamento de Caldas\n\tIngresos económicos para los municipios"}},{"type":"Feature","id":32,"geometry":{"type":"Point","coordinates":[-75.37563,4.89789]},"properties":{"FID":32,"Registro_1":"Agroindustria","Registro_2":"Monocultivo de aguacate hass","Registro_3":"Villamaría","Registro_4":" ","Registro_5":"Tapias y Otros Directos al Cauca","Registro_6":"Bosque alto andino","Registro_7":"Alta","Registro_8":"En producción","Registro_9":"Concesiones de agua","Registro10":"5.000 hectáreas","Registro11":"2018","Registro12":"1.\tEmpresas productoras de aguacate:\n Camposol Colombia S.A.S. (empresa peruana), El Roble Hass S.A.S., G y J S.C.A. (empresa colombiana), Agroindustria   La Glorida S.A. y Jorge Hernan Toro Mejia (empresa colombiana), Agrosideral S.A.S. (filial de Campo","Registro13":"\tTrámite de concesiones de agua \n\tAcuerdo de voluntades que firmaron los productores de aguacate Hass en Aranzazu y Salamina","Registro14":"1. Corpocaldas                                                               2. ICA\n","Registro15":"\tRespuestas a derechos de petición\n\tProcedimiento sancionatorio ambiental contra Wakate y Camposol \n\tMesa departamental del Aguacate\n\tEspacios de diálogo\n\tJornadas para el buen manejo de residuos orgánicos, uso racional de agroquímicos y manejo adecu","Registro16":"1.\tVeeduría “Por la vida y para la dignidad del campo”\n2.\tMovimiento defensa campesina Caldas de Aranzazu\n3.\tJuntas de acción comunal\n4.\tMontes nativos sin monocultivos","Registro17":"\tComunicaciones, audiovisuales e imágenes en redes sociales digitales y medios de comunicación\n\tDerechos de petición\n\tAsistencia Sociojurídica a las comunidades\n\tReuniones, asambleas, encuentros\n\tMovilizaciones públicas\n\tDenuncias públicas\n\tArticul","Registro18":" ","Registro19":" ","Registro20":"\tAfectación o pérdida de biodiversidad: flora, fauna silvestre, agrobiodiversidad\n\tAfectación o pérdida de paisaje / degradación estética\n\tCambio en el uso del suelo\n\tContaminación/afectación a fuentes hídricas\n\tAfectación rondas hídricas \n\tCo","Registro21":"\tGeneración de empleo\n\tMejorar la economía del departamento de Caldas\n\tIngresos económicos para los municipios"}},{"type":"Feature","id":33,"geometry":{"type":"Point","coordinates":[-75.54965,5.0761]},"properties":{"FID":33,"Registro_1":"Infraestructura","Registro_2":"Expansión urbana en sector La Aurora","Registro_3":"Manizales","Registro_4":"Sector La Aurora","Registro_5":"Chinchiná","Registro_6":"Bosque de niebla, Quebradas central y siete cueros","Registro_7":"Alta","Registro_8":"Suspendido","Registro_9":"Urbanización de 2016 Construcción de 2017","Registro10":"2.300 mil viviendas","Registro11":"2012","Registro12":"1.\tConcejo municipal de Manizales     2.\tCFC&A construcciones                        3.\tCuraduría 2","Registro13":"\tAcuerdo 573 de 2003 Declaración del sector La Aurora suelo de expansión urbana\n\tAcuerdo 958 de 2017 Declaración del sector La Aurora suelo rural\n\tCabildo abierto\n\tSesiones de debate público \tProyecto urbanístico Biociudadela Tierra Viva","Registro14":"1.\tCorpocaldas                                            2.\tAguas de Manizales                              3.\tProcuraduría General de la Nación                                                                                 4.\tJuzgado Octavo Administ","Registro15":"\tRespuestas a derechos de petición\n\tVisitas técnicas \n\tAprobación de aprovechamiento forestal sin levantamiento de veda\n\tPlan de manejo ambiental de la Reserva Forestal Protectora Río Blanco                                                \tVisita téc","Registro16":"1.\tConvergencia Todos Somos Río Blanco\n2.\tSociedad de mejoras públicas \n3.\tMovimiento socioambiental Kumanday\n4.\tManizales en Común\n5.\tSubámonos al bus del POT\n6.\tVeeduría Interdisciplinaria de Caldas\n7.\tUniversidad de la Tierra-UNITIERRA\n8.\tAmigos","Registro17":"\tComunicaciones, audiovisuales e imágenes en redes sociales digitales y medios de comunicación\n\tDerechos de petición\n\tAcciones de tutela\n\tAcción popular vigente en Consejo de Estado a marzo de 2024\n\tAcción de nulidad simple que suspendió las obras","Registro18":" ","Registro19":" ","Registro20":"\tAfectación o pérdida de biodiversidad: flora, fauna silvestre, agrobiodiversidad\n\tAfectación o pérdida de paisaje / degradación estética\n\tCambio en el uso del suelo\n\tContaminación atmosférica\n\tContaminación/afectación a fuentes hídricas\n\tCont","Registro21":"\tGeneración de empleo\n\tGeneración de vivienda \n\tProyectos de conservación y sociales."}},{"type":"Feature","id":34,"geometry":{"type":"Point","coordinates":[-75.47663,5.06361]},"properties":{"FID":34,"Registro_1":"Infraestructura","Registro_2":"Proyecto urbanístico en La Sultana","Registro_3":"Manizales","Registro_4":"Sector la finquita barrio La Sultana","Registro_5":"Chinchiná","Registro_6":"Quebrada Olivares, Las Palomas y El Pollo","Registro_7":"Baja","Registro_8":"Construcción","Registro_9":" ","Registro10":"7 torres de apartamentos, cada una de 20 pisos","Registro11":"2023","Registro12":"1.\tPerfek Constructora","Registro13":"Proyecto urbanístico Sultana Park y Altos de La Sultana","Registro14":"1.\tCorpocaldas\n2.\tAlcaldía de Manizales","Registro15":"\tRespuestas a derechos de petición\n\tVisitas técnicas  \n\tMedida preventiva sobre escombros","Registro16":"1.\tConvergencia Todos Somos Río Blanco\n2.\tMovimiento socioambiental Kumanday\n3.\tVeeduría del biogeoterritorio Kumanday\n4.\tVeeduría ciudadana ambiental\n5.\tFundación Natural Seeds Alliance \n6.\tCiudadanía","Registro17":"\tComunicaciones, audiovisuales e imágenes en redes sociales digitales y medios de comunicación\n\tDerechos de petición\n\tAsistencia Sociojurídica \n\tReuniones, asambleas, encuentros\n\tMovilizaciones públicas\n\tDenuncias públicas\n\tAcción popular","Registro18":" ","Registro19":" ","Registro20":"\tAfectación o pérdida de biodiversidad: flora, fauna silvestre, agrobiodiversidad\n\tAfectación o pérdida de paisaje / degradación estética\n\tCambio en el uso del suelo\n\tContaminación atmosférica\n\tContaminación/afectación a fuentes hídricas\n\tCont","Registro21":"\tGeneración de empleo\n\tGeneración vivienda"}},{"type":"Feature","id":35,"geometry":{"type":"Point","coordinates":[-75.52402,5.08066]},"properties":{"FID":35,"Registro_1":"Infraestructura","Registro_2":"Cárcava El Tablazo","Registro_3":"Manizales","Registro_4":"Barrios: Bajo y Alto Tablazo, vereda Guacas, sector Gutiérrez","Registro_5":"Chinchiná","Registro_6":"Quebrada El Salado","Registro_7":"Media","Registro_8":"Estabilización  de suelo","Registro_9":" ","Registro10":" ","Registro11":"2020","Registro12":" ","Registro13":" ","Registro14":"1.    Corpocaldas                                        2.\tTribunal Administrativo de Caldas","Registro15":"\tRespuestas a derechos de petición\n\tVisitas técnicas  \n\tSesión pública en Asamblea departamental de Caldas\n\tEstudios previos para ejecutar un proyecto piloto de restauración\n\tInició obra de estabilización mediante técnicas de ingeniería verde","Registro16":"1.\tFundación Unidos por el Cambio\n2.\tPersonería de Manizales\n3.\tFundación Natural Seeds Alliance \n4.\tComunidad","Registro17":"\tComunicaciones, audiovisuales e imágenes en redes sociales digitales y medios de comunicación\n\tDerechos de petición\n\tAsistencia Sociojurídica \n\tReuniones, asambleas, encuentros\n\tAcción popular vigente\n\tSesiones públicas en Concejo municipal de Man","Registro18":" ","Registro19":" ","Registro20":"\tAfectación o pérdida de biodiversidad: flora, fauna silvestre, agrobiodiversidad\n\tAfectación o pérdida de paisaje / degradación estética\n\tCambio en el uso del suelo\n\tContaminación/afectación a fuentes hídricas\n\tAfectación de las actividades ag","Registro21":" "}},{"type":"Feature","id":36,"geometry":{"type":"Point","coordinates":[-75.49096,5.06243]},"properties":{"FID":36,"Registro_1":"Infraestructura","Registro_2":"Proyecto urbanístico en relicto boscoso Camino de la Palma real","Registro_3":"Manizales","Registro_4":"Barrio Laureles","Registro_5":"Chinchiná","Registro_6":"Relicto boscoso","Registro_7":"Alta","Registro_8":" ","Registro_9":" ","Registro10":" ","Registro11":"2022","Registro12":"1. Constructora MPS S.A.S.                                       2.\tAlcaldía de Manizales\n3.\tConcejo Municipal de Manizales","Registro13":"Proyecto urbanístico                                        \tEnajenación de predio público hacia particulares en 2022","Registro14":"1.\tCorpocaldas\n2.\tAlcaldía de Manizales                                          3.\tJuez Cuarto Administrativo","Registro15":"\tRespuestas a derechos de petición\n\tVisitas técnicas                                                         \tSuspendió provisionalmente las acciones de deforestación","Registro16":"1.\tVeeduría de Camino de la Palma Real\n2.\tConvergencia Todos Somos Río Blanco\n3.\tMovimiento socioambiental Kumanday\n4.\tVeeduría ciudadana ambiental\n5.\tCiudadanía \n6.\tFundación Natural Seeds Alliance","Registro17":"\tComunicaciones, audiovisuales e imágenes en redes sociales digitales y medios de comunicación\n\tDerechos de petición\n\tAsistencia Sociojurídica \n\tReuniones, asambleas, encuentros\n\tMovilizaciones públicas\n\tDenuncias públicas\n\tAcción popular vigente","Registro18":" ","Registro19":" ","Registro20":"\tAfectación o pérdida de biodiversidad: flora, fauna silvestre, agrobiodiversidad\n\tAfectación o pérdida de paisaje / degradación estética\n\tCambio en el uso del suelo\n\tContaminación acústica \n\tDeforestación","Registro21":"\tGeneración de empleo\n\tGeneración vivienda"}},{"type":"Feature","id":37,"geometry":{"type":"Point","coordinates":[-75.30458,5.21694]},"properties":{"FID":37,"Registro_1":"Convivencia con otras especies","Registro_2":"Conflicto por presencia del Puma","Registro_3":"Marulanda","Registro_4":" ","Registro_5":" ","Registro_6":"Bosque alto andino, Bosque montano","Registro_7":"Media","Registro_8":" ","Registro_9":" ","Registro10":" ","Registro11":"Recurrente","Registro12":" ","Registro13":" ","Registro14":"1.\tCorpocaldas","Registro15":"\tRespuestas a derechos de petición\n\tVisitas técnicas  \n\tMonitoreos\n\tEducación Ambiental\n\tLínea Telefónica de atención  \n\tRescate animal\n\tEquipo de atención de emergencias","Registro16":" ","Registro17":" ","Registro18":"1.\tComunidad campesina","Registro19":"\tDerechos de petición\n\tReuniones, asambleas, encuentros","Registro20":"\tDepredación de ganado \n\tAfectación de las actividades agrícolas y pecuarias de los campesinos\n\tZozobra, incertidumbre y afectaciones emocionales","Registro21":"\tProcesos de educación ambiental \n\tMonitoreos ecológicos"}},{"type":"Feature","id":38,"geometry":{"type":"Point","coordinates":[-75.49133,5.02683]},"properties":{"FID":38,"Registro_1":"Convivencia con otras especies","Registro_2":"Conflicto por presencia del Puma","Registro_3":"Villamaría","Registro_4":" ","Registro_5":" ","Registro_6":"Bosque alto andino, Bosque montano","Registro_7":"Media","Registro_8":" ","Registro_9":" ","Registro10":" ","Registro11":"Recurrente","Registro12":" ","Registro13":" ","Registro14":"1.\tCorpocaldas","Registro15":"\tRespuestas a derechos de petición\n\tVisitas técnicas  \n\tMonitoreos\n\tEducación Ambiental\n\tLínea Telefónica de atención  \n\tRescate animal\n\tEquipo de atención de emergencias","Registro16":" ","Registro17":" ","Registro18":"1.\tComunidad campesina","Registro19":"\tDerechos de petición\n\tReuniones, asambleas, encuentros","Registro20":"\tDepredación de ganado \n\tAfectación de las actividades agrícolas y pecuarias de los campesinos\n\tZozobra, incertidumbre y afectaciones emocionales","Registro21":"\tProcesos de educación ambiental \n\tMonitoreos ecológicos"}},{"type":"Feature","id":39,"geometry":{"type":"Point","coordinates":[-75.32317,5.03556]},"properties":{"FID":39,"Registro_1":"Relación con áreas protegidas","Registro_2":"Vía Manizales-Cambao sobre Páramo Los Nevados","Registro_3":"Murillo","Registro_4":" ","Registro_5":"Chinchiná","Registro_6":"Páramo Los Nevados","Registro_7":"Alta","Registro_8":"En operación","Registro_9":" ","Registro10":" ","Registro11":"2024","Registro12":"\tAgencia Nacional de Vías\n\tMinisterio de Ambiente y Desarrollo Sostenible","Registro13":"\tConstrucción de vía\n\tResolución 0191 de 2022 Sustracción de reserva Ley Segunda","Registro14":"1.\tCorpocaldas\n2.\tCortolima \n3.\tGobernación de Caldas\n4.\tGobernación de Tolima\n5.\tPolicia Nacional \n6.\tMinisterio de Ambiente y Desarrollo Sostenible","Registro15":"\tProcesos sancionatorios a predios donde se ha desbordado el turismo\n\tJornadas de educación ambiental\n\tJornadas de vigilancia y control\n\tPropuesta de peaje ambiental","Registro16":" ","Registro17":" ","Registro18":" ","Registro19":" ","Registro20":"\tAfectación o pérdida de biodiversidad: flora, fauna silvestre, agrobiodiversidad\n\tGeneración de residuos sobre la cobertura vegetal y fuentes de agua\n\tEmisiones de dióxido de carbono \n\tSuperación de la capacidad de carga del páramo","Registro21":"\tMejoramiento económico para la zona"}},{"type":"Feature","id":40,"geometry":{"type":"Point","coordinates":[-75.39004,5.11217]},"properties":{"FID":40,"Registro_1":"Relación con áreas protegidas","Registro_2":"Vía Manizales-Cambao sobre Páramo Los Nevados","Registro_3":"Manizales","Registro_4":" ","Registro_5":"Chinchiná","Registro_6":"Páramo Los Nevados","Registro_7":"Alta","Registro_8":"En operación","Registro_9":" ","Registro10":" ","Registro11":"2024","Registro12":"\tAgencia Nacional de Vías\n\tMinisterio de Ambiente y Desarrollo Sostenible","Registro13":"\tConstrucción de vía\n\tResolución 0191 de 2022 Sustracción de reserva Ley Segunda","Registro14":"1.\tCorpocaldas\n2.\tCortolima \n3.\tGobernación de Caldas\n4.\tGobernación de Tolima\n5.\tPolicia Nacional \n6.\tMinisterio de Ambiente y Desarrollo Sostenible","Registro15":"\tProcesos sancionatorios a predios donde se ha desbordado el turismo\n\tJornadas de educación ambiental\n\tJornadas de vigilancia y control\n\tPropuesta de peaje ambiental","Registro16":" ","Registro17":" ","Registro18":" ","Registro19":" ","Registro20":"\tAfectación o pérdida de biodiversidad: flora, fauna silvestre, agrobiodiversidad\n\tGeneración de residuos sobre la cobertura vegetal y fuentes de agua\n\tEmisiones de dióxido de carbono \n\tSuperación de la capacidad de carga del páramo","Registro21":"\tMejoramiento económico para la zona"}},{"type":"Feature","id":41,"geometry":{"type":"Point","coordinates":[-75.17922,5.43819]},"properties":{"FID":41,"Registro_1":"Relación con áreas protegidas","Registro_2":"Campesinado dentro de predios de Parque Nacional Natural Selva de Florencia","Registro_3":"Pensilvania","Registro_4":" ","Registro_5":"La Miel","Registro_6":"Bosque alto andino","Registro_7":"Media","Registro_8":" ","Registro_9":" ","Registro10":" ","Registro11":"2021","Registro12":"Parque Nacional Natural Selva de Florencia","Registro13":"Mesa de concertación entre Parque Nacional Natural Selva de Florencia y el comité de familias afectadas por el Parque Nacional Natural Selva de Florencia desde 2022","Registro14":"\tClínica sociojurídica de interés público de la Universidad de Caldas\n\tAgencia Nacional de Tierras, la Agencia de Restitución de Tierras\n\tProcuraduría Delegada para Asuntos Ambientales y Agrarios\n\tDefensoría del Pueblo","Registro15":"Mesa de concertación entre Parque Nacional Natural Selva de Florencia y el comité de familias afectadas por el Parque Nacional Natural Selva de Florencia desde 2022","Registro16":"Comité de familias afectadas por el Parque Nacional Natural Selva de Florencia","Registro17":"Mesa de concertación entre Parque Nacional Natural Selva de Florencia y el comité de familias afectadas por el Parque Nacional Natural Selva de Florencia desde 2022","Registro18":" ","Registro19":" ","Registro20":"\tAfectación a modos de vida del campesinado \n\tDesplazamiento de familias campesinas","Registro21":"\tConservación del parque y del bosque alto andino"}}]}