{"type":"FeatureCollection","name":"Ecoparque","crs":{"type":"name","properties":{"name":"urn:ogc:def:crs:OGC:1.3:CRS84"}},"features":[{"type":"Feature","id":1,"geometry":{"type":"Polygon","coordinates":[[[-75.62114,5.02198],[-75.62119,5.02199],[-75.62125,5.022],[-75.62128,5.02201],[-75.6213,5.02201],[-75.62135,5.02201],[-75.6214,5.02202],[-75.62145,5.02203],[-75.6215,5.02203],[-75.62154,5.02204],[-75.62157,5.02204],[-75.62159,5.02204],[-75.62164,5.02206],[-75.62167,5.02206],[-75.62169,5.02206],[-75.62171,5.02207],[-75.62175,5.02155],[-75.62172,5.02152],[-75.62171,5.0215],[-75.6217,5.02149],[-75.62169,5.02148],[-75.62158,5.02133],[-75.62157,5.02132],[-75.62156,5.02131],[-75.6215,5.02125],[-75.62146,5.02121],[-75.62145,5.02118],[-75.62145,5.02117],[-75.62142,5.02117],[-75.62139,5.02116],[-75.62136,5.02117],[-75.62133,5.02119],[-75.62133,5.02119],[-75.62129,5.02122],[-75.62129,5.02123],[-75.62126,5.02125],[-75.62126,5.02125],[-75.62112,5.02136],[-75.62112,5.02136],[-75.62096,5.02132],[-75.62091,5.02131],[-75.62089,5.02134],[-75.62089,5.02134],[-75.62088,5.02136],[-75.62086,5.02139],[-75.62084,5.02142],[-75.62082,5.02146],[-75.6208,5.02151],[-75.62078,5.02155],[-75.62076,5.02159],[-75.62075,5.02163],[-75.62073,5.02168],[-75.62071,5.02172],[-75.62071,5.02172],[-75.62071,5.02177],[-75.6207,5.02181],[-75.62069,5.02185],[-75.62068,5.0219],[-75.62068,5.02195],[-75.62068,5.02197],[-75.62067,5.02198],[-75.6208,5.02198],[-75.62082,5.02198],[-75.62085,5.02198],[-75.62085,5.02198],[-75.62089,5.02198],[-75.62095,5.02198],[-75.62097,5.02198],[-75.621,5.02198],[-75.62104,5.02198],[-75.62109,5.02198],[-75.62114,5.02198]]]},"properties":{"OBJECTID":1,"Estructura_Eco":"Complementaria","Shape_Length":375.28543753206577,"Shape_Area":8421.02829871336,"area":8421.02829871336}}]}