{"type":"FeatureCollection","name":"PerimetroCabecera_y_AreaExpansionUrbana","crs":{"type":"name","properties":{"name":"urn:ogc:def:crs:OGC:1.3:CRS84"}},"features":[{"type":"Feature","id":1,"geometry":{"type":"Polygon","coordinates":[[[-75.76587,5.1734],[-75.76601,5.17367],[-75.76619,5.17355],[-75.76636,5.17346],[-75.76653,5.17333],[-75.76664,5.17325],[-75.7668,5.17312],[-75.76681,5.17312],[-75.76706,5.17295],[-75.76721,5.17287],[-75.76723,5.17288],[-75.76732,5.17295],[-75.76733,5.17296],[-75.76737,5.17302],[-75.76738,5.17304],[-75.7674,5.1731],[-75.76751,5.17305],[-75.76753,5.17302],[-75.76756,5.17299],[-75.76764,5.1729],[-75.76775,5.17281],[-75.76775,5.1728],[-75.76745,5.17248],[-75.76716,5.17284],[-75.76714,5.17283],[-75.7671,5.17267],[-75.76709,5.17261],[-75.76701,5.17233],[-75.76713,5.17216],[-75.7672,5.17203],[-75.76727,5.17191],[-75.76728,5.1719],[-75.76723,5.17188],[-75.76712,5.17178],[-75.76701,5.17171],[-75.76697,5.17169],[-75.76673,5.17135],[-75.76651,5.17107],[-75.76636,5.17045],[-75.76644,5.17036],[-75.76656,5.1702],[-75.76673,5.17006],[-75.76681,5.17003],[-75.76678,5.17],[-75.76675,5.16991],[-75.76673,5.16987],[-75.76672,5.16978],[-75.76674,5.16968],[-75.76678,5.16958],[-75.76685,5.16938],[-75.76691,5.16928],[-75.76696,5.1692],[-75.767,5.16912],[-75.76701,5.16908],[-75.76707,5.16907],[-75.76692,5.1684],[-75.76759,5.16814],[-75.76754,5.16747],[-75.76746,5.1675],[-75.76739,5.16754],[-75.76727,5.16758],[-75.76703,5.16704],[-75.76704,5.16698],[-75.76711,5.16685],[-75.76712,5.16684],[-75.76714,5.16682],[-75.76715,5.1668],[-75.76716,5.16679],[-75.76718,5.16677],[-75.76722,5.16674],[-75.76725,5.16672],[-75.76729,5.16668],[-75.7674,5.16658],[-75.76752,5.16646],[-75.76766,5.16634],[-75.76767,5.16632],[-75.76769,5.16634],[-75.76773,5.16637],[-75.76778,5.1664],[-75.76788,5.16646],[-75.76802,5.16651],[-75.76819,5.16661],[-75.76824,5.16662],[-75.7683,5.16664],[-75.76846,5.16665],[-75.76859,5.16664],[-75.76859,5.16664],[-75.77029,5.16458],[-75.77086,5.16394],[-75.77086,5.16393],[-75.77094,5.16398],[-75.77102,5.16402],[-75.77113,5.16405],[-75.7712,5.16407],[-75.77126,5.16407],[-75.77129,5.16407],[-75.77128,5.16407],[-75.7712,5.16396],[-75.77112,5.16386],[-75.77105,5.16377],[-75.77098,5.16366],[-75.77096,5.16355],[-75.7709,5.16346],[-75.77083,5.16336],[-75.77075,5.16325],[-75.77068,5.16315],[-75.77225,5.16231],[-75.77222,5.16227],[-75.77213,5.16218],[-75.77201,5.1621],[-75.7719,5.16202],[-75.7718,5.16192],[-75.77169,5.16178],[-75.77156,5.16159],[-75.77149,5.16148],[-75.77148,5.16143],[-75.7715,5.16144],[-75.77154,5.16146],[-75.77159,5.16148],[-75.77168,5.1615],[-75.77176,5.16151],[-75.77188,5.16152],[-75.77196,5.16151],[-75.77205,5.16148],[-75.77211,5.16144],[-75.77219,5.16138],[-75.77221,5.16135],[-75.77218,5.16123],[-75.77219,5.16102],[-75.7722,5.16084],[-75.7722,5.16082],[-75.77219,5.16074],[-75.77216,5.16062],[-75.77217,5.16044],[-75.77219,5.16031],[-75.77219,5.16031],[-75.77213,5.16029],[-75.77202,5.16027],[-75.77193,5.16023],[-75.77184,5.16019],[-75.77175,5.16015],[-75.77173,5.16015],[-75.77169,5.16015],[-75.77155,5.16015],[-75.77123,5.16015],[-75.77114,5.16],[-75.77108,5.15991],[-75.77106,5.15987],[-75.77105,5.15979],[-75.77099,5.15971],[-75.77099,5.15964],[-75.77099,5.15961],[-75.77099,5.15961],[-75.77099,5.1596],[-75.771,5.15959],[-75.771,5.15958],[-75.771,5.15957],[-75.771,5.15955],[-75.771,5.15954],[-75.771,5.15954],[-75.771,5.15954],[-75.771,5.15952],[-75.77101,5.15951],[-75.77101,5.15951],[-75.77101,5.1595],[-75.77101,5.1595],[-75.77101,5.15944],[-75.77102,5.15944],[-75.77102,5.15944],[-75.77103,5.15944],[-75.77103,5.15944],[-75.77105,5.15937],[-75.77105,5.15937],[-75.77105,5.15935],[-75.77101,5.15932],[-75.77097,5.15929],[-75.77095,5.15927],[-75.77093,5.15925],[-75.77089,5.15922],[-75.77087,5.15921],[-75.77084,5.15919],[-75.7708,5.15915],[-75.77077,5.15913],[-75.77076,5.15912],[-75.77075,5.15911],[-75.7707,5.15919],[-75.77067,5.15924],[-75.77067,5.15924],[-75.77066,5.15925],[-75.77065,5.15927],[-75.77063,5.1593],[-75.77058,5.15939],[-75.77058,5.1594],[-75.77054,5.15943],[-75.77053,5.15943],[-75.77052,5.15943],[-75.77052,5.15943],[-75.7705,5.15946],[-75.77045,5.15943],[-75.77038,5.15939],[-75.77034,5.15937],[-75.7703,5.15935],[-75.77029,5.15934],[-75.77023,5.15932],[-75.77018,5.15929],[-75.77016,5.15928],[-75.77014,5.15927],[-75.77013,5.15926],[-75.77008,5.15924],[-75.77004,5.15922],[-75.77002,5.15921],[-75.77,5.1592],[-75.76997,5.15918],[-75.76991,5.15915],[-75.76988,5.15914],[-75.76986,5.15913],[-75.76985,5.15912],[-75.76984,5.15911],[-75.76981,5.1591],[-75.76978,5.15911],[-75.76975,5.15911],[-75.76971,5.15912],[-75.7696,5.15915],[-75.7696,5.15915],[-75.76956,5.15916],[-75.76942,5.15919],[-75.7694,5.15921],[-75.76935,5.15925],[-75.76935,5.15925],[-75.76928,5.15931],[-75.76878,5.15914],[-75.76856,5.1591],[-75.76846,5.15907],[-75.7684,5.15904],[-75.76834,5.15899],[-75.7683,5.15895],[-75.76831,5.1588],[-75.76835,5.15854],[-75.76841,5.15841],[-75.76848,5.15836],[-75.76864,5.15829],[-75.76871,5.15827],[-75.76885,5.15822],[-75.769,5.15819],[-75.7691,5.15816],[-75.7692,5.15813],[-75.76932,5.15809],[-75.76942,5.15807],[-75.76955,5.15802],[-75.76964,5.15798],[-75.76972,5.15794],[-75.76979,5.1579],[-75.76985,5.15787],[-75.76986,5.15786],[-75.76983,5.15773],[-75.76983,5.15773],[-75.76983,5.15773],[-75.76981,5.15774],[-75.76976,5.15779],[-75.76968,5.15784],[-75.76964,5.15786],[-75.76963,5.15787],[-75.76954,5.1579],[-75.76952,5.15791],[-75.76946,5.15794],[-75.76941,5.15795],[-75.76935,5.15798],[-75.76929,5.15799],[-75.76922,5.15802],[-75.76913,5.15805],[-75.76906,5.15806],[-75.76901,5.15807],[-75.76896,5.15794],[-75.76858,5.15802],[-75.76829,5.15818],[-75.76836,5.1583],[-75.76834,5.15832],[-75.76823,5.15844],[-75.76822,5.15843],[-75.76814,5.15836],[-75.76812,5.15833],[-75.76802,5.15824],[-75.76797,5.15819],[-75.76792,5.15815],[-75.7679,5.15813],[-75.76789,5.15812],[-75.76787,5.1581],[-75.76786,5.15809],[-75.76782,5.15806],[-75.76779,5.15804],[-75.76775,5.15802],[-75.76772,5.158],[-75.76769,5.15797],[-75.76765,5.15795],[-75.76765,5.15794],[-75.76761,5.15792],[-75.76757,5.15789],[-75.76754,5.15787],[-75.76748,5.15783],[-75.76748,5.15784],[-75.76747,5.15784],[-75.76747,5.15785],[-75.76747,5.15785],[-75.76746,5.15785],[-75.76746,5.15786],[-75.76746,5.15786],[-75.76746,5.15786],[-75.76745,5.15787],[-75.76745,5.15787],[-75.76745,5.15787],[-75.76743,5.1579],[-75.76741,5.15791],[-75.76741,5.15791],[-75.76741,5.15792],[-75.76741,5.15792],[-75.76741,5.15792],[-75.7674,5.15793],[-75.7674,5.15793],[-75.76734,5.15801],[-75.76732,5.158],[-75.76729,5.15798],[-75.76727,5.15796],[-75.76723,5.15793],[-75.76716,5.15786],[-75.76714,5.15783],[-75.76705,5.15772],[-75.76696,5.15761],[-75.76696,5.15758],[-75.76695,5.15755],[-75.76695,5.15747],[-75.76696,5.15745],[-75.767,5.15739],[-75.76707,5.15731],[-75.76713,5.15719],[-75.76706,5.15711],[-75.76695,5.15707],[-75.7669,5.15705],[-75.76683,5.15711],[-75.76674,5.15701],[-75.7667,5.15698],[-75.76662,5.15695],[-75.76664,5.15705],[-75.76665,5.15709],[-75.76663,5.15719],[-75.76659,5.15729],[-75.76655,5.15739],[-75.76648,5.15753],[-75.76643,5.15764],[-75.76643,5.15768],[-75.7664,5.1578],[-75.76637,5.15802],[-75.76638,5.15821],[-75.76639,5.15838],[-75.7664,5.15859],[-75.7664,5.15875],[-75.76638,5.15889],[-75.76634,5.15902],[-75.76631,5.15912],[-75.76633,5.15911],[-75.76642,5.15907],[-75.76655,5.15904],[-75.76663,5.15903],[-75.76672,5.15901],[-75.76688,5.15898],[-75.76692,5.15898],[-75.76694,5.1591],[-75.76697,5.15919],[-75.76706,5.15917],[-75.76712,5.15916],[-75.76709,5.15897],[-75.76712,5.15897],[-75.76721,5.15897],[-75.76725,5.15898],[-75.76731,5.159],[-75.76739,5.159],[-75.76745,5.159],[-75.76748,5.159],[-75.7675,5.159],[-75.76749,5.15904],[-75.76748,5.15911],[-75.76746,5.15917],[-75.76745,5.1593],[-75.76744,5.15936],[-75.76744,5.15944],[-75.76745,5.15954],[-75.76746,5.15962],[-75.76746,5.15962],[-75.76743,5.15963],[-75.76737,5.15967],[-75.7673,5.15972],[-75.76722,5.15977],[-75.76715,5.15984],[-75.76709,5.15989],[-75.76707,5.15992],[-75.76707,5.15992],[-75.76702,5.15995],[-75.76696,5.16002],[-75.76692,5.16008],[-75.76694,5.16016],[-75.7667,5.16087],[-75.76638,5.16089],[-75.76627,5.1609],[-75.76626,5.1609],[-75.76614,5.16092],[-75.76613,5.16092],[-75.76605,5.16092],[-75.76605,5.16094],[-75.76558,5.16134],[-75.76565,5.16147],[-75.76573,5.16157],[-75.76582,5.16171],[-75.76587,5.16178],[-75.76591,5.16183],[-75.76607,5.162],[-75.76615,5.16206],[-75.76615,5.16207],[-75.766,5.16223],[-75.7644,5.16474],[-75.7644,5.16483],[-75.76437,5.16496],[-75.76434,5.16507],[-75.76433,5.16511],[-75.76428,5.16521],[-75.76421,5.16533],[-75.76414,5.16544],[-75.76407,5.16553],[-75.76402,5.16562],[-75.76398,5.16569],[-75.76396,5.16572],[-75.76388,5.16569],[-75.76386,5.16568],[-75.76382,5.16566],[-75.76374,5.16564],[-75.76374,5.16564],[-75.76375,5.16566],[-75.7637,5.16564],[-75.76367,5.16598],[-75.76371,5.16619],[-75.76371,5.16623],[-75.76372,5.16628],[-75.76366,5.16635],[-75.76364,5.16637],[-75.76361,5.1664],[-75.7636,5.16642],[-75.76359,5.16643],[-75.76354,5.16649],[-75.76352,5.16651],[-75.7635,5.16654],[-75.7636,5.16653],[-75.76361,5.16653],[-75.76366,5.16656],[-75.76366,5.16657],[-75.76365,5.1666],[-75.76363,5.16663],[-75.76363,5.16664],[-75.76362,5.16665],[-75.76362,5.16666],[-75.76362,5.16667],[-75.7636,5.16671],[-75.7636,5.16672],[-75.76359,5.16673],[-75.76358,5.16675],[-75.76358,5.16677],[-75.76358,5.1668],[-75.76358,5.16682],[-75.76359,5.16683],[-75.76361,5.16683],[-75.76363,5.16693],[-75.76365,5.16697],[-75.76365,5.16697],[-75.76361,5.16699],[-75.76353,5.16702],[-75.76346,5.16704],[-75.76344,5.16705],[-75.76336,5.16709],[-75.76328,5.16713],[-75.7632,5.16714],[-75.76313,5.16713],[-75.76315,5.16722],[-75.76317,5.16741],[-75.76321,5.16749],[-75.76325,5.16759],[-75.7633,5.16766],[-75.76341,5.16777],[-75.76353,5.16787],[-75.76366,5.16797],[-75.76374,5.16803],[-75.76383,5.1681],[-75.76394,5.16815],[-75.76402,5.16817],[-75.76409,5.16818],[-75.76409,5.16817],[-75.7641,5.16819],[-75.7641,5.16819],[-75.7641,5.16827],[-75.76408,5.1684],[-75.76405,5.16858],[-75.764,5.16874],[-75.76394,5.16886],[-75.7639,5.16895],[-75.76384,5.16897],[-75.76375,5.16898],[-75.76361,5.16899],[-75.76357,5.16912],[-75.76353,5.16925],[-75.76349,5.16939],[-75.76347,5.16953],[-75.76347,5.16962],[-75.76355,5.16957],[-75.76363,5.16953],[-75.76373,5.16952],[-75.76379,5.16951],[-75.76386,5.16951],[-75.76392,5.1695],[-75.76385,5.16976],[-75.76382,5.16991],[-75.76382,5.16991],[-75.76382,5.16991],[-75.76383,5.16991],[-75.76383,5.16991],[-75.76384,5.16991],[-75.76385,5.16991],[-75.76386,5.1699],[-75.76388,5.16989],[-75.76383,5.17004],[-75.76381,5.17007],[-75.76381,5.17007],[-75.76381,5.17007],[-75.76379,5.17009],[-75.76378,5.17012],[-75.76376,5.17013],[-75.76376,5.17014],[-75.76374,5.1702],[-75.76377,5.17021],[-75.76377,5.17022],[-75.76378,5.17022],[-75.76363,5.1705],[-75.76363,5.17052],[-75.76362,5.17056],[-75.76362,5.17061],[-75.76361,5.17074],[-75.76361,5.17087],[-75.76361,5.17102],[-75.76363,5.17114],[-75.76364,5.17125],[-75.76364,5.17138],[-75.76365,5.17144],[-75.76367,5.17145],[-75.76368,5.17153],[-75.7637,5.1717],[-75.76371,5.17174],[-75.76374,5.17189],[-75.76378,5.17204],[-75.76382,5.17223],[-75.76385,5.17242],[-75.76387,5.17257],[-75.76387,5.17264],[-75.76385,5.17265],[-75.76383,5.17272],[-75.76384,5.17286],[-75.76385,5.17304],[-75.76386,5.17317],[-75.76388,5.17325],[-75.76391,5.17337],[-75.76396,5.17345],[-75.76401,5.17352],[-75.76403,5.17353],[-75.76406,5.17355],[-75.76411,5.17357],[-75.76411,5.17357],[-75.76414,5.17357],[-75.76418,5.17357],[-75.76427,5.17357],[-75.76436,5.17354],[-75.76449,5.17345],[-75.76451,5.17344],[-75.7646,5.17337],[-75.76469,5.1733],[-75.76479,5.17323],[-75.76489,5.17315],[-75.76498,5.17305],[-75.76503,5.17299],[-75.76509,5.17307],[-75.76525,5.1733],[-75.76528,5.17333],[-75.76535,5.1734],[-75.76543,5.17346],[-75.76547,5.17342],[-75.7656,5.17334],[-75.76572,5.17328],[-75.76587,5.1734]]]},"properties":{"OBJECTID":1,"Id":0,"Area_Ha":80.3233364070293,"Tipo":"Perímetro Urbano","Shape_Length":6711.660616361035,"Shape_Area":803233.364070293}},{"type":"Feature","id":2,"geometry":{"type":"Polygon","coordinates":[[[-75.77373,5.16036],[-75.77381,5.16037],[-75.77399,5.16039],[-75.7742,5.16042],[-75.77434,5.16043],[-75.77434,5.16043],[-75.77434,5.16043],[-75.77418,5.16022],[-75.77389,5.15988],[-75.77363,5.15953],[-75.7737,5.15952],[-75.77384,5.1595],[-75.77384,5.1595],[-75.774,5.15945],[-75.77418,5.15942],[-75.77433,5.15937],[-75.77436,5.15936],[-75.77441,5.15934],[-75.77436,5.1593],[-75.77429,5.15923],[-75.77418,5.15913],[-75.77406,5.15902],[-75.77396,5.15895],[-75.77381,5.15883],[-75.77372,5.15872],[-75.77362,5.15862],[-75.77351,5.15851],[-75.77345,5.15842],[-75.77341,5.15841],[-75.77333,5.15838],[-75.77329,5.15836],[-75.77321,5.15832],[-75.7731,5.15824],[-75.77296,5.15813],[-75.77279,5.15803],[-75.77261,5.15793],[-75.7725,5.15789],[-75.77235,5.15781],[-75.77219,5.15773],[-75.77204,5.15767],[-75.77189,5.15761],[-75.77179,5.15757],[-75.76983,5.15773],[-75.76986,5.15786],[-75.76985,5.15787],[-75.76979,5.1579],[-75.76972,5.15794],[-75.76964,5.15798],[-75.76955,5.15802],[-75.76942,5.15807],[-75.76932,5.15809],[-75.7692,5.15813],[-75.7691,5.15816],[-75.769,5.15819],[-75.76885,5.15822],[-75.76871,5.15827],[-75.76864,5.15829],[-75.76848,5.15836],[-75.76841,5.15841],[-75.76835,5.15854],[-75.76831,5.1588],[-75.7683,5.15895],[-75.76834,5.15899],[-75.7684,5.15904],[-75.76846,5.15907],[-75.76856,5.1591],[-75.76878,5.15914],[-75.76928,5.15931],[-75.76935,5.15925],[-75.76935,5.15925],[-75.7694,5.15921],[-75.76942,5.15919],[-75.76956,5.15916],[-75.7696,5.15915],[-75.7696,5.15915],[-75.76971,5.15912],[-75.76975,5.15911],[-75.76978,5.15911],[-75.76981,5.1591],[-75.76984,5.15911],[-75.76985,5.15912],[-75.76986,5.15913],[-75.76988,5.15914],[-75.76991,5.15915],[-75.76997,5.15918],[-75.77,5.1592],[-75.77002,5.15921],[-75.77004,5.15922],[-75.77008,5.15924],[-75.77013,5.15926],[-75.77014,5.15927],[-75.77016,5.15928],[-75.77018,5.15929],[-75.77023,5.15932],[-75.77029,5.15934],[-75.7703,5.15935],[-75.77034,5.15937],[-75.77038,5.15939],[-75.77045,5.15943],[-75.7705,5.15946],[-75.77052,5.15943],[-75.77052,5.15943],[-75.77053,5.15943],[-75.77054,5.15943],[-75.77058,5.1594],[-75.77058,5.15939],[-75.77063,5.1593],[-75.77065,5.15927],[-75.77066,5.15925],[-75.77067,5.15924],[-75.77067,5.15924],[-75.7707,5.15919],[-75.77075,5.15911],[-75.77076,5.15912],[-75.77077,5.15913],[-75.7708,5.15915],[-75.77084,5.15919],[-75.77087,5.15921],[-75.77089,5.15922],[-75.77093,5.15925],[-75.77095,5.15927],[-75.77097,5.15929],[-75.77101,5.15932],[-75.77105,5.15935],[-75.77105,5.15937],[-75.77105,5.15937],[-75.77103,5.15944],[-75.77103,5.15944],[-75.77102,5.15944],[-75.77102,5.15944],[-75.77101,5.15944],[-75.77101,5.1595],[-75.77101,5.1595],[-75.77101,5.15951],[-75.77101,5.15951],[-75.771,5.15952],[-75.771,5.15954],[-75.771,5.15954],[-75.771,5.15954],[-75.771,5.15955],[-75.771,5.15957],[-75.771,5.15958],[-75.771,5.15959],[-75.77099,5.1596],[-75.77099,5.15961],[-75.77099,5.15961],[-75.77099,5.15964],[-75.77099,5.15971],[-75.77105,5.15979],[-75.77106,5.15987],[-75.77108,5.15991],[-75.77114,5.16],[-75.77123,5.16015],[-75.77155,5.16015],[-75.77169,5.16015],[-75.77173,5.16015],[-75.77175,5.16015],[-75.77184,5.16019],[-75.77193,5.16023],[-75.77202,5.16027],[-75.77213,5.16029],[-75.77219,5.16031],[-75.77219,5.16031],[-75.77222,5.16033],[-75.77223,5.16033],[-75.77223,5.16034],[-75.77224,5.16034],[-75.77225,5.16034],[-75.77237,5.16035],[-75.77247,5.16035],[-75.77253,5.16034],[-75.77276,5.16035],[-75.77303,5.16037],[-75.77324,5.16036],[-75.77334,5.16036],[-75.77337,5.16035],[-75.77373,5.16036]]]},"properties":{"OBJECTID":2,"Id":0,"Area_Ha":12.521454533596758,"Tipo":"Zona de Expansión Urbana El Descanso","Shape_Length":1847.6017541231138,"Shape_Area":125214.54533596757}},{"type":"Feature","id":3,"geometry":{"type":"Polygon","coordinates":[[[-75.77158,5.15255],[-75.77163,5.15264],[-75.77168,5.15274],[-75.77173,5.15281],[-75.7718,5.15289],[-75.77179,5.15311],[-75.7718,5.15329],[-75.77183,5.15343],[-75.77186,5.15358],[-75.77189,5.15366],[-75.77202,5.15366],[-75.77213,5.15367],[-75.77229,5.15365],[-75.7724,5.15362],[-75.77256,5.15356],[-75.77264,5.15355],[-75.77271,5.15356],[-75.77275,5.15358],[-75.77279,5.15363],[-75.77283,5.15368],[-75.77289,5.15374],[-75.7729,5.15377],[-75.77294,5.15384],[-75.7731,5.15395],[-75.77319,5.15372],[-75.77321,5.15372],[-75.77325,5.15371],[-75.77332,5.1537],[-75.77337,5.1537],[-75.77341,5.1537],[-75.77341,5.15368],[-75.77342,5.15361],[-75.77342,5.15355],[-75.77342,5.15352],[-75.77343,5.15349],[-75.7718,5.15113],[-75.7718,5.15113],[-75.7718,5.15113],[-75.77154,5.15117],[-75.77154,5.15117],[-75.77153,5.15121],[-75.77152,5.1513],[-75.77151,5.15136],[-75.77151,5.15137],[-75.77144,5.15138],[-75.7714,5.15138],[-75.77133,5.1514],[-75.77127,5.1514],[-75.77132,5.15198],[-75.77165,5.15197],[-75.77174,5.15217],[-75.77167,5.15221],[-75.77163,5.15224],[-75.7716,5.15229],[-75.77158,5.15231],[-75.77156,5.15238],[-75.77156,5.15245],[-75.77156,5.15245],[-75.77157,5.15249],[-75.77158,5.15255]]]},"properties":{"OBJECTID":3,"Id":0,"Area_Ha":3.3374517471195673,"Tipo":"Centro Poblado Quiebra de Varillas","Shape_Length":934.8404537500302,"Shape_Area":33374.51747119567}},{"type":"Feature","id":4,"geometry":{"type":"Polygon","coordinates":[[[-75.77189,5.15366],[-75.7719,5.1537],[-75.77195,5.15383],[-75.77203,5.15396],[-75.77212,5.15409],[-75.77218,5.15417],[-75.77223,5.15423],[-75.77229,5.1543],[-75.77236,5.15438],[-75.77255,5.15433],[-75.77276,5.15429],[-75.77288,5.15427],[-75.77308,5.15423],[-75.77307,5.15418],[-75.77308,5.15413],[-75.77309,5.15406],[-75.77309,5.15399],[-75.77309,5.15399],[-75.7731,5.15395],[-75.77294,5.15384],[-75.7729,5.15377],[-75.77289,5.15374],[-75.77283,5.15368],[-75.77279,5.15363],[-75.77275,5.15358],[-75.77271,5.15356],[-75.77264,5.15355],[-75.77256,5.15356],[-75.7724,5.15362],[-75.77229,5.15365],[-75.77213,5.15367],[-75.77202,5.15366],[-75.77189,5.15366]]]},"properties":{"OBJECTID":4,"Id":0,"Area_Ha":0.7993134551188857,"Tipo":"Zona Expansión Centro Poblado Quiebra Varillas","Shape_Length":363.12528527562586,"Shape_Area":7993.134551188858}}]}