{"type":"FeatureCollection","name":"h_1_Cond_Amenaza_MovMasa","crs":{"type":"name","properties":{"name":"urn:ogc:def:crs:OGC:1.3:CRS84"}},"features":[{"type":"Feature","id":0,"geometry":{"type":"MultiPolygon","coordinates":[[[[-75.86957,5.06763],[-75.86954,5.06763],[-75.86951,5.06763],[-75.86948,5.06764],[-75.86945,5.06765],[-75.86943,5.06766],[-75.86941,5.06767],[-75.86938,5.06769],[-75.86936,5.0677],[-75.86934,5.06772],[-75.86932,5.06774],[-75.8693,5.06776],[-75.86928,5.06778],[-75.86926,5.0678],[-75.86925,5.06782],[-75.86925,5.06784],[-75.86924,5.06786],[-75.86924,5.06788],[-75.86923,5.0679],[-75.86923,5.06794],[-75.86924,5.06805],[-75.86924,5.06808],[-75.86923,5.06811],[-75.86922,5.06816],[-75.86918,5.06828],[-75.86917,5.06831],[-75.86917,5.06834],[-75.86916,5.06838],[-75.86917,5.06843],[-75.86918,5.06848],[-75.8692,5.06858],[-75.86921,5.06864],[-75.86923,5.06876],[-75.86923,5.06888],[-75.86924,5.06899],[-75.86924,5.06909],[-75.86924,5.06919],[-75.86923,5.06929],[-75.86922,5.06938],[-75.86921,5.06947],[-75.8692,5.06958],[-75.86919,5.06962],[-75.86919,5.06964],[-75.86918,5.06966],[-75.86917,5.06968],[-75.86916,5.06969],[-75.86915,5.0697],[-75.86913,5.06972],[-75.86907,5.06976],[-75.86905,5.06978],[-75.869,5.06982],[-75.86897,5.06985],[-75.86894,5.06988],[-75.86891,5.06991],[-75.86889,5.06995],[-75.86887,5.07],[-75.86885,5.07004],[-75.86938,5.06969],[-75.86941,5.06958],[-75.86942,5.06952],[-75.86943,5.06947],[-75.86943,5.06943],[-75.86944,5.06938],[-75.86944,5.06921],[-75.86944,5.06914],[-75.86945,5.06904],[-75.86946,5.06893],[-75.86948,5.06883],[-75.8695,5.06873],[-75.86952,5.06863],[-75.86953,5.06857],[-75.86955,5.06851],[-75.86957,5.06847],[-75.86961,5.06835],[-75.86963,5.06831],[-75.86965,5.06827],[-75.86968,5.06824],[-75.8697,5.0682],[-75.86972,5.06818],[-75.86975,5.06815],[-75.86978,5.06812],[-75.86986,5.06808],[-75.86989,5.06806],[-75.86996,5.06801],[-75.86998,5.06799],[-75.87,5.06797],[-75.87001,5.06796],[-75.87002,5.06795],[-75.87002,5.06793],[-75.87002,5.0679],[-75.87002,5.06787],[-75.87002,5.06784],[-75.87001,5.06783],[-75.87,5.06782],[-75.86998,5.06779],[-75.86996,5.06777],[-75.86991,5.06773],[-75.86988,5.06771],[-75.86985,5.06769],[-75.86982,5.06767],[-75.86978,5.06766],[-75.86974,5.06764],[-75.86971,5.06763],[-75.86967,5.06763],[-75.86963,5.06762],[-75.8696,5.06762],[-75.86957,5.06763]]],[[[-75.87709,5.06939],[-75.8771,5.06952],[-75.87711,5.06954],[-75.87732,5.06973],[-75.87745,5.06982],[-75.87746,5.06982],[-75.87749,5.06983],[-75.87753,5.06983],[-75.87757,5.06984],[-75.87761,5.06984],[-75.87765,5.06984],[-75.87768,5.06984],[-75.87772,5.06983],[-75.87775,5.06983],[-75.87778,5.06982],[-75.87781,5.06981],[-75.87783,5.0698],[-75.87785,5.06979],[-75.87787,5.06977],[-75.87789,5.06976],[-75.87791,5.06973],[-75.87793,5.0697],[-75.87794,5.06967],[-75.87796,5.06963],[-75.87796,5.06962],[-75.87796,5.06961],[-75.87796,5.0696],[-75.87796,5.06959],[-75.87796,5.06957],[-75.87797,5.06952],[-75.87797,5.06951],[-75.87797,5.06951],[-75.87797,5.06951],[-75.87798,5.06945],[-75.87798,5.06944],[-75.87798,5.06943],[-75.87798,5.06942],[-75.87799,5.06939],[-75.87799,5.06938],[-75.87799,5.06938],[-75.87798,5.06934],[-75.87798,5.06931],[-75.87797,5.06928],[-75.87795,5.06924],[-75.87793,5.06917],[-75.87785,5.06902],[-75.87783,5.06898],[-75.87782,5.06894],[-75.8778,5.06888],[-75.87778,5.0688],[-75.87777,5.06872],[-75.87773,5.0685],[-75.87772,5.06843],[-75.8777,5.06837],[-75.87768,5.06831],[-75.87766,5.06825],[-75.87764,5.0682],[-75.87761,5.06815],[-75.87754,5.06807],[-75.8775,5.06801],[-75.87749,5.068],[-75.87749,5.068],[-75.87747,5.068],[-75.87746,5.068],[-75.87727,5.06792],[-75.87702,5.06804],[-75.87701,5.06808],[-75.87701,5.06812],[-75.87702,5.06815],[-75.87703,5.06819],[-75.87705,5.06822],[-75.87707,5.06826],[-75.8771,5.06829],[-75.8772,5.06841],[-75.87724,5.06846],[-75.87727,5.06851],[-75.87729,5.06854],[-75.8773,5.06856],[-75.87731,5.0686],[-75.87732,5.06864],[-75.87735,5.06877],[-75.87736,5.06882],[-75.87738,5.06886],[-75.87739,5.0689],[-75.8774,5.06892],[-75.87742,5.06895],[-75.87744,5.06897],[-75.87747,5.069],[-75.87752,5.06906],[-75.87766,5.06919],[-75.87769,5.06922],[-75.87771,5.06924],[-75.87773,5.06927],[-75.87773,5.06928],[-75.87773,5.06929],[-75.87773,5.0693],[-75.87773,5.06931],[-75.87773,5.06932],[-75.87772,5.06933],[-75.8777,5.06934],[-75.87767,5.06935],[-75.87763,5.06937],[-75.87759,5.06938],[-75.87754,5.06938],[-75.8775,5.06938],[-75.87747,5.06938],[-75.87744,5.06937],[-75.87741,5.06936],[-75.87738,5.06934],[-75.87734,5.06932],[-75.87731,5.06928],[-75.87728,5.06924],[-75.87725,5.0692],[-75.87723,5.06914],[-75.8772,5.06909],[-75.87719,5.06906],[-75.87718,5.06904],[-75.87718,5.06901],[-75.87717,5.06898],[-75.87717,5.06892],[-75.87716,5.06877],[-75.87715,5.0687],[-75.87714,5.06863],[-75.87713,5.06844],[-75.87712,5.06839],[-75.87712,5.06835],[-75.8771,5.06831],[-75.8771,5.0683],[-75.87709,5.06829],[-75.87708,5.06828],[-75.87708,5.06828],[-75.87707,5.06827],[-75.87706,5.06827],[-75.87704,5.06828],[-75.87702,5.06829],[-75.877,5.0683],[-75.87697,5.06832],[-75.87695,5.06835],[-75.87693,5.06837],[-75.87691,5.06839],[-75.87689,5.06842],[-75.87687,5.06845],[-75.87686,5.06848],[-75.87685,5.06853],[-75.87685,5.06857],[-75.87685,5.06862],[-75.87686,5.06868],[-75.87687,5.06873],[-75.87689,5.06885],[-75.8769,5.06888],[-75.8769,5.06891],[-75.87693,5.06897],[-75.87696,5.06904],[-75.87704,5.06922],[-75.87706,5.06928],[-75.87708,5.06933],[-75.87709,5.06935],[-75.87709,5.06939]]],[[[-75.87601,5.06811],[-75.87602,5.06812],[-75.87603,5.06813],[-75.87605,5.06814],[-75.87608,5.06818],[-75.87611,5.06823],[-75.87612,5.06825],[-75.87613,5.06828],[-75.87613,5.06831],[-75.87614,5.06839],[-75.87615,5.06843],[-75.87616,5.06846],[-75.87619,5.06854],[-75.8762,5.06858],[-75.87621,5.0686],[-75.87621,5.06863],[-75.87619,5.06872],[-75.87619,5.06876],[-75.87619,5.06879],[-75.8762,5.06881],[-75.87621,5.06882],[-75.87654,5.06908],[-75.87657,5.0691],[-75.87662,5.06912],[-75.87667,5.06913],[-75.87672,5.06914],[-75.87674,5.06914],[-75.87676,5.06914],[-75.87677,5.06914],[-75.87679,5.06913],[-75.8768,5.06913],[-75.87681,5.06912],[-75.87683,5.0691],[-75.87684,5.06908],[-75.87686,5.06906],[-75.87687,5.06904],[-75.87689,5.06902],[-75.87689,5.06899],[-75.8769,5.06897],[-75.8769,5.06896],[-75.8769,5.06895],[-75.87689,5.06894],[-75.87688,5.06892],[-75.87686,5.0689],[-75.87683,5.06888],[-75.8768,5.06885],[-75.87671,5.06881],[-75.87668,5.06879],[-75.87665,5.06878],[-75.87662,5.06876],[-75.87649,5.06873],[-75.87644,5.06871],[-75.87641,5.06869],[-75.87639,5.06868],[-75.87638,5.06867],[-75.87637,5.06865],[-75.87635,5.06862],[-75.87634,5.06858],[-75.87633,5.06853],[-75.87632,5.06846],[-75.8763,5.06837],[-75.8763,5.06832],[-75.8763,5.0683],[-75.87631,5.06828],[-75.87631,5.06826],[-75.87632,5.06825],[-75.87633,5.06823],[-75.87635,5.06821],[-75.87637,5.06819],[-75.8764,5.06817],[-75.87641,5.06816],[-75.87643,5.06816],[-75.87645,5.06816],[-75.87645,5.06816],[-75.87638,5.06809],[-75.87631,5.06803],[-75.8763,5.06803],[-75.8763,5.06803],[-75.87629,5.06802],[-75.87643,5.06791],[-75.8764,5.06788],[-75.8763,5.06784],[-75.87624,5.06782],[-75.87619,5.0678],[-75.87615,5.06779],[-75.87611,5.06779],[-75.87607,5.06778],[-75.87603,5.06779],[-75.876,5.06779],[-75.87598,5.0678],[-75.87595,5.06781],[-75.87592,5.06783],[-75.8759,5.06784],[-75.87588,5.06786],[-75.87587,5.06788],[-75.87585,5.0679],[-75.87584,5.06792],[-75.87584,5.06794],[-75.87583,5.06801],[-75.87582,5.06804],[-75.87581,5.06806],[-75.8758,5.06807],[-75.87579,5.06808],[-75.87577,5.06809],[-75.87575,5.0681],[-75.8757,5.06811],[-75.87568,5.06812],[-75.87566,5.06813],[-75.87565,5.06814],[-75.87565,5.06815],[-75.87564,5.06816],[-75.87564,5.06818],[-75.87564,5.06821],[-75.87564,5.06823],[-75.87564,5.06825],[-75.87564,5.06827],[-75.87565,5.06829],[-75.87566,5.0683],[-75.87567,5.06831],[-75.87568,5.06832],[-75.8757,5.06833],[-75.87572,5.06833],[-75.87574,5.06833],[-75.87577,5.06833],[-75.8758,5.06833],[-75.87582,5.06833],[-75.87584,5.06833],[-75.87586,5.06832],[-75.87591,5.0683],[-75.87592,5.06829],[-75.87594,5.06828],[-75.87595,5.06827],[-75.87597,5.06826],[-75.87597,5.06824],[-75.87598,5.06822],[-75.87599,5.06813],[-75.876,5.06812],[-75.876,5.06811],[-75.87601,5.06811]]],[[[-75.87051,5.06833],[-75.87049,5.06833],[-75.87047,5.06834],[-75.87045,5.06835],[-75.87044,5.06836],[-75.87042,5.06838],[-75.8704,5.0684],[-75.87039,5.06842],[-75.87038,5.06844],[-75.87038,5.06845],[-75.87037,5.06846],[-75.87037,5.06847],[-75.87038,5.06848],[-75.87038,5.06848],[-75.8704,5.06849],[-75.87042,5.06849],[-75.87049,5.06849],[-75.87051,5.0685],[-75.87053,5.0685],[-75.87056,5.06852],[-75.87058,5.06854],[-75.87061,5.06857],[-75.87062,5.06859],[-75.87063,5.0686],[-75.87063,5.06861],[-75.87063,5.06868],[-75.87064,5.0687],[-75.87064,5.06871],[-75.87066,5.06874],[-75.87067,5.06877],[-75.87069,5.06878],[-75.87071,5.06879],[-75.87072,5.06879],[-75.87082,5.06872],[-75.87081,5.06871],[-75.87079,5.06869],[-75.87078,5.06868],[-75.87078,5.06866],[-75.87077,5.06865],[-75.87077,5.06863],[-75.87077,5.06861],[-75.87078,5.06857],[-75.87081,5.06848],[-75.87081,5.06844],[-75.87081,5.06842],[-75.87081,5.06841],[-75.8708,5.0684],[-75.87079,5.06839],[-75.87078,5.06838],[-75.87075,5.06837],[-75.87072,5.06836],[-75.87068,5.06835],[-75.87059,5.06833],[-75.87056,5.06833],[-75.87053,5.06833],[-75.87051,5.06833]]],[[[-75.87142,5.06842],[-75.8714,5.06842],[-75.87138,5.06843],[-75.87137,5.06844],[-75.87135,5.06845],[-75.87133,5.06848],[-75.87131,5.06851],[-75.87129,5.06856],[-75.87165,5.06852],[-75.87162,5.0685],[-75.87161,5.06848],[-75.87159,5.06847],[-75.87157,5.06846],[-75.87156,5.06845],[-75.87153,5.06844],[-75.8715,5.06843],[-75.87147,5.06843],[-75.87145,5.06842],[-75.87142,5.06842]]],[[[-75.87806,5.06753],[-75.87803,5.06754],[-75.878,5.06756],[-75.87796,5.06758],[-75.87792,5.06761],[-75.87791,5.06762],[-75.87792,5.06763],[-75.87792,5.06763],[-75.87793,5.06765],[-75.87796,5.06769],[-75.87796,5.06769],[-75.87796,5.0677],[-75.87798,5.06775],[-75.87798,5.06777],[-75.87798,5.06778],[-75.878,5.06785],[-75.878,5.06786],[-75.878,5.06787],[-75.87805,5.06792],[-75.87805,5.06793],[-75.87809,5.06796],[-75.8781,5.06798],[-75.87814,5.06801],[-75.87816,5.06803],[-75.87818,5.06805],[-75.87822,5.06808],[-75.87823,5.06809],[-75.87823,5.06806],[-75.87822,5.068],[-75.87821,5.06786],[-75.87821,5.0678],[-75.8782,5.06773],[-75.87819,5.0677],[-75.87818,5.06768],[-75.87816,5.06761],[-75.87814,5.06758],[-75.87812,5.06755],[-75.87812,5.06754],[-75.87811,5.06753],[-75.8781,5.06753],[-75.87809,5.06753],[-75.87808,5.06753],[-75.87806,5.06753]]],[[[-75.87298,5.0674],[-75.87302,5.06741],[-75.87306,5.06742],[-75.87313,5.06744],[-75.87317,5.06746],[-75.8732,5.06748],[-75.87323,5.0675],[-75.87325,5.06752],[-75.87326,5.06755],[-75.87328,5.06759],[-75.87329,5.06764],[-75.8733,5.06766],[-75.8733,5.06769],[-75.8733,5.06778],[-75.8733,5.06781],[-75.8733,5.06784],[-75.87331,5.06786],[-75.87334,5.06789],[-75.87336,5.06792],[-75.87338,5.06794],[-75.87339,5.06794],[-75.8734,5.06795],[-75.87341,5.06795],[-75.87342,5.06794],[-75.87343,5.06793],[-75.87345,5.06792],[-75.87348,5.06789],[-75.87351,5.06783],[-75.87353,5.0678],[-75.87355,5.06776],[-75.87356,5.06771],[-75.87357,5.06765],[-75.87359,5.06757],[-75.87359,5.06752],[-75.8736,5.06747],[-75.8736,5.06744],[-75.8736,5.0674],[-75.87359,5.06737],[-75.87358,5.06734],[-75.87356,5.06732],[-75.87354,5.06731],[-75.87351,5.06729],[-75.87348,5.06728],[-75.87341,5.06726],[-75.87334,5.06723],[-75.8733,5.06722],[-75.87326,5.06721],[-75.87322,5.0672],[-75.87318,5.0672],[-75.87309,5.0672],[-75.87306,5.0672],[-75.87303,5.06719],[-75.873,5.06719],[-75.87289,5.06715],[-75.87285,5.06714],[-75.87281,5.06713],[-75.87279,5.06713],[-75.87277,5.06713],[-75.87273,5.06714],[-75.8727,5.06715],[-75.87266,5.06716],[-75.87264,5.06717],[-75.87261,5.06718],[-75.8726,5.06719],[-75.87259,5.0672],[-75.87258,5.06722],[-75.87258,5.06723],[-75.87258,5.06724],[-75.87259,5.06726],[-75.8726,5.06728],[-75.87263,5.06732],[-75.87267,5.06736],[-75.87268,5.06738],[-75.87271,5.06739],[-75.87273,5.0674],[-75.87276,5.0674],[-75.87278,5.06741],[-75.87282,5.06741],[-75.87293,5.0674],[-75.87298,5.0674]]],[[[-75.86982,5.0661],[-75.86986,5.06615],[-75.86964,5.06637],[-75.86965,5.06639],[-75.86965,5.06641],[-75.86966,5.06641],[-75.86966,5.06642],[-75.86966,5.06642],[-75.86966,5.06643],[-75.86968,5.06646],[-75.8697,5.06648],[-75.86972,5.0665],[-75.86979,5.06655],[-75.86981,5.06656],[-75.86983,5.06658],[-75.86984,5.0666],[-75.86988,5.06665],[-75.8699,5.06669],[-75.86991,5.06671],[-75.86992,5.06673],[-75.86992,5.06674],[-75.86992,5.06676],[-75.86992,5.06677],[-75.86992,5.06678],[-75.8699,5.06681],[-75.86989,5.06683],[-75.86984,5.06689],[-75.86982,5.06691],[-75.86982,5.06692],[-75.86978,5.06699],[-75.86976,5.06706],[-75.86974,5.06712],[-75.86974,5.06714],[-75.86974,5.06717],[-75.86974,5.06723],[-75.86975,5.06729],[-75.86975,5.06732],[-75.86976,5.06734],[-75.86977,5.06736],[-75.86978,5.06738],[-75.8698,5.06742],[-75.86983,5.06746],[-75.86985,5.06747],[-75.86987,5.06749],[-75.86989,5.06751],[-75.86992,5.06752],[-75.86997,5.06754],[-75.87009,5.06759],[-75.87024,5.06767],[-75.8703,5.06769],[-75.87032,5.0677],[-75.87034,5.0677],[-75.87037,5.06771],[-75.8704,5.06772],[-75.87043,5.06772],[-75.87048,5.06771],[-75.87052,5.06771],[-75.87055,5.0677],[-75.87059,5.06769],[-75.87062,5.06767],[-75.87064,5.06765],[-75.87067,5.06763],[-75.87069,5.06761],[-75.8707,5.0676],[-75.87071,5.06758],[-75.87071,5.06757],[-75.87071,5.06756],[-75.87071,5.06755],[-75.8707,5.06753],[-75.87069,5.06751],[-75.87068,5.0675],[-75.87067,5.06748],[-75.87065,5.06747],[-75.87064,5.06746],[-75.87063,5.06746],[-75.8706,5.06745],[-75.87057,5.06744],[-75.87049,5.06744],[-75.87045,5.06744],[-75.87037,5.06744],[-75.87036,5.06744],[-75.87033,5.06743],[-75.87031,5.06743],[-75.87028,5.06742],[-75.87024,5.06741],[-75.8702,5.06739],[-75.87016,5.06736],[-75.8701,5.06733],[-75.87007,5.06731],[-75.87004,5.06728],[-75.87001,5.06726],[-75.86998,5.06721],[-75.86997,5.0672],[-75.86997,5.06718],[-75.86996,5.06717],[-75.86997,5.06715],[-75.86997,5.06713],[-75.86998,5.06712],[-75.87,5.06709],[-75.87006,5.06703],[-75.87008,5.067],[-75.8701,5.06698],[-75.87011,5.06695],[-75.87012,5.06692],[-75.87013,5.06688],[-75.87014,5.06684],[-75.87014,5.06681],[-75.87014,5.06677],[-75.87014,5.06674],[-75.87013,5.0667],[-75.87012,5.06667],[-75.8701,5.06662],[-75.87006,5.06656],[-75.87005,5.06654],[-75.87001,5.06648],[-75.87,5.06645],[-75.86998,5.06642],[-75.86997,5.06638],[-75.86996,5.06633],[-75.86996,5.06628],[-75.86996,5.06622],[-75.86996,5.06618],[-75.86996,5.06615],[-75.86997,5.06612],[-75.86998,5.06609],[-75.86999,5.06608],[-75.8699,5.06601],[-75.86982,5.0661]]],[[[-75.87171,5.06643],[-75.87169,5.06644],[-75.87168,5.06644],[-75.87168,5.06645],[-75.87167,5.06646],[-75.87166,5.06648],[-75.87166,5.0665],[-75.87166,5.06652],[-75.87166,5.06655],[-75.87166,5.06658],[-75.87167,5.0666],[-75.87167,5.06662],[-75.87168,5.06664],[-75.87173,5.06671],[-75.87175,5.06674],[-75.87177,5.06679],[-75.87179,5.06684],[-75.87181,5.06689],[-75.87182,5.06694],[-75.87182,5.06696],[-75.87182,5.06699],[-75.87181,5.06711],[-75.87181,5.06713],[-75.87182,5.06716],[-75.87183,5.06724],[-75.87183,5.06728],[-75.87184,5.0673],[-75.87184,5.06731],[-75.87185,5.06732],[-75.87185,5.06732],[-75.87187,5.06732],[-75.87189,5.06732],[-75.87191,5.06731],[-75.87193,5.06729],[-75.87195,5.06727],[-75.87197,5.06725],[-75.87199,5.06723],[-75.872,5.06722],[-75.872,5.0672],[-75.87201,5.06717],[-75.872,5.06714],[-75.872,5.06709],[-75.87199,5.06705],[-75.87197,5.06696],[-75.87196,5.06692],[-75.87196,5.0669],[-75.87196,5.06687],[-75.87196,5.06678],[-75.87196,5.06674],[-75.87196,5.06672],[-75.87196,5.0667],[-75.87195,5.06668],[-75.87194,5.06667],[-75.87192,5.06665],[-75.87187,5.06661],[-75.87186,5.0666],[-75.87185,5.06659],[-75.87184,5.06658],[-75.87183,5.06656],[-75.87182,5.06648],[-75.87182,5.06646],[-75.87181,5.06644],[-75.87181,5.06644],[-75.8718,5.06643],[-75.87179,5.06643],[-75.87177,5.06642],[-75.87174,5.06642],[-75.87171,5.06643]]],[[[-75.87712,5.06578],[-75.87718,5.06591],[-75.87736,5.06622],[-75.87746,5.06638],[-75.8775,5.06649],[-75.8776,5.06698],[-75.87753,5.06703],[-75.87755,5.06706],[-75.87755,5.06708],[-75.87757,5.0671],[-75.8776,5.06713],[-75.87763,5.06716],[-75.87765,5.06718],[-75.87767,5.06719],[-75.87769,5.06719],[-75.87771,5.0672],[-75.87773,5.0672],[-75.87775,5.0672],[-75.87778,5.06719],[-75.87781,5.06718],[-75.87784,5.06717],[-75.87787,5.06715],[-75.8779,5.06713],[-75.87792,5.06711],[-75.87793,5.0671],[-75.87795,5.06708],[-75.87796,5.06705],[-75.87796,5.06702],[-75.87798,5.06698],[-75.87798,5.06696],[-75.87772,5.06651],[-75.87709,5.06561],[-75.87686,5.06519],[-75.87642,5.0643],[-75.87626,5.06367],[-75.87613,5.06319],[-75.87613,5.06282],[-75.87614,5.06256],[-75.87619,5.06257],[-75.87615,5.06249],[-75.87605,5.06229],[-75.87604,5.06227],[-75.87587,5.0622],[-75.87578,5.06248],[-75.87546,5.06341],[-75.87543,5.06349],[-75.87551,5.06356],[-75.87573,5.06362],[-75.87584,5.06372],[-75.87603,5.0639],[-75.87611,5.06418],[-75.87612,5.06419],[-75.87623,5.0645],[-75.87629,5.06468],[-75.8764,5.065],[-75.87649,5.0652],[-75.8767,5.06569],[-75.87675,5.0657],[-75.87677,5.06571],[-75.87702,5.06561],[-75.87712,5.06578]]],[[[-75.87135,5.06525],[-75.87139,5.06533],[-75.8714,5.06534],[-75.87144,5.06541],[-75.87148,5.06548],[-75.87153,5.06554],[-75.87157,5.0656],[-75.87162,5.06566],[-75.87167,5.06571],[-75.87172,5.06576],[-75.8718,5.06583],[-75.87182,5.06585],[-75.87185,5.06587],[-75.87189,5.06589],[-75.87195,5.06591],[-75.872,5.06592],[-75.87206,5.06594],[-75.87212,5.06595],[-75.87226,5.06597],[-75.87234,5.06598],[-75.87243,5.06599],[-75.87273,5.06601],[-75.87283,5.06602],[-75.87292,5.06603],[-75.87301,5.06605],[-75.87316,5.06608],[-75.87322,5.06609],[-75.87327,5.06611],[-75.87331,5.06612],[-75.87336,5.06615],[-75.87341,5.06617],[-75.87355,5.06624],[-75.87359,5.06627],[-75.87363,5.06628],[-75.87365,5.06629],[-75.87371,5.0663],[-75.87373,5.06631],[-75.87375,5.06632],[-75.87377,5.06633],[-75.87378,5.06634],[-75.87378,5.06636],[-75.8738,5.06643],[-75.87381,5.06645],[-75.87383,5.0665],[-75.87386,5.06656],[-75.8739,5.06661],[-75.87394,5.06666],[-75.87398,5.06671],[-75.87402,5.06676],[-75.87407,5.06681],[-75.87412,5.06685],[-75.87416,5.06688],[-75.87419,5.06691],[-75.87421,5.06692],[-75.87425,5.06695],[-75.87431,5.06698],[-75.87437,5.06701],[-75.87442,5.06702],[-75.87447,5.06704],[-75.87452,5.06704],[-75.87464,5.06706],[-75.87471,5.06707],[-75.87478,5.06709],[-75.87495,5.06715],[-75.87502,5.06717],[-75.87513,5.06719],[-75.87515,5.0672],[-75.87516,5.06719],[-75.87516,5.06719],[-75.87517,5.06719],[-75.87517,5.06718],[-75.87517,5.06717],[-75.87516,5.06716],[-75.87516,5.06716],[-75.87515,5.06714],[-75.87512,5.0671],[-75.87507,5.06705],[-75.87505,5.06703],[-75.87503,5.06701],[-75.875,5.067],[-75.87496,5.06699],[-75.87493,5.06698],[-75.8749,5.06698],[-75.87476,5.06697],[-75.8747,5.06696],[-75.87465,5.06695],[-75.87462,5.06694],[-75.8746,5.06693],[-75.87452,5.06689],[-75.87445,5.06684],[-75.87441,5.06682],[-75.87439,5.0668],[-75.87436,5.06677],[-75.87433,5.06675],[-75.87431,5.06672],[-75.87428,5.06669],[-75.87427,5.06667],[-75.87423,5.06661],[-75.87423,5.0666],[-75.8742,5.06656],[-75.87416,5.06648],[-75.87415,5.06644],[-75.87413,5.06641],[-75.87411,5.06639],[-75.87409,5.06637],[-75.87405,5.06634],[-75.87403,5.06632],[-75.87403,5.06632],[-75.87403,5.06631],[-75.87403,5.0663],[-75.87404,5.0663],[-75.87406,5.06628],[-75.87409,5.06627],[-75.87412,5.06626],[-75.87414,5.06626],[-75.87415,5.06626],[-75.87419,5.06607],[-75.87358,5.06584],[-75.87358,5.06584],[-75.87361,5.06574],[-75.87361,5.06574],[-75.87357,5.06572],[-75.87356,5.06572],[-75.87352,5.0657],[-75.87352,5.06569],[-75.87351,5.06569],[-75.87341,5.06564],[-75.87334,5.0656],[-75.87346,5.06514],[-75.87325,5.06513],[-75.8732,5.06516],[-75.87321,5.06517],[-75.87321,5.06517],[-75.87316,5.06521],[-75.87274,5.06501],[-75.87276,5.06496],[-75.87277,5.06496],[-75.87277,5.06496],[-75.87283,5.06478],[-75.87256,5.0647],[-75.87242,5.0652],[-75.87239,5.06519],[-75.87238,5.06523],[-75.87236,5.06523],[-75.87201,5.06521],[-75.87201,5.06521],[-75.87198,5.06524],[-75.87124,5.06498],[-75.87126,5.06503],[-75.87128,5.0651],[-75.87131,5.06517],[-75.87135,5.06525]]],[[[-75.87477,5.06635],[-75.8748,5.06638],[-75.87487,5.06645],[-75.8749,5.06648],[-75.87494,5.0665],[-75.87497,5.06652],[-75.87501,5.06653],[-75.87504,5.06654],[-75.87508,5.06655],[-75.87514,5.06655],[-75.8752,5.06655],[-75.87526,5.06655],[-75.87527,5.06654],[-75.87529,5.06654],[-75.87529,5.06654],[-75.87529,5.06654],[-75.87528,5.06654],[-75.87514,5.06629],[-75.87522,5.06606],[-75.87492,5.06598],[-75.87485,5.06596],[-75.87477,5.06635]]],[[[-75.87043,5.06569],[-75.87042,5.06571],[-75.8704,5.06573],[-75.87039,5.06575],[-75.87054,5.06592],[-75.87041,5.06603],[-75.87042,5.06604],[-75.87052,5.06608],[-75.87056,5.06609],[-75.87061,5.0661],[-75.87065,5.06611],[-75.87072,5.06612],[-75.87076,5.06612],[-75.8708,5.06612],[-75.87083,5.06611],[-75.87086,5.0661],[-75.87088,5.06609],[-75.87089,5.06608],[-75.8709,5.06607],[-75.87091,5.06606],[-75.87092,5.06605],[-75.87092,5.06598],[-75.87094,5.06591],[-75.87096,5.06584],[-75.87099,5.06577],[-75.87102,5.0657],[-75.87105,5.06562],[-75.87106,5.0656],[-75.87108,5.06558],[-75.87109,5.06557],[-75.87111,5.06556],[-75.87118,5.06552],[-75.8712,5.06551],[-75.87122,5.0655],[-75.87123,5.06548],[-75.87124,5.06546],[-75.87124,5.06543],[-75.87124,5.0654],[-75.87123,5.06533],[-75.87123,5.06526],[-75.87122,5.0652],[-75.87121,5.06516],[-75.8712,5.06512],[-75.87118,5.06504],[-75.87115,5.06499],[-75.87114,5.06496],[-75.87113,5.06494],[-75.87111,5.06492],[-75.8711,5.06491],[-75.87108,5.06489],[-75.87105,5.06487],[-75.87104,5.06486],[-75.87103,5.06486],[-75.87103,5.06486],[-75.87102,5.06485],[-75.87099,5.06484],[-75.87096,5.06483],[-75.87093,5.06482],[-75.8709,5.06481],[-75.87088,5.06481],[-75.87085,5.06481],[-75.87083,5.06482],[-75.8708,5.06482],[-75.87078,5.06484],[-75.87075,5.06485],[-75.87072,5.06487],[-75.87064,5.06492],[-75.8706,5.06495],[-75.87059,5.06497],[-75.87054,5.065],[-75.87068,5.06525],[-75.87063,5.06528],[-75.87067,5.06536],[-75.87076,5.0654],[-75.87085,5.06535],[-75.87089,5.06543],[-75.87086,5.06544],[-75.87094,5.06562],[-75.87083,5.06567],[-75.87074,5.06549],[-75.87049,5.06543],[-75.87049,5.06547],[-75.87048,5.06551],[-75.87047,5.06557],[-75.87046,5.06562],[-75.87045,5.06565],[-75.87044,5.06567],[-75.87043,5.06569]]],[[[-75.86524,5.06564],[-75.86523,5.06572],[-75.86523,5.06575],[-75.86521,5.06586],[-75.8652,5.0659],[-75.8652,5.06592],[-75.86521,5.06594],[-75.86521,5.06595],[-75.86523,5.06596],[-75.86524,5.06596],[-75.86526,5.06596],[-75.86529,5.06596],[-75.86531,5.06596],[-75.86533,5.06595],[-75.86535,5.06594],[-75.86537,5.06593],[-75.86538,5.06591],[-75.8654,5.06589],[-75.86542,5.06587],[-75.86546,5.0658],[-75.86548,5.06577],[-75.86549,5.06573],[-75.8655,5.06569],[-75.8655,5.06567],[-75.86525,5.06557],[-75.86524,5.06564]]],[[[-75.86578,5.06429],[-75.86574,5.06433],[-75.8657,5.06437],[-75.86566,5.06441],[-75.86562,5.06446],[-75.86558,5.0645],[-75.86555,5.06455],[-75.86552,5.0646],[-75.86549,5.06465],[-75.86546,5.0647],[-75.86543,5.06475],[-75.8654,5.0648],[-75.86543,5.06479],[-75.86543,5.06479],[-75.86544,5.06479],[-75.86564,5.06475],[-75.86578,5.06442],[-75.86583,5.06425],[-75.86578,5.06429]]],[[[-75.87514,5.06425],[-75.87522,5.06428],[-75.87546,5.06443],[-75.87538,5.06459],[-75.8756,5.06466],[-75.87568,5.0643],[-75.87554,5.06424],[-75.8756,5.06405],[-75.87555,5.06404],[-75.87554,5.06404],[-75.87549,5.06402],[-75.87544,5.06401],[-75.87539,5.06399],[-75.87534,5.06398],[-75.87534,5.06396],[-75.87534,5.06395],[-75.87525,5.06392],[-75.87514,5.06425]]],[[[-75.86636,5.06375],[-75.86632,5.06381],[-75.86628,5.06386],[-75.86623,5.06392],[-75.86619,5.06397],[-75.86614,5.06401],[-75.8661,5.06405],[-75.86608,5.06407],[-75.86605,5.06409],[-75.86593,5.06417],[-75.86592,5.06418],[-75.8663,5.06428],[-75.86637,5.06425],[-75.86641,5.06423],[-75.86644,5.06421],[-75.86649,5.06418],[-75.86653,5.06414],[-75.86658,5.06411],[-75.86663,5.06407],[-75.86667,5.06403],[-75.86669,5.06401],[-75.86666,5.064],[-75.86677,5.06372],[-75.86691,5.06377],[-75.86695,5.06371],[-75.86702,5.06361],[-75.86705,5.06356],[-75.86708,5.06351],[-75.8671,5.06347],[-75.86714,5.06339],[-75.86716,5.06335],[-75.86719,5.06331],[-75.86728,5.06321],[-75.8673,5.06319],[-75.86731,5.06316],[-75.86737,5.06307],[-75.86741,5.063],[-75.86744,5.06294],[-75.86746,5.06288],[-75.86747,5.06286],[-75.86748,5.06283],[-75.86748,5.06281],[-75.86748,5.06279],[-75.86748,5.06276],[-75.86748,5.06274],[-75.86747,5.06272],[-75.86747,5.06271],[-75.86744,5.06266],[-75.86741,5.06262],[-75.8674,5.06261],[-75.86739,5.0626],[-75.86738,5.06259],[-75.86737,5.06258],[-75.86735,5.06258],[-75.86734,5.06258],[-75.86732,5.06259],[-75.8673,5.0626],[-75.86727,5.06262],[-75.86719,5.0627],[-75.86715,5.06272],[-75.86712,5.06275],[-75.86709,5.06279],[-75.86705,5.06282],[-75.867,5.0629],[-75.86686,5.06307],[-75.86683,5.06312],[-75.86679,5.06316],[-75.86675,5.0632],[-75.86663,5.06332],[-75.8666,5.06335],[-75.86657,5.06339],[-75.86654,5.06343],[-75.8665,5.06348],[-75.86647,5.06355],[-75.86639,5.06369],[-75.86636,5.06375]]],[[[-75.8783,5.06311],[-75.87834,5.06323],[-75.87836,5.06326],[-75.87838,5.06329],[-75.8784,5.06331],[-75.87843,5.06335],[-75.87846,5.06338],[-75.8785,5.06341],[-75.87853,5.06343],[-75.87855,5.06344],[-75.87857,5.06345],[-75.87857,5.06345],[-75.87858,5.06344],[-75.87858,5.06344],[-75.87858,5.06342],[-75.87856,5.06338],[-75.87854,5.06332],[-75.87852,5.06327],[-75.87851,5.06325],[-75.87849,5.06323],[-75.87842,5.06316],[-75.8784,5.06314],[-75.87839,5.06312],[-75.87838,5.0631],[-75.87837,5.06308],[-75.87836,5.06305],[-75.87835,5.06295],[-75.8783,5.06311]]],[[[-75.87117,5.06327],[-75.87158,5.06339],[-75.87161,5.06328],[-75.8714,5.06322],[-75.87142,5.06313],[-75.87146,5.06314],[-75.8715,5.06294],[-75.87142,5.06291],[-75.87144,5.06277],[-75.87132,5.06274],[-75.87117,5.06327]]],[[[-75.8677,5.06163],[-75.86766,5.06165],[-75.86761,5.06168],[-75.86756,5.06171],[-75.86752,5.06175],[-75.86749,5.06178],[-75.86743,5.06184],[-75.8674,5.06188],[-75.86739,5.0619],[-75.86738,5.06191],[-75.86737,5.06193],[-75.86737,5.06195],[-75.86737,5.06197],[-75.86737,5.06199],[-75.86737,5.06202],[-75.86739,5.06202],[-75.86741,5.06203],[-75.86754,5.06207],[-75.86765,5.0621],[-75.86777,5.0618],[-75.86799,5.06167],[-75.86802,5.06164],[-75.8681,5.06162],[-75.86811,5.06162],[-75.86814,5.06162],[-75.86822,5.06162],[-75.86841,5.06164],[-75.86845,5.06161],[-75.86853,5.06128],[-75.86864,5.06077],[-75.86867,5.06064],[-75.86868,5.06054],[-75.86866,5.06027],[-75.86847,5.06009],[-75.86832,5.06],[-75.86825,5.06013],[-75.86835,5.06018],[-75.86838,5.0602],[-75.8684,5.06022],[-75.86846,5.06026],[-75.86849,5.06031],[-75.86852,5.06034],[-75.86854,5.06036],[-75.86854,5.06038],[-75.86855,5.06041],[-75.86856,5.06045],[-75.86856,5.06049],[-75.86857,5.06056],[-75.86857,5.06067],[-75.86857,5.06071],[-75.86857,5.06075],[-75.86856,5.06079],[-75.86856,5.06082],[-75.86854,5.0609],[-75.86851,5.06098],[-75.86846,5.06112],[-75.86843,5.06123],[-75.86841,5.06126],[-75.8684,5.06128],[-75.86839,5.0613],[-75.86837,5.06131],[-75.86835,5.06133],[-75.86833,5.06135],[-75.86828,5.06137],[-75.86817,5.06143],[-75.86813,5.06145],[-75.86802,5.0615],[-75.86795,5.06153],[-75.86776,5.06161],[-75.8677,5.06163]]],[[[-75.87495,5.06047],[-75.87493,5.06055],[-75.87506,5.06059],[-75.87502,5.0608],[-75.87515,5.06083],[-75.87537,5.06098],[-75.87557,5.0611],[-75.87544,5.06087],[-75.87473,5.0591],[-75.87447,5.06023],[-75.87441,5.06044],[-75.87472,5.06052],[-75.87476,5.06042],[-75.87495,5.06047]]],[[[-75.87027,5.05696],[-75.87024,5.05699],[-75.87023,5.05701],[-75.8702,5.05706],[-75.87016,5.05712],[-75.87013,5.05719],[-75.87009,5.05727],[-75.87006,5.05736],[-75.87002,5.05748],[-75.86999,5.05759],[-75.86996,5.05767],[-75.86995,5.05772],[-75.86994,5.05778],[-75.86994,5.05783],[-75.86993,5.05788],[-75.86993,5.05795],[-75.86993,5.05801],[-75.86993,5.05808],[-75.86993,5.05816],[-75.86994,5.05826],[-75.86995,5.05833],[-75.86996,5.0584],[-75.86997,5.05846],[-75.86998,5.05849],[-75.87,5.05851],[-75.87006,5.05863],[-75.87008,5.05869],[-75.87009,5.05874],[-75.87011,5.05879],[-75.87012,5.05885],[-75.87013,5.05891],[-75.87013,5.05897],[-75.87014,5.05913],[-75.87015,5.05921],[-75.87017,5.05932],[-75.87019,5.05942],[-75.8702,5.05948],[-75.87096,5.05965],[-75.87104,5.05938],[-75.87083,5.05935],[-75.87073,5.05929],[-75.87093,5.05877],[-75.87111,5.05842],[-75.8712,5.05823],[-75.8712,5.05815],[-75.8712,5.05802],[-75.87089,5.0579],[-75.87114,5.05734],[-75.87138,5.05702],[-75.8714,5.05692],[-75.87152,5.05692],[-75.87167,5.05717],[-75.87158,5.05723],[-75.87156,5.05726],[-75.87173,5.05744],[-75.87198,5.05778],[-75.87218,5.05795],[-75.87234,5.058],[-75.87243,5.05812],[-75.87255,5.05815],[-75.87261,5.05818],[-75.87265,5.05822],[-75.87261,5.05836],[-75.87288,5.05842],[-75.87291,5.05834],[-75.87311,5.0584],[-75.87309,5.05847],[-75.87329,5.05851],[-75.87334,5.05833],[-75.87348,5.05835],[-75.87352,5.05824],[-75.87374,5.05829],[-75.87382,5.05801],[-75.87407,5.05805],[-75.87405,5.05788],[-75.874,5.05758],[-75.874,5.05742],[-75.87347,5.05725],[-75.87344,5.05726],[-75.87338,5.05727],[-75.87325,5.05731],[-75.87319,5.05733],[-75.87313,5.05734],[-75.87307,5.05734],[-75.87299,5.05735],[-75.87294,5.05735],[-75.87289,5.05735],[-75.87285,5.05735],[-75.87278,5.05733],[-75.87275,5.05733],[-75.87273,5.05732],[-75.87269,5.0573],[-75.87264,5.05726],[-75.87262,5.05724],[-75.87259,5.05722],[-75.87251,5.05713],[-75.87247,5.0571],[-75.87241,5.05706],[-75.87226,5.05696],[-75.87222,5.05694],[-75.87219,5.05691],[-75.87214,5.05687],[-75.8721,5.05684],[-75.87207,5.0568],[-75.87204,5.05674],[-75.87202,5.0567],[-75.872,5.05667],[-75.87199,5.05667],[-75.87195,5.05665],[-75.87191,5.05662],[-75.8719,5.05661],[-75.87189,5.0566],[-75.87188,5.05659],[-75.87186,5.05655],[-75.87184,5.05652],[-75.87183,5.05648],[-75.87182,5.05646],[-75.87182,5.05645],[-75.87178,5.05643],[-75.87173,5.05642],[-75.87167,5.0564],[-75.87162,5.05639],[-75.87158,5.05639],[-75.87154,5.05638],[-75.87153,5.05638],[-75.87148,5.05638],[-75.87144,5.05638],[-75.87139,5.05639],[-75.87135,5.05639],[-75.87134,5.05641],[-75.8713,5.05642],[-75.87127,5.05642],[-75.87124,5.05641],[-75.87121,5.05642],[-75.87114,5.05644],[-75.87105,5.05648],[-75.87096,5.05652],[-75.8709,5.05654],[-75.87084,5.05657],[-75.87077,5.05661],[-75.87069,5.05666],[-75.87055,5.05674],[-75.87047,5.05679],[-75.87039,5.05685],[-75.87036,5.05688],[-75.87033,5.0569],[-75.87027,5.05696]]],[[[-75.87413,5.058],[-75.87412,5.05815],[-75.87411,5.05824],[-75.87409,5.05833],[-75.8743,5.05839],[-75.87432,5.0586],[-75.87428,5.05875],[-75.87426,5.0588],[-75.87472,5.05907],[-75.87406,5.05744],[-75.87405,5.05744],[-75.87413,5.058]]],[[[-75.86707,5.05846],[-75.86707,5.05847],[-75.86717,5.0585],[-75.86718,5.0585],[-75.8672,5.05848],[-75.86724,5.05845],[-75.86726,5.05844],[-75.86732,5.05841],[-75.86737,5.05839],[-75.86743,5.05838],[-75.86749,5.05837],[-75.86753,5.05837],[-75.86757,5.05838],[-75.86767,5.05839],[-75.86773,5.0584],[-75.86785,5.05843],[-75.8679,5.05844],[-75.86797,5.05845],[-75.86803,5.05845],[-75.86808,5.05846],[-75.86812,5.05845],[-75.86818,5.05845],[-75.86826,5.05843],[-75.86834,5.05842],[-75.86839,5.05841],[-75.86843,5.05839],[-75.86847,5.05838],[-75.86851,5.05835],[-75.86855,5.05832],[-75.86859,5.05829],[-75.86867,5.05822],[-75.86872,5.05817],[-75.86878,5.0581],[-75.86885,5.05803],[-75.8689,5.05797],[-75.86892,5.05795],[-75.86894,5.05792],[-75.86895,5.05788],[-75.86897,5.05784],[-75.869,5.05777],[-75.86906,5.0576],[-75.86908,5.05755],[-75.8691,5.05751],[-75.86912,5.05746],[-75.86919,5.05734],[-75.86921,5.0573],[-75.86923,5.05726],[-75.86925,5.05719],[-75.86928,5.05711],[-75.8693,5.05704],[-75.86931,5.05699],[-75.86931,5.05695],[-75.86931,5.05691],[-75.86931,5.05687],[-75.86929,5.05676],[-75.86929,5.05667],[-75.86922,5.05666],[-75.86923,5.05681],[-75.8692,5.05698],[-75.86918,5.05714],[-75.86913,5.05727],[-75.86903,5.05742],[-75.86896,5.05755],[-75.86886,5.05776],[-75.86877,5.05798],[-75.86876,5.05799],[-75.8686,5.05816],[-75.86844,5.05829],[-75.86828,5.05836],[-75.86814,5.05838],[-75.86801,5.05841],[-75.8679,5.0584],[-75.86776,5.05837],[-75.86751,5.05833],[-75.86736,5.05833],[-75.86724,5.05839],[-75.86714,5.05845],[-75.86707,5.05842],[-75.86707,5.05846]]]]},"properties":{"FID":0,"OBJECTID":1,"Area_ha":21.2033666332,"AMENAZA":"ALTA","CONDICION":"CONDICIÓN DE AMENAZA POR MOVIMIENTO EN MASA","RuleID":1,"Shape_Leng":12564.7914381,"Shape_Area":212033.668254}},{"type":"Feature","id":1,"geometry":{"type":"MultiPolygon","coordinates":[[[[-75.86631,5.06938],[-75.86631,5.06939],[-75.86719,5.07115],[-75.86778,5.07076],[-75.86844,5.07032],[-75.86871,5.07014],[-75.86885,5.07004],[-75.86887,5.07],[-75.86889,5.06995],[-75.86891,5.06991],[-75.86894,5.06988],[-75.86897,5.06985],[-75.869,5.06982],[-75.86905,5.06978],[-75.86907,5.06976],[-75.86913,5.06972],[-75.86915,5.0697],[-75.86916,5.06969],[-75.86917,5.06968],[-75.86918,5.06966],[-75.86919,5.06964],[-75.86919,5.06962],[-75.8692,5.06958],[-75.86921,5.06947],[-75.86922,5.06938],[-75.86923,5.06929],[-75.86924,5.06919],[-75.86924,5.06909],[-75.86924,5.06899],[-75.86923,5.06888],[-75.86923,5.06876],[-75.86921,5.06864],[-75.8692,5.06858],[-75.86918,5.06848],[-75.86917,5.06843],[-75.86916,5.06838],[-75.86917,5.06834],[-75.86917,5.06831],[-75.86918,5.06828],[-75.86922,5.06816],[-75.86923,5.06811],[-75.86924,5.06808],[-75.86924,5.06805],[-75.86923,5.06794],[-75.86923,5.0679],[-75.86924,5.06788],[-75.86924,5.06786],[-75.86925,5.06784],[-75.86925,5.06782],[-75.86926,5.0678],[-75.86928,5.06778],[-75.8693,5.06776],[-75.86932,5.06774],[-75.86934,5.06772],[-75.86936,5.0677],[-75.86938,5.06769],[-75.86941,5.06767],[-75.86943,5.06766],[-75.86945,5.06765],[-75.86948,5.06764],[-75.86951,5.06763],[-75.86954,5.06763],[-75.86957,5.06763],[-75.8696,5.06762],[-75.86963,5.06762],[-75.86967,5.06763],[-75.86971,5.06763],[-75.86974,5.06764],[-75.86978,5.06766],[-75.86982,5.06767],[-75.86985,5.06769],[-75.86988,5.06771],[-75.86991,5.06773],[-75.86996,5.06777],[-75.86998,5.06779],[-75.87,5.06782],[-75.87001,5.06783],[-75.87002,5.06784],[-75.87002,5.06787],[-75.87002,5.0679],[-75.87002,5.06793],[-75.87002,5.06795],[-75.87001,5.06796],[-75.87,5.06797],[-75.86998,5.06799],[-75.86996,5.06801],[-75.86989,5.06806],[-75.86986,5.06808],[-75.86978,5.06812],[-75.86975,5.06815],[-75.86972,5.06818],[-75.8697,5.0682],[-75.86968,5.06824],[-75.86965,5.06827],[-75.86963,5.06831],[-75.86961,5.06835],[-75.86957,5.06847],[-75.86955,5.06851],[-75.86953,5.06857],[-75.86952,5.06863],[-75.8695,5.06873],[-75.86948,5.06883],[-75.86946,5.06893],[-75.86945,5.06904],[-75.86944,5.06914],[-75.86944,5.06921],[-75.86944,5.06938],[-75.86943,5.06943],[-75.86943,5.06947],[-75.86942,5.06952],[-75.86941,5.06958],[-75.86938,5.06969],[-75.86994,5.06931],[-75.87014,5.06918],[-75.87009,5.06902],[-75.87007,5.06893],[-75.87005,5.06884],[-75.87004,5.0688],[-75.87004,5.06876],[-75.87004,5.06873],[-75.87004,5.06869],[-75.87005,5.06866],[-75.87006,5.06864],[-75.87007,5.06862],[-75.87009,5.0686],[-75.8701,5.06859],[-75.87013,5.06858],[-75.87017,5.06858],[-75.87021,5.06858],[-75.87025,5.06858],[-75.87029,5.06859],[-75.87033,5.0686],[-75.87036,5.06861],[-75.87039,5.06863],[-75.87043,5.06866],[-75.87046,5.06869],[-75.87049,5.06872],[-75.87052,5.06876],[-75.87056,5.0688],[-75.87058,5.06883],[-75.87059,5.06887],[-75.87072,5.06879],[-75.87071,5.06879],[-75.87069,5.06878],[-75.87067,5.06877],[-75.87066,5.06874],[-75.87064,5.06871],[-75.87064,5.0687],[-75.87063,5.06868],[-75.87063,5.06861],[-75.87063,5.0686],[-75.87062,5.06859],[-75.87061,5.06857],[-75.87058,5.06854],[-75.87056,5.06852],[-75.87053,5.0685],[-75.87051,5.0685],[-75.87049,5.06849],[-75.87042,5.06849],[-75.8704,5.06849],[-75.87038,5.06848],[-75.87038,5.06848],[-75.87037,5.06847],[-75.87037,5.06846],[-75.87038,5.06845],[-75.87038,5.06844],[-75.87039,5.06842],[-75.8704,5.0684],[-75.87042,5.06838],[-75.87044,5.06836],[-75.87045,5.06835],[-75.87047,5.06834],[-75.87049,5.06833],[-75.87051,5.06833],[-75.87053,5.06833],[-75.87056,5.06833],[-75.87059,5.06833],[-75.87068,5.06835],[-75.87072,5.06836],[-75.87075,5.06837],[-75.87078,5.06838],[-75.87079,5.06839],[-75.8708,5.0684],[-75.87081,5.06841],[-75.87081,5.06842],[-75.87081,5.06844],[-75.87081,5.06848],[-75.87078,5.06857],[-75.87077,5.06861],[-75.87077,5.06863],[-75.87077,5.06865],[-75.87078,5.06866],[-75.87078,5.06868],[-75.87079,5.06869],[-75.87081,5.06871],[-75.87082,5.06872],[-75.8709,5.06867],[-75.87087,5.06853],[-75.87086,5.06849],[-75.87085,5.06839],[-75.87084,5.06836],[-75.87083,5.06834],[-75.87082,5.0683],[-75.8708,5.06826],[-75.87077,5.06822],[-75.87075,5.06819],[-75.87072,5.06815],[-75.87068,5.06812],[-75.87065,5.06809],[-75.87062,5.06806],[-75.8706,5.06805],[-75.87057,5.06803],[-75.87054,5.06802],[-75.8705,5.06802],[-75.87043,5.068],[-75.87027,5.06798],[-75.87022,5.06797],[-75.8702,5.06797],[-75.87018,5.06796],[-75.87018,5.06795],[-75.87018,5.06794],[-75.87018,5.06793],[-75.87019,5.06791],[-75.87021,5.06788],[-75.87025,5.06785],[-75.87029,5.06781],[-75.87033,5.06779],[-75.87037,5.06777],[-75.87041,5.06775],[-75.87044,5.06775],[-75.87047,5.06775],[-75.87054,5.06775],[-75.8706,5.06776],[-75.87067,5.06778],[-75.87074,5.06781],[-75.87081,5.06784],[-75.87088,5.06787],[-75.87095,5.06792],[-75.87101,5.06796],[-75.87113,5.06805],[-75.87116,5.06809],[-75.87119,5.06812],[-75.87122,5.06815],[-75.87124,5.06818],[-75.87125,5.06821],[-75.87126,5.06824],[-75.87126,5.06827],[-75.87127,5.0683],[-75.87126,5.06833],[-75.87126,5.06837],[-75.87125,5.06841],[-75.87124,5.06845],[-75.87123,5.0685],[-75.8712,5.06857],[-75.87129,5.06856],[-75.87131,5.06851],[-75.87133,5.06848],[-75.87135,5.06845],[-75.87137,5.06844],[-75.87138,5.06843],[-75.8714,5.06842],[-75.87142,5.06842],[-75.87145,5.06842],[-75.87147,5.06843],[-75.8715,5.06843],[-75.87153,5.06844],[-75.87156,5.06845],[-75.87157,5.06846],[-75.87159,5.06847],[-75.87161,5.06848],[-75.87162,5.0685],[-75.87165,5.06852],[-75.87178,5.06851],[-75.87175,5.06843],[-75.87174,5.06838],[-75.87172,5.06832],[-75.87169,5.06818],[-75.87167,5.06813],[-75.87165,5.06807],[-75.87163,5.06803],[-75.87161,5.068],[-75.87159,5.06797],[-75.87157,5.06794],[-75.87154,5.06791],[-75.87148,5.06785],[-75.87137,5.06775],[-75.87126,5.06765],[-75.8712,5.06761],[-75.87115,5.06757],[-75.8711,5.06754],[-75.87105,5.06751],[-75.871,5.06748],[-75.87095,5.06745],[-75.87084,5.06739],[-75.87077,5.06736],[-75.87073,5.06735],[-75.8707,5.06734],[-75.87067,5.06733],[-75.87064,5.06733],[-75.87062,5.06733],[-75.87058,5.06733],[-75.87048,5.06736],[-75.87045,5.06737],[-75.87042,5.06737],[-75.8704,5.06737],[-75.87039,5.06736],[-75.87038,5.06735],[-75.87037,5.06734],[-75.87037,5.06732],[-75.87037,5.0673],[-75.87037,5.06728],[-75.87037,5.06725],[-75.87037,5.06723],[-75.87039,5.06716],[-75.87041,5.06708],[-75.87045,5.067],[-75.8705,5.06686],[-75.87053,5.06678],[-75.87055,5.06674],[-75.87057,5.0667],[-75.8706,5.06667],[-75.87063,5.06665],[-75.87066,5.06662],[-75.87067,5.06662],[-75.87062,5.06657],[-75.87052,5.06648],[-75.87033,5.06633],[-75.87016,5.0662],[-75.87004,5.0661],[-75.86999,5.06608],[-75.86999,5.06608],[-75.86998,5.06609],[-75.86997,5.06612],[-75.86996,5.06615],[-75.86996,5.06618],[-75.86996,5.06622],[-75.86996,5.06628],[-75.86996,5.06633],[-75.86997,5.06638],[-75.86998,5.06642],[-75.87,5.06645],[-75.87001,5.06648],[-75.87005,5.06654],[-75.87006,5.06656],[-75.8701,5.06662],[-75.87012,5.06667],[-75.87013,5.0667],[-75.87014,5.06674],[-75.87014,5.06677],[-75.87014,5.06681],[-75.87014,5.06684],[-75.87013,5.06688],[-75.87012,5.06692],[-75.87011,5.06695],[-75.8701,5.06698],[-75.87008,5.067],[-75.87006,5.06703],[-75.87,5.06709],[-75.86998,5.06712],[-75.86997,5.06713],[-75.86997,5.06715],[-75.86996,5.06717],[-75.86997,5.06718],[-75.86997,5.0672],[-75.86998,5.06721],[-75.87001,5.06726],[-75.87004,5.06728],[-75.87007,5.06731],[-75.8701,5.06733],[-75.87016,5.06736],[-75.8702,5.06739],[-75.87024,5.06741],[-75.87028,5.06742],[-75.87031,5.06743],[-75.87033,5.06743],[-75.87036,5.06744],[-75.87037,5.06744],[-75.87045,5.06744],[-75.87049,5.06744],[-75.87057,5.06744],[-75.8706,5.06745],[-75.87063,5.06746],[-75.87064,5.06746],[-75.87065,5.06747],[-75.87067,5.06748],[-75.87068,5.0675],[-75.87069,5.06751],[-75.8707,5.06753],[-75.87071,5.06755],[-75.87071,5.06756],[-75.87071,5.06757],[-75.87071,5.06758],[-75.8707,5.0676],[-75.87069,5.06761],[-75.87067,5.06763],[-75.87064,5.06765],[-75.87062,5.06767],[-75.87059,5.06769],[-75.87055,5.0677],[-75.87052,5.06771],[-75.87048,5.06771],[-75.87043,5.06772],[-75.8704,5.06772],[-75.87037,5.06771],[-75.87034,5.0677],[-75.87032,5.0677],[-75.8703,5.06769],[-75.87024,5.06767],[-75.87009,5.06759],[-75.86997,5.06754],[-75.86992,5.06752],[-75.86989,5.06751],[-75.86987,5.06749],[-75.86985,5.06747],[-75.86983,5.06746],[-75.8698,5.06742],[-75.86978,5.06738],[-75.86977,5.06736],[-75.86976,5.06734],[-75.86975,5.06732],[-75.86975,5.06729],[-75.86974,5.06723],[-75.86974,5.06717],[-75.86974,5.06714],[-75.86974,5.06712],[-75.86976,5.06706],[-75.86978,5.06699],[-75.86982,5.06692],[-75.86982,5.06691],[-75.86984,5.06689],[-75.86989,5.06683],[-75.8699,5.06681],[-75.86992,5.06678],[-75.86992,5.06677],[-75.86992,5.06676],[-75.86992,5.06674],[-75.86992,5.06673],[-75.86991,5.06671],[-75.8699,5.06669],[-75.86988,5.06665],[-75.86984,5.0666],[-75.86983,5.06658],[-75.86981,5.06656],[-75.86979,5.06655],[-75.86972,5.0665],[-75.8697,5.06648],[-75.86968,5.06646],[-75.86966,5.06643],[-75.86966,5.06642],[-75.86916,5.06659],[-75.86899,5.06655],[-75.86873,5.06673],[-75.86882,5.0668],[-75.8688,5.06683],[-75.86857,5.06746],[-75.86822,5.06712],[-75.86794,5.0673],[-75.86741,5.06763],[-75.86786,5.06832],[-75.8685,5.06791],[-75.86891,5.06857],[-75.86851,5.06878],[-75.86847,5.0688],[-75.86845,5.0688],[-75.86845,5.06881],[-75.86841,5.06883],[-75.8684,5.06884],[-75.8684,5.06884],[-75.86838,5.06885],[-75.86838,5.06885],[-75.86831,5.06889],[-75.86826,5.06893],[-75.86815,5.06899],[-75.86808,5.06887],[-75.86724,5.06781],[-75.86717,5.06784],[-75.86691,5.06799],[-75.86689,5.06798],[-75.86687,5.06796],[-75.86683,5.06793],[-75.86679,5.0679],[-75.86599,5.06841],[-75.8659,5.06848],[-75.86587,5.0685],[-75.86593,5.0686],[-75.86631,5.06938]]],[[[-75.87758,5.06992],[-75.87791,5.07021],[-75.87801,5.07031],[-75.87818,5.07041],[-75.87826,5.07046],[-75.87833,5.07051],[-75.87848,5.07065],[-75.87858,5.07057],[-75.8785,5.07051],[-75.87845,5.07047],[-75.8783,5.07038],[-75.87823,5.07033],[-75.87819,5.0703],[-75.87816,5.07027],[-75.87813,5.07024],[-75.8781,5.07021],[-75.87807,5.07016],[-75.87804,5.07011],[-75.87801,5.07005],[-75.87799,5.06998],[-75.87798,5.06991],[-75.87797,5.06984],[-75.87796,5.06976],[-75.87796,5.06968],[-75.87796,5.06963],[-75.87796,5.06963],[-75.87794,5.06967],[-75.87793,5.0697],[-75.87791,5.06973],[-75.87789,5.06976],[-75.87787,5.06977],[-75.87785,5.06979],[-75.87783,5.0698],[-75.87781,5.06981],[-75.87778,5.06982],[-75.87775,5.06983],[-75.87772,5.06983],[-75.87768,5.06984],[-75.87765,5.06984],[-75.87761,5.06984],[-75.87757,5.06984],[-75.87753,5.06983],[-75.87749,5.06983],[-75.87746,5.06982],[-75.87745,5.06982],[-75.87758,5.06992]]],[[[-75.87645,5.0683],[-75.87656,5.06841],[-75.87663,5.06849],[-75.87668,5.06856],[-75.87673,5.06863],[-75.87676,5.06868],[-75.87679,5.06874],[-75.87681,5.0688],[-75.87683,5.06888],[-75.87686,5.0689],[-75.87688,5.06892],[-75.87689,5.06894],[-75.8769,5.06895],[-75.8769,5.06896],[-75.8769,5.06897],[-75.87689,5.06899],[-75.87689,5.06902],[-75.87687,5.06904],[-75.8769,5.06915],[-75.87692,5.06923],[-75.87694,5.0693],[-75.87696,5.06936],[-75.87699,5.06945],[-75.87711,5.06954],[-75.8771,5.06952],[-75.87709,5.06939],[-75.87709,5.06935],[-75.87708,5.06933],[-75.87706,5.06928],[-75.87704,5.06922],[-75.87696,5.06904],[-75.87693,5.06897],[-75.8769,5.06891],[-75.8769,5.06888],[-75.87689,5.06885],[-75.87687,5.06873],[-75.87686,5.06868],[-75.87685,5.06862],[-75.87685,5.06857],[-75.87685,5.06853],[-75.87686,5.06848],[-75.87687,5.06845],[-75.87689,5.06842],[-75.87691,5.06839],[-75.87693,5.06837],[-75.87695,5.06835],[-75.87697,5.06832],[-75.877,5.0683],[-75.87702,5.06829],[-75.87704,5.06828],[-75.87706,5.06827],[-75.87707,5.06827],[-75.87708,5.06828],[-75.87708,5.06828],[-75.87709,5.06829],[-75.8771,5.0683],[-75.8771,5.06831],[-75.87712,5.06835],[-75.87712,5.06839],[-75.87713,5.06844],[-75.87714,5.06863],[-75.87715,5.0687],[-75.87716,5.06877],[-75.87717,5.06892],[-75.87717,5.06898],[-75.87718,5.06901],[-75.87718,5.06904],[-75.87719,5.06906],[-75.8772,5.06909],[-75.87723,5.06914],[-75.87725,5.0692],[-75.87728,5.06924],[-75.87731,5.06928],[-75.87734,5.06932],[-75.87738,5.06934],[-75.87741,5.06936],[-75.87744,5.06937],[-75.87747,5.06938],[-75.8775,5.06938],[-75.87754,5.06938],[-75.87759,5.06938],[-75.87763,5.06937],[-75.87767,5.06935],[-75.8777,5.06934],[-75.87772,5.06933],[-75.87773,5.06932],[-75.87773,5.06931],[-75.87773,5.0693],[-75.87773,5.06929],[-75.87773,5.06928],[-75.87773,5.06927],[-75.87771,5.06924],[-75.87769,5.06922],[-75.87766,5.06919],[-75.87752,5.06906],[-75.87747,5.069],[-75.87744,5.06897],[-75.87742,5.06895],[-75.8774,5.06892],[-75.87739,5.0689],[-75.87738,5.06886],[-75.87736,5.06882],[-75.87735,5.06877],[-75.87732,5.06864],[-75.87731,5.0686],[-75.8773,5.06856],[-75.87729,5.06854],[-75.87727,5.06851],[-75.87724,5.06846],[-75.8772,5.06841],[-75.8771,5.06829],[-75.87707,5.06826],[-75.87705,5.06822],[-75.87703,5.06819],[-75.87702,5.06815],[-75.87701,5.06812],[-75.87701,5.06808],[-75.87702,5.06804],[-75.87702,5.06803],[-75.87702,5.06801],[-75.87686,5.06811],[-75.87655,5.06819],[-75.87653,5.06816],[-75.87653,5.06816],[-75.87651,5.06816],[-75.87646,5.06816],[-75.87645,5.06816],[-75.87643,5.06816],[-75.87641,5.06816],[-75.8764,5.06817],[-75.87637,5.06819],[-75.87635,5.06821],[-75.8764,5.06825],[-75.87645,5.0683]]],[[[-75.87744,5.06796],[-75.87746,5.06797],[-75.87748,5.06799],[-75.87749,5.068],[-75.8775,5.06801],[-75.87754,5.06807],[-75.87761,5.06815],[-75.87764,5.0682],[-75.87766,5.06825],[-75.87768,5.06831],[-75.8777,5.06837],[-75.87772,5.06843],[-75.87773,5.0685],[-75.87777,5.06872],[-75.87778,5.0688],[-75.8778,5.06888],[-75.87782,5.06894],[-75.87783,5.06898],[-75.87785,5.06902],[-75.87793,5.06917],[-75.87795,5.06924],[-75.87797,5.06928],[-75.87798,5.06931],[-75.87798,5.06934],[-75.87799,5.06938],[-75.87799,5.06938],[-75.87799,5.06938],[-75.878,5.06934],[-75.87802,5.06926],[-75.87804,5.06919],[-75.87807,5.06911],[-75.8781,5.06905],[-75.87812,5.06902],[-75.87811,5.06902],[-75.87802,5.06888],[-75.87802,5.06886],[-75.87802,5.06886],[-75.878,5.06885],[-75.87798,5.06884],[-75.87797,5.06881],[-75.87795,5.06879],[-75.87794,5.06876],[-75.87792,5.06872],[-75.87791,5.06868],[-75.8779,5.06863],[-75.87789,5.0686],[-75.87782,5.06843],[-75.87757,5.06786],[-75.87744,5.06796]]],[[[-75.87847,5.0687],[-75.87851,5.06871],[-75.87855,5.06872],[-75.8786,5.06873],[-75.87875,5.06879],[-75.87879,5.06881],[-75.87883,5.06883],[-75.87888,5.06885],[-75.87893,5.06888],[-75.87902,5.06893],[-75.87915,5.06903],[-75.87798,5.06696],[-75.87798,5.06698],[-75.87796,5.06702],[-75.87796,5.06705],[-75.87795,5.06708],[-75.87793,5.0671],[-75.87792,5.06711],[-75.8779,5.06713],[-75.87787,5.06715],[-75.87784,5.06717],[-75.87781,5.06718],[-75.87778,5.06719],[-75.87775,5.0672],[-75.87773,5.0672],[-75.87771,5.0672],[-75.87769,5.06719],[-75.87767,5.06719],[-75.87765,5.06718],[-75.87763,5.06716],[-75.8776,5.06713],[-75.87757,5.0671],[-75.87755,5.06708],[-75.87732,5.06716],[-75.87746,5.06749],[-75.87747,5.0675],[-75.87748,5.06749],[-75.87757,5.06743],[-75.87764,5.06739],[-75.87785,5.06783],[-75.87785,5.0678],[-75.87785,5.06775],[-75.87785,5.06773],[-75.87786,5.06771],[-75.87786,5.06769],[-75.87787,5.06768],[-75.87789,5.06765],[-75.87791,5.06762],[-75.87792,5.06761],[-75.87796,5.06758],[-75.878,5.06756],[-75.87803,5.06754],[-75.87806,5.06753],[-75.87808,5.06753],[-75.87809,5.06753],[-75.8781,5.06753],[-75.87811,5.06753],[-75.87812,5.06754],[-75.87812,5.06755],[-75.87814,5.06758],[-75.87816,5.06761],[-75.87818,5.06768],[-75.87819,5.0677],[-75.8782,5.06773],[-75.87821,5.0678],[-75.87821,5.06786],[-75.87822,5.068],[-75.87823,5.06806],[-75.87823,5.06809],[-75.87824,5.06811],[-75.87825,5.06817],[-75.87827,5.06823],[-75.87834,5.06842],[-75.87836,5.06848],[-75.87837,5.06853],[-75.87838,5.06856],[-75.87838,5.06858],[-75.87838,5.06861],[-75.87838,5.06863],[-75.87837,5.06865],[-75.87836,5.06867],[-75.87836,5.06869],[-75.87834,5.06871],[-75.87834,5.06871],[-75.87835,5.06872],[-75.87838,5.0687],[-75.87841,5.0687],[-75.87844,5.0687],[-75.87847,5.0687]]],[[[-75.87261,5.06898],[-75.87272,5.06882],[-75.87271,5.06882],[-75.87258,5.06879],[-75.87254,5.06878],[-75.87252,5.06877],[-75.87249,5.06875],[-75.87247,5.06874],[-75.87245,5.06872],[-75.87244,5.0687],[-75.87243,5.06867],[-75.87243,5.06864],[-75.87242,5.06862],[-75.87242,5.06861],[-75.87236,5.06854],[-75.87233,5.06835],[-75.87233,5.06833],[-75.87229,5.06834],[-75.87222,5.06836],[-75.87216,5.06838],[-75.87213,5.06839],[-75.8721,5.06841],[-75.87207,5.06843],[-75.87205,5.06844],[-75.87203,5.06846],[-75.87202,5.06847],[-75.87201,5.06849],[-75.87202,5.06849],[-75.87261,5.06898]]],[[[-75.87481,5.06778],[-75.87529,5.06814],[-75.87576,5.06849],[-75.87575,5.06843],[-75.87572,5.06833],[-75.8757,5.06833],[-75.87568,5.06832],[-75.87567,5.06831],[-75.87566,5.0683],[-75.87565,5.06829],[-75.87564,5.06827],[-75.87564,5.06825],[-75.87564,5.06823],[-75.87564,5.06821],[-75.87564,5.06818],[-75.87564,5.06816],[-75.87565,5.06815],[-75.87562,5.0681],[-75.87559,5.06805],[-75.87556,5.06801],[-75.87553,5.06798],[-75.87551,5.06796],[-75.87548,5.06794],[-75.87543,5.06791],[-75.87537,5.06788],[-75.8753,5.06785],[-75.87522,5.06783],[-75.87514,5.06781],[-75.87505,5.06779],[-75.87496,5.06778],[-75.87489,5.06777],[-75.87481,5.06778]]],[[[-75.87349,5.06837],[-75.87351,5.06839],[-75.87353,5.06841],[-75.87354,5.06844],[-75.87356,5.06847],[-75.87356,5.06847],[-75.8737,5.06845],[-75.87392,5.0684],[-75.87377,5.06837],[-75.87345,5.06831],[-75.87343,5.0683],[-75.87349,5.06837]]],[[[-75.8732,5.06806],[-75.87322,5.06809],[-75.87325,5.06812],[-75.87332,5.06819],[-75.87335,5.06822],[-75.87338,5.06826],[-75.87352,5.06829],[-75.87383,5.06835],[-75.87398,5.06837],[-75.874,5.06836],[-75.87399,5.06833],[-75.87391,5.06818],[-75.87389,5.06811],[-75.87389,5.06798],[-75.87389,5.06796],[-75.87384,5.06797],[-75.87381,5.06798],[-75.87378,5.06798],[-75.87375,5.06797],[-75.87373,5.06797],[-75.87371,5.06796],[-75.87369,5.06795],[-75.87368,5.06794],[-75.87367,5.06792],[-75.87366,5.0679],[-75.87366,5.06787],[-75.87366,5.06784],[-75.87366,5.06781],[-75.87366,5.06773],[-75.87368,5.06765],[-75.8737,5.06759],[-75.87371,5.06756],[-75.87372,5.06753],[-75.87373,5.06751],[-75.87374,5.06749],[-75.87376,5.06747],[-75.87377,5.06746],[-75.87379,5.06745],[-75.87382,5.06744],[-75.87385,5.06744],[-75.87388,5.06744],[-75.87392,5.06745],[-75.87396,5.06746],[-75.87402,5.06747],[-75.87408,5.0672],[-75.87416,5.06688],[-75.87412,5.06685],[-75.87407,5.06681],[-75.87402,5.06676],[-75.87398,5.06671],[-75.87394,5.06666],[-75.8739,5.06661],[-75.87386,5.06656],[-75.87383,5.0665],[-75.87381,5.06645],[-75.8738,5.06643],[-75.87378,5.06636],[-75.87378,5.06634],[-75.87377,5.06633],[-75.87375,5.06632],[-75.87373,5.06631],[-75.87371,5.0663],[-75.87365,5.06629],[-75.87363,5.06628],[-75.87359,5.06627],[-75.87355,5.06624],[-75.87341,5.06617],[-75.87336,5.06615],[-75.87331,5.06612],[-75.87327,5.06611],[-75.87322,5.06609],[-75.87316,5.06608],[-75.87301,5.06605],[-75.87292,5.06603],[-75.87283,5.06602],[-75.87273,5.06601],[-75.87243,5.06599],[-75.87234,5.06598],[-75.87226,5.06597],[-75.87212,5.06595],[-75.87206,5.06594],[-75.872,5.06592],[-75.87195,5.06591],[-75.87189,5.06589],[-75.87185,5.06587],[-75.87182,5.06585],[-75.8718,5.06583],[-75.87172,5.06576],[-75.87167,5.06571],[-75.87162,5.06566],[-75.87157,5.0656],[-75.87153,5.06554],[-75.87148,5.06548],[-75.87144,5.06541],[-75.8714,5.06534],[-75.87139,5.06533],[-75.87135,5.06525],[-75.87131,5.06517],[-75.87128,5.0651],[-75.87126,5.06503],[-75.87124,5.06498],[-75.87123,5.06495],[-75.87104,5.06486],[-75.87105,5.06487],[-75.87108,5.06489],[-75.8711,5.06491],[-75.87111,5.06492],[-75.87113,5.06494],[-75.87114,5.06496],[-75.87115,5.06499],[-75.87118,5.06504],[-75.8712,5.06512],[-75.87121,5.06516],[-75.87122,5.0652],[-75.87123,5.06526],[-75.87123,5.06533],[-75.87124,5.0654],[-75.87124,5.06543],[-75.87124,5.06546],[-75.87123,5.06548],[-75.87122,5.0655],[-75.8712,5.06551],[-75.87118,5.06552],[-75.87111,5.06556],[-75.87109,5.06557],[-75.87108,5.06558],[-75.87106,5.0656],[-75.87105,5.06562],[-75.87102,5.0657],[-75.87099,5.06577],[-75.87096,5.06584],[-75.87094,5.06591],[-75.87092,5.06598],[-75.87092,5.06605],[-75.87091,5.06606],[-75.8709,5.06607],[-75.87089,5.06608],[-75.87088,5.06609],[-75.87086,5.0661],[-75.87083,5.06611],[-75.8708,5.06612],[-75.87076,5.06612],[-75.87072,5.06612],[-75.87065,5.06611],[-75.87061,5.0661],[-75.87056,5.06609],[-75.87052,5.06608],[-75.87042,5.06604],[-75.87041,5.06603],[-75.87037,5.06602],[-75.87033,5.06601],[-75.87029,5.06609],[-75.87056,5.06624],[-75.87046,5.06638],[-75.87048,5.0664],[-75.87067,5.06657],[-75.8707,5.06661],[-75.87071,5.0666],[-75.87075,5.06659],[-75.87078,5.06658],[-75.87082,5.06658],[-75.87085,5.06659],[-75.87089,5.06659],[-75.87089,5.06659],[-75.87095,5.06657],[-75.87099,5.06662],[-75.87103,5.06664],[-75.8711,5.06667],[-75.87114,5.0667],[-75.87118,5.06672],[-75.87122,5.06675],[-75.87127,5.06678],[-75.87131,5.06682],[-75.87135,5.06686],[-75.87138,5.0669],[-75.87142,5.06694],[-75.87145,5.06698],[-75.87151,5.06708],[-75.87154,5.06713],[-75.87162,5.06724],[-75.87168,5.06731],[-75.87174,5.06736],[-75.87176,5.06739],[-75.87179,5.06741],[-75.87181,5.06743],[-75.87184,5.06744],[-75.87186,5.06745],[-75.87189,5.06746],[-75.87191,5.06747],[-75.87193,5.06747],[-75.87196,5.06747],[-75.87198,5.06746],[-75.87199,5.06746],[-75.87201,5.06745],[-75.87208,5.06741],[-75.87209,5.0674],[-75.87211,5.06739],[-75.87214,5.06739],[-75.87218,5.06739],[-75.87222,5.06739],[-75.87226,5.0674],[-75.87228,5.06741],[-75.87229,5.06742],[-75.8723,5.06742],[-75.87231,5.06743],[-75.87232,5.06746],[-75.87234,5.06749],[-75.87234,5.06752],[-75.87235,5.06756],[-75.87236,5.06773],[-75.87237,5.0678],[-75.87238,5.06783],[-75.87239,5.06786],[-75.8724,5.06789],[-75.87242,5.06791],[-75.87245,5.06793],[-75.87249,5.06796],[-75.87253,5.06799],[-75.87257,5.06794],[-75.87258,5.06793],[-75.87258,5.06792],[-75.87257,5.06791],[-75.87257,5.06789],[-75.87256,5.06786],[-75.87255,5.06784],[-75.87255,5.06781],[-75.87255,5.06778],[-75.87255,5.06775],[-75.87256,5.06771],[-75.87256,5.06768],[-75.87257,5.06765],[-75.87258,5.06762],[-75.87259,5.06759],[-75.8726,5.06756],[-75.87262,5.06754],[-75.87263,5.06752],[-75.87264,5.0675],[-75.87266,5.06749],[-75.87267,5.06748],[-75.87269,5.06747],[-75.87272,5.06747],[-75.87274,5.06746],[-75.87277,5.06746],[-75.8728,5.06746],[-75.87284,5.06747],[-75.87287,5.06747],[-75.8729,5.06748],[-75.87293,5.06749],[-75.87296,5.06749],[-75.87299,5.06751],[-75.87302,5.06752],[-75.87304,5.06753],[-75.87306,5.06755],[-75.87307,5.06756],[-75.87309,5.06758],[-75.8731,5.0676],[-75.87313,5.06764],[-75.87315,5.06769],[-75.87317,5.06775],[-75.87318,5.06778],[-75.87318,5.06781],[-75.87318,5.06785],[-75.87317,5.06791],[-75.87318,5.06793],[-75.8732,5.06806]],[[-75.8736,5.06747],[-75.87359,5.06752],[-75.87359,5.06757],[-75.87357,5.06765],[-75.87356,5.06771],[-75.87355,5.06776],[-75.87353,5.0678],[-75.87351,5.06783],[-75.87348,5.06789],[-75.87345,5.06792],[-75.87343,5.06793],[-75.87342,5.06794],[-75.87341,5.06795],[-75.8734,5.06795],[-75.87339,5.06794],[-75.87338,5.06794],[-75.87336,5.06792],[-75.87334,5.06789],[-75.87331,5.06786],[-75.8733,5.06784],[-75.8733,5.06781],[-75.8733,5.06778],[-75.8733,5.06769],[-75.8733,5.06766],[-75.87329,5.06764],[-75.87328,5.06759],[-75.87326,5.06755],[-75.87325,5.06752],[-75.87323,5.0675],[-75.8732,5.06748],[-75.87317,5.06746],[-75.87313,5.06744],[-75.87306,5.06742],[-75.87302,5.06741],[-75.87298,5.0674],[-75.87293,5.0674],[-75.87282,5.06741],[-75.87278,5.06741],[-75.87276,5.0674],[-75.87273,5.0674],[-75.87271,5.06739],[-75.87268,5.06738],[-75.87267,5.06736],[-75.87263,5.06732],[-75.8726,5.06728],[-75.87259,5.06726],[-75.87258,5.06724],[-75.87258,5.06723],[-75.87258,5.06722],[-75.87259,5.0672],[-75.8726,5.06719],[-75.87261,5.06718],[-75.87264,5.06717],[-75.87266,5.06716],[-75.8727,5.06715],[-75.87273,5.06714],[-75.87277,5.06713],[-75.87279,5.06713],[-75.87281,5.06713],[-75.87285,5.06714],[-75.87289,5.06715],[-75.873,5.06719],[-75.87303,5.06719],[-75.87306,5.0672],[-75.87309,5.0672],[-75.87318,5.0672],[-75.87322,5.0672],[-75.87326,5.06721],[-75.8733,5.06722],[-75.87334,5.06723],[-75.87341,5.06726],[-75.87348,5.06728],[-75.87351,5.06729],[-75.87354,5.06731],[-75.87356,5.06732],[-75.87358,5.06734],[-75.87359,5.06737],[-75.8736,5.0674],[-75.8736,5.06744],[-75.8736,5.06747]],[[-75.872,5.06714],[-75.87201,5.06717],[-75.872,5.0672],[-75.872,5.06722],[-75.87199,5.06723],[-75.87197,5.06725],[-75.87195,5.06727],[-75.87193,5.06729],[-75.87191,5.06731],[-75.87189,5.06732],[-75.87187,5.06732],[-75.87185,5.06732],[-75.87185,5.06732],[-75.87184,5.06731],[-75.87184,5.0673],[-75.87183,5.06728],[-75.87183,5.06724],[-75.87182,5.06716],[-75.87181,5.06713],[-75.87181,5.06711],[-75.87182,5.06699],[-75.87182,5.06696],[-75.87182,5.06694],[-75.87181,5.06689],[-75.87179,5.06684],[-75.87177,5.06679],[-75.87175,5.06674],[-75.87173,5.06671],[-75.87168,5.06664],[-75.87167,5.06662],[-75.87167,5.0666],[-75.87166,5.06658],[-75.87166,5.06655],[-75.87166,5.06652],[-75.87166,5.0665],[-75.87166,5.06648],[-75.87167,5.06646],[-75.87168,5.06645],[-75.87168,5.06644],[-75.87169,5.06644],[-75.87171,5.06643],[-75.87174,5.06642],[-75.87177,5.06642],[-75.87179,5.06643],[-75.8718,5.06643],[-75.87181,5.06644],[-75.87181,5.06644],[-75.87182,5.06646],[-75.87182,5.06648],[-75.87183,5.06656],[-75.87184,5.06658],[-75.87185,5.06659],[-75.87186,5.0666],[-75.87187,5.06661],[-75.87192,5.06665],[-75.87194,5.06667],[-75.87195,5.06668],[-75.87196,5.0667],[-75.87196,5.06672],[-75.87196,5.06674],[-75.87196,5.06678],[-75.87196,5.06687],[-75.87196,5.0669],[-75.87196,5.06692],[-75.87197,5.06696],[-75.87199,5.06705],[-75.872,5.06709],[-75.872,5.06714]]],[[[-75.87611,5.06779],[-75.87615,5.06779],[-75.87619,5.0678],[-75.87624,5.06782],[-75.8763,5.06784],[-75.8764,5.06788],[-75.87643,5.06791],[-75.87645,5.06791],[-75.87646,5.06792],[-75.8771,5.06749],[-75.87717,5.06744],[-75.87717,5.06744],[-75.87714,5.06742],[-75.87711,5.06741],[-75.87709,5.06739],[-75.87709,5.06738],[-75.87708,5.06737],[-75.87707,5.06733],[-75.87707,5.06731],[-75.87707,5.06731],[-75.87684,5.06725],[-75.87668,5.06721],[-75.87658,5.06718],[-75.87637,5.06712],[-75.87633,5.06711],[-75.87621,5.06708],[-75.87611,5.06705],[-75.8759,5.06699],[-75.87582,5.06697],[-75.87582,5.06698],[-75.87568,5.06695],[-75.87548,5.0669],[-75.8755,5.06675],[-75.87527,5.06668],[-75.87525,5.06667],[-75.87525,5.06666],[-75.87525,5.06664],[-75.87526,5.06659],[-75.87527,5.06655],[-75.87527,5.06654],[-75.87526,5.06655],[-75.8752,5.06655],[-75.87514,5.06655],[-75.87508,5.06655],[-75.87504,5.06654],[-75.87501,5.06653],[-75.87497,5.06652],[-75.87494,5.0665],[-75.8749,5.06648],[-75.87487,5.06645],[-75.8748,5.06638],[-75.87477,5.06635],[-75.87475,5.06634],[-75.87472,5.06642],[-75.87458,5.06639],[-75.87452,5.06661],[-75.87431,5.06655],[-75.87427,5.06667],[-75.87428,5.06669],[-75.87431,5.06672],[-75.87433,5.06675],[-75.87436,5.06677],[-75.87439,5.0668],[-75.87441,5.06682],[-75.87445,5.06684],[-75.87452,5.06689],[-75.8746,5.06693],[-75.87462,5.06694],[-75.87465,5.06695],[-75.8747,5.06696],[-75.87476,5.06697],[-75.8749,5.06698],[-75.87493,5.06698],[-75.87496,5.06699],[-75.875,5.067],[-75.87503,5.06701],[-75.87505,5.06703],[-75.87507,5.06705],[-75.87512,5.0671],[-75.87515,5.06714],[-75.87516,5.06716],[-75.87516,5.06716],[-75.87517,5.06717],[-75.87517,5.06718],[-75.87517,5.06719],[-75.87516,5.06719],[-75.87516,5.06719],[-75.87515,5.0672],[-75.87513,5.06719],[-75.87502,5.06717],[-75.87495,5.06715],[-75.87478,5.06709],[-75.87471,5.06707],[-75.87464,5.06706],[-75.87452,5.06704],[-75.87447,5.06704],[-75.87442,5.06702],[-75.87437,5.06701],[-75.87431,5.06698],[-75.87425,5.06695],[-75.87421,5.06692],[-75.87412,5.06722],[-75.87405,5.06748],[-75.87409,5.06749],[-75.87415,5.06751],[-75.8742,5.06752],[-75.87424,5.06752],[-75.87429,5.06752],[-75.87434,5.06751],[-75.87439,5.06751],[-75.87444,5.0675],[-75.87455,5.06748],[-75.87475,5.06743],[-75.87484,5.06741],[-75.87492,5.0674],[-75.875,5.06739],[-75.8752,5.06737],[-75.87529,5.06737],[-75.87534,5.06737],[-75.87538,5.06737],[-75.87542,5.06737],[-75.87546,5.06738],[-75.87554,5.06739],[-75.8756,5.0674],[-75.87565,5.06742],[-75.87569,5.06743],[-75.87573,5.06745],[-75.87576,5.06747],[-75.87579,5.06749],[-75.87582,5.06751],[-75.87583,5.06752],[-75.87584,5.06754],[-75.87585,5.06756],[-75.87586,5.06759],[-75.87587,5.06764],[-75.8759,5.06777],[-75.87591,5.0678],[-75.87592,5.06783],[-75.87595,5.06781],[-75.87598,5.0678],[-75.876,5.06779],[-75.87603,5.06779],[-75.87607,5.06778],[-75.87611,5.06779]]],[[[-75.86627,5.06714],[-75.86616,5.06744],[-75.86655,5.06762],[-75.86686,5.06774],[-75.86689,5.06766],[-75.86696,5.06734],[-75.86627,5.06713],[-75.86627,5.06714]]],[[[-75.86473,5.06686],[-75.86474,5.06686],[-75.86475,5.06686],[-75.86477,5.06686],[-75.86479,5.06687],[-75.86481,5.06687],[-75.86486,5.06688],[-75.86497,5.06693],[-75.86501,5.06697],[-75.86505,5.06702],[-75.86509,5.06713],[-75.86509,5.06719],[-75.8651,5.06721],[-75.8651,5.06723],[-75.8651,5.06726],[-75.86569,5.06743],[-75.86591,5.06751],[-75.86591,5.06749],[-75.86591,5.06746],[-75.8659,5.06743],[-75.8659,5.06742],[-75.86604,5.06715],[-75.86609,5.06714],[-75.86619,5.06712],[-75.86646,5.06627],[-75.86617,5.06618],[-75.8662,5.06607],[-75.86575,5.06587],[-75.86577,5.06578],[-75.86574,5.06576],[-75.8655,5.06567],[-75.8655,5.06569],[-75.86549,5.06573],[-75.86548,5.06577],[-75.86546,5.0658],[-75.86542,5.06587],[-75.8654,5.06589],[-75.86538,5.06591],[-75.86537,5.06593],[-75.86535,5.06594],[-75.86533,5.06595],[-75.86531,5.06596],[-75.86529,5.06596],[-75.86526,5.06596],[-75.86524,5.06596],[-75.86523,5.06596],[-75.86521,5.06595],[-75.86521,5.06594],[-75.8652,5.06592],[-75.8652,5.0659],[-75.86521,5.06586],[-75.86523,5.06575],[-75.86523,5.06572],[-75.86524,5.06564],[-75.86525,5.06557],[-75.86491,5.06543],[-75.8649,5.06544],[-75.86483,5.06554],[-75.86482,5.06555],[-75.86469,5.06595],[-75.86464,5.06593],[-75.86454,5.06641],[-75.86494,5.06653],[-75.86469,5.06685],[-75.86471,5.06685],[-75.86473,5.06686]]],[[[-75.87412,5.06626],[-75.87409,5.06627],[-75.87406,5.06628],[-75.87404,5.0663],[-75.87403,5.0663],[-75.87403,5.06631],[-75.87403,5.06632],[-75.87403,5.06632],[-75.87405,5.06634],[-75.87409,5.06637],[-75.87411,5.06639],[-75.87413,5.06641],[-75.87415,5.06644],[-75.87416,5.06648],[-75.8742,5.06656],[-75.87423,5.0666],[-75.87423,5.06661],[-75.87428,5.0664],[-75.87412,5.06634],[-75.87414,5.06626],[-75.87412,5.06626]]],[[[-75.87012,5.06584],[-75.87016,5.06587],[-75.87019,5.06586],[-75.87023,5.06585],[-75.87027,5.06583],[-75.87031,5.0658],[-75.87034,5.06578],[-75.87037,5.06576],[-75.87039,5.06575],[-75.8704,5.06573],[-75.87042,5.06571],[-75.87043,5.06569],[-75.87044,5.06567],[-75.87045,5.06565],[-75.87046,5.06562],[-75.87047,5.06557],[-75.87048,5.06551],[-75.87028,5.06525],[-75.87006,5.06552],[-75.87028,5.06569],[-75.87023,5.06575],[-75.8702,5.06573],[-75.87012,5.06584]]],[[[-75.86561,5.06433],[-75.86555,5.06441],[-75.8655,5.06448],[-75.86545,5.06455],[-75.86541,5.06462],[-75.86524,5.06492],[-75.86517,5.06504],[-75.86503,5.06526],[-75.86497,5.06534],[-75.86497,5.06534],[-75.86505,5.06533],[-75.8651,5.06528],[-75.86521,5.06509],[-75.86522,5.06508],[-75.86522,5.06507],[-75.86524,5.06507],[-75.86533,5.06503],[-75.86534,5.06502],[-75.86536,5.06494],[-75.86538,5.06487],[-75.8654,5.06481],[-75.8654,5.0648],[-75.86543,5.06475],[-75.86546,5.0647],[-75.86549,5.06465],[-75.86552,5.0646],[-75.86555,5.06455],[-75.86558,5.0645],[-75.86562,5.06446],[-75.86566,5.06441],[-75.8657,5.06437],[-75.86574,5.06433],[-75.86578,5.06429],[-75.86583,5.06425],[-75.86585,5.06416],[-75.86592,5.06418],[-75.86593,5.06417],[-75.86605,5.06409],[-75.86608,5.06407],[-75.8661,5.06405],[-75.86614,5.06401],[-75.86619,5.06397],[-75.86623,5.06392],[-75.86628,5.06386],[-75.86632,5.06381],[-75.86636,5.06375],[-75.86639,5.06369],[-75.86647,5.06355],[-75.8665,5.06348],[-75.86654,5.06343],[-75.86657,5.06339],[-75.8666,5.06335],[-75.86663,5.06332],[-75.86675,5.0632],[-75.86679,5.06316],[-75.86683,5.06312],[-75.86686,5.06307],[-75.867,5.0629],[-75.86705,5.06282],[-75.86709,5.06279],[-75.86712,5.06275],[-75.86715,5.06272],[-75.86719,5.0627],[-75.86727,5.06262],[-75.8673,5.0626],[-75.86732,5.06259],[-75.86734,5.06258],[-75.86735,5.06258],[-75.86737,5.06258],[-75.86738,5.06259],[-75.86739,5.0626],[-75.8674,5.06261],[-75.86741,5.06262],[-75.86744,5.06266],[-75.86747,5.06271],[-75.86747,5.06272],[-75.86748,5.06274],[-75.86748,5.06276],[-75.86748,5.06279],[-75.86748,5.06281],[-75.86748,5.06283],[-75.86747,5.06286],[-75.86746,5.06288],[-75.86744,5.06294],[-75.86741,5.063],[-75.86737,5.06307],[-75.86731,5.06316],[-75.8673,5.06319],[-75.86728,5.06321],[-75.86719,5.06331],[-75.86716,5.06335],[-75.86714,5.06339],[-75.8671,5.06347],[-75.86708,5.06351],[-75.86705,5.06356],[-75.86702,5.06361],[-75.86695,5.06371],[-75.86691,5.06377],[-75.86708,5.06382],[-75.86718,5.06348],[-75.8672,5.06351],[-75.86723,5.06355],[-75.86726,5.06345],[-75.86733,5.06348],[-75.86736,5.06337],[-75.86807,5.06357],[-75.86807,5.06356],[-75.86818,5.06321],[-75.86817,5.06321],[-75.86811,5.06319],[-75.86798,5.06315],[-75.86801,5.06302],[-75.86799,5.06302],[-75.86805,5.06282],[-75.86758,5.06267],[-75.86757,5.06271],[-75.86749,5.06268],[-75.8675,5.06263],[-75.86758,5.0623],[-75.86743,5.06222],[-75.86735,5.06248],[-75.86716,5.06242],[-75.86711,5.06249],[-75.86697,5.06264],[-75.86694,5.06269],[-75.86691,5.06272],[-75.86687,5.0628],[-75.86675,5.063],[-75.86672,5.06306],[-75.86668,5.06311],[-75.86666,5.06314],[-75.86663,5.06317],[-75.86656,5.06324],[-75.86649,5.06331],[-75.86633,5.06344],[-75.86627,5.0635],[-75.8662,5.06356],[-75.86615,5.06362],[-75.86611,5.06367],[-75.86607,5.06372],[-75.86594,5.0639],[-75.8659,5.06397],[-75.86582,5.06407],[-75.86561,5.06433]]],[[[-75.87057,5.06491],[-75.8706,5.06495],[-75.87064,5.06492],[-75.87072,5.06487],[-75.87075,5.06485],[-75.87078,5.06484],[-75.8708,5.06482],[-75.87083,5.06482],[-75.87085,5.06481],[-75.87088,5.06481],[-75.8709,5.06481],[-75.87093,5.06482],[-75.87096,5.06483],[-75.87099,5.06484],[-75.87102,5.06485],[-75.87103,5.06486],[-75.87103,5.06485],[-75.87101,5.06484],[-75.87105,5.0647],[-75.87106,5.06461],[-75.87103,5.06457],[-75.87095,5.06451],[-75.87078,5.06472],[-75.87076,5.06468],[-75.87057,5.06491]]],[[[-75.86667,5.06403],[-75.86663,5.06407],[-75.86658,5.06411],[-75.86653,5.06414],[-75.86649,5.06418],[-75.86644,5.06421],[-75.86641,5.06423],[-75.86637,5.06425],[-75.8663,5.06428],[-75.86665,5.06438],[-75.86694,5.06444],[-75.86702,5.06413],[-75.86669,5.06401],[-75.86667,5.06403]]],[[[-75.87739,5.06372],[-75.87737,5.06375],[-75.87746,5.06375],[-75.87794,5.06389],[-75.87847,5.06413],[-75.87883,5.06419],[-75.87957,5.06418],[-75.87955,5.06416],[-75.87952,5.06413],[-75.87949,5.06411],[-75.87947,5.06408],[-75.87945,5.06404],[-75.87943,5.06401],[-75.87943,5.06398],[-75.87943,5.06395],[-75.87943,5.06392],[-75.87943,5.06388],[-75.87944,5.06385],[-75.87945,5.0638],[-75.87947,5.06376],[-75.87952,5.06364],[-75.87955,5.0636],[-75.87957,5.06355],[-75.87961,5.0635],[-75.8797,5.06337],[-75.87973,5.06333],[-75.87975,5.06329],[-75.87978,5.06325],[-75.8798,5.06321],[-75.87981,5.06316],[-75.87983,5.06311],[-75.87985,5.06306],[-75.87986,5.063],[-75.87989,5.06289],[-75.87991,5.06278],[-75.87993,5.06265],[-75.87998,5.06225],[-75.87966,5.06225],[-75.87917,5.06222],[-75.87898,5.06216],[-75.87897,5.06227],[-75.87897,5.06248],[-75.87901,5.06299],[-75.87833,5.06287],[-75.87833,5.06287],[-75.87834,5.06289],[-75.87835,5.06292],[-75.87835,5.06295],[-75.87836,5.06305],[-75.87837,5.06308],[-75.87838,5.0631],[-75.87839,5.06312],[-75.8784,5.06314],[-75.87842,5.06316],[-75.87849,5.06323],[-75.87851,5.06325],[-75.87852,5.06327],[-75.87854,5.06332],[-75.87856,5.06338],[-75.87858,5.06342],[-75.87858,5.06344],[-75.87858,5.06344],[-75.87857,5.06345],[-75.87857,5.06345],[-75.87855,5.06344],[-75.87853,5.06343],[-75.8785,5.06341],[-75.87846,5.06338],[-75.87843,5.06335],[-75.8784,5.06331],[-75.87838,5.06329],[-75.87836,5.06326],[-75.87834,5.06323],[-75.8783,5.06311],[-75.87828,5.06307],[-75.87827,5.06306],[-75.87819,5.06338],[-75.87815,5.06353],[-75.878,5.0635],[-75.87781,5.06345],[-75.87776,5.06344],[-75.87764,5.06341],[-75.87761,5.0634],[-75.8776,5.06342],[-75.87758,5.06345],[-75.87739,5.06372]]],[[[-75.88238,5.06332],[-75.88237,5.06332],[-75.88237,5.06332],[-75.88237,5.06332],[-75.88237,5.06332],[-75.88236,5.06332],[-75.88235,5.06332],[-75.88235,5.06332],[-75.88235,5.06332],[-75.88234,5.06332],[-75.88233,5.06332],[-75.88232,5.06332],[-75.88232,5.06332],[-75.88231,5.06332],[-75.88229,5.06333],[-75.88224,5.06333],[-75.88222,5.06333],[-75.88215,5.06333],[-75.88214,5.06333],[-75.88212,5.06333],[-75.88209,5.06334],[-75.88206,5.06334],[-75.88205,5.06334],[-75.88205,5.06334],[-75.88205,5.06334],[-75.88203,5.06334],[-75.88203,5.06334],[-75.88202,5.06334],[-75.88202,5.06334],[-75.88202,5.06334],[-75.88202,5.06335],[-75.882,5.06335],[-75.882,5.06335],[-75.882,5.06335],[-75.882,5.06335],[-75.882,5.06335],[-75.882,5.06335],[-75.88199,5.06335],[-75.88197,5.06336],[-75.88181,5.06339],[-75.88173,5.06341],[-75.88166,5.06344],[-75.8816,5.06346],[-75.88154,5.06349],[-75.88152,5.0635],[-75.8815,5.06352],[-75.88148,5.06353],[-75.88146,5.06355],[-75.88145,5.06357],[-75.88143,5.06358],[-75.88141,5.06362],[-75.88139,5.06367],[-75.88138,5.06372],[-75.88137,5.06377],[-75.88137,5.06384],[-75.88136,5.0639],[-75.88136,5.06392],[-75.88183,5.06371],[-75.88237,5.0636],[-75.88238,5.06332],[-75.88238,5.06332]]],[[[-75.87615,5.06249],[-75.87619,5.06257],[-75.87638,5.06263],[-75.87648,5.06287],[-75.87653,5.06276],[-75.87663,5.06254],[-75.87665,5.06249],[-75.87636,5.06231],[-75.87635,5.06234],[-75.87631,5.06235],[-75.87631,5.06235],[-75.8763,5.06235],[-75.87624,5.06235],[-75.87604,5.06227],[-75.87605,5.06229],[-75.87615,5.06249]]],[[[-75.87626,5.06211],[-75.87626,5.06211],[-75.87629,5.06212],[-75.87642,5.06216],[-75.87641,5.06217],[-75.8764,5.0622],[-75.87639,5.06224],[-75.87639,5.06224],[-75.87641,5.06225],[-75.87646,5.0623],[-75.87648,5.0623],[-75.87654,5.06232],[-75.87714,5.06249],[-75.87721,5.06251],[-75.87722,5.06248],[-75.8773,5.06229],[-75.87732,5.06219],[-75.87732,5.06219],[-75.87706,5.06212],[-75.877,5.0621],[-75.87695,5.06208],[-75.87691,5.06206],[-75.8769,5.06205],[-75.87689,5.06204],[-75.87688,5.06203],[-75.87689,5.06202],[-75.87689,5.06201],[-75.8769,5.06201],[-75.87695,5.06198],[-75.87698,5.06198],[-75.877,5.06187],[-75.87702,5.06182],[-75.87701,5.06182],[-75.87667,5.06196],[-75.87649,5.06207],[-75.87616,5.0619],[-75.8762,5.06168],[-75.87596,5.06168],[-75.87586,5.06169],[-75.87586,5.0617],[-75.87588,5.06183],[-75.8759,5.0619],[-75.87591,5.06197],[-75.87592,5.062],[-75.87626,5.06211]]],[[[-75.86728,5.06202],[-75.86727,5.06207],[-75.8673,5.06207],[-75.86733,5.062],[-75.86737,5.06202],[-75.86737,5.06199],[-75.86737,5.06197],[-75.86737,5.06195],[-75.86737,5.06193],[-75.86738,5.06191],[-75.86739,5.0619],[-75.8674,5.06188],[-75.86743,5.06184],[-75.86749,5.06178],[-75.86752,5.06175],[-75.86756,5.06171],[-75.86761,5.06168],[-75.86766,5.06165],[-75.8677,5.06163],[-75.86776,5.06161],[-75.86795,5.06153],[-75.86802,5.0615],[-75.86813,5.06145],[-75.86817,5.06143],[-75.86828,5.06137],[-75.86833,5.06135],[-75.86835,5.06133],[-75.86837,5.06131],[-75.86839,5.0613],[-75.8684,5.06128],[-75.86841,5.06126],[-75.86843,5.06123],[-75.86846,5.06112],[-75.86851,5.06098],[-75.86854,5.0609],[-75.86856,5.06082],[-75.86856,5.06079],[-75.86857,5.06075],[-75.86857,5.06071],[-75.86857,5.06067],[-75.86857,5.06056],[-75.86856,5.06049],[-75.86856,5.06045],[-75.86855,5.06041],[-75.86854,5.06038],[-75.86854,5.06036],[-75.86852,5.06034],[-75.86849,5.06031],[-75.86846,5.06026],[-75.8684,5.06022],[-75.86838,5.0602],[-75.86835,5.06018],[-75.86825,5.06013],[-75.8682,5.06023],[-75.86808,5.06017],[-75.86808,5.06018],[-75.86817,5.06028],[-75.86822,5.06033],[-75.86825,5.06037],[-75.86832,5.06046],[-75.86836,5.06051],[-75.86839,5.06056],[-75.8684,5.06058],[-75.8684,5.0606],[-75.86841,5.06064],[-75.86842,5.06068],[-75.86842,5.06072],[-75.86842,5.06081],[-75.86843,5.06091],[-75.86843,5.06094],[-75.86843,5.06098],[-75.86843,5.06099],[-75.86842,5.061],[-75.86842,5.06102],[-75.86841,5.06103],[-75.86839,5.06104],[-75.86838,5.06106],[-75.86834,5.06108],[-75.86826,5.06112],[-75.86823,5.06114],[-75.86818,5.06118],[-75.86813,5.06122],[-75.86791,5.06143],[-75.86786,5.06147],[-75.86781,5.0615],[-75.86777,5.06153],[-75.86773,5.06155],[-75.86768,5.06158],[-75.86754,5.06164],[-75.8675,5.06166],[-75.86747,5.06168],[-75.86743,5.0617],[-75.8674,5.06173],[-75.86737,5.06176],[-75.86735,5.06179],[-75.86733,5.06183],[-75.86731,5.06188],[-75.8673,5.06193],[-75.86728,5.06202]]],[[[-75.86869,5.06169],[-75.86916,5.06182],[-75.86922,5.06162],[-75.86927,5.06165],[-75.86933,5.06149],[-75.8688,5.06134],[-75.86869,5.06169]]],[[[-75.86886,5.0595],[-75.86883,5.05963],[-75.869,5.05969],[-75.86915,5.05918],[-75.86982,5.05938],[-75.86982,5.05938],[-75.86994,5.05942],[-75.86993,5.05935],[-75.87006,5.05936],[-75.87006,5.05936],[-75.87005,5.05939],[-75.87005,5.05942],[-75.87005,5.05943],[-75.87005,5.05946],[-75.87014,5.05949],[-75.87017,5.05941],[-75.87019,5.05941],[-75.87019,5.05942],[-75.87019,5.05942],[-75.87017,5.05932],[-75.87015,5.05921],[-75.87014,5.05913],[-75.87013,5.05897],[-75.87013,5.05891],[-75.87012,5.05885],[-75.87011,5.05879],[-75.87009,5.05874],[-75.87008,5.05869],[-75.87006,5.05863],[-75.87,5.05851],[-75.86998,5.05849],[-75.86997,5.05846],[-75.86996,5.0584],[-75.86995,5.05833],[-75.86994,5.05826],[-75.86993,5.05816],[-75.86993,5.05808],[-75.86993,5.05801],[-75.86993,5.05795],[-75.86993,5.05788],[-75.86994,5.05783],[-75.86994,5.05778],[-75.86995,5.05772],[-75.86996,5.05767],[-75.86999,5.05759],[-75.87002,5.05748],[-75.87006,5.05736],[-75.87009,5.05727],[-75.87013,5.05719],[-75.87016,5.05712],[-75.8702,5.05706],[-75.87023,5.05701],[-75.87024,5.05699],[-75.87027,5.05696],[-75.87033,5.0569],[-75.87036,5.05688],[-75.87039,5.05685],[-75.87047,5.05679],[-75.87055,5.05674],[-75.87069,5.05666],[-75.87077,5.05661],[-75.87084,5.05657],[-75.8709,5.05654],[-75.87096,5.05652],[-75.87105,5.05648],[-75.87114,5.05644],[-75.87121,5.05642],[-75.87124,5.05641],[-75.87124,5.05641],[-75.87121,5.0564],[-75.87117,5.05638],[-75.87113,5.05638],[-75.87109,5.05638],[-75.87106,5.05638],[-75.87101,5.05638],[-75.87095,5.05639],[-75.87094,5.05639],[-75.87091,5.05641],[-75.87089,5.05642],[-75.8708,5.05646],[-75.87077,5.05645],[-75.8707,5.05642],[-75.87069,5.05641],[-75.87066,5.05645],[-75.87065,5.05647],[-75.87062,5.0565],[-75.87057,5.05655],[-75.87054,5.05657],[-75.87051,5.05659],[-75.87048,5.0566],[-75.87046,5.05661],[-75.87044,5.05661],[-75.87041,5.05662],[-75.87032,5.05662],[-75.87028,5.05662],[-75.87023,5.05662],[-75.87023,5.05662],[-75.87024,5.05664],[-75.87025,5.05667],[-75.87026,5.05675],[-75.87027,5.05678],[-75.87014,5.05691],[-75.8697,5.05685],[-75.86968,5.05684],[-75.86964,5.05683],[-75.8696,5.05681],[-75.86957,5.05678],[-75.86954,5.05675],[-75.86951,5.05671],[-75.86949,5.05666],[-75.86929,5.05667],[-75.86929,5.05667],[-75.86929,5.05676],[-75.86931,5.05687],[-75.86931,5.05691],[-75.86931,5.05695],[-75.86931,5.05699],[-75.8693,5.05704],[-75.86928,5.05711],[-75.86925,5.05719],[-75.86923,5.05726],[-75.86921,5.0573],[-75.86919,5.05734],[-75.86912,5.05746],[-75.8691,5.05751],[-75.86908,5.05755],[-75.86906,5.0576],[-75.869,5.05777],[-75.86897,5.05784],[-75.86895,5.05788],[-75.86894,5.05792],[-75.86892,5.05795],[-75.8689,5.05797],[-75.86885,5.05803],[-75.86878,5.0581],[-75.86872,5.05817],[-75.86867,5.05822],[-75.86859,5.05829],[-75.86855,5.05832],[-75.86851,5.05835],[-75.86847,5.05838],[-75.86843,5.05839],[-75.86839,5.05841],[-75.86834,5.05842],[-75.86826,5.05843],[-75.86818,5.05845],[-75.86812,5.05845],[-75.86808,5.05846],[-75.86803,5.05845],[-75.86797,5.05845],[-75.8679,5.05844],[-75.86785,5.05843],[-75.86773,5.0584],[-75.86767,5.05839],[-75.86757,5.05838],[-75.86753,5.05837],[-75.86749,5.05837],[-75.86743,5.05838],[-75.86737,5.05839],[-75.86732,5.05841],[-75.86726,5.05844],[-75.86724,5.05845],[-75.8672,5.05848],[-75.86718,5.0585],[-75.86717,5.0585],[-75.86801,5.05877],[-75.86805,5.05883],[-75.86806,5.05887],[-75.86815,5.0589],[-75.86812,5.059],[-75.86812,5.05901],[-75.86814,5.05908],[-75.86815,5.05911],[-75.86805,5.05942],[-75.86806,5.05944],[-75.86807,5.05949],[-75.86808,5.05953],[-75.8681,5.05956],[-75.86811,5.05958],[-75.86813,5.0596],[-75.86814,5.05961],[-75.86829,5.05966],[-75.86834,5.05949],[-75.86867,5.05961],[-75.86874,5.05945],[-75.86886,5.0595]]],[[[-75.87166,5.05777],[-75.87168,5.05777],[-75.87167,5.05782],[-75.87193,5.05788],[-75.8719,5.05785],[-75.8719,5.05785],[-75.87186,5.05779],[-75.87183,5.05776],[-75.87181,5.05772],[-75.87179,5.05767],[-75.87177,5.05764],[-75.87173,5.05754],[-75.87172,5.05752],[-75.87166,5.05777]]],[[[-75.87204,5.05674],[-75.87207,5.0568],[-75.8721,5.05684],[-75.87214,5.05687],[-75.87219,5.05691],[-75.87222,5.05694],[-75.87226,5.05696],[-75.87241,5.05706],[-75.87247,5.0571],[-75.87251,5.05713],[-75.87259,5.05722],[-75.87262,5.05724],[-75.87264,5.05726],[-75.87269,5.0573],[-75.87273,5.05732],[-75.87275,5.05733],[-75.87278,5.05733],[-75.87285,5.05735],[-75.87289,5.05735],[-75.87294,5.05735],[-75.87299,5.05735],[-75.87307,5.05734],[-75.87313,5.05734],[-75.87319,5.05733],[-75.87325,5.05731],[-75.87338,5.05727],[-75.87344,5.05726],[-75.87347,5.05725],[-75.87292,5.05709],[-75.87284,5.05706],[-75.87284,5.05705],[-75.87282,5.05699],[-75.8728,5.05689],[-75.8728,5.05686],[-75.87278,5.05684],[-75.87268,5.05677],[-75.87258,5.05674],[-75.87243,5.05671],[-75.87239,5.05671],[-75.87232,5.05671],[-75.87224,5.05671],[-75.87222,5.05671],[-75.8722,5.05671],[-75.87212,5.0567],[-75.87208,5.05669],[-75.87203,5.05668],[-75.87203,5.05668],[-75.872,5.05667],[-75.87202,5.0567],[-75.87204,5.05674]]],[[[-75.87153,5.05638],[-75.87154,5.05638],[-75.87158,5.05639],[-75.87162,5.05639],[-75.87167,5.0564],[-75.87173,5.05642],[-75.87178,5.05643],[-75.87182,5.05645],[-75.87182,5.05644],[-75.87181,5.05642],[-75.87181,5.0564],[-75.87181,5.05635],[-75.87182,5.05628],[-75.87182,5.05624],[-75.87184,5.0562],[-75.87185,5.05617],[-75.8718,5.05614],[-75.87173,5.05611],[-75.87168,5.05608],[-75.87167,5.05606],[-75.87165,5.05605],[-75.87163,5.05602],[-75.8716,5.056],[-75.87157,5.05595],[-75.87156,5.05597],[-75.87155,5.05599],[-75.87155,5.056],[-75.87155,5.05601],[-75.87154,5.05602],[-75.87155,5.05607],[-75.87152,5.05609],[-75.8715,5.05613],[-75.87148,5.05615],[-75.87145,5.0562],[-75.87142,5.05624],[-75.87141,5.05627],[-75.87139,5.05631],[-75.87137,5.05636],[-75.87135,5.05639],[-75.87139,5.05639],[-75.87144,5.05638],[-75.87148,5.05638],[-75.87153,5.05638]]]]},"properties":{"FID":1,"OBJECTID":2,"Area_ha":40.0688503761,"AMENAZA":"MEDIA","CONDICION":"CONDICIÓN DE AMENAZA POR MOVIMIENTO EN MASA","RuleID":1,"Shape_Leng":18372.4615607,"Shape_Area":400688.508067}}]}