{"type":"FeatureCollection","name":"h_8_Condicion_Riesgo_Urbano","crs":{"type":"name","properties":{"name":"urn:ogc:def:crs:OGC:1.3:CRS84"}},"features":[{"type":"Feature","id":0,"geometry":{"type":"MultiPolygon","coordinates":[[[[-75.87201,5.06521],[-75.87236,5.06523],[-75.87238,5.06523],[-75.87239,5.06519],[-75.87227,5.06515],[-75.87217,5.06512],[-75.87215,5.06511],[-75.87213,5.06511],[-75.87205,5.06518],[-75.87201,5.06521]]],[[[-75.87277,5.06496],[-75.87276,5.06496],[-75.87276,5.06496],[-75.87274,5.06501],[-75.87316,5.06521],[-75.87321,5.06517],[-75.87321,5.06517],[-75.8732,5.06516],[-75.87317,5.06519],[-75.87314,5.06519],[-75.87295,5.06505],[-75.87276,5.065],[-75.87277,5.06496],[-75.87277,5.06496]]],[[[-75.87105,5.0647],[-75.87104,5.06472],[-75.87104,5.06473],[-75.87103,5.06478],[-75.87103,5.06478],[-75.87101,5.06484],[-75.87103,5.06485],[-75.87105,5.0647]]],[[[-75.87076,5.06468],[-75.87077,5.0647],[-75.87078,5.06472],[-75.87083,5.06466],[-75.87087,5.0646],[-75.87095,5.06451],[-75.87093,5.06449],[-75.87086,5.06454],[-75.8708,5.06461],[-75.87081,5.06457],[-75.87081,5.06454],[-75.87081,5.06453],[-75.8708,5.0645],[-75.87078,5.06446],[-75.87076,5.06442],[-75.87074,5.06439],[-75.87073,5.06437],[-75.8707,5.06431],[-75.87059,5.06416],[-75.87056,5.06411],[-75.87055,5.06408],[-75.87054,5.06406],[-75.8705,5.06399],[-75.87047,5.0639],[-75.87044,5.0638],[-75.8704,5.06369],[-75.87039,5.06363],[-75.87038,5.06357],[-75.87035,5.06341],[-75.87033,5.06333],[-75.87031,5.06323],[-75.87029,5.06316],[-75.87024,5.063],[-75.87024,5.06298],[-75.87022,5.06292],[-75.87021,5.06285],[-75.8702,5.06278],[-75.87016,5.06249],[-75.87015,5.06242],[-75.87014,5.06236],[-75.87012,5.06228],[-75.87011,5.06224],[-75.87013,5.06238],[-75.87013,5.0624],[-75.87016,5.06258],[-75.87019,5.06277],[-75.87022,5.06295],[-75.87026,5.06314],[-75.87029,5.06331],[-75.87033,5.06346],[-75.87037,5.06361],[-75.87041,5.06375],[-75.87045,5.06388],[-75.87049,5.064],[-75.87053,5.06412],[-75.87062,5.06435],[-75.87064,5.06442],[-75.87068,5.06451],[-75.87071,5.06459],[-75.87075,5.06466],[-75.87076,5.06467],[-75.87076,5.06468]]],[[[-75.87103,5.06457],[-75.87106,5.06461],[-75.87106,5.06459],[-75.87103,5.06457]]],[[[-75.87658,5.06312],[-75.87659,5.06312],[-75.87662,5.06319],[-75.87667,5.06324],[-75.87695,5.06348],[-75.87701,5.06353],[-75.87712,5.06365],[-75.87711,5.06362],[-75.87709,5.06357],[-75.87706,5.06351],[-75.87703,5.06348],[-75.87701,5.06344],[-75.87698,5.06341],[-75.87695,5.06338],[-75.87692,5.06334],[-75.87688,5.06331],[-75.87679,5.06323],[-75.87675,5.0632],[-75.87671,5.06318],[-75.87665,5.06315],[-75.87658,5.06312]]],[[[-75.8763,5.06235],[-75.87631,5.06235],[-75.87631,5.06235],[-75.8763,5.06235]]],[[[-75.87005,5.05946],[-75.87006,5.05948],[-75.87007,5.05952],[-75.87009,5.05958],[-75.87011,5.05962],[-75.87011,5.05965],[-75.87012,5.05967],[-75.87012,5.05968],[-75.87012,5.05971],[-75.87012,5.05973],[-75.87012,5.05982],[-75.87012,5.05986],[-75.87012,5.05994],[-75.87013,5.05999],[-75.87014,5.06006],[-75.87016,5.06018],[-75.87019,5.06032],[-75.87022,5.06042],[-75.87024,5.06047],[-75.87026,5.06052],[-75.87028,5.06056],[-75.87026,5.06047],[-75.87025,5.06035],[-75.87024,5.06027],[-75.87024,5.06018],[-75.87023,5.05979],[-75.87022,5.0597],[-75.87021,5.05963],[-75.8702,5.05949],[-75.8702,5.05948],[-75.87019,5.05942],[-75.87019,5.05941],[-75.87017,5.05941],[-75.87014,5.05948],[-75.87014,5.05949],[-75.87008,5.05947],[-75.87005,5.05946]]],[[[-75.86982,5.05938],[-75.86984,5.05947],[-75.86986,5.05959],[-75.86988,5.0597],[-75.8699,5.05981],[-75.8699,5.0599],[-75.86991,5.05999],[-75.86992,5.06028],[-75.86993,5.06035],[-75.86993,5.06035],[-75.86994,5.06031],[-75.86994,5.06028],[-75.86994,5.06028],[-75.86995,5.06025],[-75.86995,5.06022],[-75.86995,5.06019],[-75.86994,5.06014],[-75.86994,5.06014],[-75.86994,5.06013],[-75.86994,5.06011],[-75.86995,5.06009],[-75.86996,5.06007],[-75.86999,5.06],[-75.87,5.05997],[-75.87,5.05995],[-75.87001,5.05994],[-75.87002,5.05988],[-75.87002,5.05982],[-75.87002,5.0598],[-75.87002,5.05976],[-75.87001,5.05973],[-75.87001,5.05972],[-75.87,5.05971],[-75.86996,5.05961],[-75.86996,5.05958],[-75.86995,5.05956],[-75.86995,5.05954],[-75.86994,5.05951],[-75.86994,5.05946],[-75.86994,5.05942],[-75.86982,5.05938],[-75.86982,5.05938]]]]},"properties":{"FID":0,"OBJECTID_1":1,"OBJECTID":4,"CONTRATIST":"CORDEAM","Area_ha_1":0.430882217352,"CONDICION":"CONDICIÓN DE RIESGO POR AVENIDA TORRENCIAL_URB","AMENAZA":"AVENIDA TORRENCIAL_URBANO","RuleID":2,"Shape_Leng":1557.92809882,"Shape_Area":4308.82217352}},{"type":"Feature","id":1,"geometry":{"type":"MultiPolygon","coordinates":[[[[-75.87802,5.06886],[-75.87804,5.06887],[-75.87806,5.06887],[-75.87808,5.06887],[-75.8781,5.06886],[-75.87813,5.06886],[-75.87816,5.06884],[-75.87819,5.06883],[-75.87822,5.06881],[-75.87825,5.06879],[-75.87828,5.06877],[-75.87828,5.06877],[-75.87828,5.06877],[-75.87828,5.06877],[-75.87829,5.06876],[-75.8783,5.06875],[-75.87831,5.06874],[-75.87831,5.06874],[-75.87832,5.06873],[-75.87832,5.06873],[-75.87834,5.06871],[-75.87834,5.06871],[-75.87836,5.06869],[-75.87836,5.06867],[-75.87837,5.06865],[-75.87838,5.06863],[-75.87838,5.06863],[-75.87838,5.06861],[-75.87838,5.06858],[-75.87838,5.06856],[-75.87837,5.06853],[-75.87836,5.0685],[-75.87836,5.06848],[-75.87834,5.06842],[-75.87827,5.06823],[-75.87825,5.06817],[-75.87824,5.06812],[-75.87824,5.06811],[-75.87823,5.06809],[-75.87822,5.06808],[-75.87818,5.06805],[-75.87816,5.06803],[-75.87814,5.06801],[-75.8781,5.06798],[-75.87809,5.06796],[-75.87805,5.06793],[-75.87805,5.06792],[-75.878,5.06787],[-75.878,5.06786],[-75.878,5.06785],[-75.87798,5.06778],[-75.87798,5.06777],[-75.87798,5.06775],[-75.87796,5.0677],[-75.87796,5.06769],[-75.87796,5.06769],[-75.87793,5.06765],[-75.87792,5.06763],[-75.87792,5.06763],[-75.87791,5.06762],[-75.87789,5.06765],[-75.87787,5.06768],[-75.87786,5.06769],[-75.87786,5.06771],[-75.87785,5.06773],[-75.87785,5.06773],[-75.87785,5.06775],[-75.87785,5.06775],[-75.87785,5.06778],[-75.87785,5.0678],[-75.87785,5.06783],[-75.87785,5.06792],[-75.87784,5.06801],[-75.87784,5.06809],[-75.87784,5.06816],[-75.87784,5.06823],[-75.87786,5.0684],[-75.87788,5.06852],[-75.87789,5.0686],[-75.8779,5.06863],[-75.87791,5.06868],[-75.87792,5.06872],[-75.87794,5.06876],[-75.87795,5.06878],[-75.87795,5.06879],[-75.87797,5.06881],[-75.87798,5.06884],[-75.878,5.06885],[-75.87801,5.06886],[-75.87802,5.06886],[-75.87802,5.06886]]],[[[-75.87651,5.06816],[-75.87651,5.06816],[-75.87653,5.06816],[-75.87655,5.06816],[-75.87656,5.06815],[-75.87656,5.06814],[-75.87657,5.06812],[-75.87656,5.06811],[-75.87656,5.06808],[-75.87655,5.06806],[-75.87654,5.06803],[-75.87653,5.068],[-75.87652,5.06798],[-75.87651,5.06796],[-75.87649,5.06794],[-75.87647,5.06793],[-75.87646,5.06792],[-75.87646,5.06792],[-75.87646,5.06792],[-75.87645,5.06791],[-75.87643,5.06791],[-75.87636,5.06796],[-75.8763,5.06801],[-75.87629,5.06802],[-75.8763,5.06803],[-75.8763,5.06803],[-75.87631,5.06803],[-75.87632,5.06805],[-75.87634,5.06806],[-75.87638,5.06809],[-75.87645,5.06816],[-75.87645,5.06816],[-75.87646,5.06816],[-75.87647,5.06816],[-75.87651,5.06816]]],[[[-75.87702,5.06801],[-75.87702,5.06803],[-75.87702,5.06804],[-75.87727,5.06792],[-75.87746,5.068],[-75.87747,5.068],[-75.87749,5.068],[-75.87749,5.068],[-75.87748,5.06799],[-75.87746,5.06797],[-75.87744,5.06796],[-75.87744,5.06795],[-75.87742,5.06794],[-75.8774,5.06793],[-75.87737,5.06792],[-75.87733,5.0679],[-75.87731,5.0679],[-75.87729,5.06789],[-75.87725,5.06788],[-75.8772,5.06788],[-75.87715,5.06788],[-75.87713,5.06788],[-75.87711,5.06788],[-75.8771,5.06789],[-75.87708,5.0679],[-75.87707,5.0679],[-75.87706,5.06791],[-75.87705,5.06793],[-75.87704,5.06794],[-75.87703,5.06798],[-75.87702,5.06801]]],[[[-75.87717,5.06744],[-75.87719,5.06745],[-75.87722,5.06746],[-75.87725,5.06746],[-75.87729,5.06747],[-75.87731,5.06747],[-75.87733,5.06747],[-75.87734,5.06747],[-75.87738,5.06746],[-75.87738,5.06745],[-75.87739,5.06744],[-75.87739,5.06743],[-75.87739,5.06742],[-75.87739,5.0674],[-75.87739,5.06739],[-75.87739,5.06737],[-75.87738,5.06736],[-75.87736,5.06734],[-75.87731,5.06728],[-75.87729,5.06726],[-75.87729,5.06725],[-75.87726,5.0672],[-75.87725,5.06714],[-75.87723,5.06708],[-75.87721,5.06696],[-75.8772,5.06691],[-75.87718,5.06685],[-75.87716,5.06681],[-75.87714,5.06675],[-75.87711,5.06669],[-75.87708,5.06664],[-75.87705,5.06659],[-75.87699,5.0665],[-75.87695,5.06644],[-75.87693,5.06642],[-75.87692,5.0664],[-75.8769,5.06638],[-75.87688,5.06636],[-75.87685,5.06635],[-75.87683,5.06634],[-75.87672,5.0663],[-75.87667,5.06628],[-75.87665,5.06626],[-75.87657,5.06623],[-75.87654,5.06621],[-75.87652,5.0662],[-75.87651,5.06618],[-75.87651,5.06617],[-75.87651,5.06616],[-75.87652,5.06612],[-75.87652,5.0661],[-75.87651,5.06607],[-75.8765,5.06604],[-75.87646,5.06596],[-75.87645,5.06594],[-75.87644,5.06592],[-75.87644,5.06587],[-75.87644,5.06582],[-75.87644,5.06578],[-75.87644,5.06576],[-75.87645,5.06574],[-75.87645,5.06573],[-75.87647,5.06571],[-75.87649,5.0657],[-75.87651,5.06569],[-75.87654,5.06568],[-75.87657,5.06568],[-75.87661,5.06568],[-75.87664,5.06568],[-75.8767,5.06569],[-75.87649,5.0652],[-75.8764,5.065],[-75.87629,5.06468],[-75.87623,5.0645],[-75.87612,5.06419],[-75.87611,5.06418],[-75.87603,5.0639],[-75.87584,5.06372],[-75.87573,5.06362],[-75.87551,5.06356],[-75.87543,5.06349],[-75.87546,5.06341],[-75.87553,5.06319],[-75.8757,5.0627],[-75.87578,5.06248],[-75.87582,5.06233],[-75.87587,5.0622],[-75.87582,5.06218],[-75.87581,5.06216],[-75.87582,5.06213],[-75.87582,5.06212],[-75.87583,5.06197],[-75.87583,5.06197],[-75.87592,5.062],[-75.87591,5.06197],[-75.8759,5.0619],[-75.87588,5.06183],[-75.87586,5.0617],[-75.87586,5.06169],[-75.87578,5.0617],[-75.87576,5.06167],[-75.87575,5.06164],[-75.87574,5.06162],[-75.87574,5.06161],[-75.87573,5.06158],[-75.87572,5.06155],[-75.87571,5.06151],[-75.87571,5.06151],[-75.87568,5.06148],[-75.87564,5.06143],[-75.87561,5.06138],[-75.87558,5.06132],[-75.87556,5.06129],[-75.87554,5.06128],[-75.87549,5.06127],[-75.87548,5.06126],[-75.87546,5.06125],[-75.87544,5.06123],[-75.87543,5.06122],[-75.87543,5.06121],[-75.8756,5.06118],[-75.87562,5.06118],[-75.87557,5.0611],[-75.87548,5.06104],[-75.87539,5.06099],[-75.87537,5.06098],[-75.87515,5.06083],[-75.87514,5.06083],[-75.8751,5.06082],[-75.87502,5.0608],[-75.87505,5.06063],[-75.87506,5.06059],[-75.87504,5.06058],[-75.87493,5.06055],[-75.87495,5.06047],[-75.87476,5.06042],[-75.87472,5.06052],[-75.87441,5.06044],[-75.87447,5.06023],[-75.87473,5.0591],[-75.87472,5.05907],[-75.87456,5.05897],[-75.87452,5.05895],[-75.87426,5.0588],[-75.87428,5.05875],[-75.87432,5.0586],[-75.87432,5.05857],[-75.87432,5.05854],[-75.8743,5.05839],[-75.87409,5.05833],[-75.87411,5.05824],[-75.87411,5.05821],[-75.87412,5.05816],[-75.87412,5.05815],[-75.87413,5.058],[-75.8741,5.05783],[-75.87408,5.05767],[-75.87406,5.05748],[-75.87405,5.05744],[-75.874,5.05742],[-75.874,5.05745],[-75.874,5.05755],[-75.874,5.05758],[-75.87403,5.05774],[-75.87405,5.05788],[-75.87405,5.05791],[-75.87407,5.05805],[-75.87382,5.05801],[-75.87378,5.05817],[-75.87374,5.05829],[-75.87352,5.05824],[-75.87348,5.05835],[-75.87334,5.05833],[-75.87329,5.05851],[-75.87309,5.05847],[-75.87311,5.0584],[-75.87291,5.05834],[-75.87288,5.05842],[-75.87261,5.05836],[-75.87265,5.05822],[-75.87261,5.05818],[-75.87255,5.05815],[-75.87243,5.05812],[-75.87234,5.058],[-75.87218,5.05795],[-75.87198,5.05778],[-75.87173,5.05744],[-75.87156,5.05726],[-75.87158,5.05723],[-75.87167,5.05717],[-75.87152,5.05692],[-75.8714,5.05692],[-75.87138,5.05702],[-75.87114,5.05734],[-75.87089,5.0579],[-75.8712,5.05802],[-75.8712,5.05796],[-75.8712,5.05786],[-75.87121,5.05774],[-75.87122,5.05764],[-75.87124,5.0575],[-75.87126,5.05744],[-75.87126,5.05741],[-75.87128,5.05738],[-75.87129,5.05736],[-75.8713,5.05734],[-75.87133,5.05731],[-75.87135,5.05729],[-75.87137,5.05728],[-75.87139,5.05727],[-75.87141,5.05726],[-75.87143,5.05725],[-75.87145,5.05725],[-75.87147,5.05725],[-75.87149,5.05726],[-75.87151,5.05726],[-75.87153,5.05727],[-75.87154,5.05728],[-75.87155,5.05729],[-75.87157,5.0573],[-75.87159,5.05733],[-75.87164,5.05739],[-75.87166,5.05743],[-75.87169,5.05747],[-75.87171,5.0575],[-75.87172,5.05752],[-75.87173,5.05754],[-75.87177,5.05764],[-75.87179,5.05767],[-75.87181,5.05772],[-75.87183,5.05776],[-75.87186,5.05779],[-75.8719,5.05785],[-75.8719,5.05785],[-75.87193,5.05788],[-75.87196,5.05791],[-75.87201,5.05796],[-75.87202,5.05797],[-75.87204,5.05799],[-75.87206,5.05801],[-75.87207,5.05802],[-75.8721,5.05804],[-75.87211,5.05805],[-75.87215,5.05808],[-75.8722,5.0581],[-75.8722,5.0581],[-75.8722,5.0581],[-75.8723,5.05815],[-75.87232,5.05816],[-75.87234,5.05817],[-75.87236,5.05819],[-75.87238,5.05821],[-75.87241,5.05824],[-75.87247,5.05832],[-75.87249,5.05834],[-75.87251,5.05836],[-75.87257,5.0584],[-75.87263,5.05843],[-75.87268,5.05846],[-75.87274,5.05848],[-75.87281,5.0585],[-75.87282,5.0585],[-75.8729,5.05852],[-75.87295,5.05854],[-75.873,5.05854],[-75.87305,5.05855],[-75.8731,5.05856],[-75.87315,5.05856],[-75.8732,5.05856],[-75.87324,5.05856],[-75.87329,5.05855],[-75.87335,5.05855],[-75.87338,5.05854],[-75.8734,5.05853],[-75.87342,5.05852],[-75.87344,5.05851],[-75.87349,5.05848],[-75.87351,5.05847],[-75.87353,5.05845],[-75.87355,5.05845],[-75.87358,5.05844],[-75.87361,5.05843],[-75.87362,5.05843],[-75.87363,5.05843],[-75.87363,5.05843],[-75.87366,5.05843],[-75.87369,5.05843],[-75.87373,5.05844],[-75.87374,5.05844],[-75.87374,5.05844],[-75.87376,5.05844],[-75.87377,5.05844],[-75.87378,5.05845],[-75.8738,5.05845],[-75.8738,5.05845],[-75.87381,5.05846],[-75.87383,5.05847],[-75.87385,5.05848],[-75.87387,5.0585],[-75.87388,5.05852],[-75.87391,5.05856],[-75.87394,5.0586],[-75.87396,5.05865],[-75.87398,5.0587],[-75.87401,5.05881],[-75.87403,5.05886],[-75.87406,5.05893],[-75.8741,5.059],[-75.87422,5.05923],[-75.87426,5.0593],[-75.87426,5.05931],[-75.8743,5.05938],[-75.87433,5.05945],[-75.87436,5.05953],[-75.87438,5.05959],[-75.8744,5.05963],[-75.87441,5.05967],[-75.87442,5.05973],[-75.87443,5.05977],[-75.87443,5.05982],[-75.87443,5.05989],[-75.87442,5.05995],[-75.8744,5.06004],[-75.87439,5.0601],[-75.87438,5.06016],[-75.8743,5.0604],[-75.87428,5.0605],[-75.87425,5.0606],[-75.87424,5.0607],[-75.87422,5.06079],[-75.87422,5.06079],[-75.87421,5.06087],[-75.8742,5.06096],[-75.87419,5.06105],[-75.87418,5.06114],[-75.87418,5.06122],[-75.87417,5.06133],[-75.87417,5.06143],[-75.87418,5.06154],[-75.87419,5.06164],[-75.87419,5.06174],[-75.8742,5.06178],[-75.8742,5.06181],[-75.87421,5.06183],[-75.87421,5.06185],[-75.87421,5.06187],[-75.87422,5.06193],[-75.87424,5.06202],[-75.87427,5.0621],[-75.87428,5.06213],[-75.87428,5.06213],[-75.87429,5.06217],[-75.87438,5.06233],[-75.8744,5.06237],[-75.87441,5.06241],[-75.87442,5.06245],[-75.87443,5.06248],[-75.87446,5.06267],[-75.87447,5.06271],[-75.87448,5.06275],[-75.87449,5.06279],[-75.87452,5.06284],[-75.87454,5.06289],[-75.87455,5.0629],[-75.87461,5.06299],[-75.87464,5.06304],[-75.87466,5.06309],[-75.87467,5.06314],[-75.87469,5.0632],[-75.8747,5.06325],[-75.8747,5.06332],[-75.8747,5.06334],[-75.8747,5.06337],[-75.87469,5.06342],[-75.87467,5.06347],[-75.87466,5.06349],[-75.87466,5.0635],[-75.87465,5.06351],[-75.87465,5.06352],[-75.87465,5.06352],[-75.87463,5.06354],[-75.87462,5.06356],[-75.8746,5.06358],[-75.87458,5.0636],[-75.87457,5.06361],[-75.87453,5.06364],[-75.87449,5.06367],[-75.87441,5.06371],[-75.87439,5.06373],[-75.87437,5.06374],[-75.87435,5.06377],[-75.87434,5.06377],[-75.87432,5.06379],[-75.87432,5.0638],[-75.87431,5.06381],[-75.87429,5.06384],[-75.87426,5.06388],[-75.87423,5.06393],[-75.87423,5.06394],[-75.87421,5.06399],[-75.87419,5.06404],[-75.87418,5.0641],[-75.87416,5.06416],[-75.87416,5.06422],[-75.87415,5.06428],[-75.87415,5.06435],[-75.87416,5.06439],[-75.87416,5.06444],[-75.87417,5.06449],[-75.87418,5.06454],[-75.87421,5.06468],[-75.87422,5.06472],[-75.87423,5.06475],[-75.87425,5.06479],[-75.87426,5.06482],[-75.87428,5.06484],[-75.8743,5.06487],[-75.87434,5.0649],[-75.87436,5.06492],[-75.87437,5.06492],[-75.87439,5.06493],[-75.87442,5.06492],[-75.87446,5.06492],[-75.87447,5.06493],[-75.87449,5.06493],[-75.87451,5.06494],[-75.87453,5.06496],[-75.87455,5.06497],[-75.87456,5.06498],[-75.87459,5.06502],[-75.87462,5.06506],[-75.87463,5.06508],[-75.87464,5.06509],[-75.87464,5.06512],[-75.87465,5.06515],[-75.87465,5.06517],[-75.87465,5.06519],[-75.87464,5.0652],[-75.87463,5.06522],[-75.87462,5.06523],[-75.87461,5.06525],[-75.8746,5.06526],[-75.87458,5.06527],[-75.87455,5.06529],[-75.87452,5.06529],[-75.87449,5.06529],[-75.87446,5.06529],[-75.87438,5.06528],[-75.8743,5.06526],[-75.87422,5.06525],[-75.87415,5.06523],[-75.87403,5.06518],[-75.87398,5.06516],[-75.8739,5.06514],[-75.87374,5.06511],[-75.87367,5.06509],[-75.87362,5.06507],[-75.8735,5.06502],[-75.87344,5.06501],[-75.87339,5.065],[-75.87327,5.06498],[-75.87324,5.06498],[-75.87321,5.06497],[-75.87318,5.06496],[-75.87317,5.06495],[-75.87313,5.06494],[-75.8731,5.06493],[-75.87308,5.06491],[-75.87305,5.06489],[-75.87303,5.06487],[-75.87301,5.06485],[-75.87299,5.06483],[-75.87298,5.06481],[-75.87297,5.0648],[-75.87296,5.06478],[-75.87296,5.06476],[-75.87295,5.06472],[-75.87293,5.06461],[-75.87293,5.06458],[-75.87292,5.06455],[-75.8729,5.06451],[-75.87287,5.06447],[-75.87278,5.06435],[-75.87275,5.0643],[-75.87267,5.06417],[-75.8726,5.06403],[-75.87258,5.06398],[-75.87252,5.06384],[-75.87249,5.06378],[-75.87245,5.06372],[-75.87244,5.0637],[-75.87243,5.06368],[-75.87241,5.06366],[-75.87239,5.06364],[-75.87239,5.06364],[-75.87238,5.06364],[-75.87236,5.06362],[-75.87235,5.06362],[-75.87232,5.06361],[-75.87231,5.06361],[-75.87229,5.06361],[-75.87227,5.06362],[-75.87222,5.06364],[-75.8722,5.06365],[-75.87218,5.06365],[-75.87214,5.06365],[-75.87208,5.06364],[-75.872,5.06362],[-75.87194,5.06361],[-75.8719,5.0636],[-75.87186,5.06358],[-75.87182,5.06355],[-75.87181,5.06354],[-75.8718,5.06353],[-75.87179,5.06351],[-75.87178,5.06348],[-75.87178,5.06346],[-75.87177,5.06342],[-75.87177,5.06332],[-75.87177,5.0632],[-75.87178,5.0631],[-75.87179,5.063],[-75.8718,5.06291],[-75.87182,5.06284],[-75.87184,5.06277],[-75.87186,5.06273],[-75.87188,5.06269],[-75.8719,5.06264],[-75.87196,5.06256],[-75.87197,5.06255],[-75.87199,5.0625],[-75.87202,5.06245],[-75.87203,5.06241],[-75.87205,5.06236],[-75.87205,5.06235],[-75.87207,5.06229],[-75.87208,5.06224],[-75.87209,5.06218],[-75.87209,5.06213],[-75.8721,5.06209],[-75.8721,5.06209],[-75.8721,5.06205],[-75.8721,5.06205],[-75.87209,5.06201],[-75.87209,5.06198],[-75.87208,5.06195],[-75.87206,5.06189],[-75.87204,5.06185],[-75.87202,5.0618],[-75.87199,5.06176],[-75.87196,5.06171],[-75.87193,5.06168],[-75.8719,5.06165],[-75.87179,5.06154],[-75.87174,5.0615],[-75.8717,5.06145],[-75.87161,5.06133],[-75.87156,5.06127],[-75.87154,5.06125],[-75.87146,5.06118],[-75.87144,5.06116],[-75.87142,5.06114],[-75.87141,5.06111],[-75.87141,5.06111],[-75.8714,5.06109],[-75.87139,5.06109],[-75.87139,5.06108],[-75.87139,5.06106],[-75.87138,5.06106],[-75.87138,5.06102],[-75.87137,5.06099],[-75.87137,5.06096],[-75.87137,5.06093],[-75.87137,5.0609],[-75.87137,5.06087],[-75.87138,5.06085],[-75.87139,5.06082],[-75.8714,5.0608],[-75.87141,5.06078],[-75.87143,5.06076],[-75.87145,5.06075],[-75.87149,5.06072],[-75.8715,5.0607],[-75.87151,5.0607],[-75.87153,5.06068],[-75.87155,5.06064],[-75.87159,5.06058],[-75.87165,5.06048],[-75.8717,5.06039],[-75.87173,5.06034],[-75.87174,5.06029],[-75.87176,5.06025],[-75.87178,5.0602],[-75.8718,5.06011],[-75.87181,5.06008],[-75.87181,5.06007],[-75.87181,5.06004],[-75.87181,5.06001],[-75.87181,5.05998],[-75.8718,5.05984],[-75.8718,5.05984],[-75.87179,5.05979],[-75.87179,5.05971],[-75.8718,5.05968],[-75.8718,5.05966],[-75.87181,5.05963],[-75.87181,5.05962],[-75.87181,5.05961],[-75.87182,5.0596],[-75.87183,5.05959],[-75.87184,5.05958],[-75.87187,5.05957],[-75.87188,5.05956],[-75.8719,5.05956],[-75.87193,5.05956],[-75.87196,5.05957],[-75.87202,5.05958],[-75.87204,5.05959],[-75.87206,5.05959],[-75.87208,5.05959],[-75.87211,5.05959],[-75.87212,5.05959],[-75.87213,5.05959],[-75.87213,5.05959],[-75.87215,5.05958],[-75.87216,5.05956],[-75.87216,5.05954],[-75.87216,5.05953],[-75.87216,5.05951],[-75.87216,5.05947],[-75.87215,5.05944],[-75.87215,5.0594],[-75.87214,5.05938],[-75.87214,5.05938],[-75.87214,5.05937],[-75.87212,5.05934],[-75.8721,5.0593],[-75.87207,5.05926],[-75.87204,5.05922],[-75.872,5.05919],[-75.87197,5.05917],[-75.87197,5.05917],[-75.87196,5.05917],[-75.87191,5.05915],[-75.87187,5.05913],[-75.87183,5.05911],[-75.87178,5.0591],[-75.87173,5.05909],[-75.87167,5.05908],[-75.87167,5.05908],[-75.87161,5.05908],[-75.87158,5.05908],[-75.87155,5.05909],[-75.87143,5.05911],[-75.87138,5.05912],[-75.87133,5.05912],[-75.87128,5.05912],[-75.87125,5.05912],[-75.87122,5.05912],[-75.87118,5.05911],[-75.87117,5.05911],[-75.87117,5.05911],[-75.87115,5.0591],[-75.87114,5.05909],[-75.87113,5.05909],[-75.87113,5.05908],[-75.87111,5.05904],[-75.8711,5.05901],[-75.87109,5.05898],[-75.87109,5.05895],[-75.87108,5.05892],[-75.87108,5.05889],[-75.87108,5.05886],[-75.87108,5.0588],[-75.87109,5.05874],[-75.87111,5.05867],[-75.87116,5.05845],[-75.87118,5.05838],[-75.87119,5.05831],[-75.87119,5.0583],[-75.8712,5.05823],[-75.87111,5.05842],[-75.87093,5.05877],[-75.87078,5.05917],[-75.87073,5.05929],[-75.87083,5.05935],[-75.87085,5.05935],[-75.87104,5.05938],[-75.87097,5.05963],[-75.87096,5.05965],[-75.8702,5.05948],[-75.87021,5.0595],[-75.87022,5.05955],[-75.87024,5.05965],[-75.87024,5.05974],[-75.87025,5.05989],[-75.87025,5.05995],[-75.87026,5.06001],[-75.87027,5.06007],[-75.87029,5.06012],[-75.87031,5.06018],[-75.87034,5.06024],[-75.8704,5.06036],[-75.87043,5.06042],[-75.87045,5.06047],[-75.87047,5.06053],[-75.87049,5.06059],[-75.8705,5.06067],[-75.8705,5.06074],[-75.87051,5.0609],[-75.87052,5.06098],[-75.87053,5.06104],[-75.87054,5.0611],[-75.87056,5.06117],[-75.87059,5.06124],[-75.87061,5.06129],[-75.87063,5.06134],[-75.8707,5.06147],[-75.87074,5.06154],[-75.87078,5.06162],[-75.87083,5.0617],[-75.87088,5.06179],[-75.87091,5.06183],[-75.87099,5.06193],[-75.87101,5.06197],[-75.87102,5.062],[-75.87104,5.06205],[-75.87106,5.06208],[-75.87106,5.06211],[-75.87107,5.06215],[-75.87107,5.06219],[-75.87106,5.06225],[-75.87106,5.06227],[-75.87107,5.06228],[-75.87107,5.06228],[-75.87107,5.06229],[-75.87108,5.0623],[-75.87107,5.06231],[-75.87106,5.06236],[-75.87105,5.06237],[-75.87105,5.06237],[-75.87104,5.06238],[-75.87103,5.06245],[-75.87098,5.06261],[-75.87097,5.06266],[-75.87096,5.0627],[-75.87095,5.0628],[-75.87094,5.06281],[-75.87096,5.06291],[-75.87097,5.06301],[-75.87099,5.06308],[-75.871,5.06312],[-75.87102,5.06319],[-75.87104,5.06328],[-75.87107,5.06335],[-75.87107,5.06336],[-75.8711,5.06343],[-75.87114,5.06349],[-75.87115,5.06351],[-75.87115,5.06351],[-75.87115,5.06351],[-75.87118,5.06356],[-75.87121,5.06361],[-75.87124,5.06363],[-75.87134,5.06374],[-75.87136,5.06377],[-75.87137,5.06378],[-75.87138,5.06379],[-75.87141,5.06384],[-75.87144,5.0639],[-75.87146,5.06396],[-75.87148,5.06402],[-75.87149,5.06407],[-75.8715,5.06408],[-75.8715,5.06411],[-75.87151,5.06415],[-75.87152,5.06424],[-75.87152,5.06424],[-75.87153,5.06435],[-75.87153,5.06443],[-75.87153,5.06444],[-75.87153,5.06445],[-75.87153,5.06454],[-75.87153,5.06458],[-75.87152,5.06464],[-75.87151,5.06467],[-75.87151,5.0647],[-75.87151,5.06474],[-75.87151,5.06477],[-75.87151,5.0648],[-75.87152,5.0648],[-75.87152,5.06482],[-75.87153,5.06484],[-75.87155,5.06487],[-75.87155,5.06487],[-75.87155,5.06487],[-75.87156,5.06488],[-75.87161,5.06492],[-75.87167,5.06495],[-75.87172,5.06498],[-75.87178,5.06501],[-75.87183,5.06504],[-75.87189,5.06506],[-75.87194,5.06508],[-75.87197,5.06509],[-75.87199,5.0651],[-75.87202,5.0651],[-75.87205,5.0651],[-75.87211,5.0651],[-75.87218,5.0651],[-75.87224,5.06508],[-75.87231,5.06507],[-75.87242,5.06504],[-75.87239,5.06519],[-75.87242,5.0652],[-75.87247,5.06502],[-75.87256,5.0647],[-75.87283,5.06478],[-75.87278,5.06493],[-75.87277,5.06496],[-75.87281,5.06496],[-75.87284,5.06496],[-75.87287,5.06496],[-75.8729,5.06497],[-75.87293,5.06498],[-75.87296,5.06498],[-75.87298,5.065],[-75.87301,5.06501],[-75.87305,5.06504],[-75.87309,5.06507],[-75.87314,5.0651],[-75.87317,5.06514],[-75.8732,5.06516],[-75.87325,5.06513],[-75.87346,5.06514],[-75.87335,5.06557],[-75.87334,5.0656],[-75.87335,5.06561],[-75.87341,5.06564],[-75.87351,5.06569],[-75.87352,5.06569],[-75.87352,5.0657],[-75.87356,5.06572],[-75.87357,5.06572],[-75.8736,5.06574],[-75.87361,5.06574],[-75.87361,5.06574],[-75.8736,5.06576],[-75.8736,5.06577],[-75.87358,5.06584],[-75.87358,5.06584],[-75.87419,5.06607],[-75.87419,5.06607],[-75.87418,5.06611],[-75.87415,5.06626],[-75.87415,5.06626],[-75.87416,5.06626],[-75.87417,5.06626],[-75.87433,5.06624],[-75.87439,5.06623],[-75.87444,5.06623],[-75.87447,5.06623],[-75.87452,5.06624],[-75.87457,5.06625],[-75.87462,5.06627],[-75.87466,5.06629],[-75.87471,5.06631],[-75.87472,5.06632],[-75.87473,5.06633],[-75.87474,5.06633],[-75.87475,5.06634],[-75.87477,5.06635],[-75.87478,5.06632],[-75.8748,5.06619],[-75.87485,5.06596],[-75.87492,5.06598],[-75.87522,5.06606],[-75.87514,5.06629],[-75.8752,5.06639],[-75.87526,5.06649],[-75.87527,5.06651],[-75.87527,5.06652],[-75.87528,5.06654],[-75.87529,5.06654],[-75.87529,5.06654],[-75.87529,5.06654],[-75.87532,5.06654],[-75.87539,5.06653],[-75.87546,5.06651],[-75.87552,5.0665],[-75.87557,5.06648],[-75.87562,5.06646],[-75.8757,5.06643],[-75.87573,5.06641],[-75.87576,5.06639],[-75.87578,5.06637],[-75.87584,5.06631],[-75.87587,5.06629],[-75.8759,5.06627],[-75.87593,5.06626],[-75.87595,5.06625],[-75.87597,5.06625],[-75.87601,5.06625],[-75.87605,5.06625],[-75.87613,5.06626],[-75.87617,5.06627],[-75.87626,5.06631],[-75.87629,5.06631],[-75.87631,5.06631],[-75.87634,5.06631],[-75.87636,5.06631],[-75.87637,5.0663],[-75.87639,5.06629],[-75.8764,5.06629],[-75.87641,5.06629],[-75.87641,5.0663],[-75.87642,5.06635],[-75.87643,5.06637],[-75.87645,5.0664],[-75.87649,5.06645],[-75.87652,5.06649],[-75.87656,5.06653],[-75.87661,5.06657],[-75.87674,5.06666],[-75.87677,5.0667],[-75.8768,5.06673],[-75.87687,5.0668],[-75.87692,5.06685],[-75.87695,5.0669],[-75.87698,5.06695],[-75.87701,5.067],[-75.87704,5.06705],[-75.87705,5.06709],[-75.87707,5.06713],[-75.87707,5.06715],[-75.87707,5.06718],[-75.87706,5.06728],[-75.87707,5.06731],[-75.87707,5.06731],[-75.87707,5.06733],[-75.87707,5.06734],[-75.87708,5.06737],[-75.87709,5.06738],[-75.87709,5.06739],[-75.87711,5.06741],[-75.87714,5.06742],[-75.87717,5.06744],[-75.87717,5.06744]],[[-75.87514,5.06425],[-75.87525,5.06392],[-75.87534,5.06395],[-75.87534,5.06396],[-75.87534,5.06398],[-75.87539,5.06399],[-75.87544,5.06401],[-75.87549,5.06402],[-75.87554,5.06404],[-75.87555,5.06404],[-75.8756,5.06405],[-75.87554,5.06424],[-75.87568,5.0643],[-75.8756,5.06466],[-75.87538,5.06459],[-75.87546,5.06443],[-75.87522,5.06428],[-75.87514,5.06425]],[[-75.87143,5.06323],[-75.87161,5.06328],[-75.87158,5.06339],[-75.87144,5.06335],[-75.87117,5.06327],[-75.87132,5.06274],[-75.87144,5.06277],[-75.87142,5.06291],[-75.87142,5.06291],[-75.8715,5.06294],[-75.87146,5.06314],[-75.87142,5.06313],[-75.87142,5.06313],[-75.8714,5.06322],[-75.87143,5.06323]]],[[[-75.87677,5.06571],[-75.8768,5.06571],[-75.87684,5.06573],[-75.87689,5.06575],[-75.87693,5.06577],[-75.87696,5.06579],[-75.87699,5.06581],[-75.87701,5.06583],[-75.87703,5.06585],[-75.87706,5.06591],[-75.87708,5.06594],[-75.87709,5.06598],[-75.87714,5.06612],[-75.87716,5.06618],[-75.87718,5.06623],[-75.87721,5.06628],[-75.87731,5.06644],[-75.87734,5.06649],[-75.87737,5.06655],[-75.87739,5.0666],[-75.8774,5.06663],[-75.87741,5.06668],[-75.87744,5.06682],[-75.87746,5.06687],[-75.87747,5.06691],[-75.87749,5.06696],[-75.87752,5.06702],[-75.87753,5.06703],[-75.87758,5.06699],[-75.8776,5.06698],[-75.87757,5.06683],[-75.87756,5.06678],[-75.8775,5.06649],[-75.87746,5.06638],[-75.87736,5.06622],[-75.87734,5.06619],[-75.87718,5.06591],[-75.87712,5.06578],[-75.87702,5.06561],[-75.87677,5.06571]]],[[[-75.86959,5.06624],[-75.8696,5.06626],[-75.86961,5.06627],[-75.86961,5.06628],[-75.86963,5.06634],[-75.86964,5.06637],[-75.86984,5.06617],[-75.86986,5.06615],[-75.86986,5.06614],[-75.86982,5.0661],[-75.8699,5.06601],[-75.86999,5.06608],[-75.86999,5.06608],[-75.86999,5.06607],[-75.87001,5.06605],[-75.87003,5.06603],[-75.87004,5.06602],[-75.87007,5.06601],[-75.87009,5.066],[-75.87012,5.066],[-75.87015,5.066],[-75.87018,5.066],[-75.87029,5.066],[-75.87033,5.06601],[-75.87033,5.06601],[-75.87037,5.06602],[-75.87041,5.06603],[-75.87054,5.06592],[-75.87045,5.06581],[-75.87039,5.06575],[-75.87038,5.06575],[-75.87037,5.06576],[-75.87034,5.06578],[-75.87031,5.0658],[-75.87027,5.06583],[-75.87023,5.06585],[-75.87019,5.06586],[-75.87016,5.06587],[-75.87015,5.06587],[-75.87011,5.06588],[-75.87008,5.06588],[-75.87005,5.06588],[-75.87002,5.06587],[-75.87,5.06586],[-75.86999,5.06585],[-75.86993,5.06579],[-75.86992,5.06577],[-75.8699,5.06576],[-75.86988,5.06575],[-75.86987,5.06575],[-75.86985,5.06576],[-75.86983,5.06576],[-75.86981,5.06577],[-75.86979,5.06579],[-75.86976,5.06581],[-75.86971,5.06585],[-75.86969,5.06588],[-75.86966,5.06591],[-75.86964,5.06594],[-75.86963,5.06598],[-75.86961,5.06603],[-75.8696,5.06607],[-75.86959,5.06611],[-75.86959,5.06616],[-75.86959,5.0662],[-75.86959,5.06624],[-75.86959,5.06624]]],[[[-75.87083,5.06566],[-75.87083,5.06567],[-75.87087,5.06566],[-75.8709,5.06564],[-75.87091,5.06563],[-75.87094,5.06562],[-75.87086,5.06544],[-75.87087,5.06544],[-75.87089,5.06543],[-75.87085,5.06535],[-75.87084,5.06535],[-75.87076,5.0654],[-75.87076,5.0654],[-75.87067,5.06536],[-75.87063,5.06528],[-75.87067,5.06525],[-75.87067,5.06525],[-75.87068,5.06525],[-75.87059,5.06509],[-75.87059,5.06508],[-75.87054,5.065],[-75.87053,5.06502],[-75.87051,5.06504],[-75.87049,5.06508],[-75.87048,5.0651],[-75.87047,5.06512],[-75.87047,5.06515],[-75.87046,5.06518],[-75.87047,5.06519],[-75.87047,5.06523],[-75.87048,5.06534],[-75.87049,5.06539],[-75.87049,5.06539],[-75.87049,5.06542],[-75.87049,5.06543],[-75.87051,5.06544],[-75.87074,5.06549],[-75.87083,5.06566]]],[[[-75.87123,5.06495],[-75.87124,5.06498],[-75.87188,5.0652],[-75.87194,5.06522],[-75.87198,5.06524],[-75.87198,5.06523],[-75.872,5.06522],[-75.87201,5.06521],[-75.87201,5.06521],[-75.87193,5.06521],[-75.87159,5.06508],[-75.87159,5.06508],[-75.87128,5.06497],[-75.87123,5.06495]]],[[[-75.86534,5.065],[-75.86534,5.06502],[-75.86543,5.06479],[-75.8654,5.0648],[-75.8654,5.06481],[-75.86538,5.06487],[-75.86536,5.06494],[-75.86534,5.065]]],[[[-75.86578,5.06442],[-75.86574,5.0645],[-75.86573,5.06452],[-75.86564,5.06473],[-75.86564,5.06475],[-75.86544,5.06479],[-75.86553,5.06479],[-75.86561,5.06477],[-75.86568,5.06473],[-75.86578,5.06442]]],[[[-75.87827,5.06306],[-75.87828,5.06307],[-75.8783,5.06311],[-75.87835,5.06295],[-75.87835,5.06292],[-75.87834,5.06289],[-75.87833,5.06287],[-75.87833,5.06287],[-75.87832,5.06285],[-75.8783,5.06282],[-75.87822,5.06275],[-75.87819,5.06273],[-75.87817,5.0627],[-75.87814,5.06267],[-75.87807,5.06255],[-75.87803,5.0625],[-75.878,5.06246],[-75.87798,5.06244],[-75.87796,5.06242],[-75.87794,5.06241],[-75.87791,5.06239],[-75.87779,5.06234],[-75.87776,5.06232],[-75.87773,5.06231],[-75.87769,5.06228],[-75.87762,5.06222],[-75.87759,5.06219],[-75.8775,5.06213],[-75.87744,5.06209],[-75.87738,5.06205],[-75.87732,5.06202],[-75.87724,5.06198],[-75.87719,5.06197],[-75.87714,5.06195],[-75.87712,5.06195],[-75.8771,5.06195],[-75.87708,5.06195],[-75.87706,5.06195],[-75.87701,5.06196],[-75.87698,5.06198],[-75.87695,5.06198],[-75.8769,5.06201],[-75.87689,5.06201],[-75.87689,5.06202],[-75.87688,5.06203],[-75.87689,5.06204],[-75.8769,5.06205],[-75.87691,5.06206],[-75.87695,5.06208],[-75.877,5.0621],[-75.87706,5.06212],[-75.87732,5.06219],[-75.87732,5.06219],[-75.87742,5.06222],[-75.87751,5.06225],[-75.87758,5.06228],[-75.8777,5.06234],[-75.87773,5.06236],[-75.87776,5.06238],[-75.87779,5.0624],[-75.87781,5.06243],[-75.87784,5.06246],[-75.87786,5.0625],[-75.87788,5.06253],[-75.87792,5.06263],[-75.87794,5.06265],[-75.87795,5.06267],[-75.87797,5.06269],[-75.87799,5.06272],[-75.87808,5.0628],[-75.87812,5.06284],[-75.87816,5.06289],[-75.8782,5.06295],[-75.87824,5.06301],[-75.87827,5.06306]]],[[[-75.86775,5.06215],[-75.86773,5.06217],[-75.86772,5.06221],[-75.86773,5.0622],[-75.86774,5.06219],[-75.86774,5.06218],[-75.86775,5.06216],[-75.86775,5.06215]]],[[[-75.86754,5.06207],[-75.86761,5.06209],[-75.86761,5.06209],[-75.86776,5.06214],[-75.86776,5.06213],[-75.86777,5.06203],[-75.86777,5.06203],[-75.86778,5.06201],[-75.86778,5.06199],[-75.86781,5.06193],[-75.86782,5.06192],[-75.86783,5.0619],[-75.86784,5.06188],[-75.86786,5.06187],[-75.86787,5.0618],[-75.86793,5.06172],[-75.86799,5.06167],[-75.86789,5.06173],[-75.86777,5.0618],[-75.86765,5.0621],[-75.86754,5.06207]]],[[[-75.86814,5.06162],[-75.86822,5.06164],[-75.86821,5.06166],[-75.86819,5.06169],[-75.86816,5.06173],[-75.86812,5.06178],[-75.86811,5.06178],[-75.86824,5.06177],[-75.86829,5.06176],[-75.86833,5.06175],[-75.86836,5.06174],[-75.86837,5.06173],[-75.8684,5.06171],[-75.86842,5.0617],[-75.86847,5.06166],[-75.86851,5.06161],[-75.86859,5.06152],[-75.86865,5.06145],[-75.86867,5.06142],[-75.86868,5.0614],[-75.86869,5.06138],[-75.86871,5.06134],[-75.86874,5.06124],[-75.86878,5.06113],[-75.86881,5.06103],[-75.86883,5.06094],[-75.86884,5.06086],[-75.86884,5.06086],[-75.86885,5.0608],[-75.86886,5.06074],[-75.86887,5.06065],[-75.86887,5.06065],[-75.86887,5.0606],[-75.86886,5.06057],[-75.86886,5.06053],[-75.86885,5.06049],[-75.86885,5.06048],[-75.86884,5.06045],[-75.86883,5.06041],[-75.86882,5.06037],[-75.8688,5.06033],[-75.86877,5.06028],[-75.86875,5.06024],[-75.86873,5.0602],[-75.86871,5.06017],[-75.86867,5.06013],[-75.8686,5.06007],[-75.86857,5.06004],[-75.86855,5.06001],[-75.86849,5.05993],[-75.86846,5.0599],[-75.86843,5.05987],[-75.8684,5.05984],[-75.86829,5.05975],[-75.86825,5.05972],[-75.86823,5.0597],[-75.86824,5.05975],[-75.86824,5.05978],[-75.86828,5.05988],[-75.86831,5.05995],[-75.86833,5.05999],[-75.86832,5.06],[-75.86833,5.06001],[-75.86834,5.06001],[-75.86847,5.06009],[-75.86866,5.06027],[-75.86867,5.06037],[-75.86867,5.06039],[-75.86868,5.06054],[-75.86867,5.06064],[-75.86865,5.06074],[-75.86864,5.06077],[-75.86864,5.06078],[-75.86856,5.06113],[-75.86855,5.06119],[-75.86853,5.06128],[-75.86846,5.06154],[-75.86845,5.06158],[-75.86845,5.06161],[-75.86841,5.06164],[-75.86827,5.06163],[-75.86822,5.06162],[-75.86814,5.06162]]],[[[-75.86805,5.05942],[-75.86801,5.05957],[-75.86815,5.05962],[-75.86814,5.05961],[-75.86813,5.0596],[-75.86811,5.05958],[-75.8681,5.05956],[-75.86808,5.05953],[-75.86807,5.05949],[-75.86807,5.05948],[-75.86806,5.05947],[-75.86806,5.05944],[-75.86805,5.05942]]]]},"properties":{"FID":1,"OBJECTID_1":2,"OBJECTID":5,"CONTRATIST":"CORDEAM","Area_ha_1":24.1912116181,"CONDICION":"CONDICIÓN DE RIESGO POR MOVIMIENTO EN MASA_URB","AMENAZA":"MOVIMIENTO EN MASA_URBANO","RuleID":7,"Shape_Leng":10139.1670858,"Shape_Area":241912.116181}},{"type":"Feature","id":2,"geometry":{"type":"MultiPolygon","coordinates":[[[[-75.86808,5.06887],[-75.86816,5.06897],[-75.86817,5.06897],[-75.86831,5.06889],[-75.86838,5.06885],[-75.86838,5.06885],[-75.8684,5.06884],[-75.8684,5.06884],[-75.86841,5.06883],[-75.86845,5.06881],[-75.86845,5.0688],[-75.86847,5.0688],[-75.86851,5.06878],[-75.86891,5.06857],[-75.86887,5.0685],[-75.86885,5.06848],[-75.8685,5.06791],[-75.86786,5.06832],[-75.86781,5.06824],[-75.86778,5.06819],[-75.86747,5.06772],[-75.86746,5.0677],[-75.86741,5.06763],[-75.86794,5.0673],[-75.86822,5.06712],[-75.86857,5.06746],[-75.86862,5.06734],[-75.86863,5.06729],[-75.86876,5.06694],[-75.86877,5.06691],[-75.8688,5.06683],[-75.86881,5.0668],[-75.86872,5.06674],[-75.86873,5.06673],[-75.86899,5.06655],[-75.86916,5.06659],[-75.86923,5.06657],[-75.86926,5.06656],[-75.86966,5.06642],[-75.86966,5.06642],[-75.86966,5.06641],[-75.86965,5.06641],[-75.86965,5.06639],[-75.86964,5.06637],[-75.86963,5.06638],[-75.86963,5.06636],[-75.86961,5.06632],[-75.8696,5.06628],[-75.86959,5.06624],[-75.86958,5.06622],[-75.86958,5.06621],[-75.86958,5.0662],[-75.86955,5.06615],[-75.86953,5.06613],[-75.86953,5.06612],[-75.86953,5.06612],[-75.86953,5.06612],[-75.86951,5.0661],[-75.86951,5.06609],[-75.86951,5.06609],[-75.86945,5.06603],[-75.8694,5.06597],[-75.86938,5.06594],[-75.86936,5.06592],[-75.8693,5.06582],[-75.86928,5.06579],[-75.86926,5.06576],[-75.86926,5.06574],[-75.86925,5.06571],[-75.86925,5.06571],[-75.86924,5.06566],[-75.86924,5.06562],[-75.86924,5.0656],[-75.86925,5.06549],[-75.86925,5.06546],[-75.86925,5.06545],[-75.86925,5.06543],[-75.86925,5.0654],[-75.86924,5.06536],[-75.86923,5.06532],[-75.86922,5.06529],[-75.8692,5.06524],[-75.8692,5.06524],[-75.8692,5.06523],[-75.86917,5.06518],[-75.86913,5.06513],[-75.86909,5.06509],[-75.86908,5.06507],[-75.86907,5.06507],[-75.86905,5.06505],[-75.86896,5.06499],[-75.86893,5.06497],[-75.86891,5.06496],[-75.86886,5.06491],[-75.86885,5.06489],[-75.86884,5.06488],[-75.86883,5.06486],[-75.86883,5.06486],[-75.86882,5.06484],[-75.86881,5.06479],[-75.86881,5.06476],[-75.8688,5.06474],[-75.86881,5.06464],[-75.86881,5.06462],[-75.8688,5.06461],[-75.8688,5.0646],[-75.86879,5.06457],[-75.86878,5.06455],[-75.86877,5.06452],[-75.86875,5.0645],[-75.86874,5.06448],[-75.86872,5.06446],[-75.86866,5.06441],[-75.86863,5.06439],[-75.8686,5.06437],[-75.86855,5.06434],[-75.86852,5.06431],[-75.86847,5.06426],[-75.86845,5.06424],[-75.86844,5.06422],[-75.86842,5.06419],[-75.86841,5.06416],[-75.8684,5.06412],[-75.86839,5.06408],[-75.86838,5.06406],[-75.86838,5.06402],[-75.86839,5.06393],[-75.86839,5.06391],[-75.86838,5.06389],[-75.86838,5.06388],[-75.86837,5.06384],[-75.86837,5.06382],[-75.86836,5.0638],[-75.86835,5.06378],[-75.86834,5.06377],[-75.86834,5.06377],[-75.86833,5.06377],[-75.86833,5.06376],[-75.86832,5.06376],[-75.86832,5.06376],[-75.86831,5.06375],[-75.86831,5.06375],[-75.86831,5.06375],[-75.8683,5.06375],[-75.8683,5.06375],[-75.8683,5.06375],[-75.8683,5.06375],[-75.86829,5.06376],[-75.86826,5.06379],[-75.86825,5.0638],[-75.86825,5.06381],[-75.86823,5.06384],[-75.86822,5.06386],[-75.86822,5.06388],[-75.86819,5.06398],[-75.86819,5.06399],[-75.86819,5.06399],[-75.86818,5.06401],[-75.86815,5.06406],[-75.86813,5.06409],[-75.86811,5.0641],[-75.86811,5.06411],[-75.86809,5.06411],[-75.86806,5.06412],[-75.86802,5.06412],[-75.86801,5.06412],[-75.86796,5.0641],[-75.86794,5.06409],[-75.8679,5.06407],[-75.8678,5.06401],[-75.86773,5.06397],[-75.86767,5.06393],[-75.86759,5.06388],[-75.86754,5.06384],[-75.8675,5.06382],[-75.86745,5.06378],[-75.86742,5.06375],[-75.86737,5.06371],[-75.86733,5.06366],[-75.8673,5.06363],[-75.86726,5.06359],[-75.86723,5.06355],[-75.8672,5.06351],[-75.86718,5.06348],[-75.86709,5.0638],[-75.86708,5.06382],[-75.86691,5.06377],[-75.86677,5.06372],[-75.86666,5.064],[-75.86669,5.06401],[-75.86702,5.06413],[-75.867,5.06421],[-75.86694,5.06444],[-75.86693,5.06446],[-75.86665,5.06438],[-75.8663,5.06428],[-75.866,5.0642],[-75.86594,5.06418],[-75.86592,5.06418],[-75.86585,5.06416],[-75.86583,5.06425],[-75.86582,5.06428],[-75.86578,5.06442],[-75.86586,5.06422],[-75.86587,5.06421],[-75.86591,5.06418],[-75.86628,5.06429],[-75.86626,5.0643],[-75.86622,5.06432],[-75.86618,5.06435],[-75.86615,5.06437],[-75.86611,5.0644],[-75.86607,5.06443],[-75.86604,5.06445],[-75.86602,5.06448],[-75.86598,5.06452],[-75.86595,5.06457],[-75.86591,5.06463],[-75.86587,5.0647],[-75.86582,5.06481],[-75.86578,5.06489],[-75.86577,5.06493],[-75.86576,5.06497],[-75.86575,5.065],[-75.86574,5.06503],[-75.86574,5.06507],[-75.86574,5.06515],[-75.86574,5.06519],[-75.86573,5.06521],[-75.86572,5.06523],[-75.86571,5.06525],[-75.8657,5.06528],[-75.86567,5.06532],[-75.8656,5.06541],[-75.86558,5.06545],[-75.86555,5.06549],[-75.86553,5.06552],[-75.86553,5.06555],[-75.86552,5.06558],[-75.8655,5.06566],[-75.86526,5.06555],[-75.86526,5.06551],[-75.86528,5.06543],[-75.86531,5.06517],[-75.86532,5.06509],[-75.86534,5.06502],[-75.86534,5.06502],[-75.86533,5.06503],[-75.86524,5.06507],[-75.86522,5.06508],[-75.86521,5.06509],[-75.8651,5.06528],[-75.86505,5.06533],[-75.86497,5.06534],[-75.86497,5.06534],[-75.86489,5.06533],[-75.86488,5.06536],[-75.86486,5.06541],[-75.86491,5.06543],[-75.86525,5.06557],[-75.8655,5.06567],[-75.86574,5.06576],[-75.86577,5.06578],[-75.86575,5.06587],[-75.8662,5.06607],[-75.86618,5.06615],[-75.86617,5.06618],[-75.86646,5.06627],[-75.86619,5.06712],[-75.86609,5.06714],[-75.86609,5.06714],[-75.86604,5.06715],[-75.8659,5.06742],[-75.8659,5.06743],[-75.86591,5.06746],[-75.86591,5.06749],[-75.86591,5.06751],[-75.86601,5.06754],[-75.86606,5.06755],[-75.86592,5.06804],[-75.86592,5.06804],[-75.86595,5.06809],[-75.86597,5.06813],[-75.86598,5.06814],[-75.86598,5.06815],[-75.86599,5.06816],[-75.86599,5.06816],[-75.866,5.06817],[-75.86603,5.06819],[-75.86603,5.0682],[-75.86604,5.0682],[-75.86605,5.0682],[-75.86605,5.0682],[-75.86606,5.0682],[-75.86607,5.06819],[-75.86608,5.06818],[-75.86609,5.06816],[-75.8661,5.06814],[-75.8661,5.06813],[-75.86611,5.06812],[-75.86611,5.0681],[-75.86612,5.06808],[-75.86612,5.068],[-75.86613,5.06798],[-75.86614,5.06796],[-75.86615,5.06795],[-75.86616,5.06793],[-75.8662,5.0679],[-75.86624,5.06787],[-75.86629,5.06785],[-75.86632,5.06784],[-75.86635,5.06783],[-75.86639,5.06782],[-75.86643,5.06781],[-75.86649,5.0678],[-75.86654,5.0678],[-75.8666,5.06781],[-75.86665,5.06782],[-75.86667,5.06783],[-75.86669,5.06784],[-75.86675,5.06787],[-75.86679,5.0679],[-75.86679,5.0679],[-75.8668,5.06791],[-75.86683,5.06793],[-75.86686,5.06795],[-75.86687,5.06796],[-75.86689,5.06798],[-75.86691,5.06799],[-75.86717,5.06784],[-75.86724,5.06781],[-75.86796,5.06872],[-75.86798,5.06873],[-75.86808,5.06887]],[[-75.86686,5.06774],[-75.86685,5.06776],[-75.86655,5.06762],[-75.86616,5.06744],[-75.86627,5.06714],[-75.86627,5.06713],[-75.86627,5.06713],[-75.86696,5.06734],[-75.86689,5.06766],[-75.86686,5.06774]]],[[[-75.87103,5.06485],[-75.87103,5.06486],[-75.87103,5.06486],[-75.87104,5.06486],[-75.87104,5.06486],[-75.87123,5.06495],[-75.87122,5.06493],[-75.87122,5.06489],[-75.87103,5.06485]]],[[[-75.86544,5.06479],[-75.86543,5.06479],[-75.86543,5.06479],[-75.86544,5.06479]]],[[[-75.87106,5.06461],[-75.87106,5.06464],[-75.87105,5.06465],[-75.87105,5.06469],[-75.87105,5.06469],[-75.87105,5.0647],[-75.87107,5.06462],[-75.87106,5.06461]]],[[[-75.87095,5.06451],[-75.871,5.06455],[-75.87103,5.06457],[-75.87096,5.06448],[-75.87095,5.06451]]],[[[-75.87028,5.06056],[-75.87028,5.06058],[-75.8703,5.0607],[-75.87033,5.06083],[-75.87035,5.06095],[-75.87038,5.06108],[-75.8705,5.06153],[-75.87054,5.06171],[-75.87058,5.06189],[-75.87061,5.06206],[-75.87063,5.06216],[-75.87064,5.06227],[-75.87069,5.06266],[-75.87071,5.06281],[-75.87074,5.06296],[-75.87076,5.06309],[-75.87082,5.06336],[-75.87085,5.06349],[-75.87088,5.0636],[-75.87091,5.06372],[-75.87094,5.06382],[-75.87097,5.06393],[-75.87101,5.06403],[-75.87107,5.06422],[-75.8711,5.06431],[-75.87112,5.06436],[-75.87112,5.06433],[-75.8711,5.06426],[-75.87107,5.06414],[-75.87098,5.06389],[-75.87097,5.06383],[-75.87095,5.06377],[-75.87092,5.06362],[-75.87091,5.06357],[-75.8709,5.06352],[-75.8709,5.06344],[-75.8709,5.06336],[-75.8709,5.06328],[-75.87091,5.06313],[-75.87092,5.06301],[-75.87093,5.0629],[-75.87094,5.06281],[-75.87094,5.0628],[-75.87093,5.06272],[-75.87093,5.06266],[-75.87094,5.06262],[-75.87094,5.0626],[-75.87095,5.06257],[-75.87096,5.06253],[-75.87097,5.06249],[-75.87098,5.06245],[-75.871,5.06243],[-75.87104,5.06238],[-75.87104,5.06238],[-75.87104,5.06238],[-75.87104,5.06238],[-75.87105,5.06237],[-75.87106,5.06232],[-75.87106,5.06227],[-75.87105,5.06226],[-75.87104,5.06225],[-75.87102,5.06224],[-75.87097,5.06222],[-75.87094,5.06221],[-75.87086,5.0622],[-75.87083,5.06219],[-75.87082,5.06218],[-75.87079,5.06216],[-75.87077,5.06214],[-75.87076,5.06214],[-75.87075,5.06213],[-75.87074,5.06212],[-75.87073,5.06211],[-75.87072,5.06209],[-75.87071,5.06206],[-75.8707,5.06199],[-75.8707,5.06197],[-75.87069,5.06196],[-75.87069,5.06193],[-75.87069,5.0618],[-75.87069,5.06178],[-75.87069,5.06175],[-75.87068,5.06168],[-75.87068,5.06168],[-75.87067,5.06165],[-75.87067,5.06163],[-75.87066,5.06161],[-75.87065,5.06157],[-75.87064,5.06152],[-75.87064,5.06152],[-75.87064,5.06152],[-75.87062,5.06147],[-75.8706,5.06143],[-75.87058,5.0614],[-75.87058,5.0614],[-75.87054,5.06133],[-75.87052,5.0613],[-75.87052,5.06129],[-75.87051,5.06122],[-75.8705,5.06121],[-75.87049,5.0612],[-75.87049,5.06119],[-75.87048,5.06118],[-75.87047,5.06117],[-75.87047,5.06116],[-75.87048,5.06116],[-75.87048,5.06116],[-75.87049,5.06116],[-75.87049,5.06116],[-75.87049,5.06116],[-75.8705,5.06116],[-75.87051,5.06115],[-75.87052,5.06114],[-75.87052,5.06113],[-75.87052,5.06112],[-75.87051,5.0611],[-75.87051,5.0611],[-75.8705,5.06107],[-75.87049,5.06102],[-75.87048,5.06098],[-75.87047,5.06093],[-75.87045,5.06088],[-75.8704,5.0608],[-75.87032,5.06064],[-75.87028,5.06057],[-75.87028,5.06056]]],[[[-75.86716,5.06242],[-75.86735,5.06248],[-75.86743,5.06222],[-75.86758,5.0623],[-75.86759,5.06231],[-75.86768,5.06235],[-75.86772,5.06221],[-75.86772,5.06221],[-75.8677,5.06222],[-75.86767,5.06222],[-75.86764,5.06223],[-75.8676,5.06222],[-75.86757,5.06222],[-75.86755,5.06221],[-75.86753,5.06221],[-75.8675,5.0622],[-75.86748,5.06219],[-75.86746,5.06218],[-75.86745,5.06216],[-75.86743,5.06215],[-75.86741,5.06213],[-75.86739,5.0621],[-75.86738,5.06206],[-75.86737,5.06203],[-75.86741,5.06204],[-75.86754,5.06207],[-75.86741,5.06203],[-75.86739,5.06202],[-75.86737,5.06202],[-75.86733,5.062],[-75.8673,5.06207],[-75.86727,5.06207],[-75.86718,5.06205],[-75.86714,5.06214],[-75.86706,5.06214],[-75.86699,5.06237],[-75.86716,5.06242]]],[[[-75.87587,5.0622],[-75.87589,5.06221],[-75.87604,5.06227],[-75.87624,5.06235],[-75.8763,5.06235],[-75.8759,5.06218],[-75.8759,5.06217],[-75.87588,5.06217],[-75.87587,5.0622]]],[[[-75.87595,5.06207],[-75.87596,5.06205],[-75.87597,5.06203],[-75.87623,5.06214],[-75.87635,5.06216],[-75.87635,5.06217],[-75.87634,5.06222],[-75.87633,5.06226],[-75.87631,5.06234],[-75.87631,5.06235],[-75.87635,5.06234],[-75.87636,5.06232],[-75.87636,5.06231],[-75.87639,5.06224],[-75.87639,5.06224],[-75.8764,5.0622],[-75.87641,5.06217],[-75.87642,5.06216],[-75.87635,5.06214],[-75.87629,5.06212],[-75.87626,5.06211],[-75.87626,5.06211],[-75.87597,5.06201],[-75.87592,5.062],[-75.87593,5.06201],[-75.87594,5.06205],[-75.87595,5.06207]]],[[[-75.86993,5.06035],[-75.86992,5.06037],[-75.86991,5.06039],[-75.86988,5.06045],[-75.86986,5.06049],[-75.8698,5.06058],[-75.86979,5.0606],[-75.86978,5.06063],[-75.86977,5.06065],[-75.86977,5.06066],[-75.86976,5.06067],[-75.86976,5.0607],[-75.86975,5.0607],[-75.86975,5.06071],[-75.86975,5.06074],[-75.86974,5.06077],[-75.86974,5.06078],[-75.86974,5.06083],[-75.86974,5.06084],[-75.86974,5.06087],[-75.86974,5.06092],[-75.86975,5.06097],[-75.86976,5.06102],[-75.86977,5.06108],[-75.86977,5.06108],[-75.86978,5.06109],[-75.86978,5.06111],[-75.86979,5.06114],[-75.8698,5.06116],[-75.86981,5.06119],[-75.86984,5.06125],[-75.86985,5.06129],[-75.86987,5.06132],[-75.86989,5.06135],[-75.86991,5.06138],[-75.86992,5.0614],[-75.86993,5.0614],[-75.86993,5.0614],[-75.86993,5.0614],[-75.86994,5.06151],[-75.86995,5.06155],[-75.86995,5.0616],[-75.86998,5.06176],[-75.87,5.06184],[-75.87,5.06184],[-75.87,5.06184],[-75.87001,5.0619],[-75.87002,5.06192],[-75.8701,5.06219],[-75.87011,5.06224],[-75.8701,5.06214],[-75.87008,5.06198],[-75.87005,5.06161],[-75.87004,5.06145],[-75.87002,5.06132],[-75.86999,5.06119],[-75.86996,5.061],[-75.86994,5.06091],[-75.86994,5.06084],[-75.86993,5.06076],[-75.86993,5.06068],[-75.86993,5.06039],[-75.86993,5.06035]],[[-75.86994,5.0614],[-75.86994,5.0614],[-75.86993,5.0614],[-75.86994,5.0614]]],[[[-75.86776,5.06214],[-75.86775,5.06215],[-75.86777,5.06214],[-75.86776,5.06214]]],[[[-75.86786,5.06187],[-75.86779,5.06212],[-75.86785,5.06207],[-75.86793,5.06198],[-75.86796,5.06196],[-75.86805,5.06186],[-75.86811,5.06178],[-75.8681,5.06178],[-75.86806,5.06179],[-75.86802,5.0618],[-75.86794,5.06183],[-75.8679,5.06184],[-75.86787,5.06186],[-75.86786,5.06187]]],[[[-75.87584,5.06161],[-75.87585,5.06165],[-75.87586,5.06169],[-75.87592,5.06168],[-75.87596,5.06168],[-75.87585,5.06159],[-75.87584,5.06161]]],[[[-75.86814,5.06162],[-75.86811,5.06162],[-75.8681,5.06162],[-75.86802,5.06164],[-75.86799,5.06167],[-75.86804,5.06164],[-75.8681,5.06162],[-75.86814,5.06162]]],[[[-75.86641,5.05826],[-75.8664,5.05829],[-75.86638,5.05836],[-75.86635,5.05848],[-75.8663,5.05863],[-75.86623,5.05886],[-75.86619,5.05898],[-75.86614,5.05915],[-75.86614,5.05916],[-75.8661,5.05924],[-75.86606,5.05935],[-75.86602,5.05946],[-75.866,5.05958],[-75.86595,5.05974],[-75.86592,5.05987],[-75.86586,5.06003],[-75.86587,5.06009],[-75.86587,5.06016],[-75.86587,5.06018],[-75.86585,5.06031],[-75.86566,5.06078],[-75.86594,5.06087],[-75.86611,5.06036],[-75.86616,5.06031],[-75.86629,5.06011],[-75.86658,5.05934],[-75.86729,5.05954],[-75.86726,5.05964],[-75.86722,5.05979],[-75.86739,5.05985],[-75.86733,5.06004],[-75.86713,5.05999],[-75.86703,5.06026],[-75.8673,5.06034],[-75.86746,5.06021],[-75.86768,5.06021],[-75.86802,5.06032],[-75.86808,5.06018],[-75.86808,5.06017],[-75.8682,5.06023],[-75.86825,5.06013],[-75.86832,5.06001],[-75.86832,5.06],[-75.86828,5.05998],[-75.86822,5.06011],[-75.86818,5.06008],[-75.86811,5.06004],[-75.86805,5.05999],[-75.868,5.05995],[-75.86796,5.05991],[-75.86792,5.05986],[-75.86788,5.05982],[-75.86785,5.05978],[-75.86783,5.05974],[-75.8678,5.05968],[-75.86778,5.05963],[-75.86776,5.05958],[-75.86775,5.05953],[-75.86774,5.05948],[-75.86773,5.05944],[-75.86773,5.05939],[-75.86774,5.05935],[-75.86774,5.0593],[-75.86776,5.05925],[-75.86778,5.05921],[-75.8678,5.05917],[-75.86784,5.05912],[-75.86786,5.05909],[-75.86788,5.05907],[-75.86789,5.05906],[-75.86791,5.05905],[-75.86792,5.05904],[-75.86794,5.05904],[-75.86795,5.05905],[-75.86796,5.05905],[-75.86798,5.05906],[-75.86799,5.05908],[-75.86801,5.0591],[-75.86802,5.05912],[-75.86803,5.05914],[-75.86805,5.05916],[-75.86805,5.05919],[-75.86806,5.05922],[-75.86805,5.05925],[-75.86804,5.05934],[-75.86804,5.05936],[-75.86805,5.05939],[-75.86805,5.0594],[-75.86805,5.05942],[-75.86809,5.05931],[-75.8681,5.05926],[-75.86815,5.05911],[-75.86814,5.05909],[-75.86814,5.05908],[-75.86814,5.05907],[-75.86812,5.05901],[-75.86812,5.059],[-75.86811,5.05897],[-75.8681,5.05896],[-75.86808,5.05889],[-75.86806,5.05887],[-75.86805,5.05883],[-75.86801,5.05877],[-75.86779,5.0587],[-75.86775,5.05868],[-75.86729,5.05854],[-75.86717,5.0585],[-75.86707,5.05847],[-75.86641,5.05826]]],[[[-75.86815,5.05962],[-75.86817,5.05964],[-75.86819,5.05966],[-75.86822,5.05969],[-75.86823,5.0597],[-75.86822,5.05968],[-75.86822,5.05965],[-75.86815,5.05962]]],[[[-75.86994,5.05942],[-75.87005,5.05946],[-75.87005,5.05943],[-75.87005,5.05942],[-75.87005,5.05939],[-75.87006,5.05936],[-75.87006,5.05936],[-75.87006,5.05936],[-75.86993,5.05935],[-75.86994,5.05938],[-75.86994,5.05942]]]]},"properties":{"FID":2,"OBJECTID_1":3,"OBJECTID":6,"CONTRATIST":"CORDEAM","Area_ha_1":18.640360363,"CONDICION":"CONDICIÓN DE RIESGO POR INUNDACIÓN_URB","AMENAZA":"INUNDACIÓN_URBANO","RuleID":6,"Shape_Leng":6682.31177794,"Shape_Area":186403.60363}},{"type":"Feature","id":3,"geometry":{"type":"MultiPolygon","coordinates":[[[[-75.87159,5.06508],[-75.87193,5.06521],[-75.87201,5.06521],[-75.87205,5.06518],[-75.87213,5.06511],[-75.87215,5.06511],[-75.87217,5.06512],[-75.87227,5.06515],[-75.87239,5.06519],[-75.87242,5.06504],[-75.87231,5.06507],[-75.87224,5.06508],[-75.87218,5.0651],[-75.87211,5.0651],[-75.87205,5.0651],[-75.87202,5.0651],[-75.87199,5.0651],[-75.87197,5.06509],[-75.87194,5.06508],[-75.87189,5.06506],[-75.87183,5.06504],[-75.87178,5.06501],[-75.87172,5.06498],[-75.87167,5.06495],[-75.87161,5.06492],[-75.87156,5.06488],[-75.87155,5.06487],[-75.87156,5.06488],[-75.87156,5.06489],[-75.87158,5.0649],[-75.87161,5.06493],[-75.87163,5.06495],[-75.87159,5.06508]]],[[[-75.87277,5.06496],[-75.87276,5.065],[-75.87295,5.06505],[-75.87314,5.06519],[-75.87317,5.06519],[-75.8732,5.06516],[-75.87317,5.06514],[-75.87314,5.0651],[-75.87309,5.06507],[-75.87305,5.06504],[-75.87301,5.06501],[-75.87298,5.065],[-75.87296,5.06498],[-75.87293,5.06498],[-75.8729,5.06497],[-75.87287,5.06496],[-75.87284,5.06496],[-75.87281,5.06496],[-75.87277,5.06496]]],[[[-75.87556,5.06129],[-75.87558,5.06132],[-75.87561,5.06138],[-75.87564,5.06143],[-75.87568,5.06148],[-75.87571,5.06151],[-75.87571,5.06151],[-75.8757,5.06147],[-75.87569,5.06143],[-75.87567,5.06139],[-75.87567,5.06138],[-75.87566,5.06137],[-75.87566,5.06136],[-75.87564,5.06134],[-75.8756,5.06131],[-75.87557,5.0613],[-75.87556,5.06129]]],[[[-75.87562,5.06118],[-75.8756,5.06118],[-75.87562,5.06118],[-75.87562,5.06118]]]]},"properties":{"FID":3,"OBJECTID_1":4,"OBJECTID":7,"CONTRATIST":"CORDEAM","Area_ha_1":0.149349965928,"CONDICION":"CONDICIÓN DE RIESGO POR AVENIDA TORRENCIAL Y MOVIMIENTO EN MASA_URB","AMENAZA":"AVENIDA TORRENCIAL Y MOVIMIENTO EN MASA_URBANO","RuleID":1,"Shape_Leng":423.494746073,"Shape_Area":1493.49965928}},{"type":"Feature","id":4,"geometry":{"type":"MultiPolygon","coordinates":[[[[-75.87103,5.06485],[-75.87122,5.06489],[-75.87121,5.06485],[-75.87119,5.06477],[-75.87117,5.06468],[-75.87113,5.06441],[-75.87112,5.06436],[-75.8711,5.06431],[-75.87107,5.06422],[-75.87101,5.06403],[-75.87097,5.06393],[-75.87094,5.06382],[-75.87091,5.06372],[-75.87088,5.0636],[-75.87085,5.06349],[-75.87082,5.06336],[-75.87076,5.06309],[-75.87074,5.06296],[-75.87071,5.06281],[-75.87069,5.06266],[-75.87064,5.06227],[-75.87063,5.06216],[-75.87061,5.06206],[-75.87058,5.06189],[-75.87054,5.06171],[-75.8705,5.06153],[-75.87038,5.06108],[-75.87035,5.06095],[-75.87033,5.06083],[-75.8703,5.0607],[-75.87028,5.06058],[-75.87028,5.06056],[-75.87026,5.06052],[-75.87024,5.06047],[-75.87022,5.06042],[-75.87019,5.06032],[-75.87016,5.06018],[-75.87014,5.06006],[-75.87013,5.05999],[-75.87012,5.05994],[-75.87012,5.05986],[-75.87012,5.05982],[-75.87012,5.05973],[-75.87012,5.05971],[-75.87012,5.05968],[-75.87012,5.05967],[-75.87011,5.05965],[-75.87011,5.05962],[-75.87009,5.05958],[-75.87007,5.05952],[-75.87006,5.05948],[-75.87005,5.05946],[-75.86994,5.05942],[-75.86994,5.05946],[-75.86994,5.05951],[-75.86995,5.05954],[-75.86995,5.05956],[-75.86996,5.05958],[-75.86996,5.05961],[-75.87,5.05971],[-75.87001,5.05972],[-75.87001,5.05973],[-75.87002,5.05976],[-75.87002,5.0598],[-75.87002,5.05982],[-75.87002,5.05988],[-75.87001,5.05994],[-75.87,5.05995],[-75.87,5.05997],[-75.86999,5.06],[-75.86996,5.06007],[-75.86995,5.06009],[-75.86994,5.06011],[-75.86994,5.06013],[-75.86994,5.06014],[-75.86994,5.06014],[-75.86995,5.06019],[-75.86995,5.06022],[-75.86995,5.06025],[-75.86994,5.06028],[-75.86994,5.06028],[-75.86994,5.06031],[-75.86993,5.06035],[-75.86993,5.06035],[-75.86993,5.06039],[-75.86993,5.06068],[-75.86993,5.06076],[-75.86994,5.06084],[-75.86994,5.06091],[-75.86996,5.061],[-75.86999,5.06119],[-75.87002,5.06132],[-75.87004,5.06145],[-75.87005,5.06161],[-75.87008,5.06198],[-75.8701,5.06214],[-75.87011,5.06224],[-75.87012,5.06228],[-75.87014,5.06236],[-75.87015,5.06242],[-75.87016,5.06249],[-75.8702,5.06278],[-75.87021,5.06285],[-75.87022,5.06292],[-75.87024,5.06298],[-75.87024,5.063],[-75.87029,5.06316],[-75.87031,5.06323],[-75.87033,5.06333],[-75.87035,5.06341],[-75.87038,5.06357],[-75.87039,5.06363],[-75.8704,5.06369],[-75.87044,5.0638],[-75.87047,5.0639],[-75.8705,5.06399],[-75.87054,5.06406],[-75.87055,5.06408],[-75.87056,5.06411],[-75.87059,5.06416],[-75.8707,5.06431],[-75.87073,5.06437],[-75.87074,5.06439],[-75.87076,5.06442],[-75.87078,5.06446],[-75.8708,5.0645],[-75.87081,5.06453],[-75.87081,5.06454],[-75.87081,5.06457],[-75.8708,5.06461],[-75.87086,5.06454],[-75.87093,5.06449],[-75.87095,5.06451],[-75.87096,5.06448],[-75.87103,5.06457],[-75.87106,5.06459],[-75.87106,5.06461],[-75.87107,5.06462],[-75.87105,5.0647],[-75.87103,5.06485]]],[[[-75.8759,5.06217],[-75.8759,5.06218],[-75.8763,5.06235],[-75.87631,5.06235],[-75.87631,5.06234],[-75.87633,5.06226],[-75.87634,5.06222],[-75.87635,5.06217],[-75.87635,5.06216],[-75.87623,5.06214],[-75.87597,5.06203],[-75.87596,5.06205],[-75.87595,5.06207],[-75.87597,5.06212],[-75.87601,5.06221],[-75.87601,5.06221],[-75.8759,5.06217]]],[[[-75.87584,5.06158],[-75.87584,5.0616],[-75.87584,5.06161],[-75.87585,5.06159],[-75.87584,5.06158]]]]},"properties":{"FID":4,"OBJECTID_1":5,"OBJECTID":8,"CONTRATIST":"CORDEAM","Area_ha_1":2.65285012493,"CONDICION":"CONDICIÓN DE RIESGO POR INUNDACIÓN Y AVENIDA TORRENCIAL_URB","AMENAZA":"INUNDACIÓN Y AVENIDA TORRENCIAL_URBANO","RuleID":3,"Shape_Leng":1470.24412889,"Shape_Area":26528.5012493}},{"type":"Feature","id":5,"geometry":{"type":"MultiPolygon","coordinates":[[[[-75.86959,5.06624],[-75.8696,5.06628],[-75.86961,5.06632],[-75.86963,5.06636],[-75.86963,5.06638],[-75.86964,5.06637],[-75.86963,5.06634],[-75.86961,5.06628],[-75.86961,5.06627],[-75.8696,5.06626],[-75.86959,5.06624]]],[[[-75.86534,5.06502],[-75.86534,5.06502],[-75.86532,5.06509],[-75.86531,5.06517],[-75.86528,5.06543],[-75.86526,5.06551],[-75.86526,5.06555],[-75.8655,5.06566],[-75.86552,5.06558],[-75.86553,5.06555],[-75.86553,5.06552],[-75.86555,5.06549],[-75.86558,5.06545],[-75.8656,5.06541],[-75.86567,5.06532],[-75.8657,5.06528],[-75.86571,5.06525],[-75.86572,5.06523],[-75.86573,5.06521],[-75.86574,5.06519],[-75.86574,5.06515],[-75.86574,5.06507],[-75.86574,5.06503],[-75.86575,5.065],[-75.86576,5.06497],[-75.86577,5.06493],[-75.86578,5.06489],[-75.86582,5.06481],[-75.86587,5.0647],[-75.86591,5.06463],[-75.86595,5.06457],[-75.86598,5.06452],[-75.86602,5.06448],[-75.86604,5.06445],[-75.86607,5.06443],[-75.86611,5.0644],[-75.86615,5.06437],[-75.86618,5.06435],[-75.86622,5.06432],[-75.86626,5.0643],[-75.86628,5.06429],[-75.86591,5.06418],[-75.86587,5.06421],[-75.86586,5.06422],[-75.86578,5.06442],[-75.86568,5.06473],[-75.86561,5.06477],[-75.86553,5.06479],[-75.86544,5.06479],[-75.86543,5.06479],[-75.86534,5.06502]]],[[[-75.87123,5.06495],[-75.87128,5.06497],[-75.87159,5.06508],[-75.87159,5.06508],[-75.87129,5.06496],[-75.87129,5.06491],[-75.87122,5.06489],[-75.87122,5.06493],[-75.87123,5.06495]]],[[[-75.87112,5.06436],[-75.87114,5.0644],[-75.87116,5.06443],[-75.87118,5.06447],[-75.87121,5.06452],[-75.87124,5.06457],[-75.87128,5.06461],[-75.87132,5.06466],[-75.87136,5.06471],[-75.87141,5.06475],[-75.87146,5.0648],[-75.87151,5.06484],[-75.87155,5.06487],[-75.87155,5.06487],[-75.87155,5.06487],[-75.87153,5.06484],[-75.87152,5.06482],[-75.87152,5.0648],[-75.87151,5.0648],[-75.87151,5.06477],[-75.87151,5.06474],[-75.87151,5.0647],[-75.87151,5.06467],[-75.87152,5.06464],[-75.87153,5.06458],[-75.87153,5.06454],[-75.87153,5.06445],[-75.87153,5.06444],[-75.87153,5.06443],[-75.87153,5.06435],[-75.87152,5.06424],[-75.87152,5.06424],[-75.87151,5.06415],[-75.8715,5.06411],[-75.8715,5.06408],[-75.87149,5.06407],[-75.87148,5.06402],[-75.87146,5.06396],[-75.87144,5.0639],[-75.87141,5.06384],[-75.87138,5.06379],[-75.87137,5.06378],[-75.87136,5.06377],[-75.87134,5.06374],[-75.87124,5.06363],[-75.87121,5.06361],[-75.87118,5.06356],[-75.87115,5.06351],[-75.87115,5.06351],[-75.87115,5.06351],[-75.87114,5.06349],[-75.8711,5.06343],[-75.87107,5.06336],[-75.87107,5.06335],[-75.87104,5.06328],[-75.87102,5.06319],[-75.871,5.06312],[-75.87099,5.06308],[-75.87097,5.06301],[-75.87096,5.06291],[-75.87094,5.06281],[-75.87093,5.0629],[-75.87092,5.06301],[-75.87091,5.06313],[-75.8709,5.06328],[-75.8709,5.06336],[-75.8709,5.06344],[-75.8709,5.06352],[-75.87091,5.06357],[-75.87092,5.06362],[-75.87095,5.06377],[-75.87097,5.06383],[-75.87098,5.06389],[-75.87107,5.06414],[-75.8711,5.06426],[-75.87112,5.06433],[-75.87112,5.06436]]],[[[-75.87106,5.06227],[-75.87106,5.06232],[-75.87105,5.06237],[-75.87105,5.06237],[-75.87106,5.06236],[-75.87107,5.06231],[-75.87108,5.0623],[-75.87107,5.06229],[-75.87107,5.06228],[-75.87107,5.06228],[-75.87106,5.06227]]],[[[-75.86754,5.06207],[-75.86741,5.06204],[-75.86737,5.06203],[-75.86738,5.06206],[-75.86739,5.0621],[-75.86741,5.06213],[-75.86743,5.06215],[-75.86745,5.06216],[-75.86746,5.06218],[-75.86748,5.06219],[-75.8675,5.0622],[-75.86753,5.06221],[-75.86755,5.06221],[-75.86757,5.06222],[-75.8676,5.06222],[-75.86764,5.06223],[-75.86767,5.06222],[-75.8677,5.06222],[-75.86772,5.06221],[-75.86772,5.06221],[-75.86773,5.06217],[-75.86775,5.06215],[-75.86776,5.06214],[-75.86761,5.06209],[-75.86761,5.06209],[-75.86754,5.06207]]],[[[-75.87592,5.062],[-75.87583,5.06197],[-75.87583,5.06197],[-75.87582,5.06212],[-75.87582,5.06213],[-75.87581,5.06216],[-75.87582,5.06218],[-75.87587,5.0622],[-75.87588,5.06217],[-75.8759,5.06217],[-75.87595,5.06207],[-75.87594,5.06205],[-75.87593,5.06201],[-75.87592,5.062]]],[[[-75.86799,5.06167],[-75.86793,5.06172],[-75.86787,5.0618],[-75.86786,5.06187],[-75.86787,5.06186],[-75.8679,5.06184],[-75.86794,5.06183],[-75.86802,5.0618],[-75.86806,5.06179],[-75.8681,5.06178],[-75.86811,5.06178],[-75.86812,5.06178],[-75.86816,5.06173],[-75.86819,5.06169],[-75.86821,5.06166],[-75.86822,5.06164],[-75.86814,5.06162],[-75.8681,5.06162],[-75.86804,5.06164],[-75.86799,5.06167]]],[[[-75.87571,5.06151],[-75.87572,5.06155],[-75.87573,5.06158],[-75.87574,5.06161],[-75.87574,5.06162],[-75.87575,5.06164],[-75.87576,5.06167],[-75.87578,5.0617],[-75.87586,5.06169],[-75.87585,5.06165],[-75.87584,5.06161],[-75.87584,5.06162],[-75.87579,5.06158],[-75.87575,5.06155],[-75.87571,5.06151]]],[[[-75.8756,5.06118],[-75.87543,5.06121],[-75.87543,5.06122],[-75.87544,5.06123],[-75.87546,5.06125],[-75.87548,5.06126],[-75.87549,5.06127],[-75.87554,5.06128],[-75.87556,5.06129],[-75.87555,5.06127],[-75.87553,5.06121],[-75.8756,5.06118]]],[[[-75.86805,5.05942],[-75.86805,5.0594],[-75.86805,5.05939],[-75.86804,5.05936],[-75.86804,5.05934],[-75.86805,5.05925],[-75.86806,5.05922],[-75.86805,5.05919],[-75.86805,5.05916],[-75.86803,5.05914],[-75.86802,5.05912],[-75.86801,5.0591],[-75.86799,5.05908],[-75.86798,5.05906],[-75.86796,5.05905],[-75.86795,5.05905],[-75.86794,5.05904],[-75.86792,5.05904],[-75.86791,5.05905],[-75.86789,5.05906],[-75.86788,5.05907],[-75.86786,5.05909],[-75.86784,5.05912],[-75.8678,5.05917],[-75.86778,5.05921],[-75.86776,5.05925],[-75.86774,5.0593],[-75.86774,5.05935],[-75.86773,5.05939],[-75.86773,5.05944],[-75.86774,5.05948],[-75.86775,5.05953],[-75.86776,5.05958],[-75.86778,5.05963],[-75.8678,5.05968],[-75.86783,5.05974],[-75.86785,5.05978],[-75.86788,5.05982],[-75.86792,5.05986],[-75.86796,5.05991],[-75.868,5.05995],[-75.86805,5.05999],[-75.86811,5.06004],[-75.86818,5.06008],[-75.86822,5.06011],[-75.86828,5.05998],[-75.86832,5.06],[-75.86833,5.05999],[-75.86831,5.05995],[-75.86828,5.05988],[-75.86824,5.05978],[-75.86824,5.05975],[-75.86823,5.0597],[-75.86822,5.05969],[-75.86819,5.05966],[-75.86817,5.05964],[-75.86815,5.05962],[-75.86801,5.05957],[-75.86805,5.05942]]]]},"properties":{"FID":5,"OBJECTID_1":6,"OBJECTID":9,"CONTRATIST":"CORDEAM","Area_ha_1":1.74536376249,"CONDICION":"CONDICIÓN DE RIESGO POR INUNDACIÓN Y MOVIMIENTO EN MASA_URB","AMENAZA":"INUNDACIÓN Y MOVIMIENTO EN MASA_URBANO","RuleID":4,"Shape_Leng":1779.18481887,"Shape_Area":17453.6376249}},{"type":"Feature","id":6,"geometry":{"type":"MultiPolygon","coordinates":[[[[-75.87122,5.06489],[-75.87129,5.06491],[-75.87129,5.06496],[-75.87159,5.06508],[-75.87163,5.06495],[-75.87161,5.06493],[-75.87158,5.0649],[-75.87156,5.06489],[-75.87156,5.06488],[-75.87155,5.06487],[-75.87151,5.06484],[-75.87146,5.0648],[-75.87141,5.06475],[-75.87136,5.06471],[-75.87132,5.06466],[-75.87128,5.06461],[-75.87124,5.06457],[-75.87121,5.06452],[-75.87118,5.06447],[-75.87116,5.06443],[-75.87114,5.0644],[-75.87112,5.06436],[-75.87113,5.06441],[-75.87117,5.06468],[-75.87119,5.06477],[-75.87121,5.06485],[-75.87122,5.06489]]],[[[-75.8759,5.06217],[-75.87601,5.06221],[-75.87601,5.06221],[-75.87597,5.06212],[-75.87595,5.06207],[-75.8759,5.06217]]],[[[-75.87571,5.06151],[-75.87575,5.06155],[-75.87579,5.06158],[-75.87584,5.06162],[-75.87584,5.06161],[-75.87584,5.0616],[-75.87584,5.06158],[-75.87583,5.06157],[-75.87582,5.06157],[-75.87579,5.06151],[-75.87572,5.06135],[-75.87562,5.06118],[-75.8756,5.06118],[-75.87553,5.06121],[-75.87555,5.06127],[-75.87556,5.06129],[-75.87557,5.0613],[-75.8756,5.06131],[-75.87564,5.06134],[-75.87566,5.06136],[-75.87566,5.06137],[-75.87567,5.06138],[-75.87567,5.06139],[-75.87569,5.06143],[-75.8757,5.06147],[-75.87571,5.06151]]]]},"properties":{"FID":6,"OBJECTID_1":7,"OBJECTID":10,"CONTRATIST":"CORDEAM","Area_ha_1":0.192376934469,"CONDICION":"CONDICIÓN DE RIESGO POR INUNDACIÓN, AVT Y MM_URB","AMENAZA":"INUNDACIÓN, AVT Y MM_URBANO","RuleID":5,"Shape_Leng":377.618726005,"Shape_Area":1923.76934469}}]}