{"type":"FeatureCollection","name":"Riesgo Remoción Dorada (C-089)","crs":{"type":"name","properties":{"name":"urn:ogc:def:crs:OGC:1.3:CRS84"}},"features":[{"type":"Feature","id":1,"geometry":{"type":"Polygon","coordinates":[[[-74.67553,5.497],[-74.67553,5.49707],[-74.67553,5.49715],[-74.67553,5.49722],[-74.67552,5.49729],[-74.67551,5.49736],[-74.67549,5.49742],[-74.67547,5.49748],[-74.67544,5.49752],[-74.67539,5.49759],[-74.67537,5.49763],[-74.67536,5.49767],[-74.67535,5.49771],[-74.67536,5.49775],[-74.67537,5.49779],[-74.67539,5.49782],[-74.67543,5.49789],[-74.67546,5.49794],[-74.67548,5.49799],[-74.6755,5.49806],[-74.67551,5.49812],[-74.67555,5.49834],[-74.67556,5.49841],[-74.67558,5.49847],[-74.67561,5.49853],[-74.67565,5.49858],[-74.6757,5.49862],[-74.67576,5.49864],[-74.67583,5.49866],[-74.6759,5.49867],[-74.67598,5.49868],[-74.67622,5.4987],[-74.6763,5.49871],[-74.67638,5.49872],[-74.67645,5.49873],[-74.67652,5.49875],[-74.67658,5.49877],[-74.67662,5.4988],[-74.67671,5.49886],[-74.67675,5.49889],[-74.67681,5.49891],[-74.67687,5.49893],[-74.67694,5.49894],[-74.67702,5.49895],[-74.67709,5.49895],[-74.67716,5.49895],[-74.67724,5.49895],[-74.67731,5.49893],[-74.67737,5.49892],[-74.67743,5.49889],[-74.67747,5.49886],[-74.6775,5.49883],[-74.67757,5.49875],[-74.67765,5.49868],[-74.67768,5.49865],[-74.67771,5.49861],[-74.67774,5.49855],[-74.67776,5.49849],[-74.67777,5.49842],[-74.67777,5.49835],[-74.67778,5.49827],[-74.67777,5.4982],[-74.67777,5.49812],[-74.67776,5.49805],[-74.67774,5.49799],[-74.67771,5.49793],[-74.67768,5.49788],[-74.67762,5.49781],[-74.67759,5.49776],[-74.67756,5.49771],[-74.67754,5.49764],[-74.67753,5.49757],[-74.67752,5.49749],[-74.67752,5.4974],[-74.67754,5.49731],[-74.67756,5.49723],[-74.67758,5.49715],[-74.67762,5.49709],[-74.67766,5.49704],[-74.6777,5.49701],[-74.67773,5.497],[-74.67776,5.497],[-74.67778,5.497],[-74.67778,5.49699],[-74.67778,5.49695],[-74.67777,5.49689],[-74.67776,5.49683],[-74.67775,5.49675],[-74.67773,5.49667],[-74.67769,5.49659],[-74.67766,5.49653],[-74.67759,5.49642],[-74.67755,5.49636],[-74.67753,5.4963],[-74.67751,5.49623],[-74.6775,5.49616],[-74.67749,5.49609],[-74.67749,5.49601],[-74.67749,5.49594],[-74.6775,5.49587],[-74.67751,5.4958],[-74.67753,5.49574],[-74.67756,5.49568],[-74.67759,5.49564],[-74.67763,5.49561],[-74.6777,5.49554],[-74.67777,5.49547],[-74.6778,5.49543],[-74.67785,5.4954],[-74.67791,5.49538],[-74.67798,5.49536],[-74.67805,5.49534],[-74.67813,5.49534],[-74.67822,5.49533],[-74.67839,5.49533],[-74.67884,5.49533],[-74.67892,5.49533],[-74.67901,5.49533],[-74.67909,5.49532],[-74.67917,5.49531],[-74.67924,5.49529],[-74.6793,5.49527],[-74.67936,5.49523],[-74.67939,5.49518],[-74.67942,5.49512],[-74.67944,5.49505],[-74.67945,5.49497],[-74.67946,5.49489],[-74.67946,5.4948],[-74.67947,5.49471],[-74.67947,5.49454],[-74.67946,5.49427],[-74.67946,5.49418],[-74.67946,5.49409],[-74.67945,5.49401],[-74.67944,5.49393],[-74.67942,5.49386],[-74.67939,5.4938],[-74.67936,5.49375],[-74.67931,5.49371],[-74.67925,5.49368],[-74.67918,5.49367],[-74.6791,5.49365],[-74.67902,5.49365],[-74.6787,5.49363],[-74.67862,5.49362],[-74.67855,5.49361],[-74.67848,5.49359],[-74.67841,5.49357],[-74.67837,5.49354],[-74.67829,5.49348],[-74.67825,5.49345],[-74.67817,5.49343],[-74.67809,5.49341],[-74.67799,5.49339],[-74.67789,5.49338],[-74.67779,5.49338],[-74.6777,5.49337],[-74.67762,5.49337],[-74.67749,5.49338],[-74.67749,5.49336],[-74.67749,5.49332],[-74.67749,5.49326],[-74.6775,5.4932],[-74.67751,5.49312],[-74.67753,5.49304],[-74.67756,5.49296],[-74.67759,5.4929],[-74.67763,5.49285],[-74.67771,5.49276],[-74.67774,5.49271],[-74.6778,5.49263],[-74.67783,5.49259],[-74.67793,5.49249],[-74.67796,5.49245],[-74.67799,5.4924],[-74.67801,5.49234],[-74.67806,5.49223],[-74.67808,5.49217],[-74.67811,5.49212],[-74.67815,5.49208],[-74.6782,5.49205],[-74.67827,5.49202],[-74.67834,5.49201],[-74.67841,5.492],[-74.67849,5.49199],[-74.67874,5.49198],[-74.67881,5.49197],[-74.67889,5.49196],[-74.67896,5.49194],[-74.67902,5.49191],[-74.67907,5.49188],[-74.67911,5.49183],[-74.67913,5.49177],[-74.67915,5.4917],[-74.67916,5.49163],[-74.67917,5.49155],[-74.67917,5.49147],[-74.67917,5.49139],[-74.67917,5.49131],[-74.67916,5.49123],[-74.67915,5.49115],[-74.67913,5.49108],[-74.67911,5.49101],[-74.67909,5.49095],[-74.67906,5.49091],[-74.679,5.49082],[-74.67897,5.49078],[-74.67894,5.49072],[-74.67892,5.49065],[-74.67891,5.49058],[-74.6789,5.4905],[-74.67889,5.49042],[-74.67889,5.49034],[-74.67889,5.49026],[-74.67889,5.49018],[-74.6789,5.4901],[-74.67891,5.49003],[-74.67892,5.48995],[-74.67894,5.48989],[-74.67896,5.48983],[-74.67899,5.48978],[-74.67905,5.48971],[-74.67907,5.48966],[-74.6791,5.48961],[-74.67911,5.48955],[-74.67911,5.48949],[-74.67911,5.48943],[-74.67911,5.48937],[-74.67909,5.48932],[-74.67907,5.48926],[-74.67905,5.48922],[-74.67899,5.48915],[-74.67896,5.48911],[-74.67894,5.48905],[-74.67893,5.489],[-74.67892,5.48894],[-74.67892,5.48887],[-74.67892,5.48881],[-74.67894,5.48876],[-74.67896,5.4887],[-74.67898,5.48866],[-74.67904,5.48859],[-74.67907,5.48854],[-74.6791,5.48849],[-74.67912,5.48844],[-74.67916,5.48832],[-74.67919,5.48826],[-74.67921,5.48821],[-74.67925,5.48816],[-74.6793,5.48813],[-74.67935,5.4881],[-74.6794,5.48808],[-74.67952,5.48803],[-74.67958,5.48801],[-74.67963,5.48798],[-74.67967,5.48795],[-74.67975,5.48789],[-74.67979,5.48786],[-74.67984,5.48783],[-74.6799,5.48781],[-74.68008,5.48775],[-74.68014,5.48773],[-74.68019,5.48771],[-74.68023,5.48768],[-74.68029,5.48763],[-74.68033,5.48761],[-74.68037,5.4876],[-74.68041,5.48759],[-74.68045,5.4876],[-74.68049,5.48761],[-74.68052,5.48763],[-74.68059,5.48768],[-74.68063,5.48771],[-74.68069,5.48773],[-74.68076,5.48775],[-74.68084,5.48776],[-74.68091,5.48777],[-74.681,5.48778],[-74.68117,5.48779],[-74.68125,5.48779],[-74.68143,5.48779],[-74.68161,5.48779],[-74.68178,5.48778],[-74.68186,5.48778],[-74.68194,5.48777],[-74.68202,5.48775],[-74.68208,5.48773],[-74.68215,5.48771],[-74.68219,5.48768],[-74.68227,5.48762],[-74.68231,5.4876],[-74.68236,5.48758],[-74.68242,5.48756],[-74.68248,5.48756],[-74.68254,5.48756],[-74.6826,5.48756],[-74.68265,5.48757],[-74.6827,5.48759],[-74.68274,5.48762],[-74.68281,5.48767],[-74.68284,5.48769],[-74.68288,5.4877],[-74.68292,5.4877],[-74.68296,5.4877],[-74.68299,5.48768],[-74.68303,5.48766],[-74.68306,5.48763],[-74.68312,5.48757],[-74.68316,5.48754],[-74.68323,5.48748],[-74.68327,5.48745],[-74.68338,5.48735],[-74.68342,5.48732],[-74.68348,5.48729],[-74.68354,5.48727],[-74.68361,5.48725],[-74.68369,5.48724],[-74.68377,5.48724],[-74.68401,5.48722],[-74.68409,5.48721],[-74.68417,5.4872],[-74.68424,5.48719],[-74.68431,5.48717],[-74.68437,5.48714],[-74.68441,5.48712],[-74.68449,5.48706],[-74.68453,5.48703],[-74.68459,5.48701],[-74.68466,5.48699],[-74.68473,5.48697],[-74.68481,5.48696],[-74.68489,5.48696],[-74.68513,5.48694],[-74.68521,5.48693],[-74.68528,5.48692],[-74.68536,5.48691],[-74.68542,5.48689],[-74.68548,5.48687],[-74.68553,5.48684],[-74.68561,5.48678],[-74.68565,5.48676],[-74.68571,5.48673],[-74.68577,5.48671],[-74.68584,5.4867],[-74.68592,5.48668],[-74.68606,5.48666],[-74.68613,5.48665],[-74.6862,5.48664],[-74.68626,5.48662],[-74.68632,5.48659],[-74.68636,5.48656],[-74.6864,5.48653],[-74.68647,5.48646],[-74.68651,5.48642],[-74.68658,5.48636],[-74.68662,5.48633],[-74.68665,5.48629],[-74.68671,5.48621],[-74.68674,5.48617],[-74.68681,5.4861],[-74.68684,5.48606],[-74.68687,5.48602],[-74.6869,5.48596],[-74.68692,5.4859],[-74.68693,5.48583],[-74.68697,5.48561],[-74.68698,5.48554],[-74.687,5.48547],[-74.68703,5.48541],[-74.68706,5.48536],[-74.68711,5.48533],[-74.68717,5.4853],[-74.68723,5.48528],[-74.6873,5.48527],[-74.68737,5.48527],[-74.68744,5.48527],[-74.68751,5.48528],[-74.68758,5.4853],[-74.68763,5.48532],[-74.68768,5.48536],[-74.68772,5.4854],[-74.68775,5.48545],[-74.68778,5.48551],[-74.68782,5.48563],[-74.68784,5.48569],[-74.68787,5.48574],[-74.6879,5.48578],[-74.68794,5.48582],[-74.68801,5.48589],[-74.68808,5.48596],[-74.68811,5.486],[-74.68815,5.48603],[-74.6882,5.48606],[-74.68826,5.48609],[-74.68832,5.48611],[-74.68844,5.48615],[-74.68849,5.48617],[-74.68855,5.4862],[-74.68859,5.48623],[-74.68867,5.48629],[-74.68871,5.48632],[-74.68876,5.48634],[-74.68882,5.48635],[-74.68888,5.48636],[-74.68894,5.48636],[-74.689,5.48635],[-74.68905,5.48633],[-74.6891,5.48631],[-74.68914,5.48628],[-74.68918,5.48625],[-74.68925,5.48618],[-74.68928,5.48615],[-74.68936,5.48609],[-74.6894,5.48605],[-74.68943,5.48601],[-74.68949,5.48593],[-74.68953,5.4859],[-74.68956,5.48586],[-74.68964,5.4858],[-74.68968,5.48577],[-74.68978,5.48566],[-74.68982,5.48563],[-74.68987,5.4856],[-74.68993,5.48558],[-74.69011,5.48552],[-74.69016,5.48549],[-74.69022,5.48547],[-74.69026,5.48544],[-74.69034,5.48538],[-74.69038,5.48535],[-74.69044,5.48532],[-74.6905,5.4853],[-74.69057,5.48529],[-74.69079,5.48526],[-74.69086,5.48524],[-74.69093,5.48523],[-74.69099,5.48521],[-74.69105,5.48518],[-74.69109,5.48515],[-74.6912,5.48504],[-74.69124,5.48501],[-74.69132,5.48495],[-74.69136,5.48492],[-74.69142,5.48485],[-74.69146,5.48482],[-74.6915,5.48479],[-74.69155,5.48477],[-74.6916,5.48475],[-74.69166,5.48475],[-74.69172,5.48475],[-74.69177,5.48476],[-74.69182,5.48478],[-74.69187,5.48481],[-74.6919,5.48485],[-74.69193,5.4849],[-74.69201,5.48506],[-74.69203,5.48511],[-74.69207,5.48516],[-74.69211,5.48518],[-74.69217,5.4852],[-74.69222,5.48521],[-74.69228,5.48522],[-74.69234,5.48521],[-74.6924,5.4852],[-74.69245,5.48518],[-74.69249,5.48515],[-74.69257,5.48509],[-74.69261,5.48507],[-74.69266,5.48504],[-74.69272,5.48503],[-74.69278,5.48503],[-74.69283,5.48503],[-74.69289,5.48504],[-74.69294,5.48506],[-74.69298,5.48509],[-74.69302,5.48513],[-74.69304,5.48519],[-74.69306,5.48525],[-74.69307,5.48532],[-74.69311,5.48554],[-74.69312,5.48561],[-74.69314,5.48568],[-74.69316,5.48574],[-74.69319,5.48578],[-74.69325,5.48587],[-74.69328,5.48591],[-74.6933,5.48596],[-74.69333,5.48602],[-74.69337,5.48614],[-74.69339,5.4862],[-74.69342,5.48625],[-74.69346,5.48629],[-74.69351,5.48633],[-74.69357,5.48635],[-74.69364,5.48637],[-74.69372,5.48638],[-74.69379,5.48638],[-74.69387,5.48639],[-74.69395,5.48638],[-74.69404,5.48638],[-74.69411,5.48637],[-74.69419,5.48636],[-74.69426,5.48635],[-74.69433,5.48633],[-74.69439,5.4863],[-74.69443,5.48627],[-74.69451,5.48621],[-74.69455,5.48619],[-74.69461,5.48617],[-74.69466,5.48615],[-74.69472,5.48615],[-74.69478,5.48614],[-74.69484,5.48615],[-74.6949,5.48616],[-74.69495,5.48619],[-74.69499,5.48621],[-74.69507,5.48627],[-74.69511,5.4863],[-74.69517,5.48632],[-74.69524,5.48634],[-74.69532,5.48636],[-74.6954,5.48637],[-74.69548,5.48637],[-74.69556,5.48638],[-74.69565,5.48638],[-74.69582,5.48638],[-74.6959,5.48638],[-74.69598,5.48637],[-74.69607,5.48637],[-74.69614,5.48636],[-74.69622,5.48634],[-74.69629,5.48632],[-74.69635,5.4863],[-74.69639,5.48627],[-74.69647,5.48621],[-74.69651,5.48619],[-74.69656,5.48617],[-74.69662,5.48615],[-74.69668,5.48615],[-74.69674,5.48615],[-74.6968,5.48615],[-74.69686,5.48617],[-74.69691,5.48619],[-74.69695,5.48621],[-74.69703,5.48627],[-74.69707,5.4863],[-74.69712,5.48632],[-74.69718,5.48633],[-74.69724,5.48634],[-74.6973,5.48634],[-74.69736,5.48633],[-74.69741,5.48632],[-74.69746,5.4863],[-74.6975,5.48627],[-74.69754,5.48624],[-74.69761,5.48617],[-74.69764,5.48614],[-74.69772,5.48608],[-74.69776,5.48604],[-74.69779,5.48601],[-74.69785,5.48593],[-74.69788,5.48589],[-74.69798,5.48578],[-74.69802,5.48574],[-74.69804,5.48569],[-74.69807,5.48563],[-74.69811,5.48551],[-74.69813,5.48546],[-74.69816,5.48541],[-74.6982,5.48536],[-74.69824,5.48533],[-74.69829,5.4853],[-74.69835,5.48527],[-74.69846,5.48523],[-74.69852,5.48521],[-74.69857,5.48518],[-74.69861,5.48514],[-74.69871,5.48504],[-74.69875,5.48501],[-74.69883,5.48495],[-74.69886,5.48491],[-74.6989,5.48488],[-74.69896,5.4848],[-74.69899,5.48476],[-74.69903,5.48473],[-74.69911,5.48467],[-74.69914,5.48464],[-74.69921,5.48457],[-74.69925,5.48453],[-74.69929,5.4845],[-74.69935,5.48448],[-74.69942,5.48446],[-74.69949,5.48444],[-74.69956,5.48443],[-74.69964,5.48443],[-74.69988,5.48441],[-74.69996,5.4844],[-74.70004,5.48439],[-74.70011,5.48438],[-74.70018,5.48436],[-74.70024,5.48434],[-74.70028,5.48431],[-74.70036,5.48425],[-74.70041,5.48422],[-74.70046,5.4842],[-74.70053,5.48418],[-74.7006,5.48416],[-74.70067,5.48415],[-74.70081,5.48413],[-74.70089,5.48411],[-74.70095,5.4841],[-74.70102,5.48408],[-74.70108,5.48405],[-74.70112,5.48402],[-74.7012,5.48396],[-74.70124,5.48394],[-74.7013,5.48391],[-74.70136,5.48389],[-74.70143,5.48388],[-74.7015,5.48387],[-74.70158,5.48387],[-74.70165,5.48387],[-74.70172,5.48388],[-74.70179,5.48389],[-74.70186,5.48391],[-74.70192,5.48393],[-74.70196,5.48396],[-74.70204,5.48402],[-74.70208,5.48405],[-74.70214,5.48407],[-74.70221,5.48409],[-74.70228,5.48411],[-74.70235,5.48412],[-74.7025,5.48414],[-74.70257,5.48415],[-74.70264,5.48417],[-74.7027,5.48419],[-74.70276,5.48422],[-74.7028,5.48425],[-74.70283,5.48428],[-74.7029,5.48435],[-74.70296,5.48441],[-74.70299,5.48444],[-74.70301,5.48447],[-74.70303,5.48451],[-74.70303,5.48455],[-74.70303,5.48459],[-74.70301,5.48463],[-74.70299,5.48467],[-74.70294,5.48474],[-74.70292,5.48477],[-74.7029,5.48483],[-74.70288,5.48488],[-74.70288,5.48494],[-74.70288,5.48501],[-74.70288,5.48507],[-74.70289,5.48512],[-74.70291,5.48518],[-74.70294,5.48522],[-74.70299,5.4853],[-74.70302,5.48535],[-74.70304,5.4854],[-74.70306,5.48547],[-74.70308,5.48554],[-74.70311,5.48576],[-74.70313,5.48583],[-74.70315,5.4859],[-74.70317,5.48595],[-74.70321,5.486],[-74.70325,5.48603],[-74.7033,5.48605],[-74.70336,5.48606],[-74.70342,5.48607],[-74.70347,5.48606],[-74.70353,5.48605],[-74.70358,5.48602],[-74.70362,5.48599],[-74.70372,5.48589],[-74.70376,5.48586],[-74.70385,5.4858],[-74.70388,5.48577],[-74.70392,5.48573],[-74.70399,5.48566],[-74.70403,5.48563],[-74.70408,5.48559],[-74.70413,5.48557],[-74.70425,5.48552],[-74.70431,5.4855],[-74.70436,5.48547],[-74.7044,5.48544],[-74.70444,5.48539],[-74.70447,5.48534],[-74.70454,5.48517],[-74.70457,5.48512],[-74.7046,5.48508],[-74.70465,5.48504],[-74.7047,5.48501],[-74.70476,5.48499],[-74.70487,5.48495],[-74.70493,5.48492],[-74.70498,5.48489],[-74.70502,5.48486],[-74.70512,5.48476],[-74.70516,5.48473],[-74.70524,5.48467],[-74.70528,5.48464],[-74.70531,5.4846],[-74.70537,5.48452],[-74.7054,5.48448],[-74.70547,5.48441],[-74.7055,5.48437],[-74.70553,5.48433],[-74.70556,5.48427],[-74.70558,5.4842],[-74.70559,5.48413],[-74.7056,5.48405],[-74.7056,5.48397],[-74.70562,5.48373],[-74.70562,5.48365],[-74.70564,5.48357],[-74.70565,5.48351],[-74.70568,5.48344],[-74.70571,5.48339],[-74.70576,5.48336],[-74.70582,5.48333],[-74.70589,5.48331],[-74.70597,5.4833],[-74.70605,5.48329],[-74.70613,5.48329],[-74.70622,5.48329],[-74.70631,5.48329],[-74.70648,5.48329],[-74.70656,5.4833],[-74.70664,5.48331],[-74.70672,5.48332],[-74.7068,5.48333],[-74.70686,5.48335],[-74.70692,5.48338],[-74.70696,5.4834],[-74.70704,5.48346],[-74.70707,5.48348],[-74.70711,5.48349],[-74.70715,5.48349],[-74.70719,5.48349],[-74.70723,5.48348],[-74.70727,5.48346],[-74.70734,5.48341],[-74.70738,5.48339],[-74.70744,5.48337],[-74.7075,5.48335],[-74.70757,5.48333],[-74.70779,5.4833],[-74.70786,5.48328],[-74.70792,5.48326],[-74.70798,5.48324],[-74.70803,5.4832],[-74.70806,5.48315],[-74.70808,5.48309],[-74.7081,5.48303],[-74.70811,5.48296],[-74.70811,5.48288],[-74.70811,5.48281],[-74.7081,5.48274],[-74.70809,5.48267],[-74.70807,5.4826],[-74.70804,5.48254],[-74.70801,5.4825],[-74.70795,5.48242],[-74.70792,5.48238],[-74.7079,5.48233],[-74.70789,5.48227],[-74.70788,5.48221],[-74.70788,5.48215],[-74.70789,5.48209],[-74.70791,5.48204],[-74.70794,5.482],[-74.70798,5.48196],[-74.70803,5.48194],[-74.70808,5.48191],[-74.7082,5.48187],[-74.70826,5.48185],[-74.70831,5.48182],[-74.70835,5.48179],[-74.70845,5.48168],[-74.70849,5.48165],[-74.70857,5.48159],[-74.70861,5.48156],[-74.70865,5.48152],[-74.70871,5.48144],[-74.70874,5.48141],[-74.70878,5.48137],[-74.70886,5.48131],[-74.7089,5.48128],[-74.70893,5.48124],[-74.70899,5.48117],[-74.70903,5.48113],[-74.70906,5.4811],[-74.70914,5.48103],[-74.70918,5.481],[-74.70921,5.48096],[-74.70928,5.48088],[-74.70931,5.48084],[-74.70938,5.48078],[-74.70941,5.48074],[-74.70944,5.4807],[-74.70946,5.48065],[-74.70948,5.48059],[-74.70948,5.48053],[-74.70948,5.48047],[-74.70948,5.48041],[-74.70946,5.48036],[-74.70944,5.48031],[-74.70941,5.48027],[-74.70937,5.48024],[-74.7093,5.48017],[-74.70923,5.4801],[-74.70919,5.48006],[-74.70915,5.48003],[-74.7091,5.48],[-74.70904,5.47998],[-74.70892,5.47993],[-74.70887,5.47991],[-74.70882,5.47988],[-74.70877,5.47985],[-74.70874,5.4798],[-74.70871,5.47974],[-74.7087,5.47967],[-74.70869,5.4796],[-74.70869,5.47953],[-74.70869,5.47946],[-74.7087,5.47939],[-74.70871,5.47932],[-74.70873,5.47925],[-74.70875,5.4792],[-74.70878,5.47915],[-74.70884,5.47907],[-74.70886,5.47903],[-74.70888,5.47898],[-74.7089,5.47892],[-74.7089,5.47886],[-74.7089,5.4788],[-74.7089,5.47874],[-74.70888,5.47868],[-74.70886,5.47863],[-74.70884,5.47859],[-74.70878,5.47851],[-74.70875,5.47847],[-74.70873,5.47841],[-74.70871,5.47835],[-74.7087,5.47828],[-74.70869,5.47821],[-74.70869,5.47813],[-74.70869,5.47806],[-74.70869,5.47799],[-74.7087,5.47792],[-74.70872,5.47785],[-74.70875,5.4778],[-74.70877,5.47775],[-74.70883,5.47767],[-74.70886,5.47763],[-74.70889,5.47758],[-74.70891,5.47752],[-74.70897,5.47734],[-74.709,5.47728],[-74.70902,5.47723],[-74.70905,5.47719],[-74.70911,5.47711],[-74.70914,5.47707],[-74.70917,5.47702],[-74.70919,5.47696],[-74.70925,5.47678],[-74.70928,5.47672],[-74.7093,5.47667],[-74.70934,5.47663],[-74.70937,5.4766],[-74.70944,5.47653],[-74.70951,5.47646],[-74.70955,5.47642],[-74.70958,5.47639],[-74.70963,5.47636],[-74.70969,5.47633],[-74.70987,5.47627],[-74.70993,5.47625],[-74.70998,5.47622],[-74.71002,5.47619],[-74.7101,5.47613],[-74.71014,5.47611],[-74.7102,5.47608],[-74.71025,5.47607],[-74.71032,5.47606],[-74.71038,5.47606],[-74.71044,5.47607],[-74.71049,5.47609],[-74.71054,5.47611],[-74.71058,5.47614],[-74.71062,5.47617],[-74.71068,5.47624],[-74.71075,5.47631],[-74.71079,5.47635],[-74.71082,5.47639],[-74.71084,5.47645],[-74.71086,5.47651],[-74.71088,5.47658],[-74.71091,5.4768],[-74.71093,5.47687],[-74.71094,5.47694],[-74.71097,5.477],[-74.711,5.47705],[-74.71104,5.47709],[-74.71109,5.47712],[-74.71115,5.47715],[-74.71127,5.47719],[-74.71132,5.47722],[-74.71137,5.47725],[-74.71141,5.47728],[-74.71148,5.47735],[-74.71151,5.47738],[-74.71155,5.47742],[-74.71163,5.47747],[-74.71167,5.4775],[-74.71176,5.47759],[-74.7118,5.47762],[-74.71183,5.47763],[-74.71187,5.47763],[-74.71191,5.47763],[-74.71195,5.47762],[-74.71199,5.4776],[-74.71206,5.47755],[-74.7121,5.47752],[-74.71215,5.4775],[-74.71222,5.47748],[-74.71229,5.47747],[-74.7125,5.47743],[-74.71258,5.47742],[-74.71264,5.4774],[-74.71271,5.47738],[-74.71276,5.47735],[-74.7128,5.47732],[-74.71291,5.47721],[-74.71295,5.47718],[-74.71303,5.47712],[-74.71307,5.47709],[-74.71317,5.47698],[-74.71321,5.47695],[-74.71326,5.47692],[-74.71331,5.4769],[-74.71349,5.47684],[-74.71355,5.47681],[-74.7136,5.47679],[-74.71364,5.47676],[-74.71372,5.47669],[-74.71376,5.47667],[-74.71382,5.47664],[-74.71389,5.47662],[-74.71397,5.47661],[-74.71405,5.4766],[-74.71413,5.47659],[-74.7143,5.47658],[-74.71456,5.47658],[-74.71474,5.47658],[-74.71491,5.47659],[-74.71499,5.4766],[-74.71507,5.47661],[-74.71515,5.47662],[-74.71521,5.47664],[-74.71527,5.47667],[-74.71531,5.4767],[-74.71535,5.47674],[-74.71542,5.47681],[-74.71546,5.47684],[-74.71554,5.4769],[-74.71558,5.47694],[-74.71565,5.47701],[-74.71568,5.47704],[-74.71572,5.47707],[-74.71578,5.4771],[-74.71584,5.47712],[-74.71591,5.47713],[-74.71598,5.47714],[-74.71606,5.47714],[-74.71613,5.47714],[-74.7162,5.47713],[-74.71627,5.47712],[-74.71633,5.4771],[-74.71639,5.47708],[-74.71643,5.47705],[-74.71646,5.47701],[-74.71653,5.47694],[-74.71657,5.47691],[-74.71665,5.47685],[-74.71669,5.47681],[-74.71672,5.47677],[-74.71678,5.47669],[-74.71681,5.47665],[-74.71691,5.47654],[-74.71694,5.4765],[-74.71697,5.47645],[-74.717,5.47639],[-74.71704,5.47627],[-74.71706,5.47621],[-74.71709,5.47616],[-74.71713,5.47612],[-74.71718,5.47608],[-74.71724,5.47606],[-74.7173,5.47605],[-74.71737,5.47604],[-74.71744,5.47603],[-74.71752,5.47604],[-74.71758,5.47605],[-74.71765,5.47606],[-74.71771,5.47609],[-74.71776,5.47612],[-74.7178,5.47617],[-74.71783,5.47622],[-74.71785,5.47628],[-74.71789,5.4764],[-74.71792,5.47646],[-74.71795,5.47651],[-74.71798,5.47655],[-74.71802,5.47659],[-74.71809,5.47665],[-74.71815,5.47672],[-74.71817,5.47675],[-74.71821,5.47677],[-74.71824,5.47679],[-74.71827,5.47679],[-74.71831,5.47678],[-74.71834,5.47676],[-74.71837,5.47673],[-74.71839,5.47668],[-74.71841,5.47663],[-74.71845,5.47651],[-74.71847,5.47646],[-74.7185,5.4764],[-74.71853,5.47636],[-74.71859,5.47628],[-74.71861,5.47624],[-74.71864,5.47618],[-74.71866,5.47611],[-74.71867,5.47604],[-74.7187,5.47582],[-74.71872,5.47574],[-74.71873,5.47568],[-74.71875,5.47561],[-74.71878,5.47556],[-74.71881,5.47552],[-74.71884,5.47548],[-74.71892,5.47541],[-74.71898,5.47534],[-74.71902,5.4753],[-74.71906,5.47527],[-74.71911,5.47524],[-74.71916,5.47522],[-74.71928,5.47518],[-74.71933,5.47515],[-74.71938,5.47512],[-74.71943,5.47509],[-74.71946,5.47504],[-74.71948,5.47498],[-74.7195,5.47491],[-74.71952,5.47484],[-74.71955,5.47462],[-74.71957,5.47455],[-74.71958,5.47449],[-74.71961,5.47443],[-74.71964,5.47439],[-74.71968,5.47436],[-74.71975,5.47429],[-74.71981,5.47422],[-74.71985,5.47418],[-74.71989,5.47415],[-74.71994,5.47412],[-74.72001,5.4741],[-74.72008,5.47409],[-74.72015,5.47408],[-74.72037,5.47405],[-74.72044,5.47403],[-74.7205,5.47401],[-74.72056,5.47399],[-74.7206,5.47396],[-74.72068,5.4739],[-74.72073,5.47388],[-74.72079,5.47385],[-74.72086,5.47384],[-74.72093,5.47382],[-74.72101,5.47381],[-74.72133,5.47379],[-74.72141,5.47378],[-74.72148,5.47377],[-74.72155,5.47375],[-74.72161,5.47373],[-74.72166,5.47369],[-74.7217,5.47365],[-74.72173,5.47359],[-74.72174,5.47352],[-74.72176,5.47345],[-74.7218,5.47324],[-74.72181,5.47317],[-74.72183,5.4731],[-74.72186,5.47304],[-74.72188,5.473],[-74.72194,5.47292],[-74.72197,5.47288],[-74.72199,5.47283],[-74.722,5.47277],[-74.72201,5.47271],[-74.72201,5.47264],[-74.722,5.47258],[-74.72198,5.47253],[-74.72196,5.47247],[-74.72194,5.47243],[-74.72188,5.47236],[-74.72185,5.47232],[-74.72182,5.47226],[-74.7218,5.47221],[-74.72176,5.47208],[-74.72174,5.47203],[-74.72171,5.47197],[-74.72168,5.47192],[-74.72165,5.47188],[-74.72161,5.47185],[-74.72154,5.47178],[-74.72147,5.47171],[-74.72143,5.47168],[-74.72139,5.47165],[-74.72134,5.47162],[-74.72129,5.47159],[-74.72117,5.47155],[-74.72111,5.47153],[-74.72106,5.4715],[-74.72102,5.47146],[-74.72098,5.47141],[-74.72096,5.47135],[-74.72094,5.47127],[-74.72093,5.4712],[-74.72092,5.47111],[-74.72092,5.47103],[-74.72092,5.47085],[-74.72092,5.47041],[-74.72092,5.47023],[-74.72092,5.47005],[-74.72091,5.46997],[-74.7209,5.46989],[-74.72089,5.46981],[-74.72087,5.46975],[-74.72084,5.46969],[-74.72081,5.46964],[-74.72078,5.46961],[-74.72071,5.46954],[-74.72068,5.4695],[-74.72061,5.46942],[-74.72058,5.46939],[-74.72054,5.46935],[-74.72046,5.4693],[-74.72042,5.46927],[-74.72031,5.46916],[-74.72027,5.46913],[-74.72022,5.4691],[-74.72016,5.46908],[-74.72005,5.46904],[-74.71999,5.46901],[-74.71994,5.46898],[-74.71989,5.46895],[-74.71986,5.4689],[-74.71984,5.46884],[-74.71982,5.46877],[-74.71981,5.4687],[-74.71981,5.46863],[-74.71981,5.46856],[-74.71982,5.46849],[-74.71983,5.46842],[-74.71985,5.46836],[-74.71988,5.4683],[-74.71991,5.46826],[-74.71995,5.46822],[-74.72002,5.46815],[-74.72005,5.46811],[-74.72011,5.46803],[-74.72015,5.46799],[-74.72022,5.46792],[-74.72025,5.46789],[-74.72028,5.46785],[-74.7203,5.4678],[-74.72032,5.46774],[-74.72033,5.46768],[-74.72033,5.46762],[-74.72032,5.46756],[-74.72031,5.4675],[-74.72028,5.46745],[-74.72026,5.46741],[-74.72022,5.46738],[-74.72015,5.46731],[-74.72012,5.46727],[-74.72006,5.46719],[-74.72003,5.46715],[-74.71999,5.46712],[-74.71991,5.46706],[-74.71987,5.46703],[-74.71981,5.46697],[-74.71978,5.46694],[-74.71974,5.46692],[-74.7197,5.46691],[-74.71966,5.4669],[-74.71963,5.46691],[-74.71959,5.46692],[-74.71955,5.46694],[-74.71949,5.46698],[-74.71946,5.467],[-74.71942,5.46701],[-74.71938,5.46701],[-74.71934,5.46701],[-74.71931,5.467],[-74.71927,5.46697],[-74.71924,5.46695],[-74.71918,5.46688],[-74.71911,5.46682],[-74.71908,5.46678],[-74.71904,5.46675],[-74.71902,5.4667],[-74.71899,5.46664],[-74.71893,5.46646],[-74.71891,5.4664],[-74.71889,5.46634],[-74.71886,5.4663],[-74.7188,5.46622],[-74.71877,5.46618],[-74.71874,5.46612],[-74.71873,5.46606],[-74.71871,5.46599],[-74.71867,5.46577],[-74.71866,5.4657],[-74.71864,5.46563],[-74.71862,5.46557],[-74.71858,5.46552],[-74.71854,5.46549],[-74.71849,5.46546],[-74.71843,5.46543],[-74.71831,5.46539],[-74.71826,5.46537],[-74.71821,5.46534],[-74.71817,5.46531],[-74.71813,5.46527],[-74.71807,5.4652],[-74.718,5.46514],[-74.71797,5.46511],[-74.71795,5.46508],[-74.71794,5.46505],[-74.71793,5.46501],[-74.71793,5.46497],[-74.71794,5.46493],[-74.71796,5.4649],[-74.718,5.46484],[-74.71802,5.46481],[-74.71803,5.46477],[-74.71803,5.46473],[-74.71803,5.46469],[-74.71802,5.46465],[-74.718,5.46462],[-74.71794,5.46454],[-74.71792,5.4645],[-74.7179,5.46445],[-74.71788,5.46438],[-74.71786,5.46431],[-74.71786,5.46423],[-74.71785,5.46415],[-74.71785,5.46407],[-74.71784,5.46399],[-74.71785,5.46391],[-74.71785,5.46383],[-74.71786,5.46375],[-74.71787,5.46368],[-74.71789,5.46361],[-74.71792,5.46355],[-74.71795,5.46351],[-74.71799,5.46348],[-74.71806,5.46341],[-74.71813,5.46333],[-74.71816,5.4633],[-74.7182,5.46327],[-74.71825,5.46324],[-74.71831,5.46322],[-74.71849,5.46316],[-74.71855,5.46314],[-74.7186,5.46311],[-74.71864,5.46308],[-74.71875,5.46298],[-74.71879,5.46295],[-74.71887,5.46289],[-74.71891,5.46285],[-74.71894,5.46282],[-74.719,5.46274],[-74.71903,5.4627],[-74.7191,5.46263],[-74.71913,5.4626],[-74.71916,5.46256],[-74.71919,5.46249],[-74.71921,5.46242],[-74.71923,5.46235],[-74.71923,5.46227],[-74.71924,5.46218],[-74.71924,5.4621],[-74.71924,5.46201],[-74.71925,5.46183],[-74.71923,5.46083],[-74.71923,5.46055],[-74.71924,5.46038],[-74.71924,5.46029],[-74.71925,5.46021],[-74.71926,5.46013],[-74.71928,5.46006],[-74.7193,5.46],[-74.71934,5.45994],[-74.71938,5.4599],[-74.71943,5.45988],[-74.7196,5.4598],[-74.71965,5.45977],[-74.7197,5.45974],[-74.71973,5.45968],[-74.71976,5.45962],[-74.71978,5.45955],[-74.71979,5.45947],[-74.7198,5.4594],[-74.7198,5.45931],[-74.7198,5.45923],[-74.7198,5.45906],[-74.7198,5.45897],[-74.7198,5.45889],[-74.71979,5.45881],[-74.71978,5.45873],[-74.71977,5.45866],[-74.71974,5.45859],[-74.71971,5.45853],[-74.71968,5.45849],[-74.71965,5.45845],[-74.71958,5.45838],[-74.71955,5.45835],[-74.71949,5.45827],[-74.71945,5.45823],[-74.71935,5.45812],[-74.71932,5.45808],[-74.71929,5.45803],[-74.71927,5.45796],[-74.71925,5.45788],[-74.71924,5.45781],[-74.71923,5.45772],[-74.71923,5.45764],[-74.71923,5.45746],[-74.71923,5.4572],[-74.71923,5.45621],[-74.71922,5.45622],[-74.7192,5.45621],[-74.71916,5.4562],[-74.71912,5.45618],[-74.71908,5.45615],[-74.71899,5.45607],[-74.71893,5.45604],[-74.71885,5.456],[-74.71877,5.45597],[-74.71868,5.45596],[-74.71859,5.45595],[-74.71851,5.45594],[-74.71833,5.45594],[-74.71789,5.45594],[-74.71772,5.45594],[-74.71764,5.45593],[-74.71756,5.45592],[-74.71749,5.45591],[-74.71742,5.45589],[-74.71736,5.45586],[-74.71732,5.45583],[-74.71728,5.45579],[-74.71722,5.45572],[-74.71718,5.45569],[-74.7171,5.45563],[-74.71706,5.4556],[-74.71703,5.45556],[-74.71697,5.45548],[-74.71694,5.45545],[-74.7169,5.45541],[-74.71682,5.45535],[-74.71679,5.45532],[-74.71675,5.45528],[-74.71669,5.4552],[-74.71666,5.45516],[-74.71662,5.45513],[-74.71655,5.45507],[-74.71651,5.45503],[-74.71648,5.455],[-74.71642,5.45492],[-74.71638,5.45488],[-74.71635,5.45485],[-74.71627,5.45479],[-74.71624,5.45475],[-74.7162,5.45472],[-74.71614,5.45464],[-74.71611,5.4546],[-74.71607,5.45457],[-74.71599,5.45451],[-74.71595,5.45448],[-74.71588,5.45441],[-74.71585,5.45437],[-74.71581,5.45434],[-74.71575,5.45432],[-74.71569,5.45429],[-74.71562,5.45428],[-74.71555,5.45427],[-74.7154,5.45424],[-74.71533,5.45423],[-74.71526,5.45422],[-74.7152,5.4542],[-74.71514,5.45417],[-74.7151,5.45414],[-74.71502,5.45408],[-74.71497,5.45406],[-74.71491,5.45403],[-74.71484,5.45401],[-74.71477,5.454],[-74.71469,5.45399],[-74.71461,5.45398],[-74.71453,5.45398],[-74.71445,5.45398],[-74.71437,5.45398],[-74.71429,5.45399],[-74.71422,5.454],[-74.71415,5.45401],[-74.71408,5.45403],[-74.71402,5.45406],[-74.71398,5.45409],[-74.71395,5.45413],[-74.71388,5.4542],[-74.71384,5.45423],[-74.71376,5.45429],[-74.71372,5.45432],[-74.71362,5.45443],[-74.71358,5.45446],[-74.71353,5.45449],[-74.71347,5.45452],[-74.71341,5.45454],[-74.71329,5.45458],[-74.71324,5.4546],[-74.71318,5.45463],[-74.71314,5.45466],[-74.71307,5.45472],[-74.71303,5.45474],[-74.71297,5.45476],[-74.71292,5.45478],[-74.71286,5.45478],[-74.7128,5.45478],[-74.71274,5.45478],[-74.71268,5.45477],[-74.71263,5.45475],[-74.71259,5.45472],[-74.71252,5.45467],[-74.71249,5.45465],[-74.71245,5.45464],[-74.71241,5.45464],[-74.71237,5.45464],[-74.71233,5.45465],[-74.7123,5.45467],[-74.71223,5.45473],[-74.71219,5.45475],[-74.71213,5.45477],[-74.71206,5.45479],[-74.71199,5.4548],[-74.71191,5.45481],[-74.71184,5.45482],[-74.71176,5.45482],[-74.71167,5.45482],[-74.71159,5.45482],[-74.71151,5.45482],[-74.71144,5.45481],[-74.71137,5.45479],[-74.7113,5.45478],[-74.71124,5.45475],[-74.71119,5.45472],[-74.71111,5.45466],[-74.71107,5.45463],[-74.71101,5.45461],[-74.71095,5.45459],[-74.71088,5.45457],[-74.71059,5.45453],[-74.71052,5.45451],[-74.71046,5.45449],[-74.7104,5.45447],[-74.71036,5.45444],[-74.71028,5.45438],[-74.71024,5.45435],[-74.71019,5.45432],[-74.71013,5.4543],[-74.70995,5.45424],[-74.70989,5.45422],[-74.70984,5.45419],[-74.7098,5.45416],[-74.70972,5.4541],[-74.70968,5.45407],[-74.70962,5.45405],[-74.70955,5.45403],[-74.70948,5.45401],[-74.7094,5.454],[-74.70933,5.454],[-74.70908,5.45398],[-74.70901,5.45397],[-74.70893,5.45397],[-74.70886,5.45395],[-74.70879,5.45393],[-74.70873,5.45391],[-74.70869,5.45388],[-74.70861,5.45382],[-74.70856,5.4538],[-74.7085,5.45377],[-74.70844,5.45375],[-74.70837,5.45374],[-74.70808,5.45369],[-74.70801,5.45368],[-74.70795,5.45366],[-74.70789,5.45363],[-74.70785,5.45361],[-74.70777,5.45354],[-74.70773,5.45351],[-74.70768,5.45349],[-74.70762,5.45346],[-74.70744,5.4534],[-74.70739,5.45338],[-74.70734,5.45335],[-74.7073,5.45332],[-74.7072,5.45321],[-74.70716,5.45318],[-74.70708,5.45312],[-74.70704,5.45309],[-74.70697,5.45302],[-74.70693,5.45298],[-74.70689,5.45295],[-74.70683,5.45293],[-74.70677,5.45291],[-74.70669,5.45289],[-74.70661,5.45288],[-74.70653,5.45287],[-74.70645,5.45287],[-74.70636,5.45287],[-74.70619,5.45287],[-74.70592,5.45287],[-74.70575,5.45288],[-74.70567,5.45289],[-74.70559,5.4529],[-74.70552,5.45291],[-74.70545,5.45293],[-74.70539,5.45296],[-74.70534,5.45299],[-74.70527,5.45305],[-74.70522,5.45307],[-74.70516,5.4531],[-74.70509,5.45312],[-74.70502,5.45313],[-74.70494,5.45314],[-74.70485,5.45315],[-74.70468,5.45316],[-74.70451,5.45316],[-74.70406,5.45315],[-74.70389,5.45316],[-74.7038,5.45316],[-74.70372,5.45317],[-74.70364,5.45318],[-74.70356,5.45319],[-74.70349,5.45321],[-74.70343,5.45324],[-74.70339,5.45327],[-74.70336,5.4533],[-74.70329,5.45337],[-74.70325,5.4534],[-74.70317,5.45346],[-74.70314,5.4535],[-74.7031,5.45353],[-74.70304,5.45361],[-74.70301,5.45365],[-74.70298,5.45369],[-74.7029,5.45375],[-74.70286,5.45378],[-74.70283,5.45382],[-74.70277,5.4539],[-74.70274,5.45394],[-74.7027,5.45397],[-74.70263,5.45403],[-74.70259,5.45407],[-74.70252,5.45414],[-74.70248,5.45417],[-74.70244,5.4542],[-74.70238,5.45423],[-74.70231,5.45425],[-74.70224,5.45426],[-74.70216,5.45427],[-74.70208,5.45428],[-74.7019,5.45429],[-74.70173,5.45429],[-74.70146,5.45429],[-74.70119,5.45428],[-74.70102,5.45427],[-74.70094,5.45427],[-74.70086,5.45426],[-74.70078,5.45424],[-74.70071,5.45422],[-74.70065,5.45419],[-74.70061,5.45417],[-74.70053,5.45411],[-74.70049,5.45408],[-74.70043,5.45405],[-74.70036,5.45403],[-74.70029,5.45402],[-74.70021,5.45401],[-74.70013,5.454],[-74.70005,5.454],[-74.69997,5.454],[-74.69989,5.454],[-74.69981,5.45401],[-74.69974,5.45401],[-74.69966,5.45403],[-74.6996,5.45405],[-74.69954,5.45407],[-74.69949,5.4541],[-74.69942,5.45416],[-74.69937,5.45419],[-74.69932,5.45422],[-74.69926,5.45424],[-74.69909,5.4543],[-74.69903,5.45433],[-74.69898,5.45436],[-74.69894,5.45439],[-74.69884,5.4545],[-74.6988,5.45453],[-74.69872,5.45459],[-74.69868,5.45462],[-74.69858,5.45473],[-74.69854,5.45476],[-74.69849,5.45479],[-74.69844,5.45481],[-74.69826,5.45487],[-74.6982,5.4549],[-74.69815,5.45493],[-74.69811,5.45495],[-74.69803,5.45502],[-74.69799,5.45505],[-74.69793,5.45507],[-74.69786,5.45509],[-74.69778,5.45511],[-74.6977,5.45511],[-74.69762,5.45512],[-74.69754,5.45512],[-74.69746,5.45513],[-74.69729,5.45513],[-74.6972,5.45512],[-74.69712,5.45512],[-74.69704,5.45511],[-74.69696,5.4551],[-74.69688,5.45509],[-74.69681,5.45507],[-74.69675,5.45505],[-74.69671,5.45502],[-74.69663,5.45496],[-74.69659,5.45493],[-74.69653,5.45491],[-74.69646,5.45489],[-74.69639,5.45487],[-74.69632,5.45486],[-74.69617,5.45484],[-74.6961,5.45483],[-74.69604,5.45481],[-74.69597,5.45479],[-74.69592,5.45476],[-74.69588,5.45473],[-74.69584,5.4547],[-74.69578,5.45462],[-74.6957,5.45456],[-74.69567,5.45452],[-74.69564,5.45448],[-74.69561,5.45443],[-74.69559,5.45437],[-74.69553,5.45419],[-74.69551,5.45414],[-74.69548,5.45408],[-74.69545,5.45404],[-74.69541,5.45401],[-74.69534,5.45394],[-74.69527,5.45387],[-74.69524,5.45383],[-74.6952,5.4538],[-74.69514,5.45378],[-74.69508,5.45375],[-74.69501,5.45374],[-74.69494,5.45373],[-74.69479,5.4537],[-74.69472,5.45369],[-74.69465,5.45368],[-74.69459,5.45366],[-74.69453,5.45363],[-74.69448,5.4536],[-74.69441,5.45355],[-74.69436,5.45352],[-74.69431,5.4535],[-74.69425,5.45349],[-74.69419,5.45348],[-74.69413,5.45348],[-74.69407,5.45349],[-74.69401,5.4535],[-74.69396,5.45352],[-74.69392,5.45355],[-74.69384,5.45361],[-74.6938,5.45363],[-74.69375,5.45366],[-74.69369,5.45368],[-74.69351,5.45375],[-74.69346,5.45377],[-74.69341,5.4538],[-74.69337,5.45383],[-74.69333,5.45387],[-74.69327,5.45394],[-74.6932,5.45401],[-74.69316,5.45405],[-74.69313,5.45409],[-74.6931,5.45414],[-74.69308,5.45419],[-74.69302,5.45438],[-74.693,5.45444],[-74.69297,5.45449],[-74.69294,5.45453],[-74.69288,5.45461],[-74.69285,5.45466],[-74.69283,5.45471],[-74.6928,5.45477],[-74.69276,5.45489],[-74.69274,5.45494],[-74.69271,5.45499],[-74.69267,5.45504],[-74.69263,5.45507],[-74.69258,5.45509],[-74.69252,5.4551],[-74.69246,5.4551],[-74.6924,5.45509],[-74.69235,5.45508],[-74.6923,5.45506],[-74.69226,5.45503],[-74.69223,5.45499],[-74.69216,5.45492],[-74.69208,5.45485],[-74.69205,5.45482],[-74.69202,5.45478],[-74.69199,5.45473],[-74.69196,5.45467],[-74.6919,5.45449],[-74.69188,5.45443],[-74.69186,5.45437],[-74.69183,5.45433],[-74.69176,5.45426],[-74.69173,5.45421],[-74.69171,5.45416],[-74.69169,5.4541],[-74.69163,5.45392],[-74.69161,5.45386],[-74.69158,5.45381],[-74.69155,5.45377],[-74.69149,5.45369],[-74.69146,5.45365],[-74.69144,5.45359],[-74.69142,5.45352],[-74.6914,5.45345],[-74.69139,5.45338],[-74.69137,5.45324],[-74.69136,5.45316],[-74.69134,5.4531],[-74.69132,5.45303],[-74.6913,5.45298],[-74.69127,5.45294],[-74.69116,5.45283],[-74.69113,5.45279],[-74.69108,5.45271],[-74.69104,5.45267],[-74.69101,5.45263],[-74.69094,5.45257],[-74.69091,5.45253],[-74.69088,5.45248],[-74.69085,5.45242],[-74.69081,5.4523],[-74.69079,5.45225],[-74.69076,5.4522],[-74.69073,5.45215],[-74.69068,5.45211],[-74.69063,5.45209],[-74.69058,5.45206],[-74.69046,5.45202],[-74.6904,5.452],[-74.69035,5.45197],[-74.6903,5.45193],[-74.69026,5.45188],[-74.69017,5.45179],[-74.69008,5.4517],[-74.69005,5.45165],[-74.69002,5.45161],[-74.69,5.45157],[-74.68999,5.45154],[-74.68998,5.45151],[-74.68999,5.4515],[-74.68971,5.4515],[-74.68971,5.45148],[-74.68971,5.45144],[-74.68971,5.45139],[-74.6897,5.45132],[-74.68969,5.45124],[-74.68967,5.45116],[-74.68964,5.45108],[-74.68961,5.45102],[-74.68951,5.45086],[-74.68949,5.4508],[-74.68947,5.45074],[-74.68943,5.45062],[-74.68941,5.45056],[-74.68939,5.4505],[-74.68936,5.45045],[-74.68932,5.45042],[-74.68929,5.45038],[-74.68921,5.45032],[-74.68915,5.45025],[-74.68911,5.45021],[-74.68907,5.45018],[-74.68901,5.45016],[-74.68895,5.45014],[-74.68888,5.45012],[-74.68881,5.45011],[-74.68866,5.45009],[-74.68859,5.45008],[-74.68852,5.45007],[-74.68845,5.45005],[-74.68839,5.45002],[-74.68835,5.45],[-74.68827,5.44994],[-74.68823,5.44991],[-74.68818,5.44988],[-74.68812,5.44986],[-74.68794,5.4498],[-74.68788,5.44978],[-74.68783,5.44975],[-74.68779,5.44972],[-74.68769,5.44962],[-74.68765,5.44958],[-74.68757,5.44952],[-74.68753,5.44949],[-74.6875,5.44946],[-74.68744,5.44938],[-74.68741,5.44934],[-74.68734,5.44927],[-74.6873,5.44923],[-74.68728,5.44919],[-74.68725,5.44913],[-74.68723,5.44906],[-74.68722,5.44899],[-74.68721,5.44891],[-74.6872,5.44882],[-74.6872,5.44874],[-74.6872,5.44856],[-74.6872,5.44821],[-74.6872,5.44812],[-74.68719,5.44804],[-74.68719,5.44795],[-74.68718,5.44788],[-74.68716,5.44781],[-74.68714,5.44774],[-74.6871,5.44769],[-74.68706,5.44765],[-74.68701,5.44762],[-74.68695,5.4476],[-74.68683,5.44756],[-74.68678,5.44754],[-74.68672,5.44751],[-74.68668,5.44748],[-74.6866,5.44742],[-74.68656,5.4474],[-74.6865,5.44737],[-74.68643,5.44735],[-74.68636,5.44734],[-74.68615,5.44731],[-74.68608,5.44729],[-74.68601,5.44727],[-74.68596,5.44725],[-74.68591,5.44721],[-74.68587,5.44716],[-74.68585,5.4471],[-74.68583,5.44703],[-74.68582,5.44696],[-74.68581,5.44688],[-74.6858,5.44663],[-74.68579,5.44656],[-74.68578,5.44648],[-74.68576,5.44641],[-74.68574,5.44635],[-74.6857,5.4463],[-74.68565,5.44626],[-74.68559,5.44624],[-74.68552,5.44622],[-74.68544,5.44621],[-74.68536,5.4462],[-74.68528,5.4462],[-74.68519,5.4462],[-74.68475,5.4462],[-74.68458,5.4462],[-74.68449,5.44619],[-74.68441,5.44618],[-74.68434,5.44617],[-74.68427,5.44615],[-74.68421,5.44612],[-74.68417,5.4461],[-74.68413,5.44606],[-74.68406,5.44599],[-74.68402,5.44596],[-74.68394,5.4459],[-74.6839,5.44587],[-74.68387,5.44583],[-74.68381,5.44575],[-74.68378,5.44572],[-74.68371,5.44564],[-74.68368,5.44561],[-74.68365,5.44557],[-74.68362,5.44551],[-74.6836,5.44544],[-74.68359,5.44536],[-74.68358,5.44529],[-74.68358,5.4452],[-74.68357,5.44512],[-74.68357,5.44478],[-74.68356,5.44469],[-74.68356,5.44461],[-74.68355,5.44453],[-74.68354,5.44446],[-74.68352,5.44439],[-74.68349,5.44433],[-74.68346,5.44429],[-74.6834,5.44421],[-74.68337,5.44417],[-74.68335,5.44412],[-74.68332,5.44406],[-74.68326,5.44388],[-74.68324,5.44382],[-74.68321,5.44377],[-74.68318,5.44373],[-74.68312,5.44365],[-74.68309,5.44361],[-74.68306,5.44355],[-74.68304,5.44348],[-74.68303,5.44341],[-74.68302,5.44333],[-74.68302,5.44325],[-74.68301,5.44316],[-74.68301,5.44299],[-74.68302,5.44282],[-74.68302,5.44274],[-74.68303,5.44265],[-74.68304,5.44258],[-74.68305,5.4425],[-74.68307,5.44243],[-74.6831,5.44237],[-74.68313,5.44233],[-74.68319,5.44225],[-74.68322,5.44221],[-74.68324,5.44216],[-74.68325,5.4421],[-74.68326,5.44204],[-74.68325,5.44198],[-74.68324,5.44193],[-74.68323,5.44187],[-74.6832,5.44183],[-74.68316,5.4418],[-74.68311,5.44177],[-74.68305,5.44175],[-74.68293,5.44171],[-74.68287,5.44168],[-74.68282,5.44166],[-74.68278,5.44163],[-74.6827,5.44157],[-74.68266,5.44154],[-74.68261,5.44151],[-74.68255,5.44149],[-74.68243,5.44145],[-74.68237,5.44142],[-74.68232,5.44139],[-74.68228,5.44136],[-74.68224,5.44132],[-74.68221,5.44126],[-74.68219,5.44121],[-74.68215,5.44109],[-74.68212,5.44103],[-74.68209,5.44098],[-74.68206,5.44094],[-74.68199,5.44087],[-74.68196,5.44084],[-74.68193,5.4408],[-74.68187,5.44072],[-74.68184,5.44068],[-74.68181,5.44064],[-74.68174,5.44057],[-74.6817,5.44053],[-74.68168,5.44048],[-74.68165,5.44042],[-74.68161,5.4403],[-74.68159,5.44025],[-74.68156,5.4402],[-74.68152,5.44016],[-74.68148,5.44013],[-74.68143,5.44011],[-74.68137,5.4401],[-74.68131,5.4401],[-74.68125,5.4401],[-74.6812,5.44012],[-74.68114,5.44014],[-74.6811,5.44016],[-74.68103,5.44022],[-74.68098,5.44025],[-74.68092,5.44028],[-74.68086,5.4403],[-74.68079,5.44032],[-74.68072,5.44033],[-74.6805,5.44037],[-74.68043,5.44039],[-74.68037,5.44041],[-74.68031,5.44043],[-74.68027,5.44046],[-74.6802,5.44051],[-74.68016,5.44053],[-74.68013,5.44054],[-74.68009,5.44054],[-74.68005,5.44054],[-74.68001,5.44053],[-74.67998,5.4405],[-74.67995,5.44048],[-74.67988,5.44041],[-74.67984,5.44038],[-74.67977,5.44033],[-74.67973,5.4403],[-74.67962,5.44019],[-74.67958,5.44016],[-74.67953,5.44013],[-74.67948,5.44011],[-74.6793,5.44005],[-74.67924,5.44002],[-74.67919,5.43999],[-74.67915,5.43996],[-74.67912,5.43992],[-74.67905,5.43985],[-74.67898,5.43978],[-74.67894,5.43975],[-74.67891,5.43971],[-74.67889,5.43965],[-74.67887,5.43958],[-74.67885,5.43951],[-74.67885,5.43943],[-74.67884,5.43935],[-74.67883,5.43911],[-74.67882,5.43903],[-74.67881,5.43895],[-74.67879,5.43888],[-74.67877,5.43882],[-74.67874,5.43877],[-74.67869,5.43873],[-74.67863,5.4387],[-74.67857,5.43868],[-74.6785,5.43867],[-74.67836,5.43865],[-74.67828,5.43863],[-74.67821,5.4386],[-74.67814,5.43856],[-74.67808,5.4385],[-74.67804,5.43844],[-74.67802,5.43837],[-74.678,5.43829],[-74.67799,5.43823],[-74.67799,5.43817],[-74.67799,5.43813],[-74.678,5.43811],[-74.67789,5.43812],[-74.67785,5.43811],[-74.67782,5.43811],[-74.67779,5.43811],[-74.67777,5.4381],[-74.67775,5.43808],[-74.67774,5.43807],[-74.67773,5.43805],[-74.67773,5.43803],[-74.67771,5.43794],[-74.67771,5.43792],[-74.6777,5.4379],[-74.6777,5.43788],[-74.67769,5.43787],[-74.67767,5.43786],[-74.67765,5.43785],[-74.67761,5.43784],[-74.67752,5.43783],[-74.6775,5.43782],[-74.67749,5.43781],[-74.67747,5.4378],[-74.67746,5.43779],[-74.67745,5.43777],[-74.67744,5.43775],[-74.67743,5.43765],[-74.67743,5.43762],[-74.67742,5.4376],[-74.67741,5.43759],[-74.67739,5.43757],[-74.67737,5.43757],[-74.67734,5.43756],[-74.67731,5.43756],[-74.67725,5.43755],[-74.67716,5.43756],[-74.67715,5.43755],[-74.67712,5.43756],[-74.67709,5.43757],[-74.67705,5.43759],[-74.67701,5.43762],[-74.67696,5.43766],[-74.67687,5.43774],[-74.67685,5.43776],[-74.6754,5.4395],[-74.67531,5.43968],[-74.67214,5.4415],[-74.66925,5.44286],[-74.66599,5.44296],[-74.66228,5.44151],[-74.65966,5.44061],[-74.65721,5.43961],[-74.65396,5.43907],[-74.65161,5.43925],[-74.65097,5.43971],[-74.6507,5.43998],[-74.64907,5.44071],[-74.64835,5.44234],[-74.64817,5.44424],[-74.64953,5.44569],[-74.65098,5.44569],[-74.65206,5.44587],[-74.65333,5.44605],[-74.65442,5.4465],[-74.65523,5.44696],[-74.65623,5.44768],[-74.65713,5.44849],[-74.65867,5.45013],[-74.65967,5.45257],[-74.66094,5.45638],[-74.66203,5.46009],[-74.66276,5.46345],[-74.66303,5.46435],[-74.66367,5.4697],[-74.66512,5.47532],[-74.66558,5.48203],[-74.66603,5.48475],[-74.6673,5.48964],[-74.66731,5.48976],[-74.66735,5.4898],[-74.66738,5.48984],[-74.66741,5.48989],[-74.66743,5.48995],[-74.66749,5.49013],[-74.66752,5.49018],[-74.66754,5.49023],[-74.66757,5.49027],[-74.66768,5.49038],[-74.66771,5.49042],[-74.66777,5.4905],[-74.6678,5.49053],[-74.66784,5.49057],[-74.66792,5.49063],[-74.66796,5.49066],[-74.66806,5.49076],[-74.6681,5.49079],[-74.66815,5.49082],[-74.66821,5.49085],[-74.66839,5.4909],[-74.66845,5.49092],[-74.6685,5.49095],[-74.66854,5.49098],[-74.66862,5.49104],[-74.66866,5.49107],[-74.66871,5.4911],[-74.66877,5.49112],[-74.66895,5.49117],[-74.66901,5.4912],[-74.66906,5.49123],[-74.6691,5.49126],[-74.66913,5.49129],[-74.6692,5.49137],[-74.66927,5.49143],[-74.66931,5.49147],[-74.66934,5.49151],[-74.66937,5.49157],[-74.66939,5.49163],[-74.6694,5.4917],[-74.66942,5.49177],[-74.66945,5.49199],[-74.66946,5.49206],[-74.66948,5.49212],[-74.66951,5.49218],[-74.66953,5.49222],[-74.66958,5.49229],[-74.6696,5.49232],[-74.66961,5.49236],[-74.66962,5.4924],[-74.66961,5.49245],[-74.6696,5.49248],[-74.66958,5.49252],[-74.66953,5.49259],[-74.6695,5.49263],[-74.66948,5.49269],[-74.66946,5.49276],[-74.66945,5.49283],[-74.66944,5.49291],[-74.66941,5.49322],[-74.6694,5.4933],[-74.66939,5.49338],[-74.66937,5.49344],[-74.66935,5.49351],[-74.66931,5.49356],[-74.66927,5.49359],[-74.66922,5.49362],[-74.66905,5.4937],[-74.669,5.49373],[-74.67033,5.49319],[-74.67168,5.49252],[-74.67168,5.49251],[-74.67169,5.49246],[-74.67171,5.49241],[-74.67174,5.49236],[-74.67178,5.49233],[-74.67183,5.4923],[-74.67188,5.49228],[-74.672,5.49223],[-74.67206,5.49221],[-74.67211,5.49218],[-74.67215,5.49215],[-74.67222,5.49208],[-74.67225,5.49204],[-74.67229,5.49201],[-74.67238,5.49196],[-74.67242,5.49193],[-74.67245,5.49189],[-74.67252,5.49182],[-74.67256,5.49179],[-74.67261,5.49176],[-74.67267,5.49174],[-74.67278,5.49169],[-74.67284,5.49167],[-74.67289,5.49164],[-74.67294,5.49161],[-74.67297,5.49156],[-74.673,5.49151],[-74.67303,5.49146],[-74.67307,5.49134],[-74.67309,5.49128],[-74.67312,5.49123],[-74.67315,5.49119],[-74.67325,5.49109],[-74.67329,5.49105],[-74.67334,5.49097],[-74.67338,5.49093],[-74.67342,5.49089],[-74.67353,5.49081],[-74.67358,5.49077],[-74.67367,5.49069],[-74.67371,5.49065],[-74.67376,5.49062],[-74.6738,5.4906],[-74.67383,5.49059],[-74.67386,5.49058],[-74.67387,5.49059],[-74.67389,5.49058],[-74.67391,5.49059],[-74.67395,5.4906],[-74.67398,5.49062],[-74.67402,5.49066],[-74.67405,5.49072],[-74.67407,5.49079],[-74.67409,5.49086],[-74.67409,5.49093],[-74.67408,5.491],[-74.67406,5.49106],[-74.67403,5.4911],[-74.67397,5.49118],[-74.67394,5.49122],[-74.67391,5.49128],[-74.6739,5.49135],[-74.67388,5.49143],[-74.67387,5.49151],[-74.67387,5.49159],[-74.67386,5.49168],[-74.67386,5.49176],[-74.67386,5.49193],[-74.67386,5.49202],[-74.67387,5.4921],[-74.67388,5.49218],[-74.67389,5.49226],[-74.6739,5.49233],[-74.67392,5.4924],[-74.67395,5.49246],[-74.67398,5.4925],[-74.67409,5.49261],[-74.67412,5.49265],[-74.67418,5.49273],[-74.67421,5.49276],[-74.67432,5.49287],[-74.67435,5.49291],[-74.67438,5.49296],[-74.67441,5.49301],[-74.67443,5.49307],[-74.67447,5.49319],[-74.67449,5.49325],[-74.67452,5.4933],[-74.67454,5.49333],[-74.6746,5.4934],[-74.67462,5.49344],[-74.67463,5.49348],[-74.67463,5.49352],[-74.67462,5.49355],[-74.67461,5.49359],[-74.67459,5.49362],[-74.67456,5.49365],[-74.67449,5.49372],[-74.67446,5.49376],[-74.6744,5.49383],[-74.67437,5.49387],[-74.6743,5.49394],[-74.67426,5.49398],[-74.67423,5.49402],[-74.6742,5.49408],[-74.67418,5.49414],[-74.67417,5.49422],[-74.67416,5.49429],[-74.67415,5.49437],[-74.67415,5.49445],[-74.67415,5.49454],[-74.67415,5.49462],[-74.67416,5.4947],[-74.67417,5.49477],[-74.67418,5.49484],[-74.6742,5.49491],[-74.67423,5.49497],[-74.67426,5.49501],[-74.67436,5.49512],[-74.67439,5.49516],[-74.67445,5.49524],[-74.67449,5.49527],[-74.67459,5.49538],[-74.67462,5.49542],[-74.67465,5.49547],[-74.67468,5.49552],[-74.67474,5.4957],[-74.67476,5.49576],[-74.67479,5.49581],[-74.67483,5.49585],[-74.67493,5.49595],[-74.67496,5.49599],[-74.67502,5.49607],[-74.67505,5.49611],[-74.67516,5.49621],[-74.67519,5.49625],[-74.67522,5.4963],[-74.67524,5.49636],[-74.67531,5.49654],[-74.67533,5.49659],[-74.67536,5.49665],[-74.67539,5.49669],[-74.67545,5.49677],[-74.67547,5.49681],[-74.6755,5.49687],[-74.67551,5.49693],[-74.67553,5.497]]]},"properties":{"OBJECTID":1,"RANGO":"Riesgo bajo","COUNT_":0,"Shape_Length":29445.00632582984,"Shape_Area":26895186.335472822}}]}