{"type":"FeatureCollection","name":"Riesgo_Inundación_Dorada (C-089)","crs":{"type":"name","properties":{"name":"urn:ogc:def:crs:OGC:1.3:CRS84"}},"features":[{"type":"Feature","id":1,"geometry":{"type":"Polygon","coordinates":[[[-74.67467,5.44143],[-74.67461,5.44153],[-74.67426,5.44194],[-74.67366,5.44249],[-74.67327,5.44275],[-74.67263,5.44307],[-74.67207,5.44336],[-74.67122,5.44355],[-74.6706,5.44379],[-74.67035,5.44395],[-74.67007,5.44416],[-74.66959,5.4444],[-74.66875,5.44449],[-74.66803,5.44465],[-74.66766,5.44472],[-74.66706,5.44479],[-74.6665,5.4448],[-74.66615,5.4448],[-74.66567,5.44474],[-74.66509,5.44458],[-74.66467,5.44443],[-74.66431,5.44424],[-74.66389,5.44396],[-74.66256,5.44339],[-74.66181,5.44308],[-74.66133,5.44295],[-74.66082,5.44279],[-74.66006,5.44255],[-74.65974,5.44263],[-74.65945,5.4426],[-74.6591,5.44271],[-74.6589,5.44279],[-74.65866,5.44292],[-74.65834,5.44306],[-74.65812,5.44323],[-74.65804,5.44342],[-74.65803,5.44365],[-74.65806,5.44378],[-74.65816,5.44402],[-74.65829,5.44441],[-74.65842,5.44474],[-74.65846,5.44504],[-74.65849,5.4453],[-74.65853,5.44552],[-74.65869,5.44581],[-74.65901,5.44621],[-74.65929,5.44671],[-74.65952,5.44714],[-74.65991,5.44787],[-74.66029,5.44855],[-74.66067,5.44926],[-74.66126,5.4498],[-74.6615,5.44997],[-74.66185,5.45018],[-74.66226,5.45037],[-74.66262,5.45069],[-74.66285,5.45109],[-74.66333,5.45215],[-74.66356,5.45282],[-74.6639,5.4536],[-74.6641,5.45418],[-74.66438,5.45458],[-74.66475,5.45496],[-74.66509,5.45529],[-74.66559,5.45581],[-74.66566,5.45591],[-74.66565,5.45577],[-74.66562,5.45542],[-74.66564,5.45466],[-74.66581,5.45409],[-74.66602,5.45352],[-74.66635,5.45288],[-74.66677,5.45203],[-74.66716,5.45126],[-74.66741,5.45055],[-74.66766,5.45002],[-74.66792,5.44965],[-74.66821,5.44926],[-74.66844,5.44879],[-74.66853,5.44848],[-74.66864,5.44799],[-74.66876,5.44759],[-74.669,5.44711],[-74.66916,5.44688],[-74.66941,5.44648],[-74.6696,5.44621],[-74.66987,5.44581],[-74.67017,5.44547],[-74.67052,5.44506],[-74.67097,5.44471],[-74.67137,5.44449],[-74.67169,5.44432],[-74.67213,5.4442],[-74.67244,5.44412],[-74.67274,5.44406],[-74.67322,5.44388],[-74.67352,5.44368],[-74.67373,5.44339],[-74.67393,5.44315],[-74.67467,5.44143]]]},"properties":{"OBJECTID":1,"Id":0,"Grado":"Riesgo medio","Shape_Length":5687.986160731659,"Shape_Area":984321.557730344}},{"type":"Feature","id":3,"geometry":{"type":"Polygon","coordinates":[[[-74.67789,5.43812],[-74.67785,5.43811],[-74.67782,5.43811],[-74.67779,5.43811],[-74.67777,5.4381],[-74.67775,5.43808],[-74.67774,5.43807],[-74.67773,5.43805],[-74.67773,5.43803],[-74.67771,5.43794],[-74.67771,5.43792],[-74.6777,5.4379],[-74.6777,5.43788],[-74.67769,5.43787],[-74.67767,5.43786],[-74.67765,5.43785],[-74.67761,5.43784],[-74.67752,5.43783],[-74.6775,5.43782],[-74.67749,5.43781],[-74.67747,5.4378],[-74.67746,5.43779],[-74.67745,5.43777],[-74.67744,5.43775],[-74.67743,5.43765],[-74.67743,5.43762],[-74.67742,5.4376],[-74.67741,5.43759],[-74.67739,5.43757],[-74.67737,5.43757],[-74.67734,5.43756],[-74.67731,5.43756],[-74.67725,5.43755],[-74.67716,5.43756],[-74.67715,5.43755],[-74.67712,5.43756],[-74.67709,5.43757],[-74.67705,5.43759],[-74.67701,5.43762],[-74.67696,5.43766],[-74.67687,5.43774],[-74.67685,5.43776],[-74.6754,5.4395],[-74.67531,5.43968],[-74.67214,5.4415],[-74.66925,5.44286],[-74.66599,5.44296],[-74.66228,5.44151],[-74.65966,5.44061],[-74.65721,5.43961],[-74.65396,5.43907],[-74.65161,5.43925],[-74.65097,5.43971],[-74.6507,5.43998],[-74.64907,5.44071],[-74.64835,5.44234],[-74.64817,5.44424],[-74.64953,5.44569],[-74.65098,5.44569],[-74.65206,5.44587],[-74.65333,5.44605],[-74.65442,5.4465],[-74.65523,5.44696],[-74.65623,5.44768],[-74.65713,5.44849],[-74.65867,5.45013],[-74.65967,5.45257],[-74.66094,5.45638],[-74.66203,5.46009],[-74.66276,5.46345],[-74.66303,5.46435],[-74.66367,5.4697],[-74.66512,5.47532],[-74.66558,5.48203],[-74.66603,5.48475],[-74.6673,5.48964],[-74.66731,5.48976],[-74.66735,5.4898],[-74.66738,5.48984],[-74.66741,5.48989],[-74.66743,5.48995],[-74.66749,5.49013],[-74.66752,5.49018],[-74.66754,5.49023],[-74.66757,5.49027],[-74.66768,5.49038],[-74.66771,5.49042],[-74.66777,5.4905],[-74.6678,5.49053],[-74.66784,5.49057],[-74.66792,5.49063],[-74.66796,5.49066],[-74.66806,5.49076],[-74.6681,5.49079],[-74.66815,5.49082],[-74.66821,5.49085],[-74.66839,5.4909],[-74.66845,5.49092],[-74.6685,5.49095],[-74.66854,5.49098],[-74.66862,5.49104],[-74.66866,5.49107],[-74.66871,5.4911],[-74.66877,5.49112],[-74.66895,5.49117],[-74.66901,5.4912],[-74.66906,5.49123],[-74.6691,5.49126],[-74.66913,5.49129],[-74.6692,5.49137],[-74.66927,5.49143],[-74.66931,5.49147],[-74.66934,5.49151],[-74.66937,5.49157],[-74.66939,5.49163],[-74.6694,5.4917],[-74.66942,5.49177],[-74.66945,5.49199],[-74.66946,5.49206],[-74.66948,5.49212],[-74.66951,5.49218],[-74.66953,5.49222],[-74.66958,5.49229],[-74.6696,5.49232],[-74.66961,5.49236],[-74.66962,5.4924],[-74.66961,5.49245],[-74.6696,5.49248],[-74.66958,5.49252],[-74.66953,5.49259],[-74.6695,5.49263],[-74.66948,5.49269],[-74.66946,5.49276],[-74.66945,5.49283],[-74.66944,5.49291],[-74.66941,5.49322],[-74.6694,5.4933],[-74.66939,5.49338],[-74.66937,5.49344],[-74.66935,5.49351],[-74.66931,5.49356],[-74.66927,5.49359],[-74.66922,5.49362],[-74.66905,5.4937],[-74.669,5.49373],[-74.67033,5.49319],[-74.67168,5.49252],[-74.67168,5.49251],[-74.67169,5.49246],[-74.67171,5.49241],[-74.67174,5.49236],[-74.67178,5.49233],[-74.67183,5.4923],[-74.67188,5.49228],[-74.672,5.49223],[-74.67206,5.49221],[-74.67211,5.49218],[-74.67215,5.49215],[-74.67222,5.49208],[-74.67225,5.49204],[-74.67229,5.49201],[-74.67238,5.49196],[-74.67242,5.49193],[-74.67245,5.49189],[-74.67252,5.49182],[-74.67256,5.49179],[-74.67261,5.49176],[-74.67267,5.49174],[-74.67278,5.49169],[-74.67284,5.49167],[-74.67289,5.49164],[-74.67294,5.49161],[-74.67297,5.49156],[-74.673,5.49151],[-74.67303,5.49146],[-74.67307,5.49134],[-74.67309,5.49128],[-74.67312,5.49123],[-74.67315,5.49119],[-74.67325,5.49109],[-74.67329,5.49105],[-74.67334,5.49097],[-74.67319,5.49092],[-74.67307,5.4908],[-74.67298,5.49069],[-74.67258,5.49051],[-74.67229,5.4904],[-74.6721,5.4903],[-74.67198,5.49018],[-74.6719,5.48999],[-74.67185,5.48971],[-74.67174,5.48944],[-74.67162,5.4892],[-74.67147,5.48905],[-74.67119,5.48889],[-74.67074,5.48846],[-74.67044,5.48789],[-74.67019,5.48727],[-74.66998,5.48681],[-74.66974,5.48642],[-74.6696,5.48604],[-74.66947,5.48552],[-74.66943,5.48507],[-74.66937,5.48475],[-74.66924,5.4843],[-74.66913,5.48406],[-74.66886,5.48353],[-74.66854,5.48285],[-74.66824,5.48214],[-74.6681,5.48166],[-74.66799,5.48137],[-74.66785,5.48097],[-74.66771,5.4806],[-74.66759,5.47984],[-74.66749,5.47923],[-74.66753,5.47895],[-74.66756,5.47869],[-74.66768,5.47824],[-74.66771,5.47792],[-74.6677,5.47756],[-74.66767,5.47701],[-74.66766,5.4766],[-74.66744,5.47604],[-74.66727,5.47547],[-74.66705,5.47473],[-74.66676,5.47367],[-74.66658,5.47308],[-74.66646,5.47272],[-74.6663,5.47216],[-74.66602,5.47162],[-74.66565,5.47107],[-74.66539,5.47048],[-74.66522,5.46999],[-74.66509,5.46952],[-74.66492,5.46887],[-74.6649,5.46822],[-74.66478,5.46704],[-74.66475,5.46621],[-74.66477,5.46548],[-74.66481,5.46502],[-74.66489,5.46437],[-74.66501,5.46374],[-74.66513,5.46309],[-74.66516,5.46276],[-74.66529,5.46212],[-74.66547,5.4616],[-74.66559,5.46122],[-74.66577,5.46073],[-74.66597,5.46028],[-74.66616,5.45977],[-74.66625,5.45941],[-74.66644,5.45886],[-74.66646,5.4582],[-74.66629,5.45754],[-74.66613,5.45668],[-74.6659,5.45623],[-74.66566,5.45591],[-74.66559,5.45581],[-74.66509,5.45529],[-74.66475,5.45496],[-74.66438,5.45458],[-74.6641,5.45418],[-74.6639,5.4536],[-74.66356,5.45282],[-74.66333,5.45215],[-74.66285,5.45109],[-74.66262,5.45069],[-74.66226,5.45037],[-74.66185,5.45018],[-74.6615,5.44997],[-74.66126,5.4498],[-74.66067,5.44926],[-74.66029,5.44855],[-74.65991,5.44787],[-74.65952,5.44714],[-74.65929,5.44671],[-74.65901,5.44621],[-74.65869,5.44581],[-74.65853,5.44552],[-74.65849,5.4453],[-74.65846,5.44504],[-74.65842,5.44474],[-74.65829,5.44441],[-74.65816,5.44402],[-74.65806,5.44378],[-74.65803,5.44365],[-74.65804,5.44342],[-74.65812,5.44323],[-74.65834,5.44306],[-74.65866,5.44292],[-74.6589,5.44279],[-74.6591,5.44271],[-74.65945,5.4426],[-74.65974,5.44263],[-74.66006,5.44255],[-74.66082,5.44279],[-74.66133,5.44295],[-74.66181,5.44308],[-74.66256,5.44339],[-74.66389,5.44396],[-74.66431,5.44424],[-74.66467,5.44443],[-74.66509,5.44458],[-74.66567,5.44474],[-74.66615,5.4448],[-74.6665,5.4448],[-74.66706,5.44479],[-74.66766,5.44472],[-74.66803,5.44465],[-74.66875,5.44449],[-74.66959,5.4444],[-74.67007,5.44416],[-74.67035,5.44395],[-74.6706,5.44379],[-74.67122,5.44355],[-74.67207,5.44336],[-74.67263,5.44307],[-74.67327,5.44275],[-74.67366,5.44249],[-74.67426,5.44194],[-74.67461,5.44153],[-74.67467,5.44143],[-74.67493,5.44101],[-74.67513,5.44059],[-74.67538,5.44032],[-74.67567,5.44004],[-74.67591,5.43983],[-74.67614,5.43967],[-74.67678,5.43927],[-74.67695,5.43912],[-74.67721,5.43888],[-74.67738,5.43872],[-74.67789,5.43812]]]},"properties":{"OBJECTID":3,"Id":0,"Grado":"Riesgo alto","Shape_Length":19452.561244693647,"Shape_Area":2905113.9148910195}},{"type":"Feature","id":4,"geometry":{"type":"Polygon","coordinates":[[[-74.67553,5.497],[-74.67553,5.49707],[-74.67553,5.49715],[-74.67553,5.49722],[-74.67552,5.49729],[-74.67551,5.49736],[-74.67549,5.49742],[-74.67547,5.49748],[-74.67544,5.49752],[-74.67539,5.49759],[-74.67537,5.49763],[-74.67536,5.49767],[-74.67535,5.49771],[-74.67536,5.49775],[-74.67537,5.49779],[-74.67539,5.49782],[-74.67543,5.49789],[-74.67546,5.49794],[-74.67548,5.49799],[-74.6755,5.49806],[-74.67551,5.49812],[-74.67555,5.49834],[-74.67556,5.49841],[-74.67558,5.49847],[-74.67561,5.49853],[-74.67565,5.49858],[-74.6757,5.49862],[-74.67576,5.49864],[-74.67583,5.49866],[-74.6759,5.49867],[-74.67598,5.49868],[-74.67622,5.4987],[-74.6763,5.49871],[-74.67638,5.49872],[-74.67645,5.49873],[-74.67652,5.49875],[-74.67658,5.49877],[-74.67662,5.4988],[-74.67671,5.49886],[-74.67675,5.49889],[-74.67681,5.49891],[-74.67687,5.49893],[-74.67694,5.49894],[-74.67702,5.49895],[-74.67709,5.49895],[-74.67716,5.49895],[-74.67724,5.49895],[-74.67731,5.49893],[-74.67737,5.49892],[-74.67743,5.49889],[-74.67747,5.49886],[-74.6775,5.49883],[-74.67757,5.49875],[-74.67765,5.49868],[-74.67768,5.49865],[-74.67771,5.49861],[-74.67774,5.49855],[-74.67776,5.49849],[-74.67777,5.49842],[-74.67777,5.49835],[-74.67778,5.49827],[-74.67777,5.4982],[-74.67777,5.49812],[-74.67776,5.49805],[-74.67774,5.49799],[-74.67771,5.49793],[-74.67768,5.49788],[-74.67762,5.49781],[-74.67759,5.49776],[-74.67756,5.49771],[-74.67754,5.49764],[-74.67753,5.49757],[-74.67752,5.49749],[-74.67752,5.4974],[-74.67754,5.49731],[-74.67756,5.49723],[-74.67758,5.49715],[-74.67762,5.49709],[-74.67766,5.49704],[-74.6777,5.49701],[-74.67773,5.497],[-74.67776,5.497],[-74.67778,5.497],[-74.67778,5.49699],[-74.67778,5.49695],[-74.67777,5.49689],[-74.67776,5.49683],[-74.67775,5.49675],[-74.67773,5.49667],[-74.67769,5.49659],[-74.67766,5.49653],[-74.67759,5.49642],[-74.67755,5.49636],[-74.67753,5.4963],[-74.67751,5.49623],[-74.6775,5.49616],[-74.67749,5.49609],[-74.67749,5.49601],[-74.67749,5.49594],[-74.6775,5.49587],[-74.67751,5.4958],[-74.67753,5.49574],[-74.67756,5.49568],[-74.67759,5.49564],[-74.67763,5.49561],[-74.6777,5.49554],[-74.67777,5.49547],[-74.6778,5.49543],[-74.67785,5.4954],[-74.67791,5.49538],[-74.67798,5.49536],[-74.67805,5.49534],[-74.67813,5.49534],[-74.67822,5.49533],[-74.67839,5.49533],[-74.67884,5.49533],[-74.67892,5.49533],[-74.67901,5.49533],[-74.67909,5.49532],[-74.67917,5.49531],[-74.67924,5.49529],[-74.6793,5.49527],[-74.67936,5.49523],[-74.67939,5.49518],[-74.67942,5.49512],[-74.67944,5.49505],[-74.67945,5.49497],[-74.67946,5.49489],[-74.67946,5.4948],[-74.67947,5.49471],[-74.67947,5.49454],[-74.67946,5.49427],[-74.67946,5.49418],[-74.67946,5.49409],[-74.67945,5.49401],[-74.67944,5.49393],[-74.67942,5.49386],[-74.67939,5.4938],[-74.67936,5.49375],[-74.67931,5.49371],[-74.67925,5.49368],[-74.67918,5.49367],[-74.6791,5.49365],[-74.67902,5.49365],[-74.6787,5.49363],[-74.67862,5.49362],[-74.67855,5.49361],[-74.67848,5.49359],[-74.67841,5.49357],[-74.67837,5.49354],[-74.67829,5.49348],[-74.67825,5.49345],[-74.67817,5.49343],[-74.67809,5.49341],[-74.67799,5.49339],[-74.67789,5.49338],[-74.67779,5.49338],[-74.6777,5.49337],[-74.67762,5.49337],[-74.67749,5.49338],[-74.67749,5.49336],[-74.67749,5.49332],[-74.67749,5.49326],[-74.6775,5.4932],[-74.67751,5.49312],[-74.67753,5.49304],[-74.67756,5.49296],[-74.67759,5.4929],[-74.67763,5.49285],[-74.67771,5.49276],[-74.67774,5.49271],[-74.6778,5.49263],[-74.67783,5.49259],[-74.67793,5.49249],[-74.67796,5.49245],[-74.67799,5.4924],[-74.67801,5.49234],[-74.67806,5.49223],[-74.67808,5.49217],[-74.67811,5.49212],[-74.67815,5.49208],[-74.6782,5.49205],[-74.67827,5.49202],[-74.67834,5.49201],[-74.67841,5.492],[-74.67849,5.49199],[-74.6785,5.49199],[-74.67829,5.49178],[-74.67792,5.49149],[-74.67745,5.49075],[-74.67704,5.49009],[-74.67663,5.48962],[-74.67599,5.48881],[-74.67525,5.48789],[-74.6747,5.48736],[-74.67437,5.48706],[-74.6741,5.48671],[-74.6739,5.48616],[-74.67364,5.4856],[-74.67331,5.48487],[-74.67315,5.48436],[-74.67296,5.484],[-74.67278,5.48383],[-74.67242,5.48328],[-74.67225,5.48274],[-74.67206,5.48217],[-74.67188,5.48151],[-74.67174,5.48088],[-74.67174,5.48048],[-74.6718,5.47993],[-74.67178,5.47942],[-74.67171,5.47901],[-74.67144,5.47845],[-74.67118,5.47807],[-74.67023,5.47704],[-74.6694,5.47609],[-74.66887,5.47542],[-74.66843,5.47494],[-74.66799,5.47444],[-74.66759,5.47398],[-74.66707,5.47338],[-74.6663,5.47216],[-74.66646,5.47272],[-74.66658,5.47308],[-74.66676,5.47367],[-74.66705,5.47473],[-74.66727,5.47547],[-74.66744,5.47604],[-74.66766,5.4766],[-74.66767,5.47701],[-74.6677,5.47756],[-74.66771,5.47792],[-74.66768,5.47824],[-74.66756,5.47869],[-74.66753,5.47895],[-74.66749,5.47923],[-74.66759,5.47984],[-74.66771,5.4806],[-74.66785,5.48097],[-74.66799,5.48137],[-74.6681,5.48166],[-74.66824,5.48214],[-74.66854,5.48285],[-74.66886,5.48353],[-74.66913,5.48406],[-74.66924,5.4843],[-74.66937,5.48475],[-74.66943,5.48507],[-74.66947,5.48552],[-74.6696,5.48604],[-74.66974,5.48642],[-74.66998,5.48681],[-74.67019,5.48727],[-74.67044,5.48789],[-74.67074,5.48846],[-74.67119,5.48889],[-74.67147,5.48905],[-74.67162,5.4892],[-74.67174,5.48944],[-74.67185,5.48971],[-74.6719,5.48999],[-74.67198,5.49018],[-74.6721,5.4903],[-74.67229,5.4904],[-74.67258,5.49051],[-74.67298,5.49069],[-74.67307,5.4908],[-74.67319,5.49092],[-74.67334,5.49097],[-74.67338,5.49093],[-74.67342,5.49089],[-74.67353,5.49081],[-74.67358,5.49077],[-74.67367,5.49069],[-74.67371,5.49065],[-74.67376,5.49062],[-74.6738,5.4906],[-74.67383,5.49059],[-74.67386,5.49058],[-74.67387,5.49059],[-74.67389,5.49058],[-74.67391,5.49059],[-74.67395,5.4906],[-74.67398,5.49062],[-74.67402,5.49066],[-74.67405,5.49072],[-74.67407,5.49079],[-74.67409,5.49086],[-74.67409,5.49093],[-74.67408,5.491],[-74.67406,5.49106],[-74.67403,5.4911],[-74.67397,5.49118],[-74.67394,5.49122],[-74.67391,5.49128],[-74.6739,5.49135],[-74.67388,5.49143],[-74.67387,5.49151],[-74.67387,5.49159],[-74.67386,5.49168],[-74.67386,5.49176],[-74.67386,5.49193],[-74.67386,5.49202],[-74.67387,5.4921],[-74.67388,5.49218],[-74.67389,5.49226],[-74.6739,5.49233],[-74.67392,5.4924],[-74.67395,5.49246],[-74.67398,5.4925],[-74.67409,5.49261],[-74.67412,5.49265],[-74.67418,5.49273],[-74.67421,5.49276],[-74.67432,5.49287],[-74.67435,5.49291],[-74.67438,5.49296],[-74.67441,5.49301],[-74.67443,5.49307],[-74.67447,5.49319],[-74.67449,5.49325],[-74.67452,5.4933],[-74.67454,5.49333],[-74.6746,5.4934],[-74.67462,5.49344],[-74.67463,5.49348],[-74.67463,5.49352],[-74.67462,5.49355],[-74.67461,5.49359],[-74.67459,5.49362],[-74.67456,5.49365],[-74.67449,5.49372],[-74.67446,5.49376],[-74.6744,5.49383],[-74.67437,5.49387],[-74.6743,5.49394],[-74.67426,5.49398],[-74.67423,5.49402],[-74.6742,5.49408],[-74.67418,5.49414],[-74.67417,5.49422],[-74.67416,5.49429],[-74.67415,5.49437],[-74.67415,5.49445],[-74.67415,5.49454],[-74.67415,5.49462],[-74.67416,5.4947],[-74.67417,5.49477],[-74.67418,5.49484],[-74.6742,5.49491],[-74.67423,5.49497],[-74.67426,5.49501],[-74.67436,5.49512],[-74.67439,5.49516],[-74.67445,5.49524],[-74.67449,5.49527],[-74.67459,5.49538],[-74.67462,5.49542],[-74.67465,5.49547],[-74.67468,5.49552],[-74.67474,5.4957],[-74.67476,5.49576],[-74.67479,5.49581],[-74.67483,5.49585],[-74.67493,5.49595],[-74.67496,5.49599],[-74.67502,5.49607],[-74.67505,5.49611],[-74.67516,5.49621],[-74.67519,5.49625],[-74.67522,5.4963],[-74.67524,5.49636],[-74.67531,5.49654],[-74.67533,5.49659],[-74.67536,5.49665],[-74.67539,5.49669],[-74.67545,5.49677],[-74.67547,5.49681],[-74.6755,5.49687],[-74.67551,5.49693],[-74.67553,5.497]]]},"properties":{"OBJECTID":4,"Id":0,"Grado":"Riesgo medio","Shape_Length":7451.366342440624,"Shape_Area":1100696.7474788737}}]}