{"type":"FeatureCollection","name":"Drenajes","crs":{"type":"name","properties":{"name":"urn:ogc:def:crs:OGC:1.3:CRS84"}},"features":[{"type":"Feature","id":1,"geometry":{"type":"MultiLineString","coordinates":[[[-74.66526,5.46759],[-74.6652,5.46768]],[[-74.6652,5.46768],[-74.66513,5.46783]],[[-74.66513,5.46783],[-74.66507,5.46792]],[[-74.66507,5.46792],[-74.66503,5.46798]],[[-74.66526,5.46759],[-74.6652,5.46768],[-74.66513,5.46783],[-74.66507,5.46792],[-74.66503,5.46798],[-74.66495,5.46806],[-74.66492,5.4681],[-74.66486,5.46812],[-74.66483,5.46814],[-74.66477,5.46817],[-74.66453,5.46828]],[[-74.66507,5.46792],[-74.66503,5.46798]],[[-74.66513,5.46783],[-74.66507,5.46792]],[[-74.6652,5.46768],[-74.66513,5.46783]],[[-74.66526,5.46759],[-74.6652,5.46768]],[[-74.66507,5.46792],[-74.66503,5.46798]],[[-74.66513,5.46783],[-74.66507,5.46792]],[[-74.6652,5.46768],[-74.66513,5.46783]],[[-74.66526,5.46759],[-74.6652,5.46768]],[[-74.66526,5.46759],[-74.6652,5.46768]],[[-74.6652,5.46768],[-74.66513,5.46783]],[[-74.66513,5.46783],[-74.66507,5.46792]],[[-74.66507,5.46792],[-74.66503,5.46798]],[[-74.66507,5.46792],[-74.66503,5.46798]],[[-74.66513,5.46783],[-74.66507,5.46792]],[[-74.6652,5.46768],[-74.66513,5.46783]],[[-74.66507,5.46792],[-74.66503,5.46798]],[[-74.66513,5.46783],[-74.66507,5.46792]],[[-74.6652,5.46768],[-74.66513,5.46783]],[[-74.6652,5.46768],[-74.66513,5.46783]],[[-74.66513,5.46783],[-74.66507,5.46792]],[[-74.66507,5.46792],[-74.66503,5.46798]],[[-74.66644,5.4672],[-74.6663,5.46697],[-74.66621,5.4668],[-74.66516,5.46727],[-74.66516,5.46727],[-74.66516,5.46728],[-74.66515,5.46728],[-74.66515,5.46728],[-74.66515,5.46729],[-74.66515,5.46729],[-74.66515,5.4673],[-74.66515,5.4673],[-74.66515,5.46731],[-74.66515,5.46731],[-74.66525,5.46757],[-74.66525,5.46758],[-74.66525,5.46758],[-74.66525,5.46759],[-74.66525,5.46759],[-74.66525,5.4676],[-74.66525,5.4676],[-74.6652,5.46768]],[[-74.66526,5.46759],[-74.6652,5.46768]],[[-74.6652,5.46768],[-74.66513,5.46783]],[[-74.66513,5.46783],[-74.66507,5.46792]],[[-74.66507,5.46792],[-74.66503,5.46798]],[[-74.66503,5.46798],[-74.66495,5.46806]],[[-74.66495,5.46806],[-74.66492,5.4681]],[[-74.66492,5.4681],[-74.66486,5.46812]],[[-74.66486,5.46812],[-74.66483,5.46814]],[[-74.66483,5.46814],[-74.66477,5.46817]],[[-74.66477,5.46817],[-74.66467,5.46822]],[[-74.66477,5.46817],[-74.66467,5.46822]],[[-74.66483,5.46814],[-74.66477,5.46817]],[[-74.66486,5.46812],[-74.66483,5.46814]],[[-74.66492,5.4681],[-74.66486,5.46812]],[[-74.66495,5.46806],[-74.66492,5.4681]],[[-74.66503,5.46798],[-74.66495,5.46806]],[[-74.66477,5.46817],[-74.66467,5.46822]],[[-74.66483,5.46814],[-74.66477,5.46817]],[[-74.66486,5.46812],[-74.66483,5.46814]],[[-74.66492,5.4681],[-74.66486,5.46812]],[[-74.66495,5.46806],[-74.66492,5.4681]],[[-74.66503,5.46798],[-74.66495,5.46806]],[[-74.66503,5.46798],[-74.66495,5.46806]],[[-74.66495,5.46806],[-74.66492,5.4681]],[[-74.66492,5.4681],[-74.66486,5.46812]],[[-74.66486,5.46812],[-74.66483,5.46814]],[[-74.66483,5.46814],[-74.66477,5.46817]],[[-74.66477,5.46817],[-74.66467,5.46822]],[[-74.66492,5.4681],[-74.66486,5.46812]],[[-74.66477,5.46817],[-74.66467,5.46822]],[[-74.66483,5.46814],[-74.66477,5.46817]],[[-74.66486,5.46812],[-74.66483,5.46814]],[[-74.66492,5.4681],[-74.66486,5.46812]],[[-74.66495,5.46806],[-74.66492,5.4681]],[[-74.66503,5.46798],[-74.66495,5.46806]],[[-74.66492,5.4681],[-74.66486,5.46812]],[[-74.66495,5.46806],[-74.66492,5.4681]],[[-74.66503,5.46798],[-74.66495,5.46806]],[[-74.66503,5.46798],[-74.66495,5.46806]],[[-74.66495,5.46806],[-74.66492,5.4681]],[[-74.66477,5.46817],[-74.66483,5.46814],[-74.66486,5.46812],[-74.66483,5.46814],[-74.66477,5.46817],[-74.66467,5.46822],[-74.66477,5.46817]],[[-74.66503,5.46798],[-74.66495,5.46806]],[[-74.66495,5.46806],[-74.66492,5.4681]],[[-74.66492,5.4681],[-74.66486,5.46812]],[[-74.66486,5.46812],[-74.66483,5.46814]],[[-74.66483,5.46814],[-74.66477,5.46817]],[[-74.66477,5.46817],[-74.66467,5.46822]]]},"properties":{"OBJECTID":1,"ID_DS":1,"CODSUELO":"1738001","CODDS":"1","TIPO":"Caño","NOMBRE":" ","LENGTH":1102.4465438,"Shape_Length":1102.4463346590628}},{"type":"Feature","id":2,"geometry":{"type":"LineString","coordinates":[[-74.66651,5.4594],[-74.66647,5.45931],[-74.66644,5.45924],[-74.66642,5.45917],[-74.66639,5.4591],[-74.66637,5.45903],[-74.66634,5.45897],[-74.66632,5.45891],[-74.6663,5.45886],[-74.66628,5.45881],[-74.66626,5.45876],[-74.66624,5.45872],[-74.66623,5.45868],[-74.66621,5.45864],[-74.6662,5.4586],[-74.66618,5.45857],[-74.66617,5.45854],[-74.66616,5.45851],[-74.66615,5.45848],[-74.66614,5.45845],[-74.66612,5.45842],[-74.66611,5.45839],[-74.6661,5.45836],[-74.66609,5.45833],[-74.66608,5.45831],[-74.66607,5.45828],[-74.66606,5.45825],[-74.66605,5.45822],[-74.66604,5.45819],[-74.66603,5.45817],[-74.66602,5.45814],[-74.66601,5.45811],[-74.666,5.45809],[-74.66599,5.45806],[-74.66598,5.45804],[-74.66597,5.45801],[-74.66596,5.45799],[-74.66596,5.45797],[-74.66595,5.45795],[-74.66594,5.45793],[-74.66594,5.45791],[-74.66593,5.4579],[-74.66593,5.45788],[-74.66592,5.45786],[-74.66591,5.45785],[-74.66591,5.45783],[-74.6659,5.45782],[-74.6659,5.4578],[-74.66589,5.45778],[-74.66589,5.45777],[-74.66588,5.45775],[-74.66588,5.45774],[-74.66587,5.45772],[-74.66587,5.4577],[-74.66586,5.45768],[-74.66585,5.45766],[-74.66584,5.45763],[-74.66583,5.4576],[-74.66582,5.45756],[-74.6658,5.45753],[-74.66579,5.45749],[-74.66577,5.45745],[-74.66576,5.45741],[-74.66574,5.45737],[-74.66573,5.45733],[-74.66572,5.4573],[-74.66571,5.45728],[-74.6657,5.45726],[-74.6657,5.45724],[-74.66569,5.45722],[-74.66569,5.45721],[-74.66569,5.4572],[-74.66569,5.4572],[-74.66569,5.45719],[-74.6657,5.45718],[-74.6657,5.45718],[-74.6657,5.45717],[-74.66571,5.45716],[-74.66572,5.45716],[-74.66572,5.45715],[-74.66573,5.45715],[-74.66574,5.45714],[-74.66575,5.45714],[-74.66576,5.45713],[-74.66577,5.45713],[-74.66578,5.45712],[-74.66579,5.45712],[-74.6658,5.45711],[-74.66581,5.45711],[-74.66583,5.4571],[-74.66584,5.4571],[-74.66585,5.45709],[-74.66586,5.45709],[-74.66587,5.45708],[-74.66588,5.45707],[-74.66589,5.45707],[-74.6659,5.45706],[-74.66591,5.45706],[-74.66591,5.45705],[-74.66592,5.45705],[-74.66593,5.45704],[-74.66594,5.45703],[-74.66594,5.45703],[-74.66595,5.45702],[-74.66596,5.45701],[-74.66596,5.457],[-74.66597,5.45699],[-74.66597,5.45698],[-74.66598,5.45697],[-74.66598,5.45696],[-74.66598,5.45695],[-74.66599,5.45694],[-74.66599,5.45693],[-74.666,5.45692],[-74.666,5.45691],[-74.666,5.4569],[-74.666,5.45688],[-74.66601,5.45687],[-74.66601,5.45686],[-74.66601,5.45685],[-74.66601,5.45683],[-74.66602,5.45682],[-74.66602,5.45681],[-74.66603,5.4568],[-74.66603,5.45678],[-74.66604,5.45677],[-74.66604,5.45676],[-74.66604,5.45674],[-74.66605,5.45673],[-74.66605,5.45672],[-74.66606,5.4567],[-74.66606,5.45669],[-74.66607,5.45668],[-74.66607,5.45666],[-74.66607,5.45665],[-74.66608,5.45663],[-74.66608,5.45661],[-74.66608,5.4566],[-74.66609,5.45658],[-74.66609,5.45656],[-74.6661,5.45654],[-74.6661,5.45652],[-74.66611,5.4565],[-74.66611,5.45648],[-74.66611,5.45646],[-74.66612,5.45644],[-74.66612,5.45642],[-74.66612,5.4564],[-74.66612,5.45638],[-74.66613,5.45636],[-74.66613,5.45634],[-74.66613,5.45632],[-74.66613,5.4563],[-74.66613,5.45628],[-74.66613,5.45626],[-74.66613,5.45624],[-74.66613,5.45622],[-74.66612,5.4562],[-74.66612,5.45618],[-74.66612,5.45615],[-74.66612,5.45613],[-74.66612,5.45611],[-74.66612,5.45609],[-74.66611,5.45607],[-74.66611,5.45605],[-74.66611,5.45603],[-74.66611,5.45601],[-74.66611,5.45599],[-74.6661,5.45597],[-74.6661,5.45596],[-74.6661,5.45594],[-74.6661,5.45592],[-74.6661,5.4559],[-74.6661,5.45588],[-74.6661,5.45586],[-74.6661,5.45584],[-74.6661,5.45582],[-74.6661,5.4558],[-74.6661,5.45578],[-74.6661,5.45576],[-74.6661,5.45574],[-74.6661,5.45572],[-74.66611,5.4557],[-74.66611,5.45568],[-74.66611,5.45566],[-74.66612,5.45565],[-74.66612,5.45563],[-74.66613,5.45561],[-74.66613,5.4556],[-74.66614,5.45559],[-74.66615,5.45557],[-74.66615,5.45556],[-74.66616,5.45555],[-74.66617,5.45554],[-74.66618,5.45553],[-74.66619,5.45552],[-74.6662,5.45551],[-74.66621,5.4555],[-74.66621,5.45549],[-74.66622,5.45549],[-74.66623,5.45548],[-74.66624,5.45547],[-74.66625,5.45545],[-74.66626,5.45544],[-74.66626,5.45543],[-74.66627,5.45541],[-74.66628,5.4554],[-74.66628,5.45538],[-74.66629,5.45537],[-74.66629,5.45535],[-74.6663,5.45533],[-74.6663,5.45531],[-74.6663,5.45528],[-74.66631,5.45526],[-74.66631,5.45524],[-74.66631,5.45522],[-74.66631,5.45519],[-74.6663,5.45511],[-74.6663,5.45506],[-74.66632,5.45504],[-74.66633,5.455],[-74.66633,5.45498],[-74.66635,5.45494],[-74.66635,5.45491],[-74.66635,5.45489],[-74.66636,5.45486],[-74.66636,5.45484],[-74.66636,5.45482],[-74.66635,5.4548],[-74.66636,5.45477],[-74.66636,5.45475],[-74.66636,5.45473],[-74.66636,5.45471],[-74.66637,5.45469],[-74.66637,5.45466],[-74.66637,5.45464],[-74.66638,5.45462],[-74.66637,5.4546],[-74.66637,5.45447],[-74.66641,5.45441],[-74.66642,5.45439],[-74.66642,5.45437],[-74.66643,5.45435],[-74.66643,5.45433],[-74.66643,5.45431],[-74.66643,5.45429],[-74.66643,5.45427],[-74.66643,5.45425],[-74.66643,5.45422],[-74.66643,5.4542],[-74.66643,5.45418],[-74.66643,5.45416],[-74.66643,5.45414],[-74.66643,5.45412],[-74.66643,5.4541],[-74.66643,5.45408],[-74.66643,5.45406],[-74.66643,5.45404],[-74.66643,5.45402],[-74.66643,5.45401],[-74.66643,5.45399],[-74.66643,5.45397],[-74.66643,5.45396],[-74.66644,5.45394],[-74.66644,5.45392],[-74.66644,5.45391],[-74.66645,5.45389],[-74.66645,5.45387],[-74.66645,5.45385],[-74.66646,5.45383],[-74.66646,5.45381],[-74.66647,5.45379],[-74.66648,5.45377],[-74.66649,5.45374],[-74.66649,5.45372],[-74.6665,5.4537],[-74.66651,5.45368],[-74.66652,5.45366],[-74.66652,5.45365],[-74.66653,5.45363],[-74.66654,5.45362],[-74.66654,5.4536],[-74.66655,5.45359],[-74.66656,5.45358],[-74.66656,5.45357],[-74.66657,5.45355],[-74.66658,5.45354],[-74.66659,5.45353],[-74.6666,5.45351],[-74.66661,5.4535],[-74.66662,5.45348],[-74.66663,5.45347],[-74.66664,5.45345],[-74.66665,5.45344],[-74.66666,5.45343],[-74.66667,5.45341],[-74.66668,5.45339],[-74.66669,5.45338],[-74.6667,5.45336],[-74.66672,5.45335],[-74.66673,5.45333],[-74.66674,5.45332],[-74.66676,5.4533],[-74.66677,5.45328],[-74.66678,5.45327],[-74.6668,5.45325],[-74.66681,5.45323],[-74.66683,5.45321],[-74.66684,5.4532],[-74.66686,5.45318],[-74.66687,5.45316],[-74.66689,5.45315],[-74.6669,5.45313],[-74.66691,5.45312],[-74.66693,5.4531],[-74.66694,5.45309],[-74.66695,5.45307],[-74.66697,5.45306],[-74.66698,5.45304],[-74.66699,5.45303],[-74.66701,5.45301],[-74.66702,5.453],[-74.66703,5.45298],[-74.66704,5.45297],[-74.66706,5.45295],[-74.66707,5.45294],[-74.66708,5.45293],[-74.66709,5.45291],[-74.6671,5.4529],[-74.66711,5.45288],[-74.66712,5.45287],[-74.66714,5.45285],[-74.66715,5.45283],[-74.66716,5.45282],[-74.66717,5.4528],[-74.66718,5.45278],[-74.66718,5.45277],[-74.66719,5.45275],[-74.6672,5.45273],[-74.66721,5.45271],[-74.66722,5.45269],[-74.66723,5.45267],[-74.66724,5.45266],[-74.66724,5.45264],[-74.66725,5.45262],[-74.66726,5.4526],[-74.66727,5.45259],[-74.66727,5.45257],[-74.66728,5.45256],[-74.66729,5.45254],[-74.66729,5.45253],[-74.6673,5.45251],[-74.66731,5.4525],[-74.66731,5.45249],[-74.66732,5.45247],[-74.66733,5.45246],[-74.66734,5.45245],[-74.66734,5.45244],[-74.66735,5.45242],[-74.66736,5.45241],[-74.66737,5.4524],[-74.66738,5.45239],[-74.66739,5.45237],[-74.6674,5.45236],[-74.6674,5.45235],[-74.66741,5.45233],[-74.66742,5.45232],[-74.66743,5.45231],[-74.66744,5.4523],[-74.66745,5.45228],[-74.66746,5.45227],[-74.66747,5.45226],[-74.66748,5.45224],[-74.66749,5.45223],[-74.66751,5.45221],[-74.66752,5.4522],[-74.66753,5.45218],[-74.66755,5.45216],[-74.66756,5.45214],[-74.66758,5.45212],[-74.6676,5.45209],[-74.66762,5.45207],[-74.66764,5.45204],[-74.66766,5.45201],[-74.66768,5.45198],[-74.6677,5.45195],[-74.66772,5.45192],[-74.66774,5.45189],[-74.66776,5.45186],[-74.66778,5.45183],[-74.6678,5.4518],[-74.66782,5.45177],[-74.66783,5.45175],[-74.66785,5.45172],[-74.66786,5.45169],[-74.66788,5.45166],[-74.66789,5.45164],[-74.66791,5.45161],[-74.66792,5.45158],[-74.66794,5.45155],[-74.66795,5.45152],[-74.66797,5.4515],[-74.66798,5.45147],[-74.66799,5.45144],[-74.66801,5.45141],[-74.66802,5.45138],[-74.66803,5.45136],[-74.66805,5.45134],[-74.66806,5.45131],[-74.66807,5.45129],[-74.66808,5.45127],[-74.66809,5.45125],[-74.6681,5.45122],[-74.66811,5.4512],[-74.66812,5.45118],[-74.66813,5.45116],[-74.66815,5.45114],[-74.66816,5.45111],[-74.66817,5.45109],[-74.66818,5.45107],[-74.66819,5.45104],[-74.6682,5.45102],[-74.66822,5.45099],[-74.66823,5.45097],[-74.66824,5.45094],[-74.66826,5.45092],[-74.66827,5.45089],[-74.66828,5.45086],[-74.66829,5.45084],[-74.66831,5.45081],[-74.66832,5.45078],[-74.66833,5.45076],[-74.66834,5.45073],[-74.66835,5.45071],[-74.66836,5.45068],[-74.66838,5.45066],[-74.66839,5.45064],[-74.6684,5.45061],[-74.6684,5.45059],[-74.66841,5.45057],[-74.66842,5.45054],[-74.66843,5.45052],[-74.66844,5.4505],[-74.66844,5.45048],[-74.66845,5.45045],[-74.66846,5.45043],[-74.66847,5.45041],[-74.66847,5.45039],[-74.66848,5.45036],[-74.66848,5.45034],[-74.66849,5.45031],[-74.66849,5.45029],[-74.6685,5.45027],[-74.6685,5.45024],[-74.66851,5.45022],[-74.66851,5.45019],[-74.66852,5.45016],[-74.66852,5.45014],[-74.66852,5.45011],[-74.66853,5.45009],[-74.66853,5.45006],[-74.66853,5.45003],[-74.66853,5.45001],[-74.66854,5.44998],[-74.66854,5.44995],[-74.66854,5.44993],[-74.66854,5.4499],[-74.66855,5.44987],[-74.66855,5.44985],[-74.66855,5.44982],[-74.66855,5.4498],[-74.66856,5.44977],[-74.66856,5.44975],[-74.66856,5.44972],[-74.66857,5.4497],[-74.66857,5.44967],[-74.66858,5.44965],[-74.66858,5.44962],[-74.66859,5.44959],[-74.6686,5.44957],[-74.66861,5.44954],[-74.66861,5.44951],[-74.66862,5.44948],[-74.66863,5.44945],[-74.66865,5.44942],[-74.66866,5.44939],[-74.66867,5.44935],[-74.66868,5.44932],[-74.6687,5.44929],[-74.66871,5.44925],[-74.66872,5.44922],[-74.66874,5.44918],[-74.66875,5.44915],[-74.66877,5.44911],[-74.66878,5.44908],[-74.6688,5.44904],[-74.66881,5.44901],[-74.66883,5.44897],[-74.66885,5.44894],[-74.66886,5.4489],[-74.66888,5.44887],[-74.66889,5.44883],[-74.66891,5.4488],[-74.66892,5.44876],[-74.66894,5.44873],[-74.66895,5.44869],[-74.66897,5.44866],[-74.66898,5.44863],[-74.66899,5.4486],[-74.669,5.44858],[-74.66901,5.44855],[-74.66902,5.44853],[-74.66903,5.44851],[-74.66904,5.44849],[-74.66904,5.44847],[-74.66905,5.44845],[-74.66905,5.44843],[-74.66906,5.44841],[-74.66906,5.44839],[-74.66907,5.44836],[-74.66907,5.44834],[-74.66907,5.44831],[-74.66907,5.44829],[-74.66908,5.44826],[-74.66908,5.44823],[-74.66909,5.44821],[-74.66909,5.44819],[-74.6691,5.44817],[-74.6691,5.44815],[-74.66911,5.44813],[-74.66911,5.44811],[-74.66912,5.44809],[-74.66913,5.44807],[-74.66913,5.44806],[-74.66914,5.44804],[-74.66915,5.44802],[-74.66916,5.44801],[-74.66917,5.44799],[-74.66918,5.44797],[-74.66919,5.44796],[-74.6692,5.44794],[-74.66921,5.44792],[-74.66922,5.4479],[-74.66923,5.44787],[-74.66925,5.44785],[-74.66926,5.44782],[-74.66927,5.4478],[-74.66929,5.44777],[-74.6693,5.44774],[-74.66931,5.44772],[-74.66932,5.44769],[-74.66934,5.44766],[-74.66935,5.44763],[-74.66936,5.44761],[-74.66937,5.44758],[-74.66938,5.44755],[-74.66939,5.44753],[-74.6694,5.4475],[-74.66941,5.44748],[-74.66941,5.44745],[-74.66942,5.44743],[-74.66943,5.4474],[-74.66944,5.44738],[-74.66945,5.44736],[-74.66946,5.44734],[-74.66947,5.44731],[-74.66947,5.44729],[-74.66948,5.44727],[-74.66949,5.44725],[-74.6695,5.44723],[-74.66951,5.44721],[-74.66952,5.44719],[-74.66953,5.44717],[-74.66955,5.44714],[-74.66956,5.44712],[-74.66958,5.4471],[-74.66959,5.44707],[-74.66961,5.44705],[-74.66962,5.44703],[-74.66964,5.447],[-74.66966,5.44698],[-74.66967,5.44695],[-74.66969,5.44693],[-74.66971,5.44691],[-74.66973,5.44688],[-74.66974,5.44686],[-74.66976,5.44684],[-74.66978,5.44682],[-74.6698,5.4468],[-74.66981,5.44678],[-74.66983,5.44676],[-74.66985,5.44674],[-74.66988,5.44672],[-74.6699,5.4467],[-74.66992,5.44668],[-74.67008,5.44661],[-74.67014,5.4466],[-74.67022,5.44685],[-74.67025,5.44693],[-74.67028,5.447],[-74.67032,5.44711],[-74.67037,5.44723],[-74.67042,5.44733],[-74.6705,5.44749],[-74.67051,5.44752],[-74.67052,5.44753],[-74.67054,5.44752],[-74.67061,5.4475],[-74.67077,5.44744],[-74.67081,5.44743],[-74.67083,5.44742],[-74.67088,5.44739],[-74.67095,5.44734],[-74.67098,5.44732],[-74.671,5.44731],[-74.67106,5.4473],[-74.6711,5.44726],[-74.67116,5.44719],[-74.67119,5.44719],[-74.67124,5.44718],[-74.67134,5.44719],[-74.67136,5.44718],[-74.6715,5.44706],[-74.67151,5.44705],[-74.6716,5.44703],[-74.67172,5.447],[-74.67177,5.44704],[-74.67183,5.44715],[-74.67227,5.44704],[-74.6723,5.4471],[-74.67239,5.4474],[-74.67256,5.44798],[-74.67262,5.44821],[-74.67286,5.44832],[-74.67313,5.44843]]},"properties":{"OBJECTID":2,"ID_DS":2,"CODSUELO":"1738001","CODDS":"2","TIPO":"Caño","NOMBRE":"Caño Lavapatas","LENGTH":2112.38983355,"Shape_Length":2112.3899928406213}},{"type":"Feature","id":3,"geometry":{"type":"LineString","coordinates":[[-74.67009,5.44661],[-74.66995,5.44623],[-74.66986,5.44601],[-74.66984,5.44596],[-74.6697,5.4456],[-74.66966,5.4455],[-74.66957,5.4453],[-74.66955,5.44523],[-74.66945,5.44509],[-74.66938,5.44497],[-74.66934,5.44482],[-74.6692,5.44423],[-74.6692,5.44413]]},"properties":{"OBJECTID":3,"ID_DS":3,"CODSUELO":"1738001","CODDS":"3","TIPO":"Caño","NOMBRE":" ","LENGTH":293.583244634,"Shape_Length":293.58321289974725}},{"type":"Feature","id":4,"geometry":{"type":"LineString","coordinates":[[-74.66158,5.4426],[-74.66195,5.44322],[-74.66221,5.44364],[-74.66224,5.4437],[-74.66226,5.4438],[-74.66228,5.44386],[-74.66263,5.44427],[-74.66265,5.44431],[-74.66272,5.44441],[-74.66291,5.4447],[-74.66296,5.44476],[-74.663,5.44482],[-74.66323,5.44515],[-74.6633,5.44524],[-74.66335,5.44534],[-74.66339,5.44542],[-74.66344,5.44549],[-74.66351,5.44559],[-74.66365,5.44579],[-74.66371,5.44588],[-74.66373,5.44591],[-74.66377,5.44595],[-74.66383,5.44601],[-74.6639,5.4461],[-74.66404,5.4463],[-74.6641,5.44638],[-74.66422,5.44655],[-74.66432,5.4467],[-74.66434,5.44672],[-74.66435,5.44674]]},"properties":{"OBJECTID":4,"ID_DS":4,"CODSUELO":"1738001","CODDS":"4","TIPO":"Caño","NOMBRE":" ","LENGTH":552.64275035,"Shape_Length":552.6427580617385}},{"type":"Feature","id":5,"geometry":{"type":"LineString","coordinates":[[-74.67784,5.49655],[-74.67674,5.49633],[-74.67584,5.49627],[-74.67543,5.49601],[-74.67527,5.49564],[-74.67505,5.49533],[-74.67464,5.49508],[-74.67448,5.49474],[-74.67486,5.49425],[-74.67635,5.49346],[-74.67711,5.49269],[-74.67804,5.49116],[-74.67822,5.4909],[-74.67844,5.49051],[-74.67861,5.49019],[-74.67843,5.4896],[-74.67826,5.48921],[-74.67818,5.48871],[-74.67806,5.48817],[-74.67805,5.48771],[-74.67809,5.48736],[-74.6781,5.48705],[-74.6778,5.48642],[-74.67746,5.48595],[-74.67718,5.4857],[-74.67697,5.4855],[-74.6766,5.48524],[-74.67615,5.4849],[-74.67579,5.48469],[-74.67544,5.48446],[-74.6752,5.48422],[-74.67504,5.48397],[-74.67509,5.48355],[-74.67519,5.48331],[-74.67537,5.4831],[-74.67563,5.48298],[-74.67588,5.48289],[-74.67621,5.48273],[-74.67645,5.48265],[-74.67682,5.48246],[-74.67714,5.48216],[-74.67741,5.48175],[-74.67765,5.48136],[-74.67788,5.48097],[-74.67815,5.48081],[-74.6786,5.48071],[-74.679,5.48063],[-74.67936,5.48053],[-74.67975,5.48048],[-74.68001,5.48043],[-74.68024,5.48023],[-74.68039,5.47989],[-74.68028,5.47942],[-74.68005,5.47912],[-74.67974,5.47884],[-74.67955,5.47845],[-74.67972,5.47816],[-74.68014,5.47822],[-74.68061,5.47835],[-74.68107,5.47851],[-74.68141,5.4787],[-74.68169,5.47882],[-74.68206,5.47896],[-74.68245,5.47901],[-74.68282,5.47902],[-74.68314,5.4791],[-74.68331,5.47949],[-74.68332,5.48072],[-74.68368,5.4808],[-74.68452,5.48032],[-74.68515,5.48007],[-74.68591,5.48015],[-74.68657,5.48055],[-74.68699,5.48056],[-74.68732,5.48032],[-74.68826,5.47927],[-74.68856,5.47918],[-74.68916,5.47914]]},"properties":{"OBJECTID":5,"ID_DS":5,"CODSUELO":"1738001","CODDS":"5","TIPO":"Caño","NOMBRE":"Caño San Javier","LENGTH":4359.95283791,"Shape_Length":4359.952837914263}},{"type":"Feature","id":6,"geometry":{"type":"LineString","coordinates":[[-74.66448,5.46245],[-74.66467,5.46222],[-74.6652,5.46194],[-74.66546,5.46188],[-74.66545,5.46177],[-74.66554,5.46174],[-74.66591,5.4616],[-74.66599,5.46156],[-74.66608,5.46151],[-74.66615,5.4614],[-74.66618,5.46132],[-74.66619,5.46125],[-74.66617,5.46113],[-74.66611,5.4609],[-74.66612,5.46071],[-74.6661,5.46052],[-74.66608,5.46045],[-74.66609,5.46036],[-74.66618,5.46011],[-74.66619,5.45999],[-74.66626,5.45961],[-74.66636,5.45947],[-74.66644,5.45942],[-74.66653,5.4594],[-74.66663,5.45937],[-74.66696,5.45934],[-74.66708,5.45936],[-74.66716,5.45944],[-74.66725,5.45944],[-74.66731,5.45942],[-74.6675,5.45941],[-74.66769,5.45946],[-74.66782,5.45953],[-74.66791,5.45965],[-74.66793,5.45977],[-74.66796,5.45987],[-74.66798,5.45998],[-74.66809,5.46001],[-74.66835,5.46003],[-74.6685,5.46004],[-74.66856,5.45995],[-74.66864,5.45983],[-74.66868,5.45972],[-74.66871,5.45964],[-74.66885,5.4595],[-74.669,5.45936],[-74.66917,5.45927],[-74.66921,5.45926],[-74.66934,5.45923],[-74.66949,5.45917],[-74.66946,5.45909],[-74.66967,5.45886],[-74.66973,5.45882],[-74.66992,5.45872],[-74.66996,5.45869],[-74.67006,5.45864],[-74.67019,5.45859],[-74.67026,5.45856],[-74.67044,5.45849],[-74.6705,5.45845],[-74.67073,5.45838],[-74.67077,5.45835],[-74.67108,5.45824],[-74.67117,5.45816],[-74.67149,5.45806],[-74.67157,5.45804],[-74.6717,5.45806],[-74.67174,5.45806],[-74.67183,5.45803],[-74.67184,5.45805],[-74.67187,5.45805],[-74.67201,5.45799],[-74.67214,5.45788],[-74.6722,5.45785],[-74.67242,5.45789],[-74.67243,5.45795],[-74.67246,5.45801],[-74.6725,5.45815]]},"properties":{"OBJECTID":6,"ID_DS":6,"CODSUELO":"1738001","CODDS":"6","TIPO":"Quebrada","NOMBRE":"Quebrada Aguas Blancas","LENGTH":1299.62020103,"Shape_Length":1299.6201670423845}}]}