{"type":"FeatureCollection","name":"Humedales_2026","crs":{"type":"name","properties":{"name":"urn:ogc:def:crs:OGC:1.3:CRS84"}},"features":[{"type":"Feature","id":1,"geometry":{"type":"Polygon","coordinates":[[[-75.54133,5.4256],[-75.54134,5.4256],[-75.54135,5.4256],[-75.54136,5.4256],[-75.54137,5.42559],[-75.54138,5.42558],[-75.54138,5.42557],[-75.54139,5.42556],[-75.5414,5.42555],[-75.5414,5.42554],[-75.54141,5.42553],[-75.54141,5.42552],[-75.54141,5.42551],[-75.54142,5.4255],[-75.54142,5.42548],[-75.54142,5.42547],[-75.54142,5.42546],[-75.54142,5.42545],[-75.54142,5.42544],[-75.54142,5.42543],[-75.54142,5.42541],[-75.54142,5.4254],[-75.54143,5.42539],[-75.54145,5.42538],[-75.54146,5.42537],[-75.54147,5.42537],[-75.54148,5.42536],[-75.54148,5.42536],[-75.54149,5.42535],[-75.5415,5.42534],[-75.54151,5.42533],[-75.54151,5.42532],[-75.54151,5.4253],[-75.54151,5.42529],[-75.54151,5.42528],[-75.54151,5.42527],[-75.5415,5.42526],[-75.54149,5.42524],[-75.54148,5.42523],[-75.54148,5.42522],[-75.54147,5.42522],[-75.54146,5.4252],[-75.54145,5.4252],[-75.54144,5.4252],[-75.54143,5.4252],[-75.54141,5.4252],[-75.5414,5.4252],[-75.54139,5.4252],[-75.54137,5.4252],[-75.54136,5.4252],[-75.54135,5.4252],[-75.54134,5.42519],[-75.54133,5.42519],[-75.54132,5.42518],[-75.54131,5.42518],[-75.5413,5.42517],[-75.54129,5.42517],[-75.54128,5.42516],[-75.54127,5.42515],[-75.54127,5.42514],[-75.54127,5.42513],[-75.54126,5.42512],[-75.54126,5.42511],[-75.54125,5.4251],[-75.54124,5.42509],[-75.54123,5.42509],[-75.54123,5.42507],[-75.54123,5.42506],[-75.54122,5.42505],[-75.54121,5.42504],[-75.5412,5.42504],[-75.54119,5.42503],[-75.54118,5.42502],[-75.54117,5.42502],[-75.54117,5.42501],[-75.54115,5.42501],[-75.54113,5.425],[-75.54112,5.42501],[-75.54111,5.42501],[-75.5411,5.42502],[-75.54109,5.42502],[-75.54109,5.42503],[-75.54108,5.42504],[-75.54107,5.42505],[-75.54107,5.42506],[-75.54106,5.42507],[-75.54105,5.42508],[-75.54105,5.42509],[-75.54104,5.4251],[-75.54104,5.42511],[-75.54103,5.42512],[-75.54102,5.42513],[-75.54101,5.42514],[-75.54101,5.42515],[-75.541,5.42516],[-75.541,5.42517],[-75.54099,5.42518],[-75.54099,5.42519],[-75.54099,5.4252],[-75.54099,5.42522],[-75.541,5.42522],[-75.541,5.42523],[-75.54101,5.42524],[-75.54101,5.42525],[-75.54102,5.42526],[-75.54102,5.42527],[-75.54103,5.42528],[-75.54103,5.42529],[-75.54104,5.4253],[-75.54104,5.42531],[-75.54104,5.42532],[-75.54105,5.42534],[-75.54105,5.42535],[-75.54106,5.42536],[-75.54106,5.42537],[-75.54106,5.42538],[-75.54107,5.4254],[-75.54108,5.42541],[-75.54109,5.42541],[-75.5411,5.42541],[-75.54111,5.42542],[-75.54112,5.42542],[-75.54113,5.42543],[-75.54115,5.42544],[-75.54116,5.42545],[-75.54116,5.42546],[-75.54116,5.42547],[-75.54117,5.42548],[-75.54117,5.42549],[-75.54118,5.4255],[-75.54119,5.42551],[-75.54119,5.42552],[-75.5412,5.42553],[-75.54121,5.42554],[-75.54121,5.42555],[-75.54122,5.42556],[-75.54123,5.42556],[-75.54124,5.42557],[-75.54125,5.42558],[-75.54126,5.42558],[-75.54127,5.42559],[-75.54129,5.42559],[-75.5413,5.42559],[-75.54132,5.42559],[-75.54133,5.4256]]]},"properties":{"OBJECTID":1,"Shape_Length":193.12091089738814,"Shape_Area":2157.642188937038,"Nombre":"Pantano","Radicado":"2026-II-00022881"}},{"type":"Feature","id":2,"geometry":{"type":"Polygon","coordinates":[[[-75.54013,5.42726],[-75.54014,5.42727],[-75.54016,5.42727],[-75.54017,5.42727],[-75.54019,5.42727],[-75.54021,5.42727],[-75.54022,5.42727],[-75.54024,5.42726],[-75.54024,5.42724],[-75.54024,5.42723],[-75.54025,5.42722],[-75.54025,5.4272],[-75.54025,5.42718],[-75.54025,5.42716],[-75.54025,5.42715],[-75.54025,5.42713],[-75.54024,5.42712],[-75.54023,5.4271],[-75.54022,5.42708],[-75.54022,5.42707],[-75.54021,5.42706],[-75.54021,5.42704],[-75.54021,5.42702],[-75.54021,5.427],[-75.54021,5.42698],[-75.54021,5.42697],[-75.54021,5.42695],[-75.5402,5.42694],[-75.5402,5.42692],[-75.5402,5.4269],[-75.5402,5.42688],[-75.5402,5.42687],[-75.54019,5.42686],[-75.54018,5.42684],[-75.54017,5.42683],[-75.54016,5.42682],[-75.54016,5.42681],[-75.54016,5.42679],[-75.54016,5.42677],[-75.54017,5.42676],[-75.54017,5.42674],[-75.54017,5.42673],[-75.54016,5.42671],[-75.54016,5.4267],[-75.54015,5.42669],[-75.54014,5.42667],[-75.54013,5.42666],[-75.54012,5.42665],[-75.54011,5.42663],[-75.54011,5.42662],[-75.54011,5.4266],[-75.54011,5.42658],[-75.54011,5.42657],[-75.54011,5.42655],[-75.54011,5.42653],[-75.54011,5.42652],[-75.5401,5.4265],[-75.5401,5.42649],[-75.5401,5.42647],[-75.54009,5.42646],[-75.54009,5.42644],[-75.54008,5.42643],[-75.54007,5.42642],[-75.54005,5.42641],[-75.54005,5.4264],[-75.54004,5.42639],[-75.54003,5.42637],[-75.54003,5.42636],[-75.54002,5.42634],[-75.54002,5.42633],[-75.54002,5.42631],[-75.54001,5.4263],[-75.54001,5.42628],[-75.54001,5.42627],[-75.54,5.42626],[-75.54,5.42624],[-75.54,5.42623],[-75.53999,5.42621],[-75.53999,5.4262],[-75.53998,5.42619],[-75.53997,5.42617],[-75.53996,5.42616],[-75.53995,5.42615],[-75.53994,5.42614],[-75.53993,5.42613],[-75.53991,5.42613],[-75.5399,5.42612],[-75.53989,5.42611],[-75.53988,5.4261],[-75.53986,5.42609],[-75.53985,5.42609],[-75.53983,5.42609],[-75.53982,5.42609],[-75.53981,5.42608],[-75.53979,5.42607],[-75.53978,5.42606],[-75.53977,5.42605],[-75.53974,5.42605],[-75.53973,5.42604],[-75.53972,5.42603],[-75.5397,5.42602],[-75.53969,5.42601],[-75.53967,5.426],[-75.53966,5.42599],[-75.53966,5.42597],[-75.53964,5.42596],[-75.53964,5.42594],[-75.53964,5.42592],[-75.53963,5.42591],[-75.53963,5.42589],[-75.53963,5.42587],[-75.53963,5.42586],[-75.53963,5.42584],[-75.53963,5.42582],[-75.53963,5.42581],[-75.53962,5.4258],[-75.53962,5.42579],[-75.53961,5.42578],[-75.5396,5.42575],[-75.53959,5.42574],[-75.53958,5.42573],[-75.53957,5.42571],[-75.53956,5.4257],[-75.53956,5.42569],[-75.53955,5.42567],[-75.53953,5.42567],[-75.53952,5.42566],[-75.53949,5.42565],[-75.53948,5.42565],[-75.53946,5.42564],[-75.53945,5.42565],[-75.53944,5.42566],[-75.53943,5.42567],[-75.53942,5.42568],[-75.53941,5.4257],[-75.5394,5.42571],[-75.53939,5.42572],[-75.53938,5.42573],[-75.53937,5.42574],[-75.53936,5.42575],[-75.53935,5.42576],[-75.53935,5.42578],[-75.53934,5.4258],[-75.53934,5.42581],[-75.53934,5.42582],[-75.53933,5.42585],[-75.53933,5.42586],[-75.53933,5.42588],[-75.53933,5.4259],[-75.53932,5.42591],[-75.53931,5.42592],[-75.53931,5.42594],[-75.5393,5.42595],[-75.5393,5.42597],[-75.53929,5.42598],[-75.53929,5.42599],[-75.53929,5.42602],[-75.53928,5.42603],[-75.53928,5.42605],[-75.53927,5.42606],[-75.53927,5.42608],[-75.53926,5.42609],[-75.53924,5.42611],[-75.53924,5.42612],[-75.53923,5.42614],[-75.53923,5.42615],[-75.53924,5.42616],[-75.53924,5.42618],[-75.53925,5.4262],[-75.53925,5.42622],[-75.53925,5.42623],[-75.53925,5.42625],[-75.53926,5.42626],[-75.53926,5.42628],[-75.53926,5.42629],[-75.53926,5.42631],[-75.53926,5.42632],[-75.53927,5.42634],[-75.53928,5.42635],[-75.53929,5.42637],[-75.53929,5.42638],[-75.5393,5.42639],[-75.53931,5.42641],[-75.53931,5.42643],[-75.53931,5.42644],[-75.53932,5.42646],[-75.53933,5.42647],[-75.53933,5.42649],[-75.53934,5.4265],[-75.53935,5.42651],[-75.53936,5.42652],[-75.53937,5.42655],[-75.53937,5.42656],[-75.53938,5.42657],[-75.53938,5.42659],[-75.53938,5.42661],[-75.53938,5.42663],[-75.53938,5.42665],[-75.53939,5.42666],[-75.5394,5.42668],[-75.53941,5.42669],[-75.53942,5.4267],[-75.53942,5.42672],[-75.53943,5.42673],[-75.53944,5.42674],[-75.53945,5.42676],[-75.53946,5.42678],[-75.53946,5.42678],[-75.53948,5.4268],[-75.53949,5.42681],[-75.5395,5.42682],[-75.53952,5.42683],[-75.53953,5.42683],[-75.53955,5.42684],[-75.53955,5.42685],[-75.53956,5.42685],[-75.53958,5.42685],[-75.53961,5.42686],[-75.53963,5.42686],[-75.53964,5.42687],[-75.53965,5.42688],[-75.53966,5.42689],[-75.53968,5.4269],[-75.53969,5.4269],[-75.5397,5.42691],[-75.53972,5.42691],[-75.53974,5.42693],[-75.53974,5.42694],[-75.53975,5.42695],[-75.53976,5.42697],[-75.53977,5.42698],[-75.53978,5.42699],[-75.53979,5.427],[-75.5398,5.42702],[-75.53981,5.42703],[-75.53982,5.42704],[-75.53983,5.42705],[-75.53984,5.42705],[-75.53985,5.42706],[-75.53987,5.42707],[-75.53988,5.42708],[-75.5399,5.42709],[-75.53991,5.4271],[-75.53993,5.42711],[-75.53994,5.42712],[-75.53995,5.42713],[-75.53996,5.42715],[-75.53998,5.42716],[-75.53999,5.42718],[-75.54001,5.42719],[-75.54002,5.4272],[-75.54004,5.42721],[-75.54005,5.42721],[-75.54006,5.42722],[-75.54007,5.42723],[-75.54008,5.42724],[-75.5401,5.42725],[-75.54011,5.42726],[-75.54013,5.42726]]]},"properties":{"OBJECTID":2,"Shape_Length":466.2711351967022,"Shape_Area":10294.33226173693,"Nombre":"Jaguey","Radicado":"2026-II-00022881"}},{"type":"Feature","id":3,"geometry":{"type":"Polygon","coordinates":[[[-75.49815,5.16071],[-75.49825,5.16064],[-75.49825,5.16044],[-75.4982,5.16023],[-75.49805,5.1601],[-75.4979,5.15997],[-75.4977,5.15978],[-75.49749,5.15956],[-75.4974,5.15944],[-75.49733,5.15915],[-75.49738,5.15904],[-75.49744,5.15899],[-75.4975,5.15893],[-75.49758,5.15891],[-75.49742,5.15884],[-75.4973,5.15876],[-75.49717,5.15869],[-75.49702,5.15868],[-75.49695,5.15869],[-75.49678,5.15871],[-75.49664,5.15867],[-75.49641,5.15868],[-75.49621,5.1586],[-75.49599,5.15856],[-75.49581,5.1586],[-75.49571,5.15865],[-75.4956,5.1587],[-75.4955,5.15885],[-75.49548,5.15908],[-75.49545,5.1592],[-75.49541,5.15932],[-75.49542,5.15948],[-75.49543,5.15964],[-75.49532,5.15976],[-75.49523,5.15973],[-75.4952,5.15973],[-75.49515,5.15973],[-75.49512,5.15973],[-75.49511,5.15968],[-75.49511,5.15966],[-75.4951,5.15963],[-75.49509,5.15957],[-75.49509,5.15954],[-75.49507,5.15945],[-75.49506,5.15942],[-75.49504,5.15934],[-75.49501,5.15932],[-75.49497,5.15929],[-75.49495,5.15922],[-75.49494,5.15915],[-75.49493,5.15913],[-75.49492,5.15909],[-75.49489,5.15903],[-75.49489,5.159],[-75.49487,5.15894],[-75.49484,5.15884],[-75.49482,5.15879],[-75.49479,5.15875],[-75.49475,5.15872],[-75.49471,5.1587],[-75.49463,5.15868],[-75.49462,5.15867],[-75.49457,5.15865],[-75.4945,5.15861],[-75.49448,5.1586],[-75.49443,5.15858],[-75.49436,5.15856],[-75.49428,5.15854],[-75.49429,5.15849],[-75.49429,5.15842],[-75.49439,5.15839],[-75.4945,5.15836],[-75.49456,5.15837],[-75.49463,5.15838],[-75.49467,5.15839],[-75.49472,5.1584],[-75.49478,5.15843],[-75.49483,5.15843],[-75.49484,5.15839],[-75.49477,5.15835],[-75.49467,5.15829],[-75.49452,5.15827],[-75.49448,5.15826],[-75.49438,5.15823],[-75.49436,5.15822],[-75.49426,5.1582],[-75.49417,5.1582],[-75.49408,5.15823],[-75.49395,5.15824],[-75.49392,5.15829],[-75.49391,5.15835],[-75.49391,5.15837],[-75.49392,5.15845],[-75.49392,5.15853],[-75.49393,5.15861],[-75.49408,5.15868],[-75.4942,5.15869],[-75.49431,5.15872],[-75.49442,5.15875],[-75.49452,5.15878],[-75.49463,5.15882],[-75.49473,5.15883],[-75.49481,5.15889],[-75.49482,5.15894],[-75.49482,5.15898],[-75.49483,5.15909],[-75.49487,5.1592],[-75.49489,5.15925],[-75.49492,5.15931],[-75.49495,5.15939],[-75.49499,5.15945],[-75.49502,5.1595],[-75.49503,5.15962],[-75.49495,5.15959],[-75.49494,5.15949],[-75.49487,5.15941],[-75.49483,5.15934],[-75.49481,5.15929],[-75.49472,5.15925],[-75.49462,5.15923],[-75.49454,5.15922],[-75.49448,5.15918],[-75.4944,5.15915],[-75.49433,5.15917],[-75.49431,5.15924],[-75.4943,5.1593],[-75.49437,5.15931],[-75.49447,5.15931],[-75.49454,5.15938],[-75.49458,5.15946],[-75.49462,5.15952],[-75.49469,5.15957],[-75.49472,5.15964],[-75.49476,5.15969],[-75.49484,5.1597],[-75.49483,5.15981],[-75.49478,5.15987],[-75.49478,5.15997],[-75.49467,5.15997],[-75.49456,5.15992],[-75.49438,5.1598],[-75.49439,5.15974],[-75.49448,5.15981],[-75.49452,5.15983],[-75.49457,5.15985],[-75.49459,5.15979],[-75.49452,5.15972],[-75.49451,5.15972],[-75.4945,5.15971],[-75.49444,5.15968],[-75.49439,5.15964],[-75.49436,5.15961],[-75.49432,5.15957],[-75.49426,5.15951],[-75.49423,5.15948],[-75.49419,5.15945],[-75.49415,5.15943],[-75.4941,5.15943],[-75.49408,5.15943],[-75.49406,5.15943],[-75.49404,5.15946],[-75.49402,5.15948],[-75.49401,5.15952],[-75.49401,5.15955],[-75.494,5.15959],[-75.49399,5.15963],[-75.49398,5.15965],[-75.49396,5.15968],[-75.49392,5.15965],[-75.4939,5.15963],[-75.49389,5.15959],[-75.49388,5.15955],[-75.49387,5.15954],[-75.49383,5.15951],[-75.4938,5.15949],[-75.49378,5.15946],[-75.49374,5.15941],[-75.49374,5.15938],[-75.49374,5.15934],[-75.49373,5.15931],[-75.49371,5.15926],[-75.49372,5.15924],[-75.49372,5.15921],[-75.49371,5.15919],[-75.49369,5.15915],[-75.49365,5.15914],[-75.49363,5.15913],[-75.49361,5.15916],[-75.4936,5.15919],[-75.49358,5.15921],[-75.49356,5.15923],[-75.49354,5.15925],[-75.49351,5.15926],[-75.49348,5.15929],[-75.49345,5.15931],[-75.49345,5.15935],[-75.49342,5.15939],[-75.49344,5.15947],[-75.49346,5.15951],[-75.49347,5.15956],[-75.4935,5.1596],[-75.49352,5.15964],[-75.49353,5.15969],[-75.49355,5.15973],[-75.49358,5.15976],[-75.49358,5.1598],[-75.49353,5.15982],[-75.49342,5.15982],[-75.49328,5.15984],[-75.49323,5.15981],[-75.49319,5.15979],[-75.49316,5.15973],[-75.49308,5.15962],[-75.49304,5.15959],[-75.49302,5.15957],[-75.49299,5.1595],[-75.49294,5.15948],[-75.49289,5.15947],[-75.49283,5.15945],[-75.49277,5.15946],[-75.49273,5.15949],[-75.49265,5.15952],[-75.49264,5.15956],[-75.49268,5.15959],[-75.49271,5.15961],[-75.49273,5.15965],[-75.49276,5.15968],[-75.4928,5.15974],[-75.49286,5.15985],[-75.49291,5.15998],[-75.49295,5.16008],[-75.49298,5.16018],[-75.49311,5.16039],[-75.49312,5.16051],[-75.49318,5.1608],[-75.4932,5.16092],[-75.4932,5.16107],[-75.49309,5.16123],[-75.49296,5.16134],[-75.49281,5.16142],[-75.49275,5.16149],[-75.49259,5.16168],[-75.49257,5.16182],[-75.49249,5.16196],[-75.49243,5.16212],[-75.49237,5.1623],[-75.49235,5.16246],[-75.49236,5.16262],[-75.49246,5.16267],[-75.49255,5.16264],[-75.49272,5.16251],[-75.49288,5.16245],[-75.49298,5.16231],[-75.49314,5.16237],[-75.49328,5.16234],[-75.49337,5.16231],[-75.49348,5.16224],[-75.49357,5.16212],[-75.49375,5.16204],[-75.49388,5.16195],[-75.49392,5.16183],[-75.49397,5.16172],[-75.49409,5.16164],[-75.49421,5.16156],[-75.49432,5.16151],[-75.49443,5.16147],[-75.49447,5.16135],[-75.49459,5.16127],[-75.49472,5.1612],[-75.49498,5.16109],[-75.49516,5.16096],[-75.49527,5.16094],[-75.49539,5.16092],[-75.49553,5.16087],[-75.49564,5.16073],[-75.49577,5.16072],[-75.4959,5.16071],[-75.49603,5.16071],[-75.49615,5.16071],[-75.49623,5.16077],[-75.49631,5.16082],[-75.49648,5.16088],[-75.49664,5.16095],[-75.49682,5.16099],[-75.49701,5.16094],[-75.49716,5.16095],[-75.49731,5.16096],[-75.49747,5.16099],[-75.49772,5.16099],[-75.4979,5.16094],[-75.49797,5.16086],[-75.49804,5.16078],[-75.49815,5.16071]]]},"properties":{"OBJECTID":3,"Shape_Length":3082.567032839965,"Shape_Area":135144.34024663843,"Nombre":"Cementos Neira","Radicado":null}}]}