{"type":"FeatureCollection","name":"Fajas_Humedales_2026","crs":{"type":"name","properties":{"name":"urn:ogc:def:crs:OGC:1.3:CRS84"}},"features":[{"type":"Feature","id":1,"geometry":{"type":"Polygon","coordinates":[[[-75.5409,5.42561],[-75.54091,5.42562],[-75.54093,5.42563],[-75.54094,5.42564],[-75.54095,5.42565],[-75.54095,5.42565],[-75.54096,5.42566],[-75.54096,5.42566],[-75.54097,5.42567],[-75.54098,5.42568],[-75.54098,5.42569],[-75.54099,5.4257],[-75.54099,5.4257],[-75.54099,5.4257],[-75.541,5.42571],[-75.541,5.42572],[-75.54101,5.42572],[-75.54102,5.42574],[-75.54103,5.42575],[-75.54104,5.42576],[-75.54106,5.42577],[-75.54107,5.42578],[-75.54107,5.42579],[-75.54109,5.4258],[-75.5411,5.42581],[-75.54112,5.42582],[-75.54113,5.42583],[-75.54115,5.42583],[-75.54116,5.42584],[-75.54117,5.42584],[-75.54117,5.42584],[-75.54117,5.42584],[-75.54117,5.42584],[-75.54119,5.42585],[-75.5412,5.42585],[-75.54122,5.42586],[-75.54124,5.42586],[-75.54125,5.42586],[-75.54126,5.42586],[-75.54126,5.42586],[-75.54126,5.42586],[-75.54127,5.42586],[-75.54128,5.42586],[-75.54129,5.42586],[-75.5413,5.42587],[-75.54132,5.42587],[-75.54134,5.42587],[-75.54135,5.42587],[-75.54136,5.42587],[-75.54136,5.42587],[-75.54138,5.42587],[-75.5414,5.42587],[-75.54141,5.42586],[-75.54143,5.42586],[-75.54145,5.42585],[-75.54147,5.42585],[-75.54148,5.42584],[-75.54149,5.42584],[-75.54149,5.42584],[-75.54151,5.42583],[-75.54152,5.42582],[-75.54154,5.42581],[-75.54155,5.4258],[-75.54156,5.42578],[-75.54158,5.42577],[-75.54159,5.42576],[-75.5416,5.42574],[-75.54161,5.42573],[-75.54161,5.42571],[-75.54162,5.4257],[-75.54162,5.4257],[-75.54162,5.4257],[-75.54163,5.42569],[-75.54164,5.42567],[-75.54164,5.42566],[-75.54164,5.42566],[-75.54164,5.42566],[-75.54165,5.42565],[-75.54166,5.42563],[-75.54166,5.42562],[-75.54166,5.42561],[-75.54166,5.42561],[-75.54166,5.42561],[-75.54167,5.42559],[-75.54168,5.42558],[-75.54168,5.42557],[-75.54168,5.42556],[-75.54168,5.42555],[-75.54168,5.42554],[-75.54168,5.42554],[-75.54168,5.42554],[-75.54169,5.42554],[-75.5417,5.42553],[-75.54171,5.42551],[-75.54172,5.4255],[-75.54173,5.42548],[-75.54173,5.42548],[-75.54173,5.42548],[-75.54173,5.42548],[-75.54173,5.42548],[-75.54174,5.42546],[-75.54175,5.42545],[-75.54176,5.42543],[-75.54176,5.42541],[-75.54177,5.4254],[-75.54177,5.4254],[-75.54177,5.4254],[-75.54177,5.42539],[-75.54178,5.42537],[-75.54178,5.42536],[-75.54178,5.42534],[-75.54178,5.42532],[-75.54178,5.4253],[-75.54178,5.42529],[-75.54178,5.42528],[-75.54178,5.42528],[-75.54178,5.42526],[-75.54178,5.42524],[-75.54178,5.42522],[-75.54178,5.42521],[-75.54177,5.42519],[-75.54176,5.42517],[-75.54176,5.42516],[-75.54176,5.42516],[-75.54175,5.42514],[-75.54174,5.42513],[-75.54173,5.42511],[-75.54173,5.4251],[-75.54172,5.4251],[-75.54172,5.42509],[-75.54171,5.42508],[-75.5417,5.42506],[-75.54169,5.42506],[-75.54169,5.42506],[-75.54169,5.42506],[-75.54169,5.42505],[-75.54167,5.42504],[-75.54166,5.42502],[-75.54165,5.42501],[-75.54165,5.42501],[-75.54164,5.425],[-75.54162,5.42499],[-75.54161,5.42498],[-75.54159,5.42497],[-75.54158,5.42496],[-75.54157,5.42496],[-75.54157,5.42495],[-75.54155,5.42495],[-75.54153,5.42494],[-75.54152,5.42494],[-75.5415,5.42493],[-75.54148,5.42493],[-75.54146,5.42493],[-75.54146,5.42493],[-75.54145,5.42491],[-75.54145,5.4249],[-75.54144,5.42489],[-75.54143,5.42488],[-75.54143,5.42487],[-75.54142,5.42486],[-75.5414,5.42485],[-75.54139,5.42484],[-75.54138,5.42482],[-75.54136,5.42481],[-75.54136,5.42481],[-75.54136,5.42481],[-75.54136,5.42481],[-75.54135,5.4248],[-75.54133,5.42479],[-75.54132,5.42478],[-75.5413,5.42478],[-75.54129,5.42477],[-75.54128,5.42477],[-75.54128,5.42477],[-75.54128,5.42477],[-75.54127,5.42476],[-75.54125,5.42475],[-75.54123,5.42475],[-75.54122,5.42475],[-75.54122,5.42474],[-75.54121,5.42474],[-75.54121,5.42474],[-75.5412,5.42474],[-75.54119,5.42474],[-75.54117,5.42473],[-75.54115,5.42473],[-75.54113,5.42473],[-75.54111,5.42473],[-75.5411,5.42473],[-75.54108,5.42474],[-75.54107,5.42474],[-75.54106,5.42474],[-75.54105,5.42474],[-75.54103,5.42475],[-75.54102,5.42476],[-75.541,5.42476],[-75.54099,5.42477],[-75.54098,5.42477],[-75.54098,5.42477],[-75.54097,5.42478],[-75.54095,5.42479],[-75.54094,5.4248],[-75.54092,5.42481],[-75.54091,5.42482],[-75.5409,5.42483],[-75.5409,5.42483],[-75.54089,5.42485],[-75.54088,5.42486],[-75.54087,5.42487],[-75.54087,5.42487],[-75.54086,5.42489],[-75.54085,5.4249],[-75.54085,5.4249],[-75.54085,5.4249],[-75.54084,5.42491],[-75.54083,5.42492],[-75.54082,5.42493],[-75.54082,5.42495],[-75.54081,5.42496],[-75.54081,5.42496],[-75.5408,5.42497],[-75.5408,5.42497],[-75.54079,5.42498],[-75.54078,5.425],[-75.54077,5.42501],[-75.54077,5.42503],[-75.54076,5.42504],[-75.54075,5.42505],[-75.54075,5.42505],[-75.54075,5.42507],[-75.54074,5.42508],[-75.54073,5.4251],[-75.54073,5.4251],[-75.54073,5.42511],[-75.54073,5.42512],[-75.54073,5.42514],[-75.54072,5.42516],[-75.54072,5.42517],[-75.54072,5.42519],[-75.54072,5.4252],[-75.54072,5.42522],[-75.54072,5.42522],[-75.54072,5.42524],[-75.54072,5.42525],[-75.54073,5.42527],[-75.54073,5.42529],[-75.54074,5.4253],[-75.54074,5.42532],[-75.54075,5.42534],[-75.54076,5.42535],[-75.54077,5.42537],[-75.54077,5.42537],[-75.54077,5.42538],[-75.54078,5.42539],[-75.54078,5.4254],[-75.54078,5.4254],[-75.54079,5.42541],[-75.54079,5.42543],[-75.5408,5.42544],[-75.5408,5.42545],[-75.5408,5.42546],[-75.54081,5.42547],[-75.54081,5.42547],[-75.54081,5.42547],[-75.54081,5.42548],[-75.54082,5.42549],[-75.54082,5.42549],[-75.54082,5.42549],[-75.54082,5.4255],[-75.54082,5.4255],[-75.54083,5.42552],[-75.54084,5.42553],[-75.54085,5.42555],[-75.54085,5.42556],[-75.54086,5.42557],[-75.54086,5.42557],[-75.54088,5.42559],[-75.54089,5.4256],[-75.5409,5.42561]],[[-75.54146,5.4252],[-75.54147,5.42522],[-75.54148,5.42522],[-75.54148,5.42523],[-75.54149,5.42524],[-75.5415,5.42526],[-75.54151,5.42527],[-75.54151,5.42528],[-75.54151,5.42529],[-75.54151,5.4253],[-75.54151,5.42532],[-75.54151,5.42533],[-75.5415,5.42534],[-75.54149,5.42535],[-75.54148,5.42536],[-75.54148,5.42536],[-75.54147,5.42537],[-75.54146,5.42537],[-75.54145,5.42538],[-75.54143,5.42539],[-75.54142,5.4254],[-75.54142,5.42541],[-75.54142,5.42543],[-75.54142,5.42544],[-75.54142,5.42545],[-75.54142,5.42546],[-75.54142,5.42547],[-75.54142,5.42548],[-75.54142,5.4255],[-75.54141,5.42551],[-75.54141,5.42552],[-75.54141,5.42553],[-75.5414,5.42554],[-75.5414,5.42555],[-75.54139,5.42556],[-75.54138,5.42557],[-75.54138,5.42558],[-75.54137,5.42559],[-75.54136,5.4256],[-75.54135,5.4256],[-75.54134,5.4256],[-75.54133,5.4256],[-75.54132,5.42559],[-75.5413,5.42559],[-75.54129,5.42559],[-75.54127,5.42559],[-75.54126,5.42558],[-75.54125,5.42558],[-75.54124,5.42557],[-75.54123,5.42556],[-75.54122,5.42556],[-75.54121,5.42555],[-75.54121,5.42554],[-75.5412,5.42553],[-75.54119,5.42552],[-75.54119,5.42551],[-75.54118,5.4255],[-75.54117,5.42549],[-75.54117,5.42548],[-75.54116,5.42547],[-75.54116,5.42546],[-75.54116,5.42545],[-75.54115,5.42544],[-75.54113,5.42543],[-75.54112,5.42542],[-75.54111,5.42542],[-75.5411,5.42541],[-75.54109,5.42541],[-75.54108,5.42541],[-75.54107,5.4254],[-75.54106,5.42538],[-75.54106,5.42537],[-75.54106,5.42536],[-75.54105,5.42535],[-75.54105,5.42534],[-75.54104,5.42532],[-75.54104,5.42531],[-75.54104,5.4253],[-75.54103,5.42529],[-75.54103,5.42528],[-75.54102,5.42527],[-75.54102,5.42526],[-75.54101,5.42525],[-75.54101,5.42524],[-75.541,5.42523],[-75.541,5.42522],[-75.54099,5.42522],[-75.54099,5.4252],[-75.54099,5.42519],[-75.54099,5.42518],[-75.541,5.42517],[-75.541,5.42516],[-75.54101,5.42515],[-75.54101,5.42514],[-75.54102,5.42513],[-75.54103,5.42512],[-75.54104,5.42511],[-75.54104,5.4251],[-75.54105,5.42509],[-75.54105,5.42508],[-75.54106,5.42507],[-75.54107,5.42506],[-75.54107,5.42505],[-75.54108,5.42504],[-75.54109,5.42503],[-75.54109,5.42502],[-75.5411,5.42502],[-75.54111,5.42501],[-75.54112,5.42501],[-75.54113,5.425],[-75.54115,5.42501],[-75.54117,5.42501],[-75.54117,5.42502],[-75.54118,5.42502],[-75.54119,5.42503],[-75.5412,5.42504],[-75.54121,5.42504],[-75.54122,5.42505],[-75.54123,5.42506],[-75.54123,5.42507],[-75.54123,5.42509],[-75.54124,5.42509],[-75.54125,5.4251],[-75.54126,5.42511],[-75.54126,5.42512],[-75.54127,5.42513],[-75.54127,5.42514],[-75.54127,5.42515],[-75.54128,5.42516],[-75.54129,5.42517],[-75.5413,5.42517],[-75.54131,5.42518],[-75.54132,5.42518],[-75.54133,5.42519],[-75.54134,5.42519],[-75.54135,5.4252],[-75.54136,5.4252],[-75.54137,5.4252],[-75.54139,5.4252],[-75.5414,5.4252],[-75.54141,5.4252],[-75.54143,5.4252],[-75.54144,5.4252],[-75.54145,5.4252],[-75.54146,5.4252]]]},"properties":{"OBJECTID":1,"Shape_Length":569.1743676488082,"Shape_Area":8529.805590543896}},{"type":"Feature","id":2,"geometry":{"type":"Polygon","coordinates":[[[-75.53968,5.42727],[-75.53969,5.42728],[-75.5397,5.42729],[-75.53971,5.42729],[-75.53972,5.4273],[-75.53973,5.42731],[-75.53975,5.42732],[-75.53975,5.42732],[-75.53976,5.42733],[-75.53976,5.42733],[-75.53976,5.42733],[-75.53976,5.42733],[-75.53976,5.42733],[-75.53977,5.42735],[-75.53979,5.42736],[-75.5398,5.42737],[-75.5398,5.42737],[-75.5398,5.42737],[-75.5398,5.42737],[-75.53981,5.42738],[-75.53983,5.42739],[-75.53984,5.4274],[-75.53985,5.42741],[-75.53986,5.42741],[-75.53986,5.42742],[-75.53987,5.42743],[-75.53989,5.42743],[-75.5399,5.42744],[-75.53991,5.42745],[-75.53991,5.42745],[-75.53992,5.42746],[-75.53993,5.42746],[-75.53994,5.42747],[-75.53995,5.42748],[-75.53996,5.42749],[-75.53998,5.42749],[-75.53999,5.4275],[-75.54001,5.42751],[-75.54003,5.42752],[-75.54004,5.42752],[-75.54005,5.42752],[-75.54006,5.42753],[-75.54008,5.42753],[-75.54009,5.42753],[-75.54011,5.42754],[-75.54012,5.42754],[-75.54014,5.42754],[-75.54016,5.42754],[-75.54017,5.42754],[-75.54019,5.42754],[-75.54021,5.42754],[-75.54022,5.42754],[-75.54022,5.42754],[-75.54024,5.42754],[-75.54026,5.42753],[-75.54028,5.42753],[-75.54029,5.42753],[-75.54031,5.42752],[-75.54033,5.42752],[-75.54034,5.42751],[-75.54036,5.4275],[-75.54036,5.4275],[-75.54038,5.42749],[-75.54039,5.42748],[-75.54041,5.42747],[-75.54042,5.42746],[-75.54043,5.42745],[-75.54045,5.42743],[-75.54046,5.42742],[-75.54047,5.42741],[-75.54048,5.42739],[-75.54048,5.42737],[-75.54049,5.42736],[-75.5405,5.42734],[-75.5405,5.42733],[-75.5405,5.42733],[-75.54051,5.42731],[-75.54051,5.4273],[-75.54051,5.42728],[-75.54051,5.42727],[-75.54051,5.42726],[-75.54051,5.42726],[-75.54052,5.42725],[-75.54052,5.42723],[-75.54052,5.42722],[-75.54052,5.4272],[-75.54052,5.42718],[-75.54052,5.42716],[-75.54052,5.42715],[-75.54052,5.42713],[-75.54052,5.42713],[-75.54052,5.42711],[-75.54052,5.42709],[-75.54051,5.42707],[-75.54051,5.42706],[-75.5405,5.42704],[-75.5405,5.42702],[-75.54049,5.42701],[-75.54048,5.42699],[-75.54048,5.42699],[-75.54048,5.42698],[-75.54048,5.42697],[-75.54048,5.42696],[-75.54048,5.42695],[-75.54048,5.42693],[-75.54047,5.42691],[-75.54047,5.4269],[-75.54047,5.4269],[-75.54047,5.42688],[-75.54047,5.42688],[-75.54047,5.42686],[-75.54047,5.42684],[-75.54047,5.42683],[-75.54046,5.42681],[-75.54046,5.4268],[-75.54046,5.4268],[-75.54045,5.42678],[-75.54045,5.42676],[-75.54044,5.42675],[-75.54044,5.42675],[-75.54044,5.42674],[-75.54044,5.42672],[-75.54044,5.42671],[-75.54044,5.42669],[-75.54043,5.42668],[-75.54043,5.42666],[-75.54043,5.42665],[-75.54042,5.42664],[-75.54042,5.42663],[-75.54041,5.42661],[-75.5404,5.42659],[-75.5404,5.42659],[-75.5404,5.42658],[-75.54039,5.42656],[-75.54038,5.42656],[-75.54038,5.42655],[-75.54038,5.42653],[-75.54038,5.42653],[-75.54038,5.42651],[-75.54038,5.42649],[-75.54038,5.42648],[-75.54038,5.42647],[-75.54037,5.42645],[-75.54037,5.42645],[-75.54037,5.42643],[-75.54036,5.42642],[-75.54036,5.42642],[-75.54036,5.4264],[-75.54035,5.42639],[-75.54035,5.42638],[-75.54035,5.42638],[-75.54035,5.42638],[-75.54035,5.42637],[-75.54034,5.42635],[-75.54034,5.42633],[-75.54033,5.42632],[-75.54032,5.4263],[-75.54031,5.42629],[-75.54031,5.42628],[-75.54031,5.42628],[-75.5403,5.42626],[-75.54028,5.42625],[-75.54028,5.42624],[-75.54028,5.42623],[-75.54027,5.42622],[-75.54027,5.42622],[-75.54027,5.42621],[-75.54027,5.42619],[-75.54026,5.42617],[-75.54026,5.42616],[-75.54026,5.42614],[-75.54026,5.42614],[-75.54025,5.42613],[-75.54024,5.42611],[-75.54024,5.42611],[-75.54023,5.42609],[-75.54023,5.42609],[-75.54023,5.42608],[-75.54022,5.42606],[-75.54021,5.42605],[-75.5402,5.42603],[-75.54019,5.42602],[-75.54019,5.42602],[-75.54019,5.42601],[-75.54019,5.42601],[-75.54018,5.42601],[-75.54017,5.42599],[-75.54017,5.42599],[-75.54017,5.42599],[-75.54017,5.42599],[-75.54017,5.42598],[-75.54016,5.42597],[-75.54015,5.42596],[-75.54013,5.42594],[-75.54012,5.42593],[-75.54011,5.42592],[-75.54009,5.42591],[-75.54008,5.4259],[-75.54006,5.42589],[-75.54005,5.42588],[-75.54004,5.42588],[-75.54004,5.42588],[-75.54003,5.42587],[-75.54001,5.42586],[-75.54,5.42586],[-75.53999,5.42585],[-75.53998,5.42585],[-75.53997,5.42584],[-75.53995,5.42584],[-75.53993,5.42583],[-75.53992,5.42583],[-75.53992,5.42583],[-75.5399,5.42582],[-75.5399,5.42582],[-75.5399,5.42581],[-75.5399,5.42579],[-75.5399,5.42577],[-75.53989,5.42575],[-75.53989,5.42574],[-75.53988,5.42573],[-75.53988,5.42573],[-75.53988,5.42571],[-75.53987,5.4257],[-75.53987,5.4257],[-75.53987,5.4257],[-75.53987,5.4257],[-75.53987,5.42568],[-75.53986,5.42566],[-75.53985,5.42565],[-75.53984,5.42564],[-75.53984,5.42563],[-75.53983,5.42562],[-75.53983,5.4256],[-75.53982,5.42559],[-75.53981,5.42558],[-75.5398,5.42557],[-75.5398,5.42557],[-75.5398,5.42556],[-75.53979,5.42555],[-75.53978,5.42554],[-75.53978,5.42554],[-75.53977,5.42552],[-75.53976,5.42551],[-75.53976,5.42551],[-75.53975,5.42549],[-75.53974,5.42548],[-75.53972,5.42547],[-75.53971,5.42546],[-75.53969,5.42545],[-75.53968,5.42544],[-75.53967,5.42543],[-75.53965,5.42542],[-75.53965,5.42542],[-75.53963,5.42541],[-75.53962,5.42541],[-75.5396,5.4254],[-75.5396,5.4254],[-75.53959,5.4254],[-75.53958,5.42539],[-75.53956,5.42539],[-75.53956,5.42539],[-75.53954,5.42538],[-75.53953,5.42538],[-75.53952,5.42538],[-75.5395,5.42538],[-75.53948,5.42537],[-75.53946,5.42537],[-75.53944,5.42537],[-75.53943,5.42538],[-75.53941,5.42538],[-75.53939,5.42538],[-75.53938,5.42539],[-75.53936,5.42539],[-75.53934,5.4254],[-75.53933,5.42541],[-75.53933,5.42541],[-75.53931,5.42542],[-75.5393,5.42543],[-75.53928,5.42544],[-75.53927,5.42545],[-75.53926,5.42546],[-75.53925,5.42546],[-75.53925,5.42547],[-75.53924,5.42548],[-75.53923,5.42549],[-75.53921,5.4255],[-75.5392,5.42552],[-75.53919,5.42553],[-75.53919,5.42554],[-75.53919,5.42554],[-75.53919,5.42554],[-75.53918,5.42554],[-75.53917,5.42555],[-75.53917,5.42557],[-75.53916,5.42557],[-75.53916,5.42557],[-75.53915,5.42559],[-75.53913,5.4256],[-75.53912,5.42561],[-75.53912,5.42563],[-75.53911,5.42565],[-75.5391,5.42566],[-75.53909,5.42568],[-75.53909,5.4257],[-75.53908,5.42571],[-75.53908,5.42572],[-75.53908,5.42572],[-75.53908,5.42572],[-75.53908,5.42573],[-75.53908,5.42573],[-75.53908,5.42574],[-75.53907,5.42576],[-75.53907,5.42577],[-75.53907,5.42578],[-75.53907,5.4258],[-75.53906,5.42581],[-75.53906,5.42581],[-75.53906,5.42582],[-75.53906,5.42582],[-75.53906,5.42582],[-75.53906,5.42582],[-75.53905,5.42584],[-75.53905,5.42584],[-75.53905,5.42584],[-75.53905,5.42584],[-75.53905,5.42585],[-75.53904,5.42587],[-75.53904,5.42587],[-75.53904,5.42587],[-75.53904,5.42587],[-75.53904,5.42588],[-75.53903,5.42589],[-75.53903,5.4259],[-75.53903,5.4259],[-75.53902,5.42592],[-75.53902,5.42594],[-75.53902,5.42596],[-75.53902,5.42596],[-75.53901,5.42597],[-75.539,5.42599],[-75.53899,5.426],[-75.53899,5.426],[-75.53899,5.42602],[-75.53898,5.42604],[-75.53897,5.42605],[-75.53897,5.42606],[-75.53897,5.42607],[-75.53897,5.42608],[-75.53896,5.4261],[-75.53896,5.42612],[-75.53896,5.42614],[-75.53896,5.42615],[-75.53896,5.42615],[-75.53896,5.42617],[-75.53896,5.42619],[-75.53897,5.4262],[-75.53897,5.42622],[-75.53897,5.42623],[-75.53898,5.42624],[-75.53898,5.42624],[-75.53898,5.42626],[-75.53898,5.42627],[-75.53899,5.42629],[-75.53899,5.42629],[-75.53899,5.4263],[-75.53899,5.42631],[-75.53899,5.42632],[-75.53899,5.42632],[-75.53899,5.42632],[-75.53899,5.42633],[-75.53899,5.42634],[-75.539,5.42634],[-75.539,5.42634],[-75.539,5.42636],[-75.539,5.42638],[-75.539,5.42639],[-75.53901,5.42641],[-75.53902,5.42643],[-75.53902,5.42643],[-75.53902,5.42643],[-75.53902,5.42643],[-75.53902,5.42644],[-75.53903,5.42646],[-75.53903,5.42647],[-75.53904,5.42649],[-75.53905,5.4265],[-75.53905,5.42651],[-75.53905,5.42651],[-75.53906,5.42653],[-75.53907,5.42655],[-75.53907,5.42655],[-75.53907,5.42655],[-75.53907,5.42656],[-75.53907,5.42657],[-75.53908,5.42659],[-75.53909,5.42661],[-75.5391,5.42662],[-75.5391,5.42664],[-75.53911,5.42664],[-75.53911,5.42665],[-75.53911,5.42667],[-75.53911,5.42668],[-75.53912,5.4267],[-75.53912,5.42671],[-75.53912,5.42672],[-75.53913,5.42674],[-75.53913,5.42676],[-75.53914,5.42677],[-75.53915,5.42679],[-75.53916,5.4268],[-75.53917,5.42682],[-75.53918,5.42683],[-75.53918,5.42683],[-75.53918,5.42684],[-75.53919,5.42685],[-75.5392,5.42687],[-75.5392,5.42687],[-75.5392,5.42687],[-75.5392,5.42688],[-75.53921,5.4269],[-75.53922,5.42691],[-75.53923,5.42692],[-75.53924,5.42694],[-75.53924,5.42694],[-75.53925,5.42695],[-75.53927,5.42697],[-75.53927,5.42697],[-75.53928,5.42698],[-75.53928,5.42698],[-75.53929,5.42699],[-75.5393,5.42701],[-75.53931,5.42702],[-75.53931,5.42702],[-75.53933,5.42703],[-75.53934,5.42704],[-75.53935,5.42705],[-75.53937,5.42706],[-75.53938,5.42707],[-75.5394,5.42708],[-75.5394,5.42708],[-75.53941,5.42708],[-75.53942,5.42709],[-75.53944,5.4271],[-75.53945,5.4271],[-75.53947,5.42711],[-75.53949,5.42712],[-75.5395,5.42712],[-75.53952,5.42712],[-75.53953,5.42712],[-75.53953,5.42712],[-75.53954,5.42713],[-75.53954,5.42713],[-75.53955,5.42715],[-75.53956,5.42716],[-75.53957,5.42717],[-75.53958,5.42718],[-75.53958,5.42718],[-75.53958,5.42718],[-75.53958,5.42718],[-75.53959,5.4272],[-75.53961,5.42721],[-75.53962,5.42722],[-75.53962,5.42722],[-75.53962,5.42722],[-75.53963,5.42723],[-75.53964,5.42724],[-75.53965,5.42726],[-75.53967,5.42727],[-75.53968,5.42727]],[[-75.53948,5.42565],[-75.53949,5.42565],[-75.53952,5.42566],[-75.53953,5.42567],[-75.53955,5.42567],[-75.53956,5.42569],[-75.53956,5.4257],[-75.53957,5.42571],[-75.53958,5.42573],[-75.53959,5.42574],[-75.5396,5.42575],[-75.53961,5.42578],[-75.53962,5.42579],[-75.53962,5.4258],[-75.53963,5.42581],[-75.53963,5.42582],[-75.53963,5.42584],[-75.53963,5.42586],[-75.53963,5.42587],[-75.53963,5.42589],[-75.53963,5.42591],[-75.53964,5.42592],[-75.53964,5.42594],[-75.53964,5.42596],[-75.53966,5.42597],[-75.53966,5.42599],[-75.53967,5.426],[-75.53969,5.42601],[-75.5397,5.42602],[-75.53972,5.42603],[-75.53973,5.42604],[-75.53974,5.42605],[-75.53977,5.42605],[-75.53978,5.42606],[-75.53979,5.42607],[-75.53981,5.42608],[-75.53982,5.42609],[-75.53983,5.42609],[-75.53985,5.42609],[-75.53986,5.42609],[-75.53988,5.4261],[-75.53989,5.42611],[-75.5399,5.42612],[-75.53991,5.42613],[-75.53993,5.42613],[-75.53994,5.42614],[-75.53995,5.42615],[-75.53996,5.42616],[-75.53997,5.42617],[-75.53998,5.42619],[-75.53999,5.4262],[-75.53999,5.42621],[-75.54,5.42623],[-75.54,5.42624],[-75.54,5.42626],[-75.54001,5.42627],[-75.54001,5.42628],[-75.54001,5.4263],[-75.54002,5.42631],[-75.54002,5.42633],[-75.54002,5.42634],[-75.54003,5.42636],[-75.54003,5.42637],[-75.54004,5.42639],[-75.54005,5.4264],[-75.54005,5.42641],[-75.54007,5.42642],[-75.54008,5.42643],[-75.54009,5.42644],[-75.54009,5.42646],[-75.5401,5.42647],[-75.5401,5.42649],[-75.5401,5.4265],[-75.54011,5.42652],[-75.54011,5.42653],[-75.54011,5.42655],[-75.54011,5.42657],[-75.54011,5.42658],[-75.54011,5.4266],[-75.54011,5.42662],[-75.54011,5.42663],[-75.54012,5.42665],[-75.54013,5.42666],[-75.54014,5.42667],[-75.54015,5.42669],[-75.54016,5.4267],[-75.54016,5.42671],[-75.54017,5.42673],[-75.54017,5.42674],[-75.54017,5.42676],[-75.54016,5.42677],[-75.54016,5.42679],[-75.54016,5.42681],[-75.54016,5.42682],[-75.54017,5.42683],[-75.54018,5.42684],[-75.54019,5.42686],[-75.5402,5.42687],[-75.5402,5.42688],[-75.5402,5.4269],[-75.5402,5.42692],[-75.5402,5.42694],[-75.54021,5.42695],[-75.54021,5.42697],[-75.54021,5.42698],[-75.54021,5.427],[-75.54021,5.42702],[-75.54021,5.42704],[-75.54021,5.42706],[-75.54022,5.42707],[-75.54022,5.42708],[-75.54023,5.4271],[-75.54024,5.42712],[-75.54025,5.42713],[-75.54025,5.42715],[-75.54025,5.42716],[-75.54025,5.42718],[-75.54025,5.4272],[-75.54025,5.42722],[-75.54024,5.42723],[-75.54024,5.42724],[-75.54024,5.42726],[-75.54022,5.42727],[-75.54021,5.42727],[-75.54019,5.42727],[-75.54017,5.42727],[-75.54016,5.42727],[-75.54014,5.42727],[-75.54013,5.42726],[-75.54011,5.42726],[-75.5401,5.42725],[-75.54008,5.42724],[-75.54007,5.42723],[-75.54006,5.42722],[-75.54005,5.42721],[-75.54004,5.42721],[-75.54002,5.4272],[-75.54001,5.42719],[-75.53999,5.42718],[-75.53998,5.42716],[-75.53996,5.42715],[-75.53995,5.42713],[-75.53994,5.42712],[-75.53993,5.42711],[-75.53991,5.4271],[-75.5399,5.42709],[-75.53988,5.42708],[-75.53987,5.42707],[-75.53985,5.42706],[-75.53984,5.42705],[-75.53983,5.42705],[-75.53982,5.42704],[-75.53981,5.42703],[-75.5398,5.42702],[-75.53979,5.427],[-75.53978,5.42699],[-75.53977,5.42698],[-75.53976,5.42697],[-75.53975,5.42695],[-75.53974,5.42694],[-75.53974,5.42693],[-75.53972,5.42691],[-75.5397,5.42691],[-75.53969,5.4269],[-75.53968,5.4269],[-75.53966,5.42689],[-75.53965,5.42688],[-75.53964,5.42687],[-75.53963,5.42686],[-75.53961,5.42686],[-75.53958,5.42685],[-75.53956,5.42685],[-75.53955,5.42685],[-75.53955,5.42684],[-75.53953,5.42683],[-75.53952,5.42683],[-75.5395,5.42682],[-75.53949,5.42681],[-75.53948,5.4268],[-75.53946,5.42678],[-75.53946,5.42678],[-75.53945,5.42676],[-75.53944,5.42674],[-75.53943,5.42673],[-75.53942,5.42672],[-75.53942,5.4267],[-75.53941,5.42669],[-75.5394,5.42668],[-75.53939,5.42666],[-75.53938,5.42665],[-75.53938,5.42663],[-75.53938,5.42661],[-75.53938,5.42659],[-75.53938,5.42657],[-75.53937,5.42656],[-75.53937,5.42655],[-75.53936,5.42652],[-75.53935,5.42651],[-75.53934,5.4265],[-75.53933,5.42649],[-75.53933,5.42647],[-75.53932,5.42646],[-75.53931,5.42644],[-75.53931,5.42643],[-75.53931,5.42641],[-75.5393,5.42639],[-75.53929,5.42638],[-75.53929,5.42637],[-75.53928,5.42635],[-75.53927,5.42634],[-75.53926,5.42632],[-75.53926,5.42631],[-75.53926,5.42629],[-75.53926,5.42628],[-75.53926,5.42626],[-75.53925,5.42625],[-75.53925,5.42623],[-75.53925,5.42622],[-75.53925,5.4262],[-75.53924,5.42618],[-75.53924,5.42616],[-75.53923,5.42615],[-75.53923,5.42614],[-75.53924,5.42612],[-75.53924,5.42611],[-75.53926,5.42609],[-75.53927,5.42608],[-75.53927,5.42606],[-75.53928,5.42605],[-75.53928,5.42603],[-75.53929,5.42602],[-75.53929,5.42599],[-75.53929,5.42598],[-75.5393,5.42597],[-75.5393,5.42595],[-75.53931,5.42594],[-75.53931,5.42592],[-75.53932,5.42591],[-75.53933,5.4259],[-75.53933,5.42588],[-75.53933,5.42586],[-75.53933,5.42585],[-75.53934,5.42582],[-75.53934,5.42581],[-75.53934,5.4258],[-75.53935,5.42578],[-75.53935,5.42576],[-75.53936,5.42575],[-75.53937,5.42574],[-75.53938,5.42573],[-75.53939,5.42572],[-75.5394,5.42571],[-75.53941,5.4257],[-75.53942,5.42568],[-75.53943,5.42567],[-75.53944,5.42566],[-75.53945,5.42565],[-75.53946,5.42564],[-75.53948,5.42565]]]},"properties":{"OBJECTID":2,"Shape_Length":1111.523691173375,"Shape_Area":16661.549320170252}},{"type":"Feature","id":3,"geometry":{"type":"Polygon","coordinates":[[[-75.4921,5.16271],[-75.49212,5.16275],[-75.49214,5.16279],[-75.49217,5.16282],[-75.49221,5.16285],[-75.49225,5.16287],[-75.49234,5.16292],[-75.49238,5.16293],[-75.49241,5.16294],[-75.49245,5.16294],[-75.49249,5.16294],[-75.49252,5.16293],[-75.49262,5.16291],[-75.49266,5.16289],[-75.49269,5.16288],[-75.49272,5.16286],[-75.49286,5.16275],[-75.49297,5.16271],[-75.49301,5.16269],[-75.49305,5.16266],[-75.49308,5.16264],[-75.49312,5.16264],[-75.49316,5.16264],[-75.4932,5.16264],[-75.49334,5.16261],[-75.49335,5.1626],[-75.49339,5.16259],[-75.49347,5.16255],[-75.4935,5.16254],[-75.49361,5.16248],[-75.49364,5.16246],[-75.49367,5.16244],[-75.49369,5.16241],[-75.49375,5.16234],[-75.49386,5.16228],[-75.4939,5.16226],[-75.49403,5.16217],[-75.49407,5.16215],[-75.49409,5.16212],[-75.49412,5.16208],[-75.49413,5.16205],[-75.49418,5.16193],[-75.49419,5.16189],[-75.49424,5.16186],[-75.49433,5.1618],[-75.49442,5.16177],[-75.49453,5.16172],[-75.49457,5.16171],[-75.4946,5.16168],[-75.49463,5.16166],[-75.49466,5.16162],[-75.49468,5.16159],[-75.49469,5.16155],[-75.4947,5.16153],[-75.49474,5.1615],[-75.49484,5.16144],[-75.49508,5.16134],[-75.49511,5.16133],[-75.49514,5.16131],[-75.49527,5.16122],[-75.49532,5.16121],[-75.49544,5.16119],[-75.49546,5.16118],[-75.49548,5.16118],[-75.49563,5.16113],[-75.49566,5.16111],[-75.49569,5.16109],[-75.49572,5.16107],[-75.49574,5.16104],[-75.49578,5.16099],[-75.4958,5.16099],[-75.49591,5.16098],[-75.49602,5.16098],[-75.49607,5.16098],[-75.49609,5.161],[-75.49617,5.16105],[-75.49621,5.16106],[-75.49637,5.16113],[-75.49654,5.1612],[-75.49658,5.16121],[-75.49658,5.16122],[-75.49676,5.16126],[-75.4968,5.16126],[-75.49683,5.16126],[-75.49686,5.16126],[-75.4969,5.16125],[-75.49704,5.16121],[-75.49714,5.16122],[-75.49727,5.16123],[-75.49742,5.16125],[-75.49745,5.16126],[-75.49746,5.16126],[-75.49772,5.16126],[-75.49776,5.16126],[-75.4978,5.16125],[-75.49798,5.1612],[-75.49802,5.16119],[-75.49805,5.16117],[-75.49809,5.16114],[-75.49811,5.16111],[-75.49818,5.16103],[-75.49822,5.16098],[-75.49829,5.16093],[-75.4984,5.16086],[-75.49843,5.16084],[-75.49846,5.16081],[-75.49849,5.16078],[-75.4985,5.16074],[-75.49852,5.1607],[-75.49852,5.16066],[-75.49852,5.16062],[-75.49852,5.16043],[-75.49851,5.1604],[-75.49851,5.16038],[-75.49846,5.16017],[-75.49845,5.16013],[-75.49843,5.1601],[-75.49841,5.16006],[-75.49838,5.16003],[-75.49823,5.1599],[-75.49809,5.15977],[-75.49788,5.15958],[-75.4977,5.15939],[-75.49765,5.15932],[-75.49762,5.15919],[-75.49763,5.15917],[-75.49766,5.15917],[-75.4977,5.15915],[-75.49774,5.15913],[-75.49777,5.1591],[-75.4978,5.15907],[-75.49782,5.15903],[-75.49784,5.15899],[-75.49785,5.15895],[-75.49785,5.1589],[-75.49785,5.15886],[-75.49784,5.15882],[-75.49782,5.15878],[-75.49779,5.15874],[-75.49776,5.15871],[-75.49773,5.15868],[-75.49769,5.15866],[-75.49755,5.15859],[-75.49743,5.15853],[-75.49731,5.15846],[-75.49727,5.15844],[-75.49723,5.15843],[-75.49719,5.15842],[-75.49703,5.15841],[-75.49699,5.15841],[-75.49698,5.15841],[-75.49692,5.15842],[-75.49681,5.15843],[-75.49672,5.15841],[-75.49669,5.1584],[-75.49666,5.1584],[-75.49663,5.15839],[-75.49646,5.1584],[-75.49631,5.15835],[-75.49628,5.15834],[-75.49626,5.15833],[-75.49604,5.15829],[-75.496,5.15829],[-75.49596,5.15829],[-75.49593,5.1583],[-75.49575,5.15834],[-75.49572,5.15835],[-75.49569,5.15836],[-75.49559,5.15841],[-75.49549,5.15846],[-75.49546,5.15847],[-75.49543,5.1585],[-75.4954,5.15852],[-75.49538,5.15855],[-75.49528,5.1587],[-75.49526,5.15873],[-75.49525,5.15876],[-75.49524,5.15879],[-75.49523,5.15883],[-75.49522,5.15903],[-75.4952,5.15909],[-75.49519,5.15906],[-75.49519,5.15904],[-75.49518,5.15901],[-75.49517,5.159],[-75.49516,5.15896],[-75.49515,5.15893],[-75.49513,5.15886],[-75.4951,5.15876],[-75.49509,5.15873],[-75.49507,5.1587],[-75.49505,5.15865],[-75.49503,5.15862],[-75.49505,5.15859],[-75.49507,5.15856],[-75.49508,5.15853],[-75.49509,5.1585],[-75.4951,5.15845],[-75.49511,5.15841],[-75.49511,5.15838],[-75.49511,5.15834],[-75.4951,5.1583],[-75.49508,5.15826],[-75.49506,5.15823],[-75.49503,5.1582],[-75.495,5.15817],[-75.49497,5.15815],[-75.49491,5.15811],[-75.4948,5.15805],[-75.49477,5.15804],[-75.49474,5.15803],[-75.4947,5.15802],[-75.49459,5.15801],[-75.49456,5.158],[-75.49446,5.15797],[-75.49445,5.15796],[-75.49444,5.15796],[-75.49441,5.15796],[-75.49441,5.15795],[-75.49431,5.15794],[-75.49428,5.15793],[-75.49427,5.15793],[-75.49418,5.15793],[-75.49415,5.15793],[-75.49412,5.15793],[-75.49409,5.15794],[-75.49403,5.15796],[-75.49392,5.15797],[-75.49388,5.15798],[-75.49384,5.15799],[-75.49381,5.15801],[-75.49378,5.15803],[-75.49375,5.15806],[-75.49372,5.15809],[-75.49369,5.15813],[-75.49367,5.15817],[-75.49366,5.15821],[-75.49365,5.15825],[-75.49364,5.15832],[-75.49364,5.15835],[-75.49364,5.15838],[-75.49365,5.15841],[-75.49365,5.15846],[-75.49365,5.15852],[-75.49365,5.15856],[-75.49365,5.15859],[-75.49367,5.15866],[-75.49368,5.1587],[-75.4937,5.15874],[-75.49372,5.15877],[-75.49375,5.1588],[-75.49378,5.15883],[-75.49381,5.15885],[-75.49396,5.15892],[-75.49399,5.15893],[-75.49402,5.15894],[-75.49405,5.15895],[-75.49415,5.15896],[-75.49416,5.15896],[-75.49413,5.15899],[-75.49411,5.15901],[-75.49409,5.15904],[-75.49408,5.15908],[-75.49405,5.15915],[-75.49405,5.15916],[-75.49404,5.15916],[-75.49398,5.15917],[-75.49397,5.15913],[-75.49397,5.15911],[-75.49396,5.15909],[-75.49394,5.15906],[-75.49394,5.15904],[-75.49391,5.15901],[-75.4939,5.15898],[-75.49387,5.15896],[-75.49385,5.15894],[-75.49382,5.15892],[-75.49379,5.1589],[-75.49376,5.15888],[-75.49372,5.15887],[-75.49369,5.15887],[-75.49367,5.15886],[-75.49363,5.15886],[-75.49359,5.15887],[-75.49355,5.15888],[-75.49351,5.15889],[-75.49347,5.15891],[-75.49344,5.15894],[-75.49342,5.15897],[-75.4934,5.159],[-75.49339,5.15902],[-75.49337,5.15903],[-75.49335,5.15905],[-75.49333,5.15906],[-75.49333,5.15907],[-75.49331,5.15908],[-75.49328,5.1591],[-75.49326,5.15912],[-75.49323,5.15915],[-75.49321,5.15919],[-75.4932,5.15922],[-75.49319,5.15926],[-75.49318,5.15927],[-75.49317,5.1593],[-75.49313,5.15927],[-75.4931,5.15926],[-75.49305,5.15923],[-75.49301,5.15922],[-75.49299,5.15922],[-75.49296,5.15921],[-75.49291,5.15919],[-75.49288,5.15919],[-75.49284,5.15918],[-75.4928,5.15918],[-75.49274,5.15919],[-75.49271,5.1592],[-75.49267,5.15921],[-75.49264,5.15923],[-75.4926,5.15925],[-75.4926,5.15925],[-75.49256,5.15927],[-75.49252,5.15928],[-75.49248,5.15931],[-75.49245,5.15933],[-75.49243,5.15937],[-75.4924,5.1594],[-75.49239,5.15944],[-75.49238,5.15948],[-75.49237,5.15952],[-75.49237,5.15955],[-75.49237,5.15959],[-75.49238,5.15963],[-75.49239,5.15967],[-75.49241,5.1597],[-75.49243,5.15974],[-75.49246,5.15976],[-75.4925,5.1598],[-75.49251,5.1598],[-75.49253,5.15984],[-75.49256,5.15987],[-75.49257,5.15987],[-75.49261,5.15996],[-75.49265,5.16008],[-75.49269,5.16017],[-75.49272,5.16025],[-75.49273,5.16029],[-75.49275,5.16032],[-75.49285,5.16048],[-75.49286,5.16054],[-75.49286,5.16055],[-75.49286,5.16056],[-75.49292,5.16084],[-75.49293,5.16094],[-75.49293,5.16099],[-75.49289,5.16104],[-75.4928,5.16111],[-75.49267,5.16119],[-75.49264,5.16121],[-75.49261,5.16124],[-75.49254,5.16131],[-75.49254,5.16132],[-75.49238,5.1615],[-75.49236,5.16153],[-75.49234,5.16157],[-75.49233,5.1616],[-75.49232,5.16164],[-75.49231,5.16173],[-75.49225,5.16183],[-75.49224,5.16186],[-75.49218,5.16202],[-75.49211,5.1622],[-75.4921,5.16224],[-75.4921,5.16227],[-75.49208,5.16244],[-75.49208,5.16246],[-75.49208,5.16247],[-75.49209,5.16263],[-75.49209,5.16267],[-75.4921,5.16271]],[[-75.49255,5.16264],[-75.49246,5.16267],[-75.49236,5.16262],[-75.49235,5.16246],[-75.49237,5.1623],[-75.49243,5.16212],[-75.49249,5.16196],[-75.49257,5.16182],[-75.49259,5.16168],[-75.49275,5.16149],[-75.49281,5.16142],[-75.49296,5.16134],[-75.49309,5.16123],[-75.4932,5.16107],[-75.4932,5.16092],[-75.49318,5.1608],[-75.49312,5.16051],[-75.49311,5.16039],[-75.49298,5.16018],[-75.49295,5.16008],[-75.49291,5.15998],[-75.49286,5.15985],[-75.4928,5.15974],[-75.49276,5.15968],[-75.49273,5.15965],[-75.49271,5.15961],[-75.49268,5.15959],[-75.49264,5.15956],[-75.49265,5.15952],[-75.49273,5.15949],[-75.49277,5.15946],[-75.49283,5.15945],[-75.49289,5.15947],[-75.49294,5.15948],[-75.49299,5.1595],[-75.49302,5.15957],[-75.49304,5.15959],[-75.49308,5.15962],[-75.49316,5.15973],[-75.49319,5.15979],[-75.49323,5.15981],[-75.49328,5.15984],[-75.49342,5.15982],[-75.49353,5.15982],[-75.49358,5.1598],[-75.49358,5.15976],[-75.49355,5.15973],[-75.49353,5.15969],[-75.49352,5.15964],[-75.4935,5.1596],[-75.49347,5.15956],[-75.49346,5.15951],[-75.49344,5.15947],[-75.49342,5.15939],[-75.49345,5.15935],[-75.49345,5.15931],[-75.49348,5.15929],[-75.49351,5.15926],[-75.49354,5.15925],[-75.49356,5.15923],[-75.49358,5.15921],[-75.4936,5.15919],[-75.49361,5.15916],[-75.49363,5.15913],[-75.49365,5.15914],[-75.49369,5.15915],[-75.49371,5.15919],[-75.49372,5.15921],[-75.49372,5.15924],[-75.49371,5.15926],[-75.49373,5.15931],[-75.49374,5.15934],[-75.49374,5.15938],[-75.49374,5.15941],[-75.49378,5.15946],[-75.4938,5.15949],[-75.49383,5.15951],[-75.49387,5.15954],[-75.49388,5.15955],[-75.49389,5.15959],[-75.4939,5.15963],[-75.49392,5.15965],[-75.49396,5.15968],[-75.49398,5.15965],[-75.49399,5.15963],[-75.494,5.15959],[-75.49401,5.15955],[-75.49401,5.15952],[-75.49402,5.15948],[-75.49404,5.15946],[-75.49406,5.15943],[-75.49408,5.15943],[-75.4941,5.15943],[-75.49415,5.15943],[-75.49419,5.15945],[-75.49423,5.15948],[-75.49426,5.15951],[-75.49432,5.15957],[-75.49436,5.15961],[-75.49439,5.15964],[-75.49444,5.15968],[-75.4945,5.15971],[-75.49451,5.15972],[-75.49452,5.15972],[-75.49459,5.15979],[-75.49457,5.15985],[-75.49452,5.15983],[-75.49448,5.15981],[-75.49439,5.15974],[-75.49438,5.1598],[-75.49456,5.15992],[-75.49467,5.15997],[-75.49478,5.15997],[-75.49478,5.15987],[-75.49483,5.15981],[-75.49484,5.1597],[-75.49476,5.15969],[-75.49472,5.15964],[-75.49469,5.15957],[-75.49462,5.15952],[-75.49458,5.15946],[-75.49454,5.15938],[-75.49447,5.15931],[-75.49437,5.15931],[-75.4943,5.1593],[-75.49431,5.15924],[-75.49433,5.15917],[-75.4944,5.15915],[-75.49448,5.15918],[-75.49454,5.15922],[-75.49462,5.15923],[-75.49472,5.15925],[-75.49481,5.15929],[-75.49483,5.15934],[-75.49487,5.15941],[-75.49494,5.15949],[-75.49495,5.15959],[-75.49503,5.15962],[-75.49502,5.1595],[-75.49499,5.15945],[-75.49495,5.15939],[-75.49492,5.15931],[-75.49489,5.15925],[-75.49487,5.1592],[-75.49483,5.15909],[-75.49482,5.15898],[-75.49482,5.15894],[-75.49481,5.15889],[-75.49473,5.15883],[-75.49463,5.15882],[-75.49452,5.15878],[-75.49442,5.15875],[-75.49431,5.15872],[-75.4942,5.15869],[-75.49408,5.15868],[-75.49393,5.15861],[-75.49392,5.15853],[-75.49392,5.15845],[-75.49391,5.15837],[-75.49391,5.15835],[-75.49392,5.15829],[-75.49395,5.15824],[-75.49408,5.15823],[-75.49417,5.1582],[-75.49426,5.1582],[-75.49436,5.15822],[-75.49438,5.15823],[-75.49448,5.15826],[-75.49452,5.15827],[-75.49467,5.15829],[-75.49477,5.15835],[-75.49484,5.15839],[-75.49483,5.15843],[-75.49478,5.15843],[-75.49472,5.1584],[-75.49467,5.15839],[-75.49463,5.15838],[-75.49456,5.15837],[-75.4945,5.15836],[-75.49439,5.15839],[-75.49429,5.15842],[-75.49429,5.15849],[-75.49428,5.15854],[-75.49436,5.15856],[-75.49443,5.15858],[-75.49448,5.1586],[-75.4945,5.15861],[-75.49457,5.15865],[-75.49462,5.15867],[-75.49463,5.15868],[-75.49471,5.1587],[-75.49475,5.15872],[-75.49479,5.15875],[-75.49482,5.15879],[-75.49484,5.15884],[-75.49487,5.15894],[-75.49489,5.159],[-75.49489,5.15903],[-75.49492,5.15909],[-75.49493,5.15913],[-75.49494,5.15915],[-75.49495,5.15922],[-75.49497,5.15929],[-75.49501,5.15932],[-75.49504,5.15934],[-75.49506,5.15942],[-75.49507,5.15945],[-75.49509,5.15954],[-75.49509,5.15957],[-75.4951,5.15963],[-75.49511,5.15966],[-75.49511,5.15968],[-75.49512,5.15973],[-75.49515,5.15973],[-75.4952,5.15973],[-75.49523,5.15973],[-75.49532,5.15976],[-75.49543,5.15964],[-75.49542,5.15948],[-75.49541,5.15932],[-75.49545,5.1592],[-75.49548,5.15908],[-75.4955,5.15885],[-75.4956,5.1587],[-75.49571,5.15865],[-75.49581,5.1586],[-75.49599,5.15856],[-75.49621,5.1586],[-75.49641,5.15868],[-75.49664,5.15867],[-75.49678,5.15871],[-75.49695,5.15869],[-75.49702,5.15868],[-75.49717,5.15869],[-75.4973,5.15876],[-75.49742,5.15884],[-75.49758,5.15891],[-75.4975,5.15893],[-75.49744,5.15899],[-75.49738,5.15904],[-75.49733,5.15915],[-75.4974,5.15944],[-75.49749,5.15956],[-75.4977,5.15978],[-75.4979,5.15997],[-75.49805,5.1601],[-75.4982,5.16023],[-75.49825,5.16044],[-75.49825,5.16064],[-75.49815,5.16071],[-75.49804,5.16078],[-75.49797,5.16086],[-75.4979,5.16094],[-75.49772,5.16099],[-75.49747,5.16099],[-75.49731,5.16096],[-75.49716,5.16095],[-75.49701,5.16094],[-75.49682,5.16099],[-75.49664,5.16095],[-75.49648,5.16088],[-75.49631,5.16082],[-75.49623,5.16077],[-75.49615,5.16071],[-75.49603,5.16071],[-75.4959,5.16071],[-75.49577,5.16072],[-75.49564,5.16073],[-75.49553,5.16087],[-75.49539,5.16092],[-75.49527,5.16094],[-75.49516,5.16096],[-75.49498,5.16109],[-75.49472,5.1612],[-75.49459,5.16127],[-75.49447,5.16135],[-75.49443,5.16147],[-75.49432,5.16151],[-75.49421,5.16156],[-75.49409,5.16164],[-75.49397,5.16172],[-75.49392,5.16183],[-75.49388,5.16195],[-75.49375,5.16204],[-75.49357,5.16212],[-75.49348,5.16224],[-75.49337,5.16231],[-75.49328,5.16234],[-75.49314,5.16237],[-75.49298,5.16231],[-75.49288,5.16245],[-75.49272,5.16251],[-75.49255,5.16264]]]},"properties":{"OBJECTID":3,"Shape_Length":5604.668802272624,"Shape_Area":83355.70433473651}}]}