{"type":"FeatureCollection","name":"Amenaza_MM_Hermella","crs":{"type":"name","properties":{"name":"urn:ogc:def:crs:OGC:1.3:CRS84"}},"features":[{"type":"Feature","id":0,"geometry":{"type":"MultiPolygon","coordinates":[[[[-75.68095,5.01988],[-75.68097,5.01986],[-75.68095,5.01986],[-75.68095,5.01988]]],[[[-75.68212,5.0206],[-75.68216,5.02061],[-75.68218,5.02061],[-75.68217,5.02059],[-75.68212,5.0206]]],[[[-75.68206,5.02092],[-75.68207,5.02091],[-75.68205,5.0209],[-75.68206,5.02092]]],[[[-75.68206,5.02108],[-75.68209,5.02107],[-75.68205,5.02106],[-75.68206,5.02108]]],[[[-75.68042,5.02146],[-75.68043,5.02147],[-75.68045,5.02147],[-75.68047,5.02145],[-75.68039,5.02143],[-75.68042,5.02146]]],[[[-75.68224,5.02148],[-75.68225,5.02148],[-75.68232,5.02147],[-75.68231,5.02143],[-75.68217,5.0214],[-75.68214,5.02136],[-75.6821,5.02134],[-75.68205,5.0213],[-75.682,5.02129],[-75.68196,5.02129],[-75.68198,5.02133],[-75.68202,5.02133],[-75.68202,5.02135],[-75.68206,5.02136],[-75.68207,5.02139],[-75.68209,5.02139],[-75.68209,5.02141],[-75.68213,5.02141],[-75.68213,5.02142],[-75.68214,5.02142],[-75.68214,5.02144],[-75.68216,5.02144],[-75.6822,5.02144],[-75.6822,5.02146],[-75.68222,5.02146],[-75.68224,5.02146],[-75.68224,5.02148]]],[[[-75.68219,5.02255],[-75.68223,5.02259],[-75.68228,5.02254],[-75.68219,5.02253],[-75.68219,5.02255]]],[[[-75.68328,5.02347],[-75.68332,5.02351],[-75.68335,5.02347],[-75.68336,5.02346],[-75.68336,5.02344],[-75.68338,5.02344],[-75.68337,5.02337],[-75.68328,5.02347]]]]},"properties":{"FID":0,"OBJECTID":1,"Amenaza":"Alta","Area_ha":0.0354379050814,"Shape_Leng":234.665150025,"Shape_Area":354.378545461}},{"type":"Feature","id":1,"geometry":{"type":"MultiPolygon","coordinates":[[[[-75.68041,5.01898],[-75.68043,5.01896],[-75.6804,5.01895],[-75.68041,5.01898]]],[[[-75.68025,5.01901],[-75.68026,5.019],[-75.68024,5.01899],[-75.68025,5.01901]]],[[[-75.67998,5.01903],[-75.68003,5.019],[-75.67995,5.01899],[-75.67998,5.01903]]],[[[-75.67999,5.01911],[-75.68002,5.01907],[-75.67995,5.01906],[-75.67999,5.01911]]],[[[-75.67995,5.01923],[-75.67998,5.0192],[-75.67994,5.01915],[-75.67995,5.01923]]],[[[-75.68005,5.019],[-75.68004,5.01914],[-75.6801,5.01925],[-75.68012,5.01927],[-75.68014,5.01919],[-75.68008,5.01914],[-75.68012,5.01903],[-75.68006,5.01899],[-75.68005,5.019]]],[[[-75.68003,5.01946],[-75.68005,5.01945],[-75.68003,5.01944],[-75.68003,5.01946]]],[[[-75.67965,5.01917],[-75.67963,5.01917],[-75.67963,5.01919],[-75.67964,5.01922],[-75.67974,5.01924],[-75.67973,5.01929],[-75.67973,5.01932],[-75.67973,5.01936],[-75.67984,5.01945],[-75.67989,5.01951],[-75.67993,5.0195],[-75.67987,5.01935],[-75.67977,5.0192],[-75.67973,5.01917],[-75.67965,5.01916],[-75.67965,5.01917]]],[[[-75.67998,5.01968],[-75.68,5.01967],[-75.67997,5.01966],[-75.67998,5.01968]]],[[[-75.68003,5.01975],[-75.68005,5.01974],[-75.68003,5.01973],[-75.68003,5.01975]]],[[[-75.68008,5.01983],[-75.68015,5.01977],[-75.68018,5.01978],[-75.68031,5.01972],[-75.68023,5.01971],[-75.6802,5.01976],[-75.68013,5.01974],[-75.6801,5.01975],[-75.68008,5.01983]]],[[[-75.67981,5.0197],[-75.67991,5.01983],[-75.67996,5.01985],[-75.67994,5.01973],[-75.6799,5.01965],[-75.67983,5.01964],[-75.67981,5.0197]]],[[[-75.68193,5.01991],[-75.68194,5.01989],[-75.68192,5.01989],[-75.68193,5.01991]]],[[[-75.6811,5.01997],[-75.68111,5.01995],[-75.68109,5.01994],[-75.6811,5.01997]]],[[[-75.68199,5.01998],[-75.68199,5.01996],[-75.68197,5.01997],[-75.68199,5.01998]]],[[[-75.68199,5.01998],[-75.682,5.02],[-75.68202,5.01998],[-75.68199,5.01998]]],[[[-75.68172,5.01996],[-75.68167,5.01994],[-75.68168,5.02],[-75.68186,5.02003],[-75.68186,5.02],[-75.68179,5.01997],[-75.68177,5.01995],[-75.68174,5.01993],[-75.68172,5.01996],[-75.68175,5.01997],[-75.68173,5.01998],[-75.68172,5.01996]]],[[[-75.68006,5.01999],[-75.68009,5.02005],[-75.68012,5.01994],[-75.68008,5.01993],[-75.68006,5.01999]]],[[[-75.68062,5.01993],[-75.6806,5.02006],[-75.68072,5.02002],[-75.68065,5.01998],[-75.68072,5.01992],[-75.68074,5.0199],[-75.68078,5.01988],[-75.68085,5.01992],[-75.68089,5.01994],[-75.68097,5.01989],[-75.68103,5.01986],[-75.68106,5.01983],[-75.68097,5.01982],[-75.68096,5.01983],[-75.6809,5.01985],[-75.68084,5.01987],[-75.68072,5.01986],[-75.68062,5.01993]],[[-75.68097,5.01986],[-75.68095,5.01988],[-75.68095,5.01986],[-75.68097,5.01986]]],[[[-75.68009,5.02013],[-75.68012,5.02008],[-75.68008,5.02008],[-75.68009,5.02013]]],[[[-75.68084,5.0202],[-75.6809,5.02022],[-75.68091,5.02012],[-75.68084,5.0202]]],[[[-75.68084,5.0202],[-75.68078,5.02021],[-75.68083,5.02022],[-75.68084,5.0202]]],[[[-75.68148,5.02024],[-75.68161,5.02024],[-75.68154,5.02022],[-75.68147,5.02021],[-75.68148,5.02024]]],[[[-75.68184,5.02023],[-75.68193,5.02026],[-75.68191,5.0202],[-75.68183,5.02019],[-75.68184,5.02023]]],[[[-75.68217,5.02029],[-75.68219,5.02025],[-75.68216,5.02023],[-75.68217,5.02029]]],[[[-75.6801,5.02026],[-75.68011,5.02032],[-75.68015,5.02022],[-75.68012,5.0202],[-75.6801,5.02026]]],[[[-75.68002,5.02035],[-75.68002,5.02023],[-75.67999,5.0202],[-75.68002,5.02035]]],[[[-75.68191,5.02034],[-75.68198,5.02036],[-75.68204,5.02033],[-75.68195,5.02031],[-75.68192,5.0203],[-75.68191,5.02034]]],[[[-75.68171,5.02038],[-75.68173,5.02037],[-75.68171,5.02035],[-75.68171,5.02038]]],[[[-75.67979,5.02032],[-75.67984,5.02044],[-75.67988,5.02042],[-75.67985,5.02031],[-75.67978,5.02029],[-75.67979,5.02032]]],[[[-75.68171,5.02038],[-75.68167,5.0204],[-75.68165,5.02046],[-75.6817,5.02042],[-75.68171,5.02038]]],[[[-75.67975,5.02052],[-75.67977,5.02047],[-75.67974,5.02046],[-75.67975,5.02052]]],[[[-75.68015,5.02045],[-75.68017,5.02052],[-75.68019,5.02041],[-75.68014,5.0204],[-75.68015,5.02045]]],[[[-75.68218,5.02061],[-75.68228,5.02062],[-75.68233,5.02066],[-75.68238,5.02062],[-75.68244,5.0206],[-75.68245,5.02059],[-75.68243,5.02059],[-75.68243,5.02055],[-75.68241,5.02055],[-75.68241,5.02054],[-75.68239,5.02054],[-75.68239,5.02052],[-75.68239,5.0205],[-75.68238,5.0205],[-75.68238,5.02048],[-75.68237,5.02049],[-75.68232,5.02054],[-75.68226,5.0205],[-75.68229,5.02044],[-75.6823,5.02039],[-75.68227,5.0204],[-75.68222,5.02047],[-75.68212,5.0205],[-75.68214,5.02055],[-75.68208,5.02062],[-75.68208,5.02064],[-75.68215,5.02062],[-75.68216,5.02061],[-75.68212,5.0206],[-75.68217,5.02059],[-75.68218,5.02061]]],[[[-75.68146,5.02074],[-75.68148,5.02071],[-75.68146,5.0207],[-75.68146,5.02074]]],[[[-75.68244,5.02069],[-75.68243,5.02074],[-75.68251,5.0207],[-75.68252,5.02068],[-75.6825,5.02068],[-75.6825,5.02066],[-75.68244,5.02069]]],[[[-75.6809,5.02089],[-75.68092,5.02087],[-75.6809,5.02087],[-75.6809,5.02089]]],[[[-75.68141,5.02084],[-75.68135,5.02088],[-75.68141,5.02089],[-75.68148,5.0208],[-75.68144,5.02079],[-75.68141,5.02084]]],[[[-75.68024,5.02091],[-75.68025,5.02089],[-75.68023,5.02089],[-75.68024,5.02091]]],[[[-75.68228,5.02073],[-75.6823,5.02078],[-75.68229,5.02083],[-75.68219,5.02089],[-75.68219,5.02092],[-75.68234,5.02089],[-75.6824,5.02077],[-75.68233,5.02071],[-75.68227,5.0207],[-75.68228,5.02073]]],[[[-75.68174,5.02082],[-75.68178,5.02088],[-75.68195,5.02098],[-75.68199,5.02097],[-75.68194,5.02094],[-75.68192,5.02091],[-75.68186,5.02087],[-75.68177,5.0208],[-75.68175,5.02079],[-75.68174,5.02082]]],[[[-75.68201,5.02102],[-75.68208,5.02095],[-75.68211,5.02085],[-75.68209,5.02074],[-75.68204,5.02075],[-75.68197,5.0207],[-75.68195,5.02064],[-75.68194,5.02063],[-75.68193,5.02065],[-75.68189,5.02068],[-75.68197,5.02075],[-75.68201,5.02076],[-75.68204,5.0208],[-75.6821,5.02079],[-75.68203,5.0209],[-75.68201,5.02102]],[[-75.68207,5.02091],[-75.68206,5.02092],[-75.68205,5.0209],[-75.68207,5.02091]]],[[[-75.68128,5.02103],[-75.68127,5.02099],[-75.68125,5.02102],[-75.68128,5.02103]]],[[[-75.68139,5.02103],[-75.68139,5.02108],[-75.68148,5.02108],[-75.68148,5.02103],[-75.68139,5.02103]]],[[[-75.68255,5.0211],[-75.68256,5.02108],[-75.68254,5.02108],[-75.68255,5.0211]]],[[[-75.68253,5.02117],[-75.68255,5.02114],[-75.6825,5.02113],[-75.68253,5.02117]]],[[[-75.68128,5.02103],[-75.68128,5.02109],[-75.68131,5.02118],[-75.68138,5.02112],[-75.68132,5.02108],[-75.68129,5.02104],[-75.68128,5.02103]]],[[[-75.68079,5.0212],[-75.68087,5.02122],[-75.68089,5.02118],[-75.68081,5.02116],[-75.68079,5.0212]]],[[[-75.68174,5.02113],[-75.6817,5.02119],[-75.68175,5.02122],[-75.68182,5.02117],[-75.68178,5.02111],[-75.68175,5.0211],[-75.68174,5.02113]]],[[[-75.68068,5.02131],[-75.68071,5.02129],[-75.68067,5.02128],[-75.68068,5.02131]]],[[[-75.681,5.02124],[-75.68102,5.02128],[-75.68101,5.02131],[-75.68104,5.02134],[-75.68109,5.02127],[-75.68105,5.02122],[-75.68099,5.02121],[-75.681,5.02124]]],[[[-75.68198,5.02133],[-75.68198,5.02135],[-75.68202,5.02135],[-75.68202,5.02133],[-75.68198,5.02133]]],[[[-75.68064,5.02136],[-75.68065,5.02135],[-75.68063,5.02134],[-75.68064,5.02136]]],[[[-75.68202,5.02135],[-75.68204,5.02139],[-75.68207,5.02139],[-75.68206,5.02136],[-75.68202,5.02135]]],[[[-75.68061,5.02139],[-75.68063,5.02139],[-75.68062,5.02137],[-75.68061,5.02139]]],[[[-75.68207,5.02139],[-75.68207,5.02141],[-75.68209,5.02141],[-75.68209,5.02139],[-75.68207,5.02139]]],[[[-75.68209,5.02141],[-75.68209,5.02142],[-75.68213,5.02142],[-75.68213,5.02141],[-75.68209,5.02141]]],[[[-75.68213,5.02142],[-75.68213,5.02144],[-75.68214,5.02144],[-75.68214,5.02142],[-75.68213,5.02142]]],[[[-75.68216,5.02146],[-75.6822,5.02146],[-75.6822,5.02144],[-75.68216,5.02144],[-75.68216,5.02146]]],[[[-75.68222,5.02146],[-75.68222,5.02148],[-75.68224,5.02148],[-75.68224,5.02146],[-75.68222,5.02146]]],[[[-75.68061,5.02139],[-75.6805,5.02141],[-75.68038,5.02136],[-75.68039,5.02139],[-75.68037,5.0214],[-75.68034,5.0215],[-75.6804,5.02147],[-75.68043,5.02147],[-75.68042,5.02146],[-75.68039,5.02143],[-75.68047,5.02145],[-75.68045,5.02147],[-75.68046,5.02148],[-75.68052,5.0215],[-75.68057,5.02148],[-75.6805,5.02144],[-75.68061,5.02142],[-75.68061,5.02139]]],[[[-75.68118,5.02142],[-75.68116,5.02148],[-75.6812,5.02151],[-75.68123,5.02139],[-75.68121,5.02137],[-75.68118,5.02142]]],[[[-75.67973,5.02145],[-75.67982,5.02151],[-75.67981,5.02142],[-75.67975,5.02141],[-75.67973,5.02145]]],[[[-75.68192,5.02152],[-75.68193,5.0215],[-75.68191,5.0215],[-75.68192,5.02152]]],[[[-75.68198,5.02133],[-75.68196,5.02129],[-75.682,5.02129],[-75.68205,5.0213],[-75.6821,5.02134],[-75.68214,5.02136],[-75.68217,5.0214],[-75.68231,5.02143],[-75.68232,5.02147],[-75.68225,5.02148],[-75.68225,5.0215],[-75.68238,5.02149],[-75.68238,5.02148],[-75.6824,5.02148],[-75.6824,5.02146],[-75.68242,5.02146],[-75.68242,5.02144],[-75.68243,5.02144],[-75.68244,5.02141],[-75.68248,5.02135],[-75.68236,5.02136],[-75.68233,5.0213],[-75.68229,5.02136],[-75.68224,5.02138],[-75.68217,5.02127],[-75.68231,5.0212],[-75.68235,5.02116],[-75.68237,5.02114],[-75.68245,5.02103],[-75.68255,5.02102],[-75.68257,5.021],[-75.68251,5.02098],[-75.68254,5.02087],[-75.68248,5.02085],[-75.68246,5.02096],[-75.68241,5.02098],[-75.68236,5.02105],[-75.68233,5.02111],[-75.68226,5.0211],[-75.68234,5.02104],[-75.68224,5.021],[-75.68221,5.02098],[-75.68215,5.02102],[-75.68208,5.02103],[-75.68201,5.02106],[-75.6819,5.02105],[-75.68181,5.02099],[-75.68179,5.02096],[-75.6817,5.02091],[-75.6817,5.02095],[-75.6818,5.02108],[-75.68191,5.02127],[-75.68186,5.02127],[-75.68183,5.02127],[-75.68185,5.02144],[-75.68189,5.02147],[-75.68196,5.02147],[-75.68203,5.02154],[-75.68207,5.02158],[-75.68207,5.02159],[-75.68211,5.02159],[-75.68211,5.02157],[-75.68222,5.02157],[-75.68224,5.02157],[-75.68224,5.02155],[-75.68227,5.02155],[-75.68229,5.02155],[-75.68228,5.02152],[-75.68218,5.02148],[-75.68216,5.02146],[-75.68213,5.02146],[-75.68213,5.02144],[-75.68209,5.02144],[-75.68209,5.02142],[-75.68205,5.02142],[-75.68204,5.02139],[-75.682,5.02138],[-75.68198,5.02135],[-75.68196,5.02134],[-75.68198,5.02133]],[[-75.6822,5.02114],[-75.68219,5.02116],[-75.68214,5.02118],[-75.68216,5.02122],[-75.68211,5.02125],[-75.68209,5.02121],[-75.68213,5.02113],[-75.6822,5.02114]],[[-75.68209,5.02107],[-75.68206,5.02108],[-75.68205,5.02106],[-75.68209,5.02107]]],[[[-75.68172,5.02161],[-75.68173,5.02159],[-75.68171,5.02159],[-75.68172,5.02161]]],[[[-75.68032,5.02158],[-75.68049,5.02163],[-75.68051,5.02159],[-75.68031,5.02156],[-75.68032,5.02158]]],[[[-75.68011,5.0217],[-75.68012,5.02172],[-75.68024,5.02171],[-75.68026,5.02162],[-75.68008,5.02164],[-75.68003,5.02169],[-75.68011,5.0217],[-75.68011,5.02168],[-75.68013,5.0217],[-75.68011,5.0217]]],[[[-75.68163,5.02124],[-75.68159,5.02127],[-75.6816,5.02132],[-75.68159,5.02135],[-75.68161,5.0216],[-75.68154,5.02169],[-75.68154,5.02176],[-75.6816,5.02167],[-75.68161,5.02165],[-75.68165,5.0216],[-75.68171,5.02152],[-75.6817,5.02136],[-75.68173,5.02134],[-75.68172,5.02122],[-75.68164,5.02121],[-75.68163,5.02124]]],[[[-75.6807,5.0218],[-75.68073,5.02178],[-75.68069,5.02177],[-75.6807,5.0218]]],[[[-75.68175,5.02171],[-75.68187,5.02179],[-75.6819,5.02175],[-75.68185,5.02167],[-75.68183,5.02163],[-75.6818,5.02162],[-75.68175,5.02171]]],[[[-75.68115,5.02173],[-75.68112,5.02175],[-75.68107,5.02182],[-75.68107,5.02185],[-75.68114,5.0218],[-75.6812,5.02176],[-75.68122,5.02173],[-75.68115,5.02172],[-75.68115,5.02173]]],[[[-75.67993,5.02188],[-75.67995,5.02187],[-75.67994,5.02184],[-75.67993,5.02188]]],[[[-75.68084,5.0219],[-75.68087,5.02189],[-75.68083,5.02188],[-75.68084,5.0219]]],[[[-75.68098,5.02192],[-75.681,5.0219],[-75.68097,5.0219],[-75.68098,5.02192]]],[[[-75.68049,5.02191],[-75.68056,5.02193],[-75.68058,5.02189],[-75.68047,5.02188],[-75.68049,5.02191]]],[[[-75.6821,5.02202],[-75.68213,5.02201],[-75.68209,5.022],[-75.6821,5.02202]]],[[[-75.6822,5.02206],[-75.6822,5.02203],[-75.68218,5.02205],[-75.6822,5.02206]]],[[[-75.68117,5.02199],[-75.68117,5.02197],[-75.6811,5.02195],[-75.68108,5.02201],[-75.68111,5.02208],[-75.68113,5.02201],[-75.68117,5.02199]]],[[[-75.68052,5.02205],[-75.68067,5.02209],[-75.68064,5.02204],[-75.68062,5.022],[-75.68058,5.02197],[-75.68052,5.02205]]],[[[-75.68155,5.02222],[-75.6816,5.02221],[-75.68163,5.02222],[-75.68173,5.0222],[-75.68182,5.02221],[-75.68181,5.02217],[-75.68161,5.02217],[-75.6816,5.02218],[-75.68154,5.02219],[-75.68155,5.02222]]],[[[-75.68135,5.02223],[-75.6814,5.02221],[-75.68134,5.0222],[-75.68135,5.02223]]],[[[-75.68117,5.02199],[-75.68121,5.02204],[-75.68115,5.02209],[-75.68111,5.0221],[-75.68106,5.02214],[-75.68102,5.02216],[-75.68106,5.02219],[-75.68103,5.0222],[-75.68096,5.02218],[-75.68097,5.02211],[-75.68083,5.0221],[-75.68088,5.02214],[-75.68089,5.02216],[-75.68092,5.02219],[-75.68096,5.02223],[-75.681,5.02223],[-75.68102,5.02223],[-75.68108,5.02224],[-75.68115,5.02221],[-75.68118,5.02218],[-75.68122,5.02216],[-75.68127,5.02205],[-75.68132,5.02202],[-75.6814,5.022],[-75.68147,5.02197],[-75.68142,5.02191],[-75.68129,5.02192],[-75.68136,5.02197],[-75.68131,5.02198],[-75.68117,5.02199]]],[[[-75.68149,5.02224],[-75.6815,5.02223],[-75.68148,5.02222],[-75.68149,5.02224]]],[[[-75.68079,5.02225],[-75.68084,5.02223],[-75.68078,5.02222],[-75.68079,5.02225]]],[[[-75.68073,5.02227],[-75.68077,5.02225],[-75.68072,5.02224],[-75.68073,5.02227]]],[[[-75.68183,5.02229],[-75.6819,5.02232],[-75.68188,5.02226],[-75.68182,5.02226],[-75.68183,5.02229]]],[[[-75.68289,5.02229],[-75.68285,5.02229],[-75.68285,5.02232],[-75.68291,5.02232],[-75.68291,5.02229],[-75.68289,5.02229]]],[[[-75.6821,5.02239],[-75.68214,5.02241],[-75.68215,5.02237],[-75.68211,5.02236],[-75.6821,5.02239]]],[[[-75.68191,5.0224],[-75.68198,5.02242],[-75.68207,5.02237],[-75.68204,5.02234],[-75.68196,5.02236],[-75.6819,5.02235],[-75.68191,5.0224]]],[[[-75.68101,5.02247],[-75.68104,5.02243],[-75.68099,5.0224],[-75.68101,5.02247]]],[[[-75.68256,5.02247],[-75.68259,5.02246],[-75.68257,5.02245],[-75.68256,5.02247]]],[[[-75.68268,5.02252],[-75.68271,5.02259],[-75.68276,5.02246],[-75.68271,5.02245],[-75.68268,5.02252]]],[[[-75.68263,5.02252],[-75.68259,5.02254],[-75.68257,5.02259],[-75.6826,5.0226],[-75.68268,5.02253],[-75.68264,5.02251],[-75.68263,5.02252]]],[[[-75.6825,5.02266],[-75.68251,5.02264],[-75.68249,5.02263],[-75.6825,5.02266]]],[[[-75.68066,5.02266],[-75.68068,5.02265],[-75.68065,5.02264],[-75.68066,5.02266]]],[[[-75.68281,5.02246],[-75.68283,5.0225],[-75.68279,5.02261],[-75.68278,5.02268],[-75.68281,5.02264],[-75.68285,5.02262],[-75.68289,5.02256],[-75.68291,5.02251],[-75.68288,5.02248],[-75.68286,5.02244],[-75.6828,5.02243],[-75.68281,5.02246]]],[[[-75.6816,5.02267],[-75.68161,5.02268],[-75.68163,5.02261],[-75.68157,5.0226],[-75.6816,5.02267]]],[[[-75.6822,5.02206],[-75.68222,5.02215],[-75.68214,5.02227],[-75.68214,5.0223],[-75.68224,5.02229],[-75.68226,5.02234],[-75.68217,5.02247],[-75.68212,5.02246],[-75.68209,5.02247],[-75.68202,5.02242],[-75.68198,5.02246],[-75.68202,5.02252],[-75.68203,5.02255],[-75.68212,5.02257],[-75.68219,5.02263],[-75.68226,5.02265],[-75.68236,5.02259],[-75.68238,5.02266],[-75.68237,5.02269],[-75.68248,5.02272],[-75.6825,5.0227],[-75.68242,5.02268],[-75.68243,5.02262],[-75.68256,5.02253],[-75.68256,5.02247],[-75.6825,5.02249],[-75.6825,5.02245],[-75.68252,5.02239],[-75.68257,5.02237],[-75.68261,5.02224],[-75.68262,5.02216],[-75.6826,5.02216],[-75.68258,5.02216],[-75.68258,5.02214],[-75.68256,5.02214],[-75.68254,5.02214],[-75.68254,5.02213],[-75.68253,5.02213],[-75.68245,5.02215],[-75.68243,5.02219],[-75.68241,5.02215],[-75.68245,5.02215],[-75.68242,5.0221],[-75.68236,5.02218],[-75.68234,5.02209],[-75.68225,5.02206],[-75.6822,5.02206]],[[-75.68219,5.02255],[-75.68219,5.02253],[-75.68228,5.02254],[-75.68223,5.02259],[-75.68219,5.02255]]],[[[-75.6804,5.02273],[-75.68048,5.02273],[-75.68046,5.02269],[-75.68042,5.02268],[-75.6804,5.02273]]],[[[-75.67999,5.02274],[-75.68001,5.02271],[-75.67997,5.0227],[-75.67999,5.02274]]],[[[-75.68159,5.02269],[-75.68159,5.02276],[-75.68163,5.02276],[-75.68163,5.02269],[-75.68159,5.02269]]],[[[-75.68064,5.02279],[-75.68066,5.02278],[-75.68064,5.02276],[-75.68064,5.02279]]],[[[-75.68138,5.02279],[-75.6814,5.02277],[-75.68137,5.02276],[-75.68138,5.02279]]],[[[-75.68064,5.02279],[-75.68049,5.0228],[-75.68041,5.02286],[-75.68051,5.02285],[-75.68057,5.02281],[-75.68063,5.0228],[-75.68064,5.02279]]],[[[-75.68001,5.02283],[-75.67999,5.02285],[-75.68,5.0229],[-75.68012,5.02291],[-75.68007,5.02283],[-75.68002,5.02282],[-75.68001,5.02283]]],[[[-75.68307,5.02274],[-75.68304,5.02277],[-75.68301,5.02289],[-75.68306,5.02295],[-75.6831,5.02285],[-75.68312,5.02272],[-75.68315,5.02262],[-75.68316,5.02258],[-75.68316,5.02256],[-75.68314,5.02256],[-75.68314,5.02254],[-75.68314,5.02252],[-75.6831,5.02254],[-75.68307,5.02274]]],[[[-75.68174,5.02267],[-75.68178,5.02268],[-75.6818,5.0227],[-75.68171,5.02289],[-75.6818,5.02296],[-75.68185,5.02276],[-75.68188,5.02262],[-75.68195,5.02263],[-75.68203,5.02281],[-75.68206,5.02275],[-75.68212,5.02278],[-75.68225,5.02276],[-75.68211,5.02271],[-75.68201,5.02263],[-75.68192,5.0226],[-75.68182,5.02252],[-75.68153,5.02232],[-75.68142,5.02232],[-75.68136,5.02232],[-75.68133,5.02234],[-75.68126,5.02237],[-75.68135,5.02239],[-75.68146,5.02246],[-75.68153,5.02254],[-75.6816,5.02255],[-75.68167,5.0226],[-75.68169,5.02272],[-75.68165,5.02279],[-75.68162,5.02286],[-75.68166,5.02286],[-75.68169,5.02279],[-75.68173,5.02272],[-75.68174,5.02267],[-75.6817,5.02267],[-75.6817,5.0226],[-75.68173,5.0226],[-75.68174,5.02267]]],[[[-75.68163,5.02298],[-75.68167,5.02297],[-75.68164,5.02296],[-75.68163,5.02298]]],[[[-75.68089,5.02298],[-75.68093,5.02297],[-75.68091,5.02294],[-75.68089,5.02298]]],[[[-75.68056,5.02294],[-75.68055,5.02301],[-75.68065,5.02302],[-75.68067,5.02302],[-75.68068,5.02301],[-75.68071,5.02299],[-75.6806,5.02294],[-75.68065,5.0229],[-75.68053,5.02289],[-75.68043,5.02294],[-75.68052,5.02294],[-75.68056,5.02294]]],[[[-75.68163,5.02298],[-75.6816,5.02299],[-75.68159,5.02304],[-75.68162,5.02306],[-75.68163,5.02298]]],[[[-75.68169,5.02304],[-75.68172,5.02306],[-75.68176,5.02301],[-75.68172,5.023],[-75.68169,5.02304]]],[[[-75.68029,5.02308],[-75.68036,5.02307],[-75.68028,5.02306],[-75.68029,5.02308]]],[[[-75.682,5.02304],[-75.68195,5.02308],[-75.68197,5.02311],[-75.68203,5.02305],[-75.68201,5.02303],[-75.682,5.02304]]],[[[-75.68267,5.02332],[-75.68288,5.02336],[-75.68299,5.0233],[-75.68297,5.02327],[-75.68285,5.02331],[-75.68269,5.02327],[-75.68267,5.02332]]],[[[-75.68313,5.02339],[-75.68311,5.02337],[-75.68305,5.02338],[-75.68307,5.02342],[-75.68313,5.02339]]],[[[-75.68338,5.02344],[-75.68336,5.02344],[-75.68336,5.02346],[-75.68338,5.02346],[-75.68338,5.02344]]],[[[-75.68213,5.02367],[-75.68213,5.02374],[-75.68224,5.02377],[-75.68223,5.0237],[-75.68224,5.02365],[-75.68233,5.02357],[-75.68227,5.02355],[-75.68222,5.02349],[-75.68231,5.02345],[-75.68242,5.0234],[-75.68245,5.02333],[-75.68249,5.02333],[-75.68253,5.02328],[-75.68249,5.02322],[-75.68254,5.02311],[-75.68256,5.02306],[-75.6825,5.02306],[-75.68243,5.02302],[-75.68252,5.02294],[-75.68254,5.02289],[-75.68257,5.02295],[-75.68261,5.02296],[-75.68254,5.02284],[-75.68246,5.02278],[-75.6823,5.02276],[-75.68236,5.02281],[-75.68244,5.0228],[-75.68247,5.02286],[-75.6825,5.02288],[-75.68252,5.02289],[-75.68243,5.02292],[-75.68224,5.02305],[-75.68221,5.02309],[-75.68216,5.02313],[-75.68214,5.02322],[-75.68198,5.02342],[-75.68192,5.02344],[-75.68182,5.02337],[-75.6818,5.02333],[-75.6819,5.02321],[-75.68186,5.02309],[-75.6817,5.0232],[-75.68158,5.02317],[-75.68169,5.02313],[-75.68161,5.02308],[-75.68153,5.02308],[-75.68153,5.02312],[-75.68147,5.02318],[-75.68133,5.02317],[-75.68127,5.0231],[-75.68121,5.02299],[-75.68119,5.02294],[-75.68118,5.02287],[-75.68133,5.02303],[-75.68141,5.02303],[-75.68138,5.0229],[-75.68139,5.02286],[-75.68135,5.02279],[-75.68133,5.02274],[-75.68131,5.02267],[-75.68123,5.02263],[-75.68119,5.02258],[-75.68116,5.02256],[-75.68117,5.02262],[-75.68111,5.02259],[-75.68107,5.02252],[-75.68104,5.02249],[-75.68104,5.02255],[-75.68104,5.02263],[-75.68108,5.0227],[-75.6811,5.0228],[-75.6811,5.02283],[-75.68102,5.02287],[-75.6811,5.02292],[-75.68112,5.02294],[-75.68111,5.02304],[-75.68115,5.02315],[-75.68143,5.02325],[-75.68145,5.02327],[-75.6815,5.02327],[-75.6815,5.02329],[-75.68154,5.02329],[-75.68154,5.02331],[-75.68158,5.02331],[-75.68158,5.02332],[-75.68159,5.02332],[-75.68159,5.02334],[-75.68161,5.02334],[-75.68161,5.02336],[-75.68163,5.02336],[-75.68163,5.02338],[-75.68165,5.02338],[-75.68165,5.0234],[-75.68167,5.0234],[-75.68167,5.02341],[-75.68168,5.02341],[-75.68168,5.02343],[-75.68172,5.02343],[-75.68172,5.02345],[-75.68174,5.02345],[-75.68174,5.02347],[-75.68176,5.02347],[-75.68176,5.02349],[-75.68177,5.02349],[-75.68177,5.0235],[-75.68179,5.0235],[-75.68179,5.02352],[-75.68181,5.02352],[-75.68181,5.02354],[-75.68183,5.02354],[-75.68183,5.02356],[-75.68186,5.02356],[-75.68187,5.02358],[-75.68188,5.02358],[-75.68188,5.02359],[-75.6819,5.02359],[-75.6819,5.02361],[-75.68192,5.02361],[-75.68192,5.02363],[-75.68194,5.02363],[-75.68194,5.02365],[-75.68197,5.02365],[-75.68197,5.02367],[-75.68199,5.02367],[-75.68199,5.02368],[-75.68202,5.02368],[-75.68208,5.02365],[-75.68211,5.02362],[-75.68213,5.0236],[-75.68213,5.02367]],[[-75.68203,5.02357],[-75.68207,5.02359],[-75.68205,5.02364],[-75.68199,5.02362],[-75.68201,5.02358],[-75.68197,5.02356],[-75.68199,5.02352],[-75.68205,5.02353],[-75.68203,5.02357]],[[-75.68214,5.02354],[-75.68216,5.02354],[-75.68214,5.02356],[-75.68214,5.02354]],[[-75.6823,5.0234],[-75.68229,5.02342],[-75.68228,5.02339],[-75.6823,5.0234]],[[-75.68241,5.02326],[-75.68238,5.02333],[-75.68233,5.02331],[-75.68237,5.02325],[-75.68241,5.02326]],[[-75.68248,5.02314],[-75.68243,5.02322],[-75.68242,5.02315],[-75.68245,5.02313],[-75.68246,5.02312],[-75.68248,5.02314]]],[[[-75.68313,5.02339],[-75.68314,5.02342],[-75.68314,5.02345],[-75.68314,5.02352],[-75.68312,5.0236],[-75.6831,5.02369],[-75.68307,5.02379],[-75.68324,5.02362],[-75.68328,5.0236],[-75.6833,5.02358],[-75.68333,5.02357],[-75.68333,5.02353],[-75.68334,5.02353],[-75.68334,5.02352],[-75.68336,5.02352],[-75.68336,5.02346],[-75.68335,5.02347],[-75.68332,5.02351],[-75.68328,5.02347],[-75.68337,5.02337],[-75.68338,5.02344],[-75.6834,5.02344],[-75.6834,5.02339],[-75.68339,5.02325],[-75.68337,5.02324],[-75.68335,5.02336],[-75.68328,5.02342],[-75.68328,5.02335],[-75.68328,5.02332],[-75.68328,5.02328],[-75.68332,5.02321],[-75.68328,5.02313],[-75.68326,5.02304],[-75.68324,5.02302],[-75.68311,5.02311],[-75.68304,5.023],[-75.68303,5.02298],[-75.683,5.02308],[-75.68294,5.02306],[-75.68292,5.02308],[-75.683,5.02311],[-75.68307,5.02321],[-75.68306,5.02332],[-75.68306,5.02336],[-75.68312,5.02332],[-75.68311,5.02319],[-75.68315,5.02324],[-75.68319,5.02325],[-75.68321,5.02328],[-75.68318,5.02336],[-75.68313,5.02339]]],[[[-75.68232,5.02385],[-75.68233,5.02385],[-75.68235,5.02382],[-75.68234,5.02375],[-75.68234,5.0237],[-75.68249,5.02367],[-75.68252,5.02371],[-75.68255,5.02373],[-75.68254,5.02359],[-75.68263,5.02347],[-75.68259,5.02343],[-75.68254,5.02344],[-75.68251,5.02351],[-75.68249,5.02355],[-75.68247,5.02363],[-75.68233,5.02367],[-75.68232,5.02385]]]]},"properties":{"FID":1,"OBJECTID":2,"Amenaza":"Media","Area_ha":2.29838444729,"Shape_Leng":6783.34275699,"Shape_Area":22983.852257}},{"type":"Feature","id":2,"geometry":{"type":"MultiPolygon","coordinates":[[[[-75.67965,5.01916],[-75.67963,5.01916],[-75.67963,5.01917],[-75.67965,5.01917],[-75.67965,5.01916]]],[[[-75.68172,5.01996],[-75.68173,5.01998],[-75.68175,5.01997],[-75.68172,5.01996]]],[[[-75.68238,5.02048],[-75.68238,5.0205],[-75.68239,5.0205],[-75.68239,5.02048],[-75.68238,5.02048]]],[[[-75.68241,5.02054],[-75.68241,5.02052],[-75.68239,5.02052],[-75.68239,5.02054],[-75.68241,5.02054]]],[[[-75.6823,5.02039],[-75.68229,5.02044],[-75.68226,5.0205],[-75.68232,5.02054],[-75.68237,5.02049],[-75.68238,5.02048],[-75.68232,5.02041],[-75.6823,5.02039]]],[[[-75.68241,5.02054],[-75.68241,5.02055],[-75.68243,5.02055],[-75.68243,5.02054],[-75.68241,5.02054]]],[[[-75.68243,5.02055],[-75.68243,5.02059],[-75.68245,5.02059],[-75.68245,5.02055],[-75.68243,5.02055]]],[[[-75.6825,5.02066],[-75.6825,5.02068],[-75.68252,5.02068],[-75.68252,5.02066],[-75.6825,5.02066]]],[[[-75.68209,5.02121],[-75.68211,5.02125],[-75.68216,5.02122],[-75.68214,5.02118],[-75.68219,5.02116],[-75.6822,5.02114],[-75.68213,5.02113],[-75.68209,5.02121]]],[[[-75.68198,5.02135],[-75.68198,5.02133],[-75.68196,5.02134],[-75.68198,5.02135]]],[[[-75.68198,5.02135],[-75.682,5.02138],[-75.68204,5.02139],[-75.68202,5.02135],[-75.68198,5.02135]]],[[[-75.68204,5.02139],[-75.68205,5.02142],[-75.68209,5.02142],[-75.68209,5.02141],[-75.68207,5.02141],[-75.68207,5.02139],[-75.68204,5.02139]]],[[[-75.68209,5.02142],[-75.68209,5.02144],[-75.68213,5.02144],[-75.68213,5.02142],[-75.68209,5.02142]]],[[[-75.68243,5.02144],[-75.68242,5.02144],[-75.68242,5.02146],[-75.68243,5.02146],[-75.68243,5.02144]]],[[[-75.68213,5.02144],[-75.68213,5.02146],[-75.68216,5.02146],[-75.68216,5.02144],[-75.68214,5.02144],[-75.68213,5.02144]]],[[[-75.68242,5.02146],[-75.6824,5.02146],[-75.6824,5.02148],[-75.68242,5.02148],[-75.68242,5.02146]]],[[[-75.6824,5.02148],[-75.68238,5.02148],[-75.68238,5.02149],[-75.6824,5.02149],[-75.6824,5.02148]]],[[[-75.68216,5.02146],[-75.68218,5.02148],[-75.68228,5.02152],[-75.68229,5.02155],[-75.68232,5.02154],[-75.68237,5.02151],[-75.68238,5.02149],[-75.68225,5.0215],[-75.68225,5.02148],[-75.68224,5.02148],[-75.68222,5.02148],[-75.68222,5.02146],[-75.6822,5.02146],[-75.68216,5.02146]]],[[[-75.68224,5.02155],[-75.68224,5.02157],[-75.68227,5.02157],[-75.68227,5.02155],[-75.68224,5.02155]]],[[[-75.68211,5.02157],[-75.68211,5.02159],[-75.68222,5.02159],[-75.68222,5.02157],[-75.68211,5.02157]]],[[[-75.68011,5.0217],[-75.68013,5.0217],[-75.68011,5.02168],[-75.68011,5.0217]]],[[[-75.68254,5.02213],[-75.68254,5.02214],[-75.68256,5.02214],[-75.68256,5.02213],[-75.68254,5.02213]]],[[[-75.68258,5.02214],[-75.68258,5.02216],[-75.6826,5.02216],[-75.6826,5.02214],[-75.68258,5.02214]]],[[[-75.68245,5.02215],[-75.68241,5.02215],[-75.68243,5.02219],[-75.68245,5.02215]]],[[[-75.68314,5.02254],[-75.68314,5.02256],[-75.68316,5.02256],[-75.68316,5.02254],[-75.68314,5.02254]]],[[[-75.68174,5.02267],[-75.68173,5.0226],[-75.6817,5.0226],[-75.6817,5.02267],[-75.68174,5.02267]]],[[[-75.68245,5.02313],[-75.68242,5.02315],[-75.68243,5.02322],[-75.68248,5.02314],[-75.68246,5.02312],[-75.68245,5.02313]]],[[[-75.68145,5.02327],[-75.68145,5.02329],[-75.6815,5.02329],[-75.6815,5.02327],[-75.68145,5.02327]]],[[[-75.6815,5.02329],[-75.6815,5.02331],[-75.68154,5.02331],[-75.68154,5.02329],[-75.6815,5.02329]]],[[[-75.68154,5.02331],[-75.68154,5.02332],[-75.68158,5.02332],[-75.68158,5.02331],[-75.68154,5.02331]]],[[[-75.68233,5.02331],[-75.68238,5.02333],[-75.68241,5.02326],[-75.68237,5.02325],[-75.68233,5.02331]]],[[[-75.68158,5.02332],[-75.68158,5.02334],[-75.68159,5.02334],[-75.68159,5.02332],[-75.68158,5.02332]]],[[[-75.68159,5.02334],[-75.68159,5.02336],[-75.68161,5.02336],[-75.68161,5.02334],[-75.68159,5.02334]]],[[[-75.68161,5.02336],[-75.68161,5.02338],[-75.68163,5.02338],[-75.68163,5.02336],[-75.68161,5.02336]]],[[[-75.68163,5.02338],[-75.68163,5.0234],[-75.68165,5.0234],[-75.68165,5.02338],[-75.68163,5.02338]]],[[[-75.68165,5.0234],[-75.68165,5.02341],[-75.68167,5.02341],[-75.68167,5.0234],[-75.68165,5.0234]]],[[[-75.68229,5.02342],[-75.6823,5.0234],[-75.68228,5.02339],[-75.68229,5.02342]]],[[[-75.68167,5.02341],[-75.68167,5.02343],[-75.68168,5.02343],[-75.68168,5.02341],[-75.68167,5.02341]]],[[[-75.68168,5.02343],[-75.68168,5.02345],[-75.68172,5.02345],[-75.68172,5.02343],[-75.68168,5.02343]]],[[[-75.68338,5.02346],[-75.6834,5.02346],[-75.6834,5.02344],[-75.68338,5.02344],[-75.68338,5.02346]]],[[[-75.68172,5.02345],[-75.68172,5.02347],[-75.68174,5.02347],[-75.68174,5.02345],[-75.68172,5.02345]]],[[[-75.68174,5.02347],[-75.68174,5.02349],[-75.68176,5.02349],[-75.68176,5.02347],[-75.68174,5.02347]]],[[[-75.68176,5.02349],[-75.68176,5.0235],[-75.68177,5.0235],[-75.68177,5.02349],[-75.68176,5.02349]]],[[[-75.68338,5.02346],[-75.68336,5.02346],[-75.68336,5.02352],[-75.68338,5.02352],[-75.68338,5.02346]]],[[[-75.68177,5.0235],[-75.68177,5.02352],[-75.68179,5.02352],[-75.68179,5.0235],[-75.68177,5.0235]]],[[[-75.68336,5.02352],[-75.68334,5.02352],[-75.68334,5.02353],[-75.68336,5.02353],[-75.68336,5.02352]]],[[[-75.68179,5.02352],[-75.68179,5.02354],[-75.68181,5.02354],[-75.68181,5.02352],[-75.68179,5.02352]]],[[[-75.68181,5.02354],[-75.68181,5.02356],[-75.68183,5.02356],[-75.68183,5.02354],[-75.68181,5.02354]]],[[[-75.68214,5.02356],[-75.68216,5.02354],[-75.68214,5.02354],[-75.68214,5.02356]]],[[[-75.68334,5.02353],[-75.68333,5.02353],[-75.68333,5.02357],[-75.68334,5.02357],[-75.68334,5.02353]]],[[[-75.68183,5.02356],[-75.68183,5.02358],[-75.68187,5.02358],[-75.68186,5.02356],[-75.68183,5.02356]]],[[[-75.68187,5.02358],[-75.68187,5.02359],[-75.68188,5.02359],[-75.68188,5.02358],[-75.68187,5.02358]]],[[[-75.68188,5.02359],[-75.68188,5.02361],[-75.6819,5.02361],[-75.6819,5.02359],[-75.68188,5.02359]]],[[[-75.6819,5.02361],[-75.6819,5.02363],[-75.68192,5.02363],[-75.68192,5.02361],[-75.6819,5.02361]]],[[[-75.68197,5.02356],[-75.68201,5.02358],[-75.68199,5.02362],[-75.68205,5.02364],[-75.68207,5.02359],[-75.68203,5.02357],[-75.68205,5.02353],[-75.68199,5.02352],[-75.68197,5.02356]]],[[[-75.68192,5.02363],[-75.68192,5.02365],[-75.68194,5.02365],[-75.68194,5.02363],[-75.68192,5.02363]]],[[[-75.68194,5.02365],[-75.68194,5.02367],[-75.68197,5.02367],[-75.68197,5.02365],[-75.68194,5.02365]]],[[[-75.68197,5.02367],[-75.68197,5.02368],[-75.68199,5.02368],[-75.68199,5.02367],[-75.68197,5.02367]]],[[[-75.68199,5.02368],[-75.682,5.02369],[-75.68222,5.02382],[-75.68232,5.02385],[-75.68233,5.02367],[-75.68247,5.02363],[-75.68249,5.02355],[-75.68251,5.02351],[-75.68254,5.02344],[-75.68259,5.02343],[-75.68263,5.02347],[-75.68254,5.02359],[-75.68255,5.02373],[-75.68252,5.02371],[-75.68249,5.02367],[-75.68234,5.0237],[-75.68234,5.02375],[-75.68235,5.02382],[-75.68233,5.02385],[-75.68235,5.02386],[-75.68278,5.0239],[-75.68293,5.02389],[-75.68305,5.02384],[-75.68329,5.02362],[-75.68333,5.02357],[-75.6833,5.02358],[-75.68328,5.0236],[-75.68324,5.02362],[-75.68307,5.02379],[-75.6831,5.02369],[-75.68312,5.0236],[-75.68314,5.02352],[-75.68314,5.02345],[-75.68314,5.02342],[-75.68313,5.02339],[-75.68307,5.02342],[-75.68305,5.02338],[-75.68311,5.02337],[-75.68313,5.02339],[-75.68318,5.02336],[-75.68321,5.02328],[-75.68319,5.02325],[-75.68315,5.02324],[-75.68311,5.02319],[-75.68312,5.02332],[-75.68306,5.02336],[-75.68306,5.02332],[-75.68307,5.02321],[-75.683,5.02311],[-75.68292,5.02308],[-75.68294,5.02306],[-75.683,5.02308],[-75.68303,5.02298],[-75.68304,5.023],[-75.68311,5.02311],[-75.68324,5.02302],[-75.68326,5.02304],[-75.68328,5.02313],[-75.68332,5.02321],[-75.68328,5.02328],[-75.68328,5.02332],[-75.68328,5.02335],[-75.68328,5.02342],[-75.68335,5.02336],[-75.68337,5.02324],[-75.68339,5.02325],[-75.6834,5.02339],[-75.68341,5.02338],[-75.68342,5.0233],[-75.68332,5.02285],[-75.68318,5.02259],[-75.68316,5.02258],[-75.68315,5.02262],[-75.68312,5.02272],[-75.6831,5.02285],[-75.68306,5.02295],[-75.68301,5.02289],[-75.68304,5.02277],[-75.68307,5.02274],[-75.6831,5.02254],[-75.68314,5.02252],[-75.68304,5.02238],[-75.68291,5.02229],[-75.68291,5.02232],[-75.68285,5.02232],[-75.68285,5.02229],[-75.68289,5.02229],[-75.68288,5.02228],[-75.68264,5.02217],[-75.68262,5.02216],[-75.68261,5.02224],[-75.68257,5.02237],[-75.68252,5.02239],[-75.6825,5.02245],[-75.6825,5.02249],[-75.68256,5.02247],[-75.68257,5.02245],[-75.68259,5.02246],[-75.68256,5.02247],[-75.68256,5.02253],[-75.68243,5.02262],[-75.68242,5.02268],[-75.6825,5.0227],[-75.68248,5.02272],[-75.68237,5.02269],[-75.68238,5.02266],[-75.68236,5.02259],[-75.68226,5.02265],[-75.68219,5.02263],[-75.68212,5.02257],[-75.68203,5.02255],[-75.68202,5.02252],[-75.68198,5.02246],[-75.68202,5.02242],[-75.68209,5.02247],[-75.68212,5.02246],[-75.68217,5.02247],[-75.68226,5.02234],[-75.68224,5.02229],[-75.68214,5.0223],[-75.68214,5.02227],[-75.68222,5.02215],[-75.6822,5.02206],[-75.68218,5.02205],[-75.6822,5.02203],[-75.6822,5.02206],[-75.68225,5.02206],[-75.68234,5.02209],[-75.68236,5.02218],[-75.68242,5.0221],[-75.68245,5.02215],[-75.68253,5.02213],[-75.68252,5.02212],[-75.68217,5.02202],[-75.68205,5.02193],[-75.68182,5.02155],[-75.68185,5.02152],[-75.68199,5.02158],[-75.68207,5.02159],[-75.68207,5.02158],[-75.68203,5.02154],[-75.68196,5.02147],[-75.68189,5.02147],[-75.68185,5.02144],[-75.68183,5.02127],[-75.68186,5.02127],[-75.68191,5.02127],[-75.6818,5.02108],[-75.6817,5.02095],[-75.6817,5.02091],[-75.68179,5.02096],[-75.68181,5.02099],[-75.6819,5.02105],[-75.68201,5.02106],[-75.68208,5.02103],[-75.68215,5.02102],[-75.68221,5.02098],[-75.68224,5.021],[-75.68234,5.02104],[-75.68226,5.0211],[-75.68233,5.02111],[-75.68236,5.02105],[-75.68241,5.02098],[-75.68246,5.02096],[-75.68248,5.02085],[-75.68254,5.02087],[-75.68251,5.02098],[-75.68257,5.021],[-75.68255,5.02102],[-75.68245,5.02103],[-75.68237,5.02114],[-75.68235,5.02116],[-75.68231,5.0212],[-75.68217,5.02127],[-75.68224,5.02138],[-75.68229,5.02136],[-75.68233,5.0213],[-75.68236,5.02136],[-75.68248,5.02135],[-75.68244,5.02141],[-75.68243,5.02144],[-75.68247,5.02141],[-75.68254,5.02129],[-75.6826,5.02092],[-75.68258,5.02079],[-75.68254,5.0207],[-75.68252,5.02068],[-75.68251,5.0207],[-75.68243,5.02074],[-75.68244,5.02069],[-75.6825,5.02066],[-75.68249,5.02062],[-75.68245,5.02059],[-75.68244,5.0206],[-75.68238,5.02062],[-75.68233,5.02066],[-75.68228,5.02062],[-75.68218,5.02061],[-75.68216,5.02061],[-75.68215,5.02062],[-75.68208,5.02064],[-75.68208,5.02062],[-75.68214,5.02055],[-75.68212,5.0205],[-75.68222,5.02047],[-75.68227,5.0204],[-75.6823,5.02039],[-75.68221,5.02026],[-75.68219,5.02025],[-75.68217,5.02029],[-75.68216,5.02023],[-75.68219,5.02025],[-75.68218,5.02022],[-75.68199,5.01991],[-75.68188,5.01981],[-75.68172,5.01975],[-75.68155,5.01975],[-75.68143,5.0198],[-75.68135,5.01971],[-75.68126,5.01962],[-75.68115,5.01957],[-75.68078,5.01952],[-75.68075,5.01929],[-75.6807,5.01913],[-75.68055,5.01899],[-75.68042,5.01893],[-75.6801,5.01895],[-75.67986,5.01898],[-75.67975,5.01905],[-75.67965,5.01916],[-75.67973,5.01917],[-75.67977,5.0192],[-75.67987,5.01935],[-75.67993,5.0195],[-75.67989,5.01951],[-75.67984,5.01945],[-75.67973,5.01936],[-75.67973,5.01932],[-75.67973,5.01929],[-75.67974,5.01924],[-75.67964,5.01922],[-75.67963,5.01919],[-75.67962,5.0192],[-75.67958,5.01926],[-75.67955,5.0194],[-75.67959,5.01972],[-75.67967,5.02046],[-75.67966,5.02076],[-75.6796,5.02135],[-75.67961,5.02156],[-75.6797,5.02171],[-75.67981,5.02182],[-75.67993,5.02188],[-75.67994,5.02184],[-75.67995,5.02187],[-75.67993,5.02188],[-75.68007,5.02211],[-75.67993,5.02247],[-75.67989,5.02262],[-75.67993,5.02281],[-75.68,5.02294],[-75.6801,5.02302],[-75.68021,5.02307],[-75.68035,5.0231],[-75.68064,5.02304],[-75.68065,5.02302],[-75.68055,5.02301],[-75.68056,5.02294],[-75.68052,5.02294],[-75.68043,5.02294],[-75.68053,5.02289],[-75.68065,5.0229],[-75.6806,5.02294],[-75.68071,5.02299],[-75.68068,5.02301],[-75.68067,5.02302],[-75.68072,5.02301],[-75.68081,5.02299],[-75.68089,5.02298],[-75.68091,5.02294],[-75.68093,5.02297],[-75.68089,5.02298],[-75.68091,5.02301],[-75.68115,5.02317],[-75.68139,5.02326],[-75.68145,5.02327],[-75.68143,5.02325],[-75.68115,5.02315],[-75.68111,5.02304],[-75.68112,5.02294],[-75.6811,5.02292],[-75.68102,5.02287],[-75.6811,5.02283],[-75.6811,5.0228],[-75.68108,5.0227],[-75.68104,5.02263],[-75.68104,5.02255],[-75.68104,5.02249],[-75.68107,5.02252],[-75.68111,5.02259],[-75.68117,5.02262],[-75.68116,5.02256],[-75.68119,5.02258],[-75.68123,5.02263],[-75.68131,5.02267],[-75.68133,5.02274],[-75.68135,5.02279],[-75.68139,5.02286],[-75.68138,5.0229],[-75.68141,5.02303],[-75.68133,5.02303],[-75.68118,5.02287],[-75.68119,5.02294],[-75.68121,5.02299],[-75.68127,5.0231],[-75.68133,5.02317],[-75.68147,5.02318],[-75.68153,5.02312],[-75.68153,5.02308],[-75.68161,5.02308],[-75.68169,5.02313],[-75.68158,5.02317],[-75.6817,5.0232],[-75.68186,5.02309],[-75.6819,5.02321],[-75.6818,5.02333],[-75.68182,5.02337],[-75.68192,5.02344],[-75.68198,5.02342],[-75.68214,5.02322],[-75.68216,5.02313],[-75.68221,5.02309],[-75.68224,5.02305],[-75.68243,5.02292],[-75.68252,5.02289],[-75.6825,5.02288],[-75.68247,5.02286],[-75.68244,5.0228],[-75.68236,5.02281],[-75.6823,5.02276],[-75.68246,5.02278],[-75.68254,5.02284],[-75.68261,5.02296],[-75.68257,5.02295],[-75.68254,5.02289],[-75.68252,5.02294],[-75.68243,5.02302],[-75.6825,5.02306],[-75.68256,5.02306],[-75.68254,5.02311],[-75.68249,5.02322],[-75.68253,5.02328],[-75.68249,5.02333],[-75.68245,5.02333],[-75.68242,5.0234],[-75.68231,5.02345],[-75.68222,5.02349],[-75.68227,5.02355],[-75.68233,5.02357],[-75.68224,5.02365],[-75.68223,5.0237],[-75.68224,5.02377],[-75.68213,5.02374],[-75.68213,5.02367],[-75.68213,5.0236],[-75.68211,5.02362],[-75.68208,5.02365],[-75.68202,5.02368],[-75.68199,5.02368]],[[-75.68288,5.02336],[-75.68267,5.02332],[-75.68269,5.02327],[-75.68285,5.02331],[-75.68297,5.02327],[-75.68299,5.0233],[-75.68288,5.02336]],[[-75.68174,5.02267],[-75.68173,5.02272],[-75.68169,5.02279],[-75.68166,5.02286],[-75.68162,5.02286],[-75.68165,5.02279],[-75.68169,5.02272],[-75.68167,5.0226],[-75.6816,5.02255],[-75.68153,5.02254],[-75.68146,5.02246],[-75.68135,5.02239],[-75.68126,5.02237],[-75.68133,5.02234],[-75.68136,5.02232],[-75.68142,5.02232],[-75.68153,5.02232],[-75.68182,5.02252],[-75.68192,5.0226],[-75.68201,5.02263],[-75.68211,5.02271],[-75.68225,5.02276],[-75.68212,5.02278],[-75.68206,5.02275],[-75.68203,5.02281],[-75.68195,5.02263],[-75.68188,5.02262],[-75.68185,5.02276],[-75.6818,5.02296],[-75.68171,5.02289],[-75.6818,5.0227],[-75.68178,5.02268],[-75.68174,5.02267]],[[-75.6814,5.02277],[-75.68138,5.02279],[-75.68137,5.02276],[-75.6814,5.02277]],[[-75.68163,5.02276],[-75.68159,5.02276],[-75.68159,5.02269],[-75.68163,5.02269],[-75.68163,5.02276]],[[-75.68163,5.02261],[-75.68161,5.02268],[-75.6816,5.02267],[-75.68157,5.0226],[-75.68163,5.02261]],[[-75.68104,5.02243],[-75.68101,5.02247],[-75.68099,5.0224],[-75.68104,5.02243]],[[-75.68183,5.02229],[-75.68182,5.02226],[-75.68188,5.02226],[-75.6819,5.02232],[-75.68183,5.02229]],[[-75.68073,5.02227],[-75.68072,5.02224],[-75.68077,5.02225],[-75.68073,5.02227]],[[-75.68078,5.02222],[-75.68084,5.02223],[-75.68079,5.02225],[-75.68078,5.02222]],[[-75.68117,5.02199],[-75.68131,5.02198],[-75.68136,5.02197],[-75.68129,5.02192],[-75.68142,5.02191],[-75.68147,5.02197],[-75.6814,5.022],[-75.68132,5.02202],[-75.68127,5.02205],[-75.68122,5.02216],[-75.68118,5.02218],[-75.68115,5.02221],[-75.68108,5.02224],[-75.68102,5.02223],[-75.681,5.02223],[-75.68096,5.02223],[-75.68092,5.02219],[-75.68089,5.02216],[-75.68088,5.02214],[-75.68083,5.0221],[-75.68097,5.02211],[-75.68096,5.02218],[-75.68103,5.0222],[-75.68106,5.02219],[-75.68102,5.02216],[-75.68106,5.02214],[-75.68111,5.0221],[-75.68115,5.02209],[-75.68121,5.02204],[-75.68117,5.02199],[-75.68113,5.02201],[-75.68111,5.02208],[-75.68108,5.02201],[-75.6811,5.02195],[-75.68117,5.02197],[-75.68117,5.02199]],[[-75.68056,5.02193],[-75.68049,5.02191],[-75.68047,5.02188],[-75.68058,5.02189],[-75.68056,5.02193]],[[-75.68083,5.02188],[-75.68087,5.02189],[-75.68084,5.0219],[-75.68083,5.02188]],[[-75.68097,5.0219],[-75.681,5.0219],[-75.68098,5.02192],[-75.68097,5.0219]],[[-75.68209,5.022],[-75.68213,5.02201],[-75.6821,5.02202],[-75.68209,5.022]],[[-75.68154,5.02219],[-75.6816,5.02218],[-75.68161,5.02217],[-75.68181,5.02217],[-75.68182,5.02221],[-75.68173,5.0222],[-75.68163,5.02222],[-75.6816,5.02221],[-75.68155,5.02222],[-75.68154,5.02219]],[[-75.6815,5.02223],[-75.68149,5.02224],[-75.68148,5.02222],[-75.6815,5.02223]],[[-75.68135,5.02223],[-75.68134,5.0222],[-75.6814,5.02221],[-75.68135,5.02223]],[[-75.68067,5.02209],[-75.68052,5.02205],[-75.68058,5.02197],[-75.68062,5.022],[-75.68064,5.02204],[-75.68067,5.02209]],[[-75.68204,5.02234],[-75.68207,5.02237],[-75.68198,5.02242],[-75.68191,5.0224],[-75.6819,5.02235],[-75.68196,5.02236],[-75.68204,5.02234]],[[-75.6821,5.02239],[-75.68211,5.02236],[-75.68215,5.02237],[-75.68214,5.02241],[-75.6821,5.02239]],[[-75.68163,5.02298],[-75.68164,5.02296],[-75.68167,5.02297],[-75.68163,5.02298],[-75.68162,5.02306],[-75.68159,5.02304],[-75.6816,5.02299],[-75.68163,5.02298]],[[-75.68169,5.02304],[-75.68172,5.023],[-75.68176,5.02301],[-75.68172,5.02306],[-75.68169,5.02304]],[[-75.682,5.02304],[-75.68201,5.02303],[-75.68203,5.02305],[-75.68197,5.02311],[-75.68195,5.02308],[-75.682,5.02304]],[[-75.68286,5.02244],[-75.68288,5.02248],[-75.68291,5.02251],[-75.68289,5.02256],[-75.68285,5.02262],[-75.68281,5.02264],[-75.68278,5.02268],[-75.68279,5.02261],[-75.68283,5.0225],[-75.68281,5.02246],[-75.6828,5.02243],[-75.68286,5.02244]],[[-75.68251,5.02264],[-75.6825,5.02266],[-75.68249,5.02263],[-75.68251,5.02264]],[[-75.6826,5.0226],[-75.68257,5.02259],[-75.68259,5.02254],[-75.68263,5.02252],[-75.68264,5.02251],[-75.68268,5.02253],[-75.6826,5.0226]],[[-75.68268,5.02252],[-75.68271,5.02245],[-75.68276,5.02246],[-75.68271,5.02259],[-75.68268,5.02252]],[[-75.68107,5.02185],[-75.68107,5.02182],[-75.68112,5.02175],[-75.68115,5.02173],[-75.68115,5.02172],[-75.68122,5.02173],[-75.6812,5.02176],[-75.68114,5.0218],[-75.68107,5.02185]],[[-75.68073,5.02178],[-75.6807,5.0218],[-75.68069,5.02177],[-75.68073,5.02178]],[[-75.68154,5.02169],[-75.68161,5.0216],[-75.68159,5.02135],[-75.6816,5.02132],[-75.68159,5.02127],[-75.68163,5.02124],[-75.68164,5.02121],[-75.68172,5.02122],[-75.68173,5.02134],[-75.6817,5.02136],[-75.68171,5.02152],[-75.68165,5.0216],[-75.68161,5.02165],[-75.6816,5.02167],[-75.68154,5.02176],[-75.68154,5.02169]],[[-75.68051,5.02159],[-75.68049,5.02163],[-75.68032,5.02158],[-75.68031,5.02156],[-75.68051,5.02159]],[[-75.68011,5.0217],[-75.68003,5.02169],[-75.68008,5.02164],[-75.68026,5.02162],[-75.68024,5.02171],[-75.68012,5.02172],[-75.68011,5.0217]],[[-75.67982,5.02151],[-75.67973,5.02145],[-75.67975,5.02141],[-75.67981,5.02142],[-75.67982,5.02151]],[[-75.68061,5.02139],[-75.68061,5.02142],[-75.6805,5.02144],[-75.68057,5.02148],[-75.68052,5.0215],[-75.68046,5.02148],[-75.68045,5.02147],[-75.68043,5.02147],[-75.6804,5.02147],[-75.68034,5.0215],[-75.68037,5.0214],[-75.68039,5.02139],[-75.68038,5.02136],[-75.6805,5.02141],[-75.68061,5.02139],[-75.68062,5.02137],[-75.68063,5.02139],[-75.68061,5.02139]],[[-75.68063,5.02134],[-75.68065,5.02135],[-75.68064,5.02136],[-75.68063,5.02134]],[[-75.68101,5.02131],[-75.68102,5.02128],[-75.681,5.02124],[-75.68099,5.02121],[-75.68105,5.02122],[-75.68109,5.02127],[-75.68104,5.02134],[-75.68101,5.02131]],[[-75.68071,5.02129],[-75.68068,5.02131],[-75.68067,5.02128],[-75.68071,5.02129]],[[-75.68087,5.02122],[-75.68079,5.0212],[-75.68081,5.02116],[-75.68089,5.02118],[-75.68087,5.02122]],[[-75.68128,5.02103],[-75.68129,5.02104],[-75.68132,5.02108],[-75.68138,5.02112],[-75.68131,5.02118],[-75.68128,5.02109],[-75.68128,5.02103],[-75.68125,5.02102],[-75.68127,5.02099],[-75.68128,5.02103]],[[-75.68174,5.02113],[-75.68175,5.0211],[-75.68178,5.02111],[-75.68182,5.02117],[-75.68175,5.02122],[-75.6817,5.02119],[-75.68174,5.02113]],[[-75.68139,5.02103],[-75.68148,5.02103],[-75.68148,5.02108],[-75.68139,5.02108],[-75.68139,5.02103]],[[-75.68116,5.02148],[-75.68118,5.02142],[-75.68121,5.02137],[-75.68123,5.02139],[-75.6812,5.02151],[-75.68116,5.02148]],[[-75.68191,5.0215],[-75.68193,5.0215],[-75.68192,5.02152],[-75.68191,5.0215]],[[-75.68171,5.02159],[-75.68173,5.02159],[-75.68172,5.02161],[-75.68171,5.02159]],[[-75.68175,5.02171],[-75.6818,5.02162],[-75.68183,5.02163],[-75.68185,5.02167],[-75.6819,5.02175],[-75.68187,5.02179],[-75.68175,5.02171]],[[-75.68178,5.02088],[-75.68174,5.02082],[-75.68175,5.02079],[-75.68177,5.0208],[-75.68186,5.02087],[-75.68192,5.02091],[-75.68194,5.02094],[-75.68199,5.02097],[-75.68195,5.02098],[-75.68178,5.02088]],[[-75.68201,5.02076],[-75.68197,5.02075],[-75.68189,5.02068],[-75.68193,5.02065],[-75.68194,5.02063],[-75.68195,5.02064],[-75.68197,5.0207],[-75.68204,5.02075],[-75.68209,5.02074],[-75.68211,5.02085],[-75.68208,5.02095],[-75.68201,5.02102],[-75.68203,5.0209],[-75.6821,5.02079],[-75.68204,5.0208],[-75.68201,5.02076]],[[-75.68148,5.02071],[-75.68146,5.02074],[-75.68146,5.0207],[-75.68148,5.02071]],[[-75.68228,5.02073],[-75.68227,5.0207],[-75.68233,5.02071],[-75.6824,5.02077],[-75.68234,5.02089],[-75.68219,5.02092],[-75.68219,5.02089],[-75.68229,5.02083],[-75.6823,5.02078],[-75.68228,5.02073]],[[-75.68024,5.02091],[-75.68023,5.02089],[-75.68025,5.02089],[-75.68024,5.02091]],[[-75.6809,5.02087],[-75.68092,5.02087],[-75.6809,5.02089],[-75.6809,5.02087]],[[-75.68135,5.02088],[-75.68141,5.02084],[-75.68144,5.02079],[-75.68148,5.0208],[-75.68141,5.02089],[-75.68135,5.02088]],[[-75.68254,5.02108],[-75.68256,5.02108],[-75.68255,5.0211],[-75.68254,5.02108]],[[-75.6825,5.02113],[-75.68255,5.02114],[-75.68253,5.02117],[-75.6825,5.02113]],[[-75.68017,5.02052],[-75.68015,5.02045],[-75.68014,5.0204],[-75.68019,5.02041],[-75.68017,5.02052]],[[-75.67977,5.02047],[-75.67975,5.02052],[-75.67974,5.02046],[-75.67977,5.02047]],[[-75.67988,5.02042],[-75.67984,5.02044],[-75.67979,5.02032],[-75.67978,5.02029],[-75.67985,5.02031],[-75.67988,5.02042]],[[-75.67999,5.0202],[-75.68002,5.02023],[-75.68002,5.02035],[-75.67999,5.0202]],[[-75.6801,5.02026],[-75.68012,5.0202],[-75.68015,5.02022],[-75.68011,5.02032],[-75.6801,5.02026]],[[-75.68084,5.0202],[-75.68083,5.02022],[-75.68078,5.02021],[-75.68084,5.0202],[-75.68091,5.02012],[-75.6809,5.02022],[-75.68084,5.0202]],[[-75.68147,5.02021],[-75.68154,5.02022],[-75.68161,5.02024],[-75.68148,5.02024],[-75.68147,5.02021]],[[-75.68184,5.02023],[-75.68183,5.02019],[-75.68191,5.0202],[-75.68193,5.02026],[-75.68184,5.02023]],[[-75.68009,5.02013],[-75.68008,5.02008],[-75.68012,5.02008],[-75.68009,5.02013]],[[-75.68192,5.0203],[-75.68195,5.02031],[-75.68204,5.02033],[-75.68198,5.02036],[-75.68191,5.02034],[-75.68192,5.0203]],[[-75.68171,5.02038],[-75.68171,5.02035],[-75.68173,5.02037],[-75.68171,5.02038],[-75.6817,5.02042],[-75.68165,5.02046],[-75.68167,5.0204],[-75.68171,5.02038]],[[-75.6806,5.02006],[-75.68062,5.01993],[-75.68072,5.01986],[-75.68084,5.01987],[-75.6809,5.01985],[-75.68096,5.01983],[-75.68097,5.01982],[-75.68106,5.01983],[-75.68103,5.01986],[-75.68097,5.01989],[-75.68089,5.01994],[-75.68085,5.01992],[-75.68078,5.01988],[-75.68074,5.0199],[-75.68072,5.01992],[-75.68065,5.01998],[-75.68072,5.02002],[-75.6806,5.02006]],[[-75.68012,5.01994],[-75.68009,5.02005],[-75.68006,5.01999],[-75.68008,5.01993],[-75.68012,5.01994]],[[-75.67996,5.01985],[-75.67991,5.01983],[-75.67981,5.0197],[-75.67983,5.01964],[-75.6799,5.01965],[-75.67994,5.01973],[-75.67996,5.01985]],[[-75.67997,5.01966],[-75.68,5.01967],[-75.67998,5.01968],[-75.67997,5.01966]],[[-75.68023,5.01971],[-75.68031,5.01972],[-75.68018,5.01978],[-75.68015,5.01977],[-75.68008,5.01983],[-75.6801,5.01975],[-75.68013,5.01974],[-75.6802,5.01976],[-75.68023,5.01971]],[[-75.68003,5.01975],[-75.68003,5.01973],[-75.68005,5.01974],[-75.68003,5.01975]],[[-75.68192,5.01989],[-75.68194,5.01989],[-75.68193,5.01991],[-75.68192,5.01989]],[[-75.68172,5.01996],[-75.68174,5.01993],[-75.68177,5.01995],[-75.68179,5.01997],[-75.68186,5.02],[-75.68186,5.02003],[-75.68168,5.02],[-75.68167,5.01994],[-75.68172,5.01996]],[[-75.68199,5.01998],[-75.68197,5.01997],[-75.68199,5.01996],[-75.68199,5.01998],[-75.68202,5.01998],[-75.682,5.02],[-75.68199,5.01998]],[[-75.68111,5.01995],[-75.6811,5.01997],[-75.68109,5.01994],[-75.68111,5.01995]],[[-75.68005,5.01945],[-75.68003,5.01946],[-75.68003,5.01944],[-75.68005,5.01945]],[[-75.68012,5.01903],[-75.68008,5.01914],[-75.68014,5.01919],[-75.68012,5.01927],[-75.6801,5.01925],[-75.68004,5.01914],[-75.68005,5.019],[-75.68006,5.01899],[-75.68012,5.01903]],[[-75.67998,5.0192],[-75.67995,5.01923],[-75.67994,5.01915],[-75.67998,5.0192]],[[-75.68002,5.01907],[-75.67999,5.01911],[-75.67995,5.01906],[-75.68002,5.01907]],[[-75.68003,5.019],[-75.67998,5.01903],[-75.67995,5.01899],[-75.68003,5.019]],[[-75.68024,5.01899],[-75.68026,5.019],[-75.68025,5.01901],[-75.68024,5.01899]],[[-75.68043,5.01896],[-75.68041,5.01898],[-75.6804,5.01895],[-75.68043,5.01896]],[[-75.68065,5.02264],[-75.68068,5.02265],[-75.68066,5.02266],[-75.68065,5.02264]],[[-75.68042,5.02268],[-75.68046,5.02269],[-75.68048,5.02273],[-75.6804,5.02273],[-75.68042,5.02268]],[[-75.68001,5.02271],[-75.67999,5.02274],[-75.67997,5.0227],[-75.68001,5.02271]],[[-75.68064,5.02279],[-75.68064,5.02276],[-75.68066,5.02278],[-75.68064,5.02279],[-75.68063,5.0228],[-75.68057,5.02281],[-75.68051,5.02285],[-75.68041,5.02286],[-75.68049,5.0228],[-75.68064,5.02279]],[[-75.68007,5.02283],[-75.68012,5.02291],[-75.68,5.0229],[-75.67999,5.02285],[-75.68001,5.02283],[-75.68002,5.02282],[-75.68007,5.02283]],[[-75.68028,5.02306],[-75.68036,5.02307],[-75.68029,5.02308],[-75.68028,5.02306]]]]},"properties":{"FID":2,"OBJECTID":3,"Amenaza":"Baja","Area_ha":11.6526940178,"Shape_Leng":8338.0703473,"Shape_Area":116526.929771}}]}