{"type":"FeatureCollection","name":"ACA_MM_LaHermella","crs":{"type":"name","properties":{"name":"urn:ogc:def:crs:OGC:1.3:CRS84"}},"features":[{"type":"Feature","id":0,"geometry":{"type":"Polygon","coordinates":[[[-75.68219,5.02255],[-75.68223,5.02259],[-75.68228,5.02254],[-75.68219,5.02253],[-75.68219,5.02255]]]},"properties":{"FID":0,"OBJECTID_1":1,"Amenaza_MM":"Alta","Shape_Leng":27.2720932327,"Shape_Area":36.639348397}},{"type":"Feature","id":1,"geometry":{"type":"Polygon","coordinates":[[[-75.68044,5.02144],[-75.68047,5.02145],[-75.68047,5.02145],[-75.68044,5.02144]]]},"properties":{"FID":1,"OBJECTID_1":2,"Amenaza_MM":"Alta","Shape_Leng":7.62359753082,"Shape_Area":1.80026570191}},{"type":"Feature","id":2,"geometry":{"type":"Polygon","coordinates":[[[-75.68044,5.02144],[-75.68039,5.02143],[-75.68042,5.02146],[-75.68043,5.02147],[-75.68045,5.02147],[-75.68047,5.02145],[-75.68044,5.02144]]]},"properties":{"FID":2,"OBJECTID_1":3,"Amenaza_MM":"Alta","Shape_Leng":20.1583991904,"Shape_Area":15.9070193566}},{"type":"Feature","id":3,"geometry":{"type":"MultiPolygon","coordinates":[[[[-75.68206,5.02092],[-75.68207,5.02091],[-75.68205,5.0209],[-75.68206,5.02092]]],[[[-75.68218,5.02061],[-75.68217,5.02059],[-75.68212,5.0206],[-75.68216,5.02061],[-75.68218,5.02061]]]]},"properties":{"FID":3,"OBJECTID_1":4,"Amenaza_MM":"Alta","Shape_Leng":22.7343509637,"Shape_Area":11.4042586072}},{"type":"Feature","id":4,"geometry":{"type":"Polygon","coordinates":[[[-75.68095,5.01988],[-75.68097,5.01986],[-75.68095,5.01986],[-75.68095,5.01988]]]},"properties":{"FID":4,"OBJECTID_1":5,"Amenaza_MM":"Alta","Shape_Leng":7.54585584036,"Shape_Area":2.73873408065}},{"type":"Feature","id":5,"geometry":{"type":"Polygon","coordinates":[[[-75.68115,5.02173],[-75.68112,5.02175],[-75.68107,5.02182],[-75.68107,5.02182],[-75.68115,5.02179],[-75.6812,5.02176],[-75.68122,5.02173],[-75.68115,5.02172],[-75.68115,5.02173]]]},"properties":{"FID":5,"OBJECTID_1":6,"Amenaza_MM":"Media","Shape_Leng":42.1579994297,"Shape_Area":81.7083415423}},{"type":"Feature","id":6,"geometry":{"type":"MultiPolygon","coordinates":[[[[-75.68175,5.02171],[-75.68187,5.02179],[-75.68189,5.02177],[-75.68188,5.02176],[-75.68188,5.02175],[-75.6818,5.02163],[-75.68175,5.02171]]],[[[-75.68154,5.02169],[-75.68154,5.02176],[-75.6816,5.02167],[-75.68161,5.02165],[-75.68163,5.02162],[-75.68162,5.02161],[-75.68161,5.0216],[-75.68154,5.02169]]],[[[-75.68172,5.02161],[-75.68173,5.02159],[-75.68171,5.02159],[-75.68172,5.02161]]],[[[-75.68163,5.0216],[-75.68166,5.02157],[-75.68166,5.02158],[-75.68171,5.02152],[-75.6817,5.02136],[-75.68173,5.02134],[-75.68172,5.02122],[-75.68164,5.02121],[-75.68163,5.02124],[-75.68159,5.02127],[-75.6816,5.02132],[-75.68159,5.02135],[-75.68161,5.0216],[-75.68162,5.02159],[-75.68163,5.0216]]],[[[-75.68118,5.02142],[-75.68116,5.02148],[-75.6812,5.02151],[-75.68123,5.02139],[-75.68121,5.02137],[-75.68118,5.02142]]],[[[-75.68191,5.02127],[-75.68186,5.02127],[-75.68183,5.02127],[-75.68185,5.02143],[-75.68191,5.02127]]],[[[-75.68191,5.02127],[-75.682,5.02106],[-75.6819,5.02105],[-75.68181,5.02099],[-75.68179,5.02096],[-75.6817,5.02091],[-75.6817,5.02095],[-75.6818,5.02108],[-75.68191,5.02127]]],[[[-75.68174,5.02113],[-75.6817,5.02119],[-75.68175,5.02122],[-75.68182,5.02117],[-75.68178,5.02111],[-75.68175,5.0211],[-75.68174,5.02113]]],[[[-75.68128,5.02103],[-75.68128,5.02109],[-75.68131,5.02118],[-75.68138,5.02112],[-75.68132,5.02108],[-75.68129,5.02104],[-75.68128,5.02103]]],[[[-75.68139,5.02103],[-75.68139,5.02108],[-75.68148,5.02108],[-75.68148,5.02103],[-75.68139,5.02103]]],[[[-75.68128,5.02103],[-75.68127,5.02099],[-75.68125,5.02102],[-75.68128,5.02103]]]]},"properties":{"FID":6,"OBJECTID_1":7,"Amenaza_MM":"Media","Shape_Leng":516.311778044,"Shape_Area":1445.58334792}},{"type":"Feature","id":7,"geometry":{"type":"MultiPolygon","coordinates":[[[[-75.6822,5.02206],[-75.68222,5.02215],[-75.68214,5.02227],[-75.68214,5.0223],[-75.68224,5.02229],[-75.68226,5.02234],[-75.68217,5.02247],[-75.68212,5.02246],[-75.68209,5.02247],[-75.68202,5.02242],[-75.68198,5.02246],[-75.68202,5.02252],[-75.68203,5.02255],[-75.68212,5.02257],[-75.68219,5.02263],[-75.68226,5.02265],[-75.68236,5.02259],[-75.68238,5.02266],[-75.68237,5.02269],[-75.68243,5.02271],[-75.68243,5.02269],[-75.68242,5.02268],[-75.68242,5.02268],[-75.68242,5.02267],[-75.68242,5.02266],[-75.68243,5.02265],[-75.68243,5.02262],[-75.6825,5.02257],[-75.68253,5.02255],[-75.68255,5.02253],[-75.68256,5.02252],[-75.68256,5.02247],[-75.6825,5.02249],[-75.6825,5.02245],[-75.68252,5.02239],[-75.68257,5.02237],[-75.68261,5.02224],[-75.68261,5.02219],[-75.6826,5.02219],[-75.6826,5.02219],[-75.68247,5.02214],[-75.68245,5.02215],[-75.68243,5.02219],[-75.68241,5.02215],[-75.68245,5.02215],[-75.68244,5.02213],[-75.68241,5.02212],[-75.68236,5.02218],[-75.68234,5.02209],[-75.68232,5.02208],[-75.68225,5.02206],[-75.6822,5.02206]],[[-75.68219,5.02255],[-75.68219,5.02253],[-75.68228,5.02254],[-75.68223,5.02259],[-75.68219,5.02255]]],[[[-75.68256,5.02247],[-75.68258,5.02247],[-75.68258,5.02246],[-75.68257,5.02245],[-75.68256,5.02247]]],[[[-75.68191,5.0224],[-75.68198,5.02242],[-75.68207,5.02237],[-75.68204,5.02234],[-75.68196,5.02236],[-75.6819,5.02235],[-75.68191,5.0224]]],[[[-75.6821,5.02239],[-75.68214,5.02241],[-75.68215,5.02237],[-75.68211,5.02236],[-75.6821,5.02239]]],[[[-75.68183,5.02229],[-75.6819,5.02232],[-75.68188,5.02226],[-75.68182,5.02226],[-75.68183,5.02229]]],[[[-75.68149,5.02224],[-75.6815,5.02223],[-75.68148,5.02222],[-75.68149,5.02224]]],[[[-75.68135,5.02223],[-75.68135,5.02223],[-75.6814,5.02221],[-75.68134,5.0222],[-75.68135,5.02223]]],[[[-75.68155,5.02222],[-75.6816,5.02221],[-75.68163,5.02222],[-75.68173,5.0222],[-75.68182,5.02221],[-75.68181,5.02217],[-75.68161,5.02217],[-75.6816,5.02218],[-75.68154,5.02219],[-75.68155,5.02222]]],[[[-75.6822,5.02206],[-75.6822,5.02204],[-75.68219,5.02204],[-75.68218,5.02205],[-75.6822,5.02206]]],[[[-75.6821,5.02202],[-75.68213,5.02201],[-75.68211,5.02201],[-75.68209,5.022],[-75.6821,5.02202]]]]},"properties":{"FID":7,"OBJECTID_1":8,"Amenaza_MM":"Media","Shape_Leng":545.660995319,"Shape_Area":2749.11169231}},{"type":"Feature","id":8,"geometry":{"type":"MultiPolygon","coordinates":[[[[-75.68101,5.02247],[-75.68104,5.02243],[-75.68099,5.0224],[-75.68101,5.02247]]],[[[-75.68073,5.02227],[-75.68077,5.02225],[-75.68072,5.02224],[-75.68073,5.02227]]],[[[-75.68079,5.02225],[-75.68084,5.02223],[-75.68078,5.02222],[-75.68079,5.02225]]]]},"properties":{"FID":8,"OBJECTID_1":9,"Amenaza_MM":"Media","Shape_Leng":44.1359251493,"Shape_Area":26.9201044305}},{"type":"Feature","id":9,"geometry":{"type":"MultiPolygon","coordinates":[[[[-75.68166,5.02297],[-75.68164,5.02296],[-75.68163,5.02297],[-75.68164,5.02298],[-75.68166,5.02297],[-75.68166,5.02297]]],[[[-75.68183,5.02254],[-75.68181,5.02251],[-75.68179,5.0225],[-75.68154,5.02232],[-75.68153,5.02232],[-75.68142,5.02232],[-75.68136,5.02232],[-75.68133,5.02234],[-75.68126,5.02237],[-75.68135,5.02239],[-75.68146,5.02246],[-75.68153,5.02254],[-75.6816,5.02255],[-75.68167,5.0226],[-75.68169,5.02272],[-75.68165,5.02279],[-75.68162,5.02286],[-75.68166,5.02286],[-75.68169,5.02279],[-75.68173,5.02272],[-75.68174,5.02267],[-75.6817,5.02267],[-75.6817,5.0226],[-75.68173,5.0226],[-75.68174,5.02267],[-75.68178,5.02268],[-75.68183,5.02254]]],[[[-75.68159,5.02269],[-75.68159,5.02276],[-75.68163,5.02276],[-75.68163,5.02269],[-75.68159,5.02269]]],[[[-75.6816,5.02267],[-75.68161,5.02268],[-75.68163,5.02261],[-75.68157,5.0226],[-75.6816,5.02267]]]]},"properties":{"FID":9,"OBJECTID_1":10,"Amenaza_MM":"Media","Shape_Leng":288.998562491,"Shape_Area":1156.7828804}},{"type":"Feature","id":10,"geometry":{"type":"MultiPolygon","coordinates":[[[[-75.68252,5.02371],[-75.68255,5.02373],[-75.68254,5.02359],[-75.68263,5.02347],[-75.68259,5.02343],[-75.68254,5.02344],[-75.68251,5.02351],[-75.68249,5.02355],[-75.68247,5.02363],[-75.68236,5.02366],[-75.6824,5.02369],[-75.68249,5.02367],[-75.68252,5.02371]]],[[[-75.68267,5.02332],[-75.68288,5.02336],[-75.68299,5.0233],[-75.68297,5.02327],[-75.68285,5.02331],[-75.68269,5.02327],[-75.68267,5.02332]]],[[[-75.68248,5.02333],[-75.68249,5.02333],[-75.68253,5.02328],[-75.68252,5.02326],[-75.68248,5.02333]]]]},"properties":{"FID":10,"OBJECTID_1":11,"Amenaza_MM":"Media","Shape_Leng":201.999153645,"Shape_Area":502.33430182}},{"type":"Feature","id":11,"geometry":{"type":"MultiPolygon","coordinates":[[[[-75.68252,5.02326],[-75.68249,5.02322],[-75.68254,5.02311],[-75.68256,5.02306],[-75.6825,5.02306],[-75.68243,5.02302],[-75.68252,5.02294],[-75.68254,5.02289],[-75.68257,5.02295],[-75.68261,5.02296],[-75.68254,5.02284],[-75.68246,5.02278],[-75.6823,5.02276],[-75.68236,5.02281],[-75.68244,5.0228],[-75.68247,5.02286],[-75.6825,5.02288],[-75.68252,5.02289],[-75.68243,5.02292],[-75.68224,5.02305],[-75.68221,5.02309],[-75.68216,5.02313],[-75.68214,5.02322],[-75.68203,5.02335],[-75.6823,5.02359],[-75.68233,5.02357],[-75.68227,5.02355],[-75.68222,5.02349],[-75.68231,5.02345],[-75.68242,5.0234],[-75.68245,5.02333],[-75.68248,5.02333],[-75.68252,5.02326]],[[-75.68248,5.02314],[-75.68243,5.02322],[-75.68242,5.02315],[-75.68245,5.02313],[-75.68246,5.02312],[-75.68248,5.02314]],[[-75.68233,5.02331],[-75.68237,5.02325],[-75.68241,5.02326],[-75.68238,5.02333],[-75.68233,5.02331]],[[-75.68228,5.02339],[-75.6823,5.0234],[-75.68229,5.02342],[-75.68228,5.02339]]],[[[-75.6818,5.02313],[-75.68189,5.02322],[-75.6819,5.02321],[-75.68186,5.02309],[-75.6818,5.02313]]],[[[-75.682,5.02304],[-75.68195,5.02308],[-75.68197,5.02311],[-75.68203,5.02305],[-75.68201,5.02303],[-75.682,5.02304]]],[[[-75.68169,5.02303],[-75.68172,5.02306],[-75.68176,5.02301],[-75.68172,5.023],[-75.68169,5.02303]]],[[[-75.68166,5.02297],[-75.68166,5.02297],[-75.68167,5.02297],[-75.68166,5.02297]]],[[[-75.68178,5.02268],[-75.68178,5.02268],[-75.6818,5.0227],[-75.68171,5.02289],[-75.6818,5.02296],[-75.68185,5.02276],[-75.68188,5.02262],[-75.68195,5.02263],[-75.68203,5.02281],[-75.68206,5.02275],[-75.68212,5.02278],[-75.68225,5.02276],[-75.68211,5.02271],[-75.68211,5.0227],[-75.6821,5.0227],[-75.68206,5.02268],[-75.68204,5.02266],[-75.68203,5.02264],[-75.68201,5.02263],[-75.68199,5.02262],[-75.68192,5.0226],[-75.68192,5.0226],[-75.68191,5.0226],[-75.68188,5.02257],[-75.68183,5.02254],[-75.68178,5.02268]]]]},"properties":{"FID":11,"OBJECTID_1":12,"Amenaza_MM":"Media","Shape_Leng":684.874190923,"Shape_Area":2968.41315068}},{"type":"Feature","id":12,"geometry":{"type":"Polygon","coordinates":[[[-75.68053,5.02206],[-75.68067,5.02209],[-75.68067,5.02208],[-75.68058,5.02203],[-75.68053,5.02206]]]},"properties":{"FID":12,"OBJECTID_1":13,"Amenaza_MM":"Media","Shape_Leng":34.5682529236,"Shape_Area":34.8568492147}},{"type":"Feature","id":13,"geometry":{"type":"MultiPolygon","coordinates":[[[[-75.67993,5.02185],[-75.67994,5.02186],[-75.67994,5.02184],[-75.67993,5.02185]]],[[[-75.68011,5.0217],[-75.68012,5.02172],[-75.68024,5.02171],[-75.68026,5.02162],[-75.68008,5.02164],[-75.68003,5.02169],[-75.68011,5.0217],[-75.68011,5.02168],[-75.68013,5.0217],[-75.68011,5.0217]]],[[[-75.68034,5.02156],[-75.68031,5.02156],[-75.68032,5.02158],[-75.68033,5.02158],[-75.68034,5.02156]]],[[[-75.68061,5.02139],[-75.6805,5.02141],[-75.68038,5.02136],[-75.68039,5.02139],[-75.68037,5.0214],[-75.68034,5.0215],[-75.68036,5.02149],[-75.68039,5.0214],[-75.68044,5.02144],[-75.68047,5.02145],[-75.68047,5.02145],[-75.68052,5.02149],[-75.68054,5.02147],[-75.6805,5.02144],[-75.68058,5.02143],[-75.68061,5.0214],[-75.68061,5.02139]]],[[[-75.68063,5.02138],[-75.68062,5.02137],[-75.68061,5.02139],[-75.68062,5.02139],[-75.68063,5.02138]]],[[[-75.68064,5.02136],[-75.68065,5.02135],[-75.68063,5.02134],[-75.68064,5.02136]]],[[[-75.68024,5.02091],[-75.68025,5.0209],[-75.68024,5.02089],[-75.68023,5.02089],[-75.68024,5.02091]]]]},"properties":{"FID":13,"OBJECTID_1":14,"Amenaza_MM":"Media","Shape_Leng":203.442339661,"Shape_Area":342.262336563}},{"type":"Feature","id":14,"geometry":{"type":"MultiPolygon","coordinates":[[[[-75.68117,5.02199],[-75.68121,5.02204],[-75.68115,5.02209],[-75.68111,5.0221],[-75.68106,5.02214],[-75.68102,5.02216],[-75.68106,5.02219],[-75.68103,5.0222],[-75.68096,5.02218],[-75.68097,5.02211],[-75.68083,5.0221],[-75.68088,5.02214],[-75.68089,5.02216],[-75.68092,5.02219],[-75.68096,5.02222],[-75.68097,5.02223],[-75.681,5.02223],[-75.68102,5.02223],[-75.68108,5.02224],[-75.68115,5.02221],[-75.68118,5.02218],[-75.68122,5.02216],[-75.68127,5.02205],[-75.68132,5.02202],[-75.6814,5.022],[-75.68147,5.02197],[-75.68142,5.02191],[-75.68129,5.02192],[-75.68136,5.02197],[-75.68131,5.02198],[-75.68117,5.02199]]],[[[-75.68117,5.02199],[-75.68117,5.02197],[-75.6811,5.02195],[-75.68108,5.02201],[-75.68111,5.02208],[-75.68113,5.02201],[-75.68117,5.02199]]],[[[-75.68053,5.02206],[-75.68058,5.02203],[-75.68067,5.02208],[-75.68064,5.02204],[-75.68062,5.022],[-75.68058,5.02197],[-75.68052,5.02205],[-75.68053,5.02206]]],[[[-75.68049,5.02191],[-75.68056,5.02193],[-75.68058,5.02189],[-75.68047,5.02188],[-75.68049,5.02191]]],[[[-75.68098,5.02192],[-75.681,5.0219],[-75.68097,5.0219],[-75.68098,5.02192]]],[[[-75.68084,5.0219],[-75.68087,5.02189],[-75.68083,5.02188],[-75.68084,5.0219]]],[[[-75.68107,5.02185],[-75.68107,5.02185],[-75.68108,5.02185],[-75.68107,5.02185]]],[[[-75.6807,5.0218],[-75.68073,5.02178],[-75.68069,5.02177],[-75.6807,5.0218]]],[[[-75.68033,5.02158],[-75.68049,5.02163],[-75.68051,5.02159],[-75.68034,5.02156],[-75.68033,5.02158]]],[[[-75.68045,5.02147],[-75.68046,5.02148],[-75.68052,5.0215],[-75.68057,5.02148],[-75.68054,5.02147],[-75.68052,5.02149],[-75.68047,5.02145],[-75.68045,5.02147]]],[[[-75.68044,5.02144],[-75.68039,5.0214],[-75.68036,5.02149],[-75.6804,5.02147],[-75.68043,5.02147],[-75.68042,5.02146],[-75.68039,5.02143],[-75.68044,5.02144]]],[[[-75.68061,5.0214],[-75.68058,5.02143],[-75.68061,5.02142],[-75.68061,5.0214]]],[[[-75.68063,5.02138],[-75.68062,5.02139],[-75.68063,5.02139],[-75.68063,5.02138]]]]},"properties":{"FID":14,"OBJECTID_1":15,"Amenaza_MM":"Media","Shape_Leng":492.351126736,"Shape_Area":987.236510357}},{"type":"Feature","id":15,"geometry":{"type":"MultiPolygon","coordinates":[[[[-75.681,5.02124],[-75.68102,5.02128],[-75.68101,5.02131],[-75.68104,5.02134],[-75.68109,5.02128],[-75.68109,5.02127],[-75.68105,5.02122],[-75.68099,5.02121],[-75.681,5.02124]]],[[[-75.68067,5.0213],[-75.68068,5.0213],[-75.68068,5.02131],[-75.68071,5.02129],[-75.68067,5.02128],[-75.68067,5.0213]]],[[[-75.68079,5.0212],[-75.68087,5.02122],[-75.68089,5.02118],[-75.68081,5.02116],[-75.68079,5.0212]]],[[[-75.68202,5.021],[-75.68205,5.02097],[-75.68208,5.02095],[-75.68211,5.02085],[-75.68211,5.02083],[-75.6821,5.02083],[-75.68211,5.02081],[-75.6821,5.02077],[-75.68209,5.02077],[-75.68209,5.02077],[-75.68208,5.02076],[-75.68208,5.02074],[-75.68204,5.02075],[-75.68202,5.02073],[-75.68198,5.02073],[-75.68196,5.02072],[-75.68196,5.0207],[-75.68197,5.02069],[-75.68195,5.02064],[-75.68194,5.02063],[-75.68193,5.02065],[-75.68189,5.02068],[-75.68197,5.02075],[-75.68201,5.02076],[-75.68204,5.0208],[-75.6821,5.02079],[-75.68203,5.0209],[-75.68202,5.021]],[[-75.68206,5.02092],[-75.68205,5.0209],[-75.68207,5.02091],[-75.68206,5.02092]]],[[[-75.68179,5.02089],[-75.6818,5.02089],[-75.68181,5.0209],[-75.68186,5.02093],[-75.68195,5.02098],[-75.68199,5.02097],[-75.68194,5.02094],[-75.68192,5.02091],[-75.68186,5.02087],[-75.68182,5.02084],[-75.68179,5.02089]]],[[[-75.68227,5.02071],[-75.68228,5.02072],[-75.68231,5.02075],[-75.68229,5.02076],[-75.6823,5.02078],[-75.68229,5.02083],[-75.68219,5.02089],[-75.68219,5.02092],[-75.68225,5.02091],[-75.68234,5.02089],[-75.6824,5.02077],[-75.68233,5.02071],[-75.68227,5.0207],[-75.68227,5.02071]]],[[[-75.68141,5.02084],[-75.68135,5.02088],[-75.6814,5.02089],[-75.68142,5.02088],[-75.68148,5.0208],[-75.68144,5.02079],[-75.68141,5.02084]]],[[[-75.6809,5.02089],[-75.68092,5.02087],[-75.68092,5.02087],[-75.6809,5.02087],[-75.6809,5.02089]]],[[[-75.68177,5.0208],[-75.68174,5.0208],[-75.68174,5.02082],[-75.68175,5.02083],[-75.68177,5.0208]]],[[[-75.68177,5.0208],[-75.68177,5.0208],[-75.68177,5.0208],[-75.68177,5.0208]]],[[[-75.68244,5.02069],[-75.68243,5.02074],[-75.68248,5.02071],[-75.68245,5.02069],[-75.68244,5.02069]]],[[[-75.68146,5.02074],[-75.68148,5.02071],[-75.68146,5.0207],[-75.68146,5.02074]]],[[[-75.68218,5.02061],[-75.68228,5.02062],[-75.68233,5.02066],[-75.68236,5.02063],[-75.68223,5.02054],[-75.68223,5.02054],[-75.68216,5.02049],[-75.68212,5.0205],[-75.68214,5.02055],[-75.68208,5.02062],[-75.68208,5.02064],[-75.68211,5.02064],[-75.68211,5.02063],[-75.68213,5.02063],[-75.68213,5.02061],[-75.68216,5.02061],[-75.68216,5.02061],[-75.68212,5.0206],[-75.68217,5.02059],[-75.68218,5.02061]]],[[[-75.68171,5.02038],[-75.68168,5.0204],[-75.68166,5.02043],[-75.68166,5.02043],[-75.68165,5.02046],[-75.6817,5.02042],[-75.68171,5.02038]]],[[[-75.68171,5.02038],[-75.68173,5.02037],[-75.68171,5.02035],[-75.68171,5.02038]]],[[[-75.68191,5.02034],[-75.68196,5.02036],[-75.68191,5.02033],[-75.68191,5.02034]]],[[[-75.68151,5.02024],[-75.68161,5.02024],[-75.68154,5.02022],[-75.68147,5.02021],[-75.68148,5.02024],[-75.68151,5.02024],[-75.68151,5.02024],[-75.68151,5.02024]]]]},"properties":{"FID":15,"OBJECTID_1":16,"Amenaza_MM":"Media","Shape_Leng":605.577614252,"Shape_Area":1053.16375387}},{"type":"Feature","id":16,"geometry":{"type":"MultiPolygon","coordinates":[[[[-75.6811,5.01997],[-75.68111,5.01995],[-75.68109,5.01994],[-75.6811,5.01997]]],[[[-75.68072,5.01992],[-75.68072,5.01992],[-75.68074,5.0199],[-75.68078,5.01988],[-75.68085,5.01992],[-75.68089,5.01994],[-75.68097,5.01989],[-75.68103,5.01986],[-75.68106,5.01983],[-75.68097,5.01982],[-75.68096,5.01983],[-75.6809,5.01985],[-75.68084,5.01987],[-75.68072,5.01986],[-75.68067,5.0199],[-75.68072,5.01992]],[[-75.68095,5.01988],[-75.68095,5.01986],[-75.68097,5.01986],[-75.68095,5.01988]]],[[[-75.68024,5.01971],[-75.68028,5.01973],[-75.68031,5.01972],[-75.68024,5.01971]]],[[[-75.68004,5.01914],[-75.6801,5.01925],[-75.68012,5.01927],[-75.68014,5.01919],[-75.68008,5.01914],[-75.6801,5.01908],[-75.68005,5.01904],[-75.68004,5.01914]]],[[[-75.67995,5.01923],[-75.67998,5.0192],[-75.67994,5.01915],[-75.67995,5.01923]]],[[[-75.67999,5.01911],[-75.68002,5.01907],[-75.67995,5.01906],[-75.67999,5.01911]]],[[[-75.67996,5.019],[-75.67998,5.01903],[-75.68001,5.01901],[-75.67998,5.019],[-75.67996,5.019]]]]},"properties":{"FID":16,"OBJECTID_1":17,"Amenaza_MM":"Media","Shape_Leng":242.558072476,"Shape_Area":409.917764848}},{"type":"Feature","id":17,"geometry":{"type":"MultiPolygon","coordinates":[[[[-75.68015,5.02045],[-75.68017,5.02052],[-75.68017,5.02049],[-75.68017,5.02048],[-75.68016,5.02042],[-75.68019,5.02041],[-75.68019,5.02041],[-75.68014,5.0204],[-75.68015,5.02045]]],[[[-75.6801,5.02026],[-75.68011,5.02032],[-75.68015,5.02022],[-75.68012,5.0202],[-75.6801,5.02026]]],[[[-75.68084,5.0202],[-75.68078,5.02021],[-75.68083,5.02022],[-75.68084,5.0202]]],[[[-75.68084,5.0202],[-75.6809,5.02022],[-75.68091,5.02012],[-75.68084,5.0202]]],[[[-75.68009,5.02013],[-75.68012,5.02008],[-75.68008,5.02008],[-75.68009,5.02013]]],[[[-75.68067,5.0199],[-75.68062,5.01993],[-75.6806,5.02006],[-75.68072,5.02002],[-75.68065,5.01998],[-75.68072,5.01992],[-75.68067,5.0199]]],[[[-75.68006,5.01999],[-75.68009,5.02005],[-75.68012,5.01994],[-75.68008,5.01993],[-75.68006,5.01999]]],[[[-75.68024,5.01971],[-75.68023,5.01971],[-75.6802,5.01976],[-75.68013,5.01974],[-75.6801,5.01975],[-75.68008,5.01983],[-75.68015,5.01977],[-75.68018,5.01978],[-75.68028,5.01973],[-75.68024,5.01971]]],[[[-75.68003,5.01975],[-75.68005,5.01974],[-75.68003,5.01973],[-75.68003,5.01975]]]]},"properties":{"FID":17,"OBJECTID_1":18,"Amenaza_MM":"Media","Shape_Leng":281.739353563,"Shape_Area":374.861213569}}]}