{"type":"FeatureCollection","name":"ACR_MM_Cartagena","crs":{"type":"name","properties":{"name":"urn:ogc:def:crs:OGC:1.3:CRS84"}},"features":[{"type":"Feature","id":0,"geometry":{"type":"Polygon","coordinates":[[[-75.63602,5.0203],[-75.63603,5.02023],[-75.63596,5.02023],[-75.63595,5.02029],[-75.63602,5.0203]]]},"properties":{"FID":0,"OBJECTID_1":1,"OBJECTID":1,"Amenaza_MM":"Alta","Shape_Leng":30.8391603412,"Shape_Le_1":30.8391603412,"Shape_Area":59.2655828399}},{"type":"Feature","id":1,"geometry":{"type":"Polygon","coordinates":[[[-75.63585,5.02075],[-75.63583,5.02075],[-75.63583,5.02076],[-75.6358,5.02076],[-75.6358,5.02085],[-75.63581,5.02085],[-75.63581,5.02089],[-75.63584,5.02089],[-75.63584,5.02091],[-75.63585,5.02091],[-75.63585,5.02091],[-75.63584,5.02092],[-75.63585,5.02095],[-75.63587,5.02095],[-75.63587,5.02095],[-75.6359,5.02094],[-75.63591,5.02091],[-75.63591,5.02089],[-75.6359,5.02089],[-75.6359,5.02077],[-75.63587,5.02077],[-75.63586,5.02077],[-75.63585,5.02077],[-75.63585,5.02076],[-75.63585,5.02076],[-75.63585,5.02075]]]},"properties":{"FID":1,"OBJECTID_1":2,"OBJECTID":2,"Amenaza_MM":"Alta","Shape_Leng":66.7733186804,"Shape_Le_1":66.7733186804,"Shape_Area":186.566076085}},{"type":"Feature","id":2,"geometry":{"type":"Polygon","coordinates":[[[-75.63604,5.0213],[-75.63599,5.02114],[-75.63595,5.02116],[-75.63591,5.02116],[-75.63591,5.02118],[-75.63589,5.02118],[-75.63592,5.02129],[-75.63591,5.02129],[-75.63593,5.02134],[-75.63595,5.02133],[-75.63596,5.02133],[-75.63604,5.0213]]]},"properties":{"FID":2,"OBJECTID_1":3,"OBJECTID":3,"Amenaza_MM":"Alta","Shape_Leng":66.0950960314,"Shape_Le_1":66.0950960314,"Shape_Area":235.820853884}},{"type":"Feature","id":3,"geometry":{"type":"Polygon","coordinates":[[[-75.63609,5.0212],[-75.63609,5.0212],[-75.63608,5.02121],[-75.63609,5.02127],[-75.63612,5.02127],[-75.63613,5.0213],[-75.63617,5.02129],[-75.63618,5.02129],[-75.63618,5.02128],[-75.63625,5.02126],[-75.63623,5.0212],[-75.63618,5.02121],[-75.63618,5.02118],[-75.63616,5.02118],[-75.63614,5.02119],[-75.63613,5.02119],[-75.63609,5.0212]]]},"properties":{"FID":3,"OBJECTID_1":4,"OBJECTID":4,"Amenaza_MM":"Alta","Shape_Leng":55.9601559766,"Shape_Le_1":55.9601559766,"Shape_Area":156.983217186}},{"type":"Feature","id":4,"geometry":{"type":"Polygon","coordinates":[[[-75.63613,5.0213],[-75.63613,5.02132],[-75.63615,5.02136],[-75.63619,5.02134],[-75.63623,5.02132],[-75.63624,5.0213],[-75.63628,5.02129],[-75.63625,5.02126],[-75.6362,5.02127],[-75.63618,5.02128],[-75.63618,5.02129],[-75.63615,5.02129],[-75.63614,5.02129],[-75.63613,5.0213]]]},"properties":{"FID":4,"OBJECTID_1":5,"OBJECTID":5,"Amenaza_MM":"Alta","Shape_Leng":43.2890295761,"Shape_Le_1":43.2890295761,"Shape_Area":90.8443840269}},{"type":"Feature","id":5,"geometry":{"type":"Polygon","coordinates":[[[-75.63637,5.02146],[-75.63633,5.02149],[-75.63627,5.02154],[-75.63631,5.0216],[-75.63634,5.02158],[-75.63636,5.02161],[-75.63637,5.02159],[-75.63637,5.02159],[-75.63638,5.02158],[-75.63638,5.02157],[-75.63639,5.02154],[-75.6364,5.02152],[-75.63641,5.02151],[-75.63637,5.02146]]]},"properties":{"FID":5,"OBJECTID_1":6,"OBJECTID":6,"Amenaza_MM":"Alta","Shape_Leng":49.839767223,"Shape_Le_1":49.839767223,"Shape_Area":132.96080751}},{"type":"Feature","id":6,"geometry":{"type":"Polygon","coordinates":[[[-75.6369,5.02208],[-75.63689,5.02208],[-75.63687,5.0221],[-75.63689,5.02212],[-75.63692,5.0221],[-75.63691,5.02207],[-75.6369,5.02208]]]},"properties":{"FID":6,"OBJECTID_1":7,"OBJECTID":7,"Amenaza_MM":"Alta","Shape_Leng":16.6915730585,"Shape_Le_1":16.6915730585,"Shape_Area":17.8565699535}},{"type":"Feature","id":7,"geometry":{"type":"Polygon","coordinates":[[[-75.63682,5.02223],[-75.6368,5.0222],[-75.63676,5.02222],[-75.63674,5.02223],[-75.63672,5.02224],[-75.63674,5.02228],[-75.63676,5.02227],[-75.63678,5.02225],[-75.6368,5.02224],[-75.63682,5.02223]]]},"properties":{"FID":7,"OBJECTID_1":8,"OBJECTID":8,"Amenaza_MM":"Alta","Shape_Leng":27.2938969072,"Shape_Le_1":27.2938969072,"Shape_Area":38.8279218286}},{"type":"Feature","id":8,"geometry":{"type":"Polygon","coordinates":[[[-75.6368,5.02242],[-75.63688,5.02237],[-75.63687,5.02233],[-75.63689,5.02232],[-75.63685,5.02226],[-75.63675,5.02231],[-75.6368,5.02242]]]},"properties":{"FID":8,"OBJECTID_1":9,"OBJECTID":9,"Amenaza_MM":"Alta","Shape_Leng":52.6205486687,"Shape_Le_1":52.6205486687,"Shape_Area":161.984301063}},{"type":"Feature","id":9,"geometry":{"type":"Polygon","coordinates":[[[-75.63597,5.02243],[-75.636,5.0224],[-75.63604,5.02236],[-75.63601,5.02233],[-75.63594,5.02241],[-75.63597,5.02243]]]},"properties":{"FID":9,"OBJECTID_1":10,"OBJECTID":10,"Amenaza_MM":"Alta","Shape_Leng":28.7990995555,"Shape_Le_1":28.7990995555,"Shape_Area":40.3772938787}},{"type":"Feature","id":10,"geometry":{"type":"Polygon","coordinates":[[[-75.63594,5.02241],[-75.63597,5.02239],[-75.63599,5.02236],[-75.63601,5.02233],[-75.63604,5.0223],[-75.63601,5.02227],[-75.63598,5.0223],[-75.63597,5.02229],[-75.63594,5.02226],[-75.63587,5.02234],[-75.63587,5.02235],[-75.63588,5.02236],[-75.63591,5.02238],[-75.63593,5.0224],[-75.63594,5.02241]]]},"properties":{"FID":10,"OBJECTID_1":11,"OBJECTID":11,"Amenaza_MM":"Alta","Shape_Leng":55.1942263984,"Shape_Le_1":55.1942263984,"Shape_Area":156.740378576}},{"type":"Feature","id":11,"geometry":{"type":"Polygon","coordinates":[[[-75.63595,5.02247],[-75.63593,5.02245],[-75.63591,5.02243],[-75.63589,5.02241],[-75.63587,5.02244],[-75.63583,5.02248],[-75.63586,5.02251],[-75.63589,5.02254],[-75.63595,5.02247]]]},"properties":{"FID":11,"OBJECTID_1":12,"OBJECTID":12,"Amenaza_MM":"Alta","Shape_Leng":39.5522267718,"Shape_Le_1":39.5522267718,"Shape_Area":97.5322689389}},{"type":"Feature","id":12,"geometry":{"type":"Polygon","coordinates":[[[-75.63706,5.0226],[-75.63703,5.02254],[-75.63696,5.02257],[-75.63689,5.02261],[-75.63693,5.02266],[-75.63706,5.0226]]]},"properties":{"FID":12,"OBJECTID_1":13,"OBJECTID":13,"Amenaza_MM":"Alta","Shape_Leng":47.5996835272,"Shape_Le_1":47.5996835272,"Shape_Area":124.104618709}},{"type":"Feature","id":13,"geometry":{"type":"Polygon","coordinates":[[[-75.63713,5.0228],[-75.63715,5.02281],[-75.63719,5.02277],[-75.63721,5.02274],[-75.63709,5.02265],[-75.63707,5.02269],[-75.63704,5.02273],[-75.63713,5.0228]]]},"properties":{"FID":13,"OBJECTID_1":14,"OBJECTID":14,"Amenaza_MM":"Alta","Shape_Leng":53.2377666956,"Shape_Le_1":53.2377666956,"Shape_Area":171.354697086}},{"type":"Feature","id":14,"geometry":{"type":"Polygon","coordinates":[[[-75.63694,5.02287],[-75.63696,5.02286],[-75.63687,5.02276],[-75.63678,5.02283],[-75.63678,5.02284],[-75.63674,5.0229],[-75.6368,5.02298],[-75.63681,5.02297],[-75.63687,5.02292],[-75.63694,5.02287]]]},"properties":{"FID":14,"OBJECTID_1":15,"OBJECTID":15,"Amenaza_MM":"Alta","Shape_Leng":70.5161237894,"Shape_Le_1":70.5161237894,"Shape_Area":299.669632159}},{"type":"Feature","id":15,"geometry":{"type":"Polygon","coordinates":[[[-75.63707,5.02302],[-75.63703,5.02305],[-75.637,5.02308],[-75.637,5.02309],[-75.63701,5.0231],[-75.63702,5.0231],[-75.63704,5.02312],[-75.63706,5.0231],[-75.6371,5.02307],[-75.63707,5.02302]]]},"properties":{"FID":15,"OBJECTID_1":16,"OBJECTID":16,"Amenaza_MM":"Alta","Shape_Leng":32.853342336,"Shape_Le_1":32.853342336,"Shape_Area":60.4096038797}},{"type":"Feature","id":16,"geometry":{"type":"Polygon","coordinates":[[[-75.63746,5.02268],[-75.63754,5.02258],[-75.63745,5.02249],[-75.63736,5.0226],[-75.63746,5.02268]]]},"properties":{"FID":16,"OBJECTID_1":17,"OBJECTID":17,"Amenaza_MM":"Alta","Shape_Leng":58.1148969386,"Shape_Le_1":58.1148969386,"Shape_Area":209.790502728}},{"type":"Feature","id":17,"geometry":{"type":"Polygon","coordinates":[[[-75.63732,5.02292],[-75.63737,5.02288],[-75.63731,5.02279],[-75.63726,5.02283],[-75.63723,5.02278],[-75.63719,5.0228],[-75.63729,5.02293],[-75.63732,5.02292]]]},"properties":{"FID":17,"OBJECTID_1":18,"OBJECTID":18,"Amenaza_MM":"Alta","Shape_Leng":58.9010759882,"Shape_Le_1":58.9010759882,"Shape_Area":160.363930103}},{"type":"Feature","id":18,"geometry":{"type":"Polygon","coordinates":[[[-75.63745,5.02289],[-75.63741,5.02284],[-75.63737,5.02287],[-75.63737,5.02288],[-75.63736,5.02288],[-75.63739,5.02293],[-75.63745,5.02289]]]},"properties":{"FID":18,"OBJECTID_1":19,"OBJECTID":19,"Amenaza_MM":"Alta","Shape_Leng":29.9482489928,"Shape_Le_1":29.9482489928,"Shape_Area":54.5926415644}},{"type":"Feature","id":19,"geometry":{"type":"Polygon","coordinates":[[[-75.63758,5.02268],[-75.63761,5.02263],[-75.63757,5.0226],[-75.63754,5.02265],[-75.63758,5.02268]]]},"properties":{"FID":19,"OBJECTID_1":20,"OBJECTID":20,"Amenaza_MM":"Alta","Shape_Leng":23.1070163919,"Shape_Le_1":23.1070163919,"Shape_Area":33.3166058554}},{"type":"Feature","id":20,"geometry":{"type":"Polygon","coordinates":[[[-75.63759,5.02279],[-75.6376,5.02279],[-75.63755,5.02271],[-75.63752,5.02273],[-75.63749,5.02274],[-75.63754,5.02282],[-75.63756,5.02281],[-75.63757,5.02284],[-75.6376,5.02281],[-75.63759,5.02279]]]},"properties":{"FID":20,"OBJECTID_1":21,"OBJECTID":21,"Amenaza_MM":"Alta","Shape_Leng":40.3428518077,"Shape_Le_1":40.3428518077,"Shape_Area":84.1023487803}},{"type":"Feature","id":21,"geometry":{"type":"Polygon","coordinates":[[[-75.63772,5.0229],[-75.6377,5.02286],[-75.63768,5.02284],[-75.63766,5.02285],[-75.63766,5.02284],[-75.63762,5.02287],[-75.63761,5.02285],[-75.63759,5.02287],[-75.63759,5.02288],[-75.63758,5.02289],[-75.6376,5.02292],[-75.63762,5.02296],[-75.63772,5.0229]]]},"properties":{"FID":21,"OBJECTID_1":22,"OBJECTID":22,"Amenaza_MM":"Alta","Shape_Leng":46.2006745075,"Shape_Le_1":46.2006745075,"Shape_Area":118.134329311}},{"type":"Feature","id":22,"geometry":{"type":"Polygon","coordinates":[[[-75.6374,5.02331],[-75.63746,5.02328],[-75.63742,5.0232],[-75.63736,5.02324],[-75.6374,5.02331]]]},"properties":{"FID":22,"OBJECTID_1":23,"OBJECTID":23,"Amenaza_MM":"Alta","Shape_Leng":34.1241954927,"Shape_Le_1":34.1241954927,"Shape_Area":71.0982564594}},{"type":"Feature","id":23,"geometry":{"type":"Polygon","coordinates":[[[-75.6376,5.02324],[-75.63756,5.02314],[-75.63747,5.02318],[-75.63744,5.02319],[-75.63742,5.0232],[-75.63746,5.02328],[-75.63748,5.02327],[-75.6375,5.02326],[-75.63751,5.02328],[-75.63756,5.02326],[-75.6376,5.02324]]]},"properties":{"FID":23,"OBJECTID_1":24,"OBJECTID":24,"Amenaza_MM":"Alta","Shape_Leng":56.4312629525,"Shape_Le_1":56.4312629525,"Shape_Area":180.955359223}},{"type":"Feature","id":24,"geometry":{"type":"Polygon","coordinates":[[[-75.63766,5.0233],[-75.63765,5.02324],[-75.63762,5.02324],[-75.63763,5.0233],[-75.63766,5.0233]]]},"properties":{"FID":24,"OBJECTID_1":25,"OBJECTID":25,"Amenaza_MM":"Alta","Shape_Leng":20.3951352804,"Shape_Le_1":20.3951352804,"Shape_Area":23.4734863446}},{"type":"Feature","id":25,"geometry":{"type":"Polygon","coordinates":[[[-75.6375,5.02337],[-75.63748,5.02334],[-75.6375,5.02334],[-75.63749,5.0233],[-75.63741,5.02333],[-75.6374,5.02332],[-75.63738,5.02333],[-75.6374,5.02337],[-75.63742,5.02336],[-75.63743,5.02339],[-75.63746,5.02338],[-75.6375,5.02337]]]},"properties":{"FID":25,"OBJECTID_1":26,"OBJECTID":26,"Amenaza_MM":"Alta","Shape_Leng":39.6087231309,"Shape_Le_1":39.6087231309,"Shape_Area":74.2352673405}},{"type":"Feature","id":26,"geometry":{"type":"Polygon","coordinates":[[[-75.63796,5.02267],[-75.63793,5.02263],[-75.63791,5.02259],[-75.63785,5.02262],[-75.63787,5.02266],[-75.63791,5.0227],[-75.63796,5.02267]]]},"properties":{"FID":26,"OBJECTID_1":27,"OBJECTID":27,"Amenaza_MM":"Alta","Shape_Leng":35.0780568119,"Shape_Le_1":35.0780568119,"Shape_Area":76.5246755026}},{"type":"Feature","id":27,"geometry":{"type":"Polygon","coordinates":[[[-75.63812,5.02299],[-75.63819,5.02294],[-75.63813,5.02287],[-75.63806,5.02292],[-75.63812,5.02299]]]},"properties":{"FID":27,"OBJECTID_1":28,"OBJECTID":28,"Amenaza_MM":"Alta","Shape_Leng":38.5359171722,"Shape_Le_1":38.5359171722,"Shape_Area":91.9101382717}},{"type":"Feature","id":28,"geometry":{"type":"Polygon","coordinates":[[[-75.63786,5.02323],[-75.63792,5.02316],[-75.63783,5.02308],[-75.63777,5.02315],[-75.63786,5.02323]]]},"properties":{"FID":28,"OBJECTID_1":29,"OBJECTID":29,"Amenaza_MM":"Alta","Shape_Leng":48.471011508,"Shape_Le_1":48.471011508,"Shape_Area":143.186034808}},{"type":"Feature","id":29,"geometry":{"type":"Polygon","coordinates":[[[-75.63829,5.02323],[-75.63828,5.02313],[-75.63818,5.02315],[-75.63819,5.02324],[-75.63829,5.02323]]]},"properties":{"FID":29,"OBJECTID_1":30,"OBJECTID":30,"Amenaza_MM":"Alta","Shape_Leng":44.3978175355,"Shape_Le_1":44.3978175355,"Shape_Area":122.978750481}},{"type":"Feature","id":30,"geometry":{"type":"Polygon","coordinates":[[[-75.63824,5.02336],[-75.63823,5.02332],[-75.63825,5.02332],[-75.63824,5.02325],[-75.63816,5.02327],[-75.63818,5.02333],[-75.63818,5.02333],[-75.63819,5.02337],[-75.63821,5.02337],[-75.63824,5.02336]]]},"properties":{"FID":30,"OBJECTID_1":31,"OBJECTID":31,"Amenaza_MM":"Alta","Shape_Leng":40.0232851762,"Shape_Le_1":40.0232851762,"Shape_Area":86.6901312869}},{"type":"Feature","id":31,"geometry":{"type":"Polygon","coordinates":[[[-75.63819,5.02344],[-75.63813,5.02326],[-75.63805,5.02329],[-75.6381,5.02346],[-75.63819,5.02344]]]},"properties":{"FID":31,"OBJECTID_1":32,"OBJECTID":32,"Amenaza_MM":"Alta","Shape_Leng":60.2784223533,"Shape_Le_1":60.2784223533,"Shape_Area":200.651383402}},{"type":"Feature","id":32,"geometry":{"type":"Polygon","coordinates":[[[-75.63772,5.02362],[-75.63769,5.02354],[-75.63761,5.02359],[-75.63757,5.02361],[-75.63755,5.02364],[-75.63753,5.02365],[-75.63754,5.02368],[-75.63772,5.02362]]]},"properties":{"FID":32,"OBJECTID_1":33,"OBJECTID":33,"Amenaza_MM":"Alta","Shape_Leng":54.6535499709,"Shape_Le_1":54.6535499709,"Shape_Area":135.134549428}},{"type":"Feature","id":33,"geometry":{"type":"Polygon","coordinates":[[[-75.63765,5.02364],[-75.6376,5.02366],[-75.63754,5.02368],[-75.63753,5.02369],[-75.63755,5.02375],[-75.63761,5.02373],[-75.63768,5.0237],[-75.63765,5.02364]]]},"properties":{"FID":33,"OBJECTID_1":34,"OBJECTID":34,"Amenaza_MM":"Alta","Shape_Leng":44.4433000217,"Shape_Le_1":44.4433000217,"Shape_Area":110.269682736}},{"type":"Feature","id":34,"geometry":{"type":"Polygon","coordinates":[[[-75.63829,5.02371],[-75.63827,5.02362],[-75.63821,5.02364],[-75.63825,5.02373],[-75.63829,5.02371]]]},"properties":{"FID":34,"OBJECTID_1":35,"OBJECTID":35,"Amenaza_MM":"Alta","Shape_Leng":32.0474614691,"Shape_Le_1":32.0474614691,"Shape_Area":60.1311186218}},{"type":"Feature","id":35,"geometry":{"type":"Polygon","coordinates":[[[-75.63851,5.02364],[-75.63853,5.02362],[-75.63857,5.02358],[-75.63852,5.02354],[-75.6385,5.02357],[-75.63849,5.02356],[-75.63846,5.02361],[-75.63851,5.02364]]]},"properties":{"FID":35,"OBJECTID_1":36,"OBJECTID":36,"Amenaza_MM":"Alta","Shape_Leng":32.6772186113,"Shape_Le_1":32.6772186113,"Shape_Area":65.9641986475}},{"type":"Feature","id":36,"geometry":{"type":"Polygon","coordinates":[[[-75.6375,5.02383],[-75.63745,5.02367],[-75.63742,5.02369],[-75.63741,5.02369],[-75.6374,5.02371],[-75.63739,5.02373],[-75.63737,5.02375],[-75.63739,5.02381],[-75.63741,5.02385],[-75.63747,5.02384],[-75.6375,5.02383]]]},"properties":{"FID":36,"OBJECTID_1":37,"OBJECTID":37,"Amenaza_MM":"Alta","Shape_Leng":54.0700840893,"Shape_Le_1":54.0700840893,"Shape_Area":171.723182286}},{"type":"Feature","id":37,"geometry":{"type":"Polygon","coordinates":[[[-75.63765,5.02456],[-75.63762,5.02449],[-75.63756,5.02451],[-75.63758,5.02458],[-75.63765,5.02456]]]},"properties":{"FID":37,"OBJECTID_1":38,"OBJECTID":38,"Amenaza_MM":"Alta","Shape_Leng":31.0120846921,"Shape_Le_1":31.0120846921,"Shape_Area":59.9126627481}},{"type":"Feature","id":38,"geometry":{"type":"Polygon","coordinates":[[[-75.6386,5.02402],[-75.63857,5.02397],[-75.63854,5.02399],[-75.63848,5.02402],[-75.63851,5.02408],[-75.63852,5.02407],[-75.63852,5.02406],[-75.63856,5.02405],[-75.63856,5.02404],[-75.6386,5.02402]]]},"properties":{"FID":38,"OBJECTID_1":39,"OBJECTID":39,"Amenaza_MM":"Alta","Shape_Leng":38.026335351,"Shape_Le_1":38.026335351,"Shape_Area":78.3084265564}},{"type":"Feature","id":39,"geometry":{"type":"Polygon","coordinates":[[[-75.63854,5.02399],[-75.6385,5.02391],[-75.63847,5.02392],[-75.63844,5.02394],[-75.63845,5.02396],[-75.63846,5.02396],[-75.63849,5.02401],[-75.63852,5.024],[-75.63854,5.02399]]]},"properties":{"FID":39,"OBJECTID_1":40,"OBJECTID":40,"Amenaza_MM":"Alta","Shape_Leng":34.6595653062,"Shape_Le_1":34.6595653062,"Shape_Area":65.3279883218}},{"type":"Feature","id":40,"geometry":{"type":"Polygon","coordinates":[[[-75.63857,5.0241],[-75.63856,5.02407],[-75.63854,5.02408],[-75.63852,5.02408],[-75.63854,5.02412],[-75.63856,5.02411],[-75.63857,5.0241]]]},"properties":{"FID":40,"OBJECTID_1":41,"OBJECTID":41,"Amenaza_MM":"Alta","Shape_Leng":16.2189209384,"Shape_Le_1":16.2189209384,"Shape_Area":16.5360530555}},{"type":"Feature","id":41,"geometry":{"type":"Polygon","coordinates":[[[-75.63882,5.02404],[-75.63877,5.02394],[-75.63867,5.02399],[-75.63869,5.02404],[-75.63871,5.02409],[-75.63876,5.02407],[-75.63882,5.02404]]]},"properties":{"FID":41,"OBJECTID_1":42,"OBJECTID":42,"Amenaza_MM":"Alta","Shape_Leng":48.6211955804,"Shape_Le_1":48.6211955804,"Shape_Area":150.440997227}},{"type":"Feature","id":42,"geometry":{"type":"Polygon","coordinates":[[[-75.63891,5.02422],[-75.63891,5.02413],[-75.63886,5.02413],[-75.63885,5.02413],[-75.63882,5.02413],[-75.63881,5.02421],[-75.63886,5.02421],[-75.63891,5.02422]]]},"properties":{"FID":42,"OBJECTID_1":43,"OBJECTID":43,"Amenaza_MM":"Alta","Shape_Leng":39.7316161728,"Shape_Le_1":39.7316161728,"Shape_Area":97.9308896317}},{"type":"Feature","id":43,"geometry":{"type":"Polygon","coordinates":[[[-75.6381,5.02487],[-75.63801,5.02474],[-75.63787,5.02485],[-75.63791,5.02491],[-75.63798,5.02486],[-75.63798,5.02487],[-75.63792,5.02492],[-75.63796,5.02498],[-75.63806,5.0249],[-75.6381,5.02487]]]},"properties":{"FID":43,"OBJECTID_1":44,"OBJECTID":44,"Amenaza_MM":"Alta","Shape_Leng":91.5903806872,"Shape_Le_1":91.5903806872,"Shape_Area":339.038652319}},{"type":"Feature","id":44,"geometry":{"type":"Polygon","coordinates":[[[-75.63835,5.02523],[-75.63828,5.02513],[-75.63821,5.02518],[-75.63824,5.02523],[-75.63823,5.02525],[-75.63826,5.02529],[-75.63835,5.02523]]]},"properties":{"FID":44,"OBJECTID_1":45,"OBJECTID":45,"Amenaza_MM":"Alta","Shape_Leng":49.9073142437,"Shape_Le_1":49.9073142437,"Shape_Area":141.242625351}},{"type":"Feature","id":45,"geometry":{"type":"Polygon","coordinates":[[[-75.63781,5.02548],[-75.63783,5.0255],[-75.63785,5.02549],[-75.63782,5.02547],[-75.63781,5.02548]]]},"properties":{"FID":45,"OBJECTID_1":46,"OBJECTID":46,"Amenaza_MM":"Alta","Shape_Leng":11.0346393532,"Shape_Le_1":11.0346393532,"Shape_Area":7.17306020907}},{"type":"Feature","id":46,"geometry":{"type":"MultiPolygon","coordinates":[[[[-75.63822,5.02517],[-75.63828,5.02513],[-75.63828,5.02513],[-75.63822,5.02517]]],[[[-75.63821,5.02518],[-75.63824,5.02523],[-75.63824,5.02523],[-75.63821,5.02518],[-75.63821,5.02518]]],[[[-75.6383,5.02528],[-75.63833,5.02526],[-75.63832,5.02525],[-75.63835,5.02523],[-75.63835,5.02523],[-75.63829,5.02527],[-75.63829,5.02527],[-75.6383,5.02528]]]]},"properties":{"FID":46,"OBJECTID_1":47,"OBJECTID":47,"Amenaza_MM":"Alta","Shape_Leng":52.8471515949,"Shape_Le_1":52.8471515949,"Shape_Area":14.6874332823}},{"type":"Feature","id":47,"geometry":{"type":"Polygon","coordinates":[[[-75.63823,5.02525],[-75.63825,5.02529],[-75.63825,5.02529],[-75.63823,5.02525],[-75.63823,5.02525]]]},"properties":{"FID":47,"OBJECTID_1":48,"OBJECTID":48,"Amenaza_MM":"Alta","Shape_Leng":10.9896546535,"Shape_Le_1":10.9896546535,"Shape_Area":1.71713798426}},{"type":"Feature","id":48,"geometry":{"type":"MultiPolygon","coordinates":[[[[-75.63786,5.02484],[-75.63788,5.02487],[-75.63787,5.02485],[-75.638,5.02474],[-75.638,5.02473],[-75.63786,5.02484]]],[[[-75.6381,5.02487],[-75.63807,5.02489],[-75.6381,5.02487],[-75.63804,5.02479],[-75.6381,5.02487]]],[[[-75.63796,5.02498],[-75.63802,5.02493],[-75.63796,5.02498],[-75.63792,5.02492],[-75.63798,5.02487],[-75.63798,5.02486],[-75.63791,5.02491],[-75.63796,5.02498]]]]},"properties":{"FID":48,"OBJECTID_1":49,"OBJECTID":49,"Amenaza_MM":"Alta","Shape_Leng":129.273509369,"Shape_Le_1":129.273509369,"Shape_Area":39.1334360096}},{"type":"Feature","id":49,"geometry":{"type":"Polygon","coordinates":[[[-75.63758,5.02458],[-75.63764,5.02457],[-75.63764,5.02456],[-75.63758,5.02458],[-75.63756,5.02451],[-75.63759,5.0245],[-75.63756,5.02451],[-75.63758,5.02458]]]},"properties":{"FID":49,"OBJECTID_1":50,"OBJECTID":50,"Amenaza_MM":"Alta","Shape_Leng":37.657451882,"Shape_Le_1":37.657451882,"Shape_Area":4.74331280264}},{"type":"Feature","id":50,"geometry":{"type":"MultiPolygon","coordinates":[[[[-75.63847,5.02392],[-75.6385,5.02391],[-75.63849,5.0239],[-75.63847,5.02392]]],[[[-75.63854,5.02399],[-75.63854,5.02399],[-75.63853,5.02396],[-75.63854,5.02399]]],[[[-75.63849,5.02401],[-75.63849,5.02401],[-75.63849,5.02401],[-75.63846,5.02396],[-75.63845,5.02396],[-75.63844,5.02394],[-75.63844,5.02393],[-75.63843,5.02394],[-75.63845,5.02396],[-75.63846,5.02396],[-75.63849,5.02401]]],[[[-75.63852,5.02406],[-75.63852,5.02406],[-75.63853,5.02406],[-75.63852,5.02406]]]]},"properties":{"FID":50,"OBJECTID_1":51,"OBJECTID":51,"Amenaza_MM":"Alta","Shape_Leng":38.2897403361,"Shape_Le_1":38.2897403361,"Shape_Area":3.39517565029}},{"type":"Feature","id":51,"geometry":{"type":"MultiPolygon","coordinates":[[[[-75.63877,5.02394],[-75.63879,5.02397],[-75.63877,5.02394],[-75.63877,5.02394]]],[[[-75.63867,5.02399],[-75.63868,5.02402],[-75.63867,5.02399],[-75.63867,5.02399]]],[[[-75.63871,5.02408],[-75.63872,5.02409],[-75.63875,5.02407],[-75.63871,5.02408]]]]},"properties":{"FID":51,"OBJECTID_1":52,"OBJECTID":52,"Amenaza_MM":"Alta","Shape_Leng":20.2721788204,"Shape_Le_1":20.2721788204,"Shape_Area":0.999752501311}},{"type":"Feature","id":52,"geometry":{"type":"MultiPolygon","coordinates":[[[[-75.63882,5.02417],[-75.63882,5.02413],[-75.63885,5.02413],[-75.63886,5.02413],[-75.63882,5.02413],[-75.63882,5.02417]]],[[[-75.63889,5.02422],[-75.63886,5.02421],[-75.63882,5.02421],[-75.63889,5.02422]]],[[[-75.63891,5.02422],[-75.63891,5.02422],[-75.63891,5.02413],[-75.63891,5.02413],[-75.63891,5.02422]]]]},"properties":{"FID":52,"OBJECTID_1":53,"OBJECTID":53,"Amenaza_MM":"Alta","Shape_Leng":54.00276782,"Shape_Le_1":54.00276782,"Shape_Area":5.03399306074}},{"type":"Feature","id":53,"geometry":{"type":"MultiPolygon","coordinates":[[[[-75.63852,5.02408],[-75.63852,5.02408],[-75.63854,5.02408],[-75.63856,5.02407],[-75.63855,5.02407],[-75.63852,5.02408]]],[[[-75.63854,5.02411],[-75.63854,5.02411],[-75.63853,5.02409],[-75.63854,5.02411]]],[[[-75.63878,5.0241],[-75.63876,5.02411],[-75.63876,5.02413],[-75.63878,5.02415],[-75.6388,5.02415],[-75.63881,5.02414],[-75.63881,5.02411],[-75.6388,5.0241],[-75.63878,5.0241]]]]},"properties":{"FID":53,"OBJECTID_1":54,"OBJECTID":54,"Amenaza_MM":"Alta","Shape_Leng":33.9931126782,"Shape_Le_1":33.9931126782,"Shape_Area":28.7508493552}},{"type":"Feature","id":54,"geometry":{"type":"Polygon","coordinates":[[[-75.63824,5.02373],[-75.63829,5.02371],[-75.63829,5.02371],[-75.63825,5.02373],[-75.63821,5.02364],[-75.63824,5.02373]]]},"properties":{"FID":54,"OBJECTID_1":55,"OBJECTID":55,"Amenaza_MM":"Alta","Shape_Leng":31.6795581042,"Shape_Le_1":31.6795581042,"Shape_Area":6.21947162746}},{"type":"Feature","id":55,"geometry":{"type":"MultiPolygon","coordinates":[[[[-75.63829,5.02318],[-75.63828,5.02313],[-75.63818,5.02314],[-75.63818,5.02315],[-75.63828,5.02313],[-75.63829,5.02318]]],[[[-75.63819,5.02324],[-75.63829,5.02323],[-75.63829,5.02323],[-75.63819,5.02324],[-75.63818,5.02316],[-75.63819,5.02324]]],[[[-75.63823,5.02332],[-75.63823,5.02332],[-75.63824,5.02332],[-75.63823,5.02332]]],[[[-75.63816,5.02327],[-75.63817,5.02333],[-75.63816,5.02327],[-75.63824,5.02325],[-75.63825,5.02332],[-75.63825,5.02331],[-75.63824,5.02325],[-75.63816,5.02327]]],[[[-75.63819,5.02337],[-75.63824,5.02336],[-75.63824,5.02336],[-75.63821,5.02337],[-75.63819,5.02337],[-75.63818,5.02333],[-75.63818,5.02333],[-75.63819,5.02337]]]]},"properties":{"FID":55,"OBJECTID_1":56,"OBJECTID":56,"Amenaza_MM":"Alta","Shape_Leng":145.883771085,"Shape_Le_1":145.883771085,"Shape_Area":17.151759165}},{"type":"Feature","id":56,"geometry":{"type":"Polygon","coordinates":[[[-75.63792,5.02316],[-75.63791,5.02318],[-75.63793,5.02316],[-75.63783,5.02307],[-75.63777,5.02314],[-75.63777,5.02315],[-75.63783,5.02308],[-75.63792,5.02316]]]},"properties":{"FID":56,"OBJECTID_1":57,"OBJECTID":57,"Amenaza_MM":"Alta","Shape_Leng":56.4883384098,"Shape_Le_1":56.4883384098,"Shape_Area":5.99113193795}},{"type":"Feature","id":57,"geometry":{"type":"MultiPolygon","coordinates":[[[[-75.63819,5.02294],[-75.63819,5.02294],[-75.63818,5.02293],[-75.63819,5.02294]]],[[[-75.63806,5.02292],[-75.63812,5.02299],[-75.63812,5.02299],[-75.63806,5.02292],[-75.63813,5.02288],[-75.63813,5.02287],[-75.63806,5.02292]]]]},"properties":{"FID":57,"OBJECTID_1":58,"OBJECTID":58,"Amenaza_MM":"Alta","Shape_Leng":42.367459584,"Shape_Le_1":42.367459584,"Shape_Area":5.24014628414}},{"type":"Feature","id":58,"geometry":{"type":"MultiPolygon","coordinates":[[[[-75.63777,5.02345],[-75.63776,5.02348],[-75.63775,5.02349],[-75.63777,5.02355],[-75.63778,5.02357],[-75.63779,5.02359],[-75.63788,5.02354],[-75.63788,5.02353],[-75.63786,5.02344],[-75.63783,5.02343],[-75.6378,5.02343],[-75.63777,5.02345]]],[[[-75.63775,5.0238],[-75.63786,5.02377],[-75.63781,5.02364],[-75.63779,5.02364],[-75.63777,5.02364],[-75.63777,5.02361],[-75.63769,5.02363],[-75.63775,5.0238]]]]},"properties":{"FID":58,"OBJECTID_1":59,"OBJECTID":59,"Amenaza_MM":"Alta","Shape_Leng":115.011191927,"Shape_Le_1":115.011191927,"Shape_Area":410.91725276}},{"type":"Feature","id":59,"geometry":{"type":"Polygon","coordinates":[[[-75.63777,5.02361],[-75.63777,5.02364],[-75.63779,5.02364],[-75.63781,5.02364],[-75.63781,5.02362],[-75.6378,5.0236],[-75.63778,5.0236],[-75.63777,5.02361]]]},"properties":{"FID":59,"OBJECTID_1":60,"OBJECTID":60,"Amenaza_MM":"Alta","Shape_Leng":16.9693423949,"Shape_Le_1":16.9693423949,"Shape_Area":20.3101337985}},{"type":"Feature","id":60,"geometry":{"type":"MultiPolygon","coordinates":[[[[-75.63765,5.02364],[-75.63766,5.02367],[-75.63765,5.02364],[-75.63765,5.02364]]],[[[-75.63753,5.02368],[-75.63753,5.02368],[-75.63754,5.02368],[-75.63754,5.02368],[-75.63753,5.02368]]],[[[-75.63761,5.02373],[-75.63757,5.02374],[-75.6376,5.02373],[-75.63767,5.02371],[-75.63767,5.0237],[-75.63761,5.02373]]],[[[-75.63755,5.02375],[-75.63755,5.02375],[-75.63755,5.02374],[-75.63755,5.02375]]]]},"properties":{"FID":60,"OBJECTID_1":61,"OBJECTID":61,"Amenaza_MM":"Alta","Shape_Leng":36.1623068063,"Shape_Le_1":36.1623068063,"Shape_Area":2.66767179645}},{"type":"Feature","id":61,"geometry":{"type":"MultiPolygon","coordinates":[[[[-75.6377,5.02362],[-75.63772,5.02362],[-75.63772,5.02362],[-75.6377,5.02362]]],[[[-75.63758,5.0236],[-75.63755,5.02364],[-75.63755,5.02364],[-75.63755,5.02364],[-75.63757,5.02361],[-75.63761,5.02359],[-75.63769,5.02354],[-75.63769,5.02354],[-75.63758,5.0236]]],[[[-75.63753,5.02365],[-75.63754,5.02367],[-75.63753,5.02365],[-75.63753,5.02365],[-75.63753,5.02365]]]]},"properties":{"FID":61,"OBJECTID_1":62,"OBJECTID":62,"Amenaza_MM":"Alta","Shape_Leng":47.8565634691,"Shape_Le_1":47.8565634691,"Shape_Area":5.39543176247}},{"type":"Feature","id":62,"geometry":{"type":"MultiPolygon","coordinates":[[[[-75.63737,5.02375],[-75.63739,5.02373],[-75.6374,5.02371],[-75.63741,5.02369],[-75.63742,5.02369],[-75.63744,5.02367],[-75.63744,5.02366],[-75.63737,5.02375]]],[[[-75.63741,5.02384],[-75.63739,5.02381],[-75.63738,5.02377],[-75.63741,5.02384]]],[[[-75.63741,5.02385],[-75.63741,5.02385],[-75.63742,5.02385],[-75.63741,5.02385]]]]},"properties":{"FID":62,"OBJECTID_1":63,"OBJECTID":63,"Amenaza_MM":"Alta","Shape_Leng":44.2866915524,"Shape_Le_1":44.2866915524,"Shape_Area":6.993725706}},{"type":"Feature","id":63,"geometry":{"type":"MultiPolygon","coordinates":[[[[-75.63793,5.02263],[-75.63793,5.02263],[-75.63791,5.02259],[-75.6379,5.0226],[-75.63791,5.02259],[-75.63793,5.02263]]],[[[-75.63785,5.02263],[-75.63785,5.02263],[-75.63785,5.02263],[-75.63785,5.02263]]],[[[-75.63791,5.02271],[-75.63796,5.02267],[-75.63796,5.02267],[-75.63791,5.0227],[-75.63789,5.02269],[-75.63791,5.02271]]],[[[-75.63762,5.02287],[-75.63762,5.02287],[-75.63766,5.02284],[-75.63766,5.02285],[-75.63768,5.02284],[-75.63769,5.02285],[-75.63768,5.02283],[-75.63762,5.02287]]],[[[-75.63758,5.02289],[-75.63762,5.02296],[-75.63762,5.02296],[-75.6376,5.02292],[-75.63758,5.02289],[-75.63759,5.02288],[-75.63758,5.02289]]]]},"properties":{"FID":63,"OBJECTID_1":64,"OBJECTID":64,"Amenaza_MM":"Alta","Shape_Leng":74.9222822392,"Shape_Le_1":74.9222822392,"Shape_Area":8.80951720033}},{"type":"Feature","id":64,"geometry":{"type":"MultiPolygon","coordinates":[[[[-75.6376,5.02279],[-75.6376,5.02278],[-75.63755,5.02271],[-75.63754,5.02271],[-75.63755,5.02271],[-75.6376,5.02279]]],[[[-75.63749,5.02275],[-75.63754,5.02282],[-75.63754,5.02282],[-75.6375,5.02275],[-75.63749,5.02275]]]]},"properties":{"FID":64,"OBJECTID_1":65,"OBJECTID":65,"Amenaza_MM":"Alta","Shape_Leng":41.8392660049,"Shape_Le_1":41.8392660049,"Shape_Area":2.44785589683}},{"type":"Feature","id":65,"geometry":{"type":"Polygon","coordinates":[[[-75.63754,5.02265],[-75.63758,5.02268],[-75.63758,5.02267],[-75.63754,5.02265],[-75.63757,5.0226],[-75.63761,5.02263],[-75.6376,5.02265],[-75.63762,5.02263],[-75.63757,5.0226],[-75.63754,5.02265]]]},"properties":{"FID":65,"OBJECTID_1":66,"OBJECTID":66,"Amenaza_MM":"Alta","Shape_Leng":41.4733955113,"Shape_Le_1":41.4733955113,"Shape_Area":6.68669418246}},{"type":"Feature","id":66,"geometry":{"type":"MultiPolygon","coordinates":[[[[-75.6372,5.0228],[-75.63722,5.02278],[-75.63722,5.02278],[-75.6372,5.0228]]],[[[-75.63726,5.02283],[-75.63726,5.02282],[-75.63723,5.02279],[-75.63726,5.02283]]],[[[-75.63719,5.0228],[-75.63724,5.02286],[-75.63719,5.0228],[-75.63719,5.0228]]],[[[-75.63737,5.02287],[-75.63737,5.02287],[-75.63737,5.02287],[-75.63731,5.02279],[-75.63727,5.02282],[-75.63731,5.02279],[-75.63737,5.02287]]],[[[-75.63729,5.02293],[-75.63729,5.02293],[-75.63729,5.02293],[-75.63729,5.02293]]]]},"properties":{"FID":66,"OBJECTID_1":67,"OBJECTID":67,"Amenaza_MM":"Alta","Shape_Leng":69.5962692967,"Shape_Le_1":69.5962692967,"Shape_Area":7.58301062461}},{"type":"Feature","id":67,"geometry":{"type":"MultiPolygon","coordinates":[[[[-75.63745,5.02289],[-75.63745,5.02289],[-75.63741,5.02284],[-75.63737,5.02287],[-75.63737,5.02287],[-75.63741,5.02284],[-75.63745,5.02289]]],[[[-75.63739,5.02294],[-75.63744,5.0229],[-75.63739,5.02293],[-75.63736,5.02288],[-75.63736,5.02289],[-75.63739,5.02294]]]]},"properties":{"FID":67,"OBJECTID_1":68,"OBJECTID":68,"Amenaza_MM":"Alta","Shape_Leng":53.1510532964,"Shape_Le_1":53.1510532964,"Shape_Area":5.56199220833}},{"type":"Feature","id":68,"geometry":{"type":"MultiPolygon","coordinates":[[[[-75.63766,5.0233],[-75.63766,5.0233],[-75.63765,5.02325],[-75.63766,5.0233]]],[[[-75.63763,5.0233],[-75.63764,5.0233],[-75.63763,5.0233],[-75.63762,5.02324],[-75.63765,5.02324],[-75.63765,5.02324],[-75.63762,5.02324],[-75.63763,5.0233]]]]},"properties":{"FID":68,"OBJECTID_1":69,"OBJECTID":69,"Amenaza_MM":"Alta","Shape_Leng":33.8353348235,"Shape_Le_1":33.8353348235,"Shape_Area":2.89448322478}},{"type":"Feature","id":69,"geometry":{"type":"MultiPolygon","coordinates":[[[[-75.63746,5.02319],[-75.63747,5.02318],[-75.63755,5.02314],[-75.63755,5.02314],[-75.63746,5.02319]]],[[[-75.6375,5.02326],[-75.6375,5.02327],[-75.6375,5.02326],[-75.6375,5.02326]]],[[[-75.6376,5.02324],[-75.63756,5.02326],[-75.63751,5.02328],[-75.63751,5.02328],[-75.6376,5.02324],[-75.63759,5.0232],[-75.6376,5.02324]]]]},"properties":{"FID":69,"OBJECTID_1":70,"OBJECTID":70,"Amenaza_MM":"Alta","Shape_Leng":57.6482621255,"Shape_Le_1":57.6482621255,"Shape_Area":3.13198177306}},{"type":"Feature","id":70,"geometry":{"type":"Polygon","coordinates":[[[-75.63742,5.02336],[-75.63743,5.02339],[-75.6375,5.02337],[-75.63749,5.02334],[-75.6375,5.02334],[-75.63749,5.0233],[-75.63749,5.0233],[-75.6375,5.02334],[-75.63748,5.02334],[-75.6375,5.02337],[-75.63746,5.02338],[-75.63743,5.02339],[-75.63742,5.02336],[-75.63742,5.02336],[-75.63742,5.02336]]]},"properties":{"FID":70,"OBJECTID_1":71,"OBJECTID":71,"Amenaza_MM":"Alta","Shape_Leng":40.6015922741,"Shape_Le_1":40.6015922741,"Shape_Area":4.75288977458}},{"type":"Feature","id":71,"geometry":{"type":"Polygon","coordinates":[[[-75.63742,5.02336],[-75.6374,5.02337],[-75.63738,5.02333],[-75.6374,5.02332],[-75.6374,5.02332],[-75.63738,5.02333],[-75.6374,5.02337],[-75.63742,5.02336],[-75.63742,5.02336]]]},"properties":{"FID":71,"OBJECTID_1":72,"OBJECTID":72,"Amenaza_MM":"Alta","Shape_Leng":20.6114798608,"Shape_Le_1":20.6114798608,"Shape_Area":2.43023599794}},{"type":"Feature","id":72,"geometry":{"type":"Polygon","coordinates":[[[-75.63736,5.02323],[-75.63737,5.02324],[-75.63736,5.02324],[-75.63737,5.02323],[-75.63736,5.02323]]]},"properties":{"FID":72,"OBJECTID_1":73,"OBJECTID":73,"Amenaza_MM":"Alta","Shape_Leng":4.26161790423,"Shape_Le_1":4.26161790423,"Shape_Area":0.119230760034}},{"type":"Feature","id":73,"geometry":{"type":"MultiPolygon","coordinates":[[[[-75.63753,5.02259],[-75.63754,5.02258],[-75.63754,5.02258],[-75.63753,5.02259]]],[[[-75.63736,5.0226],[-75.63737,5.0226],[-75.63744,5.02249],[-75.63744,5.02249],[-75.63736,5.0226]]],[[[-75.63745,5.02268],[-75.63746,5.02268],[-75.6374,5.02263],[-75.63745,5.02268]]]]},"properties":{"FID":73,"OBJECTID_1":74,"OBJECTID":74,"Amenaza_MM":"Alta","Shape_Leng":49.2644140316,"Shape_Le_1":49.2644140316,"Shape_Area":4.62846420721}},{"type":"Feature","id":74,"geometry":{"type":"MultiPolygon","coordinates":[[[[-75.63706,5.0231],[-75.63706,5.0231],[-75.63708,5.02308],[-75.63706,5.0231]]],[[[-75.63701,5.0231],[-75.63703,5.02312],[-75.63704,5.02312],[-75.63702,5.0231],[-75.63701,5.0231],[-75.637,5.02309],[-75.637,5.02308],[-75.63699,5.02308],[-75.63701,5.0231]]]]},"properties":{"FID":74,"OBJECTID_1":75,"OBJECTID":75,"Amenaza_MM":"Alta","Shape_Leng":21.9191384805,"Shape_Le_1":21.9191384805,"Shape_Area":2.9188527982}},{"type":"Feature","id":75,"geometry":{"type":"Polygon","coordinates":[[[-75.63706,5.02268],[-75.63703,5.02272],[-75.63704,5.02272],[-75.63707,5.02269],[-75.63709,5.02265],[-75.63709,5.02265],[-75.63706,5.02268]]]},"properties":{"FID":75,"OBJECTID_1":76,"OBJECTID":76,"Amenaza_MM":"Alta","Shape_Leng":20.5991806325,"Shape_Le_1":20.5991806325,"Shape_Area":6.2129940834}},{"type":"Feature","id":76,"geometry":{"type":"MultiPolygon","coordinates":[[[[-75.63698,5.02256],[-75.63697,5.02256],[-75.63699,5.02256],[-75.63698,5.02256]]],[[[-75.63692,5.02267],[-75.63705,5.02261],[-75.63705,5.02261],[-75.63693,5.02266],[-75.6369,5.02261],[-75.63689,5.02261],[-75.63692,5.02267]]]]},"properties":{"FID":76,"OBJECTID_1":77,"OBJECTID":77,"Amenaza_MM":"Alta","Shape_Leng":49.486391026,"Shape_Le_1":49.486391026,"Shape_Area":8.49442646744}},{"type":"Feature","id":77,"geometry":{"type":"MultiPolygon","coordinates":[[[[-75.63591,5.02243],[-75.63593,5.02245],[-75.63593,5.02245],[-75.6359,5.02242],[-75.63591,5.02243]]],[[[-75.63583,5.02248],[-75.63587,5.02244],[-75.63589,5.02241],[-75.63589,5.02241],[-75.63583,5.02248]]],[[[-75.63583,5.02249],[-75.63585,5.02251],[-75.63583,5.02248],[-75.63583,5.02249]]],[[[-75.63589,5.02254],[-75.63589,5.02254],[-75.63594,5.02249],[-75.63595,5.02247],[-75.63595,5.02247],[-75.63589,5.02254]]]]},"properties":{"FID":77,"OBJECTID_1":78,"OBJECTID":78,"Amenaza_MM":"Alta","Shape_Leng":59.4323195584,"Shape_Le_1":59.4323195584,"Shape_Area":4.07796862208}},{"type":"Feature","id":78,"geometry":{"type":"Polygon","coordinates":[[[-75.63594,5.02249],[-75.63599,5.02252],[-75.63606,5.02245],[-75.636,5.0224],[-75.63597,5.02243],[-75.63595,5.02245],[-75.63595,5.02247],[-75.63594,5.02249]]]},"properties":{"FID":78,"OBJECTID_1":79,"OBJECTID":79,"Amenaza_MM":"Alta","Shape_Leng":37.1870975637,"Shape_Le_1":37.1870975637,"Shape_Area":86.4533638971}},{"type":"Feature","id":79,"geometry":{"type":"MultiPolygon","coordinates":[[[[-75.63604,5.02236],[-75.63604,5.02236],[-75.63602,5.02235],[-75.63604,5.02236]]],[[[-75.636,5.0224],[-75.63597,5.02243],[-75.63597,5.02243],[-75.636,5.0224],[-75.63601,5.02238],[-75.636,5.0224]]]]},"properties":{"FID":79,"OBJECTID_1":80,"OBJECTID":80,"Amenaza_MM":"Alta","Shape_Leng":17.2209532674,"Shape_Le_1":17.2209532674,"Shape_Area":1.224570989}},{"type":"Feature","id":80,"geometry":{"type":"MultiPolygon","coordinates":[[[[-75.63594,5.02227],[-75.63595,5.02227],[-75.63594,5.02227],[-75.63594,5.02227]]],[[[-75.63601,5.02233],[-75.63601,5.02234],[-75.63602,5.02233],[-75.63601,5.02233],[-75.63601,5.02233]]],[[[-75.63587,5.02235],[-75.63587,5.02235],[-75.63587,5.02235],[-75.63587,5.02235]]],[[[-75.6359,5.02238],[-75.63593,5.0224],[-75.63593,5.0224],[-75.63591,5.02238],[-75.63588,5.02236],[-75.63588,5.02236],[-75.6359,5.02238]]]]},"properties":{"FID":80,"OBJECTID_1":81,"OBJECTID":81,"Amenaza_MM":"Alta","Shape_Leng":19.7461475329,"Shape_Le_1":19.7461475329,"Shape_Area":1.0413694197}},{"type":"Feature","id":81,"geometry":{"type":"Polygon","coordinates":[[[-75.63601,5.02233],[-75.63602,5.02233],[-75.63604,5.0223],[-75.63603,5.02229],[-75.63604,5.0223],[-75.63601,5.02233]]]},"properties":{"FID":81,"OBJECTID_1":82,"OBJECTID":82,"Amenaza_MM":"Alta","Shape_Leng":12.7706652231,"Shape_Le_1":12.7706652231,"Shape_Area":0.890712456265}},{"type":"Feature","id":82,"geometry":{"type":"MultiPolygon","coordinates":[[[[-75.63676,5.0223],[-75.63684,5.02226],[-75.63684,5.02225],[-75.63676,5.0223]]],[[[-75.63688,5.02237],[-75.63682,5.02241],[-75.63688,5.02237],[-75.63687,5.02235],[-75.63688,5.02237]]],[[[-75.63674,5.02231],[-75.6368,5.02242],[-75.6368,5.02242],[-75.63675,5.02231],[-75.63674,5.02231]]]]},"properties":{"FID":82,"OBJECTID_1":83,"OBJECTID":83,"Amenaza_MM":"Alta","Shape_Leng":70.7687709371,"Shape_Le_1":70.7687709371,"Shape_Area":10.6114957001}},{"type":"Feature","id":83,"geometry":{"type":"MultiPolygon","coordinates":[[[[-75.6368,5.0222],[-75.63682,5.02223],[-75.6368,5.02224],[-75.63678,5.02225],[-75.63676,5.02227],[-75.63676,5.02227],[-75.63682,5.02224],[-75.6368,5.0222],[-75.6368,5.0222]]],[[[-75.63672,5.02225],[-75.63674,5.02228],[-75.63674,5.02227],[-75.63672,5.02224],[-75.63672,5.02224],[-75.63672,5.02225]]]]},"properties":{"FID":83,"OBJECTID_1":84,"OBJECTID":84,"Amenaza_MM":"Alta","Shape_Leng":32.5691360396,"Shape_Le_1":32.5691360396,"Shape_Area":3.34914634439}},{"type":"Feature","id":84,"geometry":{"type":"MultiPolygon","coordinates":[[[[-75.6369,5.02208],[-75.63691,5.02207],[-75.6369,5.02207],[-75.6369,5.02208]]],[[[-75.63692,5.0221],[-75.63692,5.0221],[-75.63692,5.0221],[-75.63692,5.0221]]],[[[-75.63689,5.02212],[-75.63692,5.02211],[-75.63689,5.02212],[-75.63688,5.02211],[-75.63689,5.02212]]]]},"properties":{"FID":84,"OBJECTID_1":85,"OBJECTID":85,"Amenaza_MM":"Alta","Shape_Leng":12.3059524969,"Shape_Le_1":12.3059524969,"Shape_Area":0.518838013919}},{"type":"Feature","id":85,"geometry":{"type":"MultiPolygon","coordinates":[[[[-75.6364,5.02152],[-75.6364,5.02153],[-75.63641,5.02152],[-75.6364,5.02152],[-75.6364,5.02152]]],[[[-75.63632,5.02149],[-75.63627,5.02154],[-75.63627,5.02154],[-75.63633,5.02149],[-75.63637,5.02146],[-75.63641,5.02151],[-75.63641,5.02151],[-75.63641,5.02151],[-75.63637,5.02146],[-75.63632,5.02149]]],[[[-75.63637,5.02159],[-75.63637,5.02159],[-75.63637,5.02159],[-75.63637,5.02159]]],[[[-75.63635,5.0216],[-75.63634,5.02158],[-75.63632,5.02159],[-75.63632,5.02159],[-75.63633,5.02158],[-75.63635,5.0216]]]]},"properties":{"FID":85,"OBJECTID_1":86,"OBJECTID":86,"Amenaza_MM":"Alta","Shape_Leng":58.0635043073,"Shape_Le_1":58.0635043073,"Shape_Area":6.25845790875}},{"type":"Feature","id":86,"geometry":{"type":"MultiPolygon","coordinates":[[[[-75.63628,5.02129],[-75.63628,5.02129],[-75.63627,5.02128],[-75.63628,5.02129]]],[[[-75.63617,5.02129],[-75.63615,5.02129],[-75.63618,5.02129],[-75.63617,5.02129]]],[[[-75.63612,5.0213],[-75.63613,5.02131],[-75.63613,5.0213],[-75.63612,5.0213]]],[[[-75.63624,5.0213],[-75.63624,5.02132],[-75.63624,5.02132],[-75.63627,5.0213],[-75.63624,5.0213]]],[[[-75.63619,5.02134],[-75.63616,5.02136],[-75.63616,5.02136],[-75.63623,5.02132],[-75.63619,5.02134]]]]},"properties":{"FID":86,"OBJECTID_1":87,"OBJECTID":87,"Amenaza_MM":"Alta","Shape_Leng":37.5713059634,"Shape_Le_1":37.5713059634,"Shape_Area":5.65358919525}},{"type":"Feature","id":87,"geometry":{"type":"MultiPolygon","coordinates":[[[[-75.63591,5.02116],[-75.63591,5.02118],[-75.63591,5.02116],[-75.63591,5.02116]]],[[[-75.63604,5.0213],[-75.63604,5.0213],[-75.63599,5.02114],[-75.63591,5.02116],[-75.63595,5.02116],[-75.63599,5.02114],[-75.63604,5.0213]]]]},"properties":{"FID":87,"OBJECTID_1":88,"OBJECTID":88,"Amenaza_MM":"Alta","Shape_Leng":58.9636887148,"Shape_Le_1":58.9636887148,"Shape_Area":8.12318784222}},{"type":"Feature","id":88,"geometry":{"type":"Polygon","coordinates":[[[-75.6359,5.02108],[-75.63591,5.02111],[-75.63593,5.0211],[-75.63592,5.02107],[-75.63592,5.02107],[-75.6359,5.02108]]]},"properties":{"FID":88,"OBJECTID_1":89,"OBJECTID":89,"Amenaza_MM":"Alta","Shape_Leng":11.7533071292,"Shape_Le_1":11.7533071292,"Shape_Area":8.45520793679}},{"type":"Feature","id":89,"geometry":{"type":"Polygon","coordinates":[[[-75.6358,5.02077],[-75.6358,5.02084],[-75.6358,5.02084],[-75.6358,5.02077],[-75.6358,5.02077]]]},"properties":{"FID":89,"OBJECTID_1":90,"OBJECTID":90,"Amenaza_MM":"Alta","Shape_Leng":16.7274100922,"Shape_Le_1":16.7274100922,"Shape_Area":1.50033053297}},{"type":"Feature","id":90,"geometry":{"type":"MultiPolygon","coordinates":[[[[-75.63596,5.02023],[-75.63598,5.02023],[-75.63596,5.02023],[-75.63596,5.02023]]],[[[-75.63602,5.0203],[-75.63603,5.02023],[-75.63603,5.02023],[-75.63602,5.0203],[-75.63595,5.02029],[-75.63596,5.02024],[-75.63595,5.02029],[-75.63602,5.0203]]]]},"properties":{"FID":90,"OBJECTID_1":91,"OBJECTID":91,"Amenaza_MM":"Alta","Shape_Leng":49.4149025692,"Shape_Le_1":49.4149025692,"Shape_Area":4.09666540268}},{"type":"Feature","id":91,"geometry":{"type":"Polygon","coordinates":[[[-75.63579,5.01986],[-75.6358,5.01989],[-75.63581,5.01988],[-75.63581,5.01986],[-75.63579,5.01986]]]},"properties":{"FID":91,"OBJECTID_1":92,"OBJECTID":92,"Amenaza_MM":"Alta","Shape_Leng":9.09216762699,"Shape_Le_1":9.09216762699,"Shape_Area":4.96189882056}},{"type":"Feature","id":92,"geometry":{"type":"Polygon","coordinates":[[[-75.6359,5.02113],[-75.63595,5.02111],[-75.63593,5.02104],[-75.63587,5.02106],[-75.63588,5.02109],[-75.63587,5.02109],[-75.63588,5.0211],[-75.63589,5.0211],[-75.6359,5.02113]],[[-75.63593,5.0211],[-75.63591,5.02111],[-75.6359,5.02108],[-75.63592,5.02107],[-75.63593,5.0211]]]},"properties":{"FID":92,"OBJECTID_1":93,"OBJECTID":93,"Amenaza_MM":"Alta","Shape_Leng":42.2681382452,"Shape_Le_1":42.2681382452,"Shape_Area":41.368500578}},{"type":"Feature","id":93,"geometry":{"type":"Polygon","coordinates":[[[-75.63716,5.02136],[-75.63718,5.02143],[-75.63724,5.02141],[-75.63722,5.02135],[-75.63716,5.02136]]]},"properties":{"FID":93,"OBJECTID_1":94,"OBJECTID":94,"Amenaza_MM":"Alta","Shape_Leng":28.7456621316,"Shape_Le_1":28.7456621316,"Shape_Area":51.3318942968}},{"type":"Feature","id":94,"geometry":{"type":"Polygon","coordinates":[[[-75.63848,5.02385],[-75.6387,5.0238],[-75.63868,5.02368],[-75.63857,5.02369],[-75.63854,5.02363],[-75.63857,5.02358],[-75.63852,5.02353],[-75.63849,5.02356],[-75.6385,5.02357],[-75.63852,5.02354],[-75.63857,5.02358],[-75.63853,5.02362],[-75.63851,5.02364],[-75.63846,5.02361],[-75.63848,5.02357],[-75.63846,5.02359],[-75.63845,5.02355],[-75.6384,5.02356],[-75.63848,5.02385]]]},"properties":{"FID":94,"OBJECTID_1":95,"OBJECTID":95,"Amenaza_MM":"Alta","Shape_Leng":157.305903273,"Shape_Le_1":157.305903273,"Shape_Area":571.112234976}},{"type":"Feature","id":95,"geometry":{"type":"Polygon","coordinates":[[[-75.63857,5.0236],[-75.63861,5.02363],[-75.63864,5.02361],[-75.6386,5.02356],[-75.63857,5.0236]]]},"properties":{"FID":95,"OBJECTID_1":96,"OBJECTID":96,"Amenaza_MM":"Alta","Shape_Leng":22.4501175149,"Shape_Le_1":22.4501175149,"Shape_Area":30.4543689264}},{"type":"Feature","id":96,"geometry":{"type":"Polygon","coordinates":[[[-75.63784,5.02365],[-75.63787,5.02374],[-75.63792,5.02372],[-75.63789,5.02363],[-75.63784,5.02365]]]},"properties":{"FID":96,"OBJECTID_1":97,"OBJECTID":97,"Amenaza_MM":"Alta","Shape_Leng":31.6259183182,"Shape_Le_1":31.6259183182,"Shape_Area":56.8542778627}},{"type":"Feature","id":97,"geometry":{"type":"Polygon","coordinates":[[[-75.63737,5.02595],[-75.63743,5.02596],[-75.63742,5.02604],[-75.63745,5.02605],[-75.63747,5.02596],[-75.63746,5.02595],[-75.63744,5.02593],[-75.63744,5.02593],[-75.63737,5.02591],[-75.63737,5.02595]]]},"properties":{"FID":97,"OBJECTID_1":98,"OBJECTID":98,"Amenaza_MM":"Alta","Shape_Leng":46.3191478566,"Shape_Le_1":46.3191478566,"Shape_Area":70.107984379}}]}