{"type":"FeatureCollection","name":"ACR_MM_ElReposo","crs":{"type":"name","properties":{"name":"urn:ogc:def:crs:OGC:1.3:CRS84"}},"features":[{"type":"Feature","id":0,"geometry":{"type":"Polygon","coordinates":[[[-75.64767,5.04346],[-75.64765,5.04333],[-75.64756,5.04335],[-75.64758,5.04348],[-75.64767,5.04346]]]},"properties":{"FID":0,"OBJECTID":1,"Piso":2,"Uso":"R","Estado":"R","Act_1":0,"Act_2":0,"Act_3":0,"Nombre":"Edificacion","Area_M2":158.701174273,"Amenaza_MM":"Alta","Shape_Leng":50.9800269094,"Shape_Area":158.700765669}},{"type":"Feature","id":1,"geometry":{"type":"Polygon","coordinates":[[[-75.64744,5.0434],[-75.64741,5.0434],[-75.64737,5.0434],[-75.64737,5.0434],[-75.64735,5.04339],[-75.64733,5.04346],[-75.64736,5.04346],[-75.64744,5.04345],[-75.64744,5.0434]]]},"properties":{"FID":1,"OBJECTID":2,"Piso":1,"Uso":"R","Estado":"R","Act_1":0,"Act_2":0,"Act_3":0,"Nombre":"Edificacion","Area_M2":69.0918912831,"Amenaza_MM":"Alta","Shape_Leng":34.6436382587,"Shape_Area":69.091942545}},{"type":"Feature","id":2,"geometry":{"type":"Polygon","coordinates":[[[-75.64744,5.04345],[-75.64744,5.04345],[-75.64741,5.04345],[-75.64739,5.04346],[-75.64736,5.04346],[-75.64733,5.04346],[-75.64733,5.04348],[-75.64733,5.04348],[-75.64733,5.0435],[-75.64736,5.0435],[-75.64739,5.04351],[-75.6474,5.04351],[-75.64745,5.04351],[-75.64745,5.04351],[-75.64746,5.04351],[-75.64747,5.04351],[-75.64747,5.04351],[-75.64747,5.04345],[-75.64744,5.04345]]]},"properties":{"FID":2,"OBJECTID":3,"Piso":1,"Uso":"R","Estado":"R","Act_1":0,"Act_2":0,"Act_3":0,"Nombre":"Edificacion","Area_M2":92.1796034023,"Amenaza_MM":"Alta","Shape_Leng":43.5262346867,"Shape_Area":92.1797819598}},{"type":"Feature","id":3,"geometry":{"type":"Polygon","coordinates":[[[-75.64733,5.0435],[-75.64732,5.0435],[-75.64731,5.04355],[-75.64738,5.04356],[-75.64738,5.04356],[-75.6474,5.04355],[-75.6474,5.04351],[-75.64739,5.04351],[-75.64736,5.0435],[-75.64734,5.0435],[-75.64733,5.0435]]]},"properties":{"FID":3,"OBJECTID":4,"Piso":1,"Uso":"R","Estado":"R","Act_1":0,"Act_2":0,"Act_3":0,"Nombre":"Edificacion","Area_M2":56.3487971491,"Amenaza_MM":"Alta","Shape_Leng":30.3724346782,"Shape_Area":56.3490116881}},{"type":"Feature","id":4,"geometry":{"type":"Polygon","coordinates":[[[-75.64731,5.04355],[-75.64729,5.04362],[-75.64735,5.04362],[-75.64739,5.04362],[-75.6474,5.04359],[-75.64739,5.04359],[-75.6474,5.04355],[-75.64739,5.04356],[-75.64738,5.04356],[-75.64738,5.04356],[-75.64736,5.04356],[-75.64733,5.04356],[-75.64731,5.04355]]]},"properties":{"FID":4,"OBJECTID":5,"Piso":1,"Uso":"R","Estado":"R","Act_1":0,"Act_2":0,"Act_3":0,"Nombre":"Edificacion","Area_M2":75.3337220023,"Amenaza_MM":"Alta","Shape_Leng":36.9923265428,"Shape_Area":75.3339833931}},{"type":"Feature","id":5,"geometry":{"type":"Polygon","coordinates":[[[-75.6475,5.04363],[-75.64751,5.0436],[-75.6475,5.04359],[-75.6475,5.04356],[-75.64747,5.04356],[-75.64741,5.04355],[-75.6474,5.04359],[-75.6474,5.04359],[-75.6474,5.04363],[-75.64747,5.04363],[-75.64748,5.04363],[-75.6475,5.04363]]]},"properties":{"FID":5,"OBJECTID":6,"Piso":1,"Uso":"R","Estado":"R","Act_1":0,"Act_2":0,"Act_3":0,"Nombre":"Edificacion","Area_M2":93.052591453,"Amenaza_MM":"Alta","Shape_Leng":39.6221225053,"Shape_Area":93.0523464676}},{"type":"Feature","id":6,"geometry":{"type":"Polygon","coordinates":[[[-75.64751,5.04367],[-75.64747,5.04367],[-75.64747,5.04367],[-75.64747,5.04366],[-75.64745,5.04366],[-75.64741,5.04365],[-75.6474,5.04366],[-75.64739,5.04373],[-75.64743,5.04373],[-75.64746,5.04373],[-75.64747,5.04373],[-75.64751,5.04373],[-75.64751,5.04369],[-75.64751,5.04367]]]},"properties":{"FID":6,"OBJECTID":7,"Piso":1,"Uso":"R","Estado":"R","Act_1":0,"Act_2":0,"Act_3":0,"Nombre":"Edificacion","Area_M2":99.0061344086,"Amenaza_MM":"Alta","Shape_Leng":41.753122195,"Shape_Area":99.0067772951}},{"type":"Feature","id":7,"geometry":{"type":"Polygon","coordinates":[[[-75.6475,5.04373],[-75.64748,5.04373],[-75.64747,5.04373],[-75.64746,5.04373],[-75.64746,5.04374],[-75.64746,5.04379],[-75.64748,5.04378],[-75.6475,5.04378],[-75.6475,5.04373]]]},"properties":{"FID":7,"OBJECTID":8,"Piso":1,"Uso":"R","Estado":"R","Act_1":0,"Act_2":0,"Act_3":0,"Nombre":"Edificacion","Area_M2":27.8296367482,"Amenaza_MM":"Alta","Shape_Leng":20.5300488419,"Shape_Area":27.8296877134}},{"type":"Feature","id":8,"geometry":{"type":"Polygon","coordinates":[[[-75.64732,5.0439],[-75.64735,5.0439],[-75.64738,5.0439],[-75.6474,5.0439],[-75.6474,5.04386],[-75.64741,5.04386],[-75.64742,5.04382],[-75.64733,5.04382],[-75.64733,5.04382],[-75.64733,5.04382],[-75.64732,5.0439]]]},"properties":{"FID":8,"OBJECTID":9,"Piso":1,"Uso":"R","Estado":"R","Act_1":0,"Act_2":0,"Act_3":0,"Nombre":"Edificacion","Area_M2":86.6212669861,"Amenaza_MM":"Alta","Shape_Leng":38.1102536997,"Shape_Area":86.6215363196}},{"type":"Feature","id":9,"geometry":{"type":"Polygon","coordinates":[[[-75.64756,5.04392],[-75.64756,5.04388],[-75.64753,5.04388],[-75.64753,5.04388],[-75.64754,5.04385],[-75.64754,5.04379],[-75.64752,5.04379],[-75.64749,5.04379],[-75.64746,5.04379],[-75.64742,5.04378],[-75.64742,5.04382],[-75.64741,5.04386],[-75.64741,5.04391],[-75.64744,5.04391],[-75.6475,5.04391],[-75.64756,5.04392]]]},"properties":{"FID":9,"OBJECTID":10,"Piso":1,"Uso":"R","Estado":"R","Act_1":0,"Act_2":0,"Act_3":0,"Nombre":"Edificacion","Area_M2":195.25644942,"Amenaza_MM":"Alta","Shape_Leng":60.9334038632,"Shape_Area":195.256340581}},{"type":"Feature","id":10,"geometry":{"type":"Polygon","coordinates":[[[-75.64756,5.04402],[-75.64756,5.04399],[-75.64756,5.04399],[-75.64757,5.04398],[-75.64757,5.04396],[-75.64756,5.04395],[-75.64757,5.04394],[-75.6475,5.04393],[-75.6475,5.04394],[-75.64749,5.04394],[-75.64748,5.04394],[-75.64747,5.04397],[-75.64749,5.04397],[-75.64749,5.04401],[-75.6475,5.04402],[-75.64756,5.04402]]]},"properties":{"FID":10,"OBJECTID":11,"Piso":1,"Uso":"R","Estado":"R","Act_1":0,"Act_2":0,"Act_3":0,"Nombre":"Edificacion","Area_M2":79.5400152565,"Amenaza_MM":"Alta","Shape_Leng":38.0581065795,"Shape_Area":79.5401688652}},{"type":"Feature","id":11,"geometry":{"type":"Polygon","coordinates":[[[-75.64765,5.04407],[-75.64767,5.04407],[-75.64767,5.04404],[-75.64766,5.04404],[-75.64766,5.04402],[-75.64765,5.04402],[-75.64765,5.04401],[-75.64764,5.04401],[-75.64764,5.044],[-75.64764,5.044],[-75.64764,5.04399],[-75.64763,5.04399],[-75.64763,5.04398],[-75.64762,5.04398],[-75.64762,5.04398],[-75.64762,5.04397],[-75.64761,5.04397],[-75.64761,5.04395],[-75.64759,5.04395],[-75.64757,5.04395],[-75.64757,5.04396],[-75.64757,5.04397],[-75.64756,5.04399],[-75.64757,5.04399],[-75.64757,5.04401],[-75.64756,5.04402],[-75.64756,5.04402],[-75.64755,5.04402],[-75.64755,5.04404],[-75.64755,5.04406],[-75.64757,5.04406],[-75.64757,5.04407],[-75.64758,5.04406],[-75.64762,5.04407],[-75.64764,5.04407],[-75.64765,5.04407]]]},"properties":{"FID":11,"OBJECTID":12,"Piso":1,"Uso":"R","Estado":"R","Act_1":0,"Act_2":0,"Act_3":0,"Nombre":"Edificacion","Area_M2":117.456759996,"Amenaza_MM":"Alta","Shape_Leng":52.1885699162,"Shape_Area":117.456620987}},{"type":"Feature","id":12,"geometry":{"type":"Polygon","coordinates":[[[-75.64743,5.04417],[-75.64743,5.04415],[-75.64745,5.04415],[-75.64745,5.0441],[-75.64743,5.0441],[-75.6474,5.0441],[-75.64736,5.0441],[-75.64736,5.04416],[-75.64738,5.04417],[-75.64739,5.04417],[-75.64743,5.04417]]]},"properties":{"FID":12,"OBJECTID":13,"Piso":1,"Uso":"R","Estado":"R","Act_1":0,"Act_2":0,"Act_3":0,"Nombre":"Edificacion","Area_M2":74.0736388497,"Amenaza_MM":"Alta","Shape_Leng":35.2745406739,"Shape_Area":74.0739466865}}]}