{"type":"FeatureCollection","name":"Rural_ACR_AVT_Media_Tension","crs":{"type":"name","properties":{"name":"urn:ogc:def:crs:OGC:1.3:CRS84"}},"features":[{"type":"Feature","id":0,"geometry":{"type":"LineString","coordinates":[[-75.71137,5.06544],[-75.71122,5.06563]]},"properties":{"FID":0,"OBJECTID_1":1,"LENGTH":1090.5,"POBLACION":"R","Amenaza_po":"Alta","Shape_Leng":26.458819543}},{"type":"Feature","id":1,"geometry":{"type":"LineString","coordinates":[[-75.61629,5.0007],[-75.61661,5.00059]]},"properties":{"FID":1,"OBJECTID_1":2,"LENGTH":40.3,"POBLACION":"R","Amenaza_po":"Alta","Shape_Leng":36.8415657571}},{"type":"Feature","id":2,"geometry":{"type":"MultiLineString","coordinates":[[[-75.69215,5.07053],[-75.69235,5.07021]],[[-75.69238,5.07016],[-75.69242,5.0701]]]},"properties":{"FID":2,"OBJECTID_1":3,"LENGTH":137,"POBLACION":"R","Amenaza_po":"Alta","Shape_Leng":48.5690502271}},{"type":"Feature","id":3,"geometry":{"type":"LineString","coordinates":[[-75.70998,5.06318],[-75.71005,5.06241]]},"properties":{"FID":3,"OBJECTID_1":4,"LENGTH":550.6,"POBLACION":"R","Amenaza_po":"Alta","Shape_Leng":84.9514038056}},{"type":"Feature","id":4,"geometry":{"type":"MultiLineString","coordinates":[[[-75.69194,5.07113],[-75.69199,5.07112]],[[-75.69205,5.07111],[-75.6925,5.07104]]]},"properties":{"FID":4,"OBJECTID_1":5,"LENGTH":224.3,"POBLACION":"R","Amenaza_po":"Alta","Shape_Leng":57.2467782773}},{"type":"Feature","id":5,"geometry":{"type":"LineString","coordinates":[[-75.7087,5.06329],[-75.7095,5.06342]]},"properties":{"FID":5,"OBJECTID_1":6,"LENGTH":496.2,"POBLACION":"R","Amenaza_po":"Alta","Shape_Leng":89.7520560967}},{"type":"Feature","id":6,"geometry":{"type":"LineString","coordinates":[[-75.61283,5.00258],[-75.61322,5.00279]]},"properties":{"FID":6,"OBJECTID_1":7,"LENGTH":199.9,"POBLACION":"R","Amenaza_po":"Alta","Shape_Leng":49.2991643589}},{"type":"Feature","id":7,"geometry":{"type":"LineString","coordinates":[[-75.61067,5.01399],[-75.61047,5.01416]]},"properties":{"FID":7,"OBJECTID_1":8,"LENGTH":316.3,"POBLACION":"R","Amenaza_po":"Alta","Shape_Leng":28.5371421989}},{"type":"Feature","id":8,"geometry":{"type":"LineString","coordinates":[[-75.65359,5.03466],[-75.65368,5.03444]]},"properties":{"FID":8,"OBJECTID_1":9,"LENGTH":398.5,"POBLACION":"R","Amenaza_po":"Alta","Shape_Leng":26.8619805345}},{"type":"Feature","id":9,"geometry":{"type":"LineString","coordinates":[[-75.6909,5.06652],[-75.69113,5.06642]]},"properties":{"FID":9,"OBJECTID_1":10,"LENGTH":306,"POBLACION":"R","Amenaza_po":"Alta","Shape_Leng":27.3539957224}},{"type":"Feature","id":10,"geometry":{"type":"LineString","coordinates":[[-75.70941,5.07738],[-75.70929,5.0776]]},"properties":{"FID":10,"OBJECTID_1":11,"LENGTH":475.4,"POBLACION":"R","Amenaza_po":"Alta","Shape_Leng":28.0105956095}}]}