{"type":"FeatureCollection","name":"ACR_IND_Arauca","crs":{"type":"name","properties":{"name":"urn:ogc:def:crs:OGC:1.3:CRS84"}},"features":[{"type":"Feature","id":0,"geometry":{"type":"Polygon","coordinates":[[[-75.70132,5.10407],[-75.70131,5.10408],[-75.70131,5.10408],[-75.7013,5.10408],[-75.70131,5.10409],[-75.70132,5.10409],[-75.70134,5.10413],[-75.70134,5.10413],[-75.70134,5.10413],[-75.70136,5.10412],[-75.70139,5.1041],[-75.70135,5.10404],[-75.70132,5.10407]]]},"properties":{"FID":0,"OBJECTID":1,"Area_M2":48.5860066607,"Amenaza_IN":"Alta","Shape_Leng":27.9261442577,"Shape_Area":48.5860851109}},{"type":"Feature","id":1,"geometry":{"type":"Polygon","coordinates":[[[-75.70138,5.10413],[-75.70139,5.10414],[-75.70143,5.10421],[-75.70145,5.10423],[-75.70149,5.1042],[-75.70142,5.1041],[-75.70138,5.10413]]]},"properties":{"FID":1,"OBJECTID":2,"Area_M2":75.0071504813,"Amenaza_IN":"Alta","Shape_Leng":38.0828335195,"Shape_Area":75.0071795562}},{"type":"Feature","id":2,"geometry":{"type":"Polygon","coordinates":[[[-75.70151,5.10412],[-75.70149,5.10413],[-75.7015,5.10416],[-75.70151,5.10417],[-75.70152,5.10419],[-75.70154,5.10417],[-75.70155,5.10417],[-75.70157,5.10416],[-75.70153,5.1041],[-75.70151,5.10412]]]},"properties":{"FID":2,"OBJECTID":3,"Area_M2":41.6877513963,"Amenaza_IN":"Alta","Shape_Leng":26.2505249273,"Shape_Area":41.6879174862}},{"type":"Feature","id":3,"geometry":{"type":"Polygon","coordinates":[[[-75.70178,5.10467],[-75.7018,5.10471],[-75.70184,5.10474],[-75.70184,5.10474],[-75.70184,5.10474],[-75.70188,5.10478],[-75.70188,5.10478],[-75.70188,5.10478],[-75.70188,5.10477],[-75.70189,5.10477],[-75.70192,5.10474],[-75.70192,5.10473],[-75.70193,5.10472],[-75.70187,5.10465],[-75.70186,5.10465],[-75.70185,5.10466],[-75.70181,5.10463],[-75.70178,5.10467]]]},"properties":{"FID":3,"OBJECTID":4,"Area_M2":133.779879435,"Amenaza_IN":"Alta","Shape_Leng":50.4861172424,"Shape_Area":133.780479169}},{"type":"Feature","id":4,"geometry":{"type":"Polygon","coordinates":[[[-75.70207,5.10476],[-75.702,5.10467],[-75.70197,5.10471],[-75.70198,5.10474],[-75.70198,5.10475],[-75.70202,5.1048],[-75.70206,5.10477],[-75.70207,5.10476],[-75.70207,5.10476]]]},"properties":{"FID":4,"OBJECTID":5,"Area_M2":76.0208173483,"Amenaza_IN":"Alta","Shape_Leng":36.8092762315,"Shape_Area":76.0209223686}},{"type":"Feature","id":5,"geometry":{"type":"Polygon","coordinates":[[[-75.70191,5.10465],[-75.70193,5.10467],[-75.70196,5.1047],[-75.70196,5.10469],[-75.70198,5.10467],[-75.70193,5.10462],[-75.70191,5.10465]]]},"properties":{"FID":5,"OBJECTID":6,"Area_M2":30.7397288153,"Amenaza_IN":"Alta","Shape_Leng":23.1901803308,"Shape_Area":30.7405469001}},{"type":"Feature","id":6,"geometry":{"type":"Polygon","coordinates":[[[-75.70211,5.10481],[-75.70208,5.10476],[-75.70207,5.10476],[-75.70206,5.10477],[-75.70202,5.1048],[-75.70203,5.10482],[-75.70204,5.10483],[-75.70206,5.10482],[-75.70207,5.10483],[-75.70211,5.10481]]]},"properties":{"FID":6,"OBJECTID":7,"Area_M2":49.3346186019,"Amenaza_IN":"Alta","Shape_Leng":28.7786592151,"Shape_Area":49.3344839354}},{"type":"Feature","id":7,"geometry":{"type":"Polygon","coordinates":[[[-75.70198,5.10485],[-75.70197,5.10485],[-75.70196,5.10486],[-75.70199,5.10492],[-75.702,5.10492],[-75.70202,5.10491],[-75.70201,5.1049],[-75.70202,5.1049],[-75.70201,5.10488],[-75.70199,5.10484],[-75.70198,5.10485]]]},"properties":{"FID":7,"OBJECTID":8,"Area_M2":29.3331609911,"Amenaza_IN":"Alta","Shape_Leng":23.3483404256,"Shape_Area":29.3332537857}},{"type":"Feature","id":8,"geometry":{"type":"Polygon","coordinates":[[[-75.70208,5.10487],[-75.70205,5.10488],[-75.70208,5.10491],[-75.7021,5.1049],[-75.70211,5.1049],[-75.70209,5.10486],[-75.70208,5.10487]]]},"properties":{"FID":8,"OBJECTID":9,"Area_M2":20.5086410772,"Amenaza_IN":"Alta","Shape_Leng":18.2316431293,"Shape_Area":20.5087529878}},{"type":"Feature","id":9,"geometry":{"type":"Polygon","coordinates":[[[-75.70208,5.10496],[-75.70208,5.10496],[-75.70205,5.10497],[-75.70209,5.10503],[-75.70211,5.10502],[-75.70212,5.10502],[-75.70214,5.105],[-75.7021,5.10494],[-75.70208,5.10496]]]},"properties":{"FID":9,"OBJECTID":10,"Area_M2":46.6362029817,"Amenaza_IN":"Alta","Shape_Leng":27.5654357662,"Shape_Area":46.636034248}},{"type":"Feature","id":10,"geometry":{"type":"Polygon","coordinates":[[[-75.70241,5.10535],[-75.70244,5.10531],[-75.70236,5.10523],[-75.70233,5.10526],[-75.70232,5.10527],[-75.7023,5.10529],[-75.70234,5.10533],[-75.70235,5.10534],[-75.70237,5.10532],[-75.70241,5.10535]]]},"properties":{"FID":10,"OBJECTID":11,"Area_M2":95.6718143434,"Amenaza_IN":"Alta","Shape_Leng":41.9963199068,"Shape_Area":95.6728188424}},{"type":"Feature","id":11,"geometry":{"type":"Polygon","coordinates":[[[-75.70251,5.10549],[-75.70251,5.10549],[-75.7025,5.10549],[-75.70253,5.10551],[-75.70253,5.10551],[-75.70254,5.1055],[-75.70253,5.10548],[-75.70256,5.10545],[-75.70247,5.10535],[-75.70243,5.10538],[-75.70242,5.10537],[-75.70238,5.10541],[-75.70239,5.10542],[-75.7024,5.10541],[-75.70243,5.10544],[-75.70244,5.10544],[-75.70246,5.10543],[-75.70246,5.10543],[-75.70251,5.10549]]]},"properties":{"FID":11,"OBJECTID":12,"Area_M2":145.21198395,"Amenaza_IN":"Alta","Shape_Leng":65.9459845748,"Shape_Area":145.212475052}},{"type":"Feature","id":12,"geometry":{"type":"Polygon","coordinates":[[[-75.70261,5.10572],[-75.7026,5.10572],[-75.7026,5.10572],[-75.7026,5.10572],[-75.7026,5.10572],[-75.7026,5.10573],[-75.70258,5.10574],[-75.7026,5.10577],[-75.70262,5.1058],[-75.70263,5.10579],[-75.70265,5.10578],[-75.70266,5.10577],[-75.70266,5.10576],[-75.7027,5.10574],[-75.7027,5.10574],[-75.70271,5.10573],[-75.70268,5.10571],[-75.70265,5.10566],[-75.70262,5.10568],[-75.70261,5.10569],[-75.7026,5.10568],[-75.70259,5.10566],[-75.70256,5.10568],[-75.70256,5.10568],[-75.70256,5.10568],[-75.70257,5.10571],[-75.70258,5.10572],[-75.70258,5.10572],[-75.70259,5.10571],[-75.70259,5.10571],[-75.7026,5.10571],[-75.70261,5.10572]]]},"properties":{"FID":12,"OBJECTID":13,"Area_M2":125.138859157,"Amenaza_IN":"Alta","Shape_Leng":57.3088927726,"Shape_Area":125.139282951}},{"type":"Feature","id":13,"geometry":{"type":"Polygon","coordinates":[[[-75.70273,5.10583],[-75.70274,5.10582],[-75.70274,5.10582],[-75.70274,5.10582],[-75.70277,5.10579],[-75.70278,5.10578],[-75.70272,5.10572],[-75.7027,5.10574],[-75.7027,5.10574],[-75.70266,5.10576],[-75.70266,5.10577],[-75.70265,5.10578],[-75.70263,5.10579],[-75.70266,5.10582],[-75.70267,5.10581],[-75.70268,5.10582],[-75.7027,5.10581],[-75.70273,5.10583]]]},"properties":{"FID":13,"OBJECTID":14,"Area_M2":100.687923564,"Amenaza_IN":"Alta","Shape_Leng":44.0805715182,"Shape_Area":100.688012765}},{"type":"Feature","id":14,"geometry":{"type":"Polygon","coordinates":[[[-75.70303,5.10602],[-75.70301,5.10602],[-75.70301,5.10602],[-75.70299,5.10603],[-75.70302,5.10608],[-75.70303,5.10609],[-75.70306,5.10607],[-75.70306,5.10607],[-75.70307,5.10607],[-75.70309,5.10606],[-75.70306,5.106],[-75.70303,5.10602]]]},"properties":{"FID":14,"OBJECTID":15,"Area_M2":54.8048671159,"Amenaza_IN":"Alta","Shape_Leng":29.6806835875,"Shape_Area":54.8045927015}},{"type":"Feature","id":15,"geometry":{"type":"Polygon","coordinates":[[[-75.70307,5.10618],[-75.7031,5.10617],[-75.70311,5.10618],[-75.70311,5.10618],[-75.70314,5.10617],[-75.70314,5.10617],[-75.70314,5.10616],[-75.70313,5.10614],[-75.70311,5.1061],[-75.70309,5.10606],[-75.70307,5.10607],[-75.70306,5.10607],[-75.70306,5.10607],[-75.70303,5.10609],[-75.70305,5.10614],[-75.70305,5.10615],[-75.70306,5.10616],[-75.70307,5.10618]]]},"properties":{"FID":15,"OBJECTID":16,"Area_M2":101.213555074,"Amenaza_IN":"Alta","Shape_Leng":42.029868988,"Shape_Area":101.214565297}},{"type":"Feature","id":16,"geometry":{"type":"Polygon","coordinates":[[[-75.70319,5.1062],[-75.70319,5.1062],[-75.70318,5.1062],[-75.70316,5.10621],[-75.70315,5.10621],[-75.70313,5.10622],[-75.70316,5.10625],[-75.70316,5.10625],[-75.70318,5.10628],[-75.70319,5.10628],[-75.70323,5.10627],[-75.70323,5.10627],[-75.70323,5.10627],[-75.70323,5.10627],[-75.70324,5.10626],[-75.70321,5.10619],[-75.70319,5.1062]]]},"properties":{"FID":16,"OBJECTID":17,"Area_M2":73.9292543037,"Amenaza_IN":"Alta","Shape_Leng":35.1929795063,"Shape_Area":73.9297057214}},{"type":"Feature","id":17,"geometry":{"type":"Polygon","coordinates":[[[-75.7029,5.10612],[-75.70287,5.10614],[-75.70287,5.10614],[-75.70287,5.10614],[-75.70286,5.10614],[-75.70287,5.10616],[-75.70288,5.10616],[-75.70288,5.10616],[-75.70288,5.10616],[-75.70289,5.10616],[-75.70291,5.10615],[-75.70293,5.10615],[-75.70293,5.10614],[-75.70292,5.10611],[-75.7029,5.10612]]]},"properties":{"FID":17,"OBJECTID":18,"Area_M2":25.5998145671,"Amenaza_IN":"Alta","Shape_Leng":22.3027368113,"Shape_Area":25.5997110117}},{"type":"Feature","id":18,"geometry":{"type":"Polygon","coordinates":[[[-75.70294,5.10615],[-75.70293,5.10615],[-75.70291,5.10615],[-75.70289,5.10616],[-75.70288,5.10616],[-75.70288,5.10616],[-75.70288,5.10616],[-75.70287,5.10616],[-75.70286,5.10617],[-75.70287,5.10622],[-75.70288,5.10622],[-75.70289,5.10622],[-75.7029,5.10622],[-75.7029,5.10622],[-75.70291,5.10622],[-75.70291,5.10622],[-75.70291,5.10622],[-75.70291,5.10622],[-75.70292,5.10621],[-75.70293,5.10621],[-75.70293,5.10621],[-75.70296,5.1062],[-75.70298,5.1062],[-75.70299,5.1062],[-75.70299,5.1062],[-75.70298,5.10614],[-75.70294,5.10615]]]},"properties":{"FID":18,"OBJECTID":19,"Area_M2":86.075055956,"Amenaza_IN":"Alta","Shape_Leng":38.9861068457,"Shape_Area":86.0759310033}},{"type":"Feature","id":19,"geometry":{"type":"Polygon","coordinates":[[[-75.7029,5.10628],[-75.7029,5.10628],[-75.70292,5.10627],[-75.70293,5.10627],[-75.70293,5.10627],[-75.70293,5.10627],[-75.70294,5.10627],[-75.70294,5.10627],[-75.70295,5.10627],[-75.70298,5.10626],[-75.70299,5.10626],[-75.70299,5.10625],[-75.70302,5.10625],[-75.70303,5.10625],[-75.70306,5.10624],[-75.70307,5.10624],[-75.70307,5.10624],[-75.70306,5.10621],[-75.70306,5.1062],[-75.70306,5.1062],[-75.703,5.10622],[-75.70299,5.10621],[-75.70299,5.10621],[-75.70298,5.10621],[-75.70298,5.1062],[-75.70296,5.1062],[-75.70293,5.10621],[-75.70292,5.10621],[-75.70291,5.10622],[-75.70291,5.10622],[-75.70291,5.10622],[-75.70291,5.10622],[-75.7029,5.10622],[-75.70289,5.10622],[-75.70288,5.10622],[-75.70288,5.10624],[-75.70289,5.10624],[-75.7029,5.10628]]]},"properties":{"FID":19,"OBJECTID":20,"Area_M2":104.239349853,"Amenaza_IN":"Alta","Shape_Leng":52.5159341471,"Shape_Area":104.23945364}},{"type":"Feature","id":20,"geometry":{"type":"Polygon","coordinates":[[[-75.70299,5.10626],[-75.70298,5.10626],[-75.70295,5.10627],[-75.70294,5.10627],[-75.70293,5.10627],[-75.70293,5.10627],[-75.70293,5.10627],[-75.70292,5.10627],[-75.7029,5.10628],[-75.70292,5.10632],[-75.70292,5.10633],[-75.70292,5.10634],[-75.70295,5.10633],[-75.70295,5.10633],[-75.70295,5.10633],[-75.70296,5.10633],[-75.70296,5.10633],[-75.70297,5.10633],[-75.70297,5.10633],[-75.70297,5.10633],[-75.70299,5.10632],[-75.70299,5.10632],[-75.70299,5.10632],[-75.70301,5.10632],[-75.70303,5.10632],[-75.70303,5.10631],[-75.70303,5.1063],[-75.70303,5.10629],[-75.70302,5.10629],[-75.70302,5.10628],[-75.70302,5.10627],[-75.70302,5.10627],[-75.70302,5.10626],[-75.70302,5.10626],[-75.70302,5.10625],[-75.70299,5.10626]]]},"properties":{"FID":20,"OBJECTID":21,"Area_M2":88.5226394378,"Amenaza_IN":"Alta","Shape_Leng":39.4794952751,"Shape_Area":88.5222788417}},{"type":"Feature","id":21,"geometry":{"type":"Polygon","coordinates":[[[-75.70293,5.10638],[-75.70294,5.10638],[-75.70294,5.10638],[-75.70293,5.10639],[-75.70293,5.1064],[-75.70294,5.10642],[-75.70295,5.10642],[-75.70297,5.10641],[-75.70299,5.1064],[-75.70299,5.1064],[-75.70299,5.1064],[-75.70299,5.1064],[-75.70302,5.10639],[-75.70303,5.10639],[-75.70303,5.10639],[-75.70302,5.10636],[-75.70301,5.10632],[-75.70299,5.10632],[-75.70299,5.10632],[-75.70299,5.10632],[-75.70297,5.10633],[-75.70297,5.10633],[-75.70297,5.10633],[-75.70296,5.10633],[-75.70295,5.10633],[-75.70295,5.10633],[-75.70295,5.10633],[-75.70292,5.10634],[-75.70291,5.10634],[-75.70292,5.10637],[-75.70293,5.10637],[-75.70293,5.10638]]]},"properties":{"FID":21,"OBJECTID":22,"Area_M2":96.1314510124,"Amenaza_IN":"Alta","Shape_Leng":41.591839898,"Shape_Area":96.1317878937}},{"type":"Feature","id":22,"geometry":{"type":"Polygon","coordinates":[[[-75.70307,5.10641],[-75.70305,5.10642],[-75.70306,5.10646],[-75.70306,5.10646],[-75.70307,5.10647],[-75.70313,5.10645],[-75.70312,5.1064],[-75.70315,5.10639],[-75.70317,5.10638],[-75.70317,5.10638],[-75.70316,5.10637],[-75.70315,5.10631],[-75.70314,5.10629],[-75.70313,5.10629],[-75.70312,5.10629],[-75.70312,5.10629],[-75.70309,5.10629],[-75.70309,5.1063],[-75.70308,5.1063],[-75.70308,5.1063],[-75.70304,5.10631],[-75.70305,5.10635],[-75.70302,5.10636],[-75.70303,5.10639],[-75.70302,5.10639],[-75.70303,5.1064],[-75.70306,5.10639],[-75.70307,5.10641]]]},"properties":{"FID":22,"OBJECTID":23,"Area_M2":197.211488808,"Amenaza_IN":"Alta","Shape_Leng":70.3813283564,"Shape_Area":197.210484031}},{"type":"Feature","id":23,"geometry":{"type":"Polygon","coordinates":[[[-75.70316,5.10637],[-75.70319,5.10636],[-75.70319,5.10636],[-75.70319,5.10636],[-75.70319,5.10635],[-75.70321,5.10635],[-75.7032,5.10633],[-75.70319,5.10631],[-75.70319,5.1063],[-75.70318,5.10631],[-75.70317,5.10631],[-75.70317,5.10631],[-75.70317,5.1063],[-75.70316,5.1063],[-75.70315,5.10631],[-75.70316,5.10637]]]},"properties":{"FID":23,"OBJECTID":24,"Area_M2":29.6905337801,"Amenaza_IN":"Alta","Shape_Leng":22.9531911883,"Shape_Area":29.6900536984}},{"type":"Feature","id":24,"geometry":{"type":"Polygon","coordinates":[[[-75.70323,5.10634],[-75.70322,5.10635],[-75.70321,5.10635],[-75.70319,5.10636],[-75.70319,5.10636],[-75.70319,5.10636],[-75.70316,5.10637],[-75.70317,5.10638],[-75.70317,5.10638],[-75.70317,5.10639],[-75.70319,5.10639],[-75.7032,5.10639],[-75.70321,5.10638],[-75.70321,5.10638],[-75.70321,5.10638],[-75.70323,5.10638],[-75.70324,5.10637],[-75.70325,5.10637],[-75.70325,5.10637],[-75.70326,5.10637],[-75.70325,5.10634],[-75.70323,5.10634]]]},"properties":{"FID":24,"OBJECTID":25,"Area_M2":36.3059259181,"Amenaza_IN":"Alta","Shape_Leng":27.1429443063,"Shape_Area":36.3058977029}},{"type":"Feature","id":25,"geometry":{"type":"Polygon","coordinates":[[[-75.70324,5.10637],[-75.70323,5.10638],[-75.70321,5.10638],[-75.70321,5.10638],[-75.70321,5.10638],[-75.70319,5.10639],[-75.70317,5.10639],[-75.70317,5.1064],[-75.70318,5.10643],[-75.7032,5.10643],[-75.70321,5.10643],[-75.70324,5.10642],[-75.70327,5.10641],[-75.70325,5.10637],[-75.70324,5.10637]]]},"properties":{"FID":25,"OBJECTID":26,"Area_M2":45.3733551946,"Amenaza_IN":"Alta","Shape_Leng":28.7347065726,"Shape_Area":45.3732113622}},{"type":"Feature","id":26,"geometry":{"type":"Polygon","coordinates":[[[-75.70325,5.1065],[-75.70326,5.1065],[-75.70326,5.1065],[-75.70326,5.1065],[-75.70328,5.10649],[-75.70327,5.10648],[-75.70327,5.10648],[-75.70324,5.10642],[-75.70322,5.10643],[-75.70318,5.10644],[-75.70321,5.1065],[-75.70322,5.1065],[-75.70324,5.10649],[-75.70325,5.10649],[-75.70325,5.1065]]]},"properties":{"FID":26,"OBJECTID":27,"Area_M2":56.9859485727,"Amenaza_IN":"Alta","Shape_Leng":33.674036883,"Shape_Area":56.9858372783}},{"type":"Feature","id":27,"geometry":{"type":"Polygon","coordinates":[[[-75.70304,5.10651],[-75.70304,5.10651],[-75.70304,5.10651],[-75.70302,5.10652],[-75.70304,5.10656],[-75.70307,5.10655],[-75.70307,5.10654],[-75.70306,5.10652],[-75.70306,5.10652],[-75.70306,5.10651],[-75.70304,5.10651]]]},"properties":{"FID":27,"OBJECTID":28,"Area_M2":20.6994911647,"Amenaza_IN":"Alta","Shape_Leng":18.2657779076,"Shape_Area":20.6997138584}},{"type":"Feature","id":28,"geometry":{"type":"Polygon","coordinates":[[[-75.70307,5.1067],[-75.7031,5.10669],[-75.70311,5.10669],[-75.70312,5.10669],[-75.70312,5.10668],[-75.70311,5.10666],[-75.70313,5.10666],[-75.70313,5.10666],[-75.70315,5.10666],[-75.70314,5.1066],[-75.70314,5.1066],[-75.70313,5.10656],[-75.7031,5.10657],[-75.70309,5.10657],[-75.70309,5.10657],[-75.70309,5.10657],[-75.70309,5.10657],[-75.70309,5.10657],[-75.70309,5.10656],[-75.70309,5.10656],[-75.70309,5.10656],[-75.70304,5.10658],[-75.70306,5.10668],[-75.70307,5.10667],[-75.70307,5.1067]]]},"properties":{"FID":28,"OBJECTID":29,"Area_M2":120.079800218,"Amenaza_IN":"Alta","Shape_Leng":47.4010495754,"Shape_Area":120.079641768}},{"type":"Feature","id":29,"geometry":{"type":"Polygon","coordinates":[[[-75.70323,5.1067],[-75.70323,5.1067],[-75.70321,5.10671],[-75.70314,5.10671],[-75.70313,5.10671],[-75.70312,5.10671],[-75.70311,5.10684],[-75.70313,5.10684],[-75.70314,5.10684],[-75.70315,5.10684],[-75.7032,5.10684],[-75.70323,5.10684],[-75.70323,5.10682],[-75.70323,5.1068],[-75.70323,5.10675],[-75.70323,5.10671],[-75.70323,5.10671],[-75.70323,5.10671],[-75.70323,5.1067],[-75.70323,5.1067]]]},"properties":{"FID":29,"OBJECTID":30,"Area_M2":187.376116843,"Amenaza_IN":"Alta","Shape_Leng":54.8225485573,"Shape_Area":187.376700824}},{"type":"Feature","id":30,"geometry":{"type":"Polygon","coordinates":[[[-75.7032,5.10702],[-75.70321,5.10705],[-75.70321,5.10705],[-75.70322,5.10706],[-75.70322,5.10706],[-75.70322,5.10707],[-75.70323,5.10708],[-75.70324,5.10711],[-75.70333,5.10706],[-75.70333,5.10706],[-75.70334,5.10706],[-75.70334,5.10706],[-75.70333,5.10704],[-75.70333,5.10704],[-75.70333,5.10704],[-75.70333,5.10704],[-75.70333,5.10703],[-75.70331,5.10699],[-75.70329,5.10697],[-75.7032,5.10702]]]},"properties":{"FID":30,"OBJECTID":31,"Area_M2":140.604279867,"Amenaza_IN":"Alta","Shape_Leng":47.1221678465,"Shape_Area":140.604430048}},{"type":"Feature","id":31,"geometry":{"type":"Polygon","coordinates":[[[-75.70326,5.10774],[-75.70323,5.10775],[-75.70323,5.10775],[-75.70319,5.10775],[-75.70319,5.10778],[-75.70319,5.10778],[-75.70319,5.10779],[-75.70317,5.10781],[-75.70321,5.10784],[-75.70326,5.10787],[-75.70326,5.10783],[-75.70326,5.10783],[-75.70326,5.10782],[-75.70328,5.10781],[-75.70329,5.10781],[-75.70328,5.10778],[-75.70328,5.10777],[-75.70328,5.10777],[-75.70327,5.10777],[-75.70327,5.10777],[-75.70327,5.10777],[-75.70327,5.10777],[-75.70327,5.10776],[-75.70326,5.10774],[-75.70326,5.10774]]]},"properties":{"FID":31,"OBJECTID":32,"Area_M2":106.953115491,"Amenaza_IN":"Alta","Shape_Leng":44.8522960544,"Shape_Area":106.952917981}},{"type":"Feature","id":32,"geometry":{"type":"Polygon","coordinates":[[[-75.7032,5.1079],[-75.7032,5.10793],[-75.7032,5.10795],[-75.70321,5.10796],[-75.70321,5.10796],[-75.70322,5.10796],[-75.70323,5.10796],[-75.70323,5.10796],[-75.70325,5.10796],[-75.70326,5.10796],[-75.70328,5.10796],[-75.70328,5.10796],[-75.7033,5.10796],[-75.7033,5.10795],[-75.7033,5.10795],[-75.70331,5.10795],[-75.70331,5.10795],[-75.70331,5.10794],[-75.7033,5.10794],[-75.7033,5.10794],[-75.7033,5.10793],[-75.7033,5.10792],[-75.70329,5.10791],[-75.70329,5.10789],[-75.70328,5.10789],[-75.70327,5.10789],[-75.70327,5.10789],[-75.70326,5.10789],[-75.70324,5.10789],[-75.70323,5.10789],[-75.70322,5.10789],[-75.70321,5.10789],[-75.70321,5.10789],[-75.7032,5.1079]]]},"properties":{"FID":32,"OBJECTID":33,"Area_M2":81.0121467646,"Amenaza_IN":"Alta","Shape_Leng":36.0504655872,"Shape_Area":81.0119606119}},{"type":"Feature","id":33,"geometry":{"type":"Polygon","coordinates":[[[-75.70319,5.10788],[-75.7032,5.10789],[-75.70321,5.10789],[-75.70322,5.10789],[-75.70324,5.10789],[-75.70326,5.10789],[-75.70327,5.10789],[-75.70327,5.10789],[-75.70328,5.10789],[-75.70329,5.10789],[-75.70328,5.10787],[-75.70327,5.10787],[-75.70327,5.10787],[-75.70326,5.10787],[-75.70319,5.10785],[-75.70319,5.10786],[-75.70319,5.10788]]]},"properties":{"FID":33,"OBJECTID":34,"Area_M2":36.6026217042,"Amenaza_IN":"Alta","Shape_Leng":28.5201404093,"Shape_Area":36.6023436626}},{"type":"Feature","id":34,"geometry":{"type":"Polygon","coordinates":[[[-75.70321,5.10807],[-75.70321,5.10809],[-75.70321,5.1081],[-75.70321,5.10811],[-75.70321,5.10811],[-75.7033,5.10811],[-75.7033,5.10811],[-75.70331,5.10811],[-75.70331,5.10811],[-75.70332,5.1081],[-75.70335,5.10808],[-75.70336,5.10808],[-75.70336,5.10807],[-75.70336,5.10804],[-75.70333,5.10804],[-75.70333,5.10804],[-75.70331,5.10804],[-75.7033,5.10805],[-75.70329,5.10805],[-75.70329,5.10805],[-75.70324,5.10805],[-75.70323,5.10805],[-75.70321,5.10805],[-75.70321,5.10807]]]},"properties":{"FID":34,"OBJECTID":35,"Area_M2":104.804476758,"Amenaza_IN":"Alta","Shape_Leng":44.073280452,"Shape_Area":104.804702878}},{"type":"Feature","id":35,"geometry":{"type":"Polygon","coordinates":[[[-75.7032,5.10842],[-75.7032,5.10843],[-75.70322,5.10844],[-75.70323,5.10845],[-75.7033,5.10847],[-75.7033,5.10847],[-75.70331,5.10848],[-75.70332,5.10844],[-75.70332,5.10841],[-75.70333,5.1084],[-75.70334,5.10835],[-75.70335,5.10834],[-75.70337,5.10827],[-75.7033,5.10825],[-75.7033,5.10825],[-75.70329,5.10825],[-75.70328,5.10825],[-75.70328,5.10827],[-75.70328,5.10832],[-75.70329,5.10835],[-75.70322,5.10835],[-75.7032,5.10835],[-75.7032,5.10842]]]},"properties":{"FID":35,"OBJECTID":36,"Area_M2":251.566153352,"Amenaza_IN":"Alta","Shape_Leng":77.77473269,"Shape_Area":251.566436617}},{"type":"Feature","id":36,"geometry":{"type":"Polygon","coordinates":[[[-75.7034,5.10836],[-75.7034,5.10835],[-75.70341,5.10835],[-75.70343,5.10835],[-75.70344,5.10836],[-75.70344,5.10836],[-75.70345,5.10832],[-75.70345,5.10832],[-75.70345,5.10831],[-75.70346,5.10825],[-75.70341,5.10825],[-75.70341,5.10826],[-75.7034,5.10828],[-75.70337,5.10827],[-75.70337,5.10827],[-75.70334,5.10835],[-75.7034,5.10836]]]},"properties":{"FID":36,"OBJECTID":37,"Area_M2":107.041691045,"Amenaza_IN":"Alta","Shape_Leng":45.2686446082,"Shape_Area":107.041500877}},{"type":"Feature","id":37,"geometry":{"type":"Polygon","coordinates":[[[-75.70344,5.10837],[-75.70344,5.10839],[-75.70344,5.10842],[-75.70346,5.10843],[-75.70349,5.10843],[-75.7035,5.10843],[-75.7035,5.10843],[-75.70351,5.10842],[-75.70351,5.10841],[-75.70351,5.10837],[-75.70349,5.10836],[-75.70346,5.10836],[-75.70345,5.10836],[-75.70344,5.10837]]]},"properties":{"FID":37,"OBJECTID":38,"Area_M2":55.1118373819,"Amenaza_IN":"Alta","Shape_Leng":29.4302520838,"Shape_Area":55.1123186648}},{"type":"Feature","id":38,"geometry":{"type":"Polygon","coordinates":[[[-75.70333,5.1084],[-75.70338,5.10841],[-75.7034,5.10841],[-75.70341,5.10841],[-75.70341,5.10841],[-75.70341,5.10839],[-75.70344,5.10839],[-75.70344,5.10837],[-75.70345,5.10836],[-75.70344,5.10836],[-75.70343,5.10835],[-75.70341,5.10835],[-75.7034,5.10835],[-75.7034,5.10836],[-75.70334,5.10835],[-75.70333,5.1084]]]},"properties":{"FID":38,"OBJECTID":39,"Area_M2":65.7637445974,"Amenaza_IN":"Alta","Shape_Leng":37.1765917712,"Shape_Area":65.7631995836}},{"type":"Feature","id":39,"geometry":{"type":"Polygon","coordinates":[[[-75.7034,5.10849],[-75.7034,5.10841],[-75.70333,5.1084],[-75.70332,5.10841],[-75.70332,5.10848],[-75.7034,5.10849]]]},"properties":{"FID":39,"OBJECTID":40,"Area_M2":78.6044227159,"Amenaza_IN":"Alta","Shape_Leng":35.2503681163,"Shape_Area":78.6048751163}},{"type":"Feature","id":40,"geometry":{"type":"Polygon","coordinates":[[[-75.70341,5.10846],[-75.70341,5.10848],[-75.7034,5.10849],[-75.7034,5.1085],[-75.7034,5.1085],[-75.70341,5.1085],[-75.70343,5.1085],[-75.70344,5.10851],[-75.70345,5.10851],[-75.70348,5.10851],[-75.70348,5.10851],[-75.70349,5.10848],[-75.70349,5.10847],[-75.70349,5.10845],[-75.70348,5.10845],[-75.70347,5.10845],[-75.70344,5.10844],[-75.70341,5.10844],[-75.70341,5.10846]]]},"properties":{"FID":40,"OBJECTID":41,"Area_M2":61.0818314046,"Amenaza_IN":"Alta","Shape_Leng":31.8745467972,"Shape_Area":61.0817358348}},{"type":"Feature","id":41,"geometry":{"type":"Polygon","coordinates":[[[-75.70342,5.10859],[-75.70343,5.10859],[-75.70348,5.10861],[-75.70348,5.10859],[-75.70348,5.10858],[-75.70348,5.10857],[-75.70348,5.10857],[-75.70348,5.10855],[-75.70348,5.10851],[-75.70348,5.10851],[-75.70345,5.10851],[-75.70344,5.10851],[-75.70343,5.1085],[-75.70343,5.10852],[-75.70342,5.10852],[-75.70341,5.10852],[-75.70333,5.10849],[-75.70332,5.1085],[-75.70332,5.10851],[-75.70332,5.10852],[-75.70332,5.10853],[-75.70332,5.10854],[-75.70332,5.10855],[-75.70332,5.10857],[-75.70333,5.10858],[-75.70336,5.10858],[-75.70338,5.10859],[-75.70341,5.1086],[-75.70342,5.1086],[-75.70342,5.10859],[-75.70342,5.10859]]]},"properties":{"FID":41,"OBJECTID":42,"Area_M2":163.410385072,"Amenaza_IN":"Alta","Shape_Leng":58.3363883962,"Shape_Area":163.410082685}},{"type":"Feature","id":42,"geometry":{"type":"Polygon","coordinates":[[[-75.70326,5.10854],[-75.70326,5.10856],[-75.70325,5.10856],[-75.70324,5.10858],[-75.70325,5.10858],[-75.70325,5.10859],[-75.70324,5.10859],[-75.70324,5.1086],[-75.70324,5.1086],[-75.70325,5.10862],[-75.70325,5.10866],[-75.70326,5.10866],[-75.70327,5.10866],[-75.70327,5.10866],[-75.70329,5.10866],[-75.70328,5.10864],[-75.70328,5.10864],[-75.70328,5.10863],[-75.70329,5.10862],[-75.70329,5.10862],[-75.70331,5.10862],[-75.70331,5.10861],[-75.70331,5.10861],[-75.70332,5.10861],[-75.70332,5.10861],[-75.70332,5.1086],[-75.70332,5.10857],[-75.70332,5.10855],[-75.70332,5.10854],[-75.70332,5.10853],[-75.70332,5.10851],[-75.70332,5.1085],[-75.70333,5.10849],[-75.70331,5.1085],[-75.7033,5.1085],[-75.7033,5.1085],[-75.70326,5.10849],[-75.70326,5.10854]]]},"properties":{"FID":42,"OBJECTID":43,"Area_M2":119.933325525,"Amenaza_IN":"Alta","Shape_Leng":53.8976363384,"Shape_Area":119.932952867}},{"type":"Feature","id":43,"geometry":{"type":"Polygon","coordinates":[[[-75.70337,5.10869],[-75.70338,5.10869],[-75.70339,5.10869],[-75.70339,5.10869],[-75.7034,5.10868],[-75.7034,5.10866],[-75.7034,5.10863],[-75.70341,5.10863],[-75.70341,5.10862],[-75.70341,5.1086],[-75.70338,5.10859],[-75.70335,5.10859],[-75.70333,5.10858],[-75.70333,5.10859],[-75.70332,5.10861],[-75.70332,5.10861],[-75.70332,5.10861],[-75.70331,5.10868],[-75.70332,5.10868],[-75.70334,5.10868],[-75.70334,5.10869],[-75.70335,5.10869],[-75.70336,5.10869],[-75.70336,5.10869],[-75.70336,5.10869],[-75.70337,5.10869]]]},"properties":{"FID":43,"OBJECTID":44,"Area_M2":105.758175532,"Amenaza_IN":"Alta","Shape_Leng":40.4570865903,"Shape_Area":105.758435882}},{"type":"Feature","id":44,"geometry":{"type":"Polygon","coordinates":[[[-75.7033,5.10869],[-75.7033,5.10872],[-75.70331,5.10872],[-75.70333,5.10872],[-75.70336,5.10872],[-75.70336,5.1087],[-75.70336,5.1087],[-75.70336,5.1087],[-75.70336,5.10869],[-75.70336,5.10869],[-75.70336,5.10869],[-75.70335,5.10869],[-75.70334,5.10869],[-75.70334,5.10868],[-75.70332,5.10868],[-75.70331,5.10868],[-75.7033,5.10868],[-75.7033,5.10869]]]},"properties":{"FID":44,"OBJECTID":45,"Area_M2":30.2746967407,"Amenaza_IN":"Alta","Shape_Leng":22.5184517125,"Shape_Area":30.2748108263}},{"type":"Feature","id":45,"geometry":{"type":"Polygon","coordinates":[[[-75.70333,5.10879],[-75.70334,5.10878],[-75.70337,5.10878],[-75.70337,5.10874],[-75.70337,5.10872],[-75.70336,5.10872],[-75.70336,5.10872],[-75.70333,5.10872],[-75.70331,5.10872],[-75.7033,5.10872],[-75.70328,5.10872],[-75.70328,5.10876],[-75.70331,5.10876],[-75.70332,5.10876],[-75.70334,5.10876],[-75.70333,5.10879]]]},"properties":{"FID":45,"OBJECTID":46,"Area_M2":51.0268052923,"Amenaza_IN":"Alta","Shape_Leng":35.5482129057,"Shape_Area":51.0266113494}},{"type":"Feature","id":46,"geometry":{"type":"Polygon","coordinates":[[[-75.70324,5.10877],[-75.70324,5.10879],[-75.70323,5.10879],[-75.70322,5.1088],[-75.7032,5.10885],[-75.70325,5.10886],[-75.70332,5.10887],[-75.70332,5.10884],[-75.70334,5.10884],[-75.70334,5.10879],[-75.70334,5.10878],[-75.70334,5.10876],[-75.70332,5.10876],[-75.70331,5.10876],[-75.70328,5.10876],[-75.70325,5.10876],[-75.70324,5.10877]]]},"properties":{"FID":46,"OBJECTID":47,"Area_M2":137.60501943,"Amenaza_IN":"Alta","Shape_Leng":47.9642946077,"Shape_Area":137.604383112}},{"type":"Feature","id":47,"geometry":{"type":"Polygon","coordinates":[[[-75.70328,5.10911],[-75.7033,5.10912],[-75.7033,5.10913],[-75.70327,5.10914],[-75.70327,5.10914],[-75.70327,5.10921],[-75.70327,5.10921],[-75.7033,5.10921],[-75.70333,5.10921],[-75.70333,5.10921],[-75.70335,5.1092],[-75.70335,5.1092],[-75.70339,5.1092],[-75.70339,5.10913],[-75.70336,5.10912],[-75.70336,5.10911],[-75.70335,5.10911],[-75.70335,5.10911],[-75.70334,5.1091],[-75.70334,5.10909],[-75.70334,5.10909],[-75.70335,5.10907],[-75.70332,5.10907],[-75.70332,5.10907],[-75.70329,5.10906],[-75.70328,5.10911]]]},"properties":{"FID":47,"OBJECTID":48,"Area_M2":151.546002042,"Amenaza_IN":"Alta","Shape_Leng":57.5188397142,"Shape_Area":151.545718358}},{"type":"Feature","id":48,"geometry":{"type":"Polygon","coordinates":[[[-75.70344,5.10921],[-75.70344,5.10921],[-75.70334,5.10922],[-75.70334,5.10922],[-75.70333,5.10922],[-75.70332,5.10922],[-75.70332,5.10923],[-75.70332,5.10927],[-75.70332,5.10933],[-75.70333,5.10933],[-75.70334,5.10932],[-75.70334,5.10932],[-75.70337,5.10932],[-75.70341,5.10932],[-75.70341,5.10932],[-75.70341,5.10932],[-75.70341,5.1093],[-75.70342,5.1093],[-75.70344,5.1093],[-75.70344,5.10929],[-75.70344,5.10926],[-75.70344,5.10925],[-75.70344,5.10922],[-75.70344,5.10921],[-75.70344,5.10921],[-75.70344,5.10921]]]},"properties":{"FID":48,"OBJECTID":49,"Area_M2":149.777422794,"Amenaza_IN":"Alta","Shape_Leng":50.9793270473,"Shape_Area":149.777027262}},{"type":"Feature","id":49,"geometry":{"type":"Polygon","coordinates":[[[-75.7034,5.10943],[-75.7034,5.10943],[-75.70344,5.10943],[-75.70344,5.10941],[-75.70344,5.1094],[-75.70342,5.1094],[-75.70342,5.10937],[-75.70342,5.10935],[-75.70342,5.10934],[-75.7034,5.10934],[-75.70337,5.10934],[-75.70334,5.10934],[-75.70334,5.10934],[-75.70334,5.10934],[-75.70333,5.10934],[-75.70333,5.10939],[-75.70333,5.10939],[-75.70333,5.10939],[-75.70333,5.1094],[-75.70333,5.1094],[-75.70333,5.1094],[-75.70333,5.1094],[-75.70333,5.10942],[-75.70333,5.10942],[-75.70333,5.10943],[-75.70335,5.10943],[-75.70335,5.10943],[-75.70337,5.10943],[-75.7034,5.10943]]]},"properties":{"FID":49,"OBJECTID":50,"Area_M2":107.772550479,"Amenaza_IN":"Alta","Shape_Leng":44.5698096645,"Shape_Area":107.773200873}},{"type":"Feature","id":50,"geometry":{"type":"Polygon","coordinates":[[[-75.70327,5.10947],[-75.70327,5.10947],[-75.70327,5.10947],[-75.70327,5.10947],[-75.70327,5.10948],[-75.70328,5.10948],[-75.70328,5.1095],[-75.7033,5.10954],[-75.70331,5.10957],[-75.70334,5.10955],[-75.70335,5.10955],[-75.70336,5.10954],[-75.70336,5.10953],[-75.70334,5.10949],[-75.70334,5.10947],[-75.70333,5.10946],[-75.70327,5.10947]]]},"properties":{"FID":50,"OBJECTID":51,"Area_M2":71.1820979975,"Amenaza_IN":"Alta","Shape_Leng":34.5254959951,"Shape_Area":71.182365083}},{"type":"Feature","id":51,"geometry":{"type":"Polygon","coordinates":[[[-75.70336,5.10949],[-75.70335,5.10949],[-75.70334,5.10949],[-75.70336,5.10953],[-75.70339,5.10952],[-75.70338,5.10949],[-75.70336,5.10949]]]},"properties":{"FID":51,"OBJECTID":52,"Area_M2":16.6124271141,"Amenaza_IN":"Alta","Shape_Leng":16.3744208808,"Shape_Area":16.6123426996}},{"type":"Feature","id":52,"geometry":{"type":"Polygon","coordinates":[[[-75.70331,5.10958],[-75.70335,5.10963],[-75.70337,5.10965],[-75.70342,5.10961],[-75.70341,5.10958],[-75.70336,5.10954],[-75.70335,5.10955],[-75.70334,5.10955],[-75.70331,5.10957],[-75.70331,5.10958]]]},"properties":{"FID":52,"OBJECTID":53,"Area_M2":75.1482097832,"Amenaza_IN":"Alta","Shape_Leng":35.2181605022,"Shape_Area":75.1481154887}},{"type":"Feature","id":53,"geometry":{"type":"Polygon","coordinates":[[[-75.70339,5.10952],[-75.70336,5.10953],[-75.70336,5.10954],[-75.70341,5.10958],[-75.70342,5.10958],[-75.70345,5.10957],[-75.70343,5.10951],[-75.70339,5.10952]]]},"properties":{"FID":53,"OBJECTID":54,"Area_M2":42.8928012935,"Amenaza_IN":"Alta","Shape_Leng":26.8909653503,"Shape_Area":42.8927924477}},{"type":"Feature","id":54,"geometry":{"type":"Polygon","coordinates":[[[-75.70331,5.10966],[-75.70331,5.10967],[-75.70334,5.10965],[-75.70334,5.10966],[-75.70337,5.10965],[-75.70335,5.10963],[-75.70331,5.10958],[-75.70329,5.10959],[-75.7033,5.10963],[-75.70331,5.10965],[-75.70331,5.10966]]]},"properties":{"FID":54,"OBJECTID":55,"Area_M2":45.4097594029,"Amenaza_IN":"Alta","Shape_Leng":28.978293744,"Shape_Area":45.4097576743}},{"type":"Feature","id":55,"geometry":{"type":"Polygon","coordinates":[[[-75.70321,5.10964],[-75.70322,5.10967],[-75.70322,5.10968],[-75.7033,5.10966],[-75.7033,5.10967],[-75.70331,5.10966],[-75.70331,5.10965],[-75.7033,5.10963],[-75.70329,5.10959],[-75.70329,5.10958],[-75.7032,5.1096],[-75.70321,5.10964]]]},"properties":{"FID":55,"OBJECTID":56,"Area_M2":89.4457033885,"Amenaza_IN":"Alta","Shape_Leng":39.0769124922,"Shape_Area":89.4460947179}},{"type":"Feature","id":56,"geometry":{"type":"Polygon","coordinates":[[[-75.70314,5.10965],[-75.70315,5.10967],[-75.70315,5.10967],[-75.70315,5.10967],[-75.70315,5.10967],[-75.70315,5.10967],[-75.70316,5.10971],[-75.70319,5.1097],[-75.70319,5.1097],[-75.7032,5.1097],[-75.7032,5.1097],[-75.70323,5.1097],[-75.70322,5.10969],[-75.70322,5.10968],[-75.70322,5.10967],[-75.70321,5.10964],[-75.70314,5.10965]]]},"properties":{"FID":56,"OBJECTID":57,"Area_M2":53.2479621289,"Amenaza_IN":"Alta","Shape_Leng":29.1622927851,"Shape_Area":53.2488178038}},{"type":"Feature","id":57,"geometry":{"type":"Polygon","coordinates":[[[-75.70305,5.10963],[-75.70305,5.10963],[-75.70305,5.10963],[-75.70304,5.10965],[-75.70303,5.1097],[-75.70303,5.10971],[-75.70305,5.10971],[-75.70305,5.10971],[-75.70309,5.10972],[-75.70309,5.10968],[-75.70309,5.10965],[-75.70308,5.10965],[-75.70308,5.10964],[-75.70308,5.10964],[-75.70308,5.10964],[-75.70309,5.10963],[-75.70307,5.10963],[-75.70307,5.10963],[-75.70307,5.10963],[-75.70307,5.10963],[-75.70307,5.10963],[-75.70306,5.10962],[-75.70305,5.10963]]]},"properties":{"FID":57,"OBJECTID":58,"Area_M2":50.293856885,"Amenaza_IN":"Alta","Shape_Leng":29.5197409284,"Shape_Area":50.2938860125}},{"type":"Feature","id":58,"geometry":{"type":"Polygon","coordinates":[[[-75.7031,5.10965],[-75.7031,5.10965],[-75.7031,5.10965],[-75.70309,5.10965],[-75.70309,5.10968],[-75.7031,5.10968],[-75.70315,5.10967],[-75.70315,5.10967],[-75.70315,5.10967],[-75.70315,5.10967],[-75.70315,5.10967],[-75.70314,5.10965],[-75.70314,5.10964],[-75.7031,5.10965]]]},"properties":{"FID":58,"OBJECTID":59,"Area_M2":18.758059713,"Amenaza_IN":"Alta","Shape_Leng":18.0749062236,"Shape_Area":18.7583742644}},{"type":"Feature","id":59,"geometry":{"type":"Polygon","coordinates":[[[-75.70308,5.10979],[-75.70307,5.10979],[-75.70307,5.1098],[-75.70307,5.1098],[-75.70308,5.10983],[-75.70311,5.10992],[-75.70311,5.10992],[-75.70312,5.10991],[-75.70317,5.1099],[-75.70319,5.10989],[-75.7032,5.10989],[-75.7032,5.10989],[-75.70322,5.10988],[-75.70321,5.10984],[-75.70326,5.10983],[-75.70328,5.10982],[-75.7033,5.10981],[-75.70329,5.10977],[-75.70327,5.10973],[-75.70326,5.10974],[-75.70321,5.10975],[-75.70321,5.10975],[-75.70321,5.10975],[-75.70321,5.10975],[-75.70321,5.10975],[-75.7032,5.1097],[-75.7032,5.1097],[-75.70319,5.1097],[-75.70319,5.1097],[-75.70316,5.10971],[-75.70307,5.10973],[-75.70307,5.10975],[-75.70308,5.10979]]]},"properties":{"FID":59,"OBJECTID":60,"Area_M2":382.856681758,"Amenaza_IN":"Alta","Shape_Leng":87.9348671869,"Shape_Area":382.856695161}},{"type":"Feature","id":60,"geometry":{"type":"Polygon","coordinates":[[[-75.70313,5.11],[-75.70313,5.11003],[-75.70312,5.11004],[-75.70312,5.11006],[-75.70313,5.11009],[-75.70316,5.11009],[-75.70316,5.11009],[-75.70318,5.11008],[-75.7032,5.11008],[-75.70322,5.11007],[-75.70325,5.11006],[-75.70321,5.10998],[-75.70318,5.10999],[-75.70318,5.10995],[-75.70318,5.10995],[-75.70319,5.10994],[-75.7032,5.10993],[-75.7032,5.10993],[-75.7032,5.10993],[-75.7032,5.10993],[-75.70326,5.10991],[-75.70326,5.10991],[-75.70325,5.10987],[-75.70322,5.10988],[-75.7032,5.10989],[-75.7032,5.10989],[-75.70319,5.10989],[-75.70317,5.1099],[-75.70312,5.10991],[-75.70312,5.10992],[-75.70313,5.10995],[-75.70313,5.11]]]},"properties":{"FID":60,"OBJECTID":61,"Area_M2":207.598446299,"Amenaza_IN":"Alta","Shape_Leng":81.6006830933,"Shape_Area":207.598373748}},{"type":"Feature","id":61,"geometry":{"type":"Polygon","coordinates":[[[-75.7032,5.10993],[-75.7032,5.10993],[-75.7032,5.10993],[-75.7032,5.10993],[-75.70321,5.10995],[-75.70321,5.10995],[-75.7032,5.10996],[-75.70321,5.10998],[-75.70325,5.11006],[-75.70326,5.11006],[-75.70329,5.11005],[-75.7033,5.11004],[-75.7033,5.11004],[-75.7033,5.11004],[-75.70331,5.11004],[-75.70332,5.11003],[-75.70328,5.10995],[-75.70327,5.10993],[-75.70326,5.10991],[-75.7032,5.10993]]]},"properties":{"FID":61,"OBJECTID":62,"Area_M2":125.440778795,"Amenaza_IN":"Alta","Shape_Leng":46.7442717705,"Shape_Area":125.4405161}},{"type":"Feature","id":62,"geometry":{"type":"Polygon","coordinates":[[[-75.7033,5.11004],[-75.7033,5.11004],[-75.7033,5.11004],[-75.70329,5.11005],[-75.70326,5.11006],[-75.70325,5.11006],[-75.70322,5.11007],[-75.7032,5.11008],[-75.70318,5.11008],[-75.70316,5.11009],[-75.70316,5.11009],[-75.70318,5.11015],[-75.7032,5.11015],[-75.70322,5.11014],[-75.70325,5.11014],[-75.70326,5.11013],[-75.70328,5.11013],[-75.70332,5.11012],[-75.70335,5.11011],[-75.70335,5.11011],[-75.70335,5.11011],[-75.70336,5.1101],[-75.70335,5.11008],[-75.70334,5.11006],[-75.70332,5.11003],[-75.7033,5.11004]]]},"properties":{"FID":62,"OBJECTID":63,"Area_M2":159.725250592,"Amenaza_IN":"Alta","Shape_Leng":55.7336904,"Shape_Area":159.724217722}},{"type":"Feature","id":63,"geometry":{"type":"Polygon","coordinates":[[[-75.70335,5.11011],[-75.70335,5.11011],[-75.70335,5.11011],[-75.70332,5.11012],[-75.70328,5.11013],[-75.70325,5.11014],[-75.70322,5.11014],[-75.7032,5.11015],[-75.70318,5.11015],[-75.70318,5.11015],[-75.7032,5.11022],[-75.70323,5.11021],[-75.70324,5.1102],[-75.70325,5.1102],[-75.70328,5.11019],[-75.70329,5.11018],[-75.70329,5.11018],[-75.7033,5.11018],[-75.70333,5.11017],[-75.70335,5.11016],[-75.70336,5.11015],[-75.70337,5.11015],[-75.70337,5.11015],[-75.70338,5.11015],[-75.70339,5.11015],[-75.70338,5.11011],[-75.70336,5.1101],[-75.70335,5.11011]]]},"properties":{"FID":63,"OBJECTID":64,"Area_M2":139.283726528,"Amenaza_IN":"Alta","Shape_Leng":57.2941407548,"Shape_Area":139.284480012}},{"type":"Feature","id":64,"geometry":{"type":"Polygon","coordinates":[[[-75.70335,5.1103],[-75.70335,5.11031],[-75.70336,5.11031],[-75.70336,5.11032],[-75.70336,5.11032],[-75.70336,5.11032],[-75.70336,5.11032],[-75.70331,5.11033],[-75.70331,5.11036],[-75.70332,5.11038],[-75.70336,5.11036],[-75.70336,5.11036],[-75.70336,5.11036],[-75.70344,5.11034],[-75.70341,5.1102],[-75.70341,5.1102],[-75.70341,5.11019],[-75.7034,5.11015],[-75.70339,5.11015],[-75.70338,5.11015],[-75.70337,5.11015],[-75.70337,5.11015],[-75.70336,5.11015],[-75.70335,5.11016],[-75.70333,5.11017],[-75.7033,5.11018],[-75.70329,5.11018],[-75.70328,5.11019],[-75.70329,5.11022],[-75.70329,5.11024],[-75.70333,5.11023],[-75.70335,5.1103]]]},"properties":{"FID":64,"OBJECTID":65,"Area_M2":257.467362668,"Amenaza_IN":"Alta","Shape_Leng":81.6713680942,"Shape_Area":257.46634081}},{"type":"Feature","id":65,"geometry":{"type":"Polygon","coordinates":[[[-75.70338,5.1101],[-75.70339,5.11014],[-75.70339,5.11013],[-75.70342,5.11012],[-75.70345,5.11011],[-75.70346,5.11011],[-75.70344,5.11007],[-75.70338,5.1101]]]},"properties":{"FID":65,"OBJECTID":66,"Area_M2":33.6741474868,"Amenaza_IN":"Alta","Shape_Leng":24.1667636532,"Shape_Area":33.6739664294}},{"type":"Feature","id":66,"geometry":{"type":"Polygon","coordinates":[[[-75.70339,5.11013],[-75.70344,5.11022],[-75.70346,5.11021],[-75.70347,5.11021],[-75.70349,5.1102],[-75.70345,5.11013],[-75.70346,5.11013],[-75.70345,5.11011],[-75.70342,5.11012],[-75.70339,5.11013]]]},"properties":{"FID":66,"OBJECTID":67,"Area_M2":61.4970856364,"Amenaza_IN":"Alta","Shape_Leng":34.5438954848,"Shape_Area":61.49712273}},{"type":"Feature","id":67,"geometry":{"type":"Polygon","coordinates":[[[-75.70347,5.11021],[-75.70346,5.11021],[-75.70349,5.11027],[-75.70349,5.11028],[-75.70349,5.11028],[-75.70352,5.11026],[-75.70349,5.1102],[-75.70347,5.11021]]]},"properties":{"FID":67,"OBJECTID":68,"Area_M2":26.1957955856,"Amenaza_IN":"Alta","Shape_Leng":22.4446067735,"Shape_Area":26.1956522363}},{"type":"Feature","id":68,"geometry":{"type":"Polygon","coordinates":[[[-75.70335,5.11053],[-75.70335,5.11054],[-75.70336,5.11058],[-75.70336,5.11061],[-75.70346,5.1106],[-75.70347,5.1106],[-75.7035,5.1106],[-75.70352,5.11059],[-75.70351,5.11054],[-75.70351,5.11054],[-75.70351,5.11053],[-75.70351,5.11052],[-75.70335,5.11053]]]},"properties":{"FID":68,"OBJECTID":69,"Area_M2":148.196096733,"Amenaza_IN":"Alta","Shape_Leng":51.8000854277,"Shape_Area":148.195291663}},{"type":"Feature","id":69,"geometry":{"type":"Polygon","coordinates":[[[-75.70346,5.11064],[-75.70345,5.11064],[-75.70344,5.11065],[-75.70337,5.11065],[-75.70338,5.11072],[-75.70341,5.11072],[-75.70344,5.11072],[-75.70344,5.11072],[-75.70344,5.11072],[-75.70345,5.11072],[-75.70349,5.11072],[-75.70349,5.11069],[-75.70349,5.11064],[-75.70346,5.11064]]]},"properties":{"FID":69,"OBJECTID":70,"Area_M2":110.575447956,"Amenaza_IN":"Alta","Shape_Leng":43.2200732865,"Shape_Area":110.575138743}},{"type":"Feature","id":70,"geometry":{"type":"Polygon","coordinates":[[[-75.70347,5.1106],[-75.70346,5.1106],[-75.70336,5.11061],[-75.70337,5.11065],[-75.70344,5.11065],[-75.70345,5.11064],[-75.70346,5.11064],[-75.70349,5.11064],[-75.7035,5.1106],[-75.70347,5.1106]]]},"properties":{"FID":70,"OBJECTID":71,"Area_M2":71.2728153705,"Amenaza_IN":"Alta","Shape_Leng":39.8030571771,"Shape_Area":71.2735042548}},{"type":"Feature","id":71,"geometry":{"type":"Polygon","coordinates":[[[-75.70354,5.11054],[-75.70353,5.11058],[-75.70355,5.11059],[-75.70357,5.11059],[-75.70359,5.1106],[-75.70359,5.11058],[-75.7036,5.11054],[-75.7036,5.11054],[-75.7036,5.11052],[-75.70358,5.11052],[-75.70354,5.11052],[-75.70354,5.11054]]]},"properties":{"FID":71,"OBJECTID":72,"Area_M2":52.8730896165,"Amenaza_IN":"Alta","Shape_Leng":29.2068238072,"Shape_Area":52.8730273227}},{"type":"Feature","id":72,"geometry":{"type":"Polygon","coordinates":[[[-75.70365,5.11055],[-75.70366,5.11055],[-75.70366,5.11054],[-75.70366,5.11051],[-75.70363,5.11051],[-75.70362,5.11051],[-75.70362,5.11051],[-75.70361,5.11054],[-75.70361,5.11054],[-75.70363,5.11055],[-75.70365,5.11055]]]},"properties":{"FID":72,"OBJECTID":73,"Area_M2":20.992985532,"Amenaza_IN":"Alta","Shape_Leng":18.4637853257,"Shape_Area":20.9930005631}},{"type":"Feature","id":73,"geometry":{"type":"Polygon","coordinates":[[[-75.70361,5.11061],[-75.70364,5.11061],[-75.70365,5.11061],[-75.70365,5.11059],[-75.70364,5.11058],[-75.70365,5.11055],[-75.70363,5.11055],[-75.70361,5.11054],[-75.7036,5.11054],[-75.70359,5.11058],[-75.70359,5.1106],[-75.70359,5.11059],[-75.70361,5.11059],[-75.70361,5.11061]]]},"properties":{"FID":73,"OBJECTID":74,"Area_M2":38.1511476055,"Amenaza_IN":"Alta","Shape_Leng":26.8230059178,"Shape_Area":38.1513051486}},{"type":"Feature","id":74,"geometry":{"type":"Polygon","coordinates":[[[-75.70353,5.11058],[-75.70351,5.11063],[-75.7035,5.11064],[-75.7035,5.11068],[-75.70354,5.11069],[-75.70357,5.1107],[-75.70357,5.11067],[-75.70358,5.11066],[-75.70358,5.11064],[-75.70359,5.1106],[-75.70357,5.11059],[-75.70355,5.11059],[-75.70353,5.11058]]]},"properties":{"FID":74,"OBJECTID":75,"Area_M2":85.6825050118,"Amenaza_IN":"Alta","Shape_Leng":37.261794499,"Shape_Area":85.6816084569}},{"type":"Feature","id":75,"geometry":{"type":"Polygon","coordinates":[[[-75.70366,5.11073],[-75.70366,5.11074],[-75.70366,5.11078],[-75.70366,5.11079],[-75.70372,5.11079],[-75.70372,5.11068],[-75.70366,5.11068],[-75.70366,5.11073]]]},"properties":{"FID":75,"OBJECTID":76,"Area_M2":76.6666099757,"Amenaza_IN":"Alta","Shape_Leng":37.2381340473,"Shape_Area":76.6670411798}},{"type":"Feature","id":76,"geometry":{"type":"Polygon","coordinates":[[[-75.70367,5.11064],[-75.70367,5.11067],[-75.70372,5.11067],[-75.70373,5.11059],[-75.70367,5.1106],[-75.70367,5.11062],[-75.70367,5.11064]]]},"properties":{"FID":76,"OBJECTID":77,"Area_M2":49.8614908365,"Amenaza_IN":"Alta","Shape_Leng":28.7823349275,"Shape_Area":49.8612053971}},{"type":"Feature","id":77,"geometry":{"type":"Polygon","coordinates":[[[-75.7036,5.11061],[-75.70358,5.11066],[-75.70361,5.11067],[-75.70362,5.11068],[-75.70366,5.11067],[-75.70367,5.11064],[-75.70367,5.11062],[-75.70366,5.11061],[-75.70365,5.11061],[-75.70364,5.11061],[-75.70361,5.11061],[-75.7036,5.1106],[-75.7036,5.11061]]]},"properties":{"FID":77,"OBJECTID":78,"Area_M2":62.21579455,"Amenaza_IN":"Alta","Shape_Leng":30.5254596386,"Shape_Area":62.2153233372}},{"type":"Feature","id":78,"geometry":{"type":"Polygon","coordinates":[[[-75.70361,5.11069],[-75.70359,5.11069],[-75.70357,5.1107],[-75.70358,5.11073],[-75.70358,5.11074],[-75.70358,5.11077],[-75.70358,5.11077],[-75.70359,5.11079],[-75.70362,5.11078],[-75.70366,5.11078],[-75.70366,5.11075],[-75.70366,5.11073],[-75.70365,5.11069],[-75.70363,5.11068],[-75.70361,5.11069]]]},"properties":{"FID":78,"OBJECTID":79,"Area_M2":95.4913327272,"Amenaza_IN":"Alta","Shape_Leng":38.3069009335,"Shape_Area":95.4907213262}},{"type":"Feature","id":79,"geometry":{"type":"Polygon","coordinates":[[[-75.70349,5.11069],[-75.70349,5.11074],[-75.70352,5.11075],[-75.70352,5.11077],[-75.70353,5.11077],[-75.70356,5.11077],[-75.70358,5.11077],[-75.70358,5.11074],[-75.70358,5.11073],[-75.70357,5.1107],[-75.70353,5.1107],[-75.70349,5.11069]]]},"properties":{"FID":79,"OBJECTID":80,"Area_M2":67.3521118991,"Amenaza_IN":"Alta","Shape_Leng":34.5795450361,"Shape_Area":67.3519565142}},{"type":"Feature","id":80,"geometry":{"type":"Polygon","coordinates":[[[-75.70335,5.11072],[-75.7033,5.11073],[-75.70332,5.11084],[-75.70336,5.11084],[-75.70342,5.11083],[-75.70346,5.11082],[-75.70346,5.11082],[-75.70346,5.11082],[-75.70348,5.11082],[-75.70349,5.11082],[-75.70348,5.11076],[-75.70348,5.11073],[-75.70345,5.11073],[-75.70344,5.11073],[-75.70344,5.11073],[-75.70344,5.11073],[-75.70341,5.11072],[-75.70335,5.11072]]]},"properties":{"FID":80,"OBJECTID":81,"Area_M2":225.541929773,"Amenaza_IN":"Alta","Shape_Leng":61.6250075776,"Shape_Area":225.541936349}},{"type":"Feature","id":81,"geometry":{"type":"Polygon","coordinates":[[[-75.70339,5.11111],[-75.70339,5.11112],[-75.70339,5.11115],[-75.70339,5.11115],[-75.70342,5.11115],[-75.70345,5.11115],[-75.70347,5.11115],[-75.7035,5.11114],[-75.7035,5.1111],[-75.7035,5.11109],[-75.70344,5.11109],[-75.70339,5.11109],[-75.70339,5.11111]]]},"properties":{"FID":81,"OBJECTID":82,"Area_M2":75.9798646872,"Amenaza_IN":"Alta","Shape_Leng":36.5306361885,"Shape_Area":75.9801343985}},{"type":"Feature","id":82,"geometry":{"type":"Polygon","coordinates":[[[-75.70355,5.11111],[-75.70354,5.11111],[-75.70354,5.11111],[-75.70351,5.11112],[-75.70351,5.11114],[-75.70351,5.11115],[-75.70355,5.11115],[-75.70355,5.11115],[-75.70355,5.11115],[-75.70356,5.11115],[-75.70355,5.11113],[-75.70355,5.11111],[-75.70355,5.11111]]]},"properties":{"FID":82,"OBJECTID":83,"Area_M2":21.2142876408,"Amenaza_IN":"Alta","Shape_Leng":18.4406364191,"Shape_Area":21.2140943766}},{"type":"Feature","id":83,"geometry":{"type":"Polygon","coordinates":[[[-75.70338,5.11117],[-75.70338,5.11117],[-75.70339,5.11117],[-75.70339,5.11118],[-75.70339,5.11119],[-75.70339,5.11119],[-75.70339,5.1112],[-75.70339,5.1112],[-75.70339,5.11121],[-75.70339,5.11122],[-75.7034,5.11122],[-75.7034,5.11122],[-75.70342,5.11122],[-75.70344,5.11121],[-75.70344,5.11121],[-75.70345,5.11121],[-75.70345,5.1112],[-75.70345,5.1112],[-75.70345,5.11119],[-75.70348,5.11119],[-75.70348,5.11118],[-75.70348,5.11117],[-75.70348,5.11116],[-75.70348,5.11115],[-75.70345,5.11116],[-75.70345,5.11116],[-75.70339,5.11116],[-75.70338,5.11116],[-75.70338,5.11117]]]},"properties":{"FID":83,"OBJECTID":84,"Area_M2":58.3343622682,"Amenaza_IN":"Alta","Shape_Leng":33.6900006179,"Shape_Area":58.3341566432}},{"type":"Feature","id":84,"geometry":{"type":"Polygon","coordinates":[[[-75.7035,5.11132],[-75.70355,5.11131],[-75.70355,5.1113],[-75.70357,5.1113],[-75.7036,5.11129],[-75.70358,5.11122],[-75.70356,5.11122],[-75.70356,5.11122],[-75.70356,5.11122],[-75.70355,5.11122],[-75.70354,5.11122],[-75.7035,5.11122],[-75.70349,5.11122],[-75.70348,5.11122],[-75.70348,5.11122],[-75.70347,5.11122],[-75.70348,5.11131],[-75.70348,5.11131],[-75.70348,5.11131],[-75.7035,5.1113],[-75.7035,5.11132]]]},"properties":{"FID":84,"OBJECTID":85,"Area_M2":124.483615882,"Amenaza_IN":"Alta","Shape_Leng":46.2114456427,"Shape_Area":124.483202808}},{"type":"Feature","id":85,"geometry":{"type":"Polygon","coordinates":[[[-75.70344,5.1113],[-75.70344,5.1113],[-75.70347,5.11129],[-75.70347,5.11122],[-75.70346,5.11122],[-75.70345,5.11121],[-75.70344,5.11121],[-75.70344,5.11121],[-75.70342,5.11122],[-75.7034,5.11122],[-75.7034,5.11122],[-75.70339,5.11122],[-75.70339,5.11121],[-75.70333,5.11121],[-75.70333,5.11123],[-75.70333,5.11124],[-75.70333,5.11126],[-75.70333,5.11127],[-75.70338,5.11127],[-75.7034,5.11127],[-75.70342,5.11127],[-75.70343,5.11127],[-75.70344,5.1113]]]},"properties":{"FID":85,"OBJECTID":86,"Area_M2":101.11430648,"Amenaza_IN":"Alta","Shape_Leng":48.1987004236,"Shape_Area":101.113712898}},{"type":"Feature","id":86,"geometry":{"type":"Polygon","coordinates":[[[-75.70334,5.11135],[-75.70334,5.11135],[-75.70334,5.11136],[-75.70337,5.11135],[-75.70346,5.11133],[-75.70346,5.11133],[-75.70346,5.11131],[-75.70344,5.11132],[-75.70344,5.11131],[-75.70344,5.1113],[-75.70344,5.1113],[-75.70343,5.11127],[-75.70342,5.11127],[-75.7034,5.11127],[-75.70338,5.11127],[-75.70333,5.11127],[-75.70333,5.11128],[-75.70331,5.11128],[-75.70327,5.11128],[-75.70327,5.11129],[-75.70328,5.11134],[-75.70328,5.11134],[-75.70333,5.11133],[-75.70334,5.11133],[-75.70334,5.11135]]]},"properties":{"FID":86,"OBJECTID":87,"Area_M2":150.233644624,"Amenaza_IN":"Alta","Shape_Leng":58.5111348486,"Shape_Area":150.234267778}},{"type":"Feature","id":87,"geometry":{"type":"Polygon","coordinates":[[[-75.70355,5.11133],[-75.70355,5.11133],[-75.70351,5.11134],[-75.7035,5.11134],[-75.70334,5.11137],[-75.70329,5.11138],[-75.70333,5.11157],[-75.70336,5.11174],[-75.70336,5.11174],[-75.70337,5.11176],[-75.70337,5.11176],[-75.70363,5.11176],[-75.70363,5.11176],[-75.70364,5.11176],[-75.70364,5.11175],[-75.70364,5.11173],[-75.7036,5.11156],[-75.70356,5.11133],[-75.70355,5.11133]]]},"properties":{"FID":87,"OBJECTID":88,"Area_M2":1377.0356842,"Amenaza_IN":"Alta","Shape_Leng":152.305340133,"Shape_Area":1377.03715755}},{"type":"Feature","id":88,"geometry":{"type":"Polygon","coordinates":[[[-75.70376,5.11197],[-75.70375,5.11197],[-75.7037,5.11198],[-75.70366,5.11198],[-75.70366,5.11198],[-75.70366,5.11198],[-75.70366,5.11198],[-75.70366,5.11198],[-75.70366,5.11198],[-75.70366,5.11199],[-75.70366,5.11199],[-75.70366,5.11205],[-75.70367,5.11205],[-75.70372,5.11204],[-75.70373,5.11204],[-75.70376,5.11204],[-75.70377,5.11203],[-75.70377,5.11203],[-75.70377,5.11197],[-75.70376,5.11197]]]},"properties":{"FID":88,"OBJECTID":89,"Area_M2":87.8645490502,"Amenaza_IN":"Alta","Shape_Leng":39.127226669,"Shape_Area":87.8647398188}},{"type":"Feature","id":89,"geometry":{"type":"Polygon","coordinates":[[[-75.70371,5.11192],[-75.70371,5.11192],[-75.70369,5.11192],[-75.70366,5.11193],[-75.70366,5.11194],[-75.70366,5.11195],[-75.70366,5.11195],[-75.70366,5.11198],[-75.70366,5.11198],[-75.70366,5.11198],[-75.70366,5.11198],[-75.70366,5.11198],[-75.70366,5.11198],[-75.7037,5.11198],[-75.70375,5.11197],[-75.70375,5.11195],[-75.70375,5.11192],[-75.70371,5.11192]]]},"properties":{"FID":89,"OBJECTID":90,"Area_M2":60.4717616415,"Amenaza_IN":"Alta","Shape_Leng":32.2866779727,"Shape_Area":60.47150541}},{"type":"Feature","id":90,"geometry":{"type":"Polygon","coordinates":[[[-75.70371,5.11169],[-75.70368,5.11169],[-75.70365,5.1116],[-75.70363,5.1116],[-75.70364,5.11173],[-75.70371,5.11173],[-75.70371,5.11173],[-75.70372,5.11169],[-75.70371,5.11169]]]},"properties":{"FID":90,"OBJECTID":91,"Area_M2":77.340431379,"Amenaza_IN":"Alta","Shape_Leng":44.842487331,"Shape_Area":77.3405126772}},{"type":"Feature","id":91,"geometry":{"type":"Polygon","coordinates":[[[-75.70358,5.11186],[-75.70361,5.11201],[-75.70361,5.11201],[-75.70361,5.11201],[-75.70364,5.112],[-75.70364,5.112],[-75.70365,5.11199],[-75.70365,5.11199],[-75.70366,5.11199],[-75.70365,5.11198],[-75.70365,5.11198],[-75.70365,5.11192],[-75.70365,5.11192],[-75.70364,5.11186],[-75.70363,5.11185],[-75.70358,5.11186]]]},"properties":{"FID":91,"OBJECTID":92,"Area_M2":98.7867069986,"Amenaza_IN":"Alta","Shape_Leng":44.2938578598,"Shape_Area":98.7867726926}},{"type":"Feature","id":92,"geometry":{"type":"Polygon","coordinates":[[[-75.70373,5.11204],[-75.70372,5.11204],[-75.70367,5.11205],[-75.70366,5.11205],[-75.70363,5.11205],[-75.70362,5.11205],[-75.70362,5.11205],[-75.70362,5.11205],[-75.70362,5.11205],[-75.70362,5.11205],[-75.70362,5.11206],[-75.70364,5.1121],[-75.70364,5.1121],[-75.70365,5.11214],[-75.70366,5.11213],[-75.70367,5.11213],[-75.70369,5.11213],[-75.70375,5.1121],[-75.70375,5.1121],[-75.70377,5.1121],[-75.70377,5.1121],[-75.70377,5.11208],[-75.70376,5.11204],[-75.70373,5.11204]]]},"properties":{"FID":92,"OBJECTID":93,"Area_M2":125.055102945,"Amenaza_IN":"Alta","Shape_Leng":46.4715210185,"Shape_Area":125.054771607}},{"type":"Feature","id":93,"geometry":{"type":"Polygon","coordinates":[[[-75.7037,5.11215],[-75.70369,5.11215],[-75.70368,5.11216],[-75.70365,5.11217],[-75.70364,5.11217],[-75.70365,5.11219],[-75.70366,5.11221],[-75.70367,5.11223],[-75.70367,5.11224],[-75.70369,5.11223],[-75.70371,5.11223],[-75.70373,5.11222],[-75.70373,5.1122],[-75.70372,5.11217],[-75.70371,5.11215],[-75.70371,5.11215],[-75.7037,5.11215]]]},"properties":{"FID":93,"OBJECTID":94,"Area_M2":64.8417795765,"Amenaza_IN":"Alta","Shape_Leng":32.2748159343,"Shape_Area":64.8417230507}},{"type":"Feature","id":94,"geometry":{"type":"Polygon","coordinates":[[[-75.70361,5.11221],[-75.70363,5.11224],[-75.70364,5.11224],[-75.70366,5.11224],[-75.70367,5.11224],[-75.70367,5.11223],[-75.70366,5.11221],[-75.70365,5.11219],[-75.70364,5.11217],[-75.70364,5.11215],[-75.70359,5.11216],[-75.70359,5.11216],[-75.7036,5.11219],[-75.7036,5.11219],[-75.7036,5.11219],[-75.7036,5.1122],[-75.70361,5.1122],[-75.70361,5.1122],[-75.70361,5.1122],[-75.70361,5.11221]]]},"properties":{"FID":94,"OBJECTID":95,"Area_M2":49.7032803983,"Amenaza_IN":"Alta","Shape_Leng":31.9080402342,"Shape_Area":49.7036485841}},{"type":"Feature","id":95,"geometry":{"type":"Polygon","coordinates":[[[-75.70358,5.11215],[-75.70358,5.11215],[-75.70356,5.11216],[-75.70355,5.11216],[-75.70355,5.11216],[-75.70354,5.11217],[-75.70354,5.11217],[-75.70354,5.11217],[-75.70354,5.11218],[-75.70354,5.11221],[-75.70359,5.1122],[-75.7036,5.11219],[-75.70359,5.11219],[-75.70359,5.11219],[-75.70359,5.11217],[-75.70359,5.11216],[-75.70359,5.11215],[-75.70358,5.11215]]]},"properties":{"FID":95,"OBJECTID":96,"Area_M2":29.9094453406,"Amenaza_IN":"Alta","Shape_Leng":22.305957902,"Shape_Area":29.9092716708}},{"type":"Feature","id":96,"geometry":{"type":"Polygon","coordinates":[[[-75.70357,5.1123],[-75.70357,5.1123],[-75.70357,5.1123],[-75.70357,5.11231],[-75.70357,5.11231],[-75.70358,5.11233],[-75.70366,5.11231],[-75.70365,5.11229],[-75.70365,5.11228],[-75.70365,5.11228],[-75.70365,5.11227],[-75.70364,5.11226],[-75.70364,5.11226],[-75.70364,5.11225],[-75.70364,5.11225],[-75.70364,5.11224],[-75.70363,5.11224],[-75.70362,5.11225],[-75.70361,5.11225],[-75.7036,5.11224],[-75.70359,5.11221],[-75.70359,5.11221],[-75.70359,5.11221],[-75.70359,5.11221],[-75.70359,5.11221],[-75.70355,5.11222],[-75.70355,5.11222],[-75.70354,5.11221],[-75.70354,5.11218],[-75.70352,5.11218],[-75.70352,5.11218],[-75.70352,5.11218],[-75.7035,5.11219],[-75.70349,5.1122],[-75.70346,5.11222],[-75.70346,5.11222],[-75.70346,5.11222],[-75.70346,5.11223],[-75.70346,5.11223],[-75.70348,5.11229],[-75.70348,5.11229],[-75.70348,5.1123],[-75.70349,5.11231],[-75.70349,5.11231],[-75.70349,5.11231],[-75.70351,5.11231],[-75.70353,5.11231],[-75.70356,5.1123],[-75.70356,5.1123],[-75.70357,5.1123]]]},"properties":{"FID":96,"OBJECTID":97,"Area_M2":219.606165291,"Amenaza_IN":"Alta","Shape_Leng":69.6108704582,"Shape_Area":219.605072531}},{"type":"Feature","id":97,"geometry":{"type":"Polygon","coordinates":[[[-75.70378,5.11257],[-75.7038,5.11257],[-75.70381,5.11257],[-75.70384,5.11256],[-75.70384,5.11257],[-75.70384,5.11257],[-75.70386,5.11257],[-75.70386,5.11257],[-75.70386,5.11257],[-75.70386,5.11256],[-75.70386,5.11254],[-75.70389,5.11254],[-75.70389,5.11254],[-75.70389,5.11254],[-75.70389,5.11251],[-75.70389,5.11251],[-75.70388,5.11248],[-75.70386,5.11249],[-75.70386,5.11249],[-75.70385,5.11249],[-75.70385,5.11245],[-75.70385,5.11244],[-75.7038,5.11245],[-75.7038,5.11245],[-75.70377,5.11245],[-75.70377,5.11243],[-75.70377,5.11243],[-75.70375,5.11243],[-75.70375,5.11243],[-75.70375,5.11245],[-75.70374,5.11245],[-75.70374,5.11245],[-75.70374,5.11245],[-75.70375,5.11247],[-75.70375,5.11247],[-75.70376,5.11247],[-75.70376,5.11248],[-75.70376,5.11249],[-75.70376,5.11251],[-75.70377,5.11253],[-75.70377,5.11253],[-75.70377,5.11253],[-75.70377,5.11255],[-75.70378,5.11257]]]},"properties":{"FID":97,"OBJECTID":98,"Area_M2":162.68793737,"Amenaza_IN":"Alta","Shape_Leng":64.4110643833,"Shape_Area":162.688004199}},{"type":"Feature","id":98,"geometry":{"type":"Polygon","coordinates":[[[-75.70362,5.11251],[-75.70361,5.11253],[-75.70361,5.11253],[-75.70362,5.11253],[-75.70362,5.11254],[-75.70362,5.11256],[-75.70362,5.11258],[-75.70365,5.11258],[-75.70367,5.11258],[-75.70366,5.11255],[-75.70366,5.11253],[-75.70366,5.11252],[-75.70366,5.11251],[-75.70366,5.1125],[-75.70366,5.1125],[-75.70366,5.11249],[-75.70366,5.11248],[-75.70366,5.11248],[-75.70366,5.11248],[-75.70366,5.11247],[-75.70366,5.11247],[-75.70366,5.11247],[-75.70366,5.11247],[-75.70365,5.11247],[-75.70364,5.11247],[-75.70363,5.11247],[-75.70362,5.11247],[-75.70361,5.11247],[-75.70357,5.11246],[-75.70357,5.11247],[-75.70357,5.11248],[-75.70357,5.1125],[-75.70357,5.1125],[-75.70357,5.11253],[-75.70357,5.11253],[-75.70357,5.11253],[-75.70357,5.11253],[-75.70357,5.11253],[-75.70358,5.11253],[-75.7036,5.11254],[-75.7036,5.11252],[-75.70361,5.1125],[-75.70361,5.11249],[-75.70361,5.11249],[-75.70361,5.11249],[-75.70362,5.11249],[-75.70362,5.11251]]]},"properties":{"FID":98,"OBJECTID":99,"Area_M2":94.4628345595,"Amenaza_IN":"Alta","Shape_Leng":54.0493836162,"Shape_Area":94.4637327493}},{"type":"Feature","id":99,"geometry":{"type":"Polygon","coordinates":[[[-75.7037,5.11248],[-75.70369,5.11248],[-75.70369,5.11248],[-75.70369,5.11248],[-75.70368,5.11248],[-75.70367,5.11248],[-75.70366,5.11248],[-75.70366,5.11248],[-75.70366,5.11248],[-75.70366,5.11249],[-75.70366,5.1125],[-75.70366,5.1125],[-75.70366,5.11251],[-75.70366,5.11252],[-75.70366,5.11253],[-75.70366,5.11255],[-75.70367,5.11258],[-75.70368,5.11257],[-75.70368,5.11257],[-75.7037,5.11257],[-75.7037,5.11257],[-75.7037,5.11255],[-75.7037,5.11254],[-75.7037,5.11253],[-75.70371,5.11253],[-75.70372,5.11253],[-75.70372,5.11253],[-75.70373,5.11253],[-75.70372,5.11252],[-75.70372,5.11251],[-75.70372,5.11249],[-75.70371,5.11248],[-75.70371,5.11248],[-75.7037,5.11248],[-75.7037,5.11248],[-75.7037,5.11248],[-75.7037,5.11248]]]},"properties":{"FID":99,"OBJECTID":100,"Area_M2":60.7416089642,"Amenaza_IN":"Alta","Shape_Leng":34.3276192715,"Shape_Area":60.7411327039}},{"type":"Feature","id":100,"geometry":{"type":"Polygon","coordinates":[[[-75.7037,5.11259],[-75.70369,5.11262],[-75.70369,5.11265],[-75.7037,5.11265],[-75.70372,5.11265],[-75.70373,5.11265],[-75.70373,5.11265],[-75.70373,5.11265],[-75.70374,5.11265],[-75.70378,5.11265],[-75.7038,5.11265],[-75.7038,5.11259],[-75.70375,5.11259],[-75.70374,5.11259],[-75.70374,5.11259],[-75.70374,5.11259],[-75.70372,5.11258],[-75.70372,5.11258],[-75.7037,5.11258],[-75.7037,5.11258],[-75.7037,5.11259]]]},"properties":{"FID":100,"OBJECTID":101,"Area_M2":83.3671022079,"Amenaza_IN":"Alta","Shape_Leng":37.8130152737,"Shape_Area":83.3669803849}},{"type":"Feature","id":101,"geometry":{"type":"Polygon","coordinates":[[[-75.70378,5.11271],[-75.70378,5.11273],[-75.70379,5.11273],[-75.70384,5.11273],[-75.70385,5.11273],[-75.70385,5.11272],[-75.70385,5.11265],[-75.70385,5.11265],[-75.70381,5.11264],[-75.70381,5.11266],[-75.7038,5.11265],[-75.70378,5.11265],[-75.70378,5.11271]]]},"properties":{"FID":101,"OBJECTID":102,"Area_M2":78.3251547631,"Amenaza_IN":"Alta","Shape_Leng":36.4005106462,"Shape_Area":78.3258452048}},{"type":"Feature","id":102,"geometry":{"type":"Polygon","coordinates":[[[-75.70372,5.11266],[-75.70372,5.11268],[-75.70372,5.11268],[-75.70372,5.11269],[-75.70373,5.1127],[-75.70374,5.1127],[-75.70377,5.1127],[-75.70378,5.11271],[-75.70378,5.11265],[-75.70373,5.11265],[-75.70373,5.11265],[-75.70373,5.11265],[-75.70372,5.11265],[-75.70372,5.11266]]]},"properties":{"FID":102,"OBJECTID":103,"Area_M2":37.4809783944,"Amenaza_IN":"Alta","Shape_Leng":24.8140612238,"Shape_Area":37.4806993466}},{"type":"Feature","id":103,"geometry":{"type":"Polygon","coordinates":[[[-75.70371,5.11269],[-75.70371,5.1127],[-75.70371,5.1127],[-75.7037,5.1127],[-75.7037,5.1127],[-75.7037,5.11271],[-75.7037,5.11273],[-75.7037,5.11273],[-75.7037,5.11273],[-75.70369,5.11274],[-75.7037,5.11277],[-75.70376,5.11278],[-75.70376,5.11273],[-75.70377,5.1127],[-75.70374,5.1127],[-75.70373,5.1127],[-75.70372,5.11269],[-75.70371,5.11269]]]},"properties":{"FID":103,"OBJECTID":104,"Area_M2":62.8702582755,"Amenaza_IN":"Alta","Shape_Leng":31.0769917981,"Shape_Area":62.8694605908}},{"type":"Feature","id":104,"geometry":{"type":"Polygon","coordinates":[[[-75.70374,5.11291],[-75.70374,5.11293],[-75.70382,5.11293],[-75.70381,5.11289],[-75.70381,5.11288],[-75.70384,5.11288],[-75.70384,5.11283],[-75.70384,5.11273],[-75.70379,5.11273],[-75.70378,5.11273],[-75.70376,5.11273],[-75.70376,5.11278],[-75.70375,5.11285],[-75.70374,5.11285],[-75.70374,5.11288],[-75.70374,5.11291]]]},"properties":{"FID":104,"OBJECTID":105,"Area_M2":204.922959105,"Amenaza_IN":"Alta","Shape_Leng":64.4958496421,"Shape_Area":204.923673819}},{"type":"Feature","id":105,"geometry":{"type":"Polygon","coordinates":[[[-75.70368,5.1128],[-75.70368,5.11284],[-75.70369,5.11285],[-75.70369,5.11288],[-75.70374,5.11288],[-75.70374,5.11285],[-75.70375,5.11285],[-75.70376,5.11278],[-75.7037,5.11277],[-75.70369,5.11277],[-75.70369,5.11279],[-75.70368,5.1128]]]},"properties":{"FID":105,"OBJECTID":106,"Area_M2":78.3498419104,"Amenaza_IN":"Alta","Shape_Leng":38.1263860978,"Shape_Area":78.3502255049}},{"type":"Feature","id":106,"geometry":{"type":"Polygon","coordinates":[[[-75.7034,5.11246],[-75.7034,5.11246],[-75.70342,5.1125],[-75.70342,5.1125],[-75.70343,5.1125],[-75.70343,5.1125],[-75.70343,5.11251],[-75.70345,5.11253],[-75.70346,5.11252],[-75.70347,5.11252],[-75.70349,5.1125],[-75.7035,5.1125],[-75.7035,5.1125],[-75.70351,5.11249],[-75.70351,5.11249],[-75.70351,5.11249],[-75.7035,5.11249],[-75.70349,5.11248],[-75.70349,5.11248],[-75.70349,5.11248],[-75.70344,5.11243],[-75.7034,5.11246]]]},"properties":{"FID":106,"OBJECTID":107,"Area_M2":69.5014620567,"Amenaza_IN":"Alta","Shape_Leng":34.0862846245,"Shape_Area":69.5002725478}},{"type":"Feature","id":107,"geometry":{"type":"Polygon","coordinates":[[[-75.70351,5.11266],[-75.70352,5.11266],[-75.70353,5.11269],[-75.70359,5.11267],[-75.70359,5.11261],[-75.70359,5.1126],[-75.70359,5.11256],[-75.70356,5.11254],[-75.70356,5.11254],[-75.70355,5.11254],[-75.70355,5.11254],[-75.70355,5.11254],[-75.70352,5.11251],[-75.70352,5.11251],[-75.70351,5.11249],[-75.70351,5.11249],[-75.7035,5.1125],[-75.7035,5.1125],[-75.70349,5.1125],[-75.70347,5.11252],[-75.70346,5.11252],[-75.70345,5.11253],[-75.70347,5.11259],[-75.70349,5.11262],[-75.70349,5.11264],[-75.7035,5.11264],[-75.70351,5.11264],[-75.70351,5.11266]]]},"properties":{"FID":107,"OBJECTID":108,"Area_M2":204.391614833,"Amenaza_IN":"Alta","Shape_Leng":57.9808709902,"Shape_Area":204.390893393}},{"type":"Feature","id":108,"geometry":{"type":"Polygon","coordinates":[[[-75.70359,5.1127],[-75.70359,5.11272],[-75.70359,5.11273],[-75.70359,5.11273],[-75.70359,5.11273],[-75.70359,5.11274],[-75.70359,5.11274],[-75.70358,5.11276],[-75.70358,5.11278],[-75.70359,5.11279],[-75.7036,5.1128],[-75.70361,5.11282],[-75.70362,5.11282],[-75.70367,5.11283],[-75.70368,5.11282],[-75.70368,5.11282],[-75.70368,5.11281],[-75.70368,5.1128],[-75.70369,5.11279],[-75.70369,5.11277],[-75.70369,5.11276],[-75.70369,5.11276],[-75.70369,5.11276],[-75.70369,5.11272],[-75.70369,5.1127],[-75.70369,5.11269],[-75.70363,5.11267],[-75.7036,5.11267],[-75.70359,5.11267],[-75.70359,5.1127]]]},"properties":{"FID":108,"OBJECTID":109,"Area_M2":175.30465148,"Amenaza_IN":"Alta","Shape_Leng":53.3501061305,"Shape_Area":175.304318751}},{"type":"Feature","id":109,"geometry":{"type":"Polygon","coordinates":[[[-75.70359,5.11283],[-75.7036,5.11285],[-75.70357,5.11286],[-75.70353,5.11288],[-75.70357,5.11293],[-75.70359,5.11292],[-75.70359,5.11292],[-75.7036,5.11292],[-75.70361,5.11291],[-75.70362,5.1129],[-75.70362,5.1129],[-75.70364,5.11289],[-75.70365,5.11288],[-75.70364,5.11288],[-75.70364,5.11288],[-75.70362,5.11282],[-75.70361,5.11282],[-75.70359,5.11283]]]},"properties":{"FID":109,"OBJECTID":110,"Area_M2":79.5237398106,"Amenaza_IN":"Alta","Shape_Leng":38.4590889716,"Shape_Area":79.5241560693}},{"type":"Feature","id":110,"geometry":{"type":"Polygon","coordinates":[[[-75.70362,5.1129],[-75.70361,5.11291],[-75.7036,5.11292],[-75.70363,5.11296],[-75.70363,5.11297],[-75.70365,5.11296],[-75.70368,5.11293],[-75.70364,5.11289],[-75.70362,5.1129]]]},"properties":{"FID":110,"OBJECTID":111,"Area_M2":37.9026310698,"Amenaza_IN":"Alta","Shape_Leng":24.8074290582,"Shape_Area":37.902302394}},{"type":"Feature","id":111,"geometry":{"type":"Polygon","coordinates":[[[-75.70366,5.11297],[-75.70363,5.11299],[-75.70363,5.11299],[-75.70356,5.11302],[-75.70357,5.11307],[-75.70361,5.11306],[-75.70362,5.11306],[-75.70362,5.11306],[-75.70364,5.11305],[-75.70368,5.11303],[-75.70368,5.11302],[-75.70368,5.11302],[-75.70369,5.11302],[-75.7037,5.11301],[-75.70372,5.113],[-75.70372,5.113],[-75.7037,5.11296],[-75.70369,5.11296],[-75.70368,5.11293],[-75.70368,5.11293],[-75.70365,5.11296],[-75.70366,5.11297]]]},"properties":{"FID":111,"OBJECTID":112,"Area_M2":122.001292448,"Amenaza_IN":"Alta","Shape_Leng":53.9578365046,"Shape_Area":122.001488055}},{"type":"Feature","id":112,"geometry":{"type":"Polygon","coordinates":[[[-75.70368,5.11302],[-75.70369,5.11304],[-75.70372,5.11303],[-75.70374,5.11305],[-75.70375,5.11304],[-75.70377,5.11303],[-75.70375,5.11299],[-75.70374,5.11299],[-75.70373,5.11299],[-75.70372,5.113],[-75.70372,5.113],[-75.7037,5.11301],[-75.70369,5.11302],[-75.70368,5.11302]]]},"properties":{"FID":112,"OBJECTID":113,"Area_M2":32.8161762376,"Amenaza_IN":"Alta","Shape_Leng":27.0619543814,"Shape_Area":32.8163231315}},{"type":"Feature","id":113,"geometry":{"type":"Polygon","coordinates":[[[-75.70364,5.11305],[-75.70362,5.11306],[-75.70362,5.11306],[-75.70361,5.11306],[-75.70362,5.11308],[-75.70363,5.11312],[-75.70365,5.11311],[-75.70365,5.1131],[-75.70366,5.1131],[-75.70367,5.1131],[-75.70368,5.11309],[-75.70367,5.11307],[-75.70366,5.11304],[-75.70364,5.11305]]]},"properties":{"FID":113,"OBJECTID":114,"Area_M2":38.5008500073,"Amenaza_IN":"Alta","Shape_Leng":25.0962558878,"Shape_Area":38.5012671542}},{"type":"Feature","id":114,"geometry":{"type":"Polygon","coordinates":[[[-75.70366,5.1131],[-75.70365,5.11311],[-75.70363,5.11312],[-75.70364,5.11315],[-75.70365,5.11322],[-75.70366,5.11323],[-75.70368,5.11323],[-75.70369,5.11323],[-75.70372,5.11322],[-75.7037,5.11313],[-75.70374,5.11312],[-75.70373,5.11309],[-75.7037,5.1131],[-75.70369,5.1131],[-75.70369,5.11309],[-75.70368,5.11309],[-75.70367,5.1131],[-75.70366,5.1131]]]},"properties":{"FID":114,"OBJECTID":115,"Area_M2":122.140869093,"Amenaza_IN":"Alta","Shape_Leng":49.1087088489,"Shape_Area":122.141167675}},{"type":"Feature","id":115,"geometry":{"type":"Polygon","coordinates":[[[-75.7036,5.11327],[-75.7036,5.11327],[-75.70361,5.1133],[-75.70363,5.1133],[-75.70365,5.11329],[-75.70369,5.11329],[-75.70369,5.11328],[-75.70368,5.11324],[-75.70368,5.11323],[-75.70366,5.11323],[-75.70365,5.11322],[-75.70364,5.11323],[-75.70363,5.11321],[-75.70363,5.11321],[-75.70361,5.11321],[-75.70359,5.11322],[-75.7036,5.11327]]]},"properties":{"FID":115,"OBJECTID":116,"Area_M2":74.8086873684,"Amenaza_IN":"Alta","Shape_Leng":36.5551934198,"Shape_Area":74.8093319282}},{"type":"Feature","id":116,"geometry":{"type":"Polygon","coordinates":[[[-75.70389,5.11328],[-75.70385,5.11329],[-75.70385,5.11329],[-75.70385,5.11329],[-75.70386,5.11334],[-75.70389,5.11334],[-75.7039,5.11333],[-75.70391,5.11333],[-75.7039,5.11327],[-75.70389,5.11328]]]},"properties":{"FID":116,"OBJECTID":117,"Area_M2":35.4617154912,"Amenaza_IN":"Alta","Shape_Leng":23.917383549,"Shape_Area":35.4618376122}},{"type":"Feature","id":117,"geometry":{"type":"Polygon","coordinates":[[[-75.7037,5.11333],[-75.70366,5.11334],[-75.70363,5.11335],[-75.70362,5.11335],[-75.70361,5.11335],[-75.70361,5.11336],[-75.70362,5.11338],[-75.70362,5.11338],[-75.70362,5.11341],[-75.70363,5.11341],[-75.70368,5.1134],[-75.70368,5.1134],[-75.70372,5.11339],[-75.70373,5.11339],[-75.70372,5.11336],[-75.70372,5.11333],[-75.7037,5.11333]]]},"properties":{"FID":117,"OBJECTID":118,"Area_M2":85.2218745992,"Amenaza_IN":"Alta","Shape_Leng":38.3012311579,"Shape_Area":85.221731979}},{"type":"Feature","id":118,"geometry":{"type":"Polygon","coordinates":[[[-75.70372,5.11347],[-75.70373,5.1135],[-75.70378,5.11349],[-75.70381,5.11349],[-75.70383,5.11348],[-75.70387,5.11348],[-75.70387,5.11345],[-75.70387,5.11342],[-75.70387,5.11342],[-75.70386,5.11336],[-75.70385,5.11337],[-75.70384,5.11337],[-75.70377,5.11337],[-75.70376,5.11337],[-75.70373,5.11339],[-75.70372,5.11339],[-75.70368,5.1134],[-75.70368,5.1134],[-75.70368,5.11342],[-75.70366,5.11343],[-75.70365,5.11343],[-75.70366,5.11344],[-75.70366,5.11345],[-75.70367,5.11347],[-75.70368,5.11347],[-75.70372,5.11346],[-75.70372,5.11347]]]},"properties":{"FID":118,"OBJECTID":119,"Area_M2":250.530627099,"Amenaza_IN":"Alta","Shape_Leng":69.0248816293,"Shape_Area":250.530850794}},{"type":"Feature","id":119,"geometry":{"type":"Polygon","coordinates":[[[-75.70381,5.11373],[-75.70385,5.11371],[-75.70384,5.11368],[-75.70384,5.11366],[-75.70384,5.11366],[-75.70384,5.11365],[-75.70384,5.11365],[-75.70383,5.11364],[-75.70383,5.11364],[-75.70383,5.11363],[-75.70383,5.11362],[-75.70383,5.11357],[-75.7038,5.11357],[-75.7038,5.11357],[-75.70379,5.11354],[-75.70379,5.1135],[-75.70375,5.11351],[-75.70376,5.11353],[-75.70374,5.11353],[-75.70374,5.11354],[-75.70374,5.11359],[-75.70371,5.11359],[-75.70373,5.11367],[-75.70374,5.11371],[-75.70379,5.11369],[-75.70381,5.11373]]]},"properties":{"FID":119,"OBJECTID":120,"Area_M2":220.262974807,"Amenaza_IN":"Alta","Shape_Leng":72.0680819706,"Shape_Area":220.262208719}},{"type":"Feature","id":120,"geometry":{"type":"Polygon","coordinates":[[[-75.70388,5.11358],[-75.70392,5.11358],[-75.70393,5.11356],[-75.70394,5.11356],[-75.70394,5.11356],[-75.70395,5.1135],[-75.70395,5.11349],[-75.70394,5.11349],[-75.70394,5.11349],[-75.70391,5.11348],[-75.70386,5.11349],[-75.70383,5.11349],[-75.70379,5.1135],[-75.70379,5.11354],[-75.7038,5.11357],[-75.70387,5.11356],[-75.70388,5.11358]]]},"properties":{"FID":120,"OBJECTID":121,"Area_M2":145.875230627,"Amenaza_IN":"Alta","Shape_Leng":50.8904565405,"Shape_Area":145.874422358}},{"type":"Feature","id":121,"geometry":{"type":"Polygon","coordinates":[[[-75.70387,5.11386],[-75.70388,5.11386],[-75.7039,5.11385],[-75.70394,5.11385],[-75.70395,5.11385],[-75.70396,5.11385],[-75.70396,5.11381],[-75.70396,5.11381],[-75.70396,5.11381],[-75.70395,5.11377],[-75.70395,5.11374],[-75.70394,5.11374],[-75.70393,5.11374],[-75.70393,5.11373],[-75.70389,5.11372],[-75.70387,5.11372],[-75.70387,5.11375],[-75.70387,5.11375],[-75.70387,5.11379],[-75.70387,5.11379],[-75.70387,5.11381],[-75.70387,5.11386]]]},"properties":{"FID":121,"OBJECTID":122,"Area_M2":132.37873697,"Amenaza_IN":"Alta","Shape_Leng":48.0038670001,"Shape_Area":132.379051847}},{"type":"Feature","id":122,"geometry":{"type":"Polygon","coordinates":[[[-75.70382,5.11403],[-75.70389,5.11401],[-75.70388,5.11399],[-75.70388,5.11398],[-75.70387,5.11395],[-75.70384,5.11396],[-75.70383,5.11393],[-75.70383,5.11391],[-75.70383,5.11391],[-75.70383,5.11391],[-75.70382,5.1139],[-75.70382,5.1139],[-75.7038,5.11391],[-75.70376,5.11392],[-75.70376,5.11393],[-75.70377,5.11397],[-75.70378,5.11399],[-75.70378,5.11402],[-75.70382,5.11401],[-75.70382,5.11403]]]},"properties":{"FID":122,"OBJECTID":123,"Area_M2":117.200335196,"Amenaza_IN":"Alta","Shape_Leng":49.3055287802,"Shape_Area":117.200590584}},{"type":"Feature","id":123,"geometry":{"type":"Polygon","coordinates":[[[-75.70394,5.11396],[-75.70393,5.11396],[-75.70391,5.11396],[-75.70391,5.11396],[-75.7039,5.11397],[-75.70389,5.11397],[-75.70389,5.11398],[-75.70389,5.11398],[-75.70389,5.11399],[-75.7039,5.11401],[-75.7039,5.11401],[-75.7039,5.11401],[-75.7039,5.11403],[-75.70394,5.11402],[-75.70394,5.11402],[-75.70397,5.11401],[-75.70396,5.114],[-75.70398,5.114],[-75.70397,5.11395],[-75.70394,5.11396]]]},"properties":{"FID":123,"OBJECTID":124,"Area_M2":56.0218974109,"Amenaza_IN":"Alta","Shape_Leng":31.4226930775,"Shape_Area":56.022121638}},{"type":"Feature","id":124,"geometry":{"type":"Polygon","coordinates":[[[-75.70397,5.11402],[-75.70395,5.11403],[-75.70395,5.11403],[-75.70389,5.11404],[-75.7039,5.11409],[-75.70396,5.11408],[-75.70396,5.11408],[-75.70398,5.11408],[-75.70402,5.11407],[-75.70402,5.11406],[-75.70402,5.11406],[-75.70402,5.11406],[-75.70401,5.114],[-75.70397,5.11402]]]},"properties":{"FID":124,"OBJECTID":125,"Area_M2":90.0413427101,"Amenaza_IN":"Alta","Shape_Leng":40.3922176195,"Shape_Area":90.0412638035}},{"type":"Feature","id":125,"geometry":{"type":"Polygon","coordinates":[[[-75.70391,5.11413],[-75.70391,5.11417],[-75.70396,5.11416],[-75.70398,5.11416],[-75.704,5.11416],[-75.70399,5.11409],[-75.70396,5.11409],[-75.70395,5.11409],[-75.7039,5.1141],[-75.70391,5.11413]]]},"properties":{"FID":125,"OBJECTID":126,"Area_M2":77.8731396242,"Amenaza_IN":"Alta","Shape_Leng":35.4045343633,"Shape_Area":77.8734962804}},{"type":"Feature","id":126,"geometry":{"type":"Polygon","coordinates":[[[-75.70383,5.11415],[-75.70383,5.11418],[-75.70382,5.11419],[-75.70382,5.11422],[-75.70386,5.11422],[-75.70386,5.1142],[-75.70391,5.11419],[-75.70389,5.11414],[-75.70389,5.1141],[-75.70382,5.11412],[-75.70383,5.11415]]]},"properties":{"FID":126,"OBJECTID":127,"Area_M2":86.2610932279,"Amenaza_IN":"Alta","Shape_Leng":41.0628872693,"Shape_Area":86.2608428216}},{"type":"Feature","id":127,"geometry":{"type":"Polygon","coordinates":[[[-75.70385,5.11432],[-75.70386,5.11433],[-75.70388,5.11432],[-75.70387,5.11431],[-75.70387,5.11429],[-75.70388,5.11429],[-75.70386,5.11424],[-75.70382,5.11425],[-75.70382,5.11425],[-75.70382,5.11427],[-75.70383,5.11428],[-75.70384,5.11431],[-75.70384,5.11431],[-75.70385,5.1143],[-75.70385,5.11432]]]},"properties":{"FID":127,"OBJECTID":128,"Area_M2":36.181187958,"Amenaza_IN":"Alta","Shape_Leng":27.860690341,"Shape_Area":36.1808155299}},{"type":"Feature","id":128,"geometry":{"type":"Polygon","coordinates":[[[-75.70397,5.11444],[-75.70396,5.11444],[-75.70395,5.11444],[-75.70394,5.11444],[-75.70395,5.11446],[-75.70395,5.11446],[-75.70396,5.11446],[-75.70397,5.11449],[-75.70398,5.11454],[-75.70398,5.11454],[-75.70403,5.11454],[-75.70403,5.11454],[-75.70404,5.11454],[-75.70404,5.11454],[-75.70404,5.11453],[-75.70404,5.11449],[-75.70404,5.11448],[-75.70404,5.11447],[-75.70402,5.1144],[-75.70398,5.1144],[-75.70398,5.11439],[-75.70396,5.11439],[-75.70397,5.11444]]]},"properties":{"FID":128,"OBJECTID":129,"Area_M2":124.592910649,"Amenaza_IN":"Alta","Shape_Leng":51.8730650513,"Shape_Area":124.593638211}},{"type":"Feature","id":129,"geometry":{"type":"Polygon","coordinates":[[[-75.70405,5.11465],[-75.70401,5.11466],[-75.70401,5.11467],[-75.70403,5.11473],[-75.70406,5.11472],[-75.70408,5.11472],[-75.7041,5.11471],[-75.70407,5.11465],[-75.70407,5.11465],[-75.70407,5.11464],[-75.70405,5.11465]]]},"properties":{"FID":129,"OBJECTID":130,"Area_M2":61.980340711,"Amenaza_IN":"Alta","Shape_Leng":31.6535650647,"Shape_Area":61.9800431941}},{"type":"Feature","id":130,"geometry":{"type":"Polygon","coordinates":[[[-75.70408,5.11473],[-75.70406,5.11473],[-75.70406,5.11474],[-75.70403,5.11474],[-75.70406,5.11484],[-75.70409,5.11484],[-75.70411,5.11483],[-75.70411,5.11482],[-75.70409,5.11476],[-75.70408,5.11473],[-75.70408,5.11473]]]},"properties":{"FID":130,"OBJECTID":131,"Area_M2":68.6285919576,"Amenaza_IN":"Alta","Shape_Leng":34.9187781118,"Shape_Area":68.6287163943}},{"type":"Feature","id":131,"geometry":{"type":"Polygon","coordinates":[[[-75.70413,5.1149],[-75.70412,5.11485],[-75.70407,5.11485],[-75.70409,5.11491],[-75.70413,5.1149]]]},"properties":{"FID":131,"OBJECTID":132,"Area_M2":30.1894925041,"Amenaza_IN":"Alta","Shape_Leng":22.2056379956,"Shape_Area":30.1894345805}},{"type":"Feature","id":132,"geometry":{"type":"Polygon","coordinates":[[[-75.7041,5.11503],[-75.70408,5.11496],[-75.70407,5.11497],[-75.70407,5.11495],[-75.70401,5.11497],[-75.70402,5.11498],[-75.70402,5.11499],[-75.70402,5.115],[-75.70401,5.115],[-75.70402,5.11505],[-75.70406,5.11504],[-75.70407,5.11504],[-75.70409,5.11504],[-75.7041,5.11503]]]},"properties":{"FID":132,"OBJECTID":133,"Area_M2":72.6954228937,"Amenaza_IN":"Alta","Shape_Leng":35.4352307288,"Shape_Area":72.6957348009}},{"type":"Feature","id":133,"geometry":{"type":"Polygon","coordinates":[[[-75.70402,5.11505],[-75.70403,5.11511],[-75.70405,5.1151],[-75.70406,5.11517],[-75.70408,5.11517],[-75.7041,5.11517],[-75.70411,5.11517],[-75.7041,5.11505],[-75.7041,5.11504],[-75.7041,5.11503],[-75.70409,5.11504],[-75.70407,5.11504],[-75.70406,5.11504],[-75.70402,5.11505]]]},"properties":{"FID":133,"OBJECTID":134,"Area_M2":105.147639705,"Amenaza_IN":"Alta","Shape_Leng":46.133109442,"Shape_Area":105.147499471}},{"type":"Feature","id":134,"geometry":{"type":"Polygon","coordinates":[[[-75.70411,5.11523],[-75.70409,5.11523],[-75.70407,5.11524],[-75.70407,5.11524],[-75.70407,5.11524],[-75.70407,5.11527],[-75.70408,5.11528],[-75.70408,5.11528],[-75.70409,5.11528],[-75.70409,5.11529],[-75.7041,5.11529],[-75.7041,5.11529],[-75.70416,5.11528],[-75.70416,5.11525],[-75.70415,5.11523],[-75.70411,5.11523]]]},"properties":{"FID":134,"OBJECTID":135,"Area_M2":54.9578272019,"Amenaza_IN":"Alta","Shape_Leng":31.2154525344,"Shape_Area":54.9581307019}},{"type":"Feature","id":135,"geometry":{"type":"Polygon","coordinates":[[[-75.70408,5.11517],[-75.70408,5.11519],[-75.70406,5.1152],[-75.70406,5.1152],[-75.70406,5.1152],[-75.70407,5.11524],[-75.70407,5.11524],[-75.70407,5.11524],[-75.70409,5.11523],[-75.70411,5.11523],[-75.7041,5.11517],[-75.70408,5.11517]]]},"properties":{"FID":135,"OBJECTID":136,"Area_M2":26.6151614021,"Amenaza_IN":"Alta","Shape_Leng":22.7649411272,"Shape_Area":26.6146267908}},{"type":"Feature","id":136,"geometry":{"type":"Polygon","coordinates":[[[-75.70418,5.11522],[-75.70415,5.11523],[-75.70416,5.11525],[-75.70416,5.11528],[-75.70419,5.11527],[-75.70421,5.11527],[-75.70421,5.11526],[-75.70421,5.11526],[-75.70421,5.11522],[-75.70418,5.11522]]]},"properties":{"FID":136,"OBJECTID":137,"Area_M2":33.7506275224,"Amenaza_IN":"Alta","Shape_Leng":23.266177937,"Shape_Area":33.7508682722}},{"type":"Feature","id":137,"geometry":{"type":"Polygon","coordinates":[[[-75.70416,5.11538],[-75.70413,5.11539],[-75.70412,5.1154],[-75.70415,5.11548],[-75.70415,5.11548],[-75.70419,5.11547],[-75.70422,5.11546],[-75.70419,5.11537],[-75.70416,5.11538]]]},"properties":{"FID":137,"OBJECTID":138,"Area_M2":84.2649114468,"Amenaza_IN":"Alta","Shape_Leng":36.6681821183,"Shape_Area":84.2654074617}},{"type":"Feature","id":138,"geometry":{"type":"Polygon","coordinates":[[[-75.70415,5.11548],[-75.70415,5.11548],[-75.70416,5.11553],[-75.70418,5.11557],[-75.70419,5.11557],[-75.70421,5.11556],[-75.70421,5.11556],[-75.70423,5.11556],[-75.70425,5.11555],[-75.70423,5.11547],[-75.70423,5.11547],[-75.70422,5.11546],[-75.70419,5.11547],[-75.70415,5.11548]]]},"properties":{"FID":138,"OBJECTID":139,"Area_M2":98.0785731793,"Amenaza_IN":"Alta","Shape_Leng":39.6805103837,"Shape_Area":98.0784754605}},{"type":"Feature","id":139,"geometry":{"type":"Polygon","coordinates":[[[-75.70421,5.11556],[-75.70419,5.11557],[-75.7042,5.11562],[-75.70422,5.11561],[-75.70424,5.11561],[-75.70423,5.11556],[-75.70421,5.11556]]]},"properties":{"FID":139,"OBJECTID":140,"Area_M2":27.5000789819,"Amenaza_IN":"Alta","Shape_Leng":21.2195251209,"Shape_Area":27.5002287888}},{"type":"Feature","id":140,"geometry":{"type":"Polygon","coordinates":[[[-75.70424,5.11561],[-75.70422,5.11561],[-75.7042,5.11562],[-75.70418,5.11562],[-75.70421,5.11572],[-75.70427,5.11571],[-75.70424,5.11561]]]},"properties":{"FID":140,"OBJECTID":141,"Area_M2":76.1247742197,"Amenaza_IN":"Alta","Shape_Leng":36.6763134844,"Shape_Area":76.1242652515}},{"type":"Feature","id":141,"geometry":{"type":"Polygon","coordinates":[[[-75.70451,5.11645],[-75.70448,5.11633],[-75.7044,5.11635],[-75.70443,5.11647],[-75.70451,5.11645]]]},"properties":{"FID":141,"OBJECTID":142,"Area_M2":120.567907476,"Amenaza_IN":"Alta","Shape_Leng":44.6485762431,"Shape_Area":120.568058204}},{"type":"Feature","id":142,"geometry":{"type":"Polygon","coordinates":[[[-75.70445,5.11652],[-75.70444,5.11652],[-75.70443,5.11652],[-75.70446,5.11662],[-75.70448,5.11661],[-75.70454,5.11659],[-75.70452,5.11649],[-75.70445,5.11652]]]},"properties":{"FID":142,"OBJECTID":143,"Area_M2":104.671958317,"Amenaza_IN":"Alta","Shape_Leng":41.1156403517,"Shape_Area":104.67257118}},{"type":"Feature","id":143,"geometry":{"type":"Polygon","coordinates":[[[-75.70459,5.11681],[-75.70458,5.11676],[-75.70458,5.11675],[-75.70457,5.1167],[-75.70455,5.1167],[-75.70452,5.11671],[-75.70453,5.11679],[-75.70454,5.11682],[-75.70459,5.11681]]]},"properties":{"FID":143,"OBJECTID":144,"Area_M2":70.8135236787,"Amenaza_IN":"Alta","Shape_Leng":36.0572887106,"Shape_Area":70.8134606964}},{"type":"Feature","id":144,"geometry":{"type":"Polygon","coordinates":[[[-75.70485,5.11777],[-75.70485,5.11764],[-75.70479,5.11764],[-75.70473,5.11765],[-75.70473,5.11777],[-75.7048,5.11777],[-75.70485,5.11777]]]},"properties":{"FID":144,"OBJECTID":145,"Area_M2":181.8520522,"Amenaza_IN":"Alta","Shape_Leng":53.9686162252,"Shape_Area":181.852132439}},{"type":"Feature","id":145,"geometry":{"type":"Polygon","coordinates":[[[-75.70492,5.11786],[-75.70492,5.11782],[-75.70491,5.11779],[-75.70484,5.1178],[-75.70485,5.11783],[-75.70486,5.11787],[-75.70492,5.11786]]]},"properties":{"FID":145,"OBJECTID":146,"Area_M2":55.695675905,"Amenaza_IN":"Alta","Shape_Leng":29.7796921194,"Shape_Area":55.6952626285}},{"type":"Feature","id":146,"geometry":{"type":"Polygon","coordinates":[[[-75.70482,5.11734],[-75.70481,5.11734],[-75.7048,5.11735],[-75.70479,5.11735],[-75.70478,5.11735],[-75.70476,5.11736],[-75.70476,5.11739],[-75.70474,5.1174],[-75.70474,5.11742],[-75.70481,5.11741],[-75.70482,5.1174],[-75.70484,5.11739],[-75.70483,5.11734],[-75.70482,5.11734]]]},"properties":{"FID":146,"OBJECTID":147,"Area_M2":59.6271353908,"Amenaza_IN":"Alta","Shape_Leng":34.0739951492,"Shape_Area":59.6273996996}},{"type":"Feature","id":147,"geometry":{"type":"Polygon","coordinates":[[[-75.70478,5.11735],[-75.7048,5.11735],[-75.70481,5.11734],[-75.70482,5.11734],[-75.70483,5.11733],[-75.70483,5.1173],[-75.70481,5.1173],[-75.70481,5.11728],[-75.70479,5.11729],[-75.70476,5.11729],[-75.70478,5.11735]]]},"properties":{"FID":147,"OBJECTID":148,"Area_M2":38.7097960433,"Amenaza_IN":"Alta","Shape_Leng":25.7040603588,"Shape_Area":38.7072754724}},{"type":"Feature","id":148,"geometry":{"type":"Polygon","coordinates":[[[-75.70486,5.11741],[-75.70482,5.11742],[-75.70481,5.11742],[-75.70482,5.1175],[-75.70483,5.1175],[-75.70486,5.1175],[-75.70487,5.1175],[-75.70489,5.1175],[-75.7049,5.11745],[-75.7049,5.11741],[-75.70489,5.1174],[-75.70487,5.1174],[-75.70486,5.1174],[-75.70486,5.11741]]]},"properties":{"FID":148,"OBJECTID":149,"Area_M2":83.76717864,"Amenaza_IN":"Alta","Shape_Leng":37.5621579862,"Shape_Area":83.7673424042}},{"type":"Feature","id":149,"geometry":{"type":"Polygon","coordinates":[[[-75.70486,5.1175],[-75.70483,5.1175],[-75.70482,5.1175],[-75.7048,5.1175],[-75.7048,5.11752],[-75.70482,5.11754],[-75.70482,5.11754],[-75.70483,5.11754],[-75.70483,5.11755],[-75.70483,5.11758],[-75.70485,5.11758],[-75.70486,5.11757],[-75.70488,5.11757],[-75.70488,5.11754],[-75.70488,5.11753],[-75.70488,5.11753],[-75.70487,5.1175],[-75.70486,5.1175]]]},"properties":{"FID":149,"OBJECTID":150,"Area_M2":58.1619963577,"Amenaza_IN":"Alta","Shape_Leng":32.1447883347,"Shape_Area":58.1614566496}},{"type":"Feature","id":150,"geometry":{"type":"Polygon","coordinates":[[[-75.70344,5.11187],[-75.70346,5.11202],[-75.70346,5.11202],[-75.70346,5.11203],[-75.70347,5.11206],[-75.70347,5.11206],[-75.70347,5.11208],[-75.70347,5.11208],[-75.70347,5.11208],[-75.70348,5.11208],[-75.70348,5.11208],[-75.70351,5.11207],[-75.70352,5.11207],[-75.70355,5.11206],[-75.70354,5.11201],[-75.70352,5.11186],[-75.70344,5.11187]]]},"properties":{"FID":150,"OBJECTID":151,"Area_M2":213.120315897,"Amenaza_IN":"Alta","Shape_Leng":64.1515932152,"Shape_Area":213.121117598}}]}