{"type":"FeatureCollection","name":"ACA_IND_Urbano","crs":{"type":"name","properties":{"name":"urn:ogc:def:crs:OGC:1.3:CRS84"}},"features":[{"type":"Feature","id":0,"geometry":{"type":"MultiPolygon","coordinates":[[[[-75.62768,5.01258],[-75.62768,5.01258],[-75.62768,5.01258],[-75.62768,5.01258]]],[[[-75.63181,5.01442],[-75.63192,5.01438],[-75.63193,5.01435],[-75.63194,5.01432],[-75.63192,5.0143],[-75.63191,5.01431],[-75.6319,5.01433],[-75.6319,5.01433],[-75.63188,5.01437],[-75.63182,5.01439],[-75.63173,5.01439],[-75.63162,5.01438],[-75.63151,5.01438],[-75.63138,5.01437],[-75.63135,5.01435],[-75.63135,5.01436],[-75.63133,5.01438],[-75.63139,5.01441],[-75.63163,5.0144],[-75.63181,5.01442]]],[[[-75.6308,5.01437],[-75.63073,5.01443],[-75.63068,5.01449],[-75.63061,5.01465],[-75.63058,5.01477],[-75.63058,5.01485],[-75.63055,5.01491],[-75.63052,5.01494],[-75.63046,5.01499],[-75.63035,5.01502],[-75.63034,5.01505],[-75.63044,5.01502],[-75.63053,5.01499],[-75.63059,5.0149],[-75.63061,5.01477],[-75.63065,5.01465],[-75.63071,5.01452],[-75.63078,5.01443],[-75.63085,5.01439],[-75.63085,5.01439],[-75.63083,5.01437],[-75.63082,5.01436],[-75.6308,5.01437]]],[[[-75.63322,5.01575],[-75.63338,5.01586],[-75.63348,5.01597],[-75.6335,5.01603],[-75.63354,5.01601],[-75.63357,5.01601],[-75.63354,5.01595],[-75.63345,5.01586],[-75.63337,5.0158],[-75.63336,5.01572],[-75.63335,5.01565],[-75.63335,5.01559],[-75.63335,5.01559],[-75.63335,5.01546],[-75.63335,5.01546],[-75.63339,5.01523],[-75.63344,5.01511],[-75.63353,5.01499],[-75.63355,5.01486],[-75.63355,5.01486],[-75.63352,5.01472],[-75.63351,5.01462],[-75.63351,5.01462],[-75.63365,5.01438],[-75.6338,5.01425],[-75.63372,5.01428],[-75.63356,5.01447],[-75.63351,5.01457],[-75.63348,5.01463],[-75.6335,5.01474],[-75.63352,5.01482],[-75.6335,5.01491],[-75.63349,5.01499],[-75.63344,5.01506],[-75.63342,5.01511],[-75.63339,5.01515],[-75.63335,5.01522],[-75.63334,5.01527],[-75.63333,5.01552],[-75.63333,5.01553],[-75.63332,5.01569],[-75.63332,5.01574],[-75.63328,5.01573],[-75.63319,5.01568],[-75.63306,5.0156],[-75.63297,5.01554],[-75.63291,5.0155],[-75.63289,5.01545],[-75.63291,5.01535],[-75.63292,5.01527],[-75.63291,5.01521],[-75.63289,5.01514],[-75.63287,5.0151],[-75.63282,5.01499],[-75.63282,5.01498],[-75.63278,5.01478],[-75.63278,5.01478],[-75.63277,5.01459],[-75.63268,5.01438],[-75.63268,5.01438],[-75.63264,5.01438],[-75.63269,5.01445],[-75.63274,5.0146],[-75.63275,5.01465],[-75.63276,5.01484],[-75.63278,5.01497],[-75.63281,5.01502],[-75.63288,5.01518],[-75.63289,5.0153],[-75.63287,5.01546],[-75.63289,5.0155],[-75.63296,5.01556],[-75.63322,5.01575]]],[[[-75.62569,5.01435],[-75.62573,5.0145],[-75.62574,5.0146],[-75.62576,5.01471],[-75.62582,5.01482],[-75.62584,5.01492],[-75.62584,5.01492],[-75.62585,5.01496],[-75.62585,5.01506],[-75.62585,5.01506],[-75.62585,5.01521],[-75.62586,5.01535],[-75.62587,5.01545],[-75.62583,5.01555],[-75.62578,5.01562],[-75.62569,5.01572],[-75.62563,5.0158],[-75.62559,5.01594],[-75.6256,5.01609],[-75.62561,5.01599],[-75.62564,5.0159],[-75.62564,5.0159],[-75.62564,5.01589],[-75.62565,5.01587],[-75.62566,5.01584],[-75.62568,5.01581],[-75.62575,5.01573],[-75.62581,5.01567],[-75.62585,5.01561],[-75.62587,5.01557],[-75.62589,5.01553],[-75.62589,5.01536],[-75.62587,5.01532],[-75.62587,5.01523],[-75.62588,5.01509],[-75.62587,5.01496],[-75.62587,5.01494],[-75.62587,5.01491],[-75.62586,5.01483],[-75.62581,5.01473],[-75.62578,5.01465],[-75.62577,5.01452],[-75.62575,5.01443],[-75.62574,5.01441],[-75.62571,5.01433],[-75.62567,5.01426],[-75.62561,5.01418],[-75.62558,5.01414],[-75.62556,5.01406],[-75.62556,5.01391],[-75.62561,5.01367],[-75.62564,5.01357],[-75.62565,5.01357],[-75.62568,5.0136],[-75.62577,5.01369],[-75.62577,5.0137],[-75.62578,5.01372],[-75.6258,5.01377],[-75.62583,5.01379],[-75.62588,5.01381],[-75.62593,5.01381],[-75.62598,5.01382],[-75.62601,5.01384],[-75.62608,5.01389],[-75.62611,5.01392],[-75.62612,5.01393],[-75.62617,5.01393],[-75.6263,5.01393],[-75.62641,5.01392],[-75.62647,5.01393],[-75.62657,5.01398],[-75.62673,5.01408],[-75.62691,5.01421],[-75.62704,5.01434],[-75.62722,5.01451],[-75.6273,5.01462],[-75.62744,5.01482],[-75.62753,5.01493],[-75.62762,5.015],[-75.62755,5.01493],[-75.62742,5.01476],[-75.62728,5.01456],[-75.62727,5.01455],[-75.62715,5.01442],[-75.62689,5.01418],[-75.62673,5.01405],[-75.62651,5.01392],[-75.62638,5.0139],[-75.62619,5.01392],[-75.62612,5.01391],[-75.62605,5.01385],[-75.62603,5.01384],[-75.626,5.01381],[-75.62589,5.0138],[-75.62584,5.01379],[-75.6258,5.01374],[-75.62578,5.01368],[-75.62574,5.01365],[-75.62568,5.01358],[-75.62565,5.01356],[-75.62566,5.01351],[-75.62567,5.01337],[-75.62569,5.01326],[-75.6257,5.0131],[-75.6257,5.01296],[-75.62571,5.01282],[-75.62578,5.01269],[-75.62585,5.01267],[-75.62593,5.01267],[-75.62607,5.01262],[-75.62625,5.01248],[-75.62636,5.01237],[-75.62637,5.01236],[-75.62638,5.01234],[-75.62638,5.01232],[-75.62639,5.01231],[-75.6264,5.01229],[-75.62642,5.01225],[-75.62644,5.0122],[-75.62649,5.01206],[-75.62651,5.01195],[-75.62652,5.01191],[-75.62653,5.01169],[-75.62668,5.01164],[-75.62677,5.01163],[-75.62688,5.01164],[-75.62701,5.01168],[-75.62709,5.01171],[-75.62717,5.0117],[-75.62718,5.0117],[-75.62714,5.01166],[-75.62705,5.01164],[-75.62687,5.01159],[-75.62667,5.01157],[-75.62654,5.01164],[-75.62647,5.01177],[-75.62647,5.01177],[-75.62647,5.01193],[-75.62647,5.01193],[-75.62645,5.012],[-75.62643,5.01206],[-75.6264,5.01217],[-75.62632,5.0123],[-75.62625,5.01239],[-75.6261,5.01255],[-75.62592,5.01263],[-75.62575,5.01265],[-75.62571,5.01276],[-75.62567,5.01287],[-75.62567,5.01313],[-75.62567,5.01313],[-75.62564,5.01333],[-75.62561,5.01358],[-75.62557,5.01376],[-75.62553,5.01391],[-75.62554,5.01409],[-75.62557,5.01417],[-75.62552,5.01423],[-75.62549,5.01426],[-75.62543,5.0143],[-75.62532,5.01435],[-75.62526,5.01439],[-75.62521,5.01446],[-75.62517,5.01452],[-75.62511,5.01456],[-75.62506,5.01458],[-75.62502,5.01459],[-75.625,5.01455],[-75.62497,5.01445],[-75.62494,5.01437],[-75.62486,5.01427],[-75.6247,5.01414],[-75.62462,5.01413],[-75.62454,5.01413],[-75.6245,5.01411],[-75.62443,5.01402],[-75.62432,5.01389],[-75.62431,5.01389],[-75.62431,5.01388],[-75.62431,5.01388],[-75.6243,5.01388],[-75.6243,5.01387],[-75.6243,5.01387],[-75.62422,5.01378],[-75.62413,5.01366],[-75.62408,5.0136],[-75.62405,5.01349],[-75.62404,5.01347],[-75.62402,5.01338],[-75.62397,5.01331],[-75.62394,5.01325],[-75.62386,5.01315],[-75.62379,5.0131],[-75.62378,5.01313],[-75.62391,5.01325],[-75.62394,5.01332],[-75.62401,5.01345],[-75.62403,5.01351],[-75.62404,5.01362],[-75.62411,5.01373],[-75.6242,5.01382],[-75.62436,5.01398],[-75.62441,5.01404],[-75.62449,5.01414],[-75.62457,5.01416],[-75.62465,5.01415],[-75.62473,5.01419],[-75.62479,5.01425],[-75.62489,5.01434],[-75.62493,5.01443],[-75.62494,5.01449],[-75.62495,5.01451],[-75.62496,5.01458],[-75.62498,5.01462],[-75.62503,5.01462],[-75.62511,5.0146],[-75.6252,5.01455],[-75.62524,5.01447],[-75.62527,5.01441],[-75.62534,5.01438],[-75.6254,5.01434],[-75.62546,5.01432],[-75.62551,5.01429],[-75.6256,5.01421],[-75.62569,5.01435]]]]},"properties":{"FID":0,"OBJECTID_1":1,"OBJECTID":2,"Amenaza":"Media","Shape_Leng":3620.3773604,"Shape_Le_1":3620.3773604,"Shape_Area":6245.6683307}}]}