{"type":"FeatureCollection","name":"ACA_IND_Rural","crs":{"type":"name","properties":{"name":"urn:ogc:def:crs:OGC:1.3:CRS84"}},"features":[{"type":"Feature","id":0,"geometry":{"type":"Polygon","coordinates":[[[-75.66043,5.03083],[-75.66074,5.03101],[-75.66102,5.03079],[-75.66142,5.03051],[-75.66166,5.03047],[-75.66222,5.03057],[-75.66272,5.03054],[-75.66274,5.03034],[-75.66271,5.03035],[-75.66271,5.03035],[-75.66271,5.03035],[-75.66271,5.03035],[-75.6627,5.03035],[-75.66269,5.03035],[-75.66269,5.03035],[-75.66269,5.03035],[-75.66258,5.03039],[-75.66247,5.03042],[-75.66236,5.03046],[-75.66225,5.03047],[-75.66213,5.03048],[-75.66201,5.03048],[-75.66189,5.03047],[-75.66177,5.03046],[-75.66166,5.03044],[-75.66154,5.03041],[-75.66141,5.03029],[-75.66141,5.03029],[-75.66135,5.03036],[-75.66125,5.03041],[-75.66106,5.03051],[-75.66073,5.03071],[-75.66047,5.03071],[-75.6603,5.03068],[-75.66043,5.03083]]]},"properties":{"FID":0,"OBJECTID":42,"Amenaza":"Alta","SUELO":"Corredor Vial","NOMBRE":"Corredor Vial Suburbano (Cartagena - La Plata)","Area_ha":222.755746697,"Area_HaACA":0.446975618522,"Shape_Leng":616.250764875,"Shape_Area":4469.75591019}},{"type":"Feature","id":1,"geometry":{"type":"MultiPolygon","coordinates":[[[[-75.60892,5.05697],[-75.60899,5.05703],[-75.60895,5.05699],[-75.60892,5.05697]]],[[[-75.6071,5.05578],[-75.60708,5.05582],[-75.60706,5.05587],[-75.60704,5.0559],[-75.60702,5.05594],[-75.60699,5.05601],[-75.60696,5.05609],[-75.60696,5.05617],[-75.60696,5.05625],[-75.60697,5.05633],[-75.60702,5.05645],[-75.60704,5.05646],[-75.60709,5.05649],[-75.60716,5.0565],[-75.60723,5.05653],[-75.60731,5.05653],[-75.60739,5.05653],[-75.60746,5.05653],[-75.60738,5.05652],[-75.60717,5.05646],[-75.60703,5.0564],[-75.60697,5.0562],[-75.60706,5.05593],[-75.6071,5.05578]]],[[[-75.6069,5.0556],[-75.60688,5.05565],[-75.60678,5.05596],[-75.60676,5.05631],[-75.60678,5.05634],[-75.60677,5.05632],[-75.6068,5.05615],[-75.6068,5.05614],[-75.60682,5.05607],[-75.60683,5.05601],[-75.60683,5.056],[-75.60684,5.05593],[-75.60686,5.05586],[-75.60688,5.05579],[-75.6069,5.05571],[-75.60691,5.05564],[-75.60692,5.05555],[-75.6069,5.0556]]],[[[-75.60694,5.05546],[-75.60694,5.05546],[-75.60694,5.05546],[-75.60694,5.05546]]],[[[-75.60698,5.05533],[-75.60699,5.05531],[-75.60699,5.05529],[-75.60698,5.05533]]],[[[-75.60701,5.05497],[-75.60701,5.05497],[-75.60701,5.05522],[-75.60703,5.0551],[-75.60704,5.05503],[-75.60704,5.05496],[-75.60701,5.05497]]],[[[-75.60722,5.05487],[-75.60725,5.05498],[-75.60725,5.05505],[-75.60725,5.05504],[-75.60724,5.05487],[-75.60722,5.05487]]]]},"properties":{"FID":1,"OBJECTID":43,"Amenaza":"Alta","SUELO":"Corredor Vial","NOMBRE":"Corredor Vial Suburbano (hacia Manizales)","Area_ha":103.919389972,"Area_HaACA":0.0850418537972,"Shape_Leng":561.089063832,"Shape_Area":850.419003761}},{"type":"Feature","id":2,"geometry":{"type":"MultiPolygon","coordinates":[[[[-75.60899,5.05703],[-75.60902,5.05705],[-75.60914,5.05713],[-75.60924,5.05724],[-75.60934,5.05735],[-75.60934,5.05736],[-75.60936,5.05735],[-75.60943,5.05733],[-75.60949,5.0573],[-75.60955,5.05726],[-75.60956,5.05726],[-75.60957,5.05725],[-75.60939,5.05709],[-75.60939,5.05709],[-75.60938,5.05709],[-75.60938,5.05708],[-75.60938,5.05708],[-75.60904,5.0569],[-75.60897,5.05687],[-75.60897,5.05686],[-75.60897,5.05686],[-75.60887,5.05683],[-75.60852,5.0568],[-75.60864,5.05683],[-75.60871,5.05686],[-75.60879,5.05691],[-75.6089,5.05696],[-75.60892,5.05697],[-75.60895,5.05699],[-75.60899,5.05703]]],[[[-75.60746,5.05653],[-75.60748,5.05653],[-75.60755,5.05654],[-75.60764,5.05655],[-75.60772,5.05655],[-75.60779,5.05656],[-75.60787,5.05658],[-75.60791,5.05659],[-75.60791,5.05659],[-75.60763,5.0564],[-75.60752,5.05634],[-75.60741,5.05626],[-75.60728,5.05619],[-75.60719,5.05608],[-75.60711,5.05575],[-75.6071,5.05578],[-75.60706,5.05593],[-75.60697,5.0562],[-75.60703,5.0564],[-75.60717,5.05646],[-75.60738,5.05652],[-75.60746,5.05653]]]]},"properties":{"FID":2,"OBJECTID":44,"Amenaza":"Media","SUELO":"Corredor Vial","NOMBRE":"Corredor Vial Suburbano (hacia Manizales)","Area_ha":103.919389972,"Area_HaACA":0.450880663213,"Shape_Leng":582.249303646,"Shape_Area":4508.80626394}},{"type":"Feature","id":3,"geometry":{"type":"MultiPolygon","coordinates":[[[[-75.67801,5.06005],[-75.6778,5.0602],[-75.67778,5.06021],[-75.67774,5.06024],[-75.67785,5.06021],[-75.67863,5.06002],[-75.67922,5.05998],[-75.67987,5.0599],[-75.68034,5.05969],[-75.68095,5.05939],[-75.68053,5.05943],[-75.68026,5.0595],[-75.68026,5.05954],[-75.68026,5.05954],[-75.68026,5.05954],[-75.68023,5.05955],[-75.6802,5.05955],[-75.68018,5.05956],[-75.68016,5.05956],[-75.68016,5.05956],[-75.68003,5.05957],[-75.67962,5.05973],[-75.67884,5.05973],[-75.67833,5.05982],[-75.67832,5.05983],[-75.67826,5.05987],[-75.67823,5.05989],[-75.67813,5.05996],[-75.67813,5.05996],[-75.67801,5.06005]]],[[[-75.68172,5.06908],[-75.68175,5.06912],[-75.68176,5.06912],[-75.68198,5.06934],[-75.68199,5.06934],[-75.68189,5.0692],[-75.68177,5.06896],[-75.68178,5.0687],[-75.68191,5.0684],[-75.68212,5.06802],[-75.68246,5.06746],[-75.68263,5.06723],[-75.68286,5.06709],[-75.68322,5.067],[-75.68346,5.06686],[-75.68364,5.06662],[-75.68393,5.06633],[-75.68408,5.06612],[-75.68427,5.06588],[-75.68405,5.06594],[-75.68381,5.06623],[-75.68361,5.06649],[-75.68335,5.06674],[-75.68314,5.06691],[-75.68283,5.067],[-75.68253,5.06717],[-75.68233,5.06748],[-75.6822,5.06758],[-75.68205,5.06784],[-75.6819,5.0681],[-75.68181,5.06839],[-75.68171,5.06856],[-75.68158,5.06873],[-75.68142,5.06889],[-75.68101,5.06898],[-75.68094,5.06894],[-75.68079,5.06887],[-75.68066,5.06885],[-75.68059,5.06869],[-75.68052,5.06847],[-75.68048,5.06839],[-75.68048,5.06809],[-75.68034,5.06785],[-75.68018,5.06769],[-75.68009,5.06744],[-75.67999,5.06707],[-75.6799,5.06687],[-75.67974,5.06722],[-75.67973,5.06725],[-75.67975,5.0673],[-75.6799,5.0676],[-75.68011,5.06813],[-75.68021,5.06842],[-75.68033,5.06859],[-75.68044,5.0688],[-75.68049,5.06893],[-75.68059,5.06911],[-75.68065,5.06923],[-75.68077,5.0693],[-75.68083,5.06931],[-75.68083,5.06931],[-75.68087,5.06929],[-75.68097,5.06924],[-75.68097,5.06923],[-75.68104,5.0692],[-75.68127,5.06913],[-75.6813,5.06909],[-75.68145,5.06908],[-75.68146,5.06909],[-75.68155,5.06907],[-75.68172,5.06908]]]]},"properties":{"FID":3,"OBJECTID":45,"Amenaza":"Alta","SUELO":"Corredor Vial","NOMBRE":"Corredor Vial Suburbano (La Plata-Santagueda)","Area_ha":187.143807398,"Area_HaACA":2.51173574198,"Shape_Leng":2527.28140465,"Shape_Area":25117.3584952}},{"type":"Feature","id":4,"geometry":{"type":"MultiPolygon","coordinates":[[[[-75.68104,5.0692],[-75.68097,5.06923],[-75.68093,5.06926],[-75.68086,5.06929],[-75.68083,5.06931],[-75.68083,5.06931],[-75.68103,5.06932],[-75.68122,5.06919],[-75.68127,5.06913],[-75.68104,5.0692]]],[[[-75.69453,5.07585],[-75.6945,5.07616],[-75.69449,5.07648],[-75.69452,5.07668],[-75.69445,5.07694],[-75.69429,5.07721],[-75.69406,5.07747],[-75.69372,5.07765],[-75.69346,5.07781],[-75.69353,5.07785],[-75.69371,5.07782],[-75.69375,5.07782],[-75.69399,5.0777],[-75.69436,5.07739],[-75.69456,5.07709],[-75.69467,5.07671],[-75.69468,5.07635],[-75.69467,5.07594],[-75.69468,5.07585],[-75.69453,5.07585]]],[[[-75.68777,5.07773],[-75.68768,5.0778],[-75.68761,5.07786],[-75.68753,5.07799],[-75.68751,5.07812],[-75.68754,5.07827],[-75.68765,5.07834],[-75.68772,5.07844],[-75.68771,5.07854],[-75.68766,5.07864],[-75.68765,5.07874],[-75.68768,5.07881],[-75.68781,5.07889],[-75.68788,5.07896],[-75.68792,5.07905],[-75.68793,5.07912],[-75.68795,5.07909],[-75.68799,5.07905],[-75.688,5.07904],[-75.68814,5.07888],[-75.68817,5.07886],[-75.68832,5.07864],[-75.68843,5.07843],[-75.68843,5.07825],[-75.68834,5.07811],[-75.68827,5.07792],[-75.68825,5.07771],[-75.68818,5.07762],[-75.68814,5.07766],[-75.6881,5.07766],[-75.6881,5.07753],[-75.68805,5.07745],[-75.68794,5.0774],[-75.68794,5.07728],[-75.68786,5.07718],[-75.68782,5.07701],[-75.68797,5.07699],[-75.68816,5.07696],[-75.68836,5.07679],[-75.68845,5.07666],[-75.68853,5.07656],[-75.68857,5.07641],[-75.68856,5.07631],[-75.68851,5.0762],[-75.6884,5.07612],[-75.68832,5.07609],[-75.68822,5.07609],[-75.68817,5.07609],[-75.68804,5.07601],[-75.68792,5.07596],[-75.68787,5.07591],[-75.68787,5.07576],[-75.68779,5.07559],[-75.6877,5.0755],[-75.68759,5.07546],[-75.68748,5.07544],[-75.68733,5.07544],[-75.68712,5.07539],[-75.68701,5.07532],[-75.68702,5.07523],[-75.68709,5.07509],[-75.68712,5.07501],[-75.68708,5.07486],[-75.68698,5.07468],[-75.6871,5.0743],[-75.68721,5.0739],[-75.68745,5.0736],[-75.68754,5.0735],[-75.68765,5.07333],[-75.68768,5.07316],[-75.68768,5.07302],[-75.68767,5.073],[-75.68758,5.0729],[-75.68758,5.07289],[-75.68743,5.07279],[-75.68743,5.07295],[-75.68736,5.07332],[-75.68723,5.07362],[-75.68704,5.07392],[-75.68688,5.07437],[-75.6867,5.07474],[-75.68662,5.07481],[-75.6865,5.07491],[-75.68643,5.07501],[-75.6864,5.07514],[-75.68637,5.0753],[-75.68643,5.07544],[-75.68664,5.07561],[-75.68692,5.07566],[-75.68708,5.0757],[-75.68727,5.07571],[-75.68737,5.07574],[-75.68745,5.07579],[-75.68754,5.07591],[-75.68768,5.07607],[-75.68778,5.07616],[-75.68787,5.07627],[-75.68793,5.0764],[-75.68795,5.0765],[-75.68795,5.07659],[-75.6879,5.07674],[-75.68785,5.07691],[-75.68778,5.07693],[-75.68768,5.07701],[-75.68764,5.07712],[-75.68767,5.07726],[-75.68776,5.07729],[-75.68776,5.07737],[-75.68776,5.07744],[-75.68781,5.07753],[-75.68777,5.07773]]],[[[-75.68794,5.07949],[-75.68791,5.0797],[-75.68797,5.07996],[-75.68799,5.08001],[-75.68799,5.07994],[-75.68799,5.07991],[-75.68799,5.0799],[-75.68799,5.07984],[-75.68809,5.0797],[-75.68802,5.07958],[-75.68806,5.07948],[-75.68805,5.07941],[-75.68805,5.0794],[-75.68804,5.07936],[-75.68804,5.07936],[-75.68804,5.07936],[-75.68806,5.07932],[-75.68807,5.07931],[-75.68804,5.07931],[-75.68794,5.07931],[-75.68794,5.0793],[-75.68794,5.07949]]],[[[-75.68821,5.08063],[-75.68827,5.08069],[-75.68829,5.08084],[-75.68833,5.08099],[-75.68834,5.08102],[-75.68834,5.08099],[-75.68834,5.08097],[-75.68833,5.08085],[-75.68833,5.08079],[-75.68832,5.08072],[-75.68827,5.08058],[-75.68821,5.08047],[-75.68818,5.08045],[-75.68821,5.08063]]],[[[-75.66545,5.08127],[-75.66487,5.08193],[-75.66484,5.08195],[-75.66446,5.08243],[-75.66446,5.08256],[-75.66448,5.08251],[-75.66463,5.08231],[-75.66476,5.08213],[-75.66488,5.08195],[-75.66511,5.08177],[-75.66525,5.08155],[-75.66544,5.08131],[-75.66549,5.08122],[-75.66545,5.08127]]],[[[-75.66559,5.08392],[-75.66564,5.08398],[-75.66569,5.08405],[-75.66573,5.08426],[-75.66575,5.08434],[-75.66575,5.08437],[-75.66579,5.08456],[-75.66582,5.08438],[-75.6658,5.08418],[-75.66575,5.08405],[-75.66566,5.08391],[-75.66552,5.08376],[-75.66543,5.08371],[-75.66559,5.08392]]],[[[-75.67493,5.08913],[-75.67491,5.08927],[-75.67488,5.08959],[-75.67486,5.08964],[-75.67485,5.08967],[-75.6749,5.0896],[-75.67494,5.0892],[-75.67493,5.08907],[-75.67493,5.08913]]],[[[-75.68633,5.09041],[-75.68637,5.09042],[-75.68639,5.09045],[-75.68641,5.09048],[-75.68641,5.09053],[-75.68641,5.09056],[-75.6864,5.0906],[-75.6864,5.09064],[-75.6864,5.09064],[-75.6864,5.09066],[-75.68641,5.09065],[-75.68647,5.09057],[-75.68653,5.09052],[-75.68663,5.09049],[-75.68665,5.09048],[-75.68666,5.09047],[-75.68668,5.09042],[-75.68668,5.09041],[-75.68669,5.09041],[-75.6868,5.09045],[-75.68688,5.09045],[-75.68699,5.09045],[-75.6871,5.09045],[-75.68717,5.09045],[-75.68724,5.09044],[-75.68738,5.09043],[-75.68757,5.09043],[-75.68772,5.09042],[-75.68781,5.09041],[-75.68795,5.09039],[-75.68814,5.09038],[-75.68825,5.09036],[-75.68844,5.0903],[-75.68893,5.09031],[-75.68922,5.0904],[-75.68933,5.09044],[-75.68948,5.09049],[-75.68949,5.09049],[-75.68981,5.09044],[-75.68982,5.09044],[-75.68988,5.09044],[-75.68953,5.09033],[-75.6894,5.09026],[-75.68921,5.09017],[-75.68894,5.09011],[-75.68859,5.09009],[-75.68814,5.09018],[-75.68791,5.09026],[-75.68774,5.09039],[-75.68771,5.09042],[-75.68764,5.09038],[-75.6876,5.09033],[-75.68745,5.09023],[-75.68737,5.09018],[-75.68729,5.09014],[-75.68722,5.09009],[-75.68716,5.09006],[-75.68708,5.09001],[-75.68706,5.08998],[-75.68704,5.08992],[-75.68702,5.08986],[-75.68702,5.08974],[-75.68703,5.08962],[-75.68704,5.08956],[-75.68707,5.08947],[-75.6871,5.08941],[-75.68711,5.08936],[-75.68711,5.08928],[-75.68709,5.08925],[-75.68705,5.08909],[-75.68721,5.08892],[-75.68739,5.08885],[-75.68755,5.08876],[-75.68761,5.08864],[-75.68745,5.08841],[-75.68745,5.08825],[-75.68752,5.08804],[-75.68765,5.08791],[-75.68775,5.08758],[-75.68776,5.08738],[-75.68765,5.08717],[-75.68762,5.08712],[-75.68746,5.08685],[-75.68743,5.08681],[-75.68741,5.08663],[-75.68738,5.08654],[-75.68731,5.08644],[-75.68724,5.08632],[-75.68703,5.0862],[-75.68686,5.08611],[-75.68658,5.08603],[-75.68643,5.086],[-75.68635,5.08598],[-75.68627,5.08587],[-75.68636,5.08563],[-75.68662,5.08541],[-75.68689,5.08524],[-75.687,5.08526],[-75.68706,5.08527],[-75.68719,5.08526],[-75.68733,5.08524],[-75.68743,5.08517],[-75.68748,5.08507],[-75.68752,5.0849],[-75.68756,5.08471],[-75.68742,5.08448],[-75.68737,5.08447],[-75.68728,5.0843],[-75.68724,5.08422],[-75.68722,5.08409],[-75.68726,5.08399],[-75.68729,5.08387],[-75.68728,5.08379],[-75.68722,5.08353],[-75.68732,5.08342],[-75.68734,5.0834],[-75.68735,5.08333],[-75.68737,5.08324],[-75.68733,5.0831],[-75.68724,5.08297],[-75.68722,5.08277],[-75.68719,5.0827],[-75.68726,5.08265],[-75.68731,5.08264],[-75.6874,5.08264],[-75.68744,5.08265],[-75.6875,5.08268],[-75.68754,5.08271],[-75.68757,5.08274],[-75.6876,5.08283],[-75.68764,5.08293],[-75.68772,5.083],[-75.68779,5.08306],[-75.68792,5.0831],[-75.68812,5.08314],[-75.68825,5.08316],[-75.68834,5.08312],[-75.68833,5.08302],[-75.68833,5.08291],[-75.68832,5.0828],[-75.68834,5.0827],[-75.68832,5.08258],[-75.6883,5.08247],[-75.68836,5.08242],[-75.68842,5.08243],[-75.68855,5.08249],[-75.68862,5.08257],[-75.68875,5.08267],[-75.68887,5.08277],[-75.68894,5.0828],[-75.68906,5.08288],[-75.68913,5.08292],[-75.68925,5.08297],[-75.68935,5.083],[-75.6895,5.08302],[-75.68957,5.08295],[-75.68964,5.08285],[-75.68966,5.08274],[-75.68966,5.08256],[-75.68965,5.0824],[-75.68961,5.08231],[-75.68957,5.08221],[-75.68951,5.08212],[-75.68949,5.08207],[-75.68948,5.08201],[-75.68954,5.08188],[-75.68954,5.08171],[-75.6895,5.08159],[-75.68944,5.08149],[-75.68937,5.08145],[-75.68928,5.08142],[-75.68912,5.0814],[-75.68897,5.08141],[-75.68885,5.0814],[-75.68877,5.08141],[-75.68869,5.0814],[-75.68868,5.08139],[-75.68863,5.0814],[-75.68857,5.0814],[-75.68856,5.0814],[-75.68859,5.08143],[-75.68866,5.08148],[-75.68878,5.08152],[-75.68891,5.08153],[-75.68911,5.08153],[-75.68923,5.08152],[-75.68932,5.08152],[-75.68938,5.08161],[-75.68941,5.08169],[-75.68938,5.08183],[-75.68935,5.08191],[-75.68936,5.08202],[-75.68941,5.08216],[-75.68948,5.08228],[-75.68954,5.0824],[-75.68957,5.08251],[-75.68957,5.08264],[-75.68954,5.08274],[-75.68945,5.0828],[-75.68936,5.0828],[-75.68928,5.08279],[-75.68918,5.08275],[-75.68906,5.08267],[-75.68892,5.0826],[-75.68881,5.0825],[-75.68873,5.08244],[-75.68862,5.08235],[-75.68855,5.08229],[-75.68844,5.08222],[-75.68835,5.08218],[-75.68828,5.08217],[-75.68821,5.08223],[-75.68815,5.08234],[-75.68819,5.08245],[-75.68821,5.08253],[-75.68821,5.08264],[-75.68824,5.08272],[-75.68824,5.0828],[-75.68823,5.08288],[-75.68822,5.08299],[-75.6882,5.08305],[-75.68812,5.08304],[-75.68801,5.08301],[-75.68795,5.08297],[-75.68783,5.08296],[-75.68779,5.08293],[-75.68775,5.08287],[-75.68773,5.08282],[-75.6877,5.08275],[-75.68768,5.08266],[-75.68764,5.08261],[-75.68753,5.08251],[-75.6874,5.08242],[-75.68739,5.08242],[-75.68716,5.08248],[-75.68701,5.0826],[-75.68698,5.08263],[-75.68703,5.08288],[-75.68711,5.08309],[-75.68715,5.08321],[-75.68708,5.08333],[-75.68706,5.08337],[-75.68693,5.08347],[-75.6867,5.08365],[-75.68657,5.08388],[-75.68654,5.08403],[-75.68667,5.08425],[-75.68671,5.08429],[-75.68667,5.08445],[-75.68665,5.08461],[-75.68664,5.0847],[-75.68661,5.08486],[-75.68659,5.08495],[-75.68651,5.0851],[-75.68633,5.08528],[-75.6862,5.08532],[-75.68597,5.0854],[-75.68586,5.08546],[-75.68587,5.08557],[-75.68592,5.08567],[-75.68598,5.08587],[-75.68608,5.08614],[-75.68641,5.08631],[-75.68674,5.08645],[-75.68698,5.08658],[-75.68721,5.08678],[-75.68741,5.08711],[-75.68749,5.08745],[-75.68751,5.08755],[-75.68742,5.08769],[-75.68729,5.08781],[-75.6872,5.0879],[-75.68717,5.08805],[-75.68715,5.08813],[-75.68714,5.0882],[-75.68714,5.08835],[-75.68709,5.08842],[-75.68699,5.08851],[-75.68681,5.08866],[-75.6868,5.08876],[-75.6868,5.08892],[-75.68679,5.0891],[-75.68679,5.08919],[-75.68675,5.08926],[-75.68672,5.08939],[-75.68672,5.08949],[-75.68671,5.08956],[-75.68669,5.08962],[-75.68668,5.0897],[-75.68667,5.08976],[-75.68662,5.08999],[-75.68663,5.09004],[-75.68663,5.09007],[-75.6866,5.09011],[-75.68651,5.09016],[-75.68637,5.09022],[-75.68614,5.09028],[-75.68604,5.09031],[-75.68604,5.09035],[-75.68595,5.09035],[-75.68574,5.09034],[-75.68522,5.0902],[-75.68488,5.09007],[-75.68463,5.0899],[-75.68454,5.08974],[-75.68448,5.08953],[-75.68448,5.08935],[-75.68461,5.08901],[-75.68468,5.08875],[-75.68472,5.08844],[-75.68468,5.0882],[-75.68446,5.08808],[-75.68451,5.08785],[-75.68454,5.0878],[-75.68461,5.08766],[-75.68462,5.08755],[-75.68458,5.08738],[-75.68449,5.08724],[-75.68436,5.0872],[-75.68422,5.08721],[-75.68409,5.08728],[-75.68387,5.08744],[-75.68378,5.08752],[-75.68361,5.08767],[-75.68343,5.08783],[-75.68339,5.08787],[-75.68317,5.08774],[-75.68305,5.08772],[-75.68294,5.08761],[-75.68273,5.08752],[-75.68271,5.08726],[-75.68283,5.08712],[-75.68303,5.08694],[-75.68321,5.08683],[-75.68329,5.08664],[-75.68323,5.08642],[-75.68309,5.08621],[-75.68294,5.08614],[-75.68265,5.08616],[-75.68267,5.086],[-75.68271,5.08579],[-75.68266,5.08558],[-75.68255,5.08542],[-75.68244,5.08536],[-75.68234,5.08517],[-75.68224,5.08486],[-75.68203,5.08469],[-75.68186,5.08438],[-75.68175,5.08419],[-75.68158,5.0841],[-75.68141,5.08414],[-75.68126,5.08423],[-75.68114,5.08429],[-75.68103,5.08432],[-75.68092,5.08393],[-75.68092,5.08368],[-75.68092,5.08349],[-75.68089,5.08325],[-75.68084,5.08303],[-75.68077,5.0829],[-75.6807,5.08276],[-75.68071,5.0827],[-75.68072,5.08264],[-75.68069,5.08248],[-75.68068,5.08237],[-75.68075,5.08228],[-75.68086,5.08216],[-75.6809,5.08198],[-75.68087,5.08186],[-75.68081,5.08168],[-75.68074,5.08154],[-75.68061,5.08134],[-75.68051,5.0812],[-75.68038,5.081],[-75.68035,5.08084],[-75.6804,5.08061],[-75.68045,5.08042],[-75.68049,5.08024],[-75.68054,5.08007],[-75.68059,5.0799],[-75.68061,5.07975],[-75.68062,5.07959],[-75.68062,5.0794],[-75.68063,5.07922],[-75.68064,5.079],[-75.68063,5.07871],[-75.6806,5.07848],[-75.68061,5.07827],[-75.68059,5.07809],[-75.68058,5.07783],[-75.68061,5.0776],[-75.68063,5.07743],[-75.68073,5.07713],[-75.68083,5.0769],[-75.68102,5.0767],[-75.68117,5.07655],[-75.68137,5.0764],[-75.68154,5.07624],[-75.68176,5.07608],[-75.68203,5.07589],[-75.68229,5.07571],[-75.68254,5.07555],[-75.68281,5.07536],[-75.68314,5.07511],[-75.68327,5.07491],[-75.6834,5.07473],[-75.68355,5.0746],[-75.68364,5.07448],[-75.68374,5.07438],[-75.68374,5.07425],[-75.68374,5.07401],[-75.6837,5.07391],[-75.68368,5.07372],[-75.68365,5.0736],[-75.6836,5.07343],[-75.68357,5.07331],[-75.68357,5.07323],[-75.68363,5.07318],[-75.68368,5.07312],[-75.68373,5.073],[-75.68376,5.07288],[-75.68378,5.07275],[-75.68381,5.07267],[-75.68381,5.07256],[-75.6838,5.07239],[-75.68378,5.07227],[-75.68373,5.07217],[-75.68368,5.07201],[-75.68366,5.07188],[-75.68363,5.07177],[-75.6836,5.07166],[-75.68359,5.07153],[-75.68357,5.07139],[-75.6835,5.07123],[-75.68347,5.07103],[-75.68341,5.07088],[-75.68338,5.07074],[-75.68335,5.07061],[-75.68332,5.07046],[-75.68327,5.07024],[-75.68326,5.07014],[-75.68303,5.06986],[-75.68263,5.06972],[-75.68225,5.06957],[-75.68202,5.06939],[-75.68199,5.06934],[-75.68198,5.06934],[-75.68176,5.06912],[-75.68175,5.06912],[-75.68172,5.06908],[-75.68155,5.06907],[-75.68146,5.06909],[-75.68152,5.06918],[-75.68177,5.06938],[-75.68191,5.06952],[-75.682,5.06965],[-75.68214,5.06971],[-75.68231,5.06984],[-75.68252,5.06993],[-75.68272,5.07],[-75.68292,5.07005],[-75.68304,5.07012],[-75.68313,5.07026],[-75.68321,5.07065],[-75.68331,5.07107],[-75.68338,5.07131],[-75.68347,5.0715],[-75.68347,5.07168],[-75.6835,5.07182],[-75.68355,5.072],[-75.68359,5.07216],[-75.68364,5.0723],[-75.68368,5.07244],[-75.68369,5.07255],[-75.68364,5.07266],[-75.68362,5.07278],[-75.68354,5.07293],[-75.68351,5.07302],[-75.6834,5.07313],[-75.68334,5.07318],[-75.68336,5.07328],[-75.68333,5.07336],[-75.6834,5.0735],[-75.68348,5.07365],[-75.68356,5.07382],[-75.68358,5.07398],[-75.6836,5.07413],[-75.6836,5.07423],[-75.68341,5.07446],[-75.68333,5.07456],[-75.68326,5.07474],[-75.68319,5.07487],[-75.68305,5.07494],[-75.6829,5.07504],[-75.68276,5.07513],[-75.68258,5.07527],[-75.68239,5.07537],[-75.68206,5.07557],[-75.68154,5.07596],[-75.68129,5.07617],[-75.68106,5.07631],[-75.68087,5.07643],[-75.68071,5.07662],[-75.68059,5.07676],[-75.68049,5.07717],[-75.68044,5.07768],[-75.68043,5.07803],[-75.68046,5.0783],[-75.68048,5.07862],[-75.68051,5.07879],[-75.68051,5.0791],[-75.68047,5.07957],[-75.68032,5.08029],[-75.68022,5.0807],[-75.68021,5.08101],[-75.68027,5.08126],[-75.68044,5.0815],[-75.68064,5.08175],[-75.6807,5.08195],[-75.68066,5.08212],[-75.68056,5.08224],[-75.68054,5.08234],[-75.68049,5.08257],[-75.68028,5.08237],[-75.67995,5.0823],[-75.67965,5.0822],[-75.67957,5.08217],[-75.67946,5.0817],[-75.67918,5.08124],[-75.67904,5.08114],[-75.67899,5.08108],[-75.67896,5.08101],[-75.67894,5.0809],[-75.67894,5.08081],[-75.67894,5.08079],[-75.67894,5.08055],[-75.6789,5.0804],[-75.67886,5.08027],[-75.67885,5.08013],[-75.67893,5.07999],[-75.67899,5.07989],[-75.67905,5.07971],[-75.67904,5.07952],[-75.67905,5.07952],[-75.67893,5.07923],[-75.67903,5.07904],[-75.67907,5.07869],[-75.6791,5.07855],[-75.67911,5.07836],[-75.67909,5.07816],[-75.67905,5.07798],[-75.67905,5.07781],[-75.67902,5.07736],[-75.6788,5.07707],[-75.67854,5.07673],[-75.67832,5.07628],[-75.67831,5.07627],[-75.67824,5.07578],[-75.67834,5.07539],[-75.67871,5.07476],[-75.67912,5.07401],[-75.67935,5.07346],[-75.67934,5.07284],[-75.6793,5.07233],[-75.67941,5.07202],[-75.67966,5.07187],[-75.67971,5.07164],[-75.67958,5.07124],[-75.67948,5.07096],[-75.67917,5.07064],[-75.6789,5.07046],[-75.6787,5.07049],[-75.67854,5.07041],[-75.67839,5.07029],[-75.67822,5.07014],[-75.67815,5.06991],[-75.67799,5.06977],[-75.67783,5.06971],[-75.67762,5.06958],[-75.6775,5.06942],[-75.6775,5.06923],[-75.67761,5.06902],[-75.67779,5.0688],[-75.67778,5.06856],[-75.67764,5.06839],[-75.67743,5.06833],[-75.67726,5.06822],[-75.67719,5.06817],[-75.67708,5.0681],[-75.67678,5.06807],[-75.67662,5.06804],[-75.67663,5.06805],[-75.67666,5.06811],[-75.67674,5.06822],[-75.67676,5.06824],[-75.67688,5.06824],[-75.67708,5.06843],[-75.67729,5.0685],[-75.67756,5.06861],[-75.6776,5.06873],[-75.67748,5.0689],[-75.67739,5.06902],[-75.67728,5.06924],[-75.67733,5.06952],[-75.6775,5.06972],[-75.67764,5.0698],[-75.67779,5.06984],[-75.67796,5.06988],[-75.67801,5.06994],[-75.67801,5.07003],[-75.67798,5.07014],[-75.67799,5.07026],[-75.67807,5.07032],[-75.67814,5.0704],[-75.67819,5.07044],[-75.67829,5.07046],[-75.67839,5.07049],[-75.67849,5.07062],[-75.6786,5.07071],[-75.67874,5.07076],[-75.67884,5.07069],[-75.67887,5.07063],[-75.67899,5.07074],[-75.67913,5.07083],[-75.67923,5.07094],[-75.67922,5.07119],[-75.67921,5.07129],[-75.67916,5.07139],[-75.67906,5.0715],[-75.67897,5.07157],[-75.67894,5.07172],[-75.67896,5.07185],[-75.67907,5.07202],[-75.67911,5.0723],[-75.67916,5.07277],[-75.67916,5.07293],[-75.67905,5.07306],[-75.67894,5.07317],[-75.67889,5.0733],[-75.67887,5.07342],[-75.6789,5.07354],[-75.67902,5.07378],[-75.67899,5.07388],[-75.67872,5.07419],[-75.67865,5.07439],[-75.67861,5.07449],[-75.67846,5.07449],[-75.67845,5.07449],[-75.67834,5.07448],[-75.67826,5.07447],[-75.6782,5.07446],[-75.67807,5.07448],[-75.67798,5.07451],[-75.67789,5.07451],[-75.67782,5.0745],[-75.67775,5.07439],[-75.67767,5.07426],[-75.67759,5.07421],[-75.67748,5.07421],[-75.67737,5.07427],[-75.67728,5.07437],[-75.67728,5.07444],[-75.67728,5.07453],[-75.67728,5.07462],[-75.67722,5.07463],[-75.67718,5.07453],[-75.67715,5.07438],[-75.67715,5.0743],[-75.67703,5.07429],[-75.67697,5.07433],[-75.6769,5.07428],[-75.67686,5.07422],[-75.67688,5.07412],[-75.67681,5.07405],[-75.67679,5.07396],[-75.67674,5.07387],[-75.67662,5.07384],[-75.6765,5.07384],[-75.67639,5.07381],[-75.6763,5.07377],[-75.67614,5.07369],[-75.67609,5.07354],[-75.67608,5.07347],[-75.67603,5.07335],[-75.67596,5.07327],[-75.67587,5.07318],[-75.67572,5.07313],[-75.67563,5.07306],[-75.67558,5.07299],[-75.67561,5.07288],[-75.67565,5.07282],[-75.67564,5.07272],[-75.67564,5.07264],[-75.67564,5.07254],[-75.67553,5.07245],[-75.6754,5.07228],[-75.67529,5.0722],[-75.67519,5.07211],[-75.67502,5.07204],[-75.67486,5.07196],[-75.67467,5.07188],[-75.6746,5.07183],[-75.67456,5.07172],[-75.67453,5.07162],[-75.67456,5.07145],[-75.67456,5.07132],[-75.67451,5.07121],[-75.67445,5.07116],[-75.67439,5.0711],[-75.67434,5.07102],[-75.67439,5.07094],[-75.67441,5.0708],[-75.67437,5.07067],[-75.67436,5.07051],[-75.67433,5.0704],[-75.67425,5.07036],[-75.674,5.07034],[-75.67388,5.07039],[-75.67371,5.07048],[-75.67367,5.07061],[-75.67361,5.07075],[-75.67356,5.07088],[-75.67354,5.0711],[-75.67343,5.07117],[-75.67327,5.07123],[-75.6731,5.07129],[-75.67289,5.07129],[-75.67283,5.07125],[-75.67269,5.0714],[-75.67257,5.07144],[-75.67242,5.07151],[-75.67224,5.07154],[-75.67213,5.07155],[-75.67193,5.07167],[-75.67193,5.07169],[-75.6718,5.07172],[-75.67162,5.07179],[-75.67123,5.07193],[-75.67103,5.07196],[-75.67095,5.07195],[-75.6707,5.07193],[-75.67039,5.07197],[-75.67029,5.07198],[-75.67015,5.0719],[-75.67006,5.07185],[-75.66997,5.07179],[-75.66974,5.07171],[-75.66953,5.07154],[-75.6694,5.07134],[-75.66912,5.0711],[-75.66878,5.07083],[-75.66849,5.07062],[-75.66828,5.07053],[-75.66808,5.07048],[-75.66783,5.07057],[-75.66773,5.07053],[-75.66757,5.07041],[-75.66757,5.07049],[-75.66766,5.07059],[-75.66776,5.07068],[-75.66791,5.07075],[-75.66838,5.07091],[-75.66864,5.07106],[-75.66892,5.07129],[-75.66901,5.07151],[-75.66909,5.07178],[-75.66913,5.07197],[-75.6693,5.0722],[-75.66949,5.07239],[-75.66977,5.07256],[-75.67007,5.07271],[-75.67033,5.07275],[-75.67061,5.07276],[-75.67093,5.07266],[-75.67118,5.07248],[-75.67123,5.07234],[-75.67127,5.07215],[-75.67139,5.07201],[-75.67173,5.07187],[-75.67201,5.07176],[-75.67224,5.07168],[-75.67245,5.07165],[-75.67268,5.0717],[-75.67285,5.07174],[-75.67312,5.07172],[-75.67346,5.07155],[-75.67363,5.07135],[-75.6738,5.07123],[-75.67391,5.07108],[-75.67402,5.07101],[-75.67408,5.07105],[-75.67425,5.07116],[-75.67437,5.07125],[-75.67443,5.07132],[-75.67441,5.07154],[-75.67443,5.07175],[-75.67442,5.07185],[-75.67447,5.07196],[-75.67466,5.07203],[-75.67485,5.0721],[-75.67504,5.07222],[-75.67507,5.07226],[-75.67507,5.07231],[-75.67512,5.07239],[-75.6752,5.07247],[-75.67527,5.07254],[-75.6754,5.07262],[-75.67544,5.07267],[-75.67545,5.07281],[-75.67538,5.07292],[-75.67532,5.07302],[-75.67529,5.07315],[-75.67546,5.07321],[-75.67557,5.07321],[-75.67564,5.07332],[-75.67576,5.07341],[-75.67589,5.07342],[-75.67594,5.07351],[-75.67593,5.07364],[-75.67595,5.07382],[-75.67601,5.07391],[-75.67611,5.07399],[-75.67624,5.07405],[-75.67637,5.07403],[-75.67652,5.07406],[-75.67654,5.07419],[-75.67654,5.07429],[-75.67658,5.07438],[-75.67664,5.07446],[-75.67673,5.07451],[-75.67683,5.07452],[-75.67696,5.07462],[-75.67702,5.07474],[-75.67709,5.07479],[-75.67723,5.0748],[-75.67739,5.07477],[-75.67745,5.07474],[-75.67747,5.07462],[-75.67744,5.07452],[-75.67743,5.07445],[-75.67744,5.07439],[-75.67756,5.07437],[-75.67763,5.07442],[-75.67778,5.07459],[-75.67793,5.07461],[-75.67813,5.07458],[-75.67825,5.07458],[-75.67826,5.07458],[-75.67847,5.0746],[-75.67847,5.0746],[-75.67855,5.07464],[-75.67855,5.07465],[-75.67854,5.07467],[-75.67848,5.07473],[-75.67834,5.07488],[-75.67823,5.07503],[-75.67807,5.07525],[-75.67798,5.07559],[-75.67787,5.07592],[-75.67794,5.07629],[-75.67813,5.07669],[-75.67835,5.07703],[-75.67849,5.07717],[-75.67868,5.07754],[-75.67875,5.07775],[-75.67875,5.07803],[-75.67859,5.0783],[-75.67849,5.07837],[-75.67848,5.07847],[-75.6785,5.07854],[-75.67873,5.07863],[-75.67878,5.07874],[-75.67876,5.07884],[-75.67848,5.07903],[-75.67832,5.07912],[-75.67825,5.07928],[-75.67824,5.07951],[-75.67821,5.07981],[-75.67821,5.08004],[-75.67822,5.0802],[-75.67825,5.08027],[-75.67831,5.08036],[-75.67838,5.08046],[-75.67832,5.08059],[-75.67834,5.08077],[-75.67848,5.08095],[-75.67848,5.08101],[-75.67848,5.08106],[-75.67847,5.08129],[-75.67851,5.08158],[-75.67857,5.0818],[-75.67861,5.08198],[-75.67867,5.0821],[-75.67874,5.08227],[-75.67892,5.08233],[-75.67914,5.08229],[-75.67944,5.08233],[-75.6797,5.08238],[-75.67993,5.08244],[-75.68022,5.08258],[-75.68041,5.08271],[-75.68049,5.08291],[-75.6805,5.08321],[-75.68044,5.08332],[-75.68043,5.08349],[-75.68055,5.08375],[-75.68063,5.08394],[-75.68067,5.08403],[-75.68063,5.08422],[-75.68064,5.08438],[-75.68068,5.08449],[-75.68079,5.0846],[-75.68094,5.08464],[-75.68114,5.08464],[-75.6813,5.08458],[-75.68137,5.08441],[-75.68146,5.08435],[-75.68169,5.08435],[-75.68188,5.08463],[-75.682,5.08512],[-75.68206,5.08552],[-75.6822,5.08573],[-75.68229,5.08592],[-75.68207,5.08614],[-75.68234,5.08649],[-75.68225,5.08664],[-75.6822,5.08671],[-75.6822,5.08679],[-75.6822,5.0869],[-75.6823,5.08704],[-75.68243,5.08714],[-75.68246,5.08723],[-75.68242,5.0873],[-75.6824,5.08735],[-75.68234,5.08747],[-75.68227,5.08758],[-75.68223,5.08773],[-75.68232,5.08786],[-75.68243,5.08794],[-75.68252,5.08799],[-75.68255,5.08799],[-75.68255,5.08789],[-75.68273,5.08804],[-75.68279,5.08809],[-75.68297,5.08819],[-75.68326,5.08819],[-75.68349,5.0881],[-75.68363,5.08799],[-75.68393,5.08764],[-75.68394,5.08763],[-75.68409,5.08743],[-75.68428,5.08742],[-75.68444,5.08753],[-75.68433,5.08774],[-75.68428,5.08794],[-75.68427,5.088],[-75.68451,5.08825],[-75.68451,5.08844],[-75.68452,5.08853],[-75.68452,5.08879],[-75.68444,5.08911],[-75.68435,5.08944],[-75.68434,5.0897],[-75.68445,5.08995],[-75.68461,5.09007],[-75.68476,5.09018],[-75.68503,5.09032],[-75.68534,5.09041],[-75.68539,5.09044],[-75.68544,5.09044],[-75.68552,5.09044],[-75.68558,5.09043],[-75.68568,5.09044],[-75.68568,5.09044],[-75.68581,5.09044],[-75.68581,5.09044],[-75.68583,5.09044],[-75.68591,5.09044],[-75.68596,5.09043],[-75.68615,5.0904],[-75.68618,5.09039],[-75.68622,5.09039],[-75.68625,5.0904],[-75.68629,5.0904],[-75.68632,5.09041],[-75.68633,5.09041]]],[[[-75.68639,5.09101],[-75.68637,5.09103],[-75.68636,5.09104],[-75.68635,5.09109],[-75.68637,5.09114],[-75.68638,5.09116],[-75.68639,5.09121],[-75.68642,5.09105],[-75.6864,5.091],[-75.68639,5.09101]]],[[[-75.67238,5.08494],[-75.67247,5.08495],[-75.67255,5.08495],[-75.67262,5.08496],[-75.67277,5.08498],[-75.67291,5.08504],[-75.67299,5.08506],[-75.67304,5.08507],[-75.67308,5.08508],[-75.67315,5.0851],[-75.67323,5.08513],[-75.67332,5.08518],[-75.67339,5.08522],[-75.67346,5.08527],[-75.67352,5.08531],[-75.67352,5.08532],[-75.67362,5.08541],[-75.67369,5.08554],[-75.67375,5.08559],[-75.67382,5.0857],[-75.6739,5.0858],[-75.67401,5.086],[-75.67401,5.086],[-75.67407,5.08606],[-75.67411,5.08612],[-75.67415,5.08619],[-75.6742,5.08626],[-75.67424,5.08632],[-75.67426,5.08636],[-75.67428,5.08639],[-75.67434,5.08658],[-75.6744,5.08666],[-75.67444,5.08673],[-75.67449,5.08679],[-75.6745,5.08681],[-75.67456,5.08689],[-75.67457,5.08691],[-75.6746,5.08696],[-75.67466,5.08711],[-75.6747,5.08719],[-75.67474,5.08726],[-75.67478,5.08733],[-75.67481,5.08754],[-75.67486,5.0878],[-75.67489,5.08788],[-75.67493,5.08794],[-75.67495,5.08801],[-75.67498,5.08809],[-75.675,5.08816],[-75.67503,5.08825],[-75.67505,5.08842],[-75.67506,5.08858],[-75.67507,5.08875],[-75.67511,5.08898],[-75.67514,5.08922],[-75.67513,5.08931],[-75.67512,5.08938],[-75.6751,5.08947],[-75.6751,5.08954],[-75.67507,5.08963],[-75.67506,5.08971],[-75.67503,5.08979],[-75.675,5.08986],[-75.67497,5.08993],[-75.67491,5.09005],[-75.67488,5.09012],[-75.67484,5.09019],[-75.67483,5.0902],[-75.67477,5.0904],[-75.67474,5.09046],[-75.6747,5.09054],[-75.67468,5.09062],[-75.67468,5.0907],[-75.67467,5.0908],[-75.67467,5.09088],[-75.67467,5.09097],[-75.67467,5.09107],[-75.67468,5.09116],[-75.6747,5.09126],[-75.6747,5.09135],[-75.67471,5.09143],[-75.67472,5.09151],[-75.67472,5.09151],[-75.67499,5.09169],[-75.67503,5.09178],[-75.67507,5.09181],[-75.675,5.09157],[-75.67503,5.09128],[-75.6751,5.09099],[-75.67527,5.09051],[-75.67539,5.09025],[-75.67545,5.08952],[-75.67546,5.08938],[-75.67546,5.08885],[-75.67544,5.08837],[-75.67541,5.08832],[-75.67542,5.08795],[-75.67545,5.0867],[-75.67531,5.08628],[-75.67525,5.08596],[-75.67491,5.08553],[-75.67474,5.08532],[-75.67457,5.08502],[-75.67466,5.08479],[-75.67485,5.08455],[-75.67494,5.08423],[-75.67478,5.0839],[-75.67435,5.08324],[-75.67408,5.08307],[-75.67382,5.08306],[-75.6736,5.08326],[-75.67332,5.08352],[-75.67319,5.08345],[-75.67309,5.08313],[-75.67311,5.08268],[-75.67283,5.08241],[-75.67251,5.0824],[-75.6722,5.08259],[-75.67197,5.08294],[-75.6716,5.08303],[-75.67143,5.08296],[-75.67112,5.08296],[-75.67086,5.08308],[-75.6704,5.08339],[-75.67,5.0836],[-75.66983,5.08389],[-75.66969,5.08436],[-75.66961,5.08465],[-75.66937,5.08506],[-75.66912,5.08537],[-75.66876,5.08581],[-75.66866,5.08592],[-75.6682,5.08603],[-75.66802,5.08585],[-75.66768,5.08536],[-75.66762,5.08522],[-75.66749,5.08498],[-75.66738,5.08477],[-75.66719,5.08458],[-75.6669,5.08441],[-75.6665,5.08395],[-75.66616,5.0836],[-75.66607,5.08299],[-75.66608,5.08269],[-75.66617,5.08235],[-75.66641,5.08169],[-75.66649,5.08146],[-75.66667,5.08122],[-75.66703,5.08108],[-75.66743,5.08103],[-75.66757,5.0806],[-75.66758,5.08059],[-75.6677,5.08046],[-75.6679,5.08022],[-75.66821,5.07974],[-75.66828,5.07955],[-75.66831,5.07935],[-75.66826,5.0793],[-75.66817,5.07921],[-75.66811,5.07915],[-75.6681,5.07915],[-75.66804,5.0791],[-75.66803,5.07909],[-75.66802,5.0791],[-75.66802,5.07911],[-75.66795,5.07929],[-75.66785,5.07944],[-75.66773,5.07958],[-75.66763,5.07968],[-75.66758,5.07979],[-75.66739,5.07997],[-75.66714,5.08014],[-75.66679,5.08034],[-75.66654,5.08046],[-75.66627,5.08061],[-75.66598,5.08085],[-75.6658,5.08103],[-75.66566,5.08129],[-75.66545,5.08154],[-75.66533,5.08174],[-75.6651,5.08197],[-75.66495,5.08217],[-75.66483,5.08234],[-75.6647,5.08252],[-75.66457,5.08269],[-75.66449,5.08282],[-75.66469,5.08307],[-75.66481,5.08308],[-75.665,5.08313],[-75.66517,5.08325],[-75.66528,5.08332],[-75.66539,5.0834],[-75.66549,5.08347],[-75.66562,5.08356],[-75.66573,5.08369],[-75.66576,5.08376],[-75.66579,5.08383],[-75.66583,5.08391],[-75.66585,5.084],[-75.66589,5.08407],[-75.66592,5.08414],[-75.66595,5.08422],[-75.66596,5.08429],[-75.66597,5.08437],[-75.66599,5.08443],[-75.66599,5.08449],[-75.666,5.08456],[-75.666,5.08464],[-75.666,5.08472],[-75.666,5.08478],[-75.66601,5.08491],[-75.66595,5.08499],[-75.66594,5.08509],[-75.66594,5.08524],[-75.66601,5.0855],[-75.66604,5.08561],[-75.66607,5.08574],[-75.66608,5.08575],[-75.66612,5.08583],[-75.66625,5.08592],[-75.66636,5.08599],[-75.66656,5.08625],[-75.66663,5.0863],[-75.66669,5.08636],[-75.66675,5.08642],[-75.6668,5.08648],[-75.66685,5.08654],[-75.66702,5.0867],[-75.66708,5.08677],[-75.66713,5.08683],[-75.66719,5.08688],[-75.66724,5.08694],[-75.6673,5.08701],[-75.66737,5.08714],[-75.66753,5.08741],[-75.66758,5.08748],[-75.66762,5.08756],[-75.66767,5.08762],[-75.66772,5.08769],[-75.66777,5.08775],[-75.66784,5.08781],[-75.66786,5.08782],[-75.66796,5.08779],[-75.668,5.08778],[-75.66801,5.08778],[-75.66801,5.08777],[-75.66809,5.08758],[-75.6681,5.08756],[-75.6681,5.08755],[-75.66813,5.08748],[-75.66815,5.08744],[-75.66817,5.08739],[-75.66822,5.08725],[-75.66832,5.08706],[-75.66835,5.08698],[-75.66839,5.08691],[-75.66842,5.08684],[-75.66847,5.08676],[-75.66851,5.0867],[-75.66854,5.08663],[-75.66858,5.08656],[-75.66862,5.08648],[-75.66866,5.08642],[-75.66871,5.08635],[-75.66875,5.08629],[-75.6688,5.08624],[-75.66881,5.08622],[-75.66882,5.08622],[-75.66888,5.08619],[-75.66894,5.08614],[-75.669,5.08609],[-75.66906,5.08605],[-75.66914,5.08602],[-75.66927,5.08598],[-75.66939,5.08593],[-75.66957,5.08584],[-75.66966,5.08582],[-75.66988,5.08576],[-75.66996,5.08574],[-75.66997,5.08573],[-75.67004,5.08571],[-75.67011,5.08569],[-75.67032,5.08564],[-75.67038,5.08561],[-75.6704,5.08561],[-75.67048,5.08558],[-75.67112,5.08522],[-75.67134,5.08509],[-75.67162,5.08505],[-75.67173,5.08504],[-75.67175,5.08503],[-75.67183,5.08501],[-75.67191,5.085],[-75.67198,5.08499],[-75.67207,5.08497],[-75.67215,5.08497],[-75.67223,5.08496],[-75.67231,5.08494],[-75.67238,5.08494]]],[[[-75.68617,5.09245],[-75.68616,5.0925],[-75.68611,5.09278],[-75.68611,5.0928],[-75.68605,5.09318],[-75.68604,5.09322],[-75.68604,5.09325],[-75.68601,5.09336],[-75.68616,5.09313],[-75.68631,5.0927],[-75.68637,5.09252],[-75.68661,5.09245],[-75.68699,5.09246],[-75.68743,5.0925],[-75.68751,5.09251],[-75.68752,5.09249],[-75.68752,5.09249],[-75.68752,5.09248],[-75.68752,5.09247],[-75.68752,5.09245],[-75.68752,5.09243],[-75.68752,5.09243],[-75.68752,5.09239],[-75.68752,5.09238],[-75.68753,5.09235],[-75.68752,5.09235],[-75.68712,5.09227],[-75.68684,5.09223],[-75.68676,5.09223],[-75.68661,5.09203],[-75.68655,5.09195],[-75.68638,5.09179],[-75.68639,5.09175],[-75.6864,5.09172],[-75.68639,5.09166],[-75.68632,5.09177],[-75.6863,5.09184],[-75.68628,5.09189],[-75.68627,5.09201],[-75.68627,5.09203],[-75.68626,5.09206],[-75.68625,5.09209],[-75.68623,5.09221],[-75.68619,5.09235],[-75.68617,5.09245]]],[[[-75.68485,5.09467],[-75.68498,5.0948],[-75.68501,5.09482],[-75.68502,5.09483],[-75.68503,5.09483],[-75.6852,5.09491],[-75.68518,5.09504],[-75.68519,5.09508],[-75.68519,5.09508],[-75.68515,5.09519],[-75.68515,5.09521],[-75.68513,5.09526],[-75.68505,5.09542],[-75.68512,5.0954],[-75.68544,5.09528],[-75.68542,5.09494],[-75.68563,5.09487],[-75.68601,5.09475],[-75.68658,5.09458],[-75.68684,5.09449],[-75.68687,5.09446],[-75.6869,5.09434],[-75.68689,5.09432],[-75.687,5.09431],[-75.68698,5.09431],[-75.68701,5.09426],[-75.68701,5.09421],[-75.68701,5.09421],[-75.68701,5.0942],[-75.68697,5.09421],[-75.68668,5.09431],[-75.6862,5.09441],[-75.68554,5.09463],[-75.68532,5.09453],[-75.68525,5.09452],[-75.68511,5.09446],[-75.68503,5.09436],[-75.68502,5.09423],[-75.68507,5.0941],[-75.68536,5.09398],[-75.68554,5.09391],[-75.68572,5.09374],[-75.68572,5.09374],[-75.68571,5.09374],[-75.68571,5.09374],[-75.6857,5.09375],[-75.68559,5.09377],[-75.68544,5.09379],[-75.68543,5.0938],[-75.6854,5.09382],[-75.68529,5.09392],[-75.68511,5.09401],[-75.68494,5.09407],[-75.68489,5.09409],[-75.68477,5.09414],[-75.68475,5.09414],[-75.68474,5.09416],[-75.68459,5.09423],[-75.68444,5.09434],[-75.68443,5.09434],[-75.6845,5.09451],[-75.68454,5.09454],[-75.6846,5.09459],[-75.68465,5.09462],[-75.68485,5.09467]]],[[[-75.68465,5.09585],[-75.68463,5.09588],[-75.68461,5.09589],[-75.68452,5.096],[-75.68441,5.09615],[-75.68437,5.09623],[-75.68436,5.09625],[-75.68432,5.09633],[-75.68423,5.0965],[-75.68417,5.09668],[-75.68408,5.0968],[-75.68406,5.09683],[-75.68406,5.09683],[-75.68411,5.0969],[-75.68417,5.09689],[-75.6844,5.09657],[-75.68457,5.09605],[-75.68469,5.09579],[-75.68465,5.09585]]]]},"properties":{"FID":4,"OBJECTID":46,"Amenaza":"Alta","SUELO":"Suelo Suburbano","NOMBRE":"Suburbano V. Campestre (Santagueda)","Area_ha":668.763210191,"Area_HaACA":66.3880879547,"Shape_Leng":30064.7929808,"Shape_Area":663880.839774}},{"type":"Feature","id":5,"geometry":{"type":"MultiPolygon","coordinates":[[[[-75.68411,5.0969],[-75.68416,5.09697],[-75.68418,5.09695],[-75.6844,5.09683],[-75.68459,5.09665],[-75.68466,5.09644],[-75.6847,5.09618],[-75.68472,5.09596],[-75.68479,5.0958],[-75.68487,5.09567],[-75.68498,5.09557],[-75.68511,5.09554],[-75.68523,5.09557],[-75.68534,5.09563],[-75.68559,5.09561],[-75.68564,5.0955],[-75.68564,5.09533],[-75.68558,5.09515],[-75.68564,5.09501],[-75.68588,5.09497],[-75.6861,5.09504],[-75.68618,5.09507],[-75.68628,5.09507],[-75.68645,5.09489],[-75.68652,5.09476],[-75.68666,5.09469],[-75.68669,5.09469],[-75.68675,5.09461],[-75.68681,5.09453],[-75.68684,5.09449],[-75.68658,5.09458],[-75.68601,5.09475],[-75.68563,5.09487],[-75.68542,5.09494],[-75.68544,5.09528],[-75.68512,5.0954],[-75.68505,5.09542],[-75.68504,5.09543],[-75.68504,5.09543],[-75.68491,5.09557],[-75.68476,5.09569],[-75.68476,5.0957],[-75.68472,5.09575],[-75.6847,5.09578],[-75.68469,5.09579],[-75.68457,5.09605],[-75.6844,5.09657],[-75.68417,5.09689],[-75.68411,5.0969]]],[[[-75.68503,5.09483],[-75.68503,5.09484],[-75.68511,5.0949],[-75.68513,5.09491],[-75.68518,5.09504],[-75.6852,5.09491],[-75.68503,5.09483]]],[[[-75.67507,5.09181],[-75.6751,5.09184],[-75.67545,5.0919],[-75.6756,5.09195],[-75.67569,5.09201],[-75.6766,5.09178],[-75.6766,5.09177],[-75.67658,5.09168],[-75.67654,5.09142],[-75.67646,5.09119],[-75.67631,5.09108],[-75.67616,5.09107],[-75.67606,5.09113],[-75.67597,5.09129],[-75.67589,5.09151],[-75.67569,5.09174],[-75.67559,5.09175],[-75.67554,5.09162],[-75.67557,5.09146],[-75.67565,5.0911],[-75.67566,5.09093],[-75.67561,5.09049],[-75.67558,5.0903],[-75.67555,5.0901],[-75.67545,5.08952],[-75.67539,5.09025],[-75.67527,5.09051],[-75.6751,5.09099],[-75.67503,5.09128],[-75.675,5.09157],[-75.67507,5.09181]]],[[[-75.68639,5.09121],[-75.6864,5.09122],[-75.68645,5.09131],[-75.68647,5.0913],[-75.68651,5.09126],[-75.68653,5.0912],[-75.6865,5.09109],[-75.6865,5.09105],[-75.6865,5.09101],[-75.6865,5.09099],[-75.68646,5.09098],[-75.68644,5.09099],[-75.6864,5.091],[-75.68642,5.09105],[-75.68639,5.09121]]],[[[-75.6866,5.09084],[-75.68661,5.09082],[-75.68672,5.0908],[-75.68673,5.0908],[-75.68678,5.09088],[-75.68679,5.09103],[-75.68682,5.09107],[-75.68695,5.09108],[-75.68699,5.09106],[-75.68698,5.09103],[-75.68696,5.091],[-75.68695,5.091],[-75.68693,5.09096],[-75.68685,5.09083],[-75.6868,5.09075],[-75.68678,5.09072],[-75.68677,5.0907],[-75.68676,5.09068],[-75.68675,5.09067],[-75.68674,5.09066],[-75.68667,5.09056],[-75.68666,5.09053],[-75.68665,5.09052],[-75.68664,5.09051],[-75.68664,5.09051],[-75.68664,5.0905],[-75.68665,5.09048],[-75.68663,5.09049],[-75.68653,5.09052],[-75.68647,5.09057],[-75.68641,5.09065],[-75.6864,5.09066],[-75.68641,5.09069],[-75.68643,5.09075],[-75.68646,5.09082],[-75.68647,5.09083],[-75.68647,5.09085],[-75.68648,5.09086],[-75.68651,5.09087],[-75.68651,5.09087],[-75.68653,5.09086],[-75.68654,5.09086],[-75.68658,5.09083],[-75.6866,5.09081],[-75.68661,5.0908],[-75.68661,5.0908],[-75.68661,5.0908],[-75.6866,5.09081],[-75.6866,5.09084],[-75.6866,5.09084]]],[[[-75.6868,5.09045],[-75.68681,5.09046],[-75.68697,5.09047],[-75.68709,5.09046],[-75.68713,5.09046],[-75.68717,5.09045],[-75.6871,5.09045],[-75.68699,5.09045],[-75.68688,5.09045],[-75.6868,5.09045]]],[[[-75.68711,5.08936],[-75.6871,5.08941],[-75.68707,5.08947],[-75.68704,5.08956],[-75.68703,5.08962],[-75.68702,5.08974],[-75.68702,5.08986],[-75.68704,5.08992],[-75.68706,5.08998],[-75.68708,5.09001],[-75.68716,5.09006],[-75.68722,5.09009],[-75.68729,5.09014],[-75.68737,5.09018],[-75.68745,5.09023],[-75.6876,5.09033],[-75.68764,5.09038],[-75.68771,5.09042],[-75.68774,5.09039],[-75.68764,5.09023],[-75.68757,5.09017],[-75.68754,5.09009],[-75.68753,5.08999],[-75.68749,5.0899],[-75.68739,5.08986],[-75.68733,5.08986],[-75.68726,5.08983],[-75.68721,5.08969],[-75.68721,5.08959],[-75.68721,5.0895],[-75.68721,5.08942],[-75.68711,5.08936]]],[[[-75.68595,5.09035],[-75.68604,5.09035],[-75.68604,5.09031],[-75.68603,5.09031],[-75.68595,5.09035]]],[[[-75.68672,5.08939],[-75.68657,5.08957],[-75.68649,5.08963],[-75.68645,5.08971],[-75.6864,5.08983],[-75.6864,5.08993],[-75.68638,5.09002],[-75.68634,5.09008],[-75.68614,5.09028],[-75.68637,5.09022],[-75.68651,5.09016],[-75.6866,5.09011],[-75.68663,5.09007],[-75.68663,5.09004],[-75.68662,5.08999],[-75.68667,5.08976],[-75.68668,5.0897],[-75.68669,5.08962],[-75.68671,5.08956],[-75.68672,5.08949],[-75.68672,5.08939]]],[[[-75.68765,5.08791],[-75.68752,5.08804],[-75.68745,5.08825],[-75.68745,5.08841],[-75.68761,5.08864],[-75.68759,5.08837],[-75.68759,5.08824],[-75.68761,5.08809],[-75.68765,5.08791]]],[[[-75.68698,5.08658],[-75.687,5.08678],[-75.687,5.08684],[-75.68699,5.08695],[-75.68697,5.08714],[-75.68705,5.08719],[-75.68719,5.08725],[-75.68731,5.08729],[-75.68741,5.08741],[-75.68742,5.0875],[-75.68738,5.08762],[-75.68733,5.08769],[-75.6872,5.08775],[-75.68714,5.08785],[-75.68712,5.0879],[-75.68715,5.08813],[-75.68717,5.08805],[-75.6872,5.0879],[-75.68729,5.08781],[-75.68742,5.08769],[-75.68751,5.08755],[-75.68749,5.08745],[-75.68741,5.08711],[-75.68721,5.08678],[-75.68698,5.08658]]],[[[-75.68255,5.08799],[-75.68273,5.08804],[-75.68255,5.08789],[-75.68255,5.08799]]],[[[-75.68207,5.08614],[-75.682,5.08629],[-75.68192,5.08648],[-75.68187,5.08658],[-75.68182,5.08671],[-75.68182,5.0868],[-75.68184,5.0869],[-75.6819,5.08698],[-75.68197,5.08702],[-75.68207,5.08705],[-75.68215,5.08707],[-75.68222,5.0871],[-75.68232,5.08715],[-75.68242,5.0873],[-75.68246,5.08723],[-75.68243,5.08714],[-75.6823,5.08704],[-75.6822,5.0869],[-75.6822,5.08679],[-75.6822,5.08671],[-75.68225,5.08664],[-75.68234,5.08649],[-75.68207,5.08614]]],[[[-75.68658,5.08603],[-75.68686,5.08611],[-75.68703,5.0862],[-75.68724,5.08632],[-75.68731,5.08644],[-75.68738,5.08654],[-75.68741,5.08663],[-75.68743,5.08681],[-75.68746,5.08685],[-75.68762,5.08712],[-75.68765,5.08717],[-75.68764,5.08696],[-75.68757,5.08686],[-75.6876,5.08673],[-75.68764,5.08656],[-75.68757,5.08647],[-75.68751,5.08639],[-75.6872,5.08618],[-75.68712,5.08613],[-75.68696,5.08606],[-75.68658,5.08603]]],[[[-75.67382,5.08306],[-75.67408,5.08307],[-75.67435,5.08324],[-75.67478,5.0839],[-75.67494,5.08423],[-75.67485,5.08455],[-75.67466,5.08479],[-75.67457,5.08502],[-75.67474,5.08532],[-75.67491,5.08553],[-75.67525,5.08596],[-75.67531,5.08628],[-75.67545,5.0867],[-75.67543,5.08602],[-75.67551,5.08586],[-75.6757,5.0852],[-75.67564,5.08497],[-75.67545,5.0845],[-75.67548,5.08437],[-75.67571,5.08415],[-75.67591,5.0838],[-75.67587,5.08355],[-75.67554,5.08323],[-75.67513,5.08301],[-75.6747,5.08293],[-75.6744,5.08294],[-75.67382,5.08306]]],[[[-75.66743,5.08103],[-75.66703,5.08108],[-75.66667,5.08122],[-75.66649,5.08146],[-75.66641,5.08169],[-75.66617,5.08235],[-75.66608,5.08269],[-75.66607,5.08299],[-75.66616,5.0836],[-75.6665,5.08395],[-75.6669,5.08441],[-75.66719,5.08458],[-75.66738,5.08477],[-75.66749,5.08498],[-75.66762,5.08522],[-75.66768,5.08536],[-75.66802,5.08585],[-75.6682,5.08603],[-75.66866,5.08592],[-75.66876,5.08581],[-75.66912,5.08537],[-75.66898,5.08535],[-75.66878,5.08521],[-75.66878,5.08504],[-75.66886,5.08487],[-75.66898,5.08467],[-75.66898,5.08432],[-75.66897,5.08398],[-75.66904,5.08361],[-75.66911,5.08334],[-75.66929,5.08298],[-75.66938,5.08273],[-75.66927,5.08246],[-75.66915,5.08238],[-75.66874,5.08248],[-75.66824,5.08251],[-75.66806,5.08232],[-75.66792,5.08209],[-75.66778,5.08173],[-75.66762,5.08153],[-75.66745,5.08126],[-75.66743,5.08103]]],[[[-75.687,5.08526],[-75.68726,5.08531],[-75.68743,5.08528],[-75.68754,5.0852],[-75.68766,5.08511],[-75.68775,5.08506],[-75.68784,5.085],[-75.68791,5.08492],[-75.68791,5.08478],[-75.68773,5.08455],[-75.68758,5.08451],[-75.68744,5.0844],[-75.68737,5.08423],[-75.68738,5.08407],[-75.68744,5.08396],[-75.68753,5.0838],[-75.68759,5.08365],[-75.68758,5.08354],[-75.68757,5.0835],[-75.68756,5.08335],[-75.68748,5.08323],[-75.68751,5.08303],[-75.68763,5.08308],[-75.68789,5.08319],[-75.68802,5.08329],[-75.68822,5.08331],[-75.68838,5.08322],[-75.68842,5.08308],[-75.68846,5.08293],[-75.68856,5.08273],[-75.68872,5.08281],[-75.68891,5.08297],[-75.68914,5.08316],[-75.68946,5.08319],[-75.6896,5.08314],[-75.6897,5.08303],[-75.68979,5.08288],[-75.68988,5.08265],[-75.68988,5.0824],[-75.68978,5.08211],[-75.68972,5.08175],[-75.68967,5.08155],[-75.68958,5.08143],[-75.68955,5.0814],[-75.68932,5.0814],[-75.68931,5.0814],[-75.68924,5.0814],[-75.68921,5.0814],[-75.68899,5.0814],[-75.68888,5.0814],[-75.68887,5.08139],[-75.68883,5.08139],[-75.68879,5.08139],[-75.68877,5.08139],[-75.68877,5.08139],[-75.68876,5.08139],[-75.68871,5.08139],[-75.6887,5.08139],[-75.68868,5.08139],[-75.68868,5.08139],[-75.68869,5.0814],[-75.68877,5.08141],[-75.68885,5.0814],[-75.68897,5.08141],[-75.68912,5.0814],[-75.68928,5.08142],[-75.68937,5.08145],[-75.68944,5.08149],[-75.6895,5.08159],[-75.68954,5.08171],[-75.68954,5.08188],[-75.68948,5.08201],[-75.68949,5.08207],[-75.68951,5.08212],[-75.68957,5.08221],[-75.68961,5.08231],[-75.68965,5.0824],[-75.68966,5.08256],[-75.68966,5.08274],[-75.68964,5.08285],[-75.68957,5.08295],[-75.6895,5.08302],[-75.68935,5.083],[-75.68925,5.08297],[-75.68913,5.08292],[-75.68906,5.08288],[-75.68894,5.0828],[-75.68887,5.08277],[-75.68875,5.08267],[-75.68862,5.08257],[-75.68855,5.08249],[-75.68842,5.08243],[-75.68836,5.08242],[-75.6883,5.08247],[-75.68832,5.08258],[-75.68834,5.0827],[-75.68832,5.0828],[-75.68833,5.08291],[-75.68833,5.08302],[-75.68834,5.08312],[-75.68825,5.08316],[-75.68812,5.08314],[-75.68792,5.0831],[-75.68779,5.08306],[-75.68772,5.083],[-75.68764,5.08293],[-75.6876,5.08283],[-75.68757,5.08274],[-75.68754,5.08271],[-75.6875,5.08268],[-75.68744,5.08265],[-75.6874,5.08264],[-75.68731,5.08264],[-75.68726,5.08265],[-75.68719,5.0827],[-75.68722,5.08277],[-75.68724,5.08297],[-75.68733,5.0831],[-75.68737,5.08324],[-75.68735,5.08333],[-75.68734,5.0834],[-75.68732,5.08342],[-75.68722,5.08353],[-75.68728,5.08379],[-75.68729,5.08387],[-75.68726,5.08399],[-75.68722,5.08409],[-75.68724,5.08422],[-75.68728,5.0843],[-75.68737,5.08447],[-75.68742,5.08448],[-75.68756,5.08471],[-75.68752,5.0849],[-75.68748,5.08507],[-75.68743,5.08517],[-75.68733,5.08524],[-75.68719,5.08526],[-75.68706,5.08527],[-75.687,5.08526]]],[[[-75.6807,5.08276],[-75.68077,5.0829],[-75.68084,5.08303],[-75.68089,5.08325],[-75.68092,5.08349],[-75.68092,5.08368],[-75.68092,5.08393],[-75.68103,5.08432],[-75.68114,5.08429],[-75.68126,5.08423],[-75.68141,5.08414],[-75.68158,5.0841],[-75.68145,5.084],[-75.68139,5.08393],[-75.68138,5.08382],[-75.68133,5.08366],[-75.68125,5.08353],[-75.68118,5.08342],[-75.68111,5.08332],[-75.68108,5.08324],[-75.681,5.08312],[-75.68093,5.083],[-75.68088,5.08289],[-75.6807,5.08276]]],[[[-75.6874,5.08242],[-75.68753,5.08251],[-75.68764,5.08261],[-75.68768,5.08266],[-75.6877,5.08275],[-75.68773,5.08282],[-75.68775,5.08287],[-75.68779,5.08293],[-75.68783,5.08296],[-75.68795,5.08297],[-75.68801,5.08301],[-75.68812,5.08304],[-75.6882,5.08305],[-75.68822,5.08299],[-75.68823,5.08288],[-75.68824,5.0828],[-75.68824,5.08272],[-75.68821,5.08264],[-75.68821,5.08253],[-75.68819,5.08245],[-75.68815,5.08234],[-75.68821,5.08223],[-75.68828,5.08217],[-75.68835,5.08218],[-75.68844,5.08222],[-75.68855,5.08229],[-75.68862,5.08235],[-75.68873,5.08244],[-75.68881,5.0825],[-75.68892,5.0826],[-75.68906,5.08267],[-75.68918,5.08275],[-75.68928,5.08279],[-75.68936,5.0828],[-75.68945,5.0828],[-75.68954,5.08274],[-75.68957,5.08264],[-75.68957,5.08251],[-75.68954,5.0824],[-75.68948,5.08228],[-75.68941,5.08216],[-75.68936,5.08202],[-75.68935,5.08191],[-75.68938,5.08183],[-75.68941,5.08169],[-75.68938,5.08161],[-75.68932,5.08152],[-75.68923,5.08152],[-75.68911,5.08153],[-75.68891,5.08153],[-75.68878,5.08152],[-75.68866,5.08148],[-75.68859,5.08143],[-75.68856,5.0814],[-75.68848,5.0814],[-75.68833,5.0814],[-75.68829,5.0814],[-75.68832,5.08145],[-75.68846,5.08157],[-75.68866,5.08168],[-75.68882,5.08171],[-75.68905,5.08176],[-75.68912,5.0819],[-75.68915,5.08205],[-75.68932,5.08226],[-75.68933,5.08236],[-75.68938,5.08248],[-75.6893,5.08247],[-75.68921,5.08241],[-75.68906,5.08233],[-75.68885,5.08229],[-75.68876,5.08222],[-75.68862,5.08203],[-75.68851,5.08188],[-75.68834,5.08178],[-75.68818,5.08174],[-75.688,5.08178],[-75.68792,5.08189],[-75.68784,5.08201],[-75.68782,5.08215],[-75.68787,5.08234],[-75.68796,5.08247],[-75.68801,5.08259],[-75.68807,5.08266],[-75.68811,5.08275],[-75.68808,5.08283],[-75.68794,5.08277],[-75.68792,5.08269],[-75.68783,5.08261],[-75.68764,5.0824],[-75.68749,5.08238],[-75.6874,5.08242]]],[[[-75.67894,5.08081],[-75.67894,5.0809],[-75.67896,5.08101],[-75.67899,5.08108],[-75.67904,5.08114],[-75.67918,5.08124],[-75.67946,5.0817],[-75.67957,5.08217],[-75.67965,5.0822],[-75.67995,5.0823],[-75.68028,5.08237],[-75.68049,5.08257],[-75.68054,5.08234],[-75.6804,5.08224],[-75.6801,5.08212],[-75.67978,5.08177],[-75.67968,5.08166],[-75.6797,5.08133],[-75.67963,5.08123],[-75.67934,5.08103],[-75.6791,5.08093],[-75.67894,5.08081]]],[[[-75.67848,5.07847],[-75.67843,5.07871],[-75.67831,5.07878],[-75.67816,5.07888],[-75.67804,5.07902],[-75.67798,5.07913],[-75.67795,5.0792],[-75.67787,5.0793],[-75.67784,5.07942],[-75.67784,5.07956],[-75.6779,5.07978],[-75.67796,5.07993],[-75.67801,5.08002],[-75.6781,5.08024],[-75.67807,5.08035],[-75.67802,5.08042],[-75.67798,5.08053],[-75.67797,5.08065],[-75.67797,5.08074],[-75.6781,5.08102],[-75.67814,5.08107],[-75.67821,5.08116],[-75.67832,5.08134],[-75.67844,5.08167],[-75.67857,5.0818],[-75.67851,5.08158],[-75.67847,5.08129],[-75.67848,5.08106],[-75.67848,5.08101],[-75.67848,5.08095],[-75.67834,5.08077],[-75.67832,5.08059],[-75.67838,5.08046],[-75.67831,5.08036],[-75.67825,5.08027],[-75.67822,5.0802],[-75.67821,5.08004],[-75.67821,5.07981],[-75.67824,5.07951],[-75.67825,5.07928],[-75.67832,5.07912],[-75.67848,5.07903],[-75.67876,5.07884],[-75.67878,5.07874],[-75.67873,5.07863],[-75.6785,5.07854],[-75.67848,5.07847]]],[[[-75.68761,5.07786],[-75.6874,5.078],[-75.68737,5.07812],[-75.68735,5.07823],[-75.68739,5.07833],[-75.68749,5.07846],[-75.68753,5.07864],[-75.68768,5.07893],[-75.68775,5.07907],[-75.68771,5.07917],[-75.6876,5.07924],[-75.68746,5.07936],[-75.68741,5.07944],[-75.68741,5.07957],[-75.68754,5.07971],[-75.68791,5.07995],[-75.68809,5.0804],[-75.68811,5.08045],[-75.68811,5.0806],[-75.68809,5.08073],[-75.6881,5.08086],[-75.68811,5.08103],[-75.68818,5.08123],[-75.68827,5.08137],[-75.68829,5.08136],[-75.68835,5.08128],[-75.68833,5.08113],[-75.68834,5.08102],[-75.68833,5.08099],[-75.68829,5.08084],[-75.68827,5.08069],[-75.68821,5.08063],[-75.68818,5.08045],[-75.68812,5.08042],[-75.68806,5.08031],[-75.68805,5.08028],[-75.68803,5.0802],[-75.68802,5.08017],[-75.688,5.08008],[-75.68799,5.08004],[-75.68799,5.08001],[-75.68797,5.07996],[-75.68791,5.0797],[-75.68794,5.07949],[-75.68794,5.0793],[-75.68784,5.07928],[-75.6878,5.07926],[-75.6879,5.07915],[-75.68793,5.07912],[-75.68792,5.07905],[-75.68788,5.07896],[-75.68781,5.07889],[-75.68768,5.07881],[-75.68765,5.07874],[-75.68766,5.07864],[-75.68771,5.07854],[-75.68772,5.07844],[-75.68765,5.07834],[-75.68754,5.07827],[-75.68751,5.07812],[-75.68753,5.07799],[-75.68761,5.07786]]],[[[-75.67832,5.07628],[-75.67854,5.07673],[-75.6788,5.07707],[-75.67902,5.07736],[-75.67905,5.07781],[-75.67905,5.07798],[-75.67909,5.07816],[-75.67911,5.07836],[-75.6791,5.07855],[-75.67907,5.07869],[-75.67903,5.07904],[-75.67893,5.07923],[-75.67905,5.07952],[-75.67919,5.07931],[-75.67923,5.07898],[-75.67923,5.0786],[-75.67924,5.07825],[-75.67924,5.07799],[-75.67922,5.07774],[-75.67916,5.07751],[-75.67888,5.07696],[-75.6787,5.07666],[-75.67856,5.07637],[-75.67856,5.07637],[-75.67832,5.07628]]],[[[-75.68767,5.073],[-75.68768,5.07302],[-75.68768,5.07316],[-75.68765,5.07333],[-75.68754,5.0735],[-75.68745,5.0736],[-75.68721,5.0739],[-75.6871,5.0743],[-75.68698,5.07468],[-75.68708,5.07486],[-75.68712,5.07501],[-75.68709,5.07509],[-75.68702,5.07523],[-75.68701,5.07532],[-75.68712,5.07539],[-75.68733,5.07544],[-75.68748,5.07544],[-75.68759,5.07546],[-75.6877,5.0755],[-75.68779,5.07559],[-75.68787,5.07576],[-75.68787,5.07591],[-75.68792,5.07596],[-75.68804,5.07601],[-75.68817,5.07609],[-75.68822,5.07609],[-75.68832,5.07609],[-75.6884,5.07612],[-75.68851,5.0762],[-75.68856,5.07631],[-75.68857,5.07641],[-75.68853,5.07656],[-75.68845,5.07666],[-75.68836,5.07679],[-75.68816,5.07696],[-75.68797,5.07699],[-75.68782,5.07701],[-75.68786,5.07718],[-75.68794,5.07728],[-75.68794,5.0774],[-75.68805,5.07745],[-75.6881,5.07753],[-75.6881,5.07766],[-75.68814,5.07766],[-75.68818,5.07762],[-75.68825,5.07771],[-75.68827,5.07792],[-75.68834,5.07811],[-75.68843,5.07825],[-75.68843,5.07843],[-75.68832,5.07864],[-75.68817,5.07886],[-75.68819,5.07884],[-75.68825,5.0788],[-75.6883,5.07875],[-75.68834,5.0787],[-75.68838,5.07864],[-75.68841,5.07858],[-75.68844,5.07852],[-75.68847,5.07845],[-75.68848,5.07839],[-75.68849,5.07832],[-75.68849,5.07828],[-75.6885,5.07826],[-75.68844,5.07809],[-75.68836,5.07781],[-75.68835,5.07772],[-75.68822,5.07749],[-75.68815,5.0774],[-75.68814,5.07736],[-75.68824,5.07732],[-75.68832,5.0773],[-75.6884,5.07721],[-75.68842,5.07709],[-75.68854,5.0767],[-75.6886,5.07661],[-75.68864,5.07648],[-75.68865,5.07629],[-75.68861,5.07619],[-75.68851,5.07607],[-75.6884,5.07597],[-75.68826,5.07588],[-75.68822,5.07581],[-75.68817,5.07566],[-75.68805,5.07555],[-75.68786,5.07542],[-75.68763,5.07535],[-75.68744,5.0753],[-75.68736,5.07528],[-75.68723,5.07521],[-75.68728,5.07514],[-75.68748,5.07509],[-75.68762,5.07498],[-75.68781,5.0748],[-75.68796,5.07463],[-75.68806,5.07442],[-75.68812,5.0742],[-75.68809,5.07405],[-75.68801,5.0738],[-75.68785,5.07344],[-75.68779,5.07323],[-75.68779,5.07313],[-75.68767,5.073]]],[[[-75.67834,5.07539],[-75.67855,5.07532],[-75.67867,5.07537],[-75.67877,5.07545],[-75.67894,5.07537],[-75.67905,5.07518],[-75.67918,5.07496],[-75.67928,5.07466],[-75.67928,5.07449],[-75.67923,5.07439],[-75.67918,5.07423],[-75.6794,5.07389],[-75.67952,5.07381],[-75.67962,5.07373],[-75.67968,5.07337],[-75.67982,5.07327],[-75.6799,5.07303],[-75.67995,5.07281],[-75.68007,5.07257],[-75.68007,5.07224],[-75.67996,5.07187],[-75.67971,5.07164],[-75.67966,5.07187],[-75.67941,5.07202],[-75.6793,5.07233],[-75.67934,5.07284],[-75.67935,5.07346],[-75.67912,5.07401],[-75.67871,5.07476],[-75.67834,5.07539]]],[[[-75.67847,5.0746],[-75.67848,5.07468],[-75.67848,5.07473],[-75.67854,5.07467],[-75.67855,5.07465],[-75.67855,5.07464],[-75.67847,5.0746]]],[[[-75.67916,5.07293],[-75.67889,5.07296],[-75.67876,5.07306],[-75.67867,5.07315],[-75.67866,5.07337],[-75.6787,5.07351],[-75.67876,5.07366],[-75.67885,5.0738],[-75.67879,5.0739],[-75.67865,5.074],[-75.67849,5.07412],[-75.67843,5.07426],[-75.67846,5.07449],[-75.67861,5.07449],[-75.67865,5.07439],[-75.67872,5.07419],[-75.67899,5.07388],[-75.67902,5.07378],[-75.6789,5.07354],[-75.67887,5.07342],[-75.67889,5.0733],[-75.67894,5.07317],[-75.67905,5.07306],[-75.67916,5.07293]]],[[[-75.68758,5.07289],[-75.68758,5.0729],[-75.68767,5.073],[-75.6876,5.07274],[-75.68758,5.07289]]],[[[-75.67433,5.0704],[-75.67436,5.07051],[-75.67437,5.07067],[-75.67441,5.0708],[-75.67439,5.07094],[-75.67434,5.07102],[-75.67439,5.0711],[-75.67445,5.07116],[-75.67451,5.07121],[-75.67456,5.07132],[-75.67456,5.07145],[-75.67453,5.07162],[-75.67456,5.07172],[-75.6746,5.07183],[-75.67467,5.07188],[-75.67486,5.07196],[-75.67502,5.07204],[-75.67519,5.07211],[-75.67529,5.0722],[-75.6754,5.07228],[-75.67553,5.07245],[-75.67564,5.07254],[-75.67544,5.07214],[-75.6751,5.0719],[-75.67476,5.07166],[-75.67472,5.07142],[-75.67465,5.07117],[-75.67456,5.07088],[-75.67453,5.07061],[-75.67433,5.0704]]],[[[-75.67507,5.07231],[-75.67507,5.07226],[-75.67504,5.07222],[-75.67485,5.0721],[-75.67466,5.07203],[-75.67447,5.07196],[-75.67442,5.07185],[-75.67443,5.07175],[-75.67441,5.07154],[-75.67443,5.07132],[-75.67437,5.07125],[-75.67425,5.07116],[-75.67408,5.07105],[-75.67402,5.07101],[-75.67391,5.07108],[-75.6738,5.07123],[-75.67363,5.07135],[-75.67346,5.07155],[-75.67312,5.07172],[-75.67285,5.07174],[-75.67268,5.0717],[-75.67245,5.07165],[-75.67224,5.07168],[-75.67201,5.07176],[-75.67173,5.07187],[-75.67139,5.07201],[-75.67127,5.07215],[-75.67123,5.07234],[-75.67118,5.07248],[-75.67153,5.0722],[-75.67185,5.07202],[-75.67227,5.07192],[-75.67287,5.0719],[-75.67341,5.0718],[-75.67382,5.07155],[-75.67422,5.07154],[-75.67427,5.07187],[-75.67439,5.07209],[-75.67464,5.0722],[-75.67507,5.07231]]],[[[-75.66828,5.07053],[-75.66849,5.07062],[-75.66878,5.07083],[-75.66912,5.0711],[-75.6694,5.07134],[-75.66953,5.07154],[-75.66974,5.07171],[-75.66997,5.07179],[-75.67006,5.07185],[-75.67015,5.0719],[-75.67029,5.07198],[-75.67039,5.07197],[-75.6707,5.07193],[-75.67095,5.07195],[-75.67103,5.07196],[-75.67123,5.07193],[-75.67077,5.0718],[-75.67042,5.07179],[-75.67002,5.07173],[-75.66974,5.07162],[-75.66943,5.07122],[-75.66929,5.07099],[-75.66895,5.07069],[-75.6686,5.07048],[-75.66828,5.07053]]],[[[-75.67676,5.06824],[-75.67676,5.06824],[-75.67661,5.06839],[-75.67666,5.06841],[-75.67683,5.06845],[-75.67708,5.06843],[-75.67688,5.06824],[-75.67676,5.06824]]],[[[-75.67662,5.06804],[-75.67678,5.06807],[-75.67708,5.0681],[-75.677,5.06766],[-75.6768,5.06781],[-75.67658,5.06798],[-75.67659,5.06799],[-75.67662,5.06804]]]]},"properties":{"FID":5,"OBJECTID":47,"Amenaza":"Media","SUELO":"Suelo Suburbano","NOMBRE":"Suburbano V. Campestre (Santagueda)","Area_ha":668.763210191,"Area_HaACA":34.3940311073,"Shape_Leng":19767.7374769,"Shape_Area":343940.319971}},{"type":"Feature","id":6,"geometry":{"type":"Polygon","coordinates":[[[-75.64986,5.0202],[-75.64987,5.02027],[-75.64998,5.02042],[-75.65008,5.02051],[-75.65009,5.02037],[-75.64998,5.02027],[-75.64993,5.0202],[-75.64993,5.0202],[-75.64986,5.0202]]]},"properties":{"FID":6,"OBJECTID":48,"Amenaza":"Alta","SUELO":"Vivienda Campestre","NOMBRE":"Vivienda Campestre de Baja Densidad (Cartagena)","Area_ha":255.430441723,"Area_HaACA":0.0365609280351,"Shape_Leng":93.5720506909,"Shape_Area":365.609329831}},{"type":"Feature","id":7,"geometry":{"type":"MultiPolygon","coordinates":[[[[-75.67875,5.10423],[-75.67875,5.10426],[-75.67875,5.10431],[-75.67875,5.10432],[-75.67874,5.10434],[-75.67874,5.10435],[-75.67873,5.10444],[-75.67872,5.10448],[-75.67871,5.10449],[-75.6787,5.10454],[-75.67868,5.10457],[-75.67868,5.10459],[-75.67865,5.10466],[-75.67864,5.10467],[-75.67861,5.10473],[-75.67858,5.10478],[-75.67857,5.10478],[-75.67853,5.10484],[-75.67848,5.10492],[-75.67848,5.10493],[-75.67846,5.10495],[-75.67845,5.10497],[-75.67845,5.10498],[-75.67839,5.10515],[-75.67839,5.10515],[-75.67838,5.10516],[-75.67836,5.10532],[-75.67835,5.10532],[-75.67835,5.10537],[-75.67835,5.10538],[-75.67833,5.10548],[-75.6783,5.10554],[-75.67829,5.10554],[-75.67822,5.10568],[-75.67821,5.10569],[-75.67821,5.10569],[-75.67821,5.1057],[-75.67813,5.10584],[-75.67809,5.10592],[-75.67809,5.10592],[-75.67805,5.10601],[-75.67799,5.10614],[-75.67799,5.10615],[-75.67798,5.10618],[-75.67795,5.10628],[-75.67795,5.10629],[-75.67793,5.10635],[-75.67794,5.10636],[-75.67795,5.10649],[-75.67796,5.10654],[-75.67797,5.10664],[-75.67797,5.10664],[-75.67801,5.10672],[-75.67803,5.10676],[-75.67804,5.10677],[-75.67816,5.10688],[-75.67817,5.10689],[-75.67819,5.1069],[-75.67825,5.10696],[-75.67833,5.10704],[-75.67833,5.10704],[-75.67842,5.10718],[-75.67843,5.1072],[-75.67843,5.10721],[-75.67846,5.10734],[-75.67846,5.10735],[-75.67847,5.10739],[-75.67847,5.1074],[-75.67847,5.10741],[-75.67846,5.1075],[-75.67845,5.10753],[-75.67849,5.10755],[-75.6785,5.10755],[-75.67871,5.10763],[-75.67872,5.10763],[-75.67893,5.10771],[-75.67894,5.10771],[-75.67895,5.10771],[-75.67912,5.10778],[-75.67919,5.10778],[-75.67876,5.10761],[-75.67872,5.1076],[-75.67855,5.10727],[-75.67846,5.10684],[-75.67882,5.10689],[-75.67919,5.10696],[-75.67926,5.10697],[-75.68009,5.10714],[-75.68043,5.10725],[-75.68066,5.10733],[-75.6812,5.10744],[-75.68078,5.10718],[-75.6806,5.1071],[-75.68021,5.10695],[-75.67986,5.10687],[-75.67922,5.10668],[-75.6788,5.10666],[-75.6785,5.10654],[-75.67861,5.10632],[-75.67865,5.10614],[-75.67863,5.10594],[-75.6786,5.10575],[-75.67868,5.10553],[-75.67882,5.10534],[-75.67886,5.10513],[-75.67884,5.10492],[-75.67877,5.1047],[-75.67881,5.10458],[-75.67882,5.10438],[-75.67878,5.10428],[-75.67875,5.10423]]],[[[-75.68112,5.10445],[-75.68163,5.10468],[-75.6823,5.10493],[-75.68282,5.10514],[-75.68323,5.10524],[-75.68361,5.10527],[-75.68308,5.10501],[-75.68247,5.1047],[-75.68237,5.10467],[-75.68202,5.10456],[-75.68173,5.10447],[-75.68099,5.10419],[-75.68055,5.10396],[-75.68004,5.10371],[-75.6799,5.10334],[-75.67968,5.10316],[-75.67941,5.10304],[-75.67917,5.1029],[-75.67914,5.10281],[-75.67932,5.10257],[-75.67953,5.10251],[-75.67962,5.10248],[-75.67982,5.1024],[-75.68014,5.10215],[-75.68023,5.10179],[-75.68029,5.10144],[-75.68073,5.10144],[-75.68128,5.10161],[-75.6818,5.10187],[-75.68273,5.10223],[-75.68318,5.10237],[-75.68356,5.10261],[-75.6841,5.10288],[-75.68449,5.10323],[-75.68482,5.10358],[-75.68473,5.10313],[-75.68449,5.10289],[-75.68477,5.10285],[-75.68511,5.1027],[-75.68568,5.10266],[-75.68594,5.10266],[-75.68582,5.10247],[-75.68549,5.10237],[-75.68508,5.10249],[-75.68475,5.10256],[-75.68444,5.10258],[-75.68415,5.10251],[-75.68361,5.1023],[-75.6833,5.10218],[-75.68287,5.10199],[-75.68278,5.10195],[-75.68251,5.10182],[-75.6822,5.1017],[-75.68249,5.10156],[-75.68282,5.10147],[-75.68313,5.10149],[-75.68368,5.10156],[-75.68427,5.10158],[-75.68473,5.10144],[-75.6852,5.1012],[-75.68549,5.10109],[-75.68577,5.10109],[-75.68612,5.10106],[-75.68653,5.10098],[-75.68617,5.10093],[-75.68592,5.10085],[-75.68562,5.10086],[-75.68536,5.10089],[-75.68513,5.101],[-75.68496,5.10108],[-75.68465,5.10122],[-75.68431,5.10132],[-75.6841,5.10135],[-75.68392,5.1014],[-75.68371,5.10137],[-75.68334,5.1013],[-75.68302,5.10125],[-75.68265,5.10127],[-75.68234,5.10139],[-75.68214,5.10152],[-75.68199,5.10161],[-75.68185,5.10161],[-75.68174,5.10161],[-75.6815,5.10151],[-75.68133,5.10141],[-75.68098,5.10132],[-75.68053,5.10127],[-75.68024,5.10128],[-75.68024,5.10103],[-75.68024,5.10096],[-75.68024,5.10079],[-75.68018,5.10071],[-75.68008,5.10058],[-75.68003,5.10043],[-75.68003,5.10047],[-75.68003,5.10049],[-75.68003,5.1005],[-75.68003,5.10051],[-75.68004,5.10052],[-75.67999,5.10062],[-75.67998,5.10063],[-75.67996,5.10067],[-75.67995,5.10069],[-75.67993,5.10074],[-75.67988,5.10084],[-75.67987,5.10086],[-75.67986,5.10087],[-75.67985,5.1009],[-75.67985,5.10092],[-75.67985,5.10093],[-75.67982,5.10104],[-75.67982,5.10105],[-75.67982,5.10107],[-75.6798,5.10112],[-75.67978,5.10122],[-75.67978,5.10124],[-75.67977,5.10126],[-75.67977,5.10126],[-75.67977,5.10128],[-75.67973,5.10146],[-75.67973,5.10149],[-75.67973,5.1015],[-75.67973,5.10158],[-75.67973,5.10159],[-75.67973,5.10161],[-75.67973,5.10166],[-75.67972,5.10167],[-75.67971,5.10169],[-75.67967,5.10182],[-75.67967,5.10182],[-75.67966,5.10183],[-75.67961,5.10189],[-75.67958,5.10192],[-75.67957,5.10192],[-75.67954,5.10196],[-75.67954,5.10196],[-75.67953,5.10196],[-75.67947,5.10199],[-75.67936,5.10205],[-75.67931,5.10207],[-75.67929,5.10207],[-75.67918,5.10211],[-75.67915,5.10212],[-75.67913,5.10213],[-75.67901,5.10218],[-75.679,5.10218],[-75.67895,5.10221],[-75.67894,5.10222],[-75.67889,5.10225],[-75.67883,5.10229],[-75.67873,5.10231],[-75.67871,5.10231],[-75.67868,5.10232],[-75.67867,5.10232],[-75.67864,5.10233],[-75.67859,5.10234],[-75.67853,5.10234],[-75.67844,5.10235],[-75.67834,5.10239],[-75.67833,5.10239],[-75.67831,5.1024],[-75.67826,5.10242],[-75.67815,5.10246],[-75.67815,5.10246],[-75.6781,5.10248],[-75.67809,5.10248],[-75.6781,5.10253],[-75.6781,5.10254],[-75.67812,5.10263],[-75.67812,5.10264],[-75.67813,5.10268],[-75.6782,5.10278],[-75.67821,5.10278],[-75.67824,5.10283],[-75.67826,5.10287],[-75.67826,5.10288],[-75.67832,5.10299],[-75.67833,5.103],[-75.67833,5.10301],[-75.67835,5.10305],[-75.67835,5.10315],[-75.67835,5.10316],[-75.67835,5.10316],[-75.67836,5.10317],[-75.67836,5.10319],[-75.67841,5.10332],[-75.67842,5.10333],[-75.67848,5.10349],[-75.67851,5.10353],[-75.67851,5.10354],[-75.67858,5.10363],[-75.67858,5.10363],[-75.67862,5.10369],[-75.67863,5.10371],[-75.67863,5.10371],[-75.67872,5.10358],[-75.67922,5.10373],[-75.67939,5.10379],[-75.68011,5.10406],[-75.68057,5.10426],[-75.68112,5.10445]]],[[[-75.68456,5.0955],[-75.68449,5.09583],[-75.68436,5.09604],[-75.68431,5.09612],[-75.68421,5.09635],[-75.6841,5.09628],[-75.68403,5.09622],[-75.68396,5.09617],[-75.68386,5.09613],[-75.68368,5.09612],[-75.68356,5.09612],[-75.68334,5.09614],[-75.68322,5.09618],[-75.68312,5.09622],[-75.6829,5.09629],[-75.68281,5.09625],[-75.68256,5.09604],[-75.68231,5.09591],[-75.68211,5.09603],[-75.6821,5.09604],[-75.68232,5.09627],[-75.68229,5.09626],[-75.68229,5.09626],[-75.68225,5.09632],[-75.68222,5.09636],[-75.68218,5.09641],[-75.68217,5.09653],[-75.68217,5.09654],[-75.68217,5.09655],[-75.68217,5.09656],[-75.68216,5.09659],[-75.68216,5.09661],[-75.68216,5.09666],[-75.68216,5.09681],[-75.68217,5.09683],[-75.68217,5.09684],[-75.68222,5.09698],[-75.68223,5.09699],[-75.68227,5.09711],[-75.68228,5.09713],[-75.68229,5.09716],[-75.68229,5.09717],[-75.68229,5.09718],[-75.68231,5.09734],[-75.68231,5.09735],[-75.6823,5.09739],[-75.6823,5.09739],[-75.68227,5.09755],[-75.68227,5.09755],[-75.68221,5.09758],[-75.6822,5.09758],[-75.68214,5.09761],[-75.68209,5.09764],[-75.68207,5.09764],[-75.68204,5.09765],[-75.68203,5.09765],[-75.6819,5.09768],[-75.6819,5.09768],[-75.68187,5.09769],[-75.68182,5.0977],[-75.68181,5.0977],[-75.68174,5.09772],[-75.68173,5.09772],[-75.6817,5.09772],[-75.68163,5.09775],[-75.68162,5.09775],[-75.68153,5.09779],[-75.68152,5.09779],[-75.68149,5.09786],[-75.68144,5.09796],[-75.68143,5.09797],[-75.68143,5.09799],[-75.68141,5.09808],[-75.68141,5.09809],[-75.68141,5.0981],[-75.6814,5.09813],[-75.68139,5.09816],[-75.68129,5.09833],[-75.68128,5.09833],[-75.68128,5.09834],[-75.68127,5.09834],[-75.6812,5.09839],[-75.6812,5.0984],[-75.68114,5.09844],[-75.68113,5.09844],[-75.681,5.09852],[-75.68096,5.09855],[-75.68095,5.09856],[-75.68092,5.09858],[-75.68091,5.0986],[-75.68083,5.09868],[-75.68082,5.09868],[-75.68083,5.09873],[-75.68083,5.09874],[-75.68085,5.09888],[-75.68086,5.09892],[-75.68086,5.09894],[-75.68087,5.09899],[-75.68087,5.099],[-75.68089,5.09908],[-75.68088,5.09912],[-75.68087,5.09915],[-75.68086,5.09921],[-75.68085,5.09925],[-75.68085,5.09927],[-75.68084,5.09932],[-75.68083,5.09933],[-75.68081,5.09945],[-75.6808,5.09946],[-75.6808,5.09947],[-75.68089,5.09947],[-75.68102,5.09944],[-75.68112,5.09936],[-75.68118,5.09918],[-75.6812,5.0991],[-75.6812,5.09882],[-75.68122,5.09872],[-75.68123,5.09859],[-75.68125,5.09837],[-75.68134,5.09835],[-75.68145,5.09829],[-75.68173,5.09813],[-75.68201,5.09804],[-75.68217,5.09796],[-75.68249,5.09776],[-75.68265,5.09749],[-75.68271,5.09724],[-75.68271,5.09711],[-75.68263,5.09689],[-75.68268,5.09674],[-75.68275,5.09669],[-75.68303,5.09655],[-75.68313,5.09656],[-75.68326,5.09673],[-75.68332,5.0968],[-75.68341,5.09694],[-75.68351,5.09706],[-75.68371,5.09711],[-75.68386,5.09706],[-75.68408,5.09691],[-75.68411,5.0969],[-75.68406,5.09683],[-75.68406,5.09683],[-75.68408,5.0968],[-75.68417,5.09668],[-75.68423,5.0965],[-75.68432,5.09633],[-75.68436,5.09625],[-75.68437,5.09623],[-75.68441,5.09615],[-75.68452,5.096],[-75.68461,5.09589],[-75.68463,5.09588],[-75.68465,5.09585],[-75.68469,5.09579],[-75.68474,5.09568],[-75.68487,5.09548],[-75.68495,5.09545],[-75.68505,5.09542],[-75.68513,5.09526],[-75.68515,5.09521],[-75.68515,5.09519],[-75.68519,5.09508],[-75.68519,5.09508],[-75.68518,5.09504],[-75.68517,5.0951],[-75.68499,5.09521],[-75.68486,5.09522],[-75.68475,5.09523],[-75.68456,5.0955]]],[[[-75.68457,5.09469],[-75.68484,5.09476],[-75.68503,5.09483],[-75.68502,5.09483],[-75.68501,5.09482],[-75.68498,5.0948],[-75.68485,5.09467],[-75.68465,5.09462],[-75.6846,5.09459],[-75.68454,5.09454],[-75.6845,5.09451],[-75.68443,5.09434],[-75.68444,5.09434],[-75.68459,5.09423],[-75.68474,5.09416],[-75.68475,5.09414],[-75.68477,5.09414],[-75.68489,5.09409],[-75.68494,5.09407],[-75.68511,5.09401],[-75.68529,5.09392],[-75.6854,5.09382],[-75.68543,5.0938],[-75.68544,5.09379],[-75.68559,5.09377],[-75.6857,5.09375],[-75.68571,5.09374],[-75.68571,5.09374],[-75.68572,5.09374],[-75.68572,5.09374],[-75.68587,5.0936],[-75.68601,5.09336],[-75.68604,5.09325],[-75.68605,5.09318],[-75.68611,5.0928],[-75.68611,5.09278],[-75.68616,5.0925],[-75.68617,5.09245],[-75.68619,5.09235],[-75.68623,5.09221],[-75.68625,5.09209],[-75.68626,5.09206],[-75.68627,5.09203],[-75.68627,5.09201],[-75.68628,5.09189],[-75.6863,5.09184],[-75.68632,5.09177],[-75.68639,5.09166],[-75.68637,5.09148],[-75.68635,5.09136],[-75.68637,5.09135],[-75.68639,5.09121],[-75.68638,5.09116],[-75.68637,5.09114],[-75.68635,5.09109],[-75.68636,5.09104],[-75.68637,5.09103],[-75.68639,5.09101],[-75.6864,5.091],[-75.68638,5.0909],[-75.68638,5.0908],[-75.68639,5.09071],[-75.6864,5.09067],[-75.6864,5.09065],[-75.6864,5.09064],[-75.6864,5.09061],[-75.68641,5.09056],[-75.68641,5.09053],[-75.6864,5.09049],[-75.68639,5.09045],[-75.68636,5.09043],[-75.68633,5.09041],[-75.68631,5.09041],[-75.68629,5.0904],[-75.68625,5.0904],[-75.68621,5.0904],[-75.68617,5.0904],[-75.68615,5.0904],[-75.68596,5.09044],[-75.68591,5.09045],[-75.68583,5.09045],[-75.68581,5.09045],[-75.68581,5.09045],[-75.68573,5.09045],[-75.68568,5.09044],[-75.68558,5.09043],[-75.68552,5.09044],[-75.68544,5.09044],[-75.68539,5.09044],[-75.68565,5.09058],[-75.68605,5.09081],[-75.68606,5.09104],[-75.68615,5.09158],[-75.68617,5.09178],[-75.68619,5.09199],[-75.68616,5.09244],[-75.68608,5.09279],[-75.68589,5.09308],[-75.68574,5.09329],[-75.68559,5.09357],[-75.68541,5.0937],[-75.68528,5.0938],[-75.68494,5.09395],[-75.6847,5.09393],[-75.6846,5.09388],[-75.68444,5.09381],[-75.68418,5.09382],[-75.68409,5.094],[-75.68408,5.09426],[-75.68419,5.09449],[-75.68447,5.09466],[-75.68457,5.09469]]],[[[-75.68701,5.0942],[-75.68701,5.09421],[-75.68701,5.09421],[-75.68701,5.09426],[-75.68698,5.09431],[-75.687,5.09431],[-75.68689,5.09432],[-75.6869,5.09434],[-75.68687,5.09446],[-75.68684,5.09449],[-75.68715,5.09438],[-75.6877,5.09426],[-75.6879,5.09421],[-75.68855,5.09423],[-75.689,5.09434],[-75.69,5.09447],[-75.68995,5.09437],[-75.68965,5.09428],[-75.68934,5.09421],[-75.68884,5.09407],[-75.6883,5.09393],[-75.68778,5.09393],[-75.68743,5.09404],[-75.68701,5.0942]]],[[[-75.68751,5.09251],[-75.68776,5.09253],[-75.68796,5.09247],[-75.68829,5.09242],[-75.68854,5.09259],[-75.68885,5.09272],[-75.68926,5.09282],[-75.68954,5.09284],[-75.68976,5.09287],[-75.68993,5.09294],[-75.69011,5.09326],[-75.69019,5.09338],[-75.6905,5.09356],[-75.69075,5.09369],[-75.69095,5.09374],[-75.69093,5.09356],[-75.69064,5.09344],[-75.69045,5.09332],[-75.69033,5.09312],[-75.69024,5.09294],[-75.69013,5.09277],[-75.68991,5.09267],[-75.68966,5.09262],[-75.68943,5.09263],[-75.68912,5.09261],[-75.68885,5.09247],[-75.68869,5.09245],[-75.6885,5.09233],[-75.68833,5.09228],[-75.68809,5.09228],[-75.68785,5.09235],[-75.68753,5.09235],[-75.68752,5.09238],[-75.68752,5.09239],[-75.68752,5.09243],[-75.68752,5.09243],[-75.68752,5.09245],[-75.68752,5.09247],[-75.68752,5.09248],[-75.68752,5.09249],[-75.68752,5.09249],[-75.68751,5.09251]]],[[[-75.6895,5.09049],[-75.68981,5.09059],[-75.69004,5.0907],[-75.69031,5.09077],[-75.69019,5.09063],[-75.6899,5.09045],[-75.6899,5.09045],[-75.68981,5.09044],[-75.6898,5.09044],[-75.6895,5.09049]]],[[[-75.68756,5.09064],[-75.6876,5.09061],[-75.68769,5.09065],[-75.68793,5.09057],[-75.68812,5.09042],[-75.68824,5.09037],[-75.68813,5.09038],[-75.68794,5.0904],[-75.68781,5.09041],[-75.68771,5.09042],[-75.68756,5.09044],[-75.68737,5.09044],[-75.68724,5.09045],[-75.6872,5.09045],[-75.68721,5.09045],[-75.68728,5.09048],[-75.68734,5.09053],[-75.68741,5.09058],[-75.68756,5.09064]]],[[[-75.68668,5.09041],[-75.68668,5.09042],[-75.68666,5.09047],[-75.68665,5.09048],[-75.68674,5.09046],[-75.68678,5.09045],[-75.68668,5.09041]]]]},"properties":{"FID":7,"OBJECTID":49,"Amenaza":"Alta","SUELO":"Vivienda Campestre","NOMBRE":"Vivienda Campestre de Baja Densidad (Santagueda)","Area_ha":291.928172757,"Area_HaACA":16.9735965058,"Shape_Leng":11506.950177,"Shape_Area":169735.961416}},{"type":"Feature","id":8,"geometry":{"type":"MultiPolygon","coordinates":[[[[-75.67882,5.10689],[-75.67846,5.10684],[-75.67855,5.10727],[-75.67872,5.1076],[-75.67872,5.1073],[-75.67882,5.10689]]],[[[-75.67875,5.10423],[-75.67878,5.10428],[-75.67882,5.10438],[-75.67881,5.10458],[-75.67877,5.1047],[-75.67884,5.10492],[-75.67886,5.10513],[-75.67882,5.10534],[-75.67868,5.10553],[-75.6786,5.10575],[-75.67863,5.10594],[-75.67865,5.10614],[-75.67869,5.10585],[-75.67872,5.10572],[-75.67877,5.1056],[-75.67883,5.10551],[-75.67893,5.10529],[-75.67901,5.10518],[-75.67907,5.1051],[-75.67918,5.10498],[-75.67923,5.10481],[-75.67919,5.10463],[-75.67909,5.10453],[-75.67897,5.10445],[-75.6789,5.10437],[-75.67886,5.10427],[-75.67881,5.10422],[-75.67875,5.10413],[-75.67875,5.10414],[-75.67875,5.10415],[-75.67875,5.10423]]],[[[-75.67962,5.10248],[-75.67953,5.10251],[-75.67932,5.10257],[-75.67914,5.10281],[-75.67917,5.1029],[-75.67941,5.10304],[-75.67968,5.10316],[-75.6799,5.10334],[-75.68004,5.10371],[-75.68055,5.10396],[-75.68099,5.10419],[-75.68173,5.10447],[-75.68202,5.10456],[-75.68183,5.10442],[-75.68176,5.10429],[-75.68169,5.10415],[-75.68162,5.10405],[-75.68149,5.10386],[-75.68131,5.10378],[-75.68118,5.10379],[-75.68098,5.10383],[-75.68074,5.10385],[-75.68047,5.10378],[-75.68036,5.10369],[-75.6803,5.10353],[-75.68029,5.10338],[-75.68023,5.10315],[-75.68004,5.10299],[-75.67989,5.10297],[-75.6797,5.10294],[-75.67956,5.10279],[-75.67956,5.10267],[-75.67962,5.10248]]],[[[-75.67922,5.10373],[-75.67934,5.10393],[-75.67953,5.10406],[-75.67983,5.10424],[-75.67993,5.10426],[-75.68007,5.10427],[-75.6802,5.10435],[-75.6806,5.10446],[-75.68076,5.10446],[-75.68089,5.10446],[-75.68112,5.10445],[-75.68057,5.10426],[-75.68011,5.10406],[-75.67939,5.10379],[-75.67922,5.10373]]],[[[-75.68427,5.10158],[-75.68368,5.10156],[-75.68313,5.10149],[-75.68282,5.10147],[-75.68249,5.10156],[-75.6822,5.1017],[-75.68251,5.10182],[-75.68278,5.10195],[-75.68292,5.10178],[-75.68301,5.10172],[-75.68314,5.10166],[-75.68333,5.10166],[-75.6835,5.10168],[-75.68367,5.1017],[-75.68387,5.1017],[-75.68407,5.1017],[-75.68427,5.10158]]],[[[-75.68053,5.10127],[-75.68098,5.10132],[-75.68133,5.10141],[-75.6815,5.10151],[-75.68174,5.10161],[-75.68161,5.10128],[-75.68143,5.10112],[-75.68115,5.10104],[-75.6808,5.10101],[-75.68064,5.10115],[-75.68053,5.10127]]],[[[-75.68003,5.10043],[-75.68008,5.10058],[-75.68018,5.10071],[-75.68024,5.10079],[-75.68024,5.10096],[-75.68033,5.10063],[-75.68035,5.10054],[-75.68036,5.10047],[-75.68036,5.10039],[-75.68036,5.1003],[-75.68029,5.10023],[-75.68021,5.10022],[-75.68012,5.10024],[-75.68005,5.10025],[-75.68004,5.10025],[-75.68004,5.10026],[-75.68001,5.10032],[-75.68003,5.10043]]],[[[-75.68326,5.09673],[-75.68327,5.09701],[-75.68336,5.09717],[-75.68348,5.09722],[-75.68376,5.09727],[-75.68392,5.09719],[-75.68401,5.09711],[-75.68409,5.09704],[-75.68416,5.09697],[-75.68411,5.0969],[-75.68408,5.09691],[-75.68386,5.09706],[-75.68371,5.09711],[-75.68351,5.09706],[-75.68341,5.09694],[-75.68332,5.0968],[-75.68326,5.09673]]],[[[-75.68505,5.09542],[-75.68495,5.09545],[-75.68487,5.09548],[-75.68474,5.09568],[-75.68469,5.09579],[-75.6847,5.09578],[-75.68472,5.09575],[-75.68476,5.0957],[-75.68476,5.09569],[-75.68491,5.09557],[-75.68504,5.09543],[-75.68504,5.09543],[-75.68505,5.09542]]],[[[-75.68457,5.09469],[-75.68455,5.09503],[-75.68455,5.09514],[-75.68456,5.09524],[-75.68456,5.0955],[-75.68475,5.09523],[-75.68486,5.09522],[-75.68499,5.09521],[-75.68517,5.0951],[-75.68518,5.09504],[-75.68513,5.09491],[-75.68511,5.0949],[-75.68503,5.09484],[-75.68503,5.09483],[-75.68484,5.09476],[-75.68457,5.09469]]],[[[-75.68669,5.09469],[-75.68687,5.09472],[-75.68702,5.09477],[-75.68714,5.09477],[-75.68729,5.09473],[-75.68751,5.09457],[-75.68764,5.09445],[-75.6877,5.09426],[-75.68715,5.09438],[-75.68684,5.09449],[-75.68681,5.09453],[-75.68675,5.09461],[-75.68669,5.09469]]],[[[-75.6847,5.09393],[-75.68494,5.09395],[-75.68528,5.0938],[-75.68541,5.0937],[-75.68514,5.09366],[-75.68492,5.09366],[-75.68481,5.09378],[-75.6847,5.09393]]],[[[-75.68639,5.09121],[-75.68637,5.09135],[-75.68645,5.09131],[-75.6864,5.09122],[-75.68639,5.09121]]],[[[-75.68665,5.09048],[-75.68664,5.0905],[-75.68664,5.09051],[-75.68664,5.09051],[-75.68665,5.09052],[-75.68666,5.09053],[-75.68667,5.09056],[-75.68674,5.09066],[-75.68675,5.09067],[-75.68676,5.09068],[-75.68677,5.0907],[-75.68678,5.09072],[-75.6868,5.09075],[-75.68685,5.09083],[-75.68693,5.09096],[-75.68695,5.091],[-75.68696,5.091],[-75.68698,5.09103],[-75.68699,5.09106],[-75.68702,5.09104],[-75.68706,5.09095],[-75.68703,5.09084],[-75.68705,5.09077],[-75.68712,5.09072],[-75.68718,5.0907],[-75.68725,5.09069],[-75.68732,5.09068],[-75.68741,5.09068],[-75.68756,5.09064],[-75.68741,5.09058],[-75.68734,5.09053],[-75.68728,5.09048],[-75.68721,5.09045],[-75.6872,5.09045],[-75.68712,5.09046],[-75.68709,5.09046],[-75.68697,5.09048],[-75.6869,5.09047],[-75.6868,5.09046],[-75.68678,5.09045],[-75.68674,5.09046],[-75.68665,5.09048]]],[[[-75.6864,5.09067],[-75.68639,5.09071],[-75.68638,5.0908],[-75.68638,5.0909],[-75.6864,5.091],[-75.68644,5.09099],[-75.68646,5.09098],[-75.6865,5.09099],[-75.6865,5.09094],[-75.68655,5.09087],[-75.6866,5.09084],[-75.6866,5.09084],[-75.6866,5.09081],[-75.68658,5.09083],[-75.68654,5.09086],[-75.68653,5.09087],[-75.68651,5.09087],[-75.6865,5.09087],[-75.68648,5.09087],[-75.68647,5.09086],[-75.68646,5.09084],[-75.68646,5.09083],[-75.68642,5.09075],[-75.6864,5.0907],[-75.6864,5.09067]]]]},"properties":{"FID":8,"OBJECTID":50,"Amenaza":"Media","SUELO":"Vivienda Campestre","NOMBRE":"Vivienda Campestre de Baja Densidad (Santagueda)","Area_ha":291.928172757,"Area_HaACA":4.6840310959,"Shape_Leng":4583.56923441,"Shape_Area":46840.3110715}}]}