{"type":"FeatureCollection","name":"ACA_AVT_Rural","crs":{"type":"name","properties":{"name":"urn:ogc:def:crs:OGC:1.3:CRS84"}},"features":[{"type":"Feature","id":0,"geometry":{"type":"MultiPolygon","coordinates":[[[[-75.66237,5.03452],[-75.66248,5.03452],[-75.66265,5.03437],[-75.66237,5.03429],[-75.66237,5.03452]]],[[[-75.65559,5.02855],[-75.65559,5.02878],[-75.65581,5.02878],[-75.65581,5.02855],[-75.65559,5.02855]]]]},"properties":{"FID":0,"OBJECTID":7,"SUELO":"Corredor Vial","Cat_Ame":"Alta","Area_Ha":0.110793125,"Shape_Leng":193.740266338,"Shape_Area":1107.93125}},{"type":"Feature","id":1,"geometry":{"type":"MultiPolygon","coordinates":[[[[-75.66895,5.03587],[-75.66905,5.03577],[-75.66891,5.03573],[-75.66895,5.03587]]],[[[-75.6565,5.03268],[-75.6565,5.03239],[-75.65639,5.03239],[-75.65639,5.03267],[-75.65642,5.03267],[-75.6565,5.03268]]]]},"properties":{"FID":1,"OBJECTID":8,"SUELO":"Corredor Vial","Cat_Ame":"Media","Area_Ha":0.0493840278136,"Shape_Leng":134.258250362,"Shape_Area":493.840278136}},{"type":"Feature","id":2,"geometry":{"type":"MultiPolygon","coordinates":[[[[-75.60802,5.05406],[-75.60802,5.05417],[-75.60813,5.05417],[-75.60813,5.05406],[-75.60802,5.05406]]],[[[-75.60824,5.05395],[-75.6083,5.05409],[-75.60836,5.05395],[-75.60824,5.05395]]]]},"properties":{"FID":2,"OBJECTID":9,"SUELO":"Corredor Vial","Cat_Ame":"Alta","Area_Ha":0.0256309375004,"Shape_Leng":96.8724651586,"Shape_Area":256.309375004}},{"type":"Feature","id":3,"geometry":{"type":"MultiPolygon","coordinates":[[[[-75.60713,5.05621],[-75.60713,5.05644],[-75.60735,5.05644],[-75.60735,5.05632],[-75.60735,5.05621],[-75.60713,5.05621]]],[[[-75.60761,5.05556],[-75.60771,5.05546],[-75.60757,5.05542],[-75.60761,5.05556]]],[[[-75.60763,5.05534],[-75.60783,5.05524],[-75.60757,5.05519],[-75.60763,5.05534]]],[[[-75.60813,5.0544],[-75.60791,5.05461],[-75.60763,5.0551],[-75.60802,5.05485],[-75.60802,5.05463],[-75.60813,5.05463],[-75.60813,5.05451],[-75.60813,5.0544]]],[[[-75.6158,5.05459],[-75.61591,5.05459],[-75.61591,5.05437],[-75.6158,5.05421],[-75.61568,5.05437],[-75.61568,5.05448],[-75.6158,5.05448],[-75.6158,5.05459]]],[[[-75.60813,5.05429],[-75.60813,5.0544],[-75.60825,5.0544],[-75.60825,5.05429],[-75.60813,5.05429]]],[[[-75.60791,5.05406],[-75.60791,5.05429],[-75.60813,5.05429],[-75.60813,5.05417],[-75.60802,5.05417],[-75.60802,5.05406],[-75.60791,5.05406]]],[[[-75.60813,5.05417],[-75.60825,5.05417],[-75.60825,5.05429],[-75.60852,5.05411],[-75.60876,5.05401],[-75.60885,5.05388],[-75.60915,5.05383],[-75.60903,5.0536],[-75.60858,5.05361],[-75.60858,5.05372],[-75.60847,5.05372],[-75.60847,5.05383],[-75.60836,5.05383],[-75.60836,5.05395],[-75.6083,5.05409],[-75.60824,5.05395],[-75.60813,5.05395],[-75.60813,5.05406],[-75.60813,5.05417]]],[[[-75.60915,5.05383],[-75.60921,5.0541],[-75.60937,5.05383],[-75.60915,5.05383]]],[[[-75.60896,5.05408],[-75.60906,5.05398],[-75.60892,5.05394],[-75.60896,5.05408]]],[[[-75.60791,5.05406],[-75.60787,5.05387],[-75.60779,5.05372],[-75.60778,5.05372],[-75.60767,5.05391],[-75.60791,5.05406]]],[[[-75.60926,5.05349],[-75.60933,5.05364],[-75.60937,5.05383],[-75.60948,5.05383],[-75.60948,5.05372],[-75.6096,5.05372],[-75.60971,5.05349],[-75.60993,5.05338],[-75.61005,5.05337],[-75.61004,5.05326],[-75.60991,5.05322],[-75.61001,5.05312],[-75.61004,5.05326],[-75.61029,5.05315],[-75.6102,5.05306],[-75.61027,5.05297],[-75.61033,5.05286],[-75.61032,5.05286],[-75.61022,5.05298],[-75.61001,5.05297],[-75.60975,5.05319],[-75.60954,5.05344],[-75.60926,5.05349]]],[[[-75.60914,5.05349],[-75.60903,5.05349],[-75.60903,5.0536],[-75.60914,5.0536],[-75.60914,5.05349]]],[[[-75.60926,5.05349],[-75.60926,5.05338],[-75.60914,5.05338],[-75.60914,5.05349],[-75.60926,5.05349]]],[[[-75.61047,5.05262],[-75.61048,5.05263],[-75.6105,5.05261],[-75.61047,5.05262]]],[[[-75.61061,5.05247],[-75.61061,5.05251],[-75.61065,5.05247],[-75.61061,5.05247]]],[[[-75.61083,5.05224],[-75.61072,5.05224],[-75.61072,5.05241],[-75.61083,5.05232],[-75.61083,5.05224]]],[[[-75.61083,5.05224],[-75.61099,5.05213],[-75.61083,5.05202],[-75.61083,5.05224]]],[[[-75.61105,5.0519],[-75.61109,5.05204],[-75.61119,5.05194],[-75.61105,5.0519]]],[[[-75.61105,5.05179],[-75.61091,5.05185],[-75.61105,5.0519],[-75.61105,5.05179]]],[[[-75.61139,5.05156],[-75.61114,5.05161],[-75.61105,5.05179],[-75.61124,5.05175],[-75.61139,5.05167],[-75.61139,5.05156]]],[[[-75.61139,5.05156],[-75.61153,5.05152],[-75.61143,5.05142],[-75.61139,5.05156]]],[[[-75.61154,5.05136],[-75.6116,5.0513],[-75.61159,5.05129],[-75.61158,5.05129],[-75.61157,5.05129],[-75.61157,5.05128],[-75.61156,5.05128],[-75.61155,5.05127],[-75.61154,5.05127],[-75.61153,5.05126],[-75.61153,5.05126],[-75.61152,5.05125],[-75.61151,5.05125],[-75.61154,5.05136]]]]},"properties":{"FID":3,"OBJECTID":10,"SUELO":"Corredor Vial","Cat_Ame":"Media","Area_Ha":1.31322160549,"Shape_Leng":2229.37055149,"Shape_Area":13132.2160549}},{"type":"Feature","id":4,"geometry":{"type":"MultiPolygon","coordinates":[[[[-75.68144,5.068],[-75.68144,5.06823],[-75.68167,5.06823],[-75.68167,5.06811],[-75.68167,5.068],[-75.68144,5.068]]],[[[-75.68606,5.06719],[-75.68611,5.06745],[-75.68617,5.0673],[-75.68617,5.06719],[-75.68606,5.06719]]],[[[-75.68752,5.06605],[-75.68758,5.06632],[-75.68763,5.06605],[-75.68752,5.06605]]],[[[-75.68031,5.06586],[-75.68019,5.06586],[-75.68027,5.06601],[-75.68042,5.06608],[-75.68051,5.0659],[-75.68042,5.06586],[-75.68031,5.06586]]],[[[-75.68583,5.06572],[-75.68583,5.06595],[-75.68594,5.06595],[-75.68594,5.06572],[-75.68583,5.06572]]],[[[-75.68571,5.0655],[-75.68571,5.06561],[-75.68583,5.06561],[-75.68583,5.0655],[-75.68571,5.0655]]],[[[-75.68447,5.06516],[-75.68436,5.06539],[-75.68447,5.06539],[-75.68462,5.06531],[-75.6847,5.06516],[-75.68452,5.06507],[-75.68447,5.06516]]],[[[-75.68605,5.06504],[-75.68594,5.06504],[-75.68594,5.06516],[-75.68605,5.06516],[-75.68605,5.06504]]],[[[-75.68605,5.0647],[-75.68627,5.06482],[-75.68627,5.06459],[-75.68605,5.06459],[-75.68605,5.0647]]],[[[-75.68616,5.06425],[-75.68616,5.06436],[-75.68627,5.06436],[-75.68627,5.06425],[-75.68616,5.06425]]]]},"properties":{"FID":4,"OBJECTID":11,"SUELO":"Corredor Vial","Cat_Ame":"Alta","Area_Ha":0.351611875002,"Shape_Leng":766.132563737,"Shape_Area":3516.11875002}},{"type":"Feature","id":5,"geometry":{"type":"MultiPolygon","coordinates":[[[[-75.68583,5.06595],[-75.68588,5.06647],[-75.68601,5.06679],[-75.68595,5.06708],[-75.68595,5.06719],[-75.68606,5.06719],[-75.68617,5.06719],[-75.68617,5.06708],[-75.68628,5.06708],[-75.68624,5.06678],[-75.6861,5.06636],[-75.68605,5.06606],[-75.68605,5.06595],[-75.68594,5.06595],[-75.68583,5.06595]]],[[[-75.68268,5.06675],[-75.68268,5.06686],[-75.68256,5.06687],[-75.68256,5.06698],[-75.68279,5.06698],[-75.68279,5.06686],[-75.68279,5.06675],[-75.68268,5.06675]]],[[[-75.68571,5.06561],[-75.68571,5.06572],[-75.68583,5.06572],[-75.68594,5.06572],[-75.68594,5.06561],[-75.68583,5.06561],[-75.68571,5.06561]]],[[[-75.68594,5.06516],[-75.68571,5.06527],[-75.68571,5.0655],[-75.68583,5.0655],[-75.68594,5.0655],[-75.68594,5.06527],[-75.68605,5.06527],[-75.68605,5.06516],[-75.68594,5.06516]]],[[[-75.68605,5.0647],[-75.68594,5.0647],[-75.68601,5.06485],[-75.68605,5.06504],[-75.68616,5.06504],[-75.68616,5.06493],[-75.68628,5.06493],[-75.68627,5.06482],[-75.68605,5.0647]]],[[[-75.68605,5.06459],[-75.68627,5.06459],[-75.68627,5.06482],[-75.68639,5.06482],[-75.68639,5.0647],[-75.68639,5.06459],[-75.68639,5.06436],[-75.68627,5.06436],[-75.68616,5.06436],[-75.68605,5.06436],[-75.68605,5.06448],[-75.68605,5.06459]]],[[[-75.68379,5.06449],[-75.68379,5.06471],[-75.68402,5.06471],[-75.68402,5.06449],[-75.68379,5.06449]]],[[[-75.68627,5.06425],[-75.68638,5.06425],[-75.68645,5.06397],[-75.68643,5.06385],[-75.68665,5.06369],[-75.68655,5.06349],[-75.68645,5.06364],[-75.68605,5.06391],[-75.68605,5.06403],[-75.68616,5.06403],[-75.68616,5.06414],[-75.68616,5.06425],[-75.68627,5.06425]]],[[[-75.68676,5.0636],[-75.68686,5.0635],[-75.68672,5.06346],[-75.68676,5.0636]]],[[[-75.68728,5.06323],[-75.68728,5.06334],[-75.68735,5.06334],[-75.68735,5.06334],[-75.68735,5.06334],[-75.68735,5.06333],[-75.68735,5.06333],[-75.68735,5.06333],[-75.68735,5.06332],[-75.68736,5.06332],[-75.68736,5.06332],[-75.68736,5.06331],[-75.68736,5.06331],[-75.68736,5.06331],[-75.68736,5.0633],[-75.68736,5.0633],[-75.68736,5.0633],[-75.68736,5.0633],[-75.68736,5.06329],[-75.68736,5.06329],[-75.68737,5.06329],[-75.68737,5.06328],[-75.68737,5.06328],[-75.68737,5.06328],[-75.68737,5.06327],[-75.68737,5.06327],[-75.68737,5.06327],[-75.68737,5.06326],[-75.68737,5.06326],[-75.68738,5.06326],[-75.68738,5.06325],[-75.68738,5.06325],[-75.68738,5.06325],[-75.68738,5.06325],[-75.68738,5.06324],[-75.68738,5.06324],[-75.68738,5.06324],[-75.68739,5.06323],[-75.68739,5.06323],[-75.68739,5.06323],[-75.68728,5.06323]]],[[[-75.68739,5.06312],[-75.68739,5.06321],[-75.6874,5.06321],[-75.6874,5.06321],[-75.6874,5.06321],[-75.6874,5.0632],[-75.6874,5.0632],[-75.6874,5.0632],[-75.6874,5.0632],[-75.68741,5.06319],[-75.68741,5.06319],[-75.68741,5.06319],[-75.68741,5.06318],[-75.68741,5.06318],[-75.68741,5.06318],[-75.68741,5.06318],[-75.68742,5.06317],[-75.68742,5.06317],[-75.68742,5.06317],[-75.68742,5.06316],[-75.68742,5.06316],[-75.68742,5.06316],[-75.68743,5.06316],[-75.68743,5.06315],[-75.68743,5.06315],[-75.68743,5.06315],[-75.68743,5.06314],[-75.68744,5.06314],[-75.68744,5.06314],[-75.68744,5.06314],[-75.68744,5.06313],[-75.68744,5.06313],[-75.68744,5.06313],[-75.68745,5.06313],[-75.68745,5.06312],[-75.68745,5.06312],[-75.68745,5.06312],[-75.68739,5.06312]]],[[[-75.68596,5.06202],[-75.68602,5.06196],[-75.68601,5.06195],[-75.68599,5.06195],[-75.68598,5.06195],[-75.68596,5.06195],[-75.68595,5.06195],[-75.68594,5.06195],[-75.68596,5.06202]]],[[[-75.67832,5.05983],[-75.67826,5.05987],[-75.67825,5.05988],[-75.67837,5.05988],[-75.67837,5.0598],[-75.67832,5.05983]]],[[[-75.67842,5.05976],[-75.67848,5.05976],[-75.67848,5.05973],[-75.67842,5.05976]]],[[[-75.67811,5.05231],[-75.67805,5.05231],[-75.67805,5.05233],[-75.67804,5.05238],[-75.67804,5.05242],[-75.67811,5.05242],[-75.67811,5.05231]]],[[[-75.67822,5.05219],[-75.67811,5.05219],[-75.67811,5.05231],[-75.67822,5.05231],[-75.67822,5.05219]]],[[[-75.67822,5.05219],[-75.67833,5.05219],[-75.67828,5.05205],[-75.67822,5.05219]]],[[[-75.67837,5.05199],[-75.67847,5.05189],[-75.67833,5.05185],[-75.67837,5.05199]]]]},"properties":{"FID":5,"OBJECTID":12,"SUELO":"Corredor Vial","Cat_Ame":"Media","Area_Ha":1.13141973835,"Shape_Leng":1702.14959819,"Shape_Area":11314.1973835}},{"type":"Feature","id":6,"geometry":{"type":"MultiPolygon","coordinates":[[[[-75.62517,5.00223],[-75.62505,5.00223],[-75.62494,5.00246],[-75.62494,5.00257],[-75.62506,5.00257],[-75.62517,5.00257],[-75.62528,5.00235],[-75.62517,5.00235],[-75.62517,5.00223]]],[[[-75.62381,5.00009],[-75.62381,4.99987],[-75.62358,4.99987],[-75.62358,4.99998],[-75.62358,5.00009],[-75.62369,5.00009],[-75.62381,5.00009]]]]},"properties":{"FID":6,"OBJECTID":13,"SUELO":"Suelo Suburbano","Cat_Ame":"Alta","Area_Ha":0.15625,"Shape_Leng":230.901699437,"Shape_Area":1562.5}},{"type":"Feature","id":7,"geometry":{"type":"MultiPolygon","coordinates":[[[[-75.62492,5.00261],[-75.62493,5.00269],[-75.62494,5.00281],[-75.62495,5.00285],[-75.62501,5.00275],[-75.62506,5.00257],[-75.62494,5.00257],[-75.62492,5.00261]]],[[[-75.62517,5.00223],[-75.62517,5.00235],[-75.62528,5.00235],[-75.62528,5.00223],[-75.62522,5.00209],[-75.62517,5.00223]]],[[[-75.62517,5.00178],[-75.6252,5.00192],[-75.6253,5.00182],[-75.62517,5.00178]]],[[[-75.62505,5.00156],[-75.62505,5.00178],[-75.62517,5.00178],[-75.62516,5.00156],[-75.62505,5.00156]]],[[[-75.62494,5.00144],[-75.62494,5.00156],[-75.62505,5.00156],[-75.62505,5.00144],[-75.62494,5.00144]]],[[[-75.6246,5.00133],[-75.6246,5.00144],[-75.62494,5.00144],[-75.62494,5.00133],[-75.6246,5.00133]]],[[[-75.62449,5.00122],[-75.62449,5.00133],[-75.6246,5.00133],[-75.6246,5.00122],[-75.62449,5.00122]]],[[[-75.62437,5.00088],[-75.62437,5.00122],[-75.62449,5.00122],[-75.6246,5.00099],[-75.62437,5.00088]]],[[[-75.62437,5.00088],[-75.62433,5.00074],[-75.62424,5.00084],[-75.62437,5.00088]]],[[[-75.62373,5.00068],[-75.62383,5.00058],[-75.6237,5.00054],[-75.62373,5.00068]]],[[[-75.62381,5.00032],[-75.62385,5.00046],[-75.62394,5.00036],[-75.62381,5.00032]]],[[[-75.62369,5.00009],[-75.62369,5.00032],[-75.62381,5.00032],[-75.62381,5.00009],[-75.62369,5.00009]]]]},"properties":{"FID":7,"OBJECTID":14,"SUELO":"Suelo Suburbano","Cat_Ame":"Media","Area_Ha":0.298643806894,"Shape_Leng":794.028383509,"Shape_Area":2986.43806894}},{"type":"Feature","id":8,"geometry":{"type":"MultiPolygon","coordinates":[[[[-75.68426,5.09658],[-75.68427,5.0968],[-75.68438,5.0968],[-75.68438,5.09658],[-75.68426,5.09658]]],[[[-75.69523,5.07698],[-75.69533,5.07718],[-75.69542,5.07713],[-75.69545,5.07698],[-75.69523,5.07698]]],[[[-75.69512,5.07698],[-75.69511,5.07687],[-75.69511,5.07664],[-75.69489,5.07665],[-75.69489,5.07687],[-75.69512,5.07698]]],[[[-75.69544,5.07593],[-75.69538,5.07595],[-75.69539,5.07599],[-75.69548,5.07604],[-75.69545,5.07593],[-75.69544,5.07593]]],[[[-75.69341,5.07281],[-75.6933,5.07303],[-75.69358,5.07319],[-75.69363,5.07292],[-75.69363,5.07281],[-75.69341,5.07281]]],[[[-75.68811,5.0717],[-75.68799,5.0717],[-75.68785,5.072],[-75.68794,5.07242],[-75.688,5.07215],[-75.68799,5.07204],[-75.68811,5.07204],[-75.68811,5.0717]]],[[[-75.68811,5.07148],[-75.68811,5.0717],[-75.68822,5.0717],[-75.68822,5.07159],[-75.68833,5.07159],[-75.68833,5.07147],[-75.68844,5.07147],[-75.68844,5.07136],[-75.68844,5.07125],[-75.68844,5.07102],[-75.68822,5.07102],[-75.68822,5.07114],[-75.68837,5.07126],[-75.68811,5.07148]]],[[[-75.69036,5.0709],[-75.69041,5.07115],[-75.69058,5.07124],[-75.6907,5.07124],[-75.69058,5.07101],[-75.69036,5.0709]]],[[[-75.69194,5.07112],[-75.69194,5.07123],[-75.69205,5.07123],[-75.69205,5.07112],[-75.69194,5.07112]]],[[[-75.69092,5.07101],[-75.69103,5.07117],[-75.69115,5.07101],[-75.69092,5.07101]]],[[[-75.69148,5.07101],[-75.69154,5.07115],[-75.6916,5.07101],[-75.69148,5.07101]]],[[[-75.69182,5.07101],[-75.69182,5.07112],[-75.69194,5.07112],[-75.69193,5.07101],[-75.69182,5.07101]]],[[[-75.69205,5.07101],[-75.69205,5.07112],[-75.6925,5.07112],[-75.6925,5.07055],[-75.6925,5.07044],[-75.6925,5.07033],[-75.6925,5.07021],[-75.69261,5.07021],[-75.69261,5.0701],[-75.69272,5.0701],[-75.69272,5.07003],[-75.6926,5.07006],[-75.69251,5.07009],[-75.69249,5.07009],[-75.69249,5.0701],[-75.69243,5.0701],[-75.69238,5.07011],[-75.69238,5.07021],[-75.69227,5.07022],[-75.69201,5.07027],[-75.69216,5.07055],[-75.69227,5.07055],[-75.69242,5.07061],[-75.69227,5.07067],[-75.69222,5.07092],[-75.69205,5.07101]]],[[[-75.6882,5.07091],[-75.6881,5.07091],[-75.6881,5.07102],[-75.68822,5.07102],[-75.68822,5.07091],[-75.6882,5.07091],[-75.6882,5.07091]]],[[[-75.69024,5.07079],[-75.69024,5.0709],[-75.69036,5.0709],[-75.69036,5.07079],[-75.69024,5.07079]]],[[[-75.68788,5.07057],[-75.68799,5.07057],[-75.68799,5.0708],[-75.68819,5.0708],[-75.68818,5.07079],[-75.68818,5.07077],[-75.68818,5.07075],[-75.68818,5.07074],[-75.68818,5.07071],[-75.68818,5.07069],[-75.68817,5.07064],[-75.68817,5.07062],[-75.68817,5.07052],[-75.68817,5.07046],[-75.6881,5.07046],[-75.68799,5.07046],[-75.68788,5.07046],[-75.68788,5.07057]]],[[[-75.69024,5.07079],[-75.69024,5.07056],[-75.69008,5.07048],[-75.69003,5.07048],[-75.69001,5.07048],[-75.68991,5.0707],[-75.69024,5.07079]]]]},"properties":{"FID":8,"OBJECTID":15,"SUELO":"Suelo Suburbano","Cat_Ame":"Alta","Area_Ha":1.27816838321,"Shape_Leng":1984.91500118,"Shape_Area":12781.6838321}},{"type":"Feature","id":9,"geometry":{"type":"MultiPolygon","coordinates":[[[[-75.67461,5.08585],[-75.67487,5.086],[-75.67498,5.08599],[-75.67498,5.08577],[-75.67498,5.08566],[-75.67487,5.08566],[-75.67487,5.08554],[-75.67475,5.08554],[-75.67461,5.08585]]],[[[-75.69512,5.07698],[-75.69504,5.07713],[-75.69489,5.07721],[-75.69489,5.07732],[-75.69499,5.07732],[-75.69499,5.07732],[-75.69525,5.07721],[-75.69533,5.07718],[-75.69523,5.07698],[-75.69512,5.07698]]],[[[-75.68822,5.07114],[-75.6881,5.07114],[-75.68811,5.07148],[-75.68837,5.07126],[-75.68822,5.07114]]],[[[-75.68844,5.07102],[-75.68844,5.07125],[-75.68856,5.07125],[-75.68855,5.07102],[-75.68844,5.07102]]],[[[-75.69058,5.07101],[-75.6907,5.07124],[-75.69103,5.07124],[-75.6916,5.07123],[-75.69171,5.07123],[-75.69182,5.07123],[-75.69194,5.07123],[-75.69194,5.07112],[-75.69182,5.07112],[-75.69182,5.07101],[-75.6916,5.07101],[-75.69154,5.07115],[-75.69148,5.07101],[-75.69115,5.07101],[-75.69103,5.07117],[-75.69092,5.07101],[-75.69058,5.07101]]],[[[-75.69193,5.07101],[-75.69194,5.07112],[-75.69205,5.07112],[-75.69205,5.07101],[-75.69193,5.07101]]],[[[-75.68799,5.0708],[-75.68799,5.07102],[-75.6881,5.07102],[-75.6881,5.07091],[-75.6882,5.07091],[-75.68819,5.07082],[-75.68819,5.0708],[-75.68799,5.0708]]],[[[-75.68822,5.07091],[-75.68822,5.07102],[-75.68844,5.07102],[-75.68844,5.07091],[-75.68844,5.07087],[-75.68843,5.07087],[-75.68839,5.07089],[-75.68834,5.07091],[-75.68823,5.07092],[-75.68822,5.07091]]],[[[-75.69419,5.07089],[-75.69408,5.07089],[-75.69412,5.07099],[-75.69415,5.07095],[-75.69416,5.07095],[-75.69416,5.07095],[-75.69416,5.07095],[-75.69416,5.07095],[-75.69417,5.07093],[-75.69419,5.07089]]],[[[-75.69419,5.07089],[-75.69421,5.07089],[-75.69423,5.07086],[-75.69425,5.07082],[-75.69427,5.07077],[-75.69419,5.07077],[-75.69419,5.07089]]],[[[-75.68788,5.07057],[-75.68788,5.0708],[-75.68799,5.0708],[-75.68799,5.07057],[-75.68788,5.07057]]],[[[-75.6943,5.07066],[-75.6943,5.07068],[-75.6943,5.07066],[-75.69431,5.07066],[-75.6943,5.07066]]],[[[-75.69227,5.07055],[-75.69227,5.07067],[-75.69242,5.07061],[-75.69227,5.07055]]],[[[-75.6881,5.07046],[-75.68804,5.07031],[-75.68799,5.07046],[-75.6881,5.07046]]],[[[-75.69261,5.07021],[-75.6925,5.07021],[-75.6925,5.07033],[-75.69261,5.07033],[-75.69261,5.07021]]],[[[-75.69272,5.0701],[-75.69261,5.0701],[-75.69261,5.07021],[-75.69272,5.07021],[-75.69272,5.0701]]],[[[-75.69272,5.07003],[-75.69272,5.0701],[-75.69283,5.0701],[-75.69283,5.07],[-75.69272,5.07003]]],[[[-75.69288,5.06999],[-75.69294,5.06999],[-75.69294,5.06997],[-75.69288,5.06999]]],[[[-75.69316,5.06987],[-75.69317,5.06987],[-75.69317,5.06987],[-75.69316,5.06987]]],[[[-75.69378,5.06966],[-75.69354,5.06972],[-75.6935,5.06974],[-75.69343,5.06976],[-75.69342,5.06976],[-75.69334,5.06978],[-75.69329,5.06981],[-75.69334,5.06982],[-75.69373,5.06976],[-75.69378,5.06965],[-75.69378,5.06966]]]]},"properties":{"FID":9,"OBJECTID":16,"SUELO":"Suelo Suburbano","Cat_Ame":"Media","Area_Ha":0.885498548099,"Shape_Leng":1623.19981572,"Shape_Area":8854.98548099}},{"type":"Feature","id":10,"geometry":{"type":"MultiPolygon","coordinates":[[[[-75.63331,5.0218],[-75.63336,5.02183],[-75.63344,5.0219],[-75.63351,5.02168],[-75.63358,5.02164],[-75.63342,5.02142],[-75.63331,5.0218]]],[[[-75.63362,5.02144],[-75.63372,5.02134],[-75.63358,5.0213],[-75.63362,5.02144]]],[[[-75.6245,5.00348],[-75.62445,5.00348],[-75.6245,5.0035],[-75.6245,5.00348]]],[[[-75.62492,5.00261],[-75.62487,5.00272],[-75.62472,5.0028],[-75.62472,5.00303],[-75.62461,5.00303],[-75.62461,5.00325],[-75.6245,5.00325],[-75.6245,5.00348],[-75.62461,5.00348],[-75.62461,5.00337],[-75.62472,5.00336],[-75.62479,5.0031],[-75.62495,5.00285],[-75.62494,5.00281],[-75.62493,5.00269],[-75.62492,5.00261]]],[[[-75.63046,5.00221],[-75.63035,5.00221],[-75.63035,5.00233],[-75.63035,5.00244],[-75.63058,5.00244],[-75.63058,5.00221],[-75.63046,5.00221]]]]},"properties":{"FID":10,"OBJECTID":17,"SUELO":"Suelo Suburbano","Cat_Ame":"Media","Area_Ha":0.313249872384,"Shape_Leng":544.339839873,"Shape_Area":3132.49872384}},{"type":"Feature","id":11,"geometry":{"type":"MultiPolygon","coordinates":[[[[-75.63513,5.0389],[-75.63514,5.0389],[-75.63516,5.03889],[-75.63522,5.03889],[-75.63523,5.03889],[-75.63523,5.03881],[-75.63505,5.03872],[-75.63497,5.03887],[-75.63513,5.0389]]],[[[-75.64332,5.03267],[-75.64316,5.03279],[-75.64332,5.0329],[-75.64332,5.03279],[-75.64343,5.03278],[-75.64343,5.03267],[-75.64332,5.03267]]],[[[-75.64061,5.03201],[-75.64061,5.03212],[-75.64073,5.03212],[-75.64073,5.032],[-75.64061,5.03201]]],[[[-75.6459,5.02905],[-75.6459,5.02938],[-75.64601,5.02938],[-75.64601,5.02905],[-75.6459,5.02905]]]]},"properties":{"FID":11,"OBJECTID":18,"SUELO":"Vivienda Campestre","Cat_Ame":"Alta","Area_Ha":0.137117428773,"Shape_Leng":323.136689857,"Shape_Area":1371.17428773}},{"type":"Feature","id":12,"geometry":{"type":"MultiPolygon","coordinates":[[[[-75.64388,5.03256],[-75.64388,5.03267],[-75.644,5.03267],[-75.64414,5.03261],[-75.644,5.03256],[-75.64388,5.03256]]],[[[-75.64061,5.03212],[-75.64067,5.03226],[-75.64073,5.03212],[-75.64061,5.03212]]],[[[-75.64073,5.032],[-75.64072,5.03189],[-75.64061,5.03189],[-75.64061,5.03201],[-75.64073,5.032]]],[[[-75.64421,5.03041],[-75.64421,5.03063],[-75.64455,5.03063],[-75.64455,5.03041],[-75.64444,5.03041],[-75.64444,5.03029],[-75.64421,5.03041]]]]},"properties":{"FID":12,"OBJECTID":19,"SUELO":"Vivienda Campestre","Cat_Ame":"Media","Area_Ha":0.160636875,"Shape_Leng":309.195780034,"Shape_Area":1606.36875}},{"type":"Feature","id":13,"geometry":{"type":"MultiPolygon","coordinates":[[[[-75.67844,5.10553],[-75.67833,5.10553],[-75.67833,5.10564],[-75.67833,5.10587],[-75.67856,5.10587],[-75.67856,5.10576],[-75.67867,5.10576],[-75.67855,5.10553],[-75.67844,5.10553]]],[[[-75.67874,5.10493],[-75.67867,5.10508],[-75.67905,5.10523],[-75.67889,5.10485],[-75.67874,5.10493]]],[[[-75.68276,5.10463],[-75.68286,5.10453],[-75.68272,5.1045],[-75.68276,5.10463]]],[[[-75.68238,5.10461],[-75.68261,5.10461],[-75.68249,5.10445],[-75.68238,5.10461]]],[[[-75.68182,5.10439],[-75.68182,5.10427],[-75.68159,5.10416],[-75.68159,5.1045],[-75.68171,5.1045],[-75.68171,5.10439],[-75.68182,5.10439]]],[[[-75.68182,5.10439],[-75.68182,5.1045],[-75.68204,5.1045],[-75.68204,5.10439],[-75.68193,5.10439],[-75.68182,5.10439]]],[[[-75.68058,5.10428],[-75.68063,5.10442],[-75.68069,5.10428],[-75.68058,5.10428]]],[[[-75.68137,5.10416],[-75.68137,5.10439],[-75.68148,5.10439],[-75.68148,5.10416],[-75.68137,5.10416]]],[[[-75.68112,5.09863],[-75.68101,5.09863],[-75.68101,5.09874],[-75.68089,5.09874],[-75.68089,5.09885],[-75.68123,5.09885],[-75.68123,5.09863],[-75.68112,5.09863]]]]},"properties":{"FID":13,"OBJECTID":20,"SUELO":"Vivienda Campestre","Cat_Ame":"Media","Area_Ha":0.440108130253,"Shape_Leng":821.827061324,"Shape_Area":4401.08130253}}]}